{
  "ts_utc": "2026-03-16T12:47:15Z",
  "threshold_m": 150,
  "source": "stations_override.txt (ICAO list) + aviationweather.gov (METAR/TAF raw)",
  "station_count": 159,
  "stations": [
    {
      "icao": "BIKF",
      "alert": "OK",
      "vis_m": 9999,
      "fzfg": false,
      "metar_trigger": false,
      "taf_trigger": false,
      "metar": "METAR BIKF 161230Z 04015KT CAVOK 02/M02 Q0984",
      "taf": "TAF BIKF 161032Z 1612/1712 03020KT 9999 FEW035 TX02/1615Z TN00/1712Z"
    },
    {
      "icao": "BKPR",
      "alert": "OK",
      "vis_m": 9999,
      "fzfg": false,
      "metar_trigger": false,
      "taf_trigger": false,
      "metar": "METAR BKPR 161230Z 12003KT 040V200 9999 FEW050 15/01 Q1014 NOSIG",
      "taf": "TAF BKPR 161130Z 1612/1712 04008KT 9999 FEW050"
    },
    {
      "icao": "EBCI",
      "alert": "OK",
      "vis_m": 9999,
      "fzfg": false,
      "metar_trigger": false,
      "taf_trigger": false,
      "metar": "METAR EBCI 161220Z 26008KT 240V300 9999 SCT036 10/02 Q1017 NOSIG",
      "taf": "TAF EBCI 161115Z 1612/1718 27009KT 9999 SCT030"
    },
    {
      "icao": "EDDB",
      "alert": "OK",
      "vis_m": 9999,
      "fzfg": false,
      "metar_trigger": false,
      "taf_trigger": false,
      "metar": "METAR EDDB 161220Z AUTO 23012KT 9999 SHRA SCT012 BKN022 BKN030 FEW///CB 06/05 Q1011 TEMPO 26015G25KT NSW BKN011",
      "taf": "TAF EDDB 161100Z 1612/1712 26015G25KT 9999 SCT012 BKN025"
    },
    {
      "icao": "EDDH",
      "alert": "OK",
      "vis_m": 9999,
      "fzfg": false,
      "metar_trigger": false,
      "taf_trigger": false,
      "metar": "METAR EDDH 161220Z AUTO 29018KT 9999 FEW030 SCT037 08/01 Q1010 TEMPO 29015G25KT SHRA BKN020CB",
      "taf": ""
    },
    {
      "icao": "EDDK",
      "alert": "OK",
      "vis_m": 9999,
      "fzfg": false,
      "metar_trigger": false,
      "taf_trigger": false,
      "metar": "METAR EDDK 161220Z AUTO 26015KT 9999 VCSH FEW041 FEW///TCU 08/02 Q1016 RESHRA TEMPO 27015G25KT SHRA",
      "taf": "TAF EDDK 161100Z 1612/1718 27011KT 9999 BKN030"
    },
    {
      "icao": "EDDN",
      "alert": "OK",
      "vis_m": 9999,
      "fzfg": false,
      "metar_trigger": false,
      "taf_trigger": false,
      "metar": "METAR EDDN 161220Z AUTO 26014G29KT 9999 VCSH FEW024 BKN031 BKN039 FEW///CB 09/03 Q1015 RESHRA TEMPO SHRA",
      "taf": ""
    },
    {
      "icao": "EDDS",
      "alert": "OK",
      "vis_m": 9999,
      "fzfg": false,
      "metar_trigger": false,
      "taf_trigger": false,
      "metar": "METAR EDDS 161220Z AUTO 25014G24KT 200V280 9999 BKN040 BKN048 09/00 Q1016 NOSIG",
      "taf": "TAF EDDS 161100Z 1612/1712 25011KT 9999 SCT030"
    },
    {
      "icao": "EDFH",
      "alert": "OK",
      "vis_m": 9999,
      "fzfg": false,
      "metar_trigger": false,
      "taf_trigger": false,
      "metar": "METAR EDFH 161220Z 26018KT 9999 FEW021 SCT047TCU 07/01 Q1016",
      "taf": "TAF EDFH 161100Z 1612/1712 27015G25KT 9999 SCT025"
    },
    {
      "icao": "EDJA",
      "alert": "OK",
      "vis_m": 9999,
      "fzfg": false,
      "metar_trigger": false,
      "taf_trigger": false,
      "metar": "METAR EDJA 161220Z 24017G28KT 9999 BKN028 OVC042 06/M00 Q1018",
      "taf": "TAF EDJA 161100Z 1612/1621 22015G25KT 9999 OVC030"
    },
    {
      "icao": "EDLW",
      "alert": "OK",
      "vis_m": 9999,
      "fzfg": false,
      "metar_trigger": false,
      "taf_trigger": false,
      "metar": "METAR EDLW 161220Z 27010G21KT 230V330 9999 SCT037 08/02 Q1014",
      "taf": "TAF EDLW 161100Z 1612/1712 25013KT 9999 BKN020"
    },
    {
      "icao": "EDNY",
      "alert": "OK",
      "vis_m": 9999,
      "fzfg": false,
      "metar_trigger": false,
      "taf_trigger": false,
      "metar": "METAR EDNY 161220Z 26008KT 240V320 9999 OVC039 08/00 Q1020",
      "taf": "TAF EDNY 161100Z 1612/1621 25011KT 9999 SCT045"
    },
    {
      "icao": "EDSB",
      "alert": "OK",
      "vis_m": 9999,
      "fzfg": false,
      "metar_trigger": false,
      "taf_trigger": false,
      "metar": "METAR EDSB 161220Z 20015KT 9999 VCSH BKN040 OVC048TCU 09/03 Q1018",
      "taf": "TAF EDSB 161100Z 1612/1712 22012KT 9999 SCT030"
    },
    {
      "icao": "EETN",
      "alert": "OK",
      "vis_m": 9999,
      "fzfg": false,
      "metar_trigger": false,
      "taf_trigger": false,
      "metar": "METAR EETN 161220Z 11004KT 9999 -RA SCT010 OVC013 05/03 Q1015 NOSIG",
      "taf": "TAF EETN 161130Z 1612/1712 13005KT 9999 OVC010"
    },
    {
      "icao": "EFTU",
      "alert": "OK",
      "vis_m": 9999,
      "fzfg": false,
      "metar_trigger": false,
      "taf_trigger": false,
      "metar": "METAR EFTU 161220Z AUTO 19008KT 9999 OVC030 05/00 Q1013",
      "taf": "TAF EFTU 161131Z 1612/1712 19007KT 9999 BKN030"
    },
    {
      "icao": "EGBB",
      "alert": "OK",
      "vis_m": 9999,
      "fzfg": false,
      "metar_trigger": false,
      "taf_trigger": false,
      "metar": "METAR EGBB 161220Z 22009KT 190V250 9999 BKN029 10/04 Q1014",
      "taf": "TAF EGBB 161100Z 1612/1712 21009KT 9999 FEW015 SCT025"
    },
    {
      "icao": "EGGP",
      "alert": "OK",
      "vis_m": 9999,
      "fzfg": false,
      "metar_trigger": false,
      "taf_trigger": false,
      "metar": "METAR EGGP 161220Z 23013KT 9999 FEW034 BKN041 10/04 Q1012",
      "taf": "TAF EGGP 161057Z 1612/1712 25012KT 9999 SCT030"
    },
    {
      "icao": "EGGW",
      "alert": "OK",
      "vis_m": 9999,
      "fzfg": false,
      "metar_trigger": false,
      "taf_trigger": false,
      "metar": "METAR EGGW 161220Z 24013KT 9999 FEW025 10/04 Q1015",
      "taf": "TAF EGGW 161102Z 1612/1712 24012KT 9999 FEW020 SCT030"
    },
    {
      "icao": "EGKK",
      "alert": "OK",
      "vis_m": 9999,
      "fzfg": false,
      "metar_trigger": false,
      "taf_trigger": false,
      "metar": "METAR EGKK 161220Z 25012KT 9999 SCT027 11/05 Q1017",
      "taf": "TAF EGKK 161055Z 1612/1718 24012KT 9999 FEW020"
    },
    {
      "icao": "EGNM",
      "alert": "OK",
      "vis_m": 9999,
      "fzfg": false,
      "metar_trigger": false,
      "taf_trigger": false,
      "metar": "METAR EGNM 161150Z 23011G21KT 200V260 9999 SCT026 SCT031 07/03 Q1010",
      "taf": "TAF EGNM 161104Z 1612/1712 23010KT 9999 SCT015"
    },
    {
      "icao": "EGPD",
      "alert": "OK",
      "vis_m": 9999,
      "fzfg": false,
      "metar_trigger": false,
      "taf_trigger": false,
      "metar": "METAR EGPD 161220Z COR AUTO 19016KT 9999 NCD 08/02 Q1002 NOSIG",
      "taf": "TAF EGPD 161058Z 1612/1712 21012KT 9999 FEW030"
    },
    {
      "icao": "EGPF",
      "alert": "OK",
      "vis_m": 9999,
      "fzfg": false,
      "metar_trigger": false,
      "taf_trigger": false,
      "metar": "METAR EGPF 161220Z AUTO 21019KT 9999 SCT018 BKN037 09/06 Q1005",
      "taf": "TAF EGPF 161058Z 1612/1712 22012KT 9999 FEW020 SCT030"
    },
    {
      "icao": "EHBK",
      "alert": "OK",
      "vis_m": 9999,
      "fzfg": false,
      "metar_trigger": false,
      "taf_trigger": false,
      "metar": "METAR EHBK 161225Z AUTO 25010KT 210V300 9999 NSC 08/04 Q1016 TEMPO 7000 -SHRA FEW020TCU",
      "taf": "TAF EHBK 161118Z 1612/1718 27010KT 9999 SCT030"
    },
    {
      "icao": "EHEH",
      "alert": "OK",
      "vis_m": 9999,
      "fzfg": false,
      "metar_trigger": false,
      "taf_trigger": false,
      "metar": "METAR EHEH 161225Z AUTO 28011KT 230V340 9999 FEW037 SCT096 OVC180 10/01 Q1016 BLU NOSIG RMK TREND REMOTE BY EHWX",
      "taf": "TAF EHEH 161107Z 1612/1718 28008KT 9999 SCT028 BKN035"
    },
    {
      "icao": "EKBI",
      "alert": "OK",
      "vis_m": 9999,
      "fzfg": false,
      "metar_trigger": false,
      "taf_trigger": false,
      "metar": "METAR EKBI 161220Z AUTO 28014KT 9999 FEW039/// SCT043/// 07/02 Q1007",
      "taf": "TAF EKBI 161127Z 1612/1712 28012KT 9999 SCT020"
    },
    {
      "icao": "EKCH",
      "alert": "OK",
      "vis_m": 9999,
      "fzfg": false,
      "metar_trigger": false,
      "taf_trigger": false,
      "metar": "METAR EKCH 161220Z AUTO 17011KT 9999 -RA OVC024/// 05/03 Q1007 BECMG BKN012",
      "taf": "TAF EKCH 161127Z 1612/1712 16015KT 9999 BKN020"
    },
    {
      "icao": "ENAL",
      "alert": "OK",
      "vis_m": 9999,
      "fzfg": false,
      "metar_trigger": false,
      "taf_trigger": false,
      "metar": "METAR ENAL 161220Z 20014KT 9999 FEW055 09/M00 Q0997",
      "taf": "TAF ENAL 161100Z 1612/1621 20015KT 9999 FEW040"
    },
    {
      "icao": "ENBR",
      "alert": "OK",
      "vis_m": 9999,
      "fzfg": false,
      "metar_trigger": false,
      "taf_trigger": false,
      "metar": "METAR ENBR 161220Z 18014KT 9999 VCSH FEW012CB BKN022 06/03 Q1001 NOSIG RMK WIND 1200FT 20016KT",
      "taf": "TAF ENBR 161100Z 1612/1712 16015KT 9999 FEW015TCU BKN025"
    },
    {
      "icao": "ENGM",
      "alert": "OK",
      "vis_m": 9000,
      "fzfg": false,
      "metar_trigger": false,
      "taf_trigger": false,
      "metar": "METAR ENGM 161220Z 18014KT 9000 -RADZ FEW004 BKN006 02/01 Q1002 TEMPO 4000 -RADZ BR BKN004",
      "taf": "TAF ENGM 161100Z 1612/1712 16010KT 9000 -RA OVC005"
    },
    {
      "icao": "ENHD",
      "alert": "OK",
      "vis_m": 9999,
      "fzfg": false,
      "metar_trigger": false,
      "taf_trigger": false,
      "metar": "METAR ENHD 161220Z 19012KT 9999 SCT025 07/03 Q1002",
      "taf": "TAF ENHD 161100Z 1612/1621 18012KT 9999 FEW012 SCT030"
    },
    {
      "icao": "ENTC",
      "alert": "OK",
      "vis_m": 9999,
      "fzfg": false,
      "metar_trigger": false,
      "taf_trigger": false,
      "metar": "METAR ENTC 161220Z 26003KT 200V330 CAVOK 04/M04 Q0998 NOSIG RMK WIND 2600FT 18024KT",
      "taf": "TAF ENTC 161100Z 1612/1712 24008KT CAVOK"
    },
    {
      "icao": "ENTO",
      "alert": "OK",
      "vis_m": 1100,
      "fzfg": false,
      "metar_trigger": false,
      "taf_trigger": false,
      "metar": "METAR ENTO 161220Z 18011KT 1100 R18/1500D R36/1900D BR VV003 03/03 Q1003 TEMPO 0500 FG VV001",
      "taf": "TAF ENTO 161100Z 1612/1712 18008KT 4000 -DZ BR OVC003"
    },
    {
      "icao": "ENVA",
      "alert": "OK",
      "vis_m": 9999,
      "fzfg": false,
      "metar_trigger": false,
      "taf_trigger": false,
      "metar": "METAR ENVA 161220Z 14008KT CAVOK 09/M01 Q0997 NOSIG RMK WIND 670FT 15009KT",
      "taf": "TAF ENVA 161100Z 1612/1712 13007KT CAVOK"
    },
    {
      "icao": "ENZV",
      "alert": "OK",
      "vis_m": 9999,
      "fzfg": false,
      "metar_trigger": false,
      "taf_trigger": false,
      "metar": "METAR ENZV 161220Z 22012KT 9999 FEW028 08/01 Q1003 NOSIG",
      "taf": "TAF ENZV 161100Z 1612/1712 23010KT 9999 FEW015 BKN020"
    },
    {
      "icao": "EPGD",
      "alert": "OK",
      "vis_m": 9999,
      "fzfg": false,
      "metar_trigger": false,
      "taf_trigger": false,
      "metar": "METAR EPGD 161230Z 15006KT 9999 -RA SCT005 BKN008 04/03 Q1011",
      "taf": "TAF EPGD 161130Z 1612/1712 15008KT 9999 BKN010"
    },
    {
      "icao": "EPKK",
      "alert": "OK",
      "vis_m": 9999,
      "fzfg": false,
      "metar_trigger": false,
      "taf_trigger": false,
      "metar": "METAR EPKK 161230Z 26015KT 9999 BKN030 12/04 Q1013",
      "taf": "TAF EPKK 161130Z 1612/1712 26012KT 9999 SCT025"
    },
    {
      "icao": "EPKT",
      "alert": "OK",
      "vis_m": 9999,
      "fzfg": false,
      "metar_trigger": false,
      "taf_trigger": false,
      "metar": "METAR EPKT 161230Z 24013KT 220V280 9999 -RA FEW004 BKN019 08/05 Q1014",
      "taf": "TAF EPKT 161130Z 1612/1712 23012KT 9999 BKN020"
    },
    {
      "icao": "EPLB",
      "alert": "OK",
      "vis_m": 9999,
      "fzfg": false,
      "metar_trigger": false,
      "taf_trigger": false,
      "metar": "METAR EPLB 161230Z 19009KT CAVOK 13/02 Q1013",
      "taf": ""
    },
    {
      "icao": "EPMO",
      "alert": "OK",
      "vis_m": 9999,
      "fzfg": false,
      "metar_trigger": false,
      "taf_trigger": false,
      "metar": "METAR EPMO 161230Z 19008KT 150V240 CAVOK 12/01 Q1012",
      "taf": "TAF EPMO 161130Z 1612/1712 17007KT 9999 NSC"
    },
    {
      "icao": "EPPO",
      "alert": "OK",
      "vis_m": 9999,
      "fzfg": false,
      "metar_trigger": false,
      "taf_trigger": false,
      "metar": "METAR EPPO 161230Z 20008KT 190V250 9999 FEW020 SCT043 09/04 Q1011",
      "taf": "TAF EPPO 161130Z 1612/1712 22010KT 9999 BKN007"
    },
    {
      "icao": "EPRA",
      "alert": "OK",
      "vis_m": 9999,
      "fzfg": false,
      "metar_trigger": false,
      "taf_trigger": false,
      "metar": "METAR EPRA 161230Z 22004KT 130V300 CAVOK 12/M01 Q1012",
      "taf": "TAF EPRA 161130Z 1612/1621 18006KT CAVOK"
    },
    {
      "icao": "EPRZ",
      "alert": "OK",
      "vis_m": 9999,
      "fzfg": false,
      "metar_trigger": false,
      "taf_trigger": false,
      "metar": "METAR EPRZ 161230Z 23009KT 210V270 CAVOK 16/M03 Q1013",
      "taf": "TAF EPRZ 161130Z 1612/1712 22010KT CAVOK"
    },
    {
      "icao": "EPSC",
      "alert": "OK",
      "vis_m": 9999,
      "fzfg": false,
      "metar_trigger": false,
      "taf_trigger": false,
      "metar": "METAR EPSC 161230Z 16012KT 9999 -SHRA SCT025CB BKN029 08/03 Q1009",
      "taf": "TAF EPSC 161130Z 1612/1712 15010KT 9999 BKN030"
    },
    {
      "icao": "EPSY",
      "alert": "OK",
      "vis_m": 9999,
      "fzfg": false,
      "metar_trigger": false,
      "taf_trigger": false,
      "metar": "METAR EPSY 161230Z 18010KT 130V220 CAVOK 12/M01 Q1012",
      "taf": "TAF EPSY 161130Z 1612/1621 16010KT 9999 SCT040"
    },
    {
      "icao": "EPWA",
      "alert": "OK",
      "vis_m": 9999,
      "fzfg": false,
      "metar_trigger": false,
      "taf_trigger": false,
      "metar": "METAR EPWA 161230Z 20006KT 170V230 CAVOK 12/M01 Q1012 NOSIG",
      "taf": "TAF EPWA 161130Z 1612/1712 17007KT 9999 NSC"
    },
    {
      "icao": "EPWR",
      "alert": "OK",
      "vis_m": 9999,
      "fzfg": false,
      "metar_trigger": false,
      "taf_trigger": false,
      "metar": "METAR EPWR 161230Z 22009KT 9999 FEW033 10/02 Q1013",
      "taf": "TAF EPWR 161130Z 1612/1712 22010KT 9999 BKN040"
    },
    {
      "icao": "ESGG",
      "alert": "OK",
      "vis_m": 9999,
      "fzfg": false,
      "metar_trigger": false,
      "taf_trigger": false,
      "metar": "METAR ESGG 161220Z 19012KT 9999 DZ BKN015 04/01 Q1006",
      "taf": "TAF ESGG 161130Z 1612/1712 18012KT 9999 -RA BKN016"
    },
    {
      "icao": "ESKN",
      "alert": "OK",
      "vis_m": 5000,
      "fzfg": false,
      "metar_trigger": false,
      "taf_trigger": false,
      "metar": "METAR ESKN 161220Z 16012KT 5000 BR OVC003 03/03 Q1010",
      "taf": "TAF ESKN 161130Z 1612/1712 16010KT 9999 SCT006"
    },
    {
      "icao": "ESMS",
      "alert": "OK",
      "vis_m": 9999,
      "fzfg": false,
      "metar_trigger": false,
      "taf_trigger": false,
      "metar": "METAR ESMS 161220Z 16011KT 9999 BKN014 06/03 Q1007",
      "taf": "TAF ESMS 161127Z 1612/1712 16012KT 9999 SCT010"
    },
    {
      "icao": "ESSA",
      "alert": "OK",
      "vis_m": 9999,
      "fzfg": false,
      "metar_trigger": false,
      "taf_trigger": false,
      "metar": "METAR ESSA 161220Z 19015KT 9999 FEW028 SCT034 06/01 Q1010 NOSIG",
      "taf": "TAF ESSA 161130Z 1612/1712 17010KT 9999 FEW025"
    },
    {
      "icao": "EYKA",
      "alert": "OK",
      "vis_m": 9999,
      "fzfg": false,
      "metar_trigger": false,
      "taf_trigger": false,
      "metar": "METAR EYKA 161220Z 15013KT 120V190 CAVOK 14/M02 Q1014",
      "taf": "TAF EYKA 161100Z 1612/1712 15010KT 8000 SCT045"
    },
    {
      "icao": "EYPA",
      "alert": "OK",
      "vis_m": 9999,
      "fzfg": false,
      "metar_trigger": false,
      "taf_trigger": false,
      "metar": "METAR EYPA 161220Z VRB02KT 9999 -RA FEW003 OVC013 03/03 Q1013",
      "taf": "TAF EYPA 161100Z 1612/1712 VRB04KT 5000 BR BKN005 OVC010"
    },
    {
      "icao": "EYVI",
      "alert": "OK",
      "vis_m": 9999,
      "fzfg": false,
      "metar_trigger": false,
      "taf_trigger": false,
      "metar": "METAR EYVI 161220Z 16014KT 120V190 CAVOK 13/M02 Q1015 NOSIG",
      "taf": "TAF EYVI 161100Z 1612/1712 16012KT 9000 NSC"
    },
    {
      "icao": "GCFV",
      "alert": "OK",
      "vis_m": 9999,
      "fzfg": false,
      "metar_trigger": false,
      "taf_trigger": false,
      "metar": "METAR GCFV 161230Z 04011KT 9999 SCT025 20/13 Q1015",
      "taf": "TAF GCFV 160800Z 1609/1709 09009KT 9999 SCT020 TX20/1614Z TN13/1706Z"
    },
    {
      "icao": "GCLP",
      "alert": "OK",
      "vis_m": 9999,
      "fzfg": false,
      "metar_trigger": false,
      "taf_trigger": false,
      "metar": "METAR GCLP 161230Z 07009KT 030V110 9999 BKN025 20/14 Q1015 NOSIG",
      "taf": "TAF GCLP 160800Z 1609/1709 07010KT 9999 SCT030 TX21/1614Z TN14/1706Z"
    },
    {
      "icao": "GCTS",
      "alert": "OK",
      "vis_m": 9999,
      "fzfg": false,
      "metar_trigger": false,
      "taf_trigger": false,
      "metar": "METAR GCTS 161230Z 12014KT 080V150 9999 FEW028 21/13 Q1015 NOSIG",
      "taf": "TAF GCTS 160800Z 1609/1709 10010KT 9999 FEW025 TX22/1614Z TN15/1706Z"
    },
    {
      "icao": "GMAD",
      "alert": "OK",
      "vis_m": 9999,
      "fzfg": false,
      "metar_trigger": false,
      "taf_trigger": false,
      "metar": "METAR GMAD 161230Z 23004KT 160V300 9999 FEW023 22/15 Q1014 NOSIG",
      "taf": "TAF GMAD 161100Z 1612/1718 28012KT 8000 SCT020"
    },
    {
      "icao": "GMMN",
      "alert": "OK",
      "vis_m": 9999,
      "fzfg": false,
      "metar_trigger": false,
      "taf_trigger": false,
      "metar": "METAR GMMN 161230Z 04008KT 360V100 CAVOK 21/15 Q1014 NOSIG",
      "taf": "TAF GMMN 161100Z 1612/1718 04012KT CAVOK"
    },
    {
      "icao": "GMMX",
      "alert": "OK",
      "vis_m": 9999,
      "fzfg": false,
      "metar_trigger": false,
      "taf_trigger": false,
      "metar": "METAR GMMX 161230Z 32005KT 260V020 CAVOK 22/12 Q1013 NOSIG",
      "taf": ""
    },
    {
      "icao": "HEGN",
      "alert": "OK",
      "vis_m": 9999,
      "fzfg": false,
      "metar_trigger": false,
      "taf_trigger": false,
      "metar": "METAR HEGN 161200Z 02012KT CAVOK 23/04 Q1012 NOSIG",
      "taf": "TAF HEGN 161100Z 1612/1718 35015KT CAVOK"
    },
    {
      "icao": "HEMA",
      "alert": "OK",
      "vis_m": 9999,
      "fzfg": false,
      "metar_trigger": false,
      "taf_trigger": false,
      "metar": "METAR HEMA 161200Z 01016KT 9999 FEW020 22/10 Q1013 NOSIG",
      "taf": "TAF HEMA 161100Z 1612/1718 36016KT CAVOK"
    },
    {
      "icao": "HESH",
      "alert": "OK",
      "vis_m": 9999,
      "fzfg": false,
      "metar_trigger": false,
      "taf_trigger": false,
      "metar": "METAR HESH 161200Z 04012KT CAVOK 25/07 Q1013 NOSIG",
      "taf": "TAF HESH 161100Z 1612/1718 01014KT CAVOK"
    },
    {
      "icao": "HESX",
      "alert": "OK",
      "vis_m": 9999,
      "fzfg": false,
      "metar_trigger": false,
      "taf_trigger": false,
      "metar": "METAR HESX 161200Z 12002KT CAVOK 22/00 Q1014 NOSIG",
      "taf": "TAF HESX 161100Z 1612/1718 06009KT CAVOK"
    },
    {
      "icao": "LATI",
      "alert": "OK",
      "vis_m": null,
      "fzfg": false,
      "metar_trigger": false,
      "taf_trigger": false,
      "metar": "",
      "taf": "TAF LATI 161100Z 1612/1712 34010KT CAVOK TX21/1612Z TN05/1705Z"
    },
    {
      "icao": "LBPD",
      "alert": "OK",
      "vis_m": 9999,
      "fzfg": false,
      "metar_trigger": false,
      "taf_trigger": false,
      "metar": "METAR LBPD 161230Z AUTO 03003KT 300V080 9999 FEW076/// 15/M01 Q1015 NOSIG",
      "taf": "TAF LBPD 161100Z 1612/1712 VRB03KT CAVOK"
    },
    {
      "icao": "LBSF",
      "alert": "OK",
      "vis_m": 9999,
      "fzfg": false,
      "metar_trigger": false,
      "taf_trigger": false,
      "metar": "METAR LBSF 161230Z VRB04KT 9999 FEW061 13/M01 Q1015 NOSIG",
      "taf": "TAF LBSF 161100Z 1612/1712 VRB03KT 9999 BKN050"
    },
    {
      "icao": "LBWN",
      "alert": "OK",
      "vis_m": 9999,
      "fzfg": false,
      "metar_trigger": false,
      "taf_trigger": false,
      "metar": "METAR LBWN 161230Z 12011KT 9999 BKN048 10/03 Q1016 NOSIG",
      "taf": "TAF LBWN 161100Z 1612/1712 11010KT 9999 SCT045"
    },
    {
      "icao": "LCLK",
      "alert": "OK",
      "vis_m": 9999,
      "fzfg": false,
      "metar_trigger": false,
      "taf_trigger": false,
      "metar": "METAR LCLK 161230Z 22023KT 9999 FEW025 20/13 Q1011 NOSIG",
      "taf": "TAF LCLK 161130Z 1612/1712 22020KT 9999 FEW025 SCT040"
    },
    {
      "icao": "LCPH",
      "alert": "OK",
      "vis_m": 9999,
      "fzfg": false,
      "metar_trigger": false,
      "taf_trigger": false,
      "metar": "METAR LCPH 161230Z 31013KT 250V320 9999 FEW025 SCT040 17/10 Q1013 NOSIG",
      "taf": "TAF LCPH 161130Z 1612/1712 29016KT 9999 FEW030 SCT040"
    },
    {
      "icao": "LEAL",
      "alert": "OK",
      "vis_m": 9999,
      "fzfg": false,
      "metar_trigger": false,
      "taf_trigger": false,
      "metar": "METAR LEAL 161230Z 17007KT 120V270 CAVOK 19/07 Q1022 NOSIG",
      "taf": "TAF LEAL 161100Z 1612/1712 20010KT CAVOK TX18/1612Z TN07/1706Z"
    },
    {
      "icao": "LEBB",
      "alert": "OK",
      "vis_m": 9999,
      "fzfg": false,
      "metar_trigger": false,
      "taf_trigger": false,
      "metar": "METAR LEBB 161230Z VRB02KT 9999 SCT023 BKN044 15/11 Q1025 NOSIG",
      "taf": "TAF LEBB 161100Z 1612/1712 11005KT 9999 FEW020 SCT040 TX24/1712Z TN05/1706Z"
    },
    {
      "icao": "LEBL",
      "alert": "OK",
      "vis_m": 9999,
      "fzfg": false,
      "metar_trigger": false,
      "taf_trigger": false,
      "metar": "METAR LEBL 161230Z 21010KT 170V240 CAVOK 15/05 Q1020 NOSIG",
      "taf": "TAF LEBL 161100Z 1612/1712 22008KT CAVOK TX17/1613Z TN08/1706Z"
    },
    {
      "icao": "LECH",
      "alert": "OK",
      "vis_m": 9999,
      "fzfg": false,
      "metar_trigger": false,
      "taf_trigger": false,
      "metar": "METAR LECH 161230Z AUTO VRB03KT CAVOK 18/04 Q1021",
      "taf": ""
    },
    {
      "icao": "LEMD",
      "alert": "OK",
      "vis_m": 9999,
      "fzfg": false,
      "metar_trigger": false,
      "taf_trigger": false,
      "metar": "METAR LEMD 161230Z 29004KT 200V350 CAVOK 15/03 Q1022 NOSIG",
      "taf": "TAF LEMD 161100Z 1612/1718 VRB04KT CAVOK TX20/1615Z TN02/1706Z"
    },
    {
      "icao": "LEMG",
      "alert": "OK",
      "vis_m": 9999,
      "fzfg": false,
      "metar_trigger": false,
      "taf_trigger": false,
      "metar": "METAR LEMG 161230Z 11010KT 080V140 9999 FEW016 18/11 Q1022 NOSIG",
      "taf": "TAF LEMG 161100Z 1612/1712 13012KT CAVOK TX20/1614Z TN10/1707Z"
    },
    {
      "icao": "LEVC",
      "alert": "OK",
      "vis_m": 9999,
      "fzfg": false,
      "metar_trigger": false,
      "taf_trigger": false,
      "metar": "METAR LEVC 161230Z 13005KT 090V170 CAVOK 19/M01 Q1021 NOSIG",
      "taf": "TAF LEVC 161100Z 1612/1712 VRB04KT CAVOK TX20/1612Z TN07/1705Z"
    },
    {
      "icao": "LEXJ",
      "alert": "OK",
      "vis_m": 9999,
      "fzfg": false,
      "metar_trigger": false,
      "taf_trigger": false,
      "metar": "METAR LEXJ 161230Z 08005KT 030V160 9999 SCT020 12/09 Q1025",
      "taf": "TAF LEXJ 160800Z 1609/1709 22009KT 9999 SCT020 TX15/1612Z TN07/1706Z"
    },
    {
      "icao": "LEZG",
      "alert": "OK",
      "vis_m": 9999,
      "fzfg": false,
      "metar_trigger": false,
      "taf_trigger": false,
      "metar": "METAR LEZG 161230Z 30021KT CAVOK 17/07 Q1022 NOSIG",
      "taf": "TAF LEZG 161100Z 1612/1712 30015KT CAVOK TX18/1614Z TN05/1706Z"
    },
    {
      "icao": "LEZL",
      "alert": "OK",
      "vis_m": 9999,
      "fzfg": false,
      "metar_trigger": false,
      "taf_trigger": false,
      "metar": "METAR LEZL 161230Z 05014KT CAVOK 20/04 Q1020 NOSIG",
      "taf": "TAF LEZL 160800Z 1609/1709 06010KT CAVOK TX23/1615Z TN10/1707Z"
    },
    {
      "icao": "LFBD",
      "alert": "OK",
      "vis_m": 9999,
      "fzfg": false,
      "metar_trigger": false,
      "taf_trigger": false,
      "metar": "METAR LFBD 161230Z AUTO 01005KT 310V050 9999 SCT029 BKN034 OVC041 14/07 Q1024 NOSIG",
      "taf": "TAF LFBD 161100Z 1612/1718 VRB03KT 9999 BKN030 TX19/1715Z TN04/1706Z"
    },
    {
      "icao": "LFLL",
      "alert": "OK",
      "vis_m": 9999,
      "fzfg": false,
      "metar_trigger": false,
      "taf_trigger": false,
      "metar": "METAR LFLL 161230Z 25004KT 210V290 9999 SCT042 BKN051 12/01 Q1022 NOSIG",
      "taf": "TAF LFLL 161100Z 1612/1718 35006KT 9999 BKN050"
    },
    {
      "icao": "LFLS",
      "alert": "OK",
      "vis_m": 9999,
      "fzfg": false,
      "metar_trigger": false,
      "taf_trigger": false,
      "metar": "METAR LFLS 161230Z AUTO VRB03KT 9999 FEW049 12/00 Q1021 NOSIG",
      "taf": "TAF LFLS 160800Z 1609/1709 09005KT 9999 SCT040"
    },
    {
      "icao": "LFMN",
      "alert": "OK",
      "vis_m": 9999,
      "fzfg": false,
      "metar_trigger": false,
      "taf_trigger": false,
      "metar": "METAR LFMN 161230Z 20008KT CAVOK 17/10 Q1014 NOSIG",
      "taf": "TAF LFMN 160800Z 1609/1715 33008KT CAVOK"
    },
    {
      "icao": "LFOB",
      "alert": "OK",
      "vis_m": 9999,
      "fzfg": false,
      "metar_trigger": false,
      "taf_trigger": false,
      "metar": "METAR LFOB 161230Z AUTO 25009KT 210V280 9999 FEW010 BKN033 BKN039 11/05 Q1020 TEMPO 4000 SHRA BKN014 BKN020TCU",
      "taf": "TAF LFOB 161100Z 1612/1712 27012KT CAVOK"
    },
    {
      "icao": "LFPO",
      "alert": "OK",
      "vis_m": 9999,
      "fzfg": false,
      "metar_trigger": false,
      "taf_trigger": false,
      "metar": "METAR LFPO 161230Z 28007KT 240V320 9999 FEW036 BKN056 BKN120 13/04 Q1020 NOSIG",
      "taf": "TAF LFPO 161100Z 1612/1718 27012KT 9999 FEW026 BKN043 BKN120"
    },
    {
      "icao": "LFSB",
      "alert": "OK",
      "vis_m": 9999,
      "fzfg": false,
      "metar_trigger": false,
      "taf_trigger": false,
      "metar": "METAR LFSB 161230Z AUTO 28007KT 9999 BKN029 OVC036 09/04 Q1020 TEMPO FEW030TCU",
      "taf": "TAF LFSB 161100Z 1612/1712 27008KT 9999 FEW020 BKN033"
    },
    {
      "icao": "LGAV",
      "alert": "OK",
      "vis_m": 9999,
      "fzfg": false,
      "metar_trigger": false,
      "taf_trigger": false,
      "metar": "METAR LGAV 161220Z 06014KT 9999 FEW020 14/04 Q1016 NOSIG",
      "taf": "TAF LGAV 161100Z 1612/1712 03015KT 9999 FEW020 SCT030"
    },
    {
      "icao": "LGTS",
      "alert": "OK",
      "vis_m": 9999,
      "fzfg": false,
      "metar_trigger": false,
      "taf_trigger": false,
      "metar": "METAR LGTS 161220Z 30006KT 9999 SCT018 14/08 Q1016 NOSIG",
      "taf": "TAF LGTS 161100Z 1612/1712 14013KT 9999 SCT025"
    },
    {
      "icao": "LHBP",
      "alert": "OK",
      "vis_m": 9999,
      "fzfg": false,
      "metar_trigger": false,
      "taf_trigger": false,
      "metar": "METAR LHBP 161230Z VRB05G17KT 9999 SCT055TCU SCT080 16/02 Q1015 BECMG 32012KT",
      "taf": "TAF LHBP 161115Z 1612/1712 21005KT CAVOK"
    },
    {
      "icao": "LHDC",
      "alert": "OK",
      "vis_m": 9999,
      "fzfg": false,
      "metar_trigger": false,
      "taf_trigger": false,
      "metar": "METAR LHDC 161215Z AUTO 20008KT 150V260 CAVOK 15/M00 Q1016 NOSIG",
      "taf": "TAF LHDC 161115Z 1612/1621 21009KT CAVOK"
    },
    {
      "icao": "LIBD",
      "alert": "OK",
      "vis_m": 9999,
      "fzfg": false,
      "metar_trigger": false,
      "taf_trigger": false,
      "metar": "METAR LIBD 161220Z 12007KT CAVOK 14/11 Q1012",
      "taf": "TAF LIBD 161100Z 1612/1712 11010KT 9999 BKN030"
    },
    {
      "icao": "LIBG",
      "alert": "OK",
      "vis_m": 9999,
      "fzfg": false,
      "metar_trigger": false,
      "taf_trigger": false,
      "metar": "METAR LIBG 161150Z 07010KT 9999 -RA SCT040 14/13 Q1012",
      "taf": "TAF LIBG 161100Z 1612/1621 10010KT 9999 BKN020"
    },
    {
      "icao": "LIBP",
      "alert": "OK",
      "vis_m": 9999,
      "fzfg": false,
      "metar_trigger": false,
      "taf_trigger": false,
      "metar": "METAR LIBP 161220Z AUTO 34006KT 310V010 9999 BKN021/// 15/12 Q1014",
      "taf": "TAF LIBP 161100Z 1612/1712 05010KT 9999 SCT040"
    },
    {
      "icao": "LIBR",
      "alert": "OK",
      "vis_m": 9999,
      "fzfg": false,
      "metar_trigger": false,
      "taf_trigger": false,
      "metar": "METAR LIBR 161220Z 10008KT CAVOK 16/11 Q1012",
      "taf": "TAF LIBR 161100Z 1612/1712 13012KT 9999 SCT030"
    },
    {
      "icao": "LICA",
      "alert": "OK",
      "vis_m": 6000,
      "fzfg": false,
      "metar_trigger": false,
      "taf_trigger": false,
      "metar": "METAR LICA 161220Z AUTO 06013KT 030V090 6000 -RA OVC051/// 14/12 Q1006 RETS",
      "taf": "TAF LICA 161100Z 1612/1712 08020G30KT 9999 BKN040"
    },
    {
      "icao": "LICC",
      "alert": "OK",
      "vis_m": 7000,
      "fzfg": false,
      "metar_trigger": false,
      "taf_trigger": false,
      "metar": "METAR LICC 161220Z 04019KT 7000 -RA BKN020 OVC070 16/14 Q1003",
      "taf": "TAF LICC 161100Z 1612/1712 06018G30KT 9999 SCT025"
    },
    {
      "icao": "LICJ",
      "alert": "OK",
      "vis_m": 9999,
      "fzfg": false,
      "metar_trigger": false,
      "taf_trigger": false,
      "metar": "METAR LICJ 161220Z 06016KT 9999 BKN030 15/08 Q1005",
      "taf": "TAF LICJ 161100Z 1612/1712 04018G30KT 9999 SCT030"
    },
    {
      "icao": "LIMC",
      "alert": "OK",
      "vis_m": 9999,
      "fzfg": false,
      "metar_trigger": false,
      "taf_trigger": false,
      "metar": "METAR LIMC 161220Z VRB03KT CAVOK 19/00 Q1014 NOSIG",
      "taf": "TAF LIMC 161100Z 1612/1718 VRB05KT CAVOK"
    },
    {
      "icao": "LIME",
      "alert": "OK",
      "vis_m": 9999,
      "fzfg": false,
      "metar_trigger": false,
      "taf_trigger": false,
      "metar": "METAR LIME 161220Z 25009KT 9999 FEW060 17/07 Q1014 NOSIG",
      "taf": "TAF LIME 161100Z 1612/1712 VRB05KT CAVOK"
    },
    {
      "icao": "LIMF",
      "alert": "OK",
      "vis_m": 9999,
      "fzfg": false,
      "metar_trigger": false,
      "taf_trigger": false,
      "metar": "METAR LIMF 161220Z 10004KT 070V140 CAVOK 17/05 Q1015",
      "taf": "TAF LIMF 161100Z 1612/1712 VRB05KT CAVOK"
    },
    {
      "icao": "LIMJ",
      "alert": "OK",
      "vis_m": 9999,
      "fzfg": false,
      "metar_trigger": false,
      "taf_trigger": false,
      "metar": "METAR LIMJ 161220Z 04010KT 010V070 CAVOK 20/07 Q1013",
      "taf": "TAF LIMJ 161100Z 1612/1712 04014KT CAVOK"
    },
    {
      "icao": "LIPE",
      "alert": "OK",
      "vis_m": 9999,
      "fzfg": false,
      "metar_trigger": false,
      "taf_trigger": false,
      "metar": "METAR LIPE 161220Z 31007KT 270V020 CAVOK 18/08 Q1014",
      "taf": "TAF LIPE 161100Z 1612/1712 30008KT CAVOK"
    },
    {
      "icao": "LIPH",
      "alert": "OK",
      "vis_m": 9999,
      "fzfg": false,
      "metar_trigger": false,
      "taf_trigger": false,
      "metar": "METAR LIPH 161220Z 20004KT 160V240 CAVOK 19/07 Q1013",
      "taf": "TAF LIPH 161100Z 1612/1712 VRB05KT CAVOK"
    },
    {
      "icao": "LIPQ",
      "alert": "OK",
      "vis_m": 9999,
      "fzfg": false,
      "metar_trigger": false,
      "taf_trigger": false,
      "metar": "METAR LIPQ 161220Z AUTO 18005KT 140V260 9999 OVC120/// 19/07 Q1013",
      "taf": "TAF LIPQ 161100Z 1612/1712 19007KT 9999 FEW060"
    },
    {
      "icao": "LIPR",
      "alert": "OK",
      "vis_m": 9999,
      "fzfg": false,
      "metar_trigger": false,
      "taf_trigger": false,
      "metar": "METAR LIPR 161220Z 36008KT 330V030 CAVOK 16/09 Q1014",
      "taf": "TAF LIPR 161100Z 1612/1712 02010KT CAVOK"
    },
    {
      "icao": "LIPX",
      "alert": "OK",
      "vis_m": 9999,
      "fzfg": false,
      "metar_trigger": false,
      "taf_trigger": false,
      "metar": "METAR LIPX 161220Z 23005KT 190V260 CAVOK 18/06 Q1014",
      "taf": "TAF LIPX 161100Z 1612/1712 26010KT CAVOK"
    },
    {
      "icao": "LIPY",
      "alert": "OK",
      "vis_m": 9999,
      "fzfg": false,
      "metar_trigger": false,
      "taf_trigger": false,
      "metar": "METAR LIPY 161220Z AUTO 36011KT 9999 NCD 14/10 Q1014",
      "taf": "TAF LIPY 161100Z 1612/1712 01010KT 9999 FEW050"
    },
    {
      "icao": "LIPZ",
      "alert": "OK",
      "vis_m": 9999,
      "fzfg": false,
      "metar_trigger": false,
      "taf_trigger": false,
      "metar": "METAR LIPZ 161220Z 16004KT CAVOK 18/08 Q1014 NOSIG",
      "taf": "TAF LIPZ 161100Z 1612/1718 16007KT CAVOK"
    },
    {
      "icao": "LIRF",
      "alert": "OK",
      "vis_m": 9999,
      "fzfg": false,
      "metar_trigger": false,
      "taf_trigger": false,
      "metar": "METAR LIRF 161220Z 26005KT CAVOK 16/09 Q1010 NOSIG",
      "taf": "TAF LIRF 161100Z 1612/1718 15010KT 9999 SCT030"
    },
    {
      "icao": "LIRN",
      "alert": "OK",
      "vis_m": 9999,
      "fzfg": false,
      "metar_trigger": false,
      "taf_trigger": false,
      "metar": "METAR LIRN 161220Z 05016KT 030V090 9999 FEW040 18/08 Q1009 NOSIG",
      "taf": "TAF LIRN 161100Z 1612/1712 04014KT 9999 BKN040"
    },
    {
      "icao": "LIRP",
      "alert": "OK",
      "vis_m": 9999,
      "fzfg": false,
      "metar_trigger": false,
      "taf_trigger": false,
      "metar": "METAR LIRP 161215Z 33007KT 9999 FEW040 20/05 Q1012 NOSIG",
      "taf": "TAF LIRP 161100Z 1612/1712 31008KT 9999 FEW040"
    },
    {
      "icao": "LIRZ",
      "alert": "OK",
      "vis_m": 9999,
      "fzfg": false,
      "metar_trigger": false,
      "taf_trigger": false,
      "metar": "METAR LIRZ 161220Z AUTO 06009G20KT 350V120 9999 NCD 19/07 Q1011",
      "taf": "TAF LIRZ 161100Z 1612/1712 02013KT 9999 FEW030"
    },
    {
      "icao": "LJLJ",
      "alert": "OK",
      "vis_m": 9999,
      "fzfg": false,
      "metar_trigger": false,
      "taf_trigger": false,
      "metar": "METAR LJLJ 161230Z VRB02KT 9999 FEW050 SCT090 BKN120 14/01 Q1014 NOSIG",
      "taf": "TAF LJLJ 161100Z 1612/1712 10005KT 9999 FEW040"
    },
    {
      "icao": "LKMT",
      "alert": "OK",
      "vis_m": 9999,
      "fzfg": false,
      "metar_trigger": false,
      "taf_trigger": false,
      "metar": "METAR LKMT 161230Z 25014KT 9999 BKN020 OVC024 07/02 Q1015 NOSIG",
      "taf": "TAF LKMT 161100Z 1612/1712 23012KT 9999 FEW012 BKN030"
    },
    {
      "icao": "LKPR",
      "alert": "OK",
      "vis_m": 9999,
      "fzfg": false,
      "metar_trigger": false,
      "taf_trigger": false,
      "metar": "METAR LKPR 161230Z 21020KT 9999 BKN028 06/01 Q1014 NOSIG",
      "taf": "TAF LKPR 161100Z 1612/1718 23012KT 9999 SCT020 OVC030"
    },
    {
      "icao": "LLBG",
      "alert": "OK",
      "vis_m": 9999,
      "fzfg": false,
      "metar_trigger": false,
      "taf_trigger": false,
      "metar": "METAR LLBG 161220Z 21011KT 9999 BKN030 19/10 Q1015 NOSIG",
      "taf": "TAF LLBG 161103Z 1612/1712 28012KT 9999 SCT030 TX20/1612Z TN09/1703Z"
    },
    {
      "icao": "LMML",
      "alert": "OK",
      "vis_m": 9999,
      "fzfg": false,
      "metar_trigger": false,
      "taf_trigger": false,
      "metar": "METAR LMML 161215Z 07020KT 9999 FEW011 SCT014 17/15 Q0998 TEMPO BKN014",
      "taf": "TAF LMML 161100Z 1612/1712 07020G30KT 9999 SCT015"
    },
    {
      "icao": "LOWW",
      "alert": "OK",
      "vis_m": 9999,
      "fzfg": false,
      "metar_trigger": false,
      "taf_trigger": false,
      "metar": "METAR LOWW 161220Z 26005KT 220V290 9999 FEW050 08/03 Q1017 TEMPO 28010KT",
      "taf": "TAF LOWW 161115Z 1612/1718 29011KT 9999 FEW050 TX10/1614Z TN04/1704Z"
    },
    {
      "icao": "LPFR",
      "alert": "OK",
      "vis_m": 9999,
      "fzfg": false,
      "metar_trigger": false,
      "taf_trigger": false,
      "metar": "METAR LPFR 161230Z 08013KT CAVOK 21/06 Q1019",
      "taf": "TAF LPFR 161100Z 1612/1712 09013KT CAVOK"
    },
    {
      "icao": "LPMA",
      "alert": "OK",
      "vis_m": 9999,
      "fzfg": false,
      "metar_trigger": false,
      "taf_trigger": false,
      "metar": "METAR LPMA 161230Z 04006KT 360V080 9999 BKN016 18/12 Q1017",
      "taf": "TAF LPMA 161100Z 1612/1712 02010KT 9999 SCT015 SCT030"
    },
    {
      "icao": "LPPR",
      "alert": "OK",
      "vis_m": 9999,
      "fzfg": false,
      "metar_trigger": false,
      "taf_trigger": false,
      "metar": "METAR LPPR 161230Z 09008KT 060V140 CAVOK 21/08 Q1021",
      "taf": "TAF LPPR 161100Z 1612/1712 08008KT CAVOK"
    },
    {
      "icao": "LPPS",
      "alert": "OK",
      "vis_m": 9999,
      "fzfg": false,
      "metar_trigger": false,
      "taf_trigger": false,
      "metar": "METAR LPPS 161230Z 10009KT 060V130 9999 FEW014 BKN030 17/12 Q1017",
      "taf": "TAF LPPS 161100Z 1612/1718 06008KT 9999 SCT012 BKN030"
    },
    {
      "icao": "LPPT",
      "alert": "OK",
      "vis_m": 9999,
      "fzfg": false,
      "metar_trigger": false,
      "taf_trigger": false,
      "metar": "METAR LPPT 161230Z 06007G19KT 020V100 CAVOK 19/10 Q1020",
      "taf": "TAF LPPT 161100Z 1612/1718 06010KT CAVOK"
    },
    {
      "icao": "LQBK",
      "alert": "OK",
      "vis_m": 9999,
      "fzfg": false,
      "metar_trigger": false,
      "taf_trigger": false,
      "metar": "METAR LQBK 161230Z 36004KT 320V060 CAVOK 17/M05 Q1014 NOSIG",
      "taf": "TAF LQBK 161100Z 1612/1712 06007KT CAVOK TX18/1613Z TN04/1706Z"
    },
    {
      "icao": "LQSA",
      "alert": "OK",
      "vis_m": 9999,
      "fzfg": false,
      "metar_trigger": false,
      "taf_trigger": false,
      "metar": "METAR LQSA 161230Z VRB03KT 9999 FEW060 16/M01 Q1013 NOSIG",
      "taf": "TAF LQSA 161100Z 1612/1712 VRB02KT 9999 SCT050 TX17/1614Z TN04/1705Z"
    },
    {
      "icao": "LQTZ",
      "alert": "OK",
      "vis_m": 9999,
      "fzfg": false,
      "metar_trigger": false,
      "taf_trigger": false,
      "metar": "METAR LQTZ 161230Z VRB03KT CAVOK 17/M04 Q1014",
      "taf": "TAF LQTZ 161100Z 1612/1712 12005KT CAVOK TX16/1613Z TN02/1703Z"
    },
    {
      "icao": "LRBC",
      "alert": "OK",
      "vis_m": 9999,
      "fzfg": false,
      "metar_trigger": false,
      "taf_trigger": false,
      "metar": "METAR LRBC 161230Z VRB02KT 9999 FEW055 12/M01 Q1017",
      "taf": "TAF LRBC 161100Z 1612/1621 VRB04KT CAVOK"
    },
    {
      "icao": "LRBS",
      "alert": "OK",
      "vis_m": 9999,
      "fzfg": false,
      "metar_trigger": false,
      "taf_trigger": false,
      "metar": "METAR LRBS 161230Z 36003KT 300V110 CAVOK 12/M01 Q1017 NOSIG",
      "taf": "TAF LRBS 161100Z 1612/1712 VRB04KT CAVOK"
    },
    {
      "icao": "LRBV",
      "alert": "OK",
      "vis_m": 9999,
      "fzfg": false,
      "metar_trigger": false,
      "taf_trigger": false,
      "metar": "METAR LRBV 161230Z 02005KT 320V120 9999 BKN064 12/M05 Q1016",
      "taf": "TAF LRBV 161100Z 1612/1621 VRB04KT 9999 BKN050"
    },
    {
      "icao": "LRCL",
      "alert": "OK",
      "vis_m": 9999,
      "fzfg": false,
      "metar_trigger": false,
      "taf_trigger": false,
      "metar": "METAR LRCL 161230Z VRB05KT CAVOK 13/M03 Q1016",
      "taf": "TAF LRCL 161100Z 1612/1621 VRB04KT CAVOK"
    },
    {
      "icao": "LRCV",
      "alert": "OK",
      "vis_m": 9999,
      "fzfg": false,
      "metar_trigger": false,
      "taf_trigger": false,
      "metar": "METAR LRCV 161230Z 09006KT 060V150 CAVOK 13/03 Q1017",
      "taf": "TAF LRCV 161100Z 1612/1621 VRB04KT CAVOK"
    },
    {
      "icao": "LRIA",
      "alert": "OK",
      "vis_m": 9999,
      "fzfg": false,
      "metar_trigger": false,
      "taf_trigger": false,
      "metar": "METAR LRIA 161230Z 23005KT 200V280 CAVOK 13/M02 Q1017",
      "taf": "TAF LRIA 161100Z 1612/1621 VRB04KT CAVOK"
    },
    {
      "icao": "LROP",
      "alert": "OK",
      "vis_m": 9999,
      "fzfg": false,
      "metar_trigger": false,
      "taf_trigger": false,
      "metar": "METAR LROP 161230Z VRB02KT 9999 FEW050TCU 13/M04 Q1017 NOSIG",
      "taf": "TAF LROP 161100Z 1612/1712 VRB04KT CAVOK"
    },
    {
      "icao": "LRSB",
      "alert": "OK",
      "vis_m": 9999,
      "fzfg": false,
      "metar_trigger": false,
      "taf_trigger": false,
      "metar": "METAR LRSB 161230Z VRB02KT 9999 FEW040 13/M01 Q1015",
      "taf": "TAF LRSB 161100Z 1612/1712 VRB04KT CAVOK"
    },
    {
      "icao": "LRSM",
      "alert": "OK",
      "vis_m": 9999,
      "fzfg": false,
      "metar_trigger": false,
      "taf_trigger": false,
      "metar": "METAR LRSM 161230Z 25004KT CAVOK 16/M04 Q1016",
      "taf": "TAF LRSM 161100Z 1612/1621 VRB04KT CAVOK"
    },
    {
      "icao": "LRSV",
      "alert": "OK",
      "vis_m": 9999,
      "fzfg": false,
      "metar_trigger": false,
      "taf_trigger": false,
      "metar": "METAR LRSV 161230Z 17006KT 100V210 CAVOK 11/M02 Q1016",
      "taf": "TAF LRSV 161100Z 1612/1621 14008KT CAVOK"
    },
    {
      "icao": "LRTM",
      "alert": "OK",
      "vis_m": 9999,
      "fzfg": false,
      "metar_trigger": false,
      "taf_trigger": false,
      "metar": "METAR LRTM 161230Z 13004KT 090V200 9999 FEW039 13/M03 Q1016",
      "taf": "TAF LRTM 161100Z 1612/1621 VRB04KT CAVOK"
    },
    {
      "icao": "LRTR",
      "alert": "OK",
      "vis_m": 9999,
      "fzfg": false,
      "metar_trigger": false,
      "taf_trigger": false,
      "metar": "METAR LRTR 161230Z 35003KT 310V030 CAVOK 15/M00 Q1016",
      "taf": "TAF LRTR 161100Z 1612/1712 VRB04KT CAVOK"
    },
    {
      "icao": "LTAC",
      "alert": "OK",
      "vis_m": 9999,
      "fzfg": false,
      "metar_trigger": false,
      "taf_trigger": false,
      "metar": "METAR LTAC 161220Z 25008KT 210V290 9999 SCT040 13/M03 Q1011 NOSIG RMK RWY21C 22008KT 190V290 RWY03L 23008KT 190V250 RWY21R 22007KT 180V260 RWY03R 22008KT 180V240 RWY21L 21009KT 170V230",
      "taf": "TAF LTAC 161040Z 1612/1712 25012KT 9999 SCT040"
    },
    {
      "icao": "LTFM",
      "alert": "OK",
      "vis_m": 9999,
      "fzfg": false,
      "metar_trigger": false,
      "taf_trigger": false,
      "metar": "METAR LTFM 161220Z 36010KT 9999 FEW013 BKN020 09/03 Q1017 NOSIG RMK RWY17L 34012KT RWY34L 36010KT RWY16R 36009KT RWY36 35010KT RWY18 35012KT",
      "taf": "TAF LTFM 161040Z 1612/1718 33010KT 9999 SCT009 BKN022"
    },
    {
      "icao": "LUKK",
      "alert": "OK",
      "vis_m": 9999,
      "fzfg": false,
      "metar_trigger": false,
      "taf_trigger": false,
      "metar": "METAR LUKK 161230Z 06008KT 030V100 CAVOK 13/M02 Q1017 NOSIG",
      "taf": "TAF LUKK 161116Z 1612/1712 08010KT CAVOK"
    },
    {
      "icao": "LWOH",
      "alert": "OK",
      "vis_m": null,
      "fzfg": false,
      "metar_trigger": false,
      "taf_trigger": false,
      "metar": "",
      "taf": "TAF LWOH 161120Z 1612/1712 VRB02KT 9999 FEW040"
    },
    {
      "icao": "LWSK",
      "alert": "OK",
      "vis_m": null,
      "fzfg": false,
      "metar_trigger": false,
      "taf_trigger": false,
      "metar": "",
      "taf": "TAF LWSK 161120Z 1612/1712 VRB02KT 9999 FEW030"
    },
    {
      "icao": "LYBE",
      "alert": "OK",
      "vis_m": 9999,
      "fzfg": false,
      "metar_trigger": false,
      "taf_trigger": false,
      "metar": "METAR LYBE 161230Z 15007KT 120V180 CAVOK 16/M01 Q1015 NOSIG",
      "taf": "TAF LYBE 161100Z 1612/1712 10006KT CAVOK TX17/1613Z TN02/1705Z"
    },
    {
      "icao": "LYNI",
      "alert": "OK",
      "vis_m": 9999,
      "fzfg": false,
      "metar_trigger": false,
      "taf_trigger": false,
      "metar": "METAR LYNI 161230Z VRB03KT 9999 FEW047 16/03 Q1014 NOSIG",
      "taf": "TAF LYNI 161100Z 1612/1712 35004KT CAVOK TX18/1614Z TN01/1705Z"
    },
    {
      "icao": "LYPG",
      "alert": "OK",
      "vis_m": 9999,
      "fzfg": false,
      "metar_trigger": false,
      "taf_trigger": false,
      "metar": "METAR LYPG 161230Z 18003KT 130V250 9999 FEW046 20/02 Q1012 TEMPO 20015KT",
      "taf": "TAF LYPG 161100Z 1612/1712 16005KT 9999 FEW040 TX20/1613Z TN10/1622Z"
    },
    {
      "icao": "LZIB",
      "alert": "OK",
      "vis_m": 9999,
      "fzfg": false,
      "metar_trigger": false,
      "taf_trigger": false,
      "metar": "METAR LZIB 161230Z VRB03KT 9999 -RA FEW014 SCT042 07/04 Q1017 RERA NOSIG",
      "taf": ""
    },
    {
      "icao": "LZKZ",
      "alert": "OK",
      "vis_m": 9999,
      "fzfg": false,
      "metar_trigger": false,
      "taf_trigger": false,
      "metar": "METAR LZKZ 161230Z 22009KT 180V240 CAVOK 15/M02 Q1014 NOSIG",
      "taf": "TAF LZKZ 161115Z 1612/1712 21010KT CAVOK"
    },
    {
      "icao": "LZTT",
      "alert": "OK",
      "vis_m": 9999,
      "fzfg": false,
      "metar_trigger": false,
      "taf_trigger": false,
      "metar": "METAR LZTT 161230Z 23010KT 170V260 9999 FEW066 15/M03 Q1012 NOSIG",
      "taf": "TAF LZTT 161115Z 1612/1712 24008KT 9999 FEW045 BKN070"
    },
    {
      "icao": "OEJN",
      "alert": "OK",
      "vis_m": 9999,
      "fzfg": false,
      "metar_trigger": false,
      "taf_trigger": false,
      "metar": "METAR OEJN 161200Z 30012KT CAVOK 30/15 Q1009 NOSIG",
      "taf": "TAF OEJN 161100Z 1612/1718 29012KT 7000 NSC"
    },
    {
      "icao": "OEMA",
      "alert": "OK",
      "vis_m": 9999,
      "fzfg": false,
      "metar_trigger": false,
      "taf_trigger": false,
      "metar": "METAR OEMA 161200Z 23016KT CAVOK 31/09 Q1011 NOSIG",
      "taf": "TAF OEMA 161100Z 1612/1718 28012KT 7000 SCT040"
    },
    {
      "icao": "OJAI",
      "alert": "OK",
      "vis_m": null,
      "fzfg": false,
      "metar_trigger": false,
      "taf_trigger": false,
      "metar": "",
      "taf": "TAF OJAI 161100Z 1612/1718 24012KT 5000 HZ BKN020"
    },
    {
      "icao": "OMAA",
      "alert": "OK",
      "vis_m": null,
      "fzfg": false,
      "metar_trigger": false,
      "taf_trigger": false,
      "metar": "",
      "taf": ""
    },
    {
      "icao": "OMDB",
      "alert": "OK",
      "vis_m": null,
      "fzfg": false,
      "metar_trigger": false,
      "taf_trigger": false,
      "metar": "",
      "taf": ""
    },
    {
      "icao": "UAAA",
      "alert": "OK",
      "vis_m": 9999,
      "fzfg": false,
      "metar_trigger": false,
      "taf_trigger": false,
      "metar": "METAR UAAA 161230Z 03004MPS 9999 SCT050 BKN100 06/M02 Q1022 NOSIG",
      "taf": "TAF UAAA 161102Z 1612/1712 17002MPS 9999 BKN100 TX10/1709Z TN00/1701Z"
    },
    {
      "icao": "UBBB",
      "alert": "OK",
      "vis_m": 9999,
      "fzfg": false,
      "metar_trigger": false,
      "taf_trigger": false,
      "metar": "METAR UBBB 161230Z 16010KT CAVOK 11/08 Q1006 NOSIG",
      "taf": "TAF UBBB 161051Z 1612/1712 18005KT 9999 SCT030 TX12/1612Z TN06/1701Z"
    },
    {
      "icao": "UDSG",
      "alert": "OK",
      "vis_m": 9999,
      "fzfg": false,
      "metar_trigger": false,
      "taf_trigger": false,
      "metar": "METAR UDSG 161230Z 29004KT 9999 SCT033CB BKN046 06/01 Q1010 NOSIG",
      "taf": "TAF UDSG 161058Z 1612/1712 VRB06KT 9999 BKN030"
    },
    {
      "icao": "UDYZ",
      "alert": "OK",
      "vis_m": 9999,
      "fzfg": false,
      "metar_trigger": false,
      "taf_trigger": false,
      "metar": "METAR UDYZ 161230Z 26012KT 9999 SCT///CB 15/02 Q1007 TEMPO 25026G36KT",
      "taf": "TAF UDYZ 161100Z 1612/1712 24008KT 9999 SCT030"
    },
    {
      "icao": "UGKO",
      "alert": "OK",
      "vis_m": 5000,
      "fzfg": false,
      "metar_trigger": false,
      "taf_trigger": false,
      "metar": "METAR UGKO 161230Z 29007KT 5000 RA BR SCT007 BKN019 OVC024 09/07 Q1013 NOSIG",
      "taf": "TAF UGKO 161100Z 1612/1712 25007KT 9999 SCT023 OVC050 TX12/1711Z TN07/1703Z"
    }
  ]
}