{
  "ts_utc": "2026-06-11T14:47:57Z",
  "threshold_m": 150,
  "source": "stations_override.txt (ICAO list) + aviationweather.gov (METAR/TAF raw)",
  "station_count": 159,
  "stations": [
    {
      "icao": "BIKF",
      "alert": "OK",
      "vis_m": 9999,
      "fzfg": false,
      "metar_trigger": false,
      "taf_trigger": false,
      "metar": "METAR BIKF 111430Z 13016KT 9999 FEW020 BKN230 13/05 Q0999",
      "taf": "TAF BIKF 111316Z 1115/1215 09013KT 9999 FEW024 SCT036 TX14/1115Z TN09/1203Z"
    },
    {
      "icao": "BKPR",
      "alert": "OK",
      "vis_m": 9999,
      "fzfg": false,
      "metar_trigger": false,
      "taf_trigger": false,
      "metar": "METAR BKPR 111430Z 09006KT 9999 FEW070 29/12 Q1013 NOSIG",
      "taf": "TAF BKPR 111130Z 1112/1212 03008KT 9999 FEW050"
    },
    {
      "icao": "EBCI",
      "alert": "OK",
      "vis_m": 9000,
      "fzfg": false,
      "metar_trigger": false,
      "taf_trigger": false,
      "metar": "METAR EBCI 111420Z 24012KT 9000 -RADZ SCT048 13/11 Q1022 NOSIG",
      "taf": ""
    },
    {
      "icao": "EDDB",
      "alert": "OK",
      "vis_m": 9999,
      "fzfg": false,
      "metar_trigger": false,
      "taf_trigger": false,
      "metar": "METAR EDDB 111420Z AUTO 31010KT 9999 SHRA FEW///CB 18/08 Q1017 TEMPO SHRA SCT040CB",
      "taf": "TAF EDDB 111100Z 1112/1212 29009KT 9999 SCT040"
    },
    {
      "icao": "EDDH",
      "alert": "OK",
      "vis_m": 9999,
      "fzfg": false,
      "metar_trigger": false,
      "taf_trigger": false,
      "metar": "METAR EDDH 111420Z AUTO 26007KT 230V300 9999 -SHRA FEW044 FEW///TCU 16/08 Q1018 NOSIG",
      "taf": "TAF EDDH 111100Z 1112/1218 27009KT 9999 SCT030"
    },
    {
      "icao": "EDDK",
      "alert": "OK",
      "vis_m": 9999,
      "fzfg": false,
      "metar_trigger": false,
      "taf_trigger": false,
      "metar": "METAR EDDK 111420Z AUTO 25015KT CAVOK 18/07 Q1021 NOSIG",
      "taf": "TAF EDDK 111100Z 1112/1218 27008KT 9999 SCT030"
    },
    {
      "icao": "EDDN",
      "alert": "OK",
      "vis_m": 9999,
      "fzfg": false,
      "metar_trigger": false,
      "taf_trigger": false,
      "metar": "METAR EDDN 111420Z AUTO 29015KT 250V320 CAVOK 16/07 Q1021 NOSIG",
      "taf": "TAF EDDN 111100Z 1112/1212 28007KT 9999 SCT035"
    },
    {
      "icao": "EDDS",
      "alert": "OK",
      "vis_m": 9999,
      "fzfg": false,
      "metar_trigger": false,
      "taf_trigger": false,
      "metar": "METAR EDDS 111420Z AUTO 28009KT 9999 SCT049 16/06 Q1022 NOSIG",
      "taf": "TAF EDDS 111100Z 1112/1212 27012KT 9999 SCT030"
    },
    {
      "icao": "EDFH",
      "alert": "OK",
      "vis_m": 9999,
      "fzfg": false,
      "metar_trigger": false,
      "taf_trigger": false,
      "metar": "METAR EDFH 111420Z 26012KT 230V300 9999 FEW030 14/07 Q1022",
      "taf": "TAF EDFH 111100Z 1112/1212 26010KT 9999 SCT040"
    },
    {
      "icao": "EDJA",
      "alert": "OK",
      "vis_m": 9999,
      "fzfg": false,
      "metar_trigger": false,
      "taf_trigger": false,
      "metar": "METAR EDJA 111420Z 31006KT 280V360 9999 SCT049 14/07 Q1023",
      "taf": "TAF EDJA 111400Z 1115/1124 26013KT 9999 FEW035"
    },
    {
      "icao": "EDLW",
      "alert": "OK",
      "vis_m": 9999,
      "fzfg": false,
      "metar_trigger": false,
      "taf_trigger": false,
      "metar": "METAR EDLW 111420Z 21008KT 9999 FEW025 BKN033 14/11 Q1020 RERA",
      "taf": "TAF EDLW 111100Z 1112/1212 24008KT 9999 SCT030"
    },
    {
      "icao": "EDNY",
      "alert": "OK",
      "vis_m": 9999,
      "fzfg": false,
      "metar_trigger": false,
      "taf_trigger": false,
      "metar": "METAR EDNY 111420Z COR 24013KT 9999 FEW055 18/06 Q1024",
      "taf": "TAF EDNY 111400Z 1115/1124 23012KT CAVOK"
    },
    {
      "icao": "EDSB",
      "alert": "OK",
      "vis_m": 9999,
      "fzfg": false,
      "metar_trigger": false,
      "taf_trigger": false,
      "metar": "METAR EDSB 111420Z VRB03KT CAVOK 18/09 Q1023",
      "taf": "TAF EDSB 111100Z 1112/1212 21007KT 9999 SCT030"
    },
    {
      "icao": "EETN",
      "alert": "OK",
      "vis_m": 9999,
      "fzfg": false,
      "metar_trigger": false,
      "taf_trigger": false,
      "metar": "METAR EETN 111420Z 05007KT 9999 -SHRA FEW035CB SCT049 14/12 Q1014 TEMPO 4000 SHRA SCT030CB",
      "taf": "TAF EETN 111130Z 1112/1212 05012KT 9999 FEW030CB BKN040"
    },
    {
      "icao": "EFTU",
      "alert": "OK",
      "vis_m": 9999,
      "fzfg": false,
      "metar_trigger": false,
      "taf_trigger": false,
      "metar": "METAR EFTU 111420Z AUTO 16006KT 130V200 9999 -SHRA //////CB 15/07 Q1015",
      "taf": "TAF EFTU 111430Z 1115/1215 16004KT 9999 -SHRA FEW030CB"
    },
    {
      "icao": "EGBB",
      "alert": "OK",
      "vis_m": 7000,
      "fzfg": false,
      "metar_trigger": false,
      "taf_trigger": false,
      "metar": "METAR EGBB 111420Z 22010KT 170V260 7000 -RA OVC008 15/14 Q1013",
      "taf": "TAF EGBB 111103Z 1112/1212 20007KT 9999 SCT045"
    },
    {
      "icao": "EGGP",
      "alert": "OK",
      "vis_m": 9999,
      "fzfg": false,
      "metar_trigger": false,
      "taf_trigger": false,
      "metar": "METAR EGGP 111420Z 25007KT 9999 BKN016 BKN020 16/15 Q1012",
      "taf": ""
    },
    {
      "icao": "EGGW",
      "alert": "OK",
      "vis_m": 9999,
      "fzfg": false,
      "metar_trigger": false,
      "taf_trigger": false,
      "metar": "METAR EGGW 111420Z 21015KT 9999 -DZRA OVC007 12/11 Q1015",
      "taf": "TAF EGGW 111059Z 1112/1212 20012KT 9999 BKN018"
    },
    {
      "icao": "EGKK",
      "alert": "OK",
      "vis_m": 5000,
      "fzfg": false,
      "metar_trigger": false,
      "taf_trigger": false,
      "metar": "METAR EGKK 111420Z 22013KT 180V240 5000 -DZ BKN007 13/12 Q1018",
      "taf": "TAF EGKK 111103Z 1112/1218 22009KT 9999 SCT020"
    },
    {
      "icao": "EGNM",
      "alert": "OK",
      "vis_m": 2800,
      "fzfg": false,
      "metar_trigger": false,
      "taf_trigger": false,
      "metar": "METAR EGNM 111420Z 17007KT 2800 -RA BR SCT003 BKN007 12/12 Q1011",
      "taf": ""
    },
    {
      "icao": "EGPD",
      "alert": "OK",
      "vis_m": 9999,
      "fzfg": false,
      "metar_trigger": false,
      "taf_trigger": false,
      "metar": "METAR EGPD 111420Z 17012KT 9999 -RA BKN012 12/10 Q1008 TEMPO RA BKN008",
      "taf": "TAF EGPD 111056Z 1112/1212 18010KT 9999 SCT025"
    },
    {
      "icao": "EGPF",
      "alert": "OK",
      "vis_m": 7000,
      "fzfg": false,
      "metar_trigger": false,
      "taf_trigger": false,
      "metar": "METAR EGPF 111420Z 22013KT 7000 -RADZ BKN010 14/13 Q1007",
      "taf": ""
    },
    {
      "icao": "EHBK",
      "alert": "OK",
      "vis_m": 9999,
      "fzfg": false,
      "metar_trigger": false,
      "taf_trigger": false,
      "metar": "METAR EHBK 111425Z AUTO 23012KT 200V280 9999 NSC 17/08 Q1021 NOSIG",
      "taf": "TAF EHBK 111118Z 1112/1218 25010KT 9999 SCT030"
    },
    {
      "icao": "EHEH",
      "alert": "OK",
      "vis_m": 9999,
      "fzfg": false,
      "metar_trigger": false,
      "taf_trigger": false,
      "metar": "METAR EHEH 111425Z AUTO 23008KT 190V270 9999 BKN092 OVC098 17/10 Q1020 BLU NOSIG RMK TREND REMOTE BY EHWX",
      "taf": "TAF EHEH 111101Z 1112/1218 25006KT 9999 FEW035 SCT045"
    },
    {
      "icao": "EKBI",
      "alert": "OK",
      "vis_m": 9999,
      "fzfg": false,
      "metar_trigger": false,
      "taf_trigger": false,
      "metar": "METAR EKBI 111420Z 26007KT 220V320 9999 SCT020CB SCT040 BKN090 15/08 Q1017",
      "taf": "TAF EKBI 111427Z 1115/1215 26008KT 9999 SCT030"
    },
    {
      "icao": "EKCH",
      "alert": "OK",
      "vis_m": 9999,
      "fzfg": false,
      "metar_trigger": false,
      "taf_trigger": false,
      "metar": "METAR EKCH 111420Z 03004KT 9999 FEW025CB BKN050 15/08 Q1016 NOSIG",
      "taf": "TAF EKCH 111427Z 1115/1215 03008KT 9999 SCT030"
    },
    {
      "icao": "ENAL",
      "alert": "OK",
      "vis_m": 9999,
      "fzfg": false,
      "metar_trigger": false,
      "taf_trigger": false,
      "metar": "METAR ENAL 111420Z 25016KT 9999 VCSH SCT055 13/06 Q1011",
      "taf": "TAF ENAL 111400Z 1115/1124 22012KT 9999 SCT050"
    },
    {
      "icao": "ENBR",
      "alert": "OK",
      "vis_m": 9999,
      "fzfg": false,
      "metar_trigger": false,
      "taf_trigger": false,
      "metar": "METAR ENBR 111420Z 20014KT 9999 VCSH SCT030CB 14/08 Q1012 TEMPO 17015G25KT SHRA RMK WIND 1200FT 19016KT",
      "taf": "TAF ENBR 111100Z 1112/1212 14008KT 9999 FEW010 BKN020"
    },
    {
      "icao": "ENGM",
      "alert": "OK",
      "vis_m": 9999,
      "fzfg": false,
      "metar_trigger": false,
      "taf_trigger": false,
      "metar": "METAR ENGM 111420Z 19012KT 160V230 CAVOK 18/03 Q1012 NOSIG",
      "taf": ""
    },
    {
      "icao": "ENHD",
      "alert": "OK",
      "vis_m": 9999,
      "fzfg": false,
      "metar_trigger": false,
      "taf_trigger": false,
      "metar": "METAR ENHD 111420Z 20017KT 9999 FEW025CB 15/08 Q1012",
      "taf": "TAF ENHD 111400Z 1115/1122 19015KT 9999 FEW020 SCT030"
    },
    {
      "icao": "ENTC",
      "alert": "OK",
      "vis_m": 7000,
      "fzfg": false,
      "metar_trigger": false,
      "taf_trigger": false,
      "metar": "METAR ENTC 111420Z 28009KT 7000 RA BKN018 10/08 Q1012 TEMPO BKN014 NSW RMK WIND 2600FT 25011KT",
      "taf": ""
    },
    {
      "icao": "ENTO",
      "alert": "OK",
      "vis_m": 9999,
      "fzfg": false,
      "metar_trigger": false,
      "taf_trigger": false,
      "metar": "METAR ENTO 111420Z 20015KT 9999 VCSH SCT035CB 16/07 Q1014 NOSIG",
      "taf": ""
    },
    {
      "icao": "ENVA",
      "alert": "OK",
      "vis_m": 9999,
      "fzfg": false,
      "metar_trigger": false,
      "taf_trigger": false,
      "metar": "METAR ENVA 111420Z 05005KT 360V080 9999 VCSH NSC 15/10 Q1012 TEMPO SHRA RMK WIND 670FT 03008KT",
      "taf": "TAF ENVA 111100Z 1112/1212 VRB05KT 9999 FEW007 BKN045"
    },
    {
      "icao": "ENZV",
      "alert": "OK",
      "vis_m": 9999,
      "fzfg": false,
      "metar_trigger": false,
      "taf_trigger": false,
      "metar": "METAR ENZV 111420Z 20012KT 9999 FEW034 14/08 Q1013 NOSIG",
      "taf": "TAF ENZV 111100Z 1112/1212 19008KT 9999 FEW030 SCT045"
    },
    {
      "icao": "EPGD",
      "alert": "OK",
      "vis_m": 9999,
      "fzfg": false,
      "metar_trigger": false,
      "taf_trigger": false,
      "metar": "METAR EPGD 111430Z 33005KT 9999 FEW019 BKN046 14/09 Q1015",
      "taf": "TAF EPGD 111130Z 1112/1212 34010KT 9999 BKN040"
    },
    {
      "icao": "EPKK",
      "alert": "OK",
      "vis_m": 9999,
      "fzfg": false,
      "metar_trigger": false,
      "taf_trigger": false,
      "metar": "METAR EPKK 111430Z 21003KT 170V230 9999 BKN044 14/11 Q1018",
      "taf": "TAF EPKK 111430Z 1115/1215 VRB04KT 9999 BKN040"
    },
    {
      "icao": "EPKT",
      "alert": "OK",
      "vis_m": 9999,
      "fzfg": false,
      "metar_trigger": false,
      "taf_trigger": false,
      "metar": "METAR EPKT 111430Z 28005KT 250V310 9999 FEW044 15/09 Q1018",
      "taf": "TAF EPKT 111130Z 1112/1212 29010KT 9999 BKN035"
    },
    {
      "icao": "EPLB",
      "alert": "OK",
      "vis_m": 9999,
      "fzfg": false,
      "metar_trigger": false,
      "taf_trigger": false,
      "metar": "METAR EPLB 111430Z 28015KT 9999 FEW027 18/11 Q1016",
      "taf": "TAF EPLB 111130Z 1112/1212 28012KT 9999 BKN020"
    },
    {
      "icao": "EPMO",
      "alert": "OK",
      "vis_m": 9999,
      "fzfg": false,
      "metar_trigger": false,
      "taf_trigger": false,
      "metar": "METAR EPMO 111430Z 31008KT 9999 BKN028 14/10 Q1016",
      "taf": "TAF EPMO 111130Z 1112/1212 29014KT 9999 BKN016"
    },
    {
      "icao": "EPPO",
      "alert": "OK",
      "vis_m": 9999,
      "fzfg": false,
      "metar_trigger": false,
      "taf_trigger": false,
      "metar": "METAR EPPO 111430Z 28010KT 9999 FEW050CB 17/11 Q1017",
      "taf": "TAF EPPO 111130Z 1112/1212 28010KT 9999 BKN025"
    },
    {
      "icao": "EPRA",
      "alert": "OK",
      "vis_m": 9999,
      "fzfg": false,
      "metar_trigger": false,
      "taf_trigger": false,
      "metar": "METAR EPRA 111430Z 28006KT 9999 BKN032 14/10 Q1017",
      "taf": "TAF EPRA 111430Z 1115/1124 27008KT 9999 SCT040"
    },
    {
      "icao": "EPRZ",
      "alert": "OK",
      "vis_m": 9999,
      "fzfg": false,
      "metar_trigger": false,
      "taf_trigger": false,
      "metar": "METAR EPRZ 111430Z 28011KT 9999 BKN043 18/10 Q1017",
      "taf": "TAF EPRZ 111130Z 1112/1212 27014KT 9999 BKN026"
    },
    {
      "icao": "EPSC",
      "alert": "OK",
      "vis_m": 9999,
      "fzfg": false,
      "metar_trigger": false,
      "taf_trigger": false,
      "metar": "METAR EPSC 111430Z 08003KT 040V130 9999 -SHRA FEW012 SCT044CB 13/12 Q1017",
      "taf": ""
    },
    {
      "icao": "EPSY",
      "alert": "OK",
      "vis_m": 9999,
      "fzfg": false,
      "metar_trigger": false,
      "taf_trigger": false,
      "metar": "METAR EPSY 111430Z 29009KT 250V330 9999 FEW017 OVC039 14/10 Q1014",
      "taf": "TAF EPSY 111430Z 1115/1124 27008KT 9999 BKN020"
    },
    {
      "icao": "EPWA",
      "alert": "OK",
      "vis_m": 9999,
      "fzfg": false,
      "metar_trigger": false,
      "taf_trigger": false,
      "metar": "METAR EPWA 111430Z 27011KT 240V300 9999 SCT036 16/09 Q1016 NOSIG",
      "taf": "TAF EPWA 111430Z 1115/1215 28014KT 9999 BKN040"
    },
    {
      "icao": "EPWR",
      "alert": "OK",
      "vis_m": 9999,
      "fzfg": false,
      "metar_trigger": false,
      "taf_trigger": false,
      "metar": "METAR EPWR 111430Z 27008KT 9999 FEW027 18/09 Q1018",
      "taf": "TAF EPWR 111430Z 1115/1215 26010KT 9999 SCT035"
    },
    {
      "icao": "ESGG",
      "alert": "OK",
      "vis_m": 9999,
      "fzfg": false,
      "metar_trigger": false,
      "taf_trigger": false,
      "metar": "METAR ESGG 111420Z 31009KT CAVOK 17/04 Q1015",
      "taf": "TAF ESGG 111430Z 1115/1215 30008KT CAVOK"
    },
    {
      "icao": "ESKN",
      "alert": "OK",
      "vis_m": 9999,
      "fzfg": false,
      "metar_trigger": false,
      "taf_trigger": false,
      "metar": "METAR ESKN 111420Z 12004KT 090V170 9999 FEW040 BKN140 17/09 Q1014",
      "taf": "TAF ESKN 111430Z 1115/1215 18004KT CAVOK"
    },
    {
      "icao": "ESMS",
      "alert": "OK",
      "vis_m": 9999,
      "fzfg": false,
      "metar_trigger": false,
      "taf_trigger": false,
      "metar": "METAR ESMS 111420Z 27009KT CAVOK 18/07 Q1015",
      "taf": "TAF ESMS 111427Z 1115/1215 29008KT 9999 SCT030"
    },
    {
      "icao": "ESSA",
      "alert": "OK",
      "vis_m": 9999,
      "fzfg": false,
      "metar_trigger": false,
      "taf_trigger": false,
      "metar": "METAR ESSA 111420Z 34003KT 9999 VCSH VCTS SCT047CB 15/06 Q1014 NOSIG",
      "taf": "TAF ESSA 111430Z 1115/1215 22007KT 9999 SCT048"
    },
    {
      "icao": "EYKA",
      "alert": "OK",
      "vis_m": 9999,
      "fzfg": false,
      "metar_trigger": false,
      "taf_trigger": false,
      "metar": "METAR EYKA 111420Z 21008KT 170V250 9999 FEW033 SCT040 20/17 Q1007",
      "taf": "TAF EYKA 111100Z 1112/1212 15010KT 9000 SCT005 BKN020"
    },
    {
      "icao": "EYPA",
      "alert": "OK",
      "vis_m": 7000,
      "fzfg": false,
      "metar_trigger": false,
      "taf_trigger": false,
      "metar": "METAR EYPA 111420Z 36012G23KT 310V030 7000 -SHRA FEW010 SCT023CB 11/09 Q1011",
      "taf": "TAF EYPA 111100Z 1112/1212 33010KT 9000 BKN030"
    },
    {
      "icao": "EYVI",
      "alert": "OK",
      "vis_m": 9999,
      "fzfg": false,
      "metar_trigger": false,
      "taf_trigger": false,
      "metar": "METAR EYVI 111420Z 20009KT CAVOK 21/17 Q1009 NOSIG",
      "taf": ""
    },
    {
      "icao": "GCFV",
      "alert": "OK",
      "vis_m": 9999,
      "fzfg": false,
      "metar_trigger": false,
      "taf_trigger": false,
      "metar": "METAR GCFV 111430Z 05013KT CAVOK 22/17 Q1016",
      "taf": "TAF GCFV 111400Z 1115/1215 05012KT 9999 FEW025 TX26/1214Z TN18/1206Z"
    },
    {
      "icao": "GCLP",
      "alert": "OK",
      "vis_m": 9999,
      "fzfg": false,
      "metar_trigger": false,
      "taf_trigger": false,
      "metar": "METAR GCLP 111430Z 03025KT 9999 FEW025 23/16 Q1017 NOSIG",
      "taf": "TAF GCLP 111400Z 1115/1215 02022KT 9999 FEW025 TX26/1214Z TN19/1206Z"
    },
    {
      "icao": "GCTS",
      "alert": "OK",
      "vis_m": 9999,
      "fzfg": false,
      "metar_trigger": false,
      "taf_trigger": false,
      "metar": "METAR GCTS 111430Z 11018KT 080V140 9999 FEW025 24/16 Q1017 NOSIG",
      "taf": "TAF GCTS 111400Z 1115/1215 11020KT 9999 FEW025 TX27/1214Z TN18/1206Z"
    },
    {
      "icao": "GMAD",
      "alert": "OK",
      "vis_m": 8000,
      "fzfg": false,
      "metar_trigger": false,
      "taf_trigger": false,
      "metar": "METAR GMAD 111430Z 25015KT 8000 NSC 24/17 Q1014 NOSIG",
      "taf": "TAF GMAD 111100Z 1112/1218 2504KT 8000 NSC"
    },
    {
      "icao": "GMMN",
      "alert": "OK",
      "vis_m": 9999,
      "fzfg": false,
      "metar_trigger": false,
      "taf_trigger": false,
      "metar": "METAR GMMN 111430Z 30008KT 250V350 CAVOK 31/20 Q1014 NOSIG",
      "taf": "TAF GMMN 111100Z 1112/1218 34012KT CAVOK"
    },
    {
      "icao": "GMMX",
      "alert": "OK",
      "vis_m": 9999,
      "fzfg": false,
      "metar_trigger": false,
      "taf_trigger": false,
      "metar": "METAR GMMX 111430Z 36004KT CAVOK 37/15 Q1014 NOSIG",
      "taf": "TAF GMMX 111100Z 1112/1214 24006KT 8000 NSC"
    },
    {
      "icao": "HEGN",
      "alert": "OK",
      "vis_m": 9999,
      "fzfg": false,
      "metar_trigger": false,
      "taf_trigger": false,
      "metar": "METAR HEGN 111400Z 36014KT CAVOK 36/10 Q1008 NOSIG",
      "taf": "TAF HEGN 111100Z 1112/1218 35012G22KT CAVOK"
    },
    {
      "icao": "HEMA",
      "alert": "OK",
      "vis_m": 9999,
      "fzfg": false,
      "metar_trigger": false,
      "taf_trigger": false,
      "metar": "METAR HEMA 111400Z 34013KT CAVOK 34/16 Q1008 NOSIG",
      "taf": "TAF HEMA 111100Z 1112/1218 36012G22KT CAVOK"
    },
    {
      "icao": "HESH",
      "alert": "OK",
      "vis_m": 9999,
      "fzfg": false,
      "metar_trigger": false,
      "taf_trigger": false,
      "metar": "METAR HESH 111400Z 05006KT CAVOK 38/12 Q1007 NOSIG",
      "taf": "TAF HESH 111100Z 1112/1218 01014KT CAVOK"
    },
    {
      "icao": "HESX",
      "alert": "OK",
      "vis_m": 9999,
      "fzfg": false,
      "metar_trigger": false,
      "taf_trigger": false,
      "metar": "METAR HESX 111400Z 01010KT CAVOK 32/13 Q1012 NOSIG",
      "taf": "TAF HESX 111100Z 1112/1218 34010KT CAVOK"
    },
    {
      "icao": "LATI",
      "alert": "OK",
      "vis_m": null,
      "fzfg": false,
      "metar_trigger": false,
      "taf_trigger": false,
      "metar": "",
      "taf": "TAF LATI 111100Z 1112/1212 28010KT CAVOK TX32/1112Z TN18/1204Z"
    },
    {
      "icao": "LBPD",
      "alert": "OK",
      "vis_m": 9999,
      "fzfg": false,
      "metar_trigger": false,
      "taf_trigger": false,
      "metar": "METAR LBPD 111430Z AUTO 33007KT 9999 SCT064 //////CB 29/16 Q1013 NOSIG",
      "taf": "TAF LBPD 111100Z 1112/1212 10010KT 9999 SCT070"
    },
    {
      "icao": "LBSF",
      "alert": "OK",
      "vis_m": 9999,
      "fzfg": false,
      "metar_trigger": false,
      "taf_trigger": false,
      "metar": "METAR LBSF 111430Z 15011KT 120V180 9999 BKN066 24/15 Q1015 NOSIG",
      "taf": "TAF LBSF 111100Z 1112/1212 11008KT 9999 SCT060"
    },
    {
      "icao": "LBWN",
      "alert": "OK",
      "vis_m": 9999,
      "fzfg": false,
      "metar_trigger": false,
      "taf_trigger": false,
      "metar": "METAR LBWN 111430Z 12010KT CAVOK 25/15 Q1014 NOSIG",
      "taf": "TAF LBWN 111100Z 1112/1212 11012KT CAVOK"
    },
    {
      "icao": "LCLK",
      "alert": "OK",
      "vis_m": 9999,
      "fzfg": false,
      "metar_trigger": false,
      "taf_trigger": false,
      "metar": "METAR LCLK 111430Z 21019KT 9999 FEW025 28/23 Q1010 NOSIG",
      "taf": "TAF LCLK 111130Z 1112/1212 22018KT 9999 FEW025"
    },
    {
      "icao": "LCPH",
      "alert": "OK",
      "vis_m": 9999,
      "fzfg": false,
      "metar_trigger": false,
      "taf_trigger": false,
      "metar": "METAR LCPH 111430Z 27010KT 250V320 9999 SCT012 27/22 Q1011 NOSIG",
      "taf": "TAF LCPH 111130Z 1112/1212 28015KT 9999 FEW020"
    },
    {
      "icao": "LEAL",
      "alert": "OK",
      "vis_m": 9999,
      "fzfg": false,
      "metar_trigger": false,
      "taf_trigger": false,
      "metar": "METAR LEAL 111430Z 10011KT 060V150 9999 FEW028 BKN035 26/17 Q1023 NOSIG",
      "taf": "TAF LEAL 111100Z 1112/1212 08010KT 9999 SCT020 TX27/1112Z TN20/1205Z"
    },
    {
      "icao": "LEBB",
      "alert": "OK",
      "vis_m": 9999,
      "fzfg": false,
      "metar_trigger": false,
      "taf_trigger": false,
      "metar": "METAR LEBB 111430Z VRB05KT 9999 FEW039 23/13 Q1027 NOSIG",
      "taf": "TAF LEBB 111100Z 1112/1212 06009KT 9999 SCT035 TX25/1212Z TN11/1205Z"
    },
    {
      "icao": "LEBL",
      "alert": "OK",
      "vis_m": 9999,
      "fzfg": false,
      "metar_trigger": false,
      "taf_trigger": false,
      "metar": "METAR LEBL 111430Z 20009KT 170V240 9999 FEW036 23/14 Q1023 NOSIG",
      "taf": "TAF LEBL 111100Z 1112/1212 19009KT 9999 FEW035 TX24/1113Z TN18/1205Z"
    },
    {
      "icao": "LECH",
      "alert": "OK",
      "vis_m": 9000,
      "fzfg": false,
      "metar_trigger": false,
      "taf_trigger": false,
      "metar": "METAR LECH 111430Z AUTO 14010KT 100V170 9000 SCT034 22/15 Q1024",
      "taf": "TAF LECH 111100Z 1112/1212 VRB04KT 9999 FEW040 TX27/1113Z TN14/1205Z"
    },
    {
      "icao": "LEMD",
      "alert": "OK",
      "vis_m": 9999,
      "fzfg": false,
      "metar_trigger": false,
      "taf_trigger": false,
      "metar": "METAR LEMD 111430Z 03005KT CAVOK 32/05 Q1022 NOSIG",
      "taf": "TAF LEMD 111100Z 1112/1218 04006KT CAVOK TX33/1116Z TN17/1206Z"
    },
    {
      "icao": "LEMG",
      "alert": "OK",
      "vis_m": 9999,
      "fzfg": false,
      "metar_trigger": false,
      "taf_trigger": false,
      "metar": "METAR LEMG 111430Z 13008KT 060V160 9999 FEW020 BKN035 24/18 Q1021 NOSIG",
      "taf": "TAF LEMG 111100Z 1112/1212 13010KT 9999 SCT030 TX27/1114Z TN19/1206Z"
    },
    {
      "icao": "LEVC",
      "alert": "OK",
      "vis_m": 9999,
      "fzfg": false,
      "metar_trigger": false,
      "taf_trigger": false,
      "metar": "METAR LEVC 111430Z 11010KT 070V140 9999 FEW025 SCT030 27/17 Q1023 NOSIG",
      "taf": "TAF LEVC 111100Z 1112/1212 12010KT 9999 SCT020 TX26/1112Z TN17/1205Z"
    },
    {
      "icao": "LEXJ",
      "alert": "OK",
      "vis_m": 9999,
      "fzfg": false,
      "metar_trigger": false,
      "taf_trigger": false,
      "metar": "METAR LEXJ 111430Z 05007KT 340V120 CAVOK 20/13 Q1027",
      "taf": "TAF LEXJ 111400Z 1115/1215 05009KT CAVOK TX25/1213Z TN13/1205Z"
    },
    {
      "icao": "LEZG",
      "alert": "OK",
      "vis_m": 9999,
      "fzfg": false,
      "metar_trigger": false,
      "taf_trigger": false,
      "metar": "METAR LEZG 111430Z 29012G23KT 260V330 CAVOK 27/07 Q1023 NOSIG",
      "taf": "TAF LEZG 111100Z 1112/1212 31015KT CAVOK TX29/1115Z TN15/1205Z"
    },
    {
      "icao": "LEZL",
      "alert": "OK",
      "vis_m": 9999,
      "fzfg": false,
      "metar_trigger": false,
      "taf_trigger": false,
      "metar": "METAR LEZL 111430Z 07008KT 340V120 CAVOK 36/15 Q1016 NOSIG",
      "taf": "TAF LEZL 111400Z 1115/1215 08010KT CAVOK TX38/1115Z TN23/1206Z"
    },
    {
      "icao": "LFBD",
      "alert": "OK",
      "vis_m": 9999,
      "fzfg": false,
      "metar_trigger": false,
      "taf_trigger": false,
      "metar": "METAR LFBD 111430Z AUTO 33007KT 300V360 CAVOK 22/10 Q1027 NOSIG",
      "taf": "TAF LFBD 111100Z 1112/1218 28005KT 9999 SCT040 TX29/1215Z TN10/1205Z"
    },
    {
      "icao": "LFLL",
      "alert": "OK",
      "vis_m": 9999,
      "fzfg": false,
      "metar_trigger": false,
      "taf_trigger": false,
      "metar": "METAR LFLL 111430Z 34008KT 310V020 CAVOK 21/06 Q1025 NOSIG",
      "taf": "TAF LFLL 111100Z 1112/1218 36012KT CAVOK"
    },
    {
      "icao": "LFLS",
      "alert": "OK",
      "vis_m": 9999,
      "fzfg": false,
      "metar_trigger": false,
      "taf_trigger": false,
      "metar": "METAR LFLS 111430Z AUTO 02008KT 340V050 CAVOK 21/05 Q1024 NOSIG",
      "taf": "TAF LFLS 111400Z 1115/1215 35010KT CAVOK"
    },
    {
      "icao": "LFMN",
      "alert": "OK",
      "vis_m": 9999,
      "fzfg": false,
      "metar_trigger": false,
      "taf_trigger": false,
      "metar": "METAR LFMN 111430Z 19004KT 150V220 CAVOK 24/11 Q1017 NOSIG",
      "taf": "TAF LFMN 111400Z 1115/1221 18006KT CAVOK"
    },
    {
      "icao": "LFOB",
      "alert": "OK",
      "vis_m": 9999,
      "fzfg": false,
      "metar_trigger": false,
      "taf_trigger": false,
      "metar": "METAR LFOB 111430Z AUTO 24010KT 210V270 9999 FEW022 BKN034 BKN042 16/10 Q1023 TEMPO 4000 RA BKN014",
      "taf": "TAF LFOB 111100Z 1112/1212 26010KT 9999 SCT025"
    },
    {
      "icao": "LFPO",
      "alert": "OK",
      "vis_m": 9999,
      "fzfg": false,
      "metar_trigger": false,
      "taf_trigger": false,
      "metar": "METAR LFPO 111430Z 24014KT 9999 FEW046 SCT053 BKN080 19/08 Q1024 NOSIG",
      "taf": "TAF LFPO 111100Z 1112/1218 25005KT 9999 FEW040"
    },
    {
      "icao": "LFSB",
      "alert": "OK",
      "vis_m": 9999,
      "fzfg": false,
      "metar_trigger": false,
      "taf_trigger": false,
      "metar": "METAR LFSB 111430Z AUTO 28012KT CAVOK 19/06 Q1024 TEMPO FEW040TCU",
      "taf": "TAF LFSB 111100Z 1112/1212 25010KT 9999 SCT045 BKN070"
    },
    {
      "icao": "LGAV",
      "alert": "OK",
      "vis_m": 9999,
      "fzfg": false,
      "metar_trigger": false,
      "taf_trigger": false,
      "metar": "METAR LGAV 111420Z 05007KT 020V100 9999 FEW025 31/10 Q1013 NOSIG",
      "taf": "TAF LGAV 111100Z 1112/1212 08012KT 9999 FEW025"
    },
    {
      "icao": "LGTS",
      "alert": "OK",
      "vis_m": 9999,
      "fzfg": false,
      "metar_trigger": false,
      "taf_trigger": false,
      "metar": "METAR LGTS 111420Z 16011KT 9999 FEW020 31/16 Q1012 NOSIG",
      "taf": "TAF LGTS 111100Z 1112/1212 17012KT 9999 FEW030"
    },
    {
      "icao": "LHBP",
      "alert": "OK",
      "vis_m": 9999,
      "fzfg": false,
      "metar_trigger": false,
      "taf_trigger": false,
      "metar": "METAR LHBP 111430Z 30015KT CAVOK 18/08 Q1018 NOSIG",
      "taf": "TAF LHBP 111115Z 1112/1212 31014G24KT 9999 SCT045"
    },
    {
      "icao": "LHDC",
      "alert": "OK",
      "vis_m": 9999,
      "fzfg": false,
      "metar_trigger": false,
      "taf_trigger": false,
      "metar": "METAR LHDC 111415Z AUTO 26008KT 210V310 CAVOK 23/11 Q1015 NOSIG",
      "taf": "TAF LHDC 111415Z 1115/1124 30009KT 9999 SCT020"
    },
    {
      "icao": "LIBD",
      "alert": "OK",
      "vis_m": 9999,
      "fzfg": false,
      "metar_trigger": false,
      "taf_trigger": false,
      "metar": "METAR LIBD 111420Z 10010KT 9999 TS VCSH FEW020CB SCT040 27/17 Q1011",
      "taf": ""
    },
    {
      "icao": "LIBG",
      "alert": "OK",
      "vis_m": 9999,
      "fzfg": false,
      "metar_trigger": false,
      "taf_trigger": false,
      "metar": "METAR LIBG 111420Z AUTO 18008KT 150V220 9999 NCD 29/14 Q1012",
      "taf": "TAF LIBG 111100Z 1112/1212 19011KT CAVOK"
    },
    {
      "icao": "LIBP",
      "alert": "OK",
      "vis_m": 9999,
      "fzfg": false,
      "metar_trigger": false,
      "taf_trigger": false,
      "metar": "METAR LIBP 111420Z AUTO 01008KT 330V050 9999 FEW054/// SCT110/// BKN180/// 24/17 Q1014",
      "taf": "TAF LIBP 111100Z 1112/1212 01011KT 9999 SCT040"
    },
    {
      "icao": "LIBR",
      "alert": "OK",
      "vis_m": 9999,
      "fzfg": false,
      "metar_trigger": false,
      "taf_trigger": false,
      "metar": "METAR LIBR 111420Z 21012KT CAVOK 30/17 Q1011",
      "taf": ""
    },
    {
      "icao": "LICA",
      "alert": "OK",
      "vis_m": 9999,
      "fzfg": false,
      "metar_trigger": false,
      "taf_trigger": false,
      "metar": "METAR LICA 111420Z AUTO 27015KT 9999 NCD 28/19 Q1013",
      "taf": "TAF LICA 111100Z 1112/1212 26012KT CAVOK"
    },
    {
      "icao": "LICC",
      "alert": "OK",
      "vis_m": 9999,
      "fzfg": false,
      "metar_trigger": false,
      "taf_trigger": false,
      "metar": "METAR LICC 111420Z 08010KT 9999 SCT070 28/16 Q1012",
      "taf": "TAF LICC 111100Z 1112/1212 08013KT 9999 FEW030"
    },
    {
      "icao": "LICJ",
      "alert": "OK",
      "vis_m": 9999,
      "fzfg": false,
      "metar_trigger": false,
      "taf_trigger": false,
      "metar": "METAR LICJ 111420Z 28018KT 9999 FEW018 25/22 Q1014",
      "taf": "TAF LICJ 111100Z 1112/1212 29012KT 9999 FEW020"
    },
    {
      "icao": "LIMC",
      "alert": "OK",
      "vis_m": 9999,
      "fzfg": false,
      "metar_trigger": false,
      "taf_trigger": false,
      "metar": "METAR LIMC 111420Z VRB03KT CAVOK 27/02 Q1016 NOSIG",
      "taf": "TAF LIMC 111100Z 1112/1218 03012KT CAVOK"
    },
    {
      "icao": "LIME",
      "alert": "OK",
      "vis_m": 9999,
      "fzfg": false,
      "metar_trigger": false,
      "taf_trigger": false,
      "metar": "METAR LIME 111420Z 21006KT 150V260 CAVOK 25/06 Q1016 NOSIG",
      "taf": "TAF LIME 111100Z 1112/1212 VRB05KT 9999 FEW040"
    },
    {
      "icao": "LIMF",
      "alert": "OK",
      "vis_m": 9999,
      "fzfg": false,
      "metar_trigger": false,
      "taf_trigger": false,
      "metar": "METAR LIMF 111420Z VRB03KT CAVOK 25/06 Q1017",
      "taf": "TAF LIMF 111100Z 1112/1212 VRB05KT CAVOK"
    },
    {
      "icao": "LIMJ",
      "alert": "OK",
      "vis_m": 9999,
      "fzfg": false,
      "metar_trigger": false,
      "taf_trigger": false,
      "metar": "METAR LIMJ 111420Z 01009KT 320V060 CAVOK 29/00 Q1015",
      "taf": "TAF LIMJ 111100Z 1112/1212 04016KT CAVOK"
    },
    {
      "icao": "LIPE",
      "alert": "OK",
      "vis_m": 9999,
      "fzfg": false,
      "metar_trigger": false,
      "taf_trigger": false,
      "metar": "METAR LIPE 111420Z VRB05KT CAVOK 27/06 Q1016",
      "taf": "TAF LIPE 111100Z 1112/1212 VRB05KT CAVOK"
    },
    {
      "icao": "LIPH",
      "alert": "OK",
      "vis_m": 9999,
      "fzfg": false,
      "metar_trigger": false,
      "taf_trigger": false,
      "metar": "METAR LIPH 111420Z 11007KT 070V140 CAVOK 25/09 Q1016",
      "taf": "TAF LIPH 111100Z 1112/1212 10010KT CAVOK"
    },
    {
      "icao": "LIPQ",
      "alert": "OK",
      "vis_m": 9999,
      "fzfg": false,
      "metar_trigger": false,
      "taf_trigger": false,
      "metar": "METAR LIPQ 111420Z 10012KT 070V130 CAVOK 24/10 Q1016",
      "taf": "TAF LIPQ 111100Z 1112/1212 08005KT 9999 FEW045"
    },
    {
      "icao": "LIPR",
      "alert": "OK",
      "vis_m": 9999,
      "fzfg": false,
      "metar_trigger": false,
      "taf_trigger": false,
      "metar": "METAR LIPR 111420Z 01011KT 340V040 9999 FEW020 24/17 Q1016",
      "taf": "TAF LIPR 111100Z 1112/1212 33011KT 9999 FEW040"
    },
    {
      "icao": "LIPX",
      "alert": "OK",
      "vis_m": 9999,
      "fzfg": false,
      "metar_trigger": false,
      "taf_trigger": false,
      "metar": "METAR LIPX 111420Z 16004KT 060V230 9999 FEW050 26/08 Q1016",
      "taf": "TAF LIPX 111100Z 1112/1212 01007KT 9999 SCT030"
    },
    {
      "icao": "LIPY",
      "alert": "OK",
      "vis_m": 9999,
      "fzfg": false,
      "metar_trigger": false,
      "taf_trigger": false,
      "metar": "METAR LIPY 111420Z AUTO 33012KT 9999 SCT092/// 24/17 Q1015",
      "taf": "TAF LIPY 111100Z 1112/1212 34013KT 9999 SCT040"
    },
    {
      "icao": "LIPZ",
      "alert": "OK",
      "vis_m": 9999,
      "fzfg": false,
      "metar_trigger": false,
      "taf_trigger": false,
      "metar": "METAR LIPZ 111420Z 11012KT CAVOK 23/11 Q1017 NOSIG",
      "taf": "TAF LIPZ 111100Z 1112/1218 09011KT CAVOK"
    },
    {
      "icao": "LIRF",
      "alert": "OK",
      "vis_m": 9999,
      "fzfg": false,
      "metar_trigger": false,
      "taf_trigger": false,
      "metar": "METAR LIRF 111420Z 23010KT 9999 FEW025 25/16 Q1014 NOSIG",
      "taf": "TAF LIRF 111100Z 1112/1218 24010KT 9999 FEW030"
    },
    {
      "icao": "LIRN",
      "alert": "OK",
      "vis_m": 9999,
      "fzfg": false,
      "metar_trigger": false,
      "taf_trigger": false,
      "metar": "METAR LIRN 111420Z 26012KT CAVOK 26/11 Q1015 NOSIG",
      "taf": "TAF LIRN 111100Z 1112/1212 25010KT CAVOK"
    },
    {
      "icao": "LIRP",
      "alert": "OK",
      "vis_m": 9999,
      "fzfg": false,
      "metar_trigger": false,
      "taf_trigger": false,
      "metar": "METAR LIRP 111415Z 28011KT CAVOK 27/13 Q1015 NOSIG",
      "taf": "TAF LIRP 111100Z 1112/1212 30010KT CAVOK"
    },
    {
      "icao": "LIRZ",
      "alert": "OK",
      "vis_m": 9999,
      "fzfg": false,
      "metar_trigger": false,
      "taf_trigger": false,
      "metar": "METAR LIRZ 111420Z AUTO 01010KT 240V050 9999 FEW074/// 26/14 Q1014",
      "taf": "TAF LIRZ 111100Z 1112/1212 VRB05KT CAVOK"
    },
    {
      "icao": "LJLJ",
      "alert": "OK",
      "vis_m": 9999,
      "fzfg": false,
      "metar_trigger": false,
      "taf_trigger": false,
      "metar": "METAR LJLJ 111430Z 12004KT 050V160 9999 FEW033 18/11 Q1019 NOSIG",
      "taf": "TAF LJLJ 111100Z 1112/1212 12005KT 9999 FEW020 BKN075"
    },
    {
      "icao": "LKMT",
      "alert": "OK",
      "vis_m": 9999,
      "fzfg": false,
      "metar_trigger": false,
      "taf_trigger": false,
      "metar": "METAR LKMT 111430Z 07003KT 9999 VCSH SCT032TCU 16/10 Q1018 NOSIG",
      "taf": "TAF LKMT 111100Z 1112/1212 VRB02KT 9999 SCT035"
    },
    {
      "icao": "LKPR",
      "alert": "OK",
      "vis_m": 9999,
      "fzfg": false,
      "metar_trigger": false,
      "taf_trigger": false,
      "metar": "METAR LKPR 111430Z 30007KT 270V330 9999 FEW025 14/08 Q1020 NOSIG",
      "taf": "TAF LKPR 111400Z 1115/1221 25008KT 9999 SCT025"
    },
    {
      "icao": "LLBG",
      "alert": "OK",
      "vis_m": 9999,
      "fzfg": false,
      "metar_trigger": false,
      "taf_trigger": false,
      "metar": "METAR LLBG 111420Z 29007KT 260V340 CAVOK 28/17 Q1011 NOSIG",
      "taf": "TAF LLBG 111108Z 1112/1212 30010KT CAVOK TX29/1112Z TN21/1203Z"
    },
    {
      "icao": "LMML",
      "alert": "OK",
      "vis_m": 9999,
      "fzfg": false,
      "metar_trigger": false,
      "taf_trigger": false,
      "metar": "METAR LMML 111445Z 29013KT 9999 FEW015 28/19 Q1015 NOSIG",
      "taf": "TAF LMML 111100Z 1112/1212 28010KT 9999 FEW015"
    },
    {
      "icao": "LOWW",
      "alert": "OK",
      "vis_m": 9999,
      "fzfg": false,
      "metar_trigger": false,
      "taf_trigger": false,
      "metar": "METAR LOWW 111420Z 32013KT CAVOK 20/08 Q1019 TEMPO SHRA",
      "taf": "TAF LOWW 111415Z 1115/1221 30012KT 9999 FEW050 TX19/1214Z TN11/1203Z"
    },
    {
      "icao": "LPFR",
      "alert": "OK",
      "vis_m": 9999,
      "fzfg": false,
      "metar_trigger": false,
      "taf_trigger": false,
      "metar": "METAR LPFR 111430Z 12014KT 9999 FEW025 29/19 Q1017",
      "taf": "TAF LPFR 111100Z 1112/1212 11013KT CAVOK"
    },
    {
      "icao": "LPMA",
      "alert": "OK",
      "vis_m": 9999,
      "fzfg": false,
      "metar_trigger": false,
      "taf_trigger": false,
      "metar": "METAR LPMA 111430Z 01016KT 330V050 9999 FEW014 24/15 Q1020",
      "taf": "TAF LPMA 111100Z 1112/1212 01017KT 9999 SCT015"
    },
    {
      "icao": "LPPR",
      "alert": "OK",
      "vis_m": 9999,
      "fzfg": false,
      "metar_trigger": false,
      "taf_trigger": false,
      "metar": "METAR LPPR 111430Z 31011KT CAVOK 28/12 Q1020",
      "taf": "TAF LPPR 111100Z 1112/1212 07007KT CAVOK"
    },
    {
      "icao": "LPPS",
      "alert": "OK",
      "vis_m": 9999,
      "fzfg": false,
      "metar_trigger": false,
      "taf_trigger": false,
      "metar": "METAR LPPS 111430Z 01014G24KT 350V060 9999 SCT015 22/16 Q1020",
      "taf": "TAF LPPS 111100Z 1112/1218 02013KT 9999 SCT015"
    },
    {
      "icao": "LPPT",
      "alert": "OK",
      "vis_m": 9999,
      "fzfg": false,
      "metar_trigger": false,
      "taf_trigger": false,
      "metar": "METAR LPPT 111430Z VRB05KT CAVOK 33/10 Q1018",
      "taf": "TAF LPPT 111100Z 1112/1218 07007KT CAVOK"
    },
    {
      "icao": "LQBK",
      "alert": "OK",
      "vis_m": 9999,
      "fzfg": false,
      "metar_trigger": false,
      "taf_trigger": false,
      "metar": "METAR LQBK 111430Z VRB02KT 9999 FEW007 BKN043 13/11 Q1020 NOSIG",
      "taf": "TAF LQBK 111100Z 1112/1212 15005KT 9999 SCT015 BKN040 TX19/1212Z TN12/1203Z"
    },
    {
      "icao": "LQSA",
      "alert": "OK",
      "vis_m": 8000,
      "fzfg": false,
      "metar_trigger": false,
      "taf_trigger": false,
      "metar": "METAR LQSA 111430Z 29011KT 8000 -SHRA FEW017 FEW030TCU BKN040 13/12 Q1018 TEMPO 4000 TSRA FEW010 FEW030CB BKN040",
      "taf": "TAF LQSA 111100Z 1112/1212 VRB02KT 9999 BKN045 TX20/1212Z TN10/1204Z"
    },
    {
      "icao": "LQTZ",
      "alert": "OK",
      "vis_m": 9999,
      "fzfg": false,
      "metar_trigger": false,
      "taf_trigger": false,
      "metar": "METAR LQTZ 111400Z 28004KT 9999 SCT015 OVC030 14/13 Q1019",
      "taf": "TAF LQTZ 111100Z 1112/1212 28006KT 9999 SCT020 BKN035 TX15/1114Z TN08/1203Z"
    },
    {
      "icao": "LRBC",
      "alert": "OK",
      "vis_m": 9999,
      "fzfg": false,
      "metar_trigger": false,
      "taf_trigger": false,
      "metar": "METAR LRBC 111430Z 16005KT 130V190 9999 FEW045 25/19 Q1012",
      "taf": "TAF LRBC 111400Z 1115/1124 16010KT CAVOK"
    },
    {
      "icao": "LRBS",
      "alert": "OK",
      "vis_m": 9999,
      "fzfg": false,
      "metar_trigger": false,
      "taf_trigger": false,
      "metar": "METAR LRBS 111430Z 34003KT 290V050 9999 -SHRA FEW050CB 27/17 Q1012 TEMPO 34016KT",
      "taf": "TAF LRBS 111100Z 1112/1212 07007KT CAVOK"
    },
    {
      "icao": "LRBV",
      "alert": "OK",
      "vis_m": 9999,
      "fzfg": false,
      "metar_trigger": false,
      "taf_trigger": false,
      "metar": "METAR LRBV 111430Z 31005KT 270V340 9999 FEW054CB 22/17 Q1015",
      "taf": "TAF LRBV 111400Z 1115/1124 24008KT 9999 SCT060"
    },
    {
      "icao": "LRCL",
      "alert": "OK",
      "vis_m": 9999,
      "fzfg": false,
      "metar_trigger": false,
      "taf_trigger": false,
      "metar": "METAR LRCL 111430Z 36006KT 9999 FEW027CB BKN034 22/16 Q1015",
      "taf": "TAF LRCL 111400Z 1115/1124 32009KT 9999 BKN035"
    },
    {
      "icao": "LRCV",
      "alert": "OK",
      "vis_m": 9999,
      "fzfg": false,
      "metar_trigger": false,
      "taf_trigger": false,
      "metar": "METAR LRCV 111430Z 26003KT 220V320 9999 -SHRA VCTS FEW030 SCT047CB 29/17 Q1012",
      "taf": "TAF LRCV 111400Z 1115/1124 VRB04KT 9999 SCT045"
    },
    {
      "icao": "LRIA",
      "alert": "OK",
      "vis_m": 9999,
      "fzfg": false,
      "metar_trigger": false,
      "taf_trigger": false,
      "metar": "METAR LRIA 111430Z 17007KT CAVOK 27/16 Q1012",
      "taf": "TAF LRIA 111400Z 1115/1124 17008KT CAVOK"
    },
    {
      "icao": "LROP",
      "alert": "OK",
      "vis_m": 9999,
      "fzfg": false,
      "metar_trigger": false,
      "taf_trigger": false,
      "metar": "METAR LROP 111430Z 31011KT 290V350 CAVOK 28/15 Q1012 NOSIG",
      "taf": "TAF LROP 111100Z 1112/1212 07007KT CAVOK"
    },
    {
      "icao": "LRSB",
      "alert": "OK",
      "vis_m": 9999,
      "fzfg": false,
      "metar_trigger": false,
      "taf_trigger": false,
      "metar": "METAR LRSB 111430Z 32011KT 9999 FEW033 SCT040 FEW045CB 22/16 Q1015",
      "taf": "TAF LRSB 111100Z 1112/1212 31009KT 9999 SCT045CB"
    },
    {
      "icao": "LRSM",
      "alert": "OK",
      "vis_m": 9999,
      "fzfg": false,
      "metar_trigger": false,
      "taf_trigger": false,
      "metar": "METAR LRSM 111430Z 26009KT 220V310 9999 FEW041 23/14 Q1015",
      "taf": "TAF LRSM 111400Z 1115/1124 27012KT 9999 BKN035"
    },
    {
      "icao": "LRSV",
      "alert": "OK",
      "vis_m": 9999,
      "fzfg": false,
      "metar_trigger": false,
      "taf_trigger": false,
      "metar": "METAR LRSV 111430Z 26010KT 9999 -SHRA FEW050CB 19/16 Q1013",
      "taf": "TAF LRSV 111400Z 1115/1124 27006KT CAVOK"
    },
    {
      "icao": "LRTM",
      "alert": "OK",
      "vis_m": 2500,
      "fzfg": false,
      "metar_trigger": false,
      "taf_trigger": false,
      "metar": "METAR LRTM 111430Z 12012KT 100V230 2500 R07/1400U +TSRA SCT003 BKN030 SCT035CB 17/15 Q1015",
      "taf": "TAF LRTM 111400Z 1115/1124 27005KT 9999 SCT045"
    },
    {
      "icao": "LRTR",
      "alert": "OK",
      "vis_m": 9999,
      "fzfg": false,
      "metar_trigger": false,
      "taf_trigger": false,
      "metar": "METAR LRTR 111430Z 30007KT 9999 -SHRA SCT023 BKN032 FEW045CB 18/15 Q1017",
      "taf": "TAF LRTR 111100Z 1112/1212 30010KT 9999 BKN035"
    },
    {
      "icao": "LTAC",
      "alert": "OK",
      "vis_m": 9999,
      "fzfg": false,
      "metar_trigger": false,
      "taf_trigger": false,
      "metar": "METAR LTAC 111420Z 32009KT 230V350 9999 FEW025CB SCT040 26/09 Q1015 NOSIG RMK RWY21C 29009KT RWY03L 30007KT 270V340 RWY21R 27007KT 240V320 RWY03R 28008KT 260V320 RWY21L 29009KT",
      "taf": "TAF LTAC 111040Z 1112/1212 VRB02KT 9999 SCT040"
    },
    {
      "icao": "LTFM",
      "alert": "OK",
      "vis_m": 9999,
      "fzfg": false,
      "metar_trigger": false,
      "taf_trigger": false,
      "metar": "METAR LTFM 111420Z 06012KT 030V090 9999 FEW014 23/17 Q1014 NOSIG RMK RWY17L 07012KT RWY34L 07012KT RWY16R 07012KT 040V100 RWY36 07012KT 030V090 RWY18 07012KT",
      "taf": "TAF LTFM 111040Z 1112/1218 05012KT 9999 SCT012"
    },
    {
      "icao": "LUKK",
      "alert": "OK",
      "vis_m": 9999,
      "fzfg": false,
      "metar_trigger": false,
      "taf_trigger": false,
      "metar": "METAR LUKK 111430Z 18005KT 140V210 CAVOK 28/16 Q1012 NOSIG",
      "taf": "TAF LUKK 111102Z 1112/1212 18008KT CAVOK"
    },
    {
      "icao": "LWOH",
      "alert": "OK",
      "vis_m": null,
      "fzfg": false,
      "metar_trigger": false,
      "taf_trigger": false,
      "metar": "",
      "taf": "TAF LWOH 111430Z 1115/1215 VRB02KT 9999 SCT040"
    },
    {
      "icao": "LWSK",
      "alert": "OK",
      "vis_m": 9999,
      "fzfg": false,
      "metar_trigger": false,
      "taf_trigger": false,
      "metar": "METAR LWSK 111420Z VRB04KT 9999 FEW050 32/13 Q1011 NOSIG",
      "taf": "TAF LWSK 111430Z 1115/1215 VRB02KT 9999 FEW050"
    },
    {
      "icao": "LYBE",
      "alert": "OK",
      "vis_m": 9999,
      "fzfg": false,
      "metar_trigger": false,
      "taf_trigger": false,
      "metar": "METAR LYBE 111430Z 32005KT 9999 -SHRA FEW010 SCT030TCU SCT035 14/13 Q1018 TEMPO SHRA",
      "taf": "TAF LYBE 111100Z 1112/1212 31010KT 9999 SCT014 BKN030 TX22/1212Z TN12/1204Z"
    },
    {
      "icao": "LYNI",
      "alert": "OK",
      "vis_m": 9999,
      "fzfg": false,
      "metar_trigger": false,
      "taf_trigger": false,
      "metar": "METAR LYNI 111430Z 33019KT 9999 FEW033 23/16 Q1013 NOSIG",
      "taf": "TAF LYNI 111100Z 1112/1212 32014KT 9999 SCT033 TX28/1113Z TN12/1206Z"
    },
    {
      "icao": "LYPG",
      "alert": "OK",
      "vis_m": 9999,
      "fzfg": false,
      "metar_trigger": false,
      "taf_trigger": false,
      "metar": "METAR LYPG 111430Z 17005KT 110V220 9999 FEW040 30/17 Q1012 NOSIG",
      "taf": "TAF LYPG 111100Z 1112/1212 16008KT 9999 FEW040 SCT084 TX31/1114Z TN18/1203Z"
    },
    {
      "icao": "LZIB",
      "alert": "OK",
      "vis_m": 9999,
      "fzfg": false,
      "metar_trigger": false,
      "taf_trigger": false,
      "metar": "METAR LZIB 111430Z 28013KT CAVOK 20/08 Q1018 NOSIG",
      "taf": "TAF LZIB 111115Z 1112/1212 32011KT 9999 SCT025"
    },
    {
      "icao": "LZKZ",
      "alert": "OK",
      "vis_m": 9999,
      "fzfg": false,
      "metar_trigger": false,
      "taf_trigger": false,
      "metar": "METAR LZKZ 111430Z 03010KT 9999 FEW030 BKN045 18/11 Q1016 NOSIG",
      "taf": ""
    },
    {
      "icao": "LZTT",
      "alert": "OK",
      "vis_m": 9999,
      "fzfg": false,
      "metar_trigger": false,
      "taf_trigger": false,
      "metar": "METAR LZTT 111430Z 27016KT 9999 SCT033 16/08 Q1017 NOSIG",
      "taf": "TAF LZTT 111115Z 1112/1212 31013KT 9999 FEW014 BKN030"
    },
    {
      "icao": "OEJN",
      "alert": "OK",
      "vis_m": 9999,
      "fzfg": false,
      "metar_trigger": false,
      "taf_trigger": false,
      "metar": "METAR OEJN 111400Z 30007KT CAVOK 36/16 Q1006 NOSIG",
      "taf": "TAF OEJN 111100Z 1112/1218 29010KT CAVOK"
    },
    {
      "icao": "OEMA",
      "alert": "OK",
      "vis_m": 9999,
      "fzfg": false,
      "metar_trigger": false,
      "taf_trigger": false,
      "metar": "METAR OEMA 111400Z 28007KT CAVOK 44/M07 Q1010 NOSIG",
      "taf": "TAF OEMA 111100Z 1112/1218 25010KT CAVOK"
    },
    {
      "icao": "OJAI",
      "alert": "OK",
      "vis_m": 5000,
      "fzfg": false,
      "metar_trigger": false,
      "taf_trigger": false,
      "metar": "METAR OJAI 111400Z 27013KT 5000 HZ NSC 29/12 Q1015 NOSIG",
      "taf": "TAF OJAI 111100Z 1112/1218 31008KT 5000 HZ NSC"
    },
    {
      "icao": "OMAA",
      "alert": "OK",
      "vis_m": 9999,
      "fzfg": false,
      "metar_trigger": false,
      "taf_trigger": false,
      "metar": "METAR OMAA 111430Z 30011KT CAVOK 38/17 Q1000 NOSIG",
      "taf": "TAF OMAA 111100Z 1112/1218 32013KT 8000 NSC"
    },
    {
      "icao": "OMDB",
      "alert": "OK",
      "vis_m": 9999,
      "fzfg": false,
      "metar_trigger": false,
      "taf_trigger": false,
      "metar": "METAR OMDB 111430Z 28008KT 260V350 CAVOK 38/21 Q0999 NOSIG",
      "taf": "TAF OMDB 111100Z 1112/1218 28010KT CAVOK"
    },
    {
      "icao": "UAAA",
      "alert": "OK",
      "vis_m": 9999,
      "fzfg": false,
      "metar_trigger": false,
      "taf_trigger": false,
      "metar": "METAR UAAA 111430Z 24002MPS 220V280 9999 BKN050CB OVC100 22/12 Q1014 NOSIG",
      "taf": "TAF UAAA 111103Z 1112/1212 21002G07MPS 9999 SCT050CB BKN100 TX29/1210Z TN16/1202Z"
    },
    {
      "icao": "UBBB",
      "alert": "OK",
      "vis_m": 9999,
      "fzfg": false,
      "metar_trigger": false,
      "taf_trigger": false,
      "metar": "METAR UBBB 111430Z 15012KT CAVOK 29/11 Q1010 NOSIG",
      "taf": "TAF UBBB 111057Z 1112/1212 18008KT CAVOK TX31/1112Z TN19/1200Z"
    },
    {
      "icao": "UDSG",
      "alert": "OK",
      "vis_m": 9000,
      "fzfg": false,
      "metar_trigger": false,
      "taf_trigger": false,
      "metar": "METAR UDSG 111430Z 23014KT 9000 -TSRA BKN043CB 18/13 Q1020 NOSIG",
      "taf": "TAF UDSG 111058Z 1112/1212 04006KT 9999 SCT040"
    },
    {
      "icao": "UDYZ",
      "alert": "OK",
      "vis_m": 9999,
      "fzfg": false,
      "metar_trigger": false,
      "taf_trigger": false,
      "metar": "METAR UDYZ 111430Z 28006KT 9999 VCTS SCT043CB 28/13 Q1011 TEMPO -TSRA",
      "taf": "TAF UDYZ 111100Z 1112/1212 04006KT 9999 FEW040"
    },
    {
      "icao": "UGKO",
      "alert": "OK",
      "vis_m": 9999,
      "fzfg": false,
      "metar_trigger": false,
      "taf_trigger": false,
      "metar": "METAR UGKO 111430Z 25015KT 9999 SCT058 25/18 Q1011 NOSIG",
      "taf": "TAF UGKO 111100Z 1112/1212 25006KT 9999 SCT030 BKN050 TX26/1112Z TN19/1202Z"
    }
  ]
}