{
  "ts_utc": "2026-04-07T14:59:51Z",
  "threshold_m": 150,
  "source": "stations_override.txt (ICAO list) + aviationweather.gov (METAR/TAF raw)",
  "station_count": 159,
  "stations": [
    {
      "icao": "BIKF",
      "alert": "OK",
      "vis_m": 6000,
      "fzfg": false,
      "metar_trigger": false,
      "taf_trigger": false,
      "metar": "METAR BIKF 071430Z 18026KT 6000 -DZRA BR OVC009 07/06 Q0985",
      "taf": "TAF BIKF 071332Z 0715/0815 19025G35KT 9999 -SHRA SCT015 BKN020 TX08/0715Z TN04/0803Z"
    },
    {
      "icao": "BKPR",
      "alert": "OK",
      "vis_m": null,
      "fzfg": false,
      "metar_trigger": false,
      "taf_trigger": false,
      "metar": "",
      "taf": "TAF BKPR 071130Z 0712/0812 01008KT CAVOK"
    },
    {
      "icao": "EBCI",
      "alert": "OK",
      "vis_m": 9999,
      "fzfg": false,
      "metar_trigger": false,
      "taf_trigger": false,
      "metar": "METAR EBCI 071450Z 04010KT CAVOK 18/06 Q1023 NOSIG",
      "taf": "TAF EBCI 071113Z 0712/0818 07008KT CAVOK"
    },
    {
      "icao": "EDDB",
      "alert": "OK",
      "vis_m": 9999,
      "fzfg": false,
      "metar_trigger": false,
      "taf_trigger": false,
      "metar": "METAR EDDB 071450Z AUTO 35009KT 330V030 CAVOK 14/00 Q1025 NOSIG",
      "taf": "TAF EDDB 071100Z 0712/0812 32012G22KT 9999 SCT025"
    },
    {
      "icao": "EDDH",
      "alert": "OK",
      "vis_m": 9999,
      "fzfg": false,
      "metar_trigger": false,
      "taf_trigger": false,
      "metar": "METAR EDDH 071450Z AUTO 04008KT CAVOK 14/00 Q1027 NOSIG",
      "taf": "TAF EDDH 071100Z 0712/0818 33007KT CAVOK"
    },
    {
      "icao": "EDDK",
      "alert": "OK",
      "vis_m": 9999,
      "fzfg": false,
      "metar_trigger": false,
      "taf_trigger": false,
      "metar": "METAR EDDK 071450Z AUTO 02006KT 350V080 CAVOK 19/M01 Q1024 NOSIG",
      "taf": "TAF EDDK 071100Z 0712/0818 02006KT CAVOK"
    },
    {
      "icao": "EDDN",
      "alert": "OK",
      "vis_m": 9999,
      "fzfg": false,
      "metar_trigger": false,
      "taf_trigger": false,
      "metar": "METAR EDDN 071450Z AUTO 32007KT 290V020 CAVOK 17/01 Q1024 NOSIG",
      "taf": "TAF EDDN 071100Z 0712/0812 35006KT CAVOK"
    },
    {
      "icao": "EDDS",
      "alert": "OK",
      "vis_m": 9999,
      "fzfg": false,
      "metar_trigger": false,
      "taf_trigger": false,
      "metar": "METAR EDDS 071450Z AUTO 35007KT 310V020 CAVOK 19/04 Q1022 NOSIG",
      "taf": "TAF EDDS 071100Z 0712/0812 04004KT CAVOK"
    },
    {
      "icao": "EDFH",
      "alert": "OK",
      "vis_m": 9999,
      "fzfg": false,
      "metar_trigger": false,
      "taf_trigger": false,
      "metar": "METAR EDFH 071450Z 07005KT 360V140 CAVOK 16/00 Q1024",
      "taf": "TAF EDFH 071100Z 0712/0812 10007KT CAVOK"
    },
    {
      "icao": "EDJA",
      "alert": "OK",
      "vis_m": 9999,
      "fzfg": false,
      "metar_trigger": false,
      "taf_trigger": false,
      "metar": "METAR EDJA 071450Z 02005KT 340V060 CAVOK 18/07 Q1022",
      "taf": "TAF EDJA 071400Z 0715/0724 35004KT CAVOK"
    },
    {
      "icao": "EDLW",
      "alert": "OK",
      "vis_m": 9999,
      "fzfg": false,
      "metar_trigger": false,
      "taf_trigger": false,
      "metar": "METAR EDLW 071450Z 06008KT 020V100 CAVOK 15/M01 Q1026",
      "taf": "TAF EDLW 071100Z 0712/0812 06007KT CAVOK"
    },
    {
      "icao": "EDNY",
      "alert": "OK",
      "vis_m": 9999,
      "fzfg": false,
      "metar_trigger": false,
      "taf_trigger": false,
      "metar": "METAR EDNY 071450Z 24007KT CAVOK 20/09 Q1022",
      "taf": "TAF EDNY 071400Z 0715/0724 25005KT CAVOK"
    },
    {
      "icao": "EDSB",
      "alert": "OK",
      "vis_m": 9999,
      "fzfg": false,
      "metar_trigger": false,
      "taf_trigger": false,
      "metar": "METAR EDSB 071450Z 01012KT CAVOK 20/05 Q1022",
      "taf": "TAF EDSB 071100Z 0712/0812 01010KT CAVOK"
    },
    {
      "icao": "EETN",
      "alert": "OK",
      "vis_m": 9999,
      "fzfg": false,
      "metar_trigger": false,
      "taf_trigger": false,
      "metar": "METAR EETN 071450Z 01008KT 340V050 9999 OVC021 06/03 Q1015 NOSIG",
      "taf": "TAF EETN 071130Z 0712/0812 36012KT 9999 BKN025 0712/0715 5000 SHRA BKN012 SCT020CB"
    },
    {
      "icao": "EFTU",
      "alert": "OK",
      "vis_m": 9999,
      "fzfg": false,
      "metar_trigger": false,
      "taf_trigger": false,
      "metar": "METAR EFTU 071450Z AUTO 01007KT 340V050 9999 FEW033 BKN049 08/02 Q1019",
      "taf": "TAF EFTU 071427Z 0715/0815 01009KT 9999 FEW030 OVC045"
    },
    {
      "icao": "EGBB",
      "alert": "OK",
      "vis_m": 9999,
      "fzfg": false,
      "metar_trigger": false,
      "taf_trigger": false,
      "metar": "METAR EGBB 071450Z 12012KT 080V140 CAVOK 20/04 Q1020",
      "taf": "TAF EGBB 071104Z 0712/0812 11013KT CAVOK"
    },
    {
      "icao": "EGGP",
      "alert": "OK",
      "vis_m": 9999,
      "fzfg": false,
      "metar_trigger": false,
      "taf_trigger": false,
      "metar": "METAR EGGP 071450Z 13016KT CAVOK 18/05 Q1019",
      "taf": "TAF EGGP 071057Z 0712/0812 14015G25KT CAVOK"
    },
    {
      "icao": "EGGW",
      "alert": "OK",
      "vis_m": 9999,
      "fzfg": false,
      "metar_trigger": false,
      "taf_trigger": false,
      "metar": "METAR EGGW 071450Z AUTO 11015KT 9999 NCD 17/04 Q1022",
      "taf": "TAF EGGW 071057Z 0712/0812 12010KT CAVOK"
    },
    {
      "icao": "EGKK",
      "alert": "OK",
      "vis_m": 9999,
      "fzfg": false,
      "metar_trigger": false,
      "taf_trigger": false,
      "metar": "METAR EGKK 071450Z 08011KT 060V120 CAVOK 20/05 Q1021",
      "taf": "TAF EGKK 071055Z 0712/0818 09008KT CAVOK"
    },
    {
      "icao": "EGNM",
      "alert": "OK",
      "vis_m": 9999,
      "fzfg": false,
      "metar_trigger": false,
      "taf_trigger": false,
      "metar": "METAR EGNM 071450Z 11014KT CAVOK 17/04 Q1021",
      "taf": "TAF EGNM 071056Z 0712/0812 14010KT CAVOK"
    },
    {
      "icao": "EGPD",
      "alert": "OK",
      "vis_m": 9999,
      "fzfg": false,
      "metar_trigger": false,
      "taf_trigger": false,
      "metar": "METAR EGPD 071450Z COR AUTO 15011KT 110V200 9999 NCD 12/05 Q1021 NOSIG",
      "taf": "TAF EGPD 071059Z 0712/0812 15012KT CAVOK"
    },
    {
      "icao": "EGPF",
      "alert": "OK",
      "vis_m": 9999,
      "fzfg": false,
      "metar_trigger": false,
      "taf_trigger": false,
      "metar": "METAR EGPF 071450Z AUTO 11007KT 080V160 9999 NCD 20/07 Q1018",
      "taf": "TAF EGPF 071054Z 0712/0812 07010KT CAVOK"
    },
    {
      "icao": "EHBK",
      "alert": "OK",
      "vis_m": 9999,
      "fzfg": false,
      "metar_trigger": false,
      "taf_trigger": false,
      "metar": "METAR EHBK 071455Z AUTO 05010KT 020V090 9999 NCD 17/02 Q1024 NOSIG",
      "taf": "TAF EHBK 071102Z 0712/0818 07011KT CAVOK"
    },
    {
      "icao": "EHEH",
      "alert": "OK",
      "vis_m": 9999,
      "fzfg": false,
      "metar_trigger": false,
      "taf_trigger": false,
      "metar": "METAR EHEH 071425Z AUTO 06009KT 030V160 9999 NCD 17/02 Q1025 BLU NOSIG RMK TREND REMOTE BY EHWX",
      "taf": "TAF EHEH 071101Z 0712/0818 10011KT CAVOK"
    },
    {
      "icao": "EKBI",
      "alert": "OK",
      "vis_m": 9999,
      "fzfg": false,
      "metar_trigger": false,
      "taf_trigger": false,
      "metar": "METAR EKBI 071450Z AUTO 02005KT 310V070 9999 NCD 13/M05 Q1028",
      "taf": "TAF EKBI 071427Z 0715/0815 33004KT CAVOK"
    },
    {
      "icao": "EKCH",
      "alert": "OK",
      "vis_m": 9999,
      "fzfg": false,
      "metar_trigger": false,
      "taf_trigger": false,
      "metar": "METAR EKCH 071450Z AUTO 35014KT 9999 NCD 11/M06 Q1027 NOSIG",
      "taf": "TAF EKCH 071427Z 0715/0815 35014KT CAVOK"
    },
    {
      "icao": "ENAL",
      "alert": "OK",
      "vis_m": 9999,
      "fzfg": false,
      "metar_trigger": false,
      "taf_trigger": false,
      "metar": "METAR ENAL 071450Z 02005KT CAVOK 08/02 Q1029",
      "taf": "TAF ENAL 071400Z 0715/0724 VRB04KT CAVOK"
    },
    {
      "icao": "ENBR",
      "alert": "OK",
      "vis_m": 9999,
      "fzfg": false,
      "metar_trigger": false,
      "taf_trigger": false,
      "metar": "METAR ENBR 071450Z 21006KT CAVOK 10/M03 Q1028 NOSIG RMK WIND 1200FT 14006KT",
      "taf": "TAF ENBR 071100Z 0712/0812 24007KT CAVOK"
    },
    {
      "icao": "ENGM",
      "alert": "OK",
      "vis_m": 9999,
      "fzfg": false,
      "metar_trigger": false,
      "taf_trigger": false,
      "metar": "METAR ENGM 071450Z 36009KT 330V030 CAVOK 11/M05 Q1027 NOSIG",
      "taf": "TAF ENGM 071100Z 0712/0812 01008KT CAVOK"
    },
    {
      "icao": "ENHD",
      "alert": "OK",
      "vis_m": 9999,
      "fzfg": false,
      "metar_trigger": false,
      "taf_trigger": false,
      "metar": "METAR ENHD 071450Z 27004KT CAVOK 09/M02 Q1029",
      "taf": "TAF ENHD 071400Z 0715/0722 30007KT CAVOK"
    },
    {
      "icao": "ENTC",
      "alert": "OK",
      "vis_m": 9999,
      "fzfg": false,
      "metar_trigger": false,
      "taf_trigger": false,
      "metar": "METAR ENTC 071450Z 21006KT CAVOK 05/M04 Q1032 NOSIG RMK WIND 2600FT 16011KT",
      "taf": "TAF ENTC 071100Z 0712/0812 20006KT CAVOK"
    },
    {
      "icao": "ENTO",
      "alert": "OK",
      "vis_m": 9999,
      "fzfg": false,
      "metar_trigger": false,
      "taf_trigger": false,
      "metar": "METAR ENTO 071450Z 04005KT 010V080 CAVOK 12/M04 Q1028 NOSIG",
      "taf": "TAF ENTO 071100Z 0712/0812 34007KT CAVOK"
    },
    {
      "icao": "ENVA",
      "alert": "OK",
      "vis_m": 9999,
      "fzfg": false,
      "metar_trigger": false,
      "taf_trigger": false,
      "metar": "METAR ENVA 071450Z 25005KT 9999 FEW022 SCT035 08/04 Q1030 NOSIG RMK WIND 670FT 31005KT",
      "taf": "TAF ENVA 071100Z 0712/0812 VRB04KT 9999 FEW010 BKN020"
    },
    {
      "icao": "ENZV",
      "alert": "OK",
      "vis_m": 9999,
      "fzfg": false,
      "metar_trigger": false,
      "taf_trigger": false,
      "metar": "METAR ENZV 071450Z 29007KT CAVOK 09/00 Q1029 NOSIG",
      "taf": "TAF ENZV 071100Z 0712/0812 30010KT CAVOK"
    },
    {
      "icao": "EPGD",
      "alert": "OK",
      "vis_m": 9999,
      "fzfg": false,
      "metar_trigger": false,
      "taf_trigger": false,
      "metar": "METAR EPGD 071430Z 34018G30KT 9999 BKN026 05/M01 Q1022",
      "taf": "TAF EPGD 071130Z 0712/0812 33020KT 9999 BKN035"
    },
    {
      "icao": "EPKK",
      "alert": "OK",
      "vis_m": 9999,
      "fzfg": false,
      "metar_trigger": false,
      "taf_trigger": false,
      "metar": "METAR EPKK 071430Z 33019KT 300V360 9999 SCT060 11/M03 Q1018",
      "taf": "TAF EPKK 071430Z 0715/0815 29020G32KT CAVOK"
    },
    {
      "icao": "EPKT",
      "alert": "OK",
      "vis_m": 9999,
      "fzfg": false,
      "metar_trigger": false,
      "taf_trigger": false,
      "metar": "METAR EPKT 071430Z 33014KT 9999 FEW044 08/M04 Q1020",
      "taf": "TAF EPKT 071130Z 0712/0812 28018G28KT CAVOK"
    },
    {
      "icao": "EPLB",
      "alert": "OK",
      "vis_m": 9999,
      "fzfg": false,
      "metar_trigger": false,
      "taf_trigger": false,
      "metar": "METAR EPLB 071430Z 27009KT 9999 FEW030 04/03 Q1014",
      "taf": "TAF EPLB 071130Z 0712/0812 29020KT 9999 SCT030"
    },
    {
      "icao": "EPMO",
      "alert": "OK",
      "vis_m": 9999,
      "fzfg": false,
      "metar_trigger": false,
      "taf_trigger": false,
      "metar": "METAR EPMO 071430Z 32021G31KT 290V350 CAVOK 08/M02 Q1017",
      "taf": "TAF EPMO 071130Z 0712/0812 31020KT 9999 BKN035"
    },
    {
      "icao": "EPPO",
      "alert": "OK",
      "vis_m": 9999,
      "fzfg": false,
      "metar_trigger": false,
      "taf_trigger": false,
      "metar": "METAR EPPO 071430Z 33015KT CAVOK 12/M05 Q1022",
      "taf": "TAF EPPO 071130Z 0712/0812 30012KT 9999 BKN035"
    },
    {
      "icao": "EPRA",
      "alert": "OK",
      "vis_m": 9999,
      "fzfg": false,
      "metar_trigger": false,
      "taf_trigger": false,
      "metar": "METAR EPRA 071430Z 29013G24KT 9999 BKN033 07/02 Q1016",
      "taf": "TAF EPRA 071430Z 0715/0724 32016KT 9999 BKN040"
    },
    {
      "icao": "EPRZ",
      "alert": "OK",
      "vis_m": 9999,
      "fzfg": false,
      "metar_trigger": false,
      "taf_trigger": false,
      "metar": "METAR EPRZ 071430Z 29018KT CAVOK 11/M05 Q1015",
      "taf": "TAF EPRZ 071130Z 0712/0812 28022G35KT CAVOK"
    },
    {
      "icao": "EPSC",
      "alert": "OK",
      "vis_m": 9999,
      "fzfg": false,
      "metar_trigger": false,
      "taf_trigger": false,
      "metar": "METAR EPSC 071430Z 32016KT CAVOK 10/M03 Q1025",
      "taf": "TAF EPSC 071130Z 0712/0812 32015KT CAVOK"
    },
    {
      "icao": "EPSY",
      "alert": "OK",
      "vis_m": 9999,
      "fzfg": false,
      "metar_trigger": false,
      "taf_trigger": false,
      "metar": "METAR EPSY 071430Z 32018G28KT 290V360 9999 VCSH SCT012CB BKN023 BKN038 05/01 Q1017",
      "taf": "TAF EPSY 071430Z 0715/0724 32012KT 9999 BKN035"
    },
    {
      "icao": "EPWA",
      "alert": "OK",
      "vis_m": 9999,
      "fzfg": false,
      "metar_trigger": false,
      "taf_trigger": false,
      "metar": "METAR EPWA 071430Z 33023KT CAVOK 10/M03 Q1016 NOSIG",
      "taf": "TAF EPWA 071430Z 0715/0815 33020KT 9999 SCT045"
    },
    {
      "icao": "EPWR",
      "alert": "OK",
      "vis_m": 9999,
      "fzfg": false,
      "metar_trigger": false,
      "taf_trigger": false,
      "metar": "METAR EPWR 071430Z 31015KT 9999 FEW044 11/M00 Q1023",
      "taf": "TAF EPWR 071430Z 0715/0815 32014KT 9999 SCT045"
    },
    {
      "icao": "ESGG",
      "alert": "OK",
      "vis_m": 9999,
      "fzfg": false,
      "metar_trigger": false,
      "taf_trigger": false,
      "metar": "METAR ESGG 071450Z 02009KT 350V060 CAVOK 11/M06 Q1027",
      "taf": "TAF ESGG 071430Z 0715/0815 36010KT CAVOK"
    },
    {
      "icao": "ESKN",
      "alert": "OK",
      "vis_m": 9999,
      "fzfg": false,
      "metar_trigger": false,
      "taf_trigger": false,
      "metar": "METAR ESKN 071450Z 34014G25KT 9999 BKN038 08/00 Q1024",
      "taf": ""
    },
    {
      "icao": "ESMS",
      "alert": "OK",
      "vis_m": 9999,
      "fzfg": false,
      "metar_trigger": false,
      "taf_trigger": false,
      "metar": "METAR ESMS 071450Z 31018KT CAVOK 10/M02 Q1025",
      "taf": "TAF ESMS 071427Z 0715/0815 33015KT CAVOK"
    },
    {
      "icao": "ESSA",
      "alert": "OK",
      "vis_m": 9999,
      "fzfg": false,
      "metar_trigger": false,
      "taf_trigger": false,
      "metar": "METAR ESSA 071450Z 35019KT 9999 BKN024 05/M00 Q1024 NOSIG",
      "taf": "TAF ESSA 071430Z 0715/0815 36020KT 9999 BKN025"
    },
    {
      "icao": "EYKA",
      "alert": "OK",
      "vis_m": 9999,
      "fzfg": false,
      "metar_trigger": false,
      "taf_trigger": false,
      "metar": "METAR EYKA 071450Z VRB08G19KT 9999 -RA BKN016 OVC023 04/02 Q1010",
      "taf": "TAF EYKA 071100Z 0712/0812 32012KT 9000 BKN020"
    },
    {
      "icao": "EYPA",
      "alert": "OK",
      "vis_m": 9999,
      "fzfg": false,
      "metar_trigger": false,
      "taf_trigger": false,
      "metar": "METAR EYPA 071450Z 35010KT 310V040 9999 OVC011 04/02 Q1017",
      "taf": "TAF EYPA 071100Z 0712/0812 34013KT 9000 OVC010"
    },
    {
      "icao": "EYVI",
      "alert": "OK",
      "vis_m": 9999,
      "fzfg": false,
      "metar_trigger": false,
      "taf_trigger": false,
      "metar": "METAR EYVI 071450Z 33013KT 9999 BKN013 OVC019 04/02 Q1008 NOSIG",
      "taf": "TAF EYVI 071100Z 0712/0812 33012KT 5000 RA OVC010"
    },
    {
      "icao": "GCFV",
      "alert": "OK",
      "vis_m": 9999,
      "fzfg": false,
      "metar_trigger": false,
      "taf_trigger": false,
      "metar": "METAR GCFV 071430Z 31011G22KT 250V340 9999 FEW040 23/11 Q1020",
      "taf": "TAF GCFV 071400Z 0715/0815 01015KT 9999 SCT030 TX20/0814Z TN16/0806Z"
    },
    {
      "icao": "GCLP",
      "alert": "OK",
      "vis_m": 9999,
      "fzfg": false,
      "metar_trigger": false,
      "taf_trigger": false,
      "metar": "METAR GCLP 071430Z 02020KT 350V050 9999 BKN050 22/13 Q1020 NOSIG",
      "taf": "TAF GCLP 071400Z 0715/0815 36019KT 9999 BKN030 TX20/0814Z TN14/0806Z"
    },
    {
      "icao": "GCTS",
      "alert": "OK",
      "vis_m": 9999,
      "fzfg": false,
      "metar_trigger": false,
      "taf_trigger": false,
      "metar": "METAR GCTS 071430Z 16009KT 120V200 9999 SCT030 22/13 Q1021 NOSIG",
      "taf": "TAF GCTS 071400Z 0715/0815 05017KT 9999 SCT035 TX20/0814Z TN14/0806Z"
    },
    {
      "icao": "GMAD",
      "alert": "OK",
      "vis_m": 8000,
      "fzfg": false,
      "metar_trigger": false,
      "taf_trigger": false,
      "metar": "METAR GMAD 071430Z 25013KT 230V290 8000 FEW030 SCT100 24/14 Q1018 NOSIG",
      "taf": "TAF GMAD 071100Z 0712/0818 26010KT 8000 SCT026 BKN080"
    },
    {
      "icao": "GMMN",
      "alert": "OK",
      "vis_m": 8000,
      "fzfg": false,
      "metar_trigger": false,
      "taf_trigger": false,
      "metar": "METAR GMMN 071430Z 29010KT 260V320 8000 BKN026 SCT030TCU 19/14 Q1017 NOSIG",
      "taf": "TAF GMMN 071100Z 0712/0818 24012KT 9999 BKN020"
    },
    {
      "icao": "GMMX",
      "alert": "OK",
      "vis_m": 8000,
      "fzfg": false,
      "metar_trigger": false,
      "taf_trigger": false,
      "metar": "METAR GMMX 071430Z 32007KT 280V040 8000 SCT023 BKN080 23/13 Q1017 NOSIG",
      "taf": "TAF GMMX 071100Z 0712/0818 06006KT 8000 SCT033"
    },
    {
      "icao": "HEGN",
      "alert": "OK",
      "vis_m": 9999,
      "fzfg": false,
      "metar_trigger": false,
      "taf_trigger": false,
      "metar": "METAR HEGN 071400Z 01010KT 9999 SCT020 28/03 Q1016 NOSIG",
      "taf": "TAF HEGN 071100Z 0712/0818 01015KT 9999 SCT025"
    },
    {
      "icao": "HEMA",
      "alert": "OK",
      "vis_m": 9999,
      "fzfg": false,
      "metar_trigger": false,
      "taf_trigger": false,
      "metar": "METAR HEMA 071400Z 36013KT CAVOK 26/09 Q1016 NOSIG",
      "taf": "TAF HEMA 071100Z 0712/0818 02018KT CAVOK"
    },
    {
      "icao": "HESH",
      "alert": "OK",
      "vis_m": 9999,
      "fzfg": false,
      "metar_trigger": false,
      "taf_trigger": false,
      "metar": "METAR HESH 071400Z 27014KT CAVOK 31/03 Q1014 NOSIG",
      "taf": "TAF HESH 071100Z 0712/0818 05012KT CAVOK"
    },
    {
      "icao": "HESX",
      "alert": "OK",
      "vis_m": 9999,
      "fzfg": false,
      "metar_trigger": false,
      "taf_trigger": false,
      "metar": "METAR HESX 071400Z 28012KT 9999 SCT020 23/06 Q1019 NOSIG",
      "taf": "TAF HESX 071100Z 0712/0818 33013KT 9999 SCT025"
    },
    {
      "icao": "LATI",
      "alert": "OK",
      "vis_m": 9999,
      "fzfg": false,
      "metar_trigger": false,
      "taf_trigger": false,
      "metar": "METAR LATI 071450Z 30004KT 260V360 CAVOK 21/03 Q1020 NOSIG",
      "taf": "TAF LATI 071100Z 0712/0812 29010KT CAVOK TX24/0812Z TN08/0804Z"
    },
    {
      "icao": "LBPD",
      "alert": "OK",
      "vis_m": 9999,
      "fzfg": false,
      "metar_trigger": false,
      "taf_trigger": false,
      "metar": "METAR LBPD 071430Z AUTO 29021KT 9999 NCD 23/04 Q1013 TEMPO 28022G32KT",
      "taf": "TAF LBPD 071100Z 0712/0812 27022KT 9999 SCT080"
    },
    {
      "icao": "LBSF",
      "alert": "OK",
      "vis_m": 9999,
      "fzfg": false,
      "metar_trigger": false,
      "taf_trigger": false,
      "metar": "METAR LBSF 071430Z 31019G29KT 9999 SCT076 19/04 Q1016 TEMPO 28020G30KT",
      "taf": "TAF LBSF 071100Z 0712/0812 28020KT 9999 SCT080"
    },
    {
      "icao": "LBWN",
      "alert": "OK",
      "vis_m": 9999,
      "fzfg": false,
      "metar_trigger": false,
      "taf_trigger": false,
      "metar": "METAR LBWN 071430Z 10010KT 9999 FEW036 10/05 Q1015 NOSIG",
      "taf": "TAF LBWN 071100Z 0712/0812 27010KT 9999 BKN040"
    },
    {
      "icao": "LCLK",
      "alert": "OK",
      "vis_m": 9999,
      "fzfg": false,
      "metar_trigger": false,
      "taf_trigger": false,
      "metar": "METAR LCLK 071430Z 22013KT 9999 FEW022 FEW030TCU 20/15 Q1015 NOSIG",
      "taf": "TAF LCLK 071130Z 0712/0812 22018KT 9999 FEW025"
    },
    {
      "icao": "LCPH",
      "alert": "OK",
      "vis_m": 9999,
      "fzfg": false,
      "metar_trigger": false,
      "taf_trigger": false,
      "metar": "METAR LCPH 071430Z 31013KT 9999 FEW020 19/14 Q1017 NOSIG",
      "taf": "TAF LCPH 071130Z 0712/0812 29015KT 9999 FEW020"
    },
    {
      "icao": "LEAL",
      "alert": "OK",
      "vis_m": 9999,
      "fzfg": false,
      "metar_trigger": false,
      "taf_trigger": false,
      "metar": "METAR LEAL 071430Z 08013KT 9999 FEW035 19/12 Q1019 NOSIG",
      "taf": "TAF LEAL 071100Z 0712/0812 VRB04KT 9999 FEW015 TX21/0712Z TN12/0806Z"
    },
    {
      "icao": "LEBB",
      "alert": "OK",
      "vis_m": 9999,
      "fzfg": false,
      "metar_trigger": false,
      "taf_trigger": false,
      "metar": "METAR LEBB 071430Z VRB03KT CAVOK 25/09 Q1014 NOSIG",
      "taf": "TAF LEBB 071100Z 0712/0812 13009KT CAVOK TX27/0713Z TN14/0806Z"
    },
    {
      "icao": "LEBL",
      "alert": "OK",
      "vis_m": 9999,
      "fzfg": false,
      "metar_trigger": false,
      "taf_trigger": false,
      "metar": "METAR LEBL 071430Z 07008KT 040V110 CAVOK 19/12 Q1020 NOSIG",
      "taf": "TAF LEBL 071100Z 0712/0812 08010KT CAVOK TX20/0712Z TN11/0805Z"
    },
    {
      "icao": "LECH",
      "alert": "OK",
      "vis_m": 9999,
      "fzfg": false,
      "metar_trigger": false,
      "taf_trigger": false,
      "metar": "METAR LECH 071430Z AUTO 11010KT 080V140 CAVOK 18/03 Q1020",
      "taf": "TAF LECH 071100Z 0712/0812 09006KT CAVOK TX23/0714Z TN10/0806Z"
    },
    {
      "icao": "LEMD",
      "alert": "OK",
      "vis_m": 9999,
      "fzfg": false,
      "metar_trigger": false,
      "taf_trigger": false,
      "metar": "METAR LEMD 071430Z 20003KT CAVOK 22/06 Q1017 NOSIG",
      "taf": "TAF LEMD 071100Z 0712/0818 VRB05KT CAVOK TX23/0715Z TN10/0806Z"
    },
    {
      "icao": "LEMG",
      "alert": "OK",
      "vis_m": 9999,
      "fzfg": false,
      "metar_trigger": false,
      "taf_trigger": false,
      "metar": "METAR LEMG 071430Z 15008KT 110V190 CAVOK 19/12 Q1018 NOSIG",
      "taf": "TAF LEMG 071100Z 0712/0812 14008KT CAVOK TX22/0714Z TN14/0806Z"
    },
    {
      "icao": "LEVC",
      "alert": "OK",
      "vis_m": 9999,
      "fzfg": false,
      "metar_trigger": false,
      "taf_trigger": false,
      "metar": "METAR LEVC 071430Z 13006KT 080V180 CAVOK 19/07 Q1020 NOSIG",
      "taf": "TAF LEVC 071100Z 0712/0812 09010KT 9999 FEW010 TX22/0714Z TN11/0806Z"
    },
    {
      "icao": "LEXJ",
      "alert": "OK",
      "vis_m": 9999,
      "fzfg": false,
      "metar_trigger": false,
      "taf_trigger": false,
      "metar": "METAR LEXJ 071430Z 14008KT 080V170 CAVOK 26/12 Q1013",
      "taf": "TAF LEXJ 071400Z 0715/0815 10009KT CAVOK TX27/0716Z TN15/0806Z"
    },
    {
      "icao": "LEZG",
      "alert": "OK",
      "vis_m": 9999,
      "fzfg": false,
      "metar_trigger": false,
      "taf_trigger": false,
      "metar": "METAR LEZG 071430Z 09009KT 060V120 CAVOK 24/03 Q1017 NOSIG",
      "taf": "TAF LEZG 071100Z 0712/0812 09010KT CAVOK TX28/0714Z TN12/0806Z"
    },
    {
      "icao": "LEZL",
      "alert": "OK",
      "vis_m": 9999,
      "fzfg": false,
      "metar_trigger": false,
      "taf_trigger": false,
      "metar": "METAR LEZL 071430Z 22018KT 190V260 9999 FEW025 BKN035 20/13 Q1016 NOSIG",
      "taf": "TAF LEZL 071400Z 0715/0815 22012KT 9999 FEW030 TX27/0715Z TN14/0806Z"
    },
    {
      "icao": "LFBD",
      "alert": "OK",
      "vis_m": 9999,
      "fzfg": false,
      "metar_trigger": false,
      "taf_trigger": false,
      "metar": "METAR LFBD 071430Z AUTO 11007KT 080V140 CAVOK 27/09 Q1016 NOSIG",
      "taf": "TAF LFBD 071100Z 0712/0818 13010KT CAVOK TX27/0715Z TN13/0805Z"
    },
    {
      "icao": "LFLL",
      "alert": "OK",
      "vis_m": 9999,
      "fzfg": false,
      "metar_trigger": false,
      "taf_trigger": false,
      "metar": "METAR LFLL 071430Z 19011KT CAVOK 26/M01 Q1020 NOSIG",
      "taf": "TAF LFLL 071100Z 0712/0818 17012KT CAVOK"
    },
    {
      "icao": "LFLS",
      "alert": "OK",
      "vis_m": 9999,
      "fzfg": false,
      "metar_trigger": false,
      "taf_trigger": false,
      "metar": "METAR LFLS 071430Z AUTO VRB07KT CAVOK 23/02 Q1021 NOSIG",
      "taf": "TAF LFLS 071400Z 0715/0815 22008KT CAVOK"
    },
    {
      "icao": "LFMN",
      "alert": "OK",
      "vis_m": 9999,
      "fzfg": false,
      "metar_trigger": false,
      "taf_trigger": false,
      "metar": "METAR LFMN 071430Z 14005KT 9999 SCT016 17/13 Q1023 NOSIG",
      "taf": "TAF LFMN 071400Z 0715/0821 15005KT 9999 FEW018"
    },
    {
      "icao": "LFOB",
      "alert": "OK",
      "vis_m": 9999,
      "fzfg": false,
      "metar_trigger": false,
      "taf_trigger": false,
      "metar": "METAR LFOB 071430Z AUTO 08011KT 050V130 CAVOK 22/10 Q1021 NOSIG",
      "taf": "TAF LFOB 071100Z 0712/0812 10009KT CAVOK"
    },
    {
      "icao": "LFPO",
      "alert": "OK",
      "vis_m": 9999,
      "fzfg": false,
      "metar_trigger": false,
      "taf_trigger": false,
      "metar": "METAR LFPO 071430Z 09010KT 060V130 CAVOK 24/09 Q1020 NOSIG",
      "taf": "TAF LFPO 071100Z 0712/0818 09008KT CAVOK"
    },
    {
      "icao": "LFSB",
      "alert": "OK",
      "vis_m": 9999,
      "fzfg": false,
      "metar_trigger": false,
      "taf_trigger": false,
      "metar": "METAR LFSB 071430Z AUTO 36008KT CAVOK 21/08 Q1022 NOSIG",
      "taf": "TAF LFSB 071100Z 0712/0812 35005KT CAVOK"
    },
    {
      "icao": "LGAV",
      "alert": "OK",
      "vis_m": 9999,
      "fzfg": false,
      "metar_trigger": false,
      "taf_trigger": false,
      "metar": "METAR LGAV 071450Z 22012KT 9999 FEW020 20/10 Q1018 NOSIG",
      "taf": "TAF LGAV 071100Z 0712/0812 VRB05KT 9999 FEW025"
    },
    {
      "icao": "LGTS",
      "alert": "OK",
      "vis_m": 9999,
      "fzfg": false,
      "metar_trigger": false,
      "taf_trigger": false,
      "metar": "METAR LGTS 071450Z 23006KT 9999 FEW025 26/09 Q1014 NOSIG",
      "taf": "TAF LGTS 071100Z 0712/0812 33006KT 9999 FEW025"
    },
    {
      "icao": "LHBP",
      "alert": "OK",
      "vis_m": 9999,
      "fzfg": false,
      "metar_trigger": false,
      "taf_trigger": false,
      "metar": "METAR LHBP 071430Z 31020KT CAVOK 16/M05 Q1018 NOSIG",
      "taf": "TAF LHBP 071115Z 0712/0812 30016G26KT CAVOK"
    },
    {
      "icao": "LHDC",
      "alert": "OK",
      "vis_m": 9999,
      "fzfg": false,
      "metar_trigger": false,
      "taf_trigger": false,
      "metar": "METAR LHDC 071415Z AUTO 32011KT 270V350 CAVOK 16/M06 Q1015 NOSIG",
      "taf": "TAF LHDC 071415Z 0715/0724 33012KT CAVOK"
    },
    {
      "icao": "LIBD",
      "alert": "OK",
      "vis_m": 9999,
      "fzfg": false,
      "metar_trigger": false,
      "taf_trigger": false,
      "metar": "METAR LIBD 071450Z 08005KT CAVOK 21/10 Q1020",
      "taf": "TAF LIBD 071100Z 0712/0812 04010KT CAVOK"
    },
    {
      "icao": "LIBG",
      "alert": "OK",
      "vis_m": 9999,
      "fzfg": false,
      "metar_trigger": false,
      "taf_trigger": false,
      "metar": "METAR LIBG 071350Z 20005KT 170V240 CAVOK 24/11 Q1020",
      "taf": "TAF LIBG 071400Z 0715/0724 21007KT 9999 FEW030"
    },
    {
      "icao": "LIBP",
      "alert": "OK",
      "vis_m": 9999,
      "fzfg": false,
      "metar_trigger": false,
      "taf_trigger": false,
      "metar": "METAR LIBP 071450Z AUTO 06006KT 030V090 9999 NCD 20/07 Q1020",
      "taf": "TAF LIBP 071100Z 0712/0812 07011KT CAVOK"
    },
    {
      "icao": "LIBR",
      "alert": "OK",
      "vis_m": 9999,
      "fzfg": false,
      "metar_trigger": false,
      "taf_trigger": false,
      "metar": "METAR LIBR 071450Z 03005KT CAVOK 18/12 Q1020",
      "taf": "TAF LIBR 071100Z 0712/0812 01010KT CAVOK"
    },
    {
      "icao": "LICA",
      "alert": "OK",
      "vis_m": 9999,
      "fzfg": false,
      "metar_trigger": false,
      "taf_trigger": false,
      "metar": "METAR LICA 071450Z AUTO 25012KT 9999 NCD 17/13 Q1023",
      "taf": "TAF LICA 071100Z 0712/0812 25008KT 9999 FEW020"
    },
    {
      "icao": "LICC",
      "alert": "OK",
      "vis_m": 9999,
      "fzfg": false,
      "metar_trigger": false,
      "taf_trigger": false,
      "metar": "METAR LICC 071450Z 07013KT CAVOK 20/15 Q1022",
      "taf": "TAF LICC 071100Z 0712/0812 08010KT CAVOK"
    },
    {
      "icao": "LICJ",
      "alert": "OK",
      "vis_m": 9999,
      "fzfg": false,
      "metar_trigger": false,
      "taf_trigger": false,
      "metar": "METAR LICJ 071450Z 03008KT CAVOK 18/13 Q1023",
      "taf": "TAF LICJ 071100Z 0712/0812 03009KT CAVOK"
    },
    {
      "icao": "LIMC",
      "alert": "OK",
      "vis_m": 9999,
      "fzfg": false,
      "metar_trigger": false,
      "taf_trigger": false,
      "metar": "METAR LIMC 071450Z 20005KT 120V280 CAVOK 25/11 Q1018 NOSIG",
      "taf": "TAF LIMC 071100Z 0712/0818 VRB05KT CAVOK"
    },
    {
      "icao": "LIME",
      "alert": "OK",
      "vis_m": 9999,
      "fzfg": false,
      "metar_trigger": false,
      "taf_trigger": false,
      "metar": "METAR LIME 071450Z 23008KT 190V270 CAVOK 24/11 Q1018 NOSIG",
      "taf": "TAF LIME 071100Z 0712/0812 23010KT CAVOK"
    },
    {
      "icao": "LIMF",
      "alert": "OK",
      "vis_m": 9999,
      "fzfg": false,
      "metar_trigger": false,
      "taf_trigger": false,
      "metar": "METAR LIMF 071450Z 11006KT 080V140 CAVOK 24/10 Q1019",
      "taf": "TAF LIMF 071100Z 0712/0812 VRB05KT CAVOK"
    },
    {
      "icao": "LIMJ",
      "alert": "OK",
      "vis_m": 9999,
      "fzfg": false,
      "metar_trigger": false,
      "taf_trigger": false,
      "metar": "METAR LIMJ 071450Z 16005KT 130V200 9999 SCT012 BKN030 16/14 Q1023",
      "taf": "TAF LIMJ 071100Z 0712/0812 15010KT 9999 SCT015 BKN025"
    },
    {
      "icao": "LIPE",
      "alert": "OK",
      "vis_m": 9999,
      "fzfg": false,
      "metar_trigger": false,
      "taf_trigger": false,
      "metar": "METAR LIPE 071450Z 01004KT 310V060 CAVOK 24/11 Q1018",
      "taf": "TAF LIPE 071100Z 0712/0812 VRB05KT CAVOK"
    },
    {
      "icao": "LIPH",
      "alert": "OK",
      "vis_m": 9999,
      "fzfg": false,
      "metar_trigger": false,
      "taf_trigger": false,
      "metar": "METAR LIPH 071450Z 18005KT 130V250 CAVOK 23/11 Q1018",
      "taf": "TAF LIPH 071100Z 0712/0812 VRB05KT 9999 FEW040"
    },
    {
      "icao": "LIPQ",
      "alert": "OK",
      "vis_m": 9999,
      "fzfg": false,
      "metar_trigger": false,
      "taf_trigger": false,
      "metar": "METAR LIPQ 071450Z AUTO 18006KT 150V210 9999 NCD 20/08 Q1019",
      "taf": "TAF LIPQ 071100Z 0712/0812 19010KT CAVOK"
    },
    {
      "icao": "LIPR",
      "alert": "OK",
      "vis_m": 9999,
      "fzfg": false,
      "metar_trigger": false,
      "taf_trigger": false,
      "metar": "METAR LIPR 071450Z 10007KT CAVOK 19/11 Q1019",
      "taf": "TAF LIPR 071100Z 0712/0812 06010KT CAVOK"
    },
    {
      "icao": "LIPX",
      "alert": "OK",
      "vis_m": 9999,
      "fzfg": false,
      "metar_trigger": false,
      "taf_trigger": false,
      "metar": "METAR LIPX 071450Z 22003KT 160V290 CAVOK 24/11 Q1018",
      "taf": "TAF LIPX 071100Z 0712/0812 VRB05KT CAVOK"
    },
    {
      "icao": "LIPY",
      "alert": "OK",
      "vis_m": 9999,
      "fzfg": false,
      "metar_trigger": false,
      "taf_trigger": false,
      "metar": "METAR LIPY 071450Z AUTO 06007KT 9999 NCD 20/08 Q1019",
      "taf": "TAF LIPY 071100Z 0712/0812 VRB05KT CAVOK"
    },
    {
      "icao": "LIPZ",
      "alert": "OK",
      "vis_m": 9999,
      "fzfg": false,
      "metar_trigger": false,
      "taf_trigger": false,
      "metar": "METAR LIPZ 071450Z 15006KT CAVOK 20/12 Q1018 NOSIG",
      "taf": "TAF LIPZ 071100Z 0712/0818 16010KT CAVOK"
    },
    {
      "icao": "LIRF",
      "alert": "OK",
      "vis_m": 9999,
      "fzfg": false,
      "metar_trigger": false,
      "taf_trigger": false,
      "metar": "METAR LIRF 071450Z 24007KT 210V270 CAVOK 18/13 Q1023 NOSIG",
      "taf": "TAF LIRF 071100Z 0712/0818 22010KT CAVOK"
    },
    {
      "icao": "LIRN",
      "alert": "OK",
      "vis_m": 9999,
      "fzfg": false,
      "metar_trigger": false,
      "taf_trigger": false,
      "metar": "METAR LIRN 071450Z 19008KT 160V230 CAVOK 17/11 Q1023 NOSIG",
      "taf": "TAF LIRN 071100Z 0712/0812 22010KT 8000 FEW016"
    },
    {
      "icao": "LIRP",
      "alert": "OK",
      "vis_m": 9999,
      "fzfg": false,
      "metar_trigger": false,
      "taf_trigger": false,
      "metar": "METAR LIRP 071445Z 27008KT CAVOK 19/09 Q1022 NOSIG",
      "taf": "TAF LIRP 071100Z 0712/0812 24005KT CAVOK"
    },
    {
      "icao": "LIRZ",
      "alert": "OK",
      "vis_m": 9999,
      "fzfg": false,
      "metar_trigger": false,
      "taf_trigger": false,
      "metar": "METAR LIRZ 071450Z AUTO 22004KT 160V260 9999 NCD 23/06 Q1021",
      "taf": "TAF LIRZ 071100Z 0712/0812 VRB04KT CAVOK"
    },
    {
      "icao": "LJLJ",
      "alert": "OK",
      "vis_m": 9999,
      "fzfg": false,
      "metar_trigger": false,
      "taf_trigger": false,
      "metar": "METAR LJLJ 071430Z 05004KT 340V100 9999 FEW075 21/06 Q1018 NOSIG",
      "taf": "TAF LJLJ 071100Z 0712/0812 VRB02KT CAVOK"
    },
    {
      "icao": "LKMT",
      "alert": "OK",
      "vis_m": 9999,
      "fzfg": false,
      "metar_trigger": false,
      "taf_trigger": false,
      "metar": "METAR LKMT 071430Z 35016KT CAVOK 12/M04 Q1020 NOSIG",
      "taf": "TAF LKMT 071100Z 0712/0812 35012KT CAVOK"
    },
    {
      "icao": "LKPR",
      "alert": "OK",
      "vis_m": 9999,
      "fzfg": false,
      "metar_trigger": false,
      "taf_trigger": false,
      "metar": "METAR LKPR 071430Z 31014KT CAVOK 14/M07 Q1023 NOSIG",
      "taf": "TAF LKPR 071400Z 0715/0821 34014KT CAVOK"
    },
    {
      "icao": "LLBG",
      "alert": "OK",
      "vis_m": 9999,
      "fzfg": false,
      "metar_trigger": false,
      "taf_trigger": false,
      "metar": "METAR LLBG 071450Z 29009KT 9999 FEW037 18/11 Q1018 NOSIG",
      "taf": "TAF LLBG 071111Z 0712/0812 28012KT 9999 SCT035 TX20/0712Z TN12/0804Z"
    },
    {
      "icao": "LMML",
      "alert": "OK",
      "vis_m": 9999,
      "fzfg": false,
      "metar_trigger": false,
      "taf_trigger": false,
      "metar": "METAR LMML 071445Z 22010KT 9999 FEW015 19/13 Q1024 NOSIG",
      "taf": "TAF LMML 071100Z 0712/0812 27010KT 9999 FEW015"
    },
    {
      "icao": "LOWW",
      "alert": "OK",
      "vis_m": 9999,
      "fzfg": false,
      "metar_trigger": false,
      "taf_trigger": false,
      "metar": "METAR LOWW 071450Z 33018KT 300V360 CAVOK 18/M02 Q1019 NOSIG",
      "taf": "TAF LOWW 071415Z 0715/0821 34012KT CAVOK TX17/0715Z TN05/0804Z"
    },
    {
      "icao": "LPFR",
      "alert": "OK",
      "vis_m": 9999,
      "fzfg": false,
      "metar_trigger": false,
      "taf_trigger": false,
      "metar": "METAR LPFR 071430Z 27016KT 9999 FEW010 BKN026 14/09 Q1015",
      "taf": "TAF LPFR 071100Z 0712/0812 19012KT 9999 SCT015 BKN030"
    },
    {
      "icao": "LPMA",
      "alert": "OK",
      "vis_m": 9999,
      "fzfg": false,
      "metar_trigger": false,
      "taf_trigger": false,
      "metar": "METAR LPMA 071430Z 35013KT 300V030 9999 SCT014 17/06 Q1024",
      "taf": "TAF LPMA 071100Z 0712/0812 34013KT 9999 SCT014 SCT030"
    },
    {
      "icao": "LPPR",
      "alert": "OK",
      "vis_m": 9999,
      "fzfg": false,
      "metar_trigger": false,
      "taf_trigger": false,
      "metar": "METAR LPPR 071430Z 19011KT 9999 VCSH FEW019 BKN045 14/11 Q1012",
      "taf": "TAF LPPR 071100Z 0712/0812 22008KT 9999 SCT018 SCT035"
    },
    {
      "icao": "LPPS",
      "alert": "OK",
      "vis_m": 9999,
      "fzfg": false,
      "metar_trigger": false,
      "taf_trigger": false,
      "metar": "METAR LPPS 071430Z 33019KT 9999 SCT015 17/06 Q1023",
      "taf": "TAF LPPS 071100Z 0712/0818 33018KT 9999 SCT015 SCT030"
    },
    {
      "icao": "LPPT",
      "alert": "OK",
      "vis_m": 9999,
      "fzfg": false,
      "metar_trigger": false,
      "taf_trigger": false,
      "metar": "METAR LPPT 071430Z 21010KT 9999 -RA FEW014 SCT048 11/09 Q1014",
      "taf": "TAF LPPT 071100Z 0712/0818 24010KT 9999 SCT025"
    },
    {
      "icao": "LQBK",
      "alert": "OK",
      "vis_m": 9999,
      "fzfg": false,
      "metar_trigger": false,
      "taf_trigger": false,
      "metar": "METAR LQBK 071430Z VRB03KT CAVOK 20/05 Q1019 NOSIG",
      "taf": "TAF LQBK 071100Z 0712/0812 06006KT CAVOK TX22/0713Z TN05/0805Z"
    },
    {
      "icao": "LQSA",
      "alert": "OK",
      "vis_m": 9999,
      "fzfg": false,
      "metar_trigger": false,
      "taf_trigger": false,
      "metar": "METAR LQSA 071430Z VRB03KT 9999 FEW060 22/05 Q1017 NOSIG",
      "taf": "TAF LQSA 071100Z 0712/0812 32006KT 9999 SCT050 TX23/0714Z TN04/0805Z"
    },
    {
      "icao": "LQTZ",
      "alert": "OK",
      "vis_m": 9999,
      "fzfg": false,
      "metar_trigger": false,
      "taf_trigger": false,
      "metar": "METAR LQTZ 071430Z 30008KT 250V340 CAVOK 21/05 Q1018",
      "taf": "TAF LQTZ 071100Z 0712/0812 10005KT CAVOK TX22/0713Z TN05/0805Z"
    },
    {
      "icao": "LRBC",
      "alert": "OK",
      "vis_m": 9999,
      "fzfg": false,
      "metar_trigger": false,
      "taf_trigger": false,
      "metar": "METAR LRBC 071430Z 34011KT 320V020 9999 FEW035CB BKN063 12/M02 Q1013",
      "taf": "TAF LRBC 071400Z 0715/0724 35008KT 9999 BKN060"
    },
    {
      "icao": "LRBS",
      "alert": "OK",
      "vis_m": 9999,
      "fzfg": false,
      "metar_trigger": false,
      "taf_trigger": false,
      "metar": "METAR LRBS 071430Z 25009KT 210V320 CAVOK 17/01 Q1013 NOSIG",
      "taf": "TAF LRBS 071100Z 0712/0812 25010KT CAVOK"
    },
    {
      "icao": "LRBV",
      "alert": "OK",
      "vis_m": 9999,
      "fzfg": false,
      "metar_trigger": false,
      "taf_trigger": false,
      "metar": "METAR LRBV 071430Z 31009KT 270V350 9999 SCT081 10/M04 Q1014",
      "taf": "TAF LRBV 071400Z 0715/0724 30012KT CAVOK"
    },
    {
      "icao": "LRCL",
      "alert": "OK",
      "vis_m": 9999,
      "fzfg": false,
      "metar_trigger": false,
      "taf_trigger": false,
      "metar": "METAR LRCL 071430Z AUTO 30013KT 270V340 9999 NCD 14/M08 Q1014",
      "taf": "TAF LRCL 071400Z 0715/0724 29012KT CAVOK"
    },
    {
      "icao": "LRCV",
      "alert": "OK",
      "vis_m": 9999,
      "fzfg": false,
      "metar_trigger": false,
      "taf_trigger": false,
      "metar": "METAR LRCV 071430Z 30020KT CAVOK 17/M02 Q1014",
      "taf": "TAF LRCV 071400Z 0715/0724 29022KT CAVOK"
    },
    {
      "icao": "LRIA",
      "alert": "OK",
      "vis_m": 9999,
      "fzfg": false,
      "metar_trigger": false,
      "taf_trigger": false,
      "metar": "METAR LRIA 071430Z 30017KT 260V330 CAVOK 14/M05 Q1012",
      "taf": "TAF LRIA 071400Z 0715/0724 30012KT CAVOK"
    },
    {
      "icao": "LROP",
      "alert": "OK",
      "vis_m": 9999,
      "fzfg": false,
      "metar_trigger": false,
      "taf_trigger": false,
      "metar": "METAR LROP 071430Z 24009KT CAVOK 18/M03 Q1013 NOSIG",
      "taf": "TAF LROP 071100Z 0712/0812 26012KT CAVOK"
    },
    {
      "icao": "LRSB",
      "alert": "OK",
      "vis_m": 9999,
      "fzfg": false,
      "metar_trigger": false,
      "taf_trigger": false,
      "metar": "METAR LRSB 071430Z 29018KT CAVOK 14/M06 Q1014",
      "taf": "TAF LRSB 071100Z 0712/0812 32010KT CAVOK"
    },
    {
      "icao": "LRSM",
      "alert": "OK",
      "vis_m": 9999,
      "fzfg": false,
      "metar_trigger": false,
      "taf_trigger": false,
      "metar": "METAR LRSM 071430Z 33013KT CAVOK 16/M08 Q1015",
      "taf": "TAF LRSM 071400Z 0715/0724 32015KT CAVOK"
    },
    {
      "icao": "LRSV",
      "alert": "OK",
      "vis_m": 9999,
      "fzfg": false,
      "metar_trigger": false,
      "taf_trigger": false,
      "metar": "METAR LRSV 071430Z 31011KT 280V340 9999 FEW010 SCT035CB 10/M07 Q1011",
      "taf": "TAF LRSV 071400Z 0715/0724 29012KT 9999 SCT045"
    },
    {
      "icao": "LRTM",
      "alert": "OK",
      "vis_m": 9999,
      "fzfg": false,
      "metar_trigger": false,
      "taf_trigger": false,
      "metar": "METAR LRTM 071430Z 30014KT 270V340 CAVOK 14/M06 Q1014",
      "taf": "TAF LRTM 071400Z 0715/0724 32012KT CAVOK"
    },
    {
      "icao": "LRTR",
      "alert": "OK",
      "vis_m": 9999,
      "fzfg": false,
      "metar_trigger": false,
      "taf_trigger": false,
      "metar": "METAR LRTR 071430Z 30013KT CAVOK 17/M01 Q1017 NOSIG",
      "taf": "TAF LRTR 071100Z 0712/0812 30014KT CAVOK"
    },
    {
      "icao": "LTAC",
      "alert": "OK",
      "vis_m": 9999,
      "fzfg": false,
      "metar_trigger": false,
      "taf_trigger": false,
      "metar": "METAR LTAC 071450Z 33013KT 9999 FEW030CB BKN035 15/04 Q1013 NOSIG RMK RWY21C 32014KT 280V340 RWY03L 33012KT 290V350 RWY21R 31013KT 270V330 RWY03R 30014KT RWY21L 31014KT",
      "taf": "TAF LTAC 071040Z 0712/0812 VRB02KT 9999 SCT040 SCT100"
    },
    {
      "icao": "LTFM",
      "alert": "OK",
      "vis_m": 9999,
      "fzfg": false,
      "metar_trigger": false,
      "taf_trigger": false,
      "metar": "METAR LTFM 071450Z 08009KT 9999 SCT035 BKN100 11/07 Q1015 NOSIG RMK RWY17L 08009KT RWY34L 07008KT RWY16R 09009KT RWY36 07007KT 020V100 RWY18 09010KT",
      "taf": "TAF LTFM 071040Z 0712/0818 VRB02KT 9999 SCT035 BKN100"
    },
    {
      "icao": "LUKK",
      "alert": "OK",
      "vis_m": 9999,
      "fzfg": false,
      "metar_trigger": false,
      "taf_trigger": false,
      "metar": "METAR LUKK 071430Z 30012KT 9999 FEW047 10/02 Q1012 TEMPO 31020G34KT SCT045CB",
      "taf": ""
    },
    {
      "icao": "LWOH",
      "alert": "OK",
      "vis_m": 9999,
      "fzfg": false,
      "metar_trigger": false,
      "taf_trigger": false,
      "metar": "METAR LWOH 071450Z 27013KT 230V300 9999 SCT040 21/07 Q1019",
      "taf": "TAF LWOH 071420Z 0715/0815 27010KT 9999 SCT040"
    },
    {
      "icao": "LWSK",
      "alert": "OK",
      "vis_m": 9999,
      "fzfg": false,
      "metar_trigger": false,
      "taf_trigger": false,
      "metar": "METAR LWSK 071450Z VRB02KT 9999 FEW060 26/08 Q1015 NOSIG",
      "taf": "TAF LWSK 071420Z 0715/0815 VRB02KT 999 FEW060"
    },
    {
      "icao": "LYBE",
      "alert": "OK",
      "vis_m": 9999,
      "fzfg": false,
      "metar_trigger": false,
      "taf_trigger": false,
      "metar": "METAR LYBE 071430Z 29010KT CAVOK 18/03 Q1019 NOSIG",
      "taf": "TAF LYBE 071100Z 0712/0812 30010KT CAVOK TX19/0713Z TN04/0804Z"
    },
    {
      "icao": "LYNI",
      "alert": "OK",
      "vis_m": 9999,
      "fzfg": false,
      "metar_trigger": false,
      "taf_trigger": false,
      "metar": "METAR LYNI 071430Z 34008KT CAVOK 19/04 Q1017 NOSIG",
      "taf": "TAF LYNI 071100Z 0712/0812 29007KT CAVOK TX21/0713Z TN07/0805Z"
    },
    {
      "icao": "LYPG",
      "alert": "OK",
      "vis_m": 9999,
      "fzfg": false,
      "metar_trigger": false,
      "taf_trigger": false,
      "metar": "METAR LYPG 071430Z 14012KT 110V170 9999 FEW046 22/09 Q1018 NOSIG",
      "taf": "TAF LYPG 071100Z 0712/0812 16005KT CAVOK TX23/0713Z TN08/0804Z"
    },
    {
      "icao": "LZIB",
      "alert": "OK",
      "vis_m": 9999,
      "fzfg": false,
      "metar_trigger": false,
      "taf_trigger": false,
      "metar": "METAR LZIB 071430Z 33019KT CAVOK 17/M04 Q1019 NOSIG",
      "taf": "TAF LZIB 071115Z 0712/0812 30012KT CAVOK"
    },
    {
      "icao": "LZKZ",
      "alert": "OK",
      "vis_m": 9999,
      "fzfg": false,
      "metar_trigger": false,
      "taf_trigger": false,
      "metar": "METAR LZKZ 071430Z 34016KT CAVOK 15/M12 Q1014 NOSIG",
      "taf": ""
    },
    {
      "icao": "LZTT",
      "alert": "OK",
      "vis_m": 9999,
      "fzfg": false,
      "metar_trigger": false,
      "taf_trigger": false,
      "metar": "METAR LZTT 071430Z 29013G23KT 270V330 CAVOK 11/M12 Q1015 NOSIG",
      "taf": "TAF LZTT 071115Z 0712/0812 25014KT 9999 FEW065"
    },
    {
      "icao": "OEJN",
      "alert": "OK",
      "vis_m": 9999,
      "fzfg": false,
      "metar_trigger": false,
      "taf_trigger": false,
      "metar": "METAR OEJN 071400Z 32013KT 9999 FEW040 29/15 Q1012 NOSIG",
      "taf": "TAF OEJN 071100Z 0712/0818 32014KT 7000 FEW040"
    },
    {
      "icao": "OEMA",
      "alert": "OK",
      "vis_m": 9999,
      "fzfg": false,
      "metar_trigger": false,
      "taf_trigger": false,
      "metar": "METAR OEMA 071400Z 31011KT 9999 BKN045 30/M01 Q1016 NOSIG",
      "taf": "TAF OEMA 071100Z 0712/0818 28010KT 9999 FEW045"
    },
    {
      "icao": "OJAI",
      "alert": "OK",
      "vis_m": 5000,
      "fzfg": false,
      "metar_trigger": false,
      "taf_trigger": false,
      "metar": "METAR OJAI 071400Z 29014KT 5000 HZ FEW030 FEW035 13/08 Q1019 NOSIG",
      "taf": "TAF OJAI 071100Z 0712/0818 27012KT 4000 HZ FEW025TCU SCT030"
    },
    {
      "icao": "OMAA",
      "alert": "OK",
      "vis_m": null,
      "fzfg": false,
      "metar_trigger": false,
      "taf_trigger": false,
      "metar": "",
      "taf": ""
    },
    {
      "icao": "OMDB",
      "alert": "OK",
      "vis_m": null,
      "fzfg": false,
      "metar_trigger": false,
      "taf_trigger": false,
      "metar": "",
      "taf": ""
    },
    {
      "icao": "UAAA",
      "alert": "OK",
      "vis_m": 9999,
      "fzfg": false,
      "metar_trigger": false,
      "taf_trigger": false,
      "metar": "METAR UAAA 071430Z 18003MPS 9999 SCT100 19/09 Q1003 NOSIG",
      "taf": "TAF UAAA 071103Z 0712/0812 01002MPS 9999 SCT050CB BKN100 TX25/0810Z TN12/0801Z"
    },
    {
      "icao": "UBBB",
      "alert": "OK",
      "vis_m": 9999,
      "fzfg": false,
      "metar_trigger": false,
      "taf_trigger": false,
      "metar": "METAR UBBB 071430Z 17014KT CAVOK 14/08 Q1010 NOSIG",
      "taf": "TAF UBBB 071049Z 0712/0812 17014KT CAVOK TX16/0712Z TN09/0801Z"
    },
    {
      "icao": "UDSG",
      "alert": "OK",
      "vis_m": 9999,
      "fzfg": false,
      "metar_trigger": false,
      "taf_trigger": false,
      "metar": "METAR UDSG 071430Z 14009KT 9999 BKN043CB 07/02 Q1013 NOSIG",
      "taf": "TAF UDSG 071100Z 0712/0812 22006KT 9999 SCT040"
    },
    {
      "icao": "UDYZ",
      "alert": "OK",
      "vis_m": 9999,
      "fzfg": false,
      "metar_trigger": false,
      "taf_trigger": false,
      "metar": "METAR UDYZ 071430Z 25008KT 9999 SCT043CB 17/01 Q1010 NOSIG",
      "taf": "TAF UDYZ 071100Z 0712/0812 23006KT SCT040"
    },
    {
      "icao": "UGKO",
      "alert": "OK",
      "vis_m": 9999,
      "fzfg": false,
      "metar_trigger": false,
      "taf_trigger": false,
      "metar": "METAR UGKO 071430Z 27010KT CAVOK 18/08 Q1009 NOSIG",
      "taf": "TAF UGKO 071100Z 0712/0812 25007KT CAVOK TX20/0712Z TN07/0803Z"
    }
  ]
}