{
  "ts_utc": "2025-12-26T03:14:52Z",
  "threshold_m": 150,
  "source": "stations_override.txt (ICAO list) + aviationweather.gov (METAR/TAF raw)",
  "station_count": 159,
  "stations": [
    {
      "icao": "BIKF",
      "alert": "OK",
      "vis_m": 9999,
      "fzfg": false,
      "metar_trigger": false,
      "taf_trigger": false,
      "metar": "METAR BIKF 260300Z 28024KT 9999 -RASN OVC010 03/02 Q1019",
      "taf": "TAF BIKF 260120Z 2603/2703 28022G32KT 4000 -RADZ BR SCT007 BKN013 TX04/2613Z TN00/2703Z"
    },
    {
      "icao": "BKPR",
      "alert": "OK",
      "vis_m": 9999,
      "fzfg": false,
      "metar_trigger": false,
      "taf_trigger": false,
      "metar": "METAR BKPR 260300Z 35009KT 9999 SCT010 BKN020 M01/M02 Q1026 NOSIG",
      "taf": "TAF BKPR 252330Z 2600/2624 35012KT 9999 SCT010 BKN025"
    },
    {
      "icao": "EBCI",
      "alert": "OK",
      "vis_m": 9999,
      "fzfg": false,
      "metar_trigger": false,
      "taf_trigger": false,
      "metar": "METAR EBCI 260250Z 04007KT CAVOK M05/M06 Q1025 NOSIG",
      "taf": "TAF EBCI 252301Z 2600/2706 05008KT CAVOK"
    },
    {
      "icao": "EDDB",
      "alert": "OK",
      "vis_m": 6000,
      "fzfg": false,
      "metar_trigger": false,
      "taf_trigger": false,
      "metar": "METAR EDDB 260250Z AUTO 11002KT 6000 FEW002 M10/M11 Q1034 TEMPO 3000 BR BKN002",
      "taf": "TAF EDDB 252300Z 2600/2624 04005KT 9999 FEW015"
    },
    {
      "icao": "EDDH",
      "alert": "OK",
      "vis_m": 9999,
      "fzfg": false,
      "metar_trigger": false,
      "taf_trigger": false,
      "metar": "METAR EDDH 260250Z AUTO 07004KT CAVOK M07/M10 Q1035 NOSIG",
      "taf": "TAF EDDH 252300Z 2600/2706 VRB03KT CAVOK"
    },
    {
      "icao": "EDDK",
      "alert": "OK",
      "vis_m": 9999,
      "fzfg": false,
      "metar_trigger": false,
      "taf_trigger": false,
      "metar": "METAR EDDK 260250Z AUTO VRB01KT CAVOK M04/M06 Q1028 NOSIG",
      "taf": "TAF EDDK 252300Z 2600/2706 09006KT CAVOK"
    },
    {
      "icao": "EDDN",
      "alert": "OK",
      "vis_m": 9999,
      "fzfg": false,
      "metar_trigger": false,
      "taf_trigger": false,
      "metar": "METAR EDDN 260250Z AUTO VRB02KT CAVOK M04/M05 Q1027",
      "taf": "TAF EDDN 252300Z 2600/2624 07007KT CAVOK"
    },
    {
      "icao": "EDDS",
      "alert": "OK",
      "vis_m": 9999,
      "fzfg": false,
      "metar_trigger": false,
      "taf_trigger": false,
      "metar": "METAR EDDS 260250Z AUTO VRB02KT 9999 SCT014 M04/M05 Q1023",
      "taf": "TAF EDDS 252300Z 2600/2624 05005KT 9999 FEW020"
    },
    {
      "icao": "EDFH",
      "alert": "OK",
      "vis_m": 9999,
      "fzfg": false,
      "metar_trigger": false,
      "taf_trigger": false,
      "metar": "METAR EDFH 260250Z 09010KT CAVOK M03/M05 Q1024",
      "taf": "TAF EDFH 252300Z 2600/2624 08010KT CAVOK"
    },
    {
      "icao": "EDJA",
      "alert": "OK",
      "vis_m": 4700,
      "fzfg": false,
      "metar_trigger": false,
      "taf_trigger": false,
      "metar": "METAR EDJA 260250Z AUTO 06008KT 040V100 4700 // OVC002/// M03/M03 Q1022",
      "taf": "TAF EDJA 260200Z 2603/2612 06008KT 4500 BR OVC002"
    },
    {
      "icao": "EDLW",
      "alert": "OK",
      "vis_m": 9999,
      "fzfg": false,
      "metar_trigger": false,
      "taf_trigger": false,
      "metar": "METAR EDLW 260250Z AUTO 05006KT 9999 // NCD M06/M08 Q1029",
      "taf": "TAF EDLW 251700Z 2518/2618 06009KT CAVOK"
    },
    {
      "icao": "EDNY",
      "alert": "OK",
      "vis_m": 9999,
      "fzfg": false,
      "metar_trigger": false,
      "taf_trigger": false,
      "metar": "METAR EDNY 260250Z AUTO 05006KT 9999 // OVC009/// M01/M03 Q1023",
      "taf": ""
    },
    {
      "icao": "EDSB",
      "alert": "OK",
      "vis_m": 9999,
      "fzfg": false,
      "metar_trigger": false,
      "taf_trigger": false,
      "metar": "METAR EDSB 260250Z AUTO 03009KT 9999 // NCD M01/M03 Q1024",
      "taf": "TAF EDSB 252300Z 2600/2624 03010KT CAVOK"
    },
    {
      "icao": "EETN",
      "alert": "OK",
      "vis_m": 9999,
      "fzfg": false,
      "metar_trigger": false,
      "taf_trigger": false,
      "metar": "METAR EETN 260250Z 33012KT CAVOK 05/03 Q1019",
      "taf": "TAF EETN 252330Z 2600/2624 33014KT CAVOK"
    },
    {
      "icao": "EFTU",
      "alert": "OK",
      "vis_m": 9999,
      "fzfg": false,
      "metar_trigger": false,
      "taf_trigger": false,
      "metar": "METAR EFTU 260250Z AUTO 31005KT CAVOK 03/03 Q1022",
      "taf": "TAF EFTU 260226Z 2603/2703 32005KT CAVOK"
    },
    {
      "icao": "EGBB",
      "alert": "OK",
      "vis_m": 9999,
      "fzfg": false,
      "metar_trigger": false,
      "taf_trigger": false,
      "metar": "METAR EGBB 260250Z 05007KT 9999 OVC018 03/M01 Q1030",
      "taf": "TAF EGBB 252257Z 2600/2624 04012KT CAVOK"
    },
    {
      "icao": "EGGP",
      "alert": "OK",
      "vis_m": 9999,
      "fzfg": false,
      "metar_trigger": false,
      "taf_trigger": false,
      "metar": "METAR EGGP 260250Z AUTO 02004KT 350V060 9999 NCD 02/M01 Q1031",
      "taf": ""
    },
    {
      "icao": "EGGW",
      "alert": "OK",
      "vis_m": 9999,
      "fzfg": false,
      "metar_trigger": false,
      "taf_trigger": false,
      "metar": "METAR EGGW 260250Z AUTO 07011KT 9999 OVC013 02/00 Q1028",
      "taf": "TAF EGGW 252257Z 2600/2624 06013KT 9999 FEW025"
    },
    {
      "icao": "EGKK",
      "alert": "OK",
      "vis_m": 9999,
      "fzfg": false,
      "metar_trigger": false,
      "taf_trigger": false,
      "metar": "METAR EGKK 260250Z 06008KT 9999 BKN016 02/00 Q1027",
      "taf": "TAF EGKK 252252Z 2600/2706 06009KT 9999 BKN020"
    },
    {
      "icao": "EGNM",
      "alert": "OK",
      "vis_m": null,
      "fzfg": false,
      "metar_trigger": false,
      "taf_trigger": false,
      "metar": "",
      "taf": ""
    },
    {
      "icao": "EGPD",
      "alert": "OK",
      "vis_m": 9999,
      "fzfg": false,
      "metar_trigger": false,
      "taf_trigger": false,
      "metar": "METAR EGPD 260250Z COR AUTO 20001KT 9999 OVC020 04/03 Q1037 NOSIG",
      "taf": "TAF EGPD 252257Z 2600/2624 VRB02KT 9999 BKN020"
    },
    {
      "icao": "EGPF",
      "alert": "OK",
      "vis_m": 9999,
      "fzfg": false,
      "metar_trigger": false,
      "taf_trigger": false,
      "metar": "METAR EGPF 260250Z AUTO 08010KT 070V130 9999 OVC026 06/02 Q1036",
      "taf": "TAF EGPF 252257Z 2600/2624 06005KT 9999 SCT024"
    },
    {
      "icao": "EHBK",
      "alert": "OK",
      "vis_m": 9999,
      "fzfg": false,
      "metar_trigger": false,
      "taf_trigger": false,
      "metar": "METAR EHBK 260255Z AUTO 05010KT 9999 NCD M04/M06 Q1027",
      "taf": "TAF EHBK 252302Z 2600/2706 05012KT CAVOK"
    },
    {
      "icao": "EHEH",
      "alert": "OK",
      "vis_m": 9999,
      "fzfg": false,
      "metar_trigger": false,
      "taf_trigger": false,
      "metar": "METAR EHEH 260255Z AUTO 06007KT 9999 NCD M04/M07 Q1029 BLU",
      "taf": "TAF EHEH 252325Z 2600/2706 06008KT CAVOK"
    },
    {
      "icao": "EKBI",
      "alert": "OK",
      "vis_m": 9999,
      "fzfg": false,
      "metar_trigger": false,
      "taf_trigger": false,
      "metar": "METAR EKBI 260250Z AUTO 00000KT 9999 OVC012/// M01/M02 Q1035",
      "taf": "TAF EKBI 260227Z 2603/2703 24003KT 9999 OVC012"
    },
    {
      "icao": "EKCH",
      "alert": "OK",
      "vis_m": 9999,
      "fzfg": false,
      "metar_trigger": false,
      "taf_trigger": false,
      "metar": "METAR EKCH 260250Z 26007KT 9999 BKN009 00/M01 Q1033 TEMPO BKN010",
      "taf": "TAF EKCH 260227Z 2603/2703 28008KT 9999 BKN008"
    },
    {
      "icao": "ENAL",
      "alert": "OK",
      "vis_m": 9999,
      "fzfg": false,
      "metar_trigger": false,
      "taf_trigger": false,
      "metar": "METAR ENAL 260250Z 16008KT 9999 BKN019 06/05 Q1036",
      "taf": "TAF ENAL 260200Z 2603/2612 15005KT 9999 FEW015 BKN025"
    },
    {
      "icao": "ENBR",
      "alert": "OK",
      "vis_m": 9999,
      "fzfg": false,
      "metar_trigger": false,
      "taf_trigger": false,
      "metar": "METAR ENBR 260220Z 36004KT CAVOK 02/01 Q1034 RMK WIND 1200FT 01017KT",
      "taf": "TAF ENBR 252300Z 2600/2624 34005KT CAVOK"
    },
    {
      "icao": "ENGM",
      "alert": "OK",
      "vis_m": 9999,
      "fzfg": false,
      "metar_trigger": false,
      "taf_trigger": false,
      "metar": "METAR ENGM 260250Z VRB01KT CAVOK M02/M03 Q1032",
      "taf": "TAF ENGM 252300Z 2600/2624 VRB03KT CAVOK"
    },
    {
      "icao": "ENHD",
      "alert": "OK",
      "vis_m": 9999,
      "fzfg": false,
      "metar_trigger": false,
      "taf_trigger": false,
      "metar": "METAR ENHD 260250Z AUTO 06004KT 9999 NCD 01/M01 Q1034",
      "taf": "TAF ENHD 260200Z 2603/2612 VRB04KT CAVOK"
    },
    {
      "icao": "ENTC",
      "alert": "OK",
      "vis_m": 9999,
      "fzfg": false,
      "metar_trigger": false,
      "taf_trigger": false,
      "metar": "METAR ENTC 260250Z AUTO 28024KT 9999 FEW030/// 06/02 Q1017 RERA REDZRA RMK WIND 2600FT 29032G43KT",
      "taf": ""
    },
    {
      "icao": "ENTO",
      "alert": "OK",
      "vis_m": 9999,
      "fzfg": false,
      "metar_trigger": false,
      "taf_trigger": false,
      "metar": "METAR ENTO 260250Z AUTO VRB02KT 9999 // NCD 00/M02 Q1032",
      "taf": "TAF ENTO 252300Z 2600/2624 VRB03KT CAVOK"
    },
    {
      "icao": "ENVA",
      "alert": "OK",
      "vis_m": 9999,
      "fzfg": false,
      "metar_trigger": false,
      "taf_trigger": false,
      "metar": "METAR ENVA 260250Z AUTO VRB01KT 9999 -DZ BKN021/// OVC025/// 06/05 Q1035 REDZRA RMK WIND 670FT 27007KT",
      "taf": "TAF ENVA 252300Z 2600/2624 24008KT 9999 BKN020"
    },
    {
      "icao": "ENZV",
      "alert": "OK",
      "vis_m": 9999,
      "fzfg": false,
      "metar_trigger": false,
      "taf_trigger": false,
      "metar": "METAR ENZV 260250Z AUTO VRB01KT 9999 NCD M01/M02 Q1034",
      "taf": "TAF ENZV 252300Z 2600/2624 VRB03KT CAVOK"
    },
    {
      "icao": "EPGD",
      "alert": "OK",
      "vis_m": 9999,
      "fzfg": false,
      "metar_trigger": false,
      "taf_trigger": false,
      "metar": "METAR EPGD 260300Z 28015KT 9999 OVC006 01/00 Q1028",
      "taf": "TAF EPGD 252330Z 2600/2624 29014KT 9999 BKN007"
    },
    {
      "icao": "EPKK",
      "alert": "OK",
      "vis_m": 6000,
      "fzfg": false,
      "metar_trigger": false,
      "taf_trigger": false,
      "metar": "METAR EPKK 260300Z 26007KT 6000 OVC005 M05/M07 Q1031",
      "taf": "TAF EPKK 260230Z 2603/2703 27007KT 9000 OVC005"
    },
    {
      "icao": "EPKT",
      "alert": "OK",
      "vis_m": 3600,
      "fzfg": false,
      "metar_trigger": false,
      "taf_trigger": false,
      "metar": "METAR EPKT 260300Z 25006KT 3600 BR SCT003 OVC004 M07/M07 Q1031",
      "taf": ""
    },
    {
      "icao": "EPLB",
      "alert": "OK",
      "vis_m": 9000,
      "fzfg": false,
      "metar_trigger": false,
      "taf_trigger": false,
      "metar": "METAR EPLB 260300Z 27011KT 9000 NSC M07/M09 Q1027",
      "taf": "TAF EPLB 252330Z 2600/2624 26012KT CAVOK"
    },
    {
      "icao": "EPMO",
      "alert": "OK",
      "vis_m": 9999,
      "fzfg": false,
      "metar_trigger": false,
      "taf_trigger": false,
      "metar": "METAR EPMO 260300Z 26012KT CAVOK M05/M09 Q1029",
      "taf": "TAF EPMO 252330Z 2600/2624 26012KT CAVOK"
    },
    {
      "icao": "EPPO",
      "alert": "OK",
      "vis_m": 4000,
      "fzfg": false,
      "metar_trigger": false,
      "taf_trigger": false,
      "metar": "METAR EPPO 260300Z 26004KT 4000 BR FEW004 M08/M10 Q1032",
      "taf": ""
    },
    {
      "icao": "EPRA",
      "alert": "OK",
      "vis_m": 9999,
      "fzfg": false,
      "metar_trigger": false,
      "taf_trigger": false,
      "metar": "METAR EPRA 260300Z 29006KT CAVOK M07/M09 Q1029",
      "taf": "TAF EPRA 260230Z 2603/2612 29010KT 8000 NSC"
    },
    {
      "icao": "EPRZ",
      "alert": "OK",
      "vis_m": 9999,
      "fzfg": false,
      "metar_trigger": false,
      "taf_trigger": false,
      "metar": "METAR EPRZ 260300Z 26012KT 9999 OVC009 M05/M07 Q1030",
      "taf": ""
    },
    {
      "icao": "EPSC",
      "alert": "OK",
      "vis_m": 9999,
      "fzfg": false,
      "metar_trigger": false,
      "taf_trigger": false,
      "metar": "METAR EPSC 260300Z 25003KT CAVOK M07/M10 Q1033",
      "taf": "TAF EPSC 252330Z 2600/2624 22005KT CAVOK"
    },
    {
      "icao": "EPSY",
      "alert": "OK",
      "vis_m": 9999,
      "fzfg": false,
      "metar_trigger": false,
      "taf_trigger": false,
      "metar": "METAR EPSY 260300Z 27006KT 230V310 9999 OVC008 M02/M04 Q1027",
      "taf": "TAF EPSY 260230Z 2603/2612 27008KT 9999 OVC008"
    },
    {
      "icao": "EPWA",
      "alert": "OK",
      "vis_m": 9999,
      "fzfg": false,
      "metar_trigger": false,
      "taf_trigger": false,
      "metar": "METAR EPWA 260300Z 26011KT CAVOK M07/M09 Q1029 NOSIG",
      "taf": "TAF EPWA 260230Z 2603/2703 26010KT CAVOK"
    },
    {
      "icao": "EPWR",
      "alert": "OK",
      "vis_m": 9999,
      "fzfg": false,
      "metar_trigger": false,
      "taf_trigger": false,
      "metar": "METAR EPWR 260300Z 24004KT 9999 OVC007 M04/M06 Q1033",
      "taf": "TAF EPWR 260230Z 2603/2703 VRB02KT 9999 OVC012"
    },
    {
      "icao": "ESGG",
      "alert": "OK",
      "vis_m": 100,
      "fzfg": false,
      "metar_trigger": false,
      "taf_trigger": false,
      "metar": "METAR ESGG 260250Z 26004KT 0100 R03/0600N R21/0550N FG VV001 03/03 Q1031",
      "taf": "TAF ESGG 260230Z 2603/2703 26004KT 0200 FG VV002"
    },
    {
      "icao": "ESKN",
      "alert": "OK",
      "vis_m": 9999,
      "fzfg": false,
      "metar_trigger": false,
      "taf_trigger": false,
      "metar": "METAR ESKN 260250Z 29006KT CAVOK 01/M01 Q1028",
      "taf": "TAF ESKN 260230Z 2603/2703 29008KT CAVOK"
    },
    {
      "icao": "ESMS",
      "alert": "OK",
      "vis_m": 5000,
      "fzfg": false,
      "metar_trigger": false,
      "taf_trigger": false,
      "metar": "METAR ESMS 260250Z 32008KT 5000 BR OVC004 02/02 Q1032",
      "taf": "TAF ESMS 260227Z 2603/2703 32008KT 9999 BKN008"
    },
    {
      "icao": "ESSA",
      "alert": "OK",
      "vis_m": 9999,
      "fzfg": false,
      "metar_trigger": false,
      "taf_trigger": false,
      "metar": "METAR ESSA 260250Z 28007KT CAVOK 01/M00 Q1027 NOSIG",
      "taf": "TAF ESSA 260230Z 2603/2703 30007KT CAVOK"
    },
    {
      "icao": "EYKA",
      "alert": "OK",
      "vis_m": 4600,
      "fzfg": false,
      "metar_trigger": false,
      "taf_trigger": false,
      "metar": "METAR EYKA 260250Z 29009KT 250V330 4600 DZ BR OVC004 02/02 Q1020",
      "taf": "TAF EYKA 252300Z 2600/2624 30010KT 9000 OVC005"
    },
    {
      "icao": "EYPA",
      "alert": "OK",
      "vis_m": 9999,
      "fzfg": false,
      "metar_trigger": false,
      "taf_trigger": false,
      "metar": "METAR EYPA 260250Z AUTO 34005KT 290V030 9999 NCD 06/05 Q1023",
      "taf": "TAF EYPA 252310Z 2600/2624 34010KT 9000 BKN015"
    },
    {
      "icao": "EYVI",
      "alert": "OK",
      "vis_m": 4400,
      "fzfg": false,
      "metar_trigger": false,
      "taf_trigger": false,
      "metar": "METAR EYVI 260250Z 30010KT 4400 -DZ BR OVC002 00/M00 Q1018 TEMPO 3000 DZ BR",
      "taf": "TAF EYVI 252310Z 2600/2624 32012KT 9000 OVC005"
    },
    {
      "icao": "GCFV",
      "alert": "OK",
      "vis_m": 9999,
      "fzfg": false,
      "metar_trigger": false,
      "taf_trigger": false,
      "metar": "METAR GCFV 260300Z AUTO 31007KT CAVOK 15/11 Q1019",
      "taf": "TAF GCFV 260200Z 2603/2703 28005KT 9999 SCT035 TX22/2614Z TN15/2606Z"
    },
    {
      "icao": "GCLP",
      "alert": "OK",
      "vis_m": 9999,
      "fzfg": false,
      "metar_trigger": false,
      "taf_trigger": false,
      "metar": "METAR GCLP 260300Z 34008KT 9999 FEW035 SCT055 18/11 Q1019 NOSIG",
      "taf": "TAF GCLP 260200Z 2603/2703 33005KT 9999 SCT035 TX22/2614Z TN16/2606Z"
    },
    {
      "icao": "GCTS",
      "alert": "OK",
      "vis_m": 9999,
      "fzfg": false,
      "metar_trigger": false,
      "taf_trigger": false,
      "metar": "METAR GCTS 260300Z 04010KT 9999 FEW045 17/08 Q1020 NOSIG",
      "taf": "TAF GCTS 260200Z 2603/2703 36005KT 9999 SCT035 TX23/2614Z TN15/2606Z"
    },
    {
      "icao": "GMAD",
      "alert": "OK",
      "vis_m": 9999,
      "fzfg": false,
      "metar_trigger": false,
      "taf_trigger": false,
      "metar": "METAR GMAD 260300Z 00000KT CAVOK 08/08 Q1016 NOSIG",
      "taf": "TAF GMAD 252300Z 2600/2706 06008KT 8000 SCT020"
    },
    {
      "icao": "GMMN",
      "alert": "OK",
      "vis_m": 8000,
      "fzfg": false,
      "metar_trigger": false,
      "taf_trigger": false,
      "metar": "METAR GMMN 260300Z 22008KT 8000 -RA SCT013 SCT027 10/08 Q1016 NOSIG",
      "taf": "TAF GMMN 252300Z 2600/2706 20008KT 9999 SCT020"
    },
    {
      "icao": "GMMX",
      "alert": "OK",
      "vis_m": 8000,
      "fzfg": false,
      "metar_trigger": false,
      "taf_trigger": false,
      "metar": "METAR GMMX 260300Z 18006KT 8000 FEW020 08/07 Q1017 NOSIG",
      "taf": "TAF GMMX 252300Z 2600/2706 22008KT 8000 SCT020"
    },
    {
      "icao": "HEGN",
      "alert": "OK",
      "vis_m": 9999,
      "fzfg": false,
      "metar_trigger": false,
      "taf_trigger": false,
      "metar": "METAR HEGN 260200Z 30015KT CAVOK 16/07 Q1014 NOSIG",
      "taf": "TAF HEGN 252300Z 2600/2706 29014KT CAVOK"
    },
    {
      "icao": "HEMA",
      "alert": "OK",
      "vis_m": 9999,
      "fzfg": false,
      "metar_trigger": false,
      "taf_trigger": false,
      "metar": "METAR HEMA 260200Z 28011KT CAVOK 17/06 Q1014 NOSIG",
      "taf": "TAF HEMA 252300Z 2600/2706 30012KT CAVOK"
    },
    {
      "icao": "HESH",
      "alert": "OK",
      "vis_m": 9999,
      "fzfg": false,
      "metar_trigger": false,
      "taf_trigger": false,
      "metar": "METAR HESH 260200Z 35010KT CAVOK 18/06 Q1014 NOSIG",
      "taf": "TAF HESH 252300Z 2600/2706 35010KT CAVOK"
    },
    {
      "icao": "HESX",
      "alert": "OK",
      "vis_m": 2000,
      "fzfg": false,
      "metar_trigger": false,
      "taf_trigger": false,
      "metar": "METAR HESX 260200Z 31002KT 2000 BR NSC 10/09 Q1017 NOSIG",
      "taf": "TAF HESX 252300Z 2600/2706 03007KT CAVOK"
    },
    {
      "icao": "LATI",
      "alert": "OK",
      "vis_m": 6000,
      "fzfg": false,
      "metar_trigger": false,
      "taf_trigger": false,
      "metar": "METAR LATI 260250Z 13002KT 6000 OVC082 07/05 Q1021 NOSIG",
      "taf": "TAF LATI 252300Z 2600/2624 VRB04KT 9999 BKN060 TX18/2612Z TN03/2623Z"
    },
    {
      "icao": "LBPD",
      "alert": "OK",
      "vis_m": 9999,
      "fzfg": false,
      "metar_trigger": false,
      "taf_trigger": false,
      "metar": "METAR LBPD 260300Z AUTO 09002KT 9999 SCT023/// BKN031/// OVC079/// 02/02 Q1027",
      "taf": "TAF LBPD 252300Z 2600/2624 12012KT 8000 BKN020 OVC035"
    },
    {
      "icao": "LBSF",
      "alert": "OK",
      "vis_m": 9999,
      "fzfg": false,
      "metar_trigger": false,
      "taf_trigger": false,
      "metar": "METAR LBSF 260300Z AUTO 10005KT 9999 OVC074/// 00/M01 Q1026 NOSIG",
      "taf": "TAF LBSF 252300Z 2600/2624 11008KT 6000 BKN015 OVC030"
    },
    {
      "icao": "LBWN",
      "alert": "OK",
      "vis_m": 9999,
      "fzfg": false,
      "metar_trigger": false,
      "taf_trigger": false,
      "metar": "METAR LBWN 260300Z AUTO 34006KT 9999 NCD M02/M03 Q1027 NOSIG",
      "taf": "TAF LBWN 252300Z 2600/2624 36012KT 9999 SCT040"
    },
    {
      "icao": "LCLK",
      "alert": "OK",
      "vis_m": 9999,
      "fzfg": false,
      "metar_trigger": false,
      "taf_trigger": false,
      "metar": "METAR LCLK 260300Z 29004KT CAVOK 12/10 Q1016 NOSIG",
      "taf": "TAF LCLK 252330Z 2600/2700 33007KT 9999 FEW025 SCT030"
    },
    {
      "icao": "LCPH",
      "alert": "OK",
      "vis_m": 9999,
      "fzfg": false,
      "metar_trigger": false,
      "taf_trigger": false,
      "metar": "METAR LCPH 260300Z AUTO 02007KT 9999 NCD 12/10 Q1016 NOSIG",
      "taf": "TAF LCPH 252330Z 2600/2700 36009KT 9999 FEW025"
    },
    {
      "icao": "LEAL",
      "alert": "OK",
      "vis_m": 9999,
      "fzfg": false,
      "metar_trigger": false,
      "taf_trigger": false,
      "metar": "METAR LEAL 260300Z 30005KT 9999 SCT032 OVC057 11/08 Q1008 NOSIG",
      "taf": "TAF LEAL 252300Z 2600/2624 31009KT 9999 SCT030 TX17/2612Z TN07/2606Z"
    },
    {
      "icao": "LEBB",
      "alert": "OK",
      "vis_m": 9999,
      "fzfg": false,
      "metar_trigger": false,
      "taf_trigger": false,
      "metar": "METAR LEBB 260300Z AUTO VRB02KT CAVOK 03/02 Q1015",
      "taf": "TAF LEBB 252300Z 2600/2624 VRB03KT 9999 FEW040 TX10/2615Z TN01/2601Z"
    },
    {
      "icao": "LEBL",
      "alert": "OK",
      "vis_m": 9000,
      "fzfg": false,
      "metar_trigger": false,
      "taf_trigger": false,
      "metar": "METAR LEBL 260300Z 04020KT 9000 SCT017 BKN026 13/11 Q1009 NOSIG",
      "taf": "TAF LEBL 252300Z 2600/2624 03009KT 9999 SCT014 TX14/2612Z TN10/2606Z"
    },
    {
      "icao": "LECH",
      "alert": "OK",
      "vis_m": 9999,
      "fzfg": false,
      "metar_trigger": false,
      "taf_trigger": false,
      "metar": "METAR LECH 260300Z AUTO 03009KT 350V060 9999 -RA OVC016 08/06 Q1009",
      "taf": ""
    },
    {
      "icao": "LEMD",
      "alert": "OK",
      "vis_m": 9999,
      "fzfg": false,
      "metar_trigger": false,
      "taf_trigger": false,
      "metar": "METAR LEMD 260300Z VRB01KT 9999 FEW040 M00/M01 Q1012 NOSIG",
      "taf": "TAF LEMD 252300Z 2600/2706 VRB04KT 9999 SCT030 TX09/2614Z TNM00/2606Z"
    },
    {
      "icao": "LEMG",
      "alert": "OK",
      "vis_m": 9999,
      "fzfg": false,
      "metar_trigger": false,
      "taf_trigger": false,
      "metar": "METAR LEMG 260300Z 29007KT 9999 BKN080 06/05 Q1012 NOSIG",
      "taf": "TAF LEMG 252300Z 2600/2624 27007KT 9999 FEW040 TX15/2614Z TN06/2606Z"
    },
    {
      "icao": "LEVC",
      "alert": "OK",
      "vis_m": 9999,
      "fzfg": false,
      "metar_trigger": false,
      "taf_trigger": false,
      "metar": "METAR LEVC 260300Z 30007KT 9999 -RA SCT025 BKN042 09/07 Q1009 NOSIG",
      "taf": "TAF LEVC 252300Z 2600/2624 30007KT 9999 BKN030 TX15/2614Z TN06/2606Z"
    },
    {
      "icao": "LEXJ",
      "alert": "OK",
      "vis_m": 9000,
      "fzfg": false,
      "metar_trigger": false,
      "taf_trigger": false,
      "metar": "METAR LEXJ 260300Z AUTO 14003KT 9000 NSC 02/M00 Q1015",
      "taf": "TAF LEXJ 260200Z 2603/2703 VRB03KT 9999 FEW030 TX11/2615Z TNM00/2604Z"
    },
    {
      "icao": "LEZG",
      "alert": "OK",
      "vis_m": 9999,
      "fzfg": false,
      "metar_trigger": false,
      "taf_trigger": false,
      "metar": "METAR LEZG 260300Z 26010KT 9999 SCT025 SCT045 04/02 Q1013 NOSIG",
      "taf": "TAF LEZG 252300Z 2600/2624 29009KT 9999 SCT040 TX08/2614Z TN03/2606Z"
    },
    {
      "icao": "LEZL",
      "alert": "OK",
      "vis_m": 9000,
      "fzfg": false,
      "metar_trigger": false,
      "taf_trigger": false,
      "metar": "METAR LEZL 260300Z AUTO 07005KT 040V140 9000 FEW045 10/10 Q1012",
      "taf": "TAF LEZL 260200Z 2603/2703 VRB03KT 9999 FEW040 TX15/2615Z TN06/2607Z"
    },
    {
      "icao": "LFBD",
      "alert": "OK",
      "vis_m": 9999,
      "fzfg": false,
      "metar_trigger": false,
      "taf_trigger": false,
      "metar": "METAR LFBD 260300Z AUTO 03003KT CAVOK 04/02 Q1017 TEMPO 3000 BR",
      "taf": "TAF LFBD 252300Z 2600/2706 02005KT 9999 BKN030 TX09/2615Z TN01/2605Z"
    },
    {
      "icao": "LFLL",
      "alert": "OK",
      "vis_m": 6000,
      "fzfg": false,
      "metar_trigger": false,
      "taf_trigger": false,
      "metar": "METAR LFLL 260300Z 05002KT 6000 OVC013 01/00 Q1020 NOSIG",
      "taf": "TAF LFLL 252300Z 2600/2706 VRB03KT 9000 OVC013"
    },
    {
      "icao": "LFLS",
      "alert": "OK",
      "vis_m": 5000,
      "fzfg": false,
      "metar_trigger": false,
      "taf_trigger": false,
      "metar": "METAR LFLS 260300Z AUTO 28002KT 5000 BR FEW014 OVC110 M01/M01 Q1019 TEMPO 0600 BCFG VV///",
      "taf": "TAF LFLS 260200Z 2603/2703 VRB03KT 9000 SCT016"
    },
    {
      "icao": "LFMN",
      "alert": "OK",
      "vis_m": 9999,
      "fzfg": false,
      "metar_trigger": false,
      "taf_trigger": false,
      "metar": "METAR LFMN 260300Z 03017KT 9999 BKN054 13/02 Q1019 NOSIG",
      "taf": "TAF LFMN 260200Z 2603/2709 06015G25KT 9999 BKN070"
    },
    {
      "icao": "LFOB",
      "alert": "OK",
      "vis_m": 9000,
      "fzfg": false,
      "metar_trigger": false,
      "taf_trigger": false,
      "metar": "METAR LFOB 260300Z AUTO 04008KT 9000 NSC M03/M05 Q1024 NOSIG",
      "taf": "TAF LFOB 252300Z 2600/2624 05009KT CAVOK"
    },
    {
      "icao": "LFPO",
      "alert": "OK",
      "vis_m": 9999,
      "fzfg": false,
      "metar_trigger": false,
      "taf_trigger": false,
      "metar": "METAR LFPO 260300Z AUTO 04008KT CAVOK M02/M04 Q1023",
      "taf": ""
    },
    {
      "icao": "LFSB",
      "alert": "OK",
      "vis_m": 8000,
      "fzfg": false,
      "metar_trigger": false,
      "taf_trigger": false,
      "metar": "METAR LFSB 260300Z AUTO 34006KT 8000 OVC019 M01/M02 Q1023 TEMPO 4000 BR BKN002",
      "taf": "TAF LFSB 252300Z 2600/2624 02005KT 9999 BKN020"
    },
    {
      "icao": "LGAV",
      "alert": "OK",
      "vis_m": 9999,
      "fzfg": false,
      "metar_trigger": false,
      "taf_trigger": false,
      "metar": "METAR LGAV 260250Z 25005KT 220V290 9999 FEW020 05/04 Q1021 NOSIG",
      "taf": "TAF LGAV 252300Z 2600/2624 30006KT 9999 SCT020 SCT070"
    },
    {
      "icao": "LGTS",
      "alert": "OK",
      "vis_m": 9999,
      "fzfg": false,
      "metar_trigger": false,
      "taf_trigger": false,
      "metar": "METAR LGTS 260250Z 08004KT 9999 FEW012 BKN030 09/09 Q1024 NOSIG",
      "taf": "TAF LGTS 252300Z 2600/2624 33005KT 8000 FEW012 BKN025"
    },
    {
      "icao": "LHBP",
      "alert": "OK",
      "vis_m": 9999,
      "fzfg": false,
      "metar_trigger": false,
      "taf_trigger": false,
      "metar": "METAR LHBP 260300Z VRB02KT CAVOK 01/M01 Q1030 NOSIG",
      "taf": "TAF LHBP 252315Z 2600/2624 VRB03KT CAVOK"
    },
    {
      "icao": "LHDC",
      "alert": "OK",
      "vis_m": 9999,
      "fzfg": false,
      "metar_trigger": false,
      "taf_trigger": false,
      "metar": "METAR LHDC 260245Z AUTO 09004KT CAVOK M01/M04 Q1029",
      "taf": ""
    },
    {
      "icao": "LIBD",
      "alert": "OK",
      "vis_m": 9999,
      "fzfg": false,
      "metar_trigger": false,
      "taf_trigger": false,
      "metar": "METAR LIBD 260250Z 23005KT CAVOK 08/08 Q1021",
      "taf": "TAF LIBD 252300Z 2600/2624 VRB05KT 9999 FEW016"
    },
    {
      "icao": "LIBG",
      "alert": "OK",
      "vis_m": null,
      "fzfg": false,
      "metar_trigger": false,
      "taf_trigger": false,
      "metar": "",
      "taf": "TAF LIBG 251700Z 2518/2603 VRB05KT 9999 SCT010 BKN040"
    },
    {
      "icao": "LIBP",
      "alert": "OK",
      "vis_m": 9999,
      "fzfg": false,
      "metar_trigger": false,
      "taf_trigger": false,
      "metar": "METAR LIBP 260250Z AUTO 22002KT 9999 OVC012/// 09/08 Q1023",
      "taf": "TAF LIBP 252300Z 2600/2624 VRB05KT 9999 SCT040"
    },
    {
      "icao": "LIBR",
      "alert": "OK",
      "vis_m": 9999,
      "fzfg": false,
      "metar_trigger": false,
      "taf_trigger": false,
      "metar": "METAR LIBR 260250Z 07010KT 9999 BKN030 BKN040 14/10 Q1020",
      "taf": "TAF LIBR 252300Z 2600/2624 06008KT 9999 SCT040"
    },
    {
      "icao": "LICA",
      "alert": "OK",
      "vis_m": 9999,
      "fzfg": false,
      "metar_trigger": false,
      "taf_trigger": false,
      "metar": "METAR LICA 260250Z AUTO 04011KT 9999 NCD 12/09 Q1019",
      "taf": "TAF LICA 252300Z 2600/2624 07012KT CAVOK"
    },
    {
      "icao": "LICC",
      "alert": "OK",
      "vis_m": 9999,
      "fzfg": false,
      "metar_trigger": false,
      "taf_trigger": false,
      "metar": "METAR LICC 260250Z 26004KT CAVOK 10/09 Q1018",
      "taf": "TAF LICC 252300Z 2600/2624 27007KT CAVOK"
    },
    {
      "icao": "LICJ",
      "alert": "OK",
      "vis_m": 9999,
      "fzfg": false,
      "metar_trigger": false,
      "taf_trigger": false,
      "metar": "METAR LICJ 260250Z 18009KT CAVOK 17/06 Q1017",
      "taf": "TAF LICJ 252300Z 2600/2624 16008KT 9999 FEW040"
    },
    {
      "icao": "LIMC",
      "alert": "OK",
      "vis_m": 9999,
      "fzfg": false,
      "metar_trigger": false,
      "taf_trigger": false,
      "metar": "METAR LIMC 260250Z 01004KT 9999 BKN050 05/04 Q1027 NOSIG",
      "taf": "TAF LIMC 252300Z 2600/2706 VRB05KT 9999 BKN030"
    },
    {
      "icao": "LIME",
      "alert": "OK",
      "vis_m": 7000,
      "fzfg": false,
      "metar_trigger": false,
      "taf_trigger": false,
      "metar": "METAR LIME 260250Z 27002KT 7000 BKN020 05/05 Q1027 NOSIG",
      "taf": "TAF LIME 252300Z 2600/2624 VRB05KT 9999 BKN030"
    },
    {
      "icao": "LIMF",
      "alert": "OK",
      "vis_m": 8000,
      "fzfg": false,
      "metar_trigger": false,
      "taf_trigger": false,
      "metar": "METAR LIMF 260250Z 32012KT 8000 -RA BKN015 OVC030 04/02 Q1027 RERA",
      "taf": "TAF LIMF 252300Z 2600/2624 34006KT 6000 RA BKN012"
    },
    {
      "icao": "LIMJ",
      "alert": "OK",
      "vis_m": 9999,
      "fzfg": false,
      "metar_trigger": false,
      "taf_trigger": false,
      "metar": "METAR LIMJ 260250Z 02009KT 340V050 9999 -RA SCT080 08/03 Q1022",
      "taf": "TAF LIMJ 252300Z 2600/2624 03015KT 9999 SCT050"
    },
    {
      "icao": "LIPE",
      "alert": "OK",
      "vis_m": 9999,
      "fzfg": false,
      "metar_trigger": false,
      "taf_trigger": false,
      "metar": "METAR LIPE 260250Z 26006KT 9999 OVC035 05/05 Q1026",
      "taf": "TAF LIPE 252300Z 2600/2624 VRB05KT 9000 SCT010 BKN030"
    },
    {
      "icao": "LIPH",
      "alert": "OK",
      "vis_m": 9999,
      "fzfg": false,
      "metar_trigger": false,
      "taf_trigger": false,
      "metar": "METAR LIPH 260250Z AUTO 01004KT 9999 NCD 03/M01 Q1027",
      "taf": "TAF LIPH 252300Z 2600/2624 VRB05KT CAVOK"
    },
    {
      "icao": "LIPQ",
      "alert": "OK",
      "vis_m": 9999,
      "fzfg": false,
      "metar_trigger": false,
      "taf_trigger": false,
      "metar": "METAR LIPQ 260250Z AUTO VRB02KT 9999 NCD 02/M02 Q1026",
      "taf": "TAF LIPQ 252300Z 2600/2624 07006KT CAVOK"
    },
    {
      "icao": "LIPR",
      "alert": "OK",
      "vis_m": 9999,
      "fzfg": false,
      "metar_trigger": false,
      "taf_trigger": false,
      "metar": "METAR LIPR 260250Z AUTO 07009KT 9999 BKN029/// BKN069/// 11/06 Q1024",
      "taf": "TAF LIPR 252300Z 2600/2624 06007KT 9999 SCT040"
    },
    {
      "icao": "LIPX",
      "alert": "OK",
      "vis_m": 9999,
      "fzfg": false,
      "metar_trigger": false,
      "taf_trigger": false,
      "metar": "METAR LIPX 260250Z 10004KT 9999 FEW040 05/M01 Q1026",
      "taf": "TAF LIPX 252300Z 2600/2624 09010KT 9999 SCT050"
    },
    {
      "icao": "LIPY",
      "alert": "OK",
      "vis_m": 9999,
      "fzfg": false,
      "metar_trigger": false,
      "taf_trigger": false,
      "metar": "METAR LIPY 260250Z AUTO VRB02KT 9999 -RA OVC045/// 10/06 Q1024",
      "taf": "TAF LIPY 252300Z 2600/2624 VRB05KT 9999 SCT040"
    },
    {
      "icao": "LIPZ",
      "alert": "OK",
      "vis_m": 9999,
      "fzfg": false,
      "metar_trigger": false,
      "taf_trigger": false,
      "metar": "METAR LIPZ 260250Z 01007KT CAVOK 03/M01 Q1027 NOSIG",
      "taf": "TAF LIPZ 252300Z 2600/2706 03008KT CAVOK"
    },
    {
      "icao": "LIRF",
      "alert": "OK",
      "vis_m": 9999,
      "fzfg": false,
      "metar_trigger": false,
      "taf_trigger": false,
      "metar": "METAR LIRF 260250Z 05007KT CAVOK 08/04 Q1019 NOSIG",
      "taf": "TAF LIRF 252300Z 2600/2706 05012KT CAVOK"
    },
    {
      "icao": "LIRN",
      "alert": "OK",
      "vis_m": 9999,
      "fzfg": false,
      "metar_trigger": false,
      "taf_trigger": false,
      "metar": "METAR LIRN 260250Z 03007KT CAVOK 10/06 Q1019 NOSIG",
      "taf": "TAF LIRN 252300Z 2600/2624 01007KT CAVOK"
    },
    {
      "icao": "LIRP",
      "alert": "OK",
      "vis_m": 9999,
      "fzfg": false,
      "metar_trigger": false,
      "taf_trigger": false,
      "metar": "METAR LIRP 260245Z 09010KT CAVOK 10/04 Q1020 NOSIG",
      "taf": "TAF LIRP 252300Z 2600/2624 07012KT CAVOK"
    },
    {
      "icao": "LIRZ",
      "alert": "OK",
      "vis_m": 9999,
      "fzfg": false,
      "metar_trigger": false,
      "taf_trigger": false,
      "metar": "METAR LIRZ 260250Z AUTO 04013KT 9999 NCD 10/06 Q1021",
      "taf": "TAF LIRZ 252300Z 2600/2624 04012KT CAVOK"
    },
    {
      "icao": "LJLJ",
      "alert": "OK",
      "vis_m": 9999,
      "fzfg": false,
      "metar_trigger": false,
      "taf_trigger": false,
      "metar": "METAR LJLJ 260300Z 32002KT 9999 FEW006 OVC040 00/M00 Q1028 NOSIG",
      "taf": "TAF LJLJ 252300Z 2600/2700 VRB02KT 9999 FEW015 BKN040"
    },
    {
      "icao": "LKMT",
      "alert": "OK",
      "vis_m": 900,
      "fzfg": true,
      "metar_trigger": false,
      "taf_trigger": false,
      "metar": "METAR LKMT 260300Z VRB02KT 0900 R22/P2000N R04/2000N FZFG VV003 M05/M05 Q1032 NOSIG",
      "taf": ""
    },
    {
      "icao": "LKPR",
      "alert": "OK",
      "vis_m": 8000,
      "fzfg": false,
      "metar_trigger": false,
      "taf_trigger": false,
      "metar": "METAR LKPR 260300Z 35003KT 8000 NSC M07/M08 Q1030 NOSIG",
      "taf": "TAF LKPR 260200Z 2603/2709 05005KT CAVOK"
    },
    {
      "icao": "LLBG",
      "alert": "OK",
      "vis_m": 9999,
      "fzfg": false,
      "metar_trigger": false,
      "taf_trigger": false,
      "metar": "METAR LLBG 260250Z VRB03KT CAVOK 11/07 Q1016 NOSIG",
      "taf": "TAF LLBG 252301Z 2600/2624 14005KT 9999 FEW040"
    },
    {
      "icao": "LMML",
      "alert": "OK",
      "vis_m": 9999,
      "fzfg": false,
      "metar_trigger": false,
      "taf_trigger": false,
      "metar": "METAR LMML 260245Z 14007KT 9999 FEW027 14/11 Q1018 NOSIG",
      "taf": "TAF LMML 252300Z 2600/2624 18008KT 9999 SCT025"
    },
    {
      "icao": "LOWW",
      "alert": "OK",
      "vis_m": 9999,
      "fzfg": false,
      "metar_trigger": false,
      "taf_trigger": false,
      "metar": "METAR LOWW 260250Z 05007KT 9999 FEW015 BKN018 M03/M05 Q1030 NOSIG",
      "taf": "TAF LOWW 260215Z 2603/2709 01005KT 9999 BKN020 TX02/2613Z TNM03/2606Z"
    },
    {
      "icao": "LPFR",
      "alert": "OK",
      "vis_m": 9999,
      "fzfg": false,
      "metar_trigger": false,
      "taf_trigger": false,
      "metar": "METAR LPFR 260300Z 32007KT CAVOK 09/07 Q1013",
      "taf": "TAF LPFR 252300Z 2600/2624 31005KT CAVOK"
    },
    {
      "icao": "LPMA",
      "alert": "OK",
      "vis_m": 9999,
      "fzfg": false,
      "metar_trigger": false,
      "taf_trigger": false,
      "metar": "METAR LPMA 260300Z 35006KT 9999 SCT015 15/11 Q1020",
      "taf": "TAF LPMA 252300Z 2600/2624 36007KT 9999 SCT015"
    },
    {
      "icao": "LPPR",
      "alert": "OK",
      "vis_m": 9999,
      "fzfg": false,
      "metar_trigger": false,
      "taf_trigger": false,
      "metar": "METAR LPPR 260300Z 12009KT CAVOK 04/02 Q1013",
      "taf": "TAF LPPR 252300Z 2600/2624 08005KT CAVOK"
    },
    {
      "icao": "LPPS",
      "alert": "OK",
      "vis_m": 9999,
      "fzfg": false,
      "metar_trigger": false,
      "taf_trigger": false,
      "metar": "METAR LPPS 260300Z 34008KT 9999 FEW015 15/11 Q1020",
      "taf": "TAF LPPS 252300Z 2600/2706 34010KT 9999 SCT015"
    },
    {
      "icao": "LPPT",
      "alert": "OK",
      "vis_m": 9999,
      "fzfg": false,
      "metar_trigger": false,
      "taf_trigger": false,
      "metar": "METAR LPPT 260300Z 33003KT 9999 FEW035 06/03 Q1014",
      "taf": "TAF LPPT 252300Z 2600/2706 31007KT 9999 FEW012"
    },
    {
      "icao": "LQBK",
      "alert": "OK",
      "vis_m": 9999,
      "fzfg": false,
      "metar_trigger": false,
      "taf_trigger": false,
      "metar": "METAR LQBK 260300Z VRB02KT 9999 BKN004 OVC010 01/00 Q1030 NOSIG",
      "taf": "TAF LQBK 252300Z 2600/2624 02005KT 8000 SCT007 OVC015 TX03/2613Z TNM00/2624Z"
    },
    {
      "icao": "LQSA",
      "alert": "OK",
      "vis_m": 9999,
      "fzfg": false,
      "metar_trigger": false,
      "taf_trigger": false,
      "metar": "METAR LQSA 260300Z 30004KT 9999 OVC014 01/00 Q1026",
      "taf": "TAF LQSA 252300Z 2600/2624 28005KT 9999 SCT015 BKN030 TX03/2612Z TNM03/2624Z"
    },
    {
      "icao": "LQTZ",
      "alert": "OK",
      "vis_m": 9999,
      "fzfg": false,
      "metar_trigger": false,
      "taf_trigger": false,
      "metar": "METAR LQTZ 260300Z 33001KT 9999 BKN007 OVC014 01/01 Q1028",
      "taf": "TAF LQTZ 252300Z 2600/2624 10005KT 6000 SCT010 OVC015 TX02/2613Z TNM02/2624Z"
    },
    {
      "icao": "LRBC",
      "alert": "OK",
      "vis_m": 8000,
      "fzfg": false,
      "metar_trigger": false,
      "taf_trigger": false,
      "metar": "METAR LRBC 260300Z 22001KT 8000 BKN007 M07/M08 Q1026",
      "taf": "TAF LRBC 260200Z 2603/2612 VRB04KT 9999 BKN010"
    },
    {
      "icao": "LRBS",
      "alert": "OK",
      "vis_m": 9999,
      "fzfg": false,
      "metar_trigger": false,
      "taf_trigger": false,
      "metar": "METAR LRBS 260300Z 25003KT CAVOK M06/M08 Q1029 NOSIG",
      "taf": "TAF LRBS 252300Z 2600/2624 VRB04KT CAVOK"
    },
    {
      "icao": "LRBV",
      "alert": "OK",
      "vis_m": 9999,
      "fzfg": false,
      "metar_trigger": false,
      "taf_trigger": false,
      "metar": "METAR LRBV 260300Z AUTO 04003KT 9999 NCD M06/M09 Q1026",
      "taf": "TAF LRBV 260200Z 2603/2612 VRB04KT CAVOK"
    },
    {
      "icao": "LRCL",
      "alert": "OK",
      "vis_m": 9999,
      "fzfg": false,
      "metar_trigger": false,
      "taf_trigger": false,
      "metar": "METAR LRCL 260300Z 13003KT CAVOK M02/M03 Q1027",
      "taf": "TAF LRCL 260200Z 2603/2612 VRB04KT CAVOK"
    },
    {
      "icao": "LRCV",
      "alert": "OK",
      "vis_m": 9999,
      "fzfg": false,
      "metar_trigger": false,
      "taf_trigger": false,
      "metar": "METAR LRCV 260300Z 00000KT 9999 FEW010 BKN013 OVC018 M04/M05 Q1029",
      "taf": "TAF LRCV 260200Z 2603/2612 VRB04KT 9999 BKN010 OVC020"
    },
    {
      "icao": "LRIA",
      "alert": "OK",
      "vis_m": 5000,
      "fzfg": false,
      "metar_trigger": false,
      "taf_trigger": false,
      "metar": "METAR LRIA 260300Z 28005KT 260V320 5000 BR OVC002 M08/M09 Q1027",
      "taf": "TAF LRIA 260200Z 2603/2612 VRB04KT 5000 BR OVC003"
    },
    {
      "icao": "LROP",
      "alert": "OK",
      "vis_m": 9999,
      "fzfg": false,
      "metar_trigger": false,
      "taf_trigger": false,
      "metar": "METAR LROP 260300Z 26004KT CAVOK M07/M08 Q1029 NOSIG",
      "taf": "TAF LROP 252300Z 2600/2624 VRB04KT CAVOK"
    },
    {
      "icao": "LRSB",
      "alert": "OK",
      "vis_m": 9999,
      "fzfg": false,
      "metar_trigger": false,
      "taf_trigger": false,
      "metar": "METAR LRSB 260300Z 10001KT 9999 OVC075 M01/M02 Q1027 NOSIG",
      "taf": "TAF LRSB 252300Z 2600/2624 VRB04KT 9999 BKN070"
    },
    {
      "icao": "LRSM",
      "alert": "OK",
      "vis_m": 9999,
      "fzfg": false,
      "metar_trigger": false,
      "taf_trigger": false,
      "metar": "METAR LRSM 260300Z AUTO 25005KT 9999 NCD M03/M04 Q1029",
      "taf": "TAF LRSM 260200Z 2603/2612 VRB04KT CAVOK"
    },
    {
      "icao": "LRSV",
      "alert": "OK",
      "vis_m": 800,
      "fzfg": true,
      "metar_trigger": false,
      "taf_trigger": false,
      "metar": "METAR LRSV 260300Z COR 25007KT 0800 R34/1500D FZFG VV001 M10/M11 Q1024",
      "taf": "TAF LRSV 260200Z 2603/2612 VRB04KT 0600 FZFG OVC001"
    },
    {
      "icao": "LRTM",
      "alert": "OK",
      "vis_m": 9999,
      "fzfg": false,
      "metar_trigger": false,
      "taf_trigger": false,
      "metar": "METAR LRTM 260300Z AUTO 10003KT 9999 NCD M04/M06 Q1028",
      "taf": "TAF LRTM 260200Z 2603/2612 VRB04KT 5000 BR NSC"
    },
    {
      "icao": "LRTR",
      "alert": "OK",
      "vis_m": 9999,
      "fzfg": false,
      "metar_trigger": false,
      "taf_trigger": false,
      "metar": "METAR LRTR 260300Z 32005KT 9999 OVC008 01/01 Q1030 TEMPO 5000 BR OVC005",
      "taf": "TAF LRTR 252300Z 2600/2624 27006KT 3000 BR OVC002"
    },
    {
      "icao": "LTAC",
      "alert": "OK",
      "vis_m": 4600,
      "fzfg": false,
      "metar_trigger": false,
      "taf_trigger": false,
      "metar": "METAR LTAC 260250Z VRB02KT 4600 BR SCT030 BKN080 02/02 Q1018 BECMG 6000",
      "taf": "TAF LTAC 252240Z 2600/2624 VRB02KT 6000 SCT040 BKN100"
    },
    {
      "icao": "LTFM",
      "alert": "OK",
      "vis_m": 9999,
      "fzfg": false,
      "metar_trigger": false,
      "taf_trigger": false,
      "metar": "METAR LTFM 260250Z 04019KT 9999 BKN022 BKN070 07/03 Q1024 RERA NOSIG RMK RWY17L 04015KT RWY34L 03016KT RWY16R 04016KT RWY36 04016KT RWY18 04016KT",
      "taf": "TAF LTFM 252240Z 2600/2706 03018KT 9999 -RA BKN022 BKN070"
    },
    {
      "icao": "LUKK",
      "alert": "OK",
      "vis_m": 9999,
      "fzfg": false,
      "metar_trigger": false,
      "taf_trigger": false,
      "metar": "METAR LUKK 260300Z 32003KT CAVOK M12/M14 Q1026 NOSIG",
      "taf": "TAF LUKK 252310Z 2600/2624 29008KT CAVOK"
    },
    {
      "icao": "LWOH",
      "alert": "OK",
      "vis_m": null,
      "fzfg": false,
      "metar_trigger": false,
      "taf_trigger": false,
      "metar": "",
      "taf": "TAF LWOH 260230Z 2603/2703 32006KT 9999 SCT015 OVC035"
    },
    {
      "icao": "LWSK",
      "alert": "OK",
      "vis_m": 9999,
      "fzfg": false,
      "metar_trigger": false,
      "taf_trigger": false,
      "metar": "METAR LWSK 260250Z 03006KT 9999 SCT010 OVC033 02/00 Q1027 NOSIG",
      "taf": "TAF LWSK 260230Z 2603/2703 03005KT 9999 SCT010 OVC030"
    },
    {
      "icao": "LYBE",
      "alert": "OK",
      "vis_m": 9999,
      "fzfg": false,
      "metar_trigger": false,
      "taf_trigger": false,
      "metar": "METAR LYBE 260300Z 09003KT 9999 BKN035 01/M03 Q1030 NOSIG",
      "taf": "TAF LYBE 252300Z 2600/2624 11007KT 9999 BKN035 TX03/2612Z TNM00/2606Z"
    },
    {
      "icao": "LYNI",
      "alert": "OK",
      "vis_m": 9999,
      "fzfg": false,
      "metar_trigger": false,
      "taf_trigger": false,
      "metar": "METAR LYNI 260300Z 00000KT 9999 OVC025 M01/M03 Q1029 NOSIG",
      "taf": "TAF LYNI 252300Z 2600/2624 04003KT 9999 SCT013 OVC025 TX02/2612Z TNM01/2606Z"
    },
    {
      "icao": "LYPG",
      "alert": "OK",
      "vis_m": 9999,
      "fzfg": false,
      "metar_trigger": false,
      "taf_trigger": false,
      "metar": "METAR LYPG 260300Z VRB01KT CAVOK 01/01 Q1023 NOSIG",
      "taf": "TAF LYPG 252300Z 2600/2624 36005KT CAVOK TX13/2613Z TN01/2605Z"
    },
    {
      "icao": "LZIB",
      "alert": "OK",
      "vis_m": 9999,
      "fzfg": false,
      "metar_trigger": false,
      "taf_trigger": false,
      "metar": "METAR LZIB 260300Z 27002KT CAVOK M00/M01 Q1030 NOSIG",
      "taf": "TAF LZIB 252315Z 2600/2700 VRB02KT CAVOK"
    },
    {
      "icao": "LZKZ",
      "alert": "OK",
      "vis_m": 9999,
      "fzfg": false,
      "metar_trigger": false,
      "taf_trigger": false,
      "metar": "METAR LZKZ 260300Z VRB01KT CAVOK M04/M06 Q1029 NOSIG",
      "taf": "TAF LZKZ 252315Z 2600/2700 VRB02KT CAVOK"
    },
    {
      "icao": "LZTT",
      "alert": "OK",
      "vis_m": 9999,
      "fzfg": false,
      "metar_trigger": false,
      "taf_trigger": false,
      "metar": "METAR LZTT 260300Z 05006KT 9999 2000S BCFG FEW002 M09/M10 Q1027",
      "taf": ""
    },
    {
      "icao": "OEJN",
      "alert": "OK",
      "vis_m": 9999,
      "fzfg": false,
      "metar_trigger": false,
      "taf_trigger": false,
      "metar": "METAR OEJN 260300Z 00000KT 9999 FEW040 24/23 Q1011 NOSIG",
      "taf": "TAF OEJN 252300Z 2600/2706 03005KT 8000 SCT030"
    },
    {
      "icao": "OEMA",
      "alert": "OK",
      "vis_m": 9999,
      "fzfg": false,
      "metar_trigger": false,
      "taf_trigger": false,
      "metar": "METAR OEMA 260300Z 00000KT 9999 FEW045 17/04 Q1016 NOSIG",
      "taf": "TAF OEMA 252300Z 2600/2706 06006KT 8000 SCT040"
    },
    {
      "icao": "OJAI",
      "alert": "OK",
      "vis_m": 2500,
      "fzfg": false,
      "metar_trigger": false,
      "taf_trigger": false,
      "metar": "METAR OJAI 260300Z 36003KT 2500 BR NSC 03/02 Q1018 NOSIG",
      "taf": "TAF OJAI 252300Z 2600/2706 VRB02KT 5000 HZ NSC"
    },
    {
      "icao": "OMAA",
      "alert": "OK",
      "vis_m": 6000,
      "fzfg": false,
      "metar_trigger": false,
      "taf_trigger": false,
      "metar": "METAR OMAA 260300Z 21004KT 160V230 6000 NSC 17/13 Q1016 NOSIG",
      "taf": "TAF OMAA 252300Z 2600/2706 VRB02KT 8000 NSC"
    },
    {
      "icao": "OMDB",
      "alert": "OK",
      "vis_m": 4000,
      "fzfg": false,
      "metar_trigger": false,
      "taf_trigger": false,
      "metar": "SPECI OMDB 260301Z 16005KT 4000 HZ NSC 19/15 Q1016 NOSIG",
      "taf": "TAF OMDB 252300Z 2600/2706 16005KT 7000 FEW040"
    },
    {
      "icao": "UAAA",
      "alert": "OK",
      "vis_m": 9999,
      "fzfg": false,
      "metar_trigger": false,
      "taf_trigger": false,
      "metar": "METAR UAAA 260300Z 07002MPS 9999 BKN100 OVC200 M01/M06 Q1016 NOSIG",
      "taf": "TAF UAAA 252303Z 2600/2624 22003MPS 3100 BR FU SCT030CB BKN100 TX03/2609Z TNM05/2601Z"
    },
    {
      "icao": "UBBB",
      "alert": "OK",
      "vis_m": 9999,
      "fzfg": false,
      "metar_trigger": false,
      "taf_trigger": false,
      "metar": "METAR UBBB 260300Z 11004KT 9999 OVC028 04/00 Q1023 NOSIG",
      "taf": "TAF UBBB 252305Z 2600/2624 04005KT 9999 SCT015 OVC030 TX07/2610Z TN03/2601Z"
    },
    {
      "icao": "UDSG",
      "alert": "OK",
      "vis_m": 4900,
      "fzfg": false,
      "metar_trigger": false,
      "taf_trigger": false,
      "metar": "METAR UDSG 260300Z 13003KT 4900 -SN BR OVC036 M02/M02 Q1017 NOSIG",
      "taf": "TAF UDSG 252258Z 2600/2624 VRB06KT 5000 BR OVC030"
    },
    {
      "icao": "UDYZ",
      "alert": "OK",
      "vis_m": 1600,
      "fzfg": false,
      "metar_trigger": false,
      "taf_trigger": false,
      "metar": "METAR UDYZ 260300Z 08001KT 1600 R08/P2000D BR FEW046 M01/M03 Q1018 NOSIG",
      "taf": "TAF UDYZ 252300Z 2600/2624 VRB04KT 3000 BR FEW040"
    },
    {
      "icao": "UGKO",
      "alert": "OK",
      "vis_m": 9999,
      "fzfg": false,
      "metar_trigger": false,
      "taf_trigger": false,
      "metar": "METAR UGKO 260300Z 11004KT 9999 BKN097 03/02 Q1020 NOSIG",
      "taf": "TAF UGKO 252300Z 2600/2624 09006KT 9000 OVC050 TX08/2610Z TN02/2603Z"
    }
  ]
}