{
  "ts_utc": "2026-05-10T12:41:20Z",
  "threshold_m": 150,
  "source": "stations_override.txt (ICAO list) + aviationweather.gov (METAR/TAF raw)",
  "station_count": 159,
  "stations": [
    {
      "icao": "BIKF",
      "alert": "OK",
      "vis_m": 9999,
      "fzfg": false,
      "metar_trigger": false,
      "taf_trigger": false,
      "metar": "METAR BIKF 101230Z 23006KT 9999 -RA BKN008 OVC048 07/06 Q1020",
      "taf": "TAF BIKF 101054Z 1012/1112 22012KT 7000 -RADZ BKN005 TX07/1013Z TN06/1106Z"
    },
    {
      "icao": "BKPR",
      "alert": "OK",
      "vis_m": 9999,
      "fzfg": false,
      "metar_trigger": false,
      "taf_trigger": false,
      "metar": "METAR BKPR 101230Z 09005KT 060V120 CAVOK 21/09 Q1016 NOSIG",
      "taf": "TAF BKPR 101130Z 1012/1112 VRB03KT 9999 FEW030 BKN100"
    },
    {
      "icao": "EBCI",
      "alert": "OK",
      "vis_m": 9999,
      "fzfg": false,
      "metar_trigger": false,
      "taf_trigger": false,
      "metar": "METAR EBCI 101220Z 04014KT CAVOK 16/08 Q1012 NOSIG",
      "taf": "TAF EBCI 101118Z 1012/1118 03010KT 9999 SCT035"
    },
    {
      "icao": "EDDB",
      "alert": "OK",
      "vis_m": 9999,
      "fzfg": false,
      "metar_trigger": false,
      "taf_trigger": false,
      "metar": "METAR EDDB 101220Z AUTO 22003KT 170V320 CAVOK 20/08 Q1012 NOSIG",
      "taf": "TAF EDDB 101100Z 1012/1112 24004KT CAVOK"
    },
    {
      "icao": "EDDH",
      "alert": "OK",
      "vis_m": 9999,
      "fzfg": false,
      "metar_trigger": false,
      "taf_trigger": false,
      "metar": "METAR EDDH 101220Z AUTO VRB02KT CAVOK 18/05 Q1012 BECMG 34008KT",
      "taf": "TAF EDDH 101100Z 1012/1118 VRB03KT CAVOK"
    },
    {
      "icao": "EDDK",
      "alert": "OK",
      "vis_m": 9999,
      "fzfg": false,
      "metar_trigger": false,
      "taf_trigger": false,
      "metar": "METAR EDDK 101220Z AUTO 33008KT 290V030 CAVOK 20/09 Q1011 NOSIG",
      "taf": "TAF EDDK 101100Z 1012/1118 35008KT CAVOK"
    },
    {
      "icao": "EDDN",
      "alert": "OK",
      "vis_m": 9999,
      "fzfg": false,
      "metar_trigger": false,
      "taf_trigger": false,
      "metar": "METAR EDDN 101220Z AUTO 07005KT 010V130 CAVOK 23/07 Q1010 NOSIG",
      "taf": "TAF EDDN 101100Z 1012/1112 11009KT CAVOK"
    },
    {
      "icao": "EDDS",
      "alert": "OK",
      "vis_m": 9999,
      "fzfg": false,
      "metar_trigger": false,
      "taf_trigger": false,
      "metar": "METAR EDDS 101220Z AUTO 08009KT 030V130 CAVOK 23/08 Q1008 NOSIG",
      "taf": "TAF EDDS 101100Z 1012/1112 03006KT CAVOK"
    },
    {
      "icao": "EDFH",
      "alert": "OK",
      "vis_m": 9999,
      "fzfg": false,
      "metar_trigger": false,
      "taf_trigger": false,
      "metar": "METAR EDFH 101220Z 02011KT CAVOK 18/10 Q1010",
      "taf": "TAF EDFH 101100Z 1012/1112 03008KT CAVOK"
    },
    {
      "icao": "EDJA",
      "alert": "OK",
      "vis_m": 9999,
      "fzfg": false,
      "metar_trigger": false,
      "taf_trigger": false,
      "metar": "METAR EDJA 101220Z 02003KT 300V060 CAVOK 21/06 Q1009",
      "taf": "TAF EDJA 101100Z 1012/1021 02005KT CAVOK"
    },
    {
      "icao": "EDLW",
      "alert": "OK",
      "vis_m": 9999,
      "fzfg": false,
      "metar_trigger": false,
      "taf_trigger": false,
      "metar": "METAR EDLW 101220Z 34006KT CAVOK 18/08 Q1012",
      "taf": "TAF EDLW 101100Z 1012/1112 35005KT CAVOK"
    },
    {
      "icao": "EDNY",
      "alert": "OK",
      "vis_m": 9999,
      "fzfg": false,
      "metar_trigger": false,
      "taf_trigger": false,
      "metar": "METAR EDNY 101220Z 24006KT CAVOK 19/10 Q1009",
      "taf": "TAF EDNY 101100Z 1012/1021 21005KT CAVOK"
    },
    {
      "icao": "EDSB",
      "alert": "OK",
      "vis_m": 9999,
      "fzfg": false,
      "metar_trigger": false,
      "taf_trigger": false,
      "metar": "METAR EDSB 101220Z 35006KT CAVOK 23/13 Q1007",
      "taf": "TAF EDSB 101100Z 1012/1112 01006KT CAVOK"
    },
    {
      "icao": "EETN",
      "alert": "OK",
      "vis_m": 9999,
      "fzfg": false,
      "metar_trigger": false,
      "taf_trigger": false,
      "metar": "METAR EETN 101220Z 05007KT CAVOK 14/02 Q1014 NOSIG",
      "taf": "TAF EETN 101130Z 1012/1112 04010KT 9999 BKN045"
    },
    {
      "icao": "EFTU",
      "alert": "OK",
      "vis_m": 9999,
      "fzfg": false,
      "metar_trigger": false,
      "taf_trigger": false,
      "metar": "METAR EFTU 101220Z AUTO 18011KT CAVOK 14/M03 Q1013",
      "taf": "TAF EFTU 101131Z 1012/1112 19009KT CAVOK"
    },
    {
      "icao": "EGBB",
      "alert": "OK",
      "vis_m": 9999,
      "fzfg": false,
      "metar_trigger": false,
      "taf_trigger": false,
      "metar": "METAR EGBB 101220Z 04012KT 9999 BKN041 13/02 Q1019",
      "taf": "TAF EGBB 101053Z 1012/1112 03010KT 9999 SCT040"
    },
    {
      "icao": "EGGP",
      "alert": "OK",
      "vis_m": 9999,
      "fzfg": false,
      "metar_trigger": false,
      "taf_trigger": false,
      "metar": "METAR EGGP 101220Z 06009KT 9999 SCT026 13/01 Q1020",
      "taf": "TAF EGGP 101057Z 1012/1112 05010KT 9999 FEW030"
    },
    {
      "icao": "EGGW",
      "alert": "OK",
      "vis_m": 9999,
      "fzfg": false,
      "metar_trigger": false,
      "taf_trigger": false,
      "metar": "METAR EGGW 101220Z AUTO 03015KT 9999 SCT026 OVC032 11/05 Q1017",
      "taf": "TAF EGGW 101058Z 1012/1112 03010KT 9999 SCT040"
    },
    {
      "icao": "EGKK",
      "alert": "OK",
      "vis_m": 9999,
      "fzfg": false,
      "metar_trigger": false,
      "taf_trigger": false,
      "metar": "METAR EGKK 101220Z 04014KT 9999 -RA BKN024 12/08 Q1016",
      "taf": "TAF EGKK 101101Z 1012/1118 03013KT 9999 SCT035"
    },
    {
      "icao": "EGNM",
      "alert": "OK",
      "vis_m": 9999,
      "fzfg": false,
      "metar_trigger": false,
      "taf_trigger": false,
      "metar": "METAR EGNM 101220Z 05004KT 020V090 9999 SCT040 09/00 Q1020",
      "taf": "TAF EGNM 101100Z 1012/1112 03009KT 9999 FEW015"
    },
    {
      "icao": "EGPD",
      "alert": "OK",
      "vis_m": 9999,
      "fzfg": false,
      "metar_trigger": false,
      "taf_trigger": false,
      "metar": "METAR EGPD 101220Z COR AUTO 35005KT 290V040 9999 SCT046 12/01 Q1018 NOSIG",
      "taf": "TAF EGPD 101057Z 1012/1112 30008KT 9999 SCT030"
    },
    {
      "icao": "EGPF",
      "alert": "OK",
      "vis_m": 9999,
      "fzfg": false,
      "metar_trigger": false,
      "taf_trigger": false,
      "metar": "METAR EGPF 101220Z 29009KT 250V340 CAVOK 13/02 Q1021",
      "taf": "TAF EGPF 101058Z 1012/1112 29009KT 9999 FEW030"
    },
    {
      "icao": "EHBK",
      "alert": "OK",
      "vis_m": 9999,
      "fzfg": false,
      "metar_trigger": false,
      "taf_trigger": false,
      "metar": "METAR EHBK 101225Z AUTO 02008KT 330V070 9999 NSC 18/09 Q1012 NOSIG",
      "taf": "TAF EHBK 101114Z 1012/1118 03010KT CAVOK"
    },
    {
      "icao": "EHEH",
      "alert": "OK",
      "vis_m": 9999,
      "fzfg": false,
      "metar_trigger": false,
      "taf_trigger": false,
      "metar": "METAR EHEH 101225Z AUTO 04009KT 350V100 9999 OVC160 18/07 Q1012 BLU NOSIG RMK TREND REMOTE BY EHWX",
      "taf": "TAF EHEH 101115Z 1012/1118 03008G18KT 9999 SCT040"
    },
    {
      "icao": "EKBI",
      "alert": "OK",
      "vis_m": 9999,
      "fzfg": false,
      "metar_trigger": false,
      "taf_trigger": false,
      "metar": "METAR EKBI 101220Z AUTO 33007KT 300V020 9999 SCT039/// BKN074/// BKN092/// 12/03 Q1014",
      "taf": "TAF EKBI 101127Z 1012/1112 33008KT CAVOK"
    },
    {
      "icao": "EKCH",
      "alert": "OK",
      "vis_m": 9999,
      "fzfg": false,
      "metar_trigger": false,
      "taf_trigger": false,
      "metar": "METAR EKCH 101222Z 15006KT 110V180 CAVOK 13/08 Q1013 TEMPO 4000 SHRA SCT025CB",
      "taf": ""
    },
    {
      "icao": "ENAL",
      "alert": "OK",
      "vis_m": 9999,
      "fzfg": false,
      "metar_trigger": false,
      "taf_trigger": false,
      "metar": "METAR ENAL 101220Z 23014KT 210V270 9999 SCT020 04/01 Q1012",
      "taf": "TAF ENAL 101100Z 1012/1021 26008KT 9999 -SHRA FEW015TCU BKN025"
    },
    {
      "icao": "ENBR",
      "alert": "OK",
      "vis_m": 9999,
      "fzfg": false,
      "metar_trigger": false,
      "taf_trigger": false,
      "metar": "METAR ENBR 101220Z 27004KT 200V350 9999 FEW018 BKN035 06/01 Q1013 TEMPO SHRA BKN014TCU RMK WIND 1200FT 30011KT",
      "taf": "TAF ENBR 101100Z 1012/1112 30005KT 9999 -SHRA FEW015 BKN035"
    },
    {
      "icao": "ENGM",
      "alert": "OK",
      "vis_m": 9999,
      "fzfg": false,
      "metar_trigger": false,
      "taf_trigger": false,
      "metar": "METAR ENGM 101220Z VRB04KT 9999 FEW023 08/02 Q1009 TEMPO 18010KT",
      "taf": "TAF ENGM 101100Z 1012/1112 16010KT 9999 SCT020"
    },
    {
      "icao": "ENHD",
      "alert": "OK",
      "vis_m": 9999,
      "fzfg": false,
      "metar_trigger": false,
      "taf_trigger": false,
      "metar": "METAR ENHD 101220Z 28012KT 9999 VCSH FEW017CB BKN023 07/01 Q1014",
      "taf": "TAF ENHD 101100Z 1012/1021 28009KT 9999 -RA FEW012 BKN025"
    },
    {
      "icao": "ENTC",
      "alert": "OK",
      "vis_m": 9999,
      "fzfg": false,
      "metar_trigger": false,
      "taf_trigger": false,
      "metar": "METAR ENTC 101220Z VRB02KT 9999 -DZRA FEW032 SCT043 06/02 Q1008 NOSIG RMK WIND 2600FT 26003KT",
      "taf": "TAF ENTC 101100Z 1012/1112 18006KT 9999 FEW030"
    },
    {
      "icao": "ENTO",
      "alert": "OK",
      "vis_m": 9999,
      "fzfg": false,
      "metar_trigger": false,
      "taf_trigger": false,
      "metar": "METAR ENTO 101220Z VRB02KT 9999 SCT022 09/02 Q1010 BECMG 19010KT",
      "taf": "TAF ENTO 101100Z 1012/1112 35008KT 9999 SCT020"
    },
    {
      "icao": "ENVA",
      "alert": "OK",
      "vis_m": 9999,
      "fzfg": false,
      "metar_trigger": false,
      "taf_trigger": false,
      "metar": "METAR ENVA 101220Z 29012KT 9999 FEW047 SCT052CB 10/M01 Q1009 NOSIG RMK WIND 670FT 30014KT",
      "taf": "TAF ENVA 101100Z 1012/1112 28010KT 9999 SCT045"
    },
    {
      "icao": "ENZV",
      "alert": "OK",
      "vis_m": 9999,
      "fzfg": false,
      "metar_trigger": false,
      "taf_trigger": false,
      "metar": "METAR ENZV 101220Z 30010KT 270V330 9999 FEW021 08/02 Q1015 NOSIG",
      "taf": "TAF ENZV 101100Z 1012/1112 30009KT 9999 FEW015 SCT025"
    },
    {
      "icao": "EPGD",
      "alert": "OK",
      "vis_m": 9999,
      "fzfg": false,
      "metar_trigger": false,
      "taf_trigger": false,
      "metar": "METAR EPGD 101230Z 21004KT 140V260 CAVOK 18/00 Q1013",
      "taf": "TAF EPGD 101130Z 1012/1112 VRB04KT CAVOK"
    },
    {
      "icao": "EPKK",
      "alert": "OK",
      "vis_m": 9999,
      "fzfg": false,
      "metar_trigger": false,
      "taf_trigger": false,
      "metar": "METAR EPKK 101230Z 08008KT 050V110 CAVOK 18/03 Q1014",
      "taf": "TAF EPKK 101130Z 1012/1112 09011KT CAVOK"
    },
    {
      "icao": "EPKT",
      "alert": "OK",
      "vis_m": 9999,
      "fzfg": false,
      "metar_trigger": false,
      "taf_trigger": false,
      "metar": "METAR EPKT 101230Z 12006KT 080V160 CAVOK 18/02 Q1014",
      "taf": "TAF EPKT 101130Z 1012/1112 12010KT CAVOK"
    },
    {
      "icao": "EPLB",
      "alert": "OK",
      "vis_m": 9999,
      "fzfg": false,
      "metar_trigger": false,
      "taf_trigger": false,
      "metar": "METAR EPLB 101230Z 29008KT CAVOK 17/04 Q1014",
      "taf": "TAF EPLB 101130Z 1012/1112 VRB03KT CAVOK"
    },
    {
      "icao": "EPMO",
      "alert": "OK",
      "vis_m": 9999,
      "fzfg": false,
      "metar_trigger": false,
      "taf_trigger": false,
      "metar": "METAR EPMO 101230Z 28004KT 210V020 CAVOK 19/01 Q1014",
      "taf": "TAF EPMO 101130Z 1012/1112 VRB03KT CAVOK"
    },
    {
      "icao": "EPPO",
      "alert": "OK",
      "vis_m": 9999,
      "fzfg": false,
      "metar_trigger": false,
      "taf_trigger": false,
      "metar": "METAR EPPO 101230Z 17010KT CAVOK 20/03 Q1013",
      "taf": "TAF EPPO 101130Z 1012/1112 16010KT CAVOK"
    },
    {
      "icao": "EPRA",
      "alert": "OK",
      "vis_m": 9999,
      "fzfg": false,
      "metar_trigger": false,
      "taf_trigger": false,
      "metar": "METAR EPRA 101230Z 28006KT 240V340 CAVOK 18/02 Q1014",
      "taf": "TAF EPRA 101130Z 1012/1021 28007KT CAVOK"
    },
    {
      "icao": "EPRZ",
      "alert": "OK",
      "vis_m": 9999,
      "fzfg": false,
      "metar_trigger": false,
      "taf_trigger": false,
      "metar": "METAR EPRZ 101230Z VRB04KT CAVOK 17/05 Q1015",
      "taf": "TAF EPRZ 101130Z 1012/1112 VRB05KT CAVOK"
    },
    {
      "icao": "EPSC",
      "alert": "OK",
      "vis_m": 9999,
      "fzfg": false,
      "metar_trigger": false,
      "taf_trigger": false,
      "metar": "METAR EPSC 101230Z 17009KT CAVOK 17/05 Q1012",
      "taf": "TAF EPSC 101130Z 1012/1112 16010KT 9999 SCT049"
    },
    {
      "icao": "EPSY",
      "alert": "OK",
      "vis_m": 9999,
      "fzfg": false,
      "metar_trigger": false,
      "taf_trigger": false,
      "metar": "METAR EPSY 101230Z VRB04KT CAVOK 17/02 Q1014",
      "taf": "TAF EPSY 101130Z 1012/1021 34006KT CAVOK"
    },
    {
      "icao": "EPWA",
      "alert": "OK",
      "vis_m": 9999,
      "fzfg": false,
      "metar_trigger": false,
      "taf_trigger": false,
      "metar": "METAR EPWA 101230Z VRB06KT CAVOK 19/M01 Q1014 NOSIG",
      "taf": "TAF EPWA 101130Z 1012/1112 VRB03KT CAVOK"
    },
    {
      "icao": "EPWR",
      "alert": "OK",
      "vis_m": 9999,
      "fzfg": false,
      "metar_trigger": false,
      "taf_trigger": false,
      "metar": "METAR EPWR 101230Z 14010KT 120V180 CAVOK 19/06 Q1013",
      "taf": "TAF EPWR 101130Z 1012/1112 14010KT CAVOK"
    },
    {
      "icao": "ESGG",
      "alert": "OK",
      "vis_m": 9999,
      "fzfg": false,
      "metar_trigger": false,
      "taf_trigger": false,
      "metar": "METAR ESGG 101220Z 27010KT 9999 BKN034 11/03 Q1011",
      "taf": "TAF ESGG 101130Z 1012/1112 26010KT 9999 FEW030"
    },
    {
      "icao": "ESKN",
      "alert": "OK",
      "vis_m": 9999,
      "fzfg": false,
      "metar_trigger": false,
      "taf_trigger": false,
      "metar": "METAR ESKN 101220Z 14013KT CAVOK 14/00 Q1010",
      "taf": "TAF ESKN 101130Z 1012/1112 14013KT CAVOK"
    },
    {
      "icao": "ESMS",
      "alert": "OK",
      "vis_m": 9999,
      "fzfg": false,
      "metar_trigger": false,
      "taf_trigger": false,
      "metar": "METAR ESMS 101220Z 20007KT 170V260 CAVOK 15/07 Q1012",
      "taf": "TAF ESMS 101127Z 1012/1112 24006KT CAVOK"
    },
    {
      "icao": "ESSA",
      "alert": "OK",
      "vis_m": 9999,
      "fzfg": false,
      "metar_trigger": false,
      "taf_trigger": false,
      "metar": "METAR ESSA 101220Z 18012KT CAVOK 15/M02 Q1010 NOSIG",
      "taf": "TAF ESSA 101130Z 1012/1112 18013G24KT CAVOK"
    },
    {
      "icao": "EYKA",
      "alert": "OK",
      "vis_m": 9999,
      "fzfg": false,
      "metar_trigger": false,
      "taf_trigger": false,
      "metar": "METAR EYKA 101220Z VRB02KT 9999 OVC027 10/06 Q1015",
      "taf": "TAF EYKA 101100Z 1012/1112 VRB03KT 9000 BKN015"
    },
    {
      "icao": "EYPA",
      "alert": "OK",
      "vis_m": 9999,
      "fzfg": false,
      "metar_trigger": false,
      "taf_trigger": false,
      "metar": "METAR EYPA 101220Z 27004KT 220V350 CAVOK 11/04 Q1015",
      "taf": "TAF EYPA 101100Z 1012/1112 VRB03KT 9000 NSC"
    },
    {
      "icao": "EYVI",
      "alert": "OK",
      "vis_m": 9999,
      "fzfg": false,
      "metar_trigger": false,
      "taf_trigger": false,
      "metar": "METAR EYVI 101220Z 30004KT 280V340 9999 BKN010 OVC015 09/07 Q1015 NOSIG",
      "taf": "TAF EYVI 101100Z 1012/1112 24006KT 9000 OVC010"
    },
    {
      "icao": "GCFV",
      "alert": "OK",
      "vis_m": 9999,
      "fzfg": false,
      "metar_trigger": false,
      "taf_trigger": false,
      "metar": "METAR GCFV 101230Z 12008KT 090V160 9999 FEW030 SCT045 23/15 Q1018",
      "taf": "TAF GCFV 100800Z 1009/1109 09007KT 9999 SCT035 TX24/1014Z TN17/1106Z"
    },
    {
      "icao": "GCLP",
      "alert": "OK",
      "vis_m": 9999,
      "fzfg": false,
      "metar_trigger": false,
      "taf_trigger": false,
      "metar": "METAR GCLP 101230Z 09003KT 010V180 9999 FEW025 BKN040 22/16 Q1018 NOSIG",
      "taf": "TAF GCLP 100800Z 1009/1109 10006KT 9999 FEW025 BKN040 TX23/1014Z TN17/1106Z"
    },
    {
      "icao": "GCTS",
      "alert": "OK",
      "vis_m": 9999,
      "fzfg": false,
      "metar_trigger": false,
      "taf_trigger": false,
      "metar": "METAR GCTS 101230Z 19008KT 150V230 9999 FEW030 BKN060 22/15 Q1018 NOSIG",
      "taf": "TAF GCTS 100800Z 1009/1109 14005KT 9999 BKN040 TX25/1014Z TN18/1106Z"
    },
    {
      "icao": "GMAD",
      "alert": "OK",
      "vis_m": 9999,
      "fzfg": false,
      "metar_trigger": false,
      "taf_trigger": false,
      "metar": "METAR GMAD 101230Z 28009KT 250V320 CAVOK 23/11 Q1016 NOSIG",
      "taf": "TAF GMAD 101100Z 1012/1118 26012KT 8000 SCT020"
    },
    {
      "icao": "GMMN",
      "alert": "OK",
      "vis_m": 9999,
      "fzfg": false,
      "metar_trigger": false,
      "taf_trigger": false,
      "metar": "METAR GMMN 101230Z 25013KT 210V300 9999 BKN020 24/13 Q1016 NOSIG",
      "taf": "TAF GMMN 101100Z 1012/1118 23014KT 9999 BKN020"
    },
    {
      "icao": "GMMX",
      "alert": "OK",
      "vis_m": 9999,
      "fzfg": false,
      "metar_trigger": false,
      "taf_trigger": false,
      "metar": "METAR GMMX 101230Z VRB05KT CAVOK 23/11 Q1016 NOSIG",
      "taf": "TAF GMMX 101100Z 1012/1118 32015KT CAVOK"
    },
    {
      "icao": "HEGN",
      "alert": "OK",
      "vis_m": 9999,
      "fzfg": false,
      "metar_trigger": false,
      "taf_trigger": false,
      "metar": "METAR HEGN 101200Z 01013KT CAVOK 31/07 Q1010 NOSIG",
      "taf": "TAF HEGN 101100Z 1012/1118 35015G25KT CAVOK"
    },
    {
      "icao": "HEMA",
      "alert": "OK",
      "vis_m": 9999,
      "fzfg": false,
      "metar_trigger": false,
      "taf_trigger": false,
      "metar": "METAR HEMA 101200Z 35015KT CAVOK 30/11 Q1010 NOSIG",
      "taf": "TAF HEMA 101100Z 1012/1118 36015G25KT CAVOK"
    },
    {
      "icao": "HESH",
      "alert": "OK",
      "vis_m": 9999,
      "fzfg": false,
      "metar_trigger": false,
      "taf_trigger": false,
      "metar": "METAR HESH 101200Z 34019KT CAVOK 33/12 Q1010 NOSIG",
      "taf": "TAF HESH 101100Z 1012/1118 02015G25KT CAVOK"
    },
    {
      "icao": "HESX",
      "alert": "OK",
      "vis_m": 9999,
      "fzfg": false,
      "metar_trigger": false,
      "taf_trigger": false,
      "metar": "METAR HESX 101200Z 04014KT CAVOK 31/08 Q1015 NOSIG",
      "taf": "TAF HESX 101100Z 1012/1118 03009KT CAVOK"
    },
    {
      "icao": "LATI",
      "alert": "OK",
      "vis_m": 9999,
      "fzfg": false,
      "metar_trigger": false,
      "taf_trigger": false,
      "metar": "METAR LATI 101220Z VRB02KT 9999 FEW030 SCT100 23/14 Q1015 NOSIG",
      "taf": "TAF LATI 101100Z 1012/1112 VRB05KT 9999 SCT030 BKN100 TX26/1112Z TN14/1104Z"
    },
    {
      "icao": "LBPD",
      "alert": "OK",
      "vis_m": 9999,
      "fzfg": false,
      "metar_trigger": false,
      "taf_trigger": false,
      "metar": "METAR LBPD 101230Z AUTO VRB04KT 9999 FEW058/// 25/12 Q1013 NOSIG",
      "taf": "TAF LBPD 101100Z 1012/1112 30012KT 9999 SCT060"
    },
    {
      "icao": "LBSF",
      "alert": "OK",
      "vis_m": 9999,
      "fzfg": false,
      "metar_trigger": false,
      "taf_trigger": false,
      "metar": "METAR LBSF 101230Z VRB02KT 9999 SCT055 23/08 Q1015 NOSIG",
      "taf": "TAF LBSF 101100Z 1012/1112 34010KT 9999 SCT040 SCT060"
    },
    {
      "icao": "LBWN",
      "alert": "OK",
      "vis_m": 9999,
      "fzfg": false,
      "metar_trigger": false,
      "taf_trigger": false,
      "metar": "METAR LBWN 101230Z 32009KT 9999 BKN044 19/13 Q1014 NOSIG",
      "taf": "TAF LBWN 101100Z 1012/1112 30010KT 9999 SCT015 BKN030"
    },
    {
      "icao": "LCLK",
      "alert": "OK",
      "vis_m": 9999,
      "fzfg": false,
      "metar_trigger": false,
      "taf_trigger": false,
      "metar": "METAR LCLK 101230Z 20013KT 9999 FEW030 28/13 Q1014 NOSIG",
      "taf": "TAF LCLK 101130Z 1012/1112 22015KT 9999 FEW030"
    },
    {
      "icao": "LCPH",
      "alert": "OK",
      "vis_m": 9999,
      "fzfg": false,
      "metar_trigger": false,
      "taf_trigger": false,
      "metar": "METAR LCPH 101230Z 31016KT 9999 FEW040 23/16 Q1015 NOSIG",
      "taf": "TAF LCPH 101130Z 1012/1112 29015KT 9999 FEW030"
    },
    {
      "icao": "LEAL",
      "alert": "OK",
      "vis_m": 9999,
      "fzfg": false,
      "metar_trigger": false,
      "taf_trigger": false,
      "metar": "METAR LEAL 101230Z 18007KT 120V260 9999 FEW020 24/15 Q1014 NOSIG",
      "taf": "TAF LEAL 101100Z 1012/1112 18010KT 9999 FEW035 TX25/1012Z TN16/1105Z"
    },
    {
      "icao": "LEBB",
      "alert": "OK",
      "vis_m": 9999,
      "fzfg": false,
      "metar_trigger": false,
      "taf_trigger": false,
      "metar": "METAR LEBB 101230Z 31008KT 9999 VCTS FEW065CB 20/10 Q1009 TEMPO 3000 SHRA",
      "taf": ""
    },
    {
      "icao": "LEBL",
      "alert": "OK",
      "vis_m": 9999,
      "fzfg": false,
      "metar_trigger": false,
      "taf_trigger": false,
      "metar": "METAR LEBL 101230Z 22016KT 9999 FEW017 21/16 Q1012 NOSIG",
      "taf": "TAF LEBL 101100Z 1012/1112 24010KT 9999 FEW050 TX21/1013Z TN14/1106Z"
    },
    {
      "icao": "LECH",
      "alert": "OK",
      "vis_m": 9999,
      "fzfg": false,
      "metar_trigger": false,
      "taf_trigger": false,
      "metar": "METAR LECH 101230Z AUTO 22011KT 180V250 CAVOK 21/10 Q1012",
      "taf": "TAF LECH 101100Z 1012/1112 22010KT 9999 FEW020 TX23/1014Z TN10/1105Z"
    },
    {
      "icao": "LEMD",
      "alert": "OK",
      "vis_m": 9000,
      "fzfg": false,
      "metar_trigger": false,
      "taf_trigger": false,
      "metar": "METAR LEMD 101230Z 20011G29KT 170V240 9000 FEW055 BKN070 13/09 Q1013 NOSIG",
      "taf": "TAF LEMD 101100Z 1012/1118 20010KT 9999 SCT030 TX16/1015Z TN06/1105Z"
    },
    {
      "icao": "LEMG",
      "alert": "OK",
      "vis_m": 9000,
      "fzfg": false,
      "metar_trigger": false,
      "taf_trigger": false,
      "metar": "METAR LEMG 101230Z 12005KT 070V160 9000 -SHRA FEW025TCU SCT045 BKN065 19/14 Q1015 NOSIG",
      "taf": "TAF LEMG 101100Z 1012/1112 18006KT 9999 SCT030 TX22/1014Z TN13/1106Z"
    },
    {
      "icao": "LEVC",
      "alert": "OK",
      "vis_m": 9999,
      "fzfg": false,
      "metar_trigger": false,
      "taf_trigger": false,
      "metar": "METAR LEVC 101230Z 20007KT 160V270 9999 SCT069 24/10 Q1012 NOSIG",
      "taf": "TAF LEVC 101100Z 1012/1112 25010KT 9999 FEW020 TX24/1012Z TN14/1105Z"
    },
    {
      "icao": "LEXJ",
      "alert": "OK",
      "vis_m": 9999,
      "fzfg": false,
      "metar_trigger": false,
      "taf_trigger": false,
      "metar": "METAR LEXJ 101230Z 21011KT 170V250 9999 FEW035 SCT075 19/07 Q1009",
      "taf": "TAF LEXJ 100800Z 1009/1109 21009KT 9999 FEW050 TX21/1014Z TN11/1105Z"
    },
    {
      "icao": "LEZG",
      "alert": "OK",
      "vis_m": 9999,
      "fzfg": false,
      "metar_trigger": false,
      "taf_trigger": false,
      "metar": "METAR LEZG 101230Z 18010KT 150V210 9999 SCT089 21/07 Q1011 NOSIG",
      "taf": "TAF LEZG 101100Z 1012/1112 22014KT 9999 FEW020 TX24/1014Z TN12/1105Z"
    },
    {
      "icao": "LEZL",
      "alert": "OK",
      "vis_m": 6000,
      "fzfg": false,
      "metar_trigger": false,
      "taf_trigger": false,
      "metar": "METAR LEZL 101230Z 24017G28KT 200V280 6000 -RA FEW020TCU SCT040 20/13 Q1014 NOSIG",
      "taf": "TAF LEZL 100800Z 1009/1109 20008KT 9999 SCT030 TX22/1015Z TN11/1107Z"
    },
    {
      "icao": "LFBD",
      "alert": "OK",
      "vis_m": 9999,
      "fzfg": false,
      "metar_trigger": false,
      "taf_trigger": false,
      "metar": "METAR LFBD 101230Z AUTO 23015KT 190V260 9999 FEW046 21/10 Q1008 TEMPO 24015G25KT",
      "taf": "TAF LFBD 101100Z 1012/1118 24010KT 9999 SCT040 TX22/1013Z TN11/1105Z"
    },
    {
      "icao": "LFLL",
      "alert": "OK",
      "vis_m": 9999,
      "fzfg": false,
      "metar_trigger": false,
      "taf_trigger": false,
      "metar": "METAR LFLL 101230Z 13006KT 090V160 9999 SCT010 BKN046 16/13 Q1011 NOSIG",
      "taf": "TAF LFLL 101100Z 1012/1118 17005KT 9999 SCT012 BKN030"
    },
    {
      "icao": "LFLS",
      "alert": "OK",
      "vis_m": 9999,
      "fzfg": false,
      "metar_trigger": false,
      "taf_trigger": false,
      "metar": "METAR LFLS 101230Z AUTO 09005KT 050V140 9999 SCT012 BKN020 BKN025 16/13 Q1011 NOSIG",
      "taf": "TAF LFLS 100800Z 1009/1109 VRB02KT 9999 BKN045"
    },
    {
      "icao": "LFMN",
      "alert": "OK",
      "vis_m": 9999,
      "fzfg": false,
      "metar_trigger": false,
      "taf_trigger": false,
      "metar": "METAR LFMN 101230Z 08010KT 9999 FEW026 SCT040 OVC066 19/15 Q1012 NOSIG",
      "taf": "TAF LFMN 100800Z 1009/1115 08015KT 9999 FEW016 OVC060"
    },
    {
      "icao": "LFOB",
      "alert": "OK",
      "vis_m": 9999,
      "fzfg": false,
      "metar_trigger": false,
      "taf_trigger": false,
      "metar": "METAR LFOB 101230Z AUTO 05016KT 9999 FEW018 BKN170 15/11 Q1010 TEMPO 2000 TSRA BKN014 BKN020CB",
      "taf": "TAF LFOB 101100Z 1012/1112 04013KT 9999 BKN030"
    },
    {
      "icao": "LFPO",
      "alert": "OK",
      "vis_m": 8000,
      "fzfg": false,
      "metar_trigger": false,
      "taf_trigger": false,
      "metar": "METAR LFPO 101230Z VRB02KT 8000 -RA BKN018TCU OVC023 15/14 Q1010 TEMPO BKN008",
      "taf": "TAF LFPO 101100Z 1012/1118 VRB05KT 9999 BKN030"
    },
    {
      "icao": "LFSB",
      "alert": "OK",
      "vis_m": 9999,
      "fzfg": false,
      "metar_trigger": false,
      "taf_trigger": false,
      "metar": "METAR LFSB 101230Z AUTO 28011KT 240V310 CAVOK 20/12 Q1009 TEMPO 26015G25KT 3000 TSRA SCT030CB",
      "taf": "TAF LFSB 101100Z 1012/1112 28008KT CAVOK"
    },
    {
      "icao": "LGAV",
      "alert": "OK",
      "vis_m": 9999,
      "fzfg": false,
      "metar_trigger": false,
      "taf_trigger": false,
      "metar": "METAR LGAV 101220Z 14008KT 100V190 9999 FEW025 25/13 Q1016 NOSIG",
      "taf": "TAF LGAV 101100Z 1012/1112 18010KT 9999 FEW025"
    },
    {
      "icao": "LGTS",
      "alert": "OK",
      "vis_m": 9999,
      "fzfg": false,
      "metar_trigger": false,
      "taf_trigger": false,
      "metar": "METAR LGTS 101220Z 26006KT 9999 FEW020 25/14 Q1015 NOSIG",
      "taf": "TAF LGTS 101100Z 1012/1112 VRB03KT 9999 FEW025"
    },
    {
      "icao": "LHBP",
      "alert": "OK",
      "vis_m": 9999,
      "fzfg": false,
      "metar_trigger": false,
      "taf_trigger": false,
      "metar": "METAR LHBP 101230Z VRB05KT CAVOK 23/07 Q1013 NOSIG",
      "taf": "TAF LHBP 101115Z 1012/1112 VRB03KT CAVOK"
    },
    {
      "icao": "LHDC",
      "alert": "OK",
      "vis_m": 9999,
      "fzfg": false,
      "metar_trigger": false,
      "taf_trigger": false,
      "metar": "METAR LHDC 101215Z AUTO VRB04KT CAVOK 23/06 Q1013 NOSIG",
      "taf": "TAF LHDC 101115Z 1012/1021 VRB04KT CAVOK"
    },
    {
      "icao": "LIBD",
      "alert": "OK",
      "vis_m": 9999,
      "fzfg": false,
      "metar_trigger": false,
      "taf_trigger": false,
      "metar": "METAR LIBD 101220Z 08012KT CAVOK 24/13 Q1013",
      "taf": "TAF LIBD 101100Z 1012/1112 10010KT CAVOK"
    },
    {
      "icao": "LIBG",
      "alert": "OK",
      "vis_m": 9999,
      "fzfg": false,
      "metar_trigger": false,
      "taf_trigger": false,
      "metar": "METAR LIBG 101150Z 17006KT 130V230 CAVOK 24/12 Q1014",
      "taf": "TAF LIBG 101100Z 1012/1021 18012KT CAVOK"
    },
    {
      "icao": "LIBP",
      "alert": "OK",
      "vis_m": 9999,
      "fzfg": false,
      "metar_trigger": false,
      "taf_trigger": false,
      "metar": "METAR LIBP 101220Z AUTO 11009KT 9999 FEW028/// BKN077/// 21/16 Q1012 RETS",
      "taf": ""
    },
    {
      "icao": "LIBR",
      "alert": "OK",
      "vis_m": 9999,
      "fzfg": false,
      "metar_trigger": false,
      "taf_trigger": false,
      "metar": "METAR LIBR 101220Z 11009KT CAVOK 20/15 Q1014",
      "taf": "TAF LIBR 101100Z 1012/1112 12010KT 9999 FEW040"
    },
    {
      "icao": "LICA",
      "alert": "OK",
      "vis_m": 9999,
      "fzfg": false,
      "metar_trigger": false,
      "taf_trigger": false,
      "metar": "METAR LICA 101220Z AUTO 29012KT 9999 NCD 23/16 Q1014",
      "taf": "TAF LICA 101100Z 1012/1112 08012KT 9999 FEW050"
    },
    {
      "icao": "LICC",
      "alert": "OK",
      "vis_m": 9999,
      "fzfg": false,
      "metar_trigger": false,
      "taf_trigger": false,
      "metar": "METAR LICC 101220Z 07010KT 040V100 CAVOK 23/19 Q1015",
      "taf": "TAF LICC 101100Z 1012/1112 08012KT 9999 FEW080"
    },
    {
      "icao": "LICJ",
      "alert": "OK",
      "vis_m": 9999,
      "fzfg": false,
      "metar_trigger": false,
      "taf_trigger": false,
      "metar": "METAR LICJ 101220Z 25017KT CAVOK 21/16 Q1014",
      "taf": "TAF LICJ 101100Z 1012/1112 27013KT 9999 FEW050"
    },
    {
      "icao": "LIMC",
      "alert": "OK",
      "vis_m": 7000,
      "fzfg": false,
      "metar_trigger": false,
      "taf_trigger": false,
      "metar": "METAR LIMC 101220Z 07005KT 010V120 7000 -RA BKN020 15/14 Q1014 NOSIG",
      "taf": "TAF LIMC 101100Z 1012/1118 VRB05KT 4000 RA BKN050"
    },
    {
      "icao": "LIME",
      "alert": "OK",
      "vis_m": 5000,
      "fzfg": false,
      "metar_trigger": false,
      "taf_trigger": false,
      "metar": "METAR LIME 101220Z 32004KT 5000 SHRA BKN040 15/14 Q1014 NOSIG",
      "taf": "TAF LIME 101100Z 1012/1112 VRB05KT 4000 RA SCT050"
    },
    {
      "icao": "LIMF",
      "alert": "OK",
      "vis_m": 3200,
      "fzfg": false,
      "metar_trigger": false,
      "taf_trigger": false,
      "metar": "METAR LIMF 101220Z 36003KT 3200 RA BR BKN006 OVC017 14/13 Q1014",
      "taf": "TAF LIMF 101100Z 1012/1112 05010KT 4000 RA BKN050"
    },
    {
      "icao": "LIMJ",
      "alert": "OK",
      "vis_m": 8000,
      "fzfg": false,
      "metar_trigger": false,
      "taf_trigger": false,
      "metar": "METAR LIMJ 101220Z 29005KT 8000 -RA SCT021 SCT035 17/15 Q1013",
      "taf": "TAF LIMJ 101100Z 1012/1112 VRB05KT 4000 RA SCT020"
    },
    {
      "icao": "LIPE",
      "alert": "OK",
      "vis_m": 9999,
      "fzfg": false,
      "metar_trigger": false,
      "taf_trigger": false,
      "metar": "METAR LIPE 101220Z 17004KT 9999 -RA FEW020CB SCT025 BKN060 20/15 Q1012",
      "taf": "TAF LIPE 101100Z 1012/1112 11005KT 9999 SCT040 SCT070"
    },
    {
      "icao": "LIPH",
      "alert": "OK",
      "vis_m": 9999,
      "fzfg": false,
      "metar_trigger": false,
      "taf_trigger": false,
      "metar": "METAR LIPH 101220Z 09004KT 070V130 9999 BKN070 20/13 Q1013",
      "taf": "TAF LIPH 101100Z 1012/1112 16012KT 9999 BKN070"
    },
    {
      "icao": "LIPQ",
      "alert": "OK",
      "vis_m": 9999,
      "fzfg": false,
      "metar_trigger": false,
      "taf_trigger": false,
      "metar": "METAR LIPQ 101220Z AUTO 27006KT 9999 BKN096/// 21/10 Q1013",
      "taf": "TAF LIPQ 101100Z 1012/1112 VRB05KT CAVOK"
    },
    {
      "icao": "LIPR",
      "alert": "OK",
      "vis_m": 9999,
      "fzfg": false,
      "metar_trigger": false,
      "taf_trigger": false,
      "metar": "METAR LIPR 101220Z 11007KT 080V140 9999 -RA BKN060 19/15 Q1012",
      "taf": "TAF LIPR 101100Z 1012/1112 10010KT 9999 FEW060"
    },
    {
      "icao": "LIPX",
      "alert": "OK",
      "vis_m": 9999,
      "fzfg": false,
      "metar_trigger": false,
      "taf_trigger": false,
      "metar": "METAR LIPX 101220Z 07004KT 9999 FEW050 BKN070 19/11 Q1013",
      "taf": "TAF LIPX 101100Z 1012/1112 VRB05KT 4000 RA"
    },
    {
      "icao": "LIPY",
      "alert": "OK",
      "vis_m": 8000,
      "fzfg": false,
      "metar_trigger": false,
      "taf_trigger": false,
      "metar": "METAR LIPY 101220Z AUTO 13005KT 100V170 8000 RA FEW028/// BKN085/// 19/16 Q1012",
      "taf": "TAF LIPY 101100Z 1012/1112 15010KT 9999 FEW060"
    },
    {
      "icao": "LIPZ",
      "alert": "OK",
      "vis_m": 9999,
      "fzfg": false,
      "metar_trigger": false,
      "taf_trigger": false,
      "metar": "METAR LIPZ 101220Z 13006KT 9999 BKN070 19/13 Q1013 NOSIG",
      "taf": "TAF LIPZ 101100Z 1012/1118 11010KT 9999 SCT070"
    },
    {
      "icao": "LIRF",
      "alert": "OK",
      "vis_m": 9999,
      "fzfg": false,
      "metar_trigger": false,
      "taf_trigger": false,
      "metar": "METAR LIRF 101220Z 15016KT 9999 DZ FEW025 SCT040 21/17 Q1011 NOSIG",
      "taf": "TAF LIRF 101100Z 1012/1118 17013KT 9999 SCT040"
    },
    {
      "icao": "LIRN",
      "alert": "OK",
      "vis_m": 9999,
      "fzfg": false,
      "metar_trigger": false,
      "taf_trigger": false,
      "metar": "METAR LIRN 101150Z 17009KT 140V210 CAVOK 23/14 Q1013 NOSIG",
      "taf": "TAF LIRN 101100Z 1012/1112 19012KT 9999 FEW050"
    },
    {
      "icao": "LIRP",
      "alert": "OK",
      "vis_m": 9999,
      "fzfg": false,
      "metar_trigger": false,
      "taf_trigger": false,
      "metar": "METAR LIRP 101215Z 13007KT 9999 SCT020 BKN040 19/15 Q1013 NOSIG",
      "taf": "TAF LIRP 101100Z 1012/1112 10007KT 9999 SCT030 BKN060"
    },
    {
      "icao": "LIRZ",
      "alert": "OK",
      "vis_m": 9999,
      "fzfg": false,
      "metar_trigger": false,
      "taf_trigger": false,
      "metar": "METAR LIRZ 101220Z AUTO 36003KT 9999 -RA FEW035/// BKN054/// 16/15 Q1014",
      "taf": "TAF LIRZ 101100Z 1012/1112 VRB05KT 9999 BKN030"
    },
    {
      "icao": "LJLJ",
      "alert": "OK",
      "vis_m": 9999,
      "fzfg": false,
      "metar_trigger": false,
      "taf_trigger": false,
      "metar": "METAR LJLJ 101230Z 11002KT 9999 FEW043 SCT053 21/10 Q1012 NOSIG",
      "taf": "TAF LJLJ 101100Z 1012/1112 12005KT 9999 FEW050"
    },
    {
      "icao": "LKMT",
      "alert": "OK",
      "vis_m": 9999,
      "fzfg": false,
      "metar_trigger": false,
      "taf_trigger": false,
      "metar": "METAR LKMT 101230Z 29004KT 250V340 9999 FEW046 19/08 Q1013 NOSIG",
      "taf": "TAF LKMT 101100Z 1012/1112 VRB02KT CAVOK"
    },
    {
      "icao": "LKPR",
      "alert": "OK",
      "vis_m": 9999,
      "fzfg": false,
      "metar_trigger": false,
      "taf_trigger": false,
      "metar": "METAR LKPR 101230Z 07006KT 030V130 CAVOK 19/07 Q1012 NOSIG",
      "taf": "TAF LKPR 101100Z 1012/1118 09005KT CAVOK"
    },
    {
      "icao": "LLBG",
      "alert": "OK",
      "vis_m": 9999,
      "fzfg": false,
      "metar_trigger": false,
      "taf_trigger": false,
      "metar": "METAR LLBG 101220Z 32010KT 290V350 CAVOK 27/11 Q1014 NOSIG",
      "taf": "TAF LLBG 101104Z 1012/1112 33010KT CAVOK TX27/1012Z TN15/1103Z"
    },
    {
      "icao": "LMML",
      "alert": "OK",
      "vis_m": 9999,
      "fzfg": false,
      "metar_trigger": false,
      "taf_trigger": false,
      "metar": "METAR LMML 101215Z 05009KT 020V110 9999 FEW014 23/17 Q1014 NOSIG",
      "taf": "TAF LMML 101100Z 1012/1112 08015KT 9999 FEW015"
    },
    {
      "icao": "LOWW",
      "alert": "OK",
      "vis_m": 9999,
      "fzfg": false,
      "metar_trigger": false,
      "taf_trigger": false,
      "metar": "METAR LOWW 101220Z 15013KT 120V180 9999 FEW045 22/10 Q1012 NOSIG",
      "taf": "TAF LOWW 101115Z 1012/1118 16014KT 9999 FEW050 TX23/1014Z TN15/1102Z"
    },
    {
      "icao": "LPFR",
      "alert": "OK",
      "vis_m": 9999,
      "fzfg": false,
      "metar_trigger": false,
      "taf_trigger": false,
      "metar": "METAR LPFR 101230Z 24014KT 9999 FEW020 19/13 Q1014",
      "taf": "TAF LPFR 101100Z 1012/1112 23013KT 9999 SCT020"
    },
    {
      "icao": "LPMA",
      "alert": "OK",
      "vis_m": 9999,
      "fzfg": false,
      "metar_trigger": false,
      "taf_trigger": false,
      "metar": "METAR LPMA 101230Z VRB07KT 9999 FEW015 20/11 Q1016",
      "taf": "TAF LPMA 101100Z 1012/1112 23010KT 9999 SCT015"
    },
    {
      "icao": "LPPR",
      "alert": "OK",
      "vis_m": 9999,
      "fzfg": false,
      "metar_trigger": false,
      "taf_trigger": false,
      "metar": "METAR LPPR 101230Z 18017KT 9999 FEW020 FEW025CB 17/10 Q1009",
      "taf": "TAF LPPR 101100Z 1012/1112 18018KT 9999 SCT020"
    },
    {
      "icao": "LPPS",
      "alert": "OK",
      "vis_m": 9999,
      "fzfg": false,
      "metar_trigger": false,
      "taf_trigger": false,
      "metar": "METAR LPPS 101230Z 27012KT 240V300 9999 FEW015 19/10 Q1017",
      "taf": "TAF LPPS 101100Z 1012/1118 27013KT 9999 SCT015"
    },
    {
      "icao": "LPPT",
      "alert": "OK",
      "vis_m": 9999,
      "fzfg": false,
      "metar_trigger": false,
      "taf_trigger": false,
      "metar": "METAR LPPT 101230Z 21020KT 9999 SCT030 17/10 Q1010",
      "taf": "TAF LPPT 101100Z 1012/1118 21018KT 9999 SCT020"
    },
    {
      "icao": "LQBK",
      "alert": "OK",
      "vis_m": 9999,
      "fzfg": false,
      "metar_trigger": false,
      "taf_trigger": false,
      "metar": "METAR LQBK 101230Z VRB04KT CAVOK 24/09 Q1012 NOSIG",
      "taf": "TAF LQBK 101100Z 1012/1112 02004KT CAVOK TX25/1013Z TN12/1104Z"
    },
    {
      "icao": "LQSA",
      "alert": "OK",
      "vis_m": 9999,
      "fzfg": false,
      "metar_trigger": false,
      "taf_trigger": false,
      "metar": "METAR LQSA 101230Z VRB03KT 9999 FEW060 22/05 Q1013 NOSIG",
      "taf": "TAF LQSA 101100Z 1012/1112 VRB02KT 9999 SCT050 TX24/1112Z TN08/1104Z"
    },
    {
      "icao": "LQTZ",
      "alert": "OK",
      "vis_m": 9999,
      "fzfg": false,
      "metar_trigger": false,
      "taf_trigger": false,
      "metar": "METAR LQTZ 101230Z VRB02KT 9999 FEW040 25/08 Q1013",
      "taf": "TAF LQTZ 101100Z 1012/1112 10005KT CAVOK TX25/1013Z TN10/1104Z"
    },
    {
      "icao": "LRBC",
      "alert": "OK",
      "vis_m": 9999,
      "fzfg": false,
      "metar_trigger": false,
      "taf_trigger": false,
      "metar": "METAR LRBC 101230Z 01007KT 340V040 9999 BKN030 18/12 Q1015",
      "taf": "TAF LRBC 101100Z 1012/1021 35012KT 9999 BKN030"
    },
    {
      "icao": "LRBS",
      "alert": "OK",
      "vis_m": 9999,
      "fzfg": false,
      "metar_trigger": false,
      "taf_trigger": false,
      "metar": "METAR LRBS 101230Z VRB04KT 9999 FEW023 BKN030 21/13 Q1014 NOSIG",
      "taf": "TAF LRBS 101100Z 1012/1112 VRB04KT 9999 SCT035"
    },
    {
      "icao": "LRBV",
      "alert": "OK",
      "vis_m": 9999,
      "fzfg": false,
      "metar_trigger": false,
      "taf_trigger": false,
      "metar": "METAR LRBV 101230Z 30007KT 260V330 9999 SCT050 20/08 Q1014",
      "taf": "TAF LRBV 101100Z 1012/1021 30009KT 9999 SCT045"
    },
    {
      "icao": "LRCL",
      "alert": "OK",
      "vis_m": 9999,
      "fzfg": false,
      "metar_trigger": false,
      "taf_trigger": false,
      "metar": "METAR LRCL 101230Z 21010KT 9999 FEW038CB SCT048 19/13 Q1014",
      "taf": "TAF LRCL 101100Z 1012/1021 VRB04KT 9999 SCT045CB"
    },
    {
      "icao": "LRCV",
      "alert": "OK",
      "vis_m": 9999,
      "fzfg": false,
      "metar_trigger": false,
      "taf_trigger": false,
      "metar": "METAR LRCV 101230Z 16004KT 070V230 9999 FEW028 23/12 Q1014",
      "taf": "TAF LRCV 101100Z 1012/1021 VRB04KT 9999 SCT020"
    },
    {
      "icao": "LRIA",
      "alert": "OK",
      "vis_m": 9999,
      "fzfg": false,
      "metar_trigger": false,
      "taf_trigger": false,
      "metar": "METAR LRIA 101230Z 32012KT 270V340 9999 SCT015 16/12 Q1014",
      "taf": "TAF LRIA 101100Z 1012/1021 30010KT 9999 BKN020"
    },
    {
      "icao": "LROP",
      "alert": "OK",
      "vis_m": 9999,
      "fzfg": false,
      "metar_trigger": false,
      "taf_trigger": false,
      "metar": "METAR LROP 101230Z 19004KT 130V270 9999 SCT028 FEW040TCU 21/14 Q1014 NOSIG",
      "taf": "TAF LROP 101100Z 1012/1112 VRB04KT 9999 SCT035"
    },
    {
      "icao": "LRSB",
      "alert": "OK",
      "vis_m": 7000,
      "fzfg": false,
      "metar_trigger": false,
      "taf_trigger": false,
      "metar": "METAR LRSB 101230Z 30018KT 7000 -TSRA SCT040CB SCT053 15/11 Q1015 NOSIG",
      "taf": "TAF LRSB 101100Z 1012/1112 VRB04KT 9999 SCT045"
    },
    {
      "icao": "LRSM",
      "alert": "OK",
      "vis_m": 9999,
      "fzfg": false,
      "metar_trigger": false,
      "taf_trigger": false,
      "metar": "METAR LRSM 101230Z AUTO 30005KT 210V350 9999 FEW050/// 22/09 Q1013",
      "taf": ""
    },
    {
      "icao": "LRSV",
      "alert": "OK",
      "vis_m": 9999,
      "fzfg": false,
      "metar_trigger": false,
      "taf_trigger": false,
      "metar": "METAR LRSV 101230Z 02005KT 330V060 9999 BKN030 16/09 Q1015",
      "taf": "TAF LRSV 101100Z 1012/1021 36010KT 9999 SCT020 BKN035"
    },
    {
      "icao": "LRTM",
      "alert": "OK",
      "vis_m": 9999,
      "fzfg": false,
      "metar_trigger": false,
      "taf_trigger": false,
      "metar": "METAR LRTM 101230Z 24009KT 200V260 9999 -SHRA FEW030 SCT033CB 19/13 Q1014",
      "taf": "TAF LRTM 101100Z 1012/1021 26005KT 9999 SCT035"
    },
    {
      "icao": "LRTR",
      "alert": "OK",
      "vis_m": 9999,
      "fzfg": false,
      "metar_trigger": false,
      "taf_trigger": false,
      "metar": "METAR LRTR 101230Z 23007KT 190V290 9999 FEW055TCU 25/08 Q1013 NOSIG",
      "taf": "TAF LRTR 101100Z 1012/1112 VRB04KT CAVOK"
    },
    {
      "icao": "LTAC",
      "alert": "OK",
      "vis_m": 9999,
      "fzfg": false,
      "metar_trigger": false,
      "taf_trigger": false,
      "metar": "METAR LTAC 101220Z 28010KT 9999 SCT040 SCT100 22/08 Q1016 NOSIG RMK RWY21C 26011KT 220V290 RWY03L 25009KT 210V290 RWY21R 25012KT RWY03R 24010KT 190V260 RWY21L 26012KT 230V290",
      "taf": "TAF LTAC 101040Z 1012/1112 VRB02KT 9999 SCT040 SCT100"
    },
    {
      "icao": "LTFM",
      "alert": "OK",
      "vis_m": 9999,
      "fzfg": false,
      "metar_trigger": false,
      "taf_trigger": false,
      "metar": "METAR LTFM 101220Z 04011KT 9999 SCT030 BKN090 19/12 Q1015 NOSIG RMK RWY17L 04009KT RWY34L 03010KT RWY16R 05009KT RWY36 03011KT RWY18 05008KT",
      "taf": "TAF LTFM 101040Z 1012/1118 06010KT 9999 SCT030"
    },
    {
      "icao": "LUKK",
      "alert": "OK",
      "vis_m": 9999,
      "fzfg": false,
      "metar_trigger": false,
      "taf_trigger": false,
      "metar": "METAR LUKK 101230Z 34014KT 9999 -RA BKN009 BKN016 BKN021 15/13 Q1013 NOSIG",
      "taf": "TAF LUKK 101102Z 1012/1112 31010KT 9999 BKN020"
    },
    {
      "icao": "LWOH",
      "alert": "OK",
      "vis_m": 9999,
      "fzfg": false,
      "metar_trigger": false,
      "taf_trigger": false,
      "metar": "METAR LWOH 101220Z 14003KT 080V170 9999 SCT035 17/12 Q1017",
      "taf": "TAF LWOH 101135Z 1012/1112 16006KT 9999 SCT040 BKN090"
    },
    {
      "icao": "LWSK",
      "alert": "OK",
      "vis_m": 9999,
      "fzfg": false,
      "metar_trigger": false,
      "taf_trigger": false,
      "metar": "METAR LWSK 101220Z 27003KT 160V330 9999 FEW050 25/11 Q1014 NOSIG",
      "taf": "TAF LWSK 101135Z 1012/1112 VRB02KT 9999 FEW050 SCT100"
    },
    {
      "icao": "LYBE",
      "alert": "OK",
      "vis_m": 9999,
      "fzfg": false,
      "metar_trigger": false,
      "taf_trigger": false,
      "metar": "METAR LYBE 101230Z 22007KT 180V280 CAVOK 25/09 Q1013 NOSIG",
      "taf": "TAF LYBE 101100Z 1012/1112 16006KT 9999 SCT045 TX27/1014Z TN15/1103Z"
    },
    {
      "icao": "LYNI",
      "alert": "OK",
      "vis_m": 9999,
      "fzfg": false,
      "metar_trigger": false,
      "taf_trigger": false,
      "metar": "METAR LYNI 101230Z VRB02KT 9999 FEW045 25/09 Q1014 NOSIG",
      "taf": "TAF LYNI 101100Z 1012/1112 17004KT 9999 SCT045 TX25/1013Z TN11/1103Z"
    },
    {
      "icao": "LYPG",
      "alert": "OK",
      "vis_m": 9999,
      "fzfg": false,
      "metar_trigger": false,
      "taf_trigger": false,
      "metar": "METAR LYPG 101230Z 15005KT 110V210 9999 FEW030 BKN090 22/15 Q1015 NOSIG",
      "taf": "TAF LYPG 101100Z 1012/1112 18008KT 9999 SCT040 BKN090 TX23/1014Z TN15/1104Z"
    },
    {
      "icao": "LZIB",
      "alert": "OK",
      "vis_m": 9999,
      "fzfg": false,
      "metar_trigger": false,
      "taf_trigger": false,
      "metar": "METAR LZIB 101230Z 17007KT 110V250 CAVOK 22/09 Q1012 NOSIG",
      "taf": "TAF LZIB 101115Z 1012/1112 14008KT CAVOK"
    },
    {
      "icao": "LZKZ",
      "alert": "OK",
      "vis_m": 9999,
      "fzfg": false,
      "metar_trigger": false,
      "taf_trigger": false,
      "metar": "METAR LZKZ 101230Z 35004KT 290V100 CAVOK 20/04 Q1014 NOSIG",
      "taf": "TAF LZKZ 101115Z 1012/1112 02006KT CAVOK"
    },
    {
      "icao": "LZTT",
      "alert": "OK",
      "vis_m": 9999,
      "fzfg": false,
      "metar_trigger": false,
      "taf_trigger": false,
      "metar": "METAR LZTT 101230Z 12005KT 060V210 9999 FEW050 17/05 Q1014 NOSIG",
      "taf": "TAF LZTT 101115Z 1012/1112 08004KT 9999 FEW045"
    },
    {
      "icao": "OEJN",
      "alert": "OK",
      "vis_m": 9999,
      "fzfg": false,
      "metar_trigger": false,
      "taf_trigger": false,
      "metar": "METAR OEJN 101200Z 26007KT 9999 FEW040 33/21 Q1008 NOSIG",
      "taf": "TAF OEJN 101100Z 1012/1118 28012KT 9999 FEW040"
    },
    {
      "icao": "OEMA",
      "alert": "OK",
      "vis_m": 9999,
      "fzfg": false,
      "metar_trigger": false,
      "taf_trigger": false,
      "metar": "METAR OEMA 101200Z 21013KT 9999 FEW045 41/M01 Q1012 NOSIG",
      "taf": "TAF OEMA 101100Z 1012/1118 24013KT 7000 FEW040"
    },
    {
      "icao": "OJAI",
      "alert": "OK",
      "vis_m": 4000,
      "fzfg": false,
      "metar_trigger": false,
      "taf_trigger": false,
      "metar": "METAR OJAI 101200Z 29015KT 4000 BLDU NSC 29/06 Q1016 NOSIG",
      "taf": "TAF OJAI 101100Z 1012/1118 31008KT 5000 HZ NSC"
    },
    {
      "icao": "OMAA",
      "alert": "OK",
      "vis_m": 9999,
      "fzfg": false,
      "metar_trigger": false,
      "taf_trigger": false,
      "metar": "METAR OMAA 101230Z 30017KT CAVOK 34/12 Q1007 NOSIG",
      "taf": "TAF OMAA 101100Z 1012/1118 30014KT 8000 NSC"
    },
    {
      "icao": "OMDB",
      "alert": "OK",
      "vis_m": 9999,
      "fzfg": false,
      "metar_trigger": false,
      "taf_trigger": false,
      "metar": "METAR OMDB 101230Z 27012KT 230V290 CAVOK 34/19 Q1006 NOSIG",
      "taf": "TAF OMDB 101100Z 1012/1118 27013KT CAVOK"
    },
    {
      "icao": "UAAA",
      "alert": "OK",
      "vis_m": 3400,
      "fzfg": false,
      "metar_trigger": false,
      "taf_trigger": false,
      "metar": "METAR UAAA 101230Z 24002MPS 200V350 3400 -SHRA BR SCT008 BKN022CB OVC100 15/14 Q1014 NOSIG",
      "taf": "TAF UAAA 101110Z 1012/1112 23003G08MPS 2500 SHRA BR SCT011 BKN020CB OVC100 TX18/1106Z TN11/1100Z"
    },
    {
      "icao": "UBBB",
      "alert": "OK",
      "vis_m": 9999,
      "fzfg": false,
      "metar_trigger": false,
      "taf_trigger": false,
      "metar": "METAR UBBB 101230Z 14010KT CAVOK 25/12 Q1016 NOSIG",
      "taf": "TAF UBBB 101054Z 1012/1112 15006KT CAVOK TX26/1012Z TN14/1101Z"
    },
    {
      "icao": "UDSG",
      "alert": "OK",
      "vis_m": 9999,
      "fzfg": false,
      "metar_trigger": false,
      "taf_trigger": false,
      "metar": "METAR UDSG 101230Z 18005KT 150V270 9999 SCT049CB 20/00 Q1020 NOSIG",
      "taf": "TAF UDSG 101058Z 1012/1112 06006KT 9999 SCT050"
    },
    {
      "icao": "UDYZ",
      "alert": "OK",
      "vis_m": 9999,
      "fzfg": false,
      "metar_trigger": false,
      "taf_trigger": false,
      "metar": "METAR UDYZ 101230Z 18003KT 130V250 9999 FEW043 26/00 Q1016 NOSIG",
      "taf": "TAF UDYZ 101100Z 1012/1112 22006KT 9999 FEW040"
    },
    {
      "icao": "UGKO",
      "alert": "OK",
      "vis_m": 9999,
      "fzfg": false,
      "metar_trigger": false,
      "taf_trigger": false,
      "metar": "METAR UGKO 101230Z 27014KT 9999 SCT050CB 26/14 Q1012 NOSIG",
      "taf": "TAF UGKO 101100Z 1012/1112 08007KT CAVOK TX29/1012Z TN12/1102Z"
    }
  ]
}