{
  "ts_utc": "2026-07-11T08:00:29Z",
  "threshold_m": 150,
  "source": "stations_override.txt (ICAO list) + aviationweather.gov (METAR/TAF raw)",
  "station_count": 159,
  "stations": [
    {
      "icao": "BIKF",
      "alert": "OK",
      "vis_m": 5000,
      "fzfg": false,
      "metar_trigger": false,
      "taf_trigger": false,
      "metar": "METAR BIKF 110730Z 18019KT 5000 -DZRA OVC004 10/10 Q1017",
      "taf": "TAF BIKF 110749Z 1109/1209 19020KT 9999 -DZ BKN007 OVC015 TX11/1115Z TN09/1203Z"
    },
    {
      "icao": "BKPR",
      "alert": "OK",
      "vis_m": 9999,
      "fzfg": false,
      "metar_trigger": false,
      "taf_trigger": false,
      "metar": "METAR BKPR 110800Z 13003KT 020V160 CAVOK 22/11 Q1020 NOSIG",
      "taf": "TAF BKPR 110530Z 1106/1206 VRB05KT CAVOK"
    },
    {
      "icao": "EBCI",
      "alert": "OK",
      "vis_m": 9999,
      "fzfg": false,
      "metar_trigger": false,
      "taf_trigger": false,
      "metar": "METAR EBCI 110750Z 06010KT CAVOK 24/15 Q1019 NOSIG",
      "taf": "TAF EBCI 110526Z 1106/1212 05007KT CAVOK"
    },
    {
      "icao": "EDDB",
      "alert": "OK",
      "vis_m": 9999,
      "fzfg": false,
      "metar_trigger": false,
      "taf_trigger": false,
      "metar": "METAR EDDB 110750Z AUTO 30004KT 240V020 CAVOK 22/12 Q1020 NOSIG",
      "taf": "TAF EDDB 110500Z 1106/1206 35005KT CAVOK"
    },
    {
      "icao": "EDDH",
      "alert": "OK",
      "vis_m": 9999,
      "fzfg": false,
      "metar_trigger": false,
      "taf_trigger": false,
      "metar": "METAR EDDH 110750Z AUTO 32005KT 270V350 CAVOK 22/17 Q1021 NOSIG",
      "taf": ""
    },
    {
      "icao": "EDDK",
      "alert": "OK",
      "vis_m": 9999,
      "fzfg": false,
      "metar_trigger": false,
      "taf_trigger": false,
      "metar": "METAR EDDK 110750Z AUTO 10004KT 020V160 CAVOK 25/15 Q1019 NOSIG",
      "taf": "TAF EDDK 110500Z 1106/1212 12004KT CAVOK"
    },
    {
      "icao": "EDDN",
      "alert": "OK",
      "vis_m": 9999,
      "fzfg": false,
      "metar_trigger": false,
      "taf_trigger": false,
      "metar": "METAR EDDN 110750Z AUTO 03005KT 360V110 CAVOK 24/12 Q1019 NOSIG",
      "taf": "TAF EDDN 110500Z 1106/1206 03005KT CAVOK"
    },
    {
      "icao": "EDDS",
      "alert": "OK",
      "vis_m": 9999,
      "fzfg": false,
      "metar_trigger": false,
      "taf_trigger": false,
      "metar": "METAR EDDS 110750Z AUTO 06004KT CAVOK 25/12 Q1018 NOSIG",
      "taf": "TAF EDDS 110500Z 1106/1206 VRB03KT CAVOK"
    },
    {
      "icao": "EDFH",
      "alert": "OK",
      "vis_m": 9999,
      "fzfg": false,
      "metar_trigger": false,
      "taf_trigger": false,
      "metar": "METAR EDFH 110750Z 10005KT 030V160 CAVOK 23/12 Q1020",
      "taf": "TAF EDFH 110500Z 1106/1206 08007KT CAVOK"
    },
    {
      "icao": "EDJA",
      "alert": "OK",
      "vis_m": 9999,
      "fzfg": false,
      "metar_trigger": false,
      "taf_trigger": false,
      "metar": "METAR EDJA 110750Z COR 03003KT 360V080 CAVOK 22/13 Q1019",
      "taf": "TAF EDJA 110500Z 1106/1115 VRB03KT CAVOK"
    },
    {
      "icao": "EDLW",
      "alert": "OK",
      "vis_m": 9999,
      "fzfg": false,
      "metar_trigger": false,
      "taf_trigger": false,
      "metar": "METAR EDLW 110750Z 04005KT 340V110 CAVOK 22/17 Q1020",
      "taf": "TAF EDLW 110500Z 1106/1206 05004KT CAVOK"
    },
    {
      "icao": "EDNY",
      "alert": "OK",
      "vis_m": 9999,
      "fzfg": false,
      "metar_trigger": false,
      "taf_trigger": false,
      "metar": "METAR EDNY 110750Z VRB03KT CAVOK 23/15 Q1018",
      "taf": "TAF EDNY 110500Z 1106/1115 04005KT CAVOK"
    },
    {
      "icao": "EDSB",
      "alert": "OK",
      "vis_m": 9999,
      "fzfg": false,
      "metar_trigger": false,
      "taf_trigger": false,
      "metar": "METAR EDSB 110750Z 02010KT CAVOK 26/13 Q1017",
      "taf": "TAF EDSB 110500Z 1106/1206 02011KT CAVOK"
    },
    {
      "icao": "EETN",
      "alert": "OK",
      "vis_m": 9999,
      "fzfg": false,
      "metar_trigger": false,
      "taf_trigger": false,
      "metar": "METAR EETN 110750Z 05011KT CAVOK 19/15 Q1016 NOSIG",
      "taf": "TAF EETN 110530Z 1106/1206 05012KT 9999 BKN045"
    },
    {
      "icao": "EFTU",
      "alert": "OK",
      "vis_m": 9999,
      "fzfg": false,
      "metar_trigger": false,
      "taf_trigger": false,
      "metar": "METAR EFTU 110750Z AUTO 05006KT 020V080 CAVOK 22/14 Q1019",
      "taf": "TAF EFTU 110539Z 1106/1206 02007KT 9999 FEW030"
    },
    {
      "icao": "EGBB",
      "alert": "OK",
      "vis_m": 9999,
      "fzfg": false,
      "metar_trigger": false,
      "taf_trigger": false,
      "metar": "METAR EGBB 110750Z 07007KT 020V110 CAVOK 21/15 Q1022",
      "taf": "TAF EGBB 110501Z 1106/1206 VRB03KT CAVOK"
    },
    {
      "icao": "EGGP",
      "alert": "OK",
      "vis_m": 9999,
      "fzfg": false,
      "metar_trigger": false,
      "taf_trigger": false,
      "metar": "METAR EGGP 110720Z 11008KT CAVOK 21/14 Q1022",
      "taf": "TAF EGGP 110453Z 1106/1206 09007KT CAVOK"
    },
    {
      "icao": "EGGW",
      "alert": "OK",
      "vis_m": 9999,
      "fzfg": false,
      "metar_trigger": false,
      "taf_trigger": false,
      "metar": "METAR EGGW 110750Z AUTO 04008KT 360V080 9999 NCD 20/15 Q1022",
      "taf": "TAF EGGW 110500Z 1106/1206 04012KT CAVOK"
    },
    {
      "icao": "EGKK",
      "alert": "OK",
      "vis_m": 9999,
      "fzfg": false,
      "metar_trigger": false,
      "taf_trigger": false,
      "metar": "METAR EGKK 110750Z 05011KT CAVOK 23/18 Q1020",
      "taf": "TAF EGKK 110501Z 1106/1212 04006KT CAVOK"
    },
    {
      "icao": "EGNM",
      "alert": "OK",
      "vis_m": 9000,
      "fzfg": false,
      "metar_trigger": false,
      "taf_trigger": false,
      "metar": "METAR EGNM 110750Z 05007KT 010V090 9000 SCT008 17/15 Q1024",
      "taf": "TAF EGNM 110458Z 1106/1206 06005KT CAVOK"
    },
    {
      "icao": "EGPD",
      "alert": "OK",
      "vis_m": 4400,
      "fzfg": false,
      "metar_trigger": false,
      "taf_trigger": false,
      "metar": "METAR EGPD 110750Z 36004KT 4400 -DZ BR OVC003 14/14 Q1027",
      "taf": "TAF EGPD 110500Z 1106/1206 03006KT 9999 BKN006"
    },
    {
      "icao": "EGPF",
      "alert": "OK",
      "vis_m": 9999,
      "fzfg": false,
      "metar_trigger": false,
      "taf_trigger": false,
      "metar": "METAR EGPF 110750Z AUTO 07011KT 9999 BKN007 OVC010 17/15 Q1025",
      "taf": "TAF EGPF 110455Z 1106/1206 07010KT 9999 BKN007"
    },
    {
      "icao": "EHBK",
      "alert": "OK",
      "vis_m": 9999,
      "fzfg": false,
      "metar_trigger": false,
      "taf_trigger": false,
      "metar": "METAR EHBK 110755Z AUTO 06008KT 030V090 9999 NCD 24/16 Q1019 NOSIG",
      "taf": "TAF EHBK 110456Z 1106/1212 06006KT CAVOK"
    },
    {
      "icao": "EHEH",
      "alert": "OK",
      "vis_m": 9999,
      "fzfg": false,
      "metar_trigger": false,
      "taf_trigger": false,
      "metar": "METAR EHEH 110725Z AUTO 04007KT 360V120 9999 NCD 22/17 Q1020 BLU NOSIG RMK TREND REMOTE BY EHWX",
      "taf": "TAF EHEH 110517Z 1106/1212 04007KT CAVOK"
    },
    {
      "icao": "EKBI",
      "alert": "OK",
      "vis_m": 9999,
      "fzfg": false,
      "metar_trigger": false,
      "taf_trigger": false,
      "metar": "METAR EKBI 110750Z AUTO 29003KT 9999 NCD 23/17 Q1022",
      "taf": "TAF EKBI 110527Z 1106/1206 30005KT 9999 FEW030"
    },
    {
      "icao": "EKCH",
      "alert": "OK",
      "vis_m": 9999,
      "fzfg": false,
      "metar_trigger": false,
      "taf_trigger": false,
      "metar": "METAR EKCH 110750Z AUTO 19006KT 160V230 9999 NCD 21/13 Q1021 NOSIG",
      "taf": "TAF EKCH 110527Z 1106/1206 17008KT CAVOK"
    },
    {
      "icao": "ENAL",
      "alert": "OK",
      "vis_m": 9999,
      "fzfg": false,
      "metar_trigger": false,
      "taf_trigger": false,
      "metar": "METAR ENAL 110750Z 01004KT 330V040 9999 FEW010 SCT020 14/11 Q1027",
      "taf": "TAF ENAL 110500Z 1106/1115 33005KT 9999 FEW008 BKN045"
    },
    {
      "icao": "ENBR",
      "alert": "OK",
      "vis_m": 9999,
      "fzfg": false,
      "metar_trigger": false,
      "taf_trigger": false,
      "metar": "METAR ENBR 110750Z 32009KT 9999 FEW020 14/11 Q1025 NOSIG RMK WIND 1200FT 34014KT",
      "taf": "TAF ENBR 110500Z 1106/1206 33010KT 9999 FEW009"
    },
    {
      "icao": "ENGM",
      "alert": "OK",
      "vis_m": 9999,
      "fzfg": false,
      "metar_trigger": false,
      "taf_trigger": false,
      "metar": "METAR ENGM 110750Z VRB03KT 9999 FEW009 20/17 Q1021 NOSIG",
      "taf": "TAF ENGM 110500Z 1106/1206 VRB05KT CAVOK"
    },
    {
      "icao": "ENHD",
      "alert": "OK",
      "vis_m": 9999,
      "fzfg": false,
      "metar_trigger": false,
      "taf_trigger": false,
      "metar": "METAR ENHD 110750Z 35016KT CAVOK 15/11 Q1024",
      "taf": "TAF ENHD 110500Z 1106/1115 35018KT 9999 FEW004"
    },
    {
      "icao": "ENTC",
      "alert": "OK",
      "vis_m": 9999,
      "fzfg": false,
      "metar_trigger": false,
      "taf_trigger": false,
      "metar": "METAR ENTC 110750Z 30004KT 240V360 9999 -DZRA FEW008 SCT019 OVC024 12/10 Q1021 TEMPO 4500 -DZ BKN009 RMK WIND 2600FT 31010KT",
      "taf": ""
    },
    {
      "icao": "ENTO",
      "alert": "OK",
      "vis_m": 9999,
      "fzfg": false,
      "metar_trigger": false,
      "taf_trigger": false,
      "metar": "METAR ENTO 110750Z 07003KT 030V120 CAVOK 22/16 Q1021 NOSIG",
      "taf": "TAF ENTO 110500Z 1106/1206 VRB05KT CAVOK"
    },
    {
      "icao": "ENVA",
      "alert": "OK",
      "vis_m": 9999,
      "fzfg": false,
      "metar_trigger": false,
      "taf_trigger": false,
      "metar": "METAR ENVA 110750Z 27011KT 9999 -DZ FEW013 SCT021 BKN025 13/11 Q1026 RERA TEMPO BKN012 RMK WIND 670FT 27011KT",
      "taf": "TAF ENVA 110500Z 1106/1206 27008KT 9999 -RADZ FEW008 BKN015"
    },
    {
      "icao": "ENZV",
      "alert": "OK",
      "vis_m": 9999,
      "fzfg": false,
      "metar_trigger": false,
      "taf_trigger": false,
      "metar": "METAR ENZV 110750Z 33007KT CAVOK 17/14 Q1024 NOSIG",
      "taf": "TAF ENZV 110500Z 1106/1206 35012KT 9999 FEW004"
    },
    {
      "icao": "EPGD",
      "alert": "OK",
      "vis_m": 9999,
      "fzfg": false,
      "metar_trigger": false,
      "taf_trigger": false,
      "metar": "METAR EPGD 110730Z 33009KT 9999 FEW023 19/13 Q1018",
      "taf": "TAF EPGD 110530Z 1106/1206 32008KT 9999 FEW030"
    },
    {
      "icao": "EPKK",
      "alert": "OK",
      "vis_m": 9999,
      "fzfg": false,
      "metar_trigger": false,
      "taf_trigger": false,
      "metar": "METAR EPKK 110730Z 25005KT 220V310 9999 FEW039 18/12 Q1017",
      "taf": "TAF EPKK 110530Z 1106/1206 VRB02KT 9999 SCT050"
    },
    {
      "icao": "EPKT",
      "alert": "OK",
      "vis_m": 9999,
      "fzfg": false,
      "metar_trigger": false,
      "taf_trigger": false,
      "metar": "METAR EPKT 110730Z 33009KT 300V360 9999 SCT023 18/11 Q1017",
      "taf": "TAF EPKT 110530Z 1106/1206 34005KT 9999 SCT040"
    },
    {
      "icao": "EPLB",
      "alert": "OK",
      "vis_m": 9999,
      "fzfg": false,
      "metar_trigger": false,
      "taf_trigger": false,
      "metar": "METAR EPLB 110730Z 32010KT 9999 BKN014 17/14 Q1015",
      "taf": "TAF EPLB 110530Z 1106/1206 31010KT 9999 BKN007"
    },
    {
      "icao": "EPMO",
      "alert": "OK",
      "vis_m": 9999,
      "fzfg": false,
      "metar_trigger": false,
      "taf_trigger": false,
      "metar": "METAR EPMO 110730Z 31008KT 280V340 9999 BKN014 16/14 Q1016",
      "taf": "TAF EPMO 110530Z 1106/1206 31008KT 9999 BKN007"
    },
    {
      "icao": "EPPO",
      "alert": "OK",
      "vis_m": 9999,
      "fzfg": false,
      "metar_trigger": false,
      "taf_trigger": false,
      "metar": "METAR EPPO 110730Z 34005KT 310V050 9999 FEW021 18/12 Q1019",
      "taf": "TAF EPPO 110530Z 1106/1206 34006KT CAVOK"
    },
    {
      "icao": "EPRA",
      "alert": "OK",
      "vis_m": 9999,
      "fzfg": false,
      "metar_trigger": false,
      "taf_trigger": false,
      "metar": "METAR EPRA 110730Z 32008KT 9999 BKN009 OVC014 14/12 Q1016",
      "taf": "TAF EPRA 110530Z 1106/1115 32008KT 9999 BKN009"
    },
    {
      "icao": "EPRZ",
      "alert": "OK",
      "vis_m": 9999,
      "fzfg": false,
      "metar_trigger": false,
      "taf_trigger": false,
      "metar": "METAR EPRZ 110730Z 29006KT 250V310 9999 BKN020 17/12 Q1016",
      "taf": "TAF EPRZ 110530Z 1106/1206 30008KT 9999 BKN009 OVC011"
    },
    {
      "icao": "EPSC",
      "alert": "OK",
      "vis_m": 9999,
      "fzfg": false,
      "metar_trigger": false,
      "taf_trigger": false,
      "metar": "METAR EPSC 110730Z 33004KT 9999 BKN022 18/14 Q1020",
      "taf": "TAF EPSC 110530Z 1106/1206 33005KT 9999 FEW030"
    },
    {
      "icao": "EPSY",
      "alert": "OK",
      "vis_m": 9999,
      "fzfg": false,
      "metar_trigger": false,
      "taf_trigger": false,
      "metar": "METAR EPSY 110730Z 32007KT 290V360 9999 BKN008 15/14 Q1016",
      "taf": "TAF EPSY 110530Z 1106/1115 35008KT 4000 BR BKN004"
    },
    {
      "icao": "EPWA",
      "alert": "OK",
      "vis_m": 9999,
      "fzfg": false,
      "metar_trigger": false,
      "taf_trigger": false,
      "metar": "METAR EPWA 110730Z 31007KT 280V350 9999 BKN011 16/14 Q1016 BECMG BKN016",
      "taf": "TAF EPWA 110530Z 1106/1206 31007KT 9999 BKN005"
    },
    {
      "icao": "EPWR",
      "alert": "OK",
      "vis_m": 9999,
      "fzfg": false,
      "metar_trigger": false,
      "taf_trigger": false,
      "metar": "METAR EPWR 110730Z 33009KT 9999 SCT028 19/12 Q1018",
      "taf": "TAF EPWR 110530Z 1106/1206 33006KT CAVOK"
    },
    {
      "icao": "ESGG",
      "alert": "OK",
      "vis_m": 9999,
      "fzfg": false,
      "metar_trigger": false,
      "taf_trigger": false,
      "metar": "METAR ESGG 110750Z 27004KT CAVOK 22/13 Q1021",
      "taf": "TAF ESGG 110530Z 1106/1206 VRB03KT CAVOK"
    },
    {
      "icao": "ESKN",
      "alert": "OK",
      "vis_m": 9999,
      "fzfg": false,
      "metar_trigger": false,
      "taf_trigger": false,
      "metar": "METAR ESKN 110750Z 34006KT 290V050 9999 FEW025 21/15 Q1020",
      "taf": "TAF ESKN 110530Z 1106/1206 32005KT CAVOK"
    },
    {
      "icao": "ESMS",
      "alert": "OK",
      "vis_m": 9999,
      "fzfg": false,
      "metar_trigger": false,
      "taf_trigger": false,
      "metar": "METAR ESMS 110750Z 32005KT 290V350 CAVOK 21/13 Q1020",
      "taf": "TAF ESMS 110527Z 1106/1206 VRB02KT CAVOK"
    },
    {
      "icao": "ESSA",
      "alert": "OK",
      "vis_m": 9999,
      "fzfg": false,
      "metar_trigger": false,
      "taf_trigger": false,
      "metar": "METAR ESSA 110750Z 36005KT 320V020 CAVOK 20/11 Q1020 NOSIG",
      "taf": "TAF ESSA 110530Z 1106/1206 36005KT CAVOK"
    },
    {
      "icao": "EYKA",
      "alert": "OK",
      "vis_m": 9999,
      "fzfg": false,
      "metar_trigger": false,
      "taf_trigger": false,
      "metar": "METAR EYKA 110750Z 31005KT 270V360 9999 OVC009 17/15 Q1013",
      "taf": ""
    },
    {
      "icao": "EYPA",
      "alert": "OK",
      "vis_m": 9999,
      "fzfg": false,
      "metar_trigger": false,
      "taf_trigger": false,
      "metar": "METAR EYPA 110750Z 34004KT 270V040 CAVOK 19/17 Q1015",
      "taf": "TAF EYPA 110500Z 1106/1206 VRB03KT 9000 NSC"
    },
    {
      "icao": "EYVI",
      "alert": "OK",
      "vis_m": 9999,
      "fzfg": false,
      "metar_trigger": false,
      "taf_trigger": false,
      "metar": "METAR EYVI 110750Z 30007KT 9999 FEW011 17/14 Q1012 BECMG BKN010",
      "taf": "TAF EYVI 110519Z 1106/1206 32010KT 8000 SCT010 BKN030"
    },
    {
      "icao": "GCFV",
      "alert": "OK",
      "vis_m": 9999,
      "fzfg": false,
      "metar_trigger": false,
      "taf_trigger": false,
      "metar": "METAR GCFV 110730Z 35012KT 9999 FEW014 BKN035 24/18 Q1014",
      "taf": "TAF GCFV 110200Z 1103/1203 36010KT 9999 SCT025 TX27/1114Z TN21/1106Z"
    },
    {
      "icao": "GCLP",
      "alert": "OK",
      "vis_m": 9999,
      "fzfg": false,
      "metar_trigger": false,
      "taf_trigger": false,
      "metar": "METAR GCLP 110730Z 35013KT 9999 FEW024 SCT036 25/18 Q1014 NOSIG",
      "taf": "TAF GCLP 110200Z 1103/1203 36015KT 9999 SCT030 TX26/1114Z TN19/1106Z"
    },
    {
      "icao": "GCTS",
      "alert": "OK",
      "vis_m": 9999,
      "fzfg": false,
      "metar_trigger": false,
      "taf_trigger": false,
      "metar": "METAR GCTS 110730Z 32006KT 9999 SCT025 23/17 Q1015 NOSIG",
      "taf": "TAF GCTS 110200Z 1103/1203 VRB05KT 9999 BKN030 TX27/1114Z TN19/1106Z"
    },
    {
      "icao": "GMAD",
      "alert": "OK",
      "vis_m": 9999,
      "fzfg": false,
      "metar_trigger": false,
      "taf_trigger": false,
      "metar": "METAR GMAD 110730Z 19004KT 9999 SCT020 22/18 Q1012 NOSIG",
      "taf": "TAF GMAD 110500Z 1106/1212 12005KT 8000 BKN013"
    },
    {
      "icao": "GMMN",
      "alert": "OK",
      "vis_m": 9999,
      "fzfg": false,
      "metar_trigger": false,
      "taf_trigger": false,
      "metar": "METAR GMMN 110730Z VRB02KT 9999 SCT023 22/16 Q1013 NOSIG",
      "taf": "TAF GMMN 110500Z 1106/1212 20004KT 9999 SCT024"
    },
    {
      "icao": "GMMX",
      "alert": "OK",
      "vis_m": 9999,
      "fzfg": false,
      "metar_trigger": false,
      "taf_trigger": false,
      "metar": "METAR GMMX 110730Z 24004KT 190V270 CAVOK 21/15 Q1013 NOSIG",
      "taf": "TAF GMMX 110500Z 1106/1212 28006KT 8000 SCT023"
    },
    {
      "icao": "HEGN",
      "alert": "OK",
      "vis_m": 9999,
      "fzfg": false,
      "metar_trigger": false,
      "taf_trigger": false,
      "metar": "METAR HEGN 110700Z 34010KT CAVOK 34/05 Q1010 NOSIG",
      "taf": "TAF HEGN 110500Z 1106/1212 35016KT CAVOK"
    },
    {
      "icao": "HEMA",
      "alert": "OK",
      "vis_m": 9999,
      "fzfg": false,
      "metar_trigger": false,
      "taf_trigger": false,
      "metar": "METAR HEMA 110700Z 34025KT CAVOK 33/12 Q1009 NOSIG",
      "taf": "TAF HEMA 110500Z 1106/1212 36010G20KT CAVOK"
    },
    {
      "icao": "HESH",
      "alert": "OK",
      "vis_m": 9999,
      "fzfg": false,
      "metar_trigger": false,
      "taf_trigger": false,
      "metar": "METAR HESH 110700Z 04010KT CAVOK 32/16 Q1010 NOSIG",
      "taf": "TAF HESH 110500Z 1106/1212 01015KT CAVOK"
    },
    {
      "icao": "HESX",
      "alert": "OK",
      "vis_m": 9999,
      "fzfg": false,
      "metar_trigger": false,
      "taf_trigger": false,
      "metar": "METAR HESX 110700Z 03008KT CAVOK 27/18 Q1014 NOSIG",
      "taf": "TAF HESX 110502Z 1106/1212 35004KT 6000 NSC"
    },
    {
      "icao": "LATI",
      "alert": "OK",
      "vis_m": 9999,
      "fzfg": false,
      "metar_trigger": false,
      "taf_trigger": false,
      "metar": "METAR LATI 110750Z VRB02KT CAVOK 29/13 Q1017 NOSIG",
      "taf": "TAF LATI 110500Z 1106/1206 VRB03KT CAVOK TX35/1111Z TN16/1204Z"
    },
    {
      "icao": "LBPD",
      "alert": "OK",
      "vis_m": 9999,
      "fzfg": false,
      "metar_trigger": false,
      "taf_trigger": false,
      "metar": "METAR LBPD 110730Z AUTO 33003KT 280V050 9999 NCD 25/11 Q1019 NOSIG",
      "taf": "TAF LBPD 110500Z 1106/1206 VRB04KT CAVOK"
    },
    {
      "icao": "LBSF",
      "alert": "OK",
      "vis_m": 9999,
      "fzfg": false,
      "metar_trigger": false,
      "taf_trigger": false,
      "metar": "METAR LBSF 110730Z VRB03KT CAVOK 20/08 Q1021 NOSIG",
      "taf": "TAF LBSF 110500Z 1106/1206 VRB04KT CAVOK"
    },
    {
      "icao": "LBWN",
      "alert": "OK",
      "vis_m": 9999,
      "fzfg": false,
      "metar_trigger": false,
      "taf_trigger": false,
      "metar": "METAR LBWN 110730Z AUTO 27010KT 9999 NSC 26/11 Q1017 NOSIG",
      "taf": "TAF LBWN 110500Z 1106/1206 VRB04KT CAVOK"
    },
    {
      "icao": "LCLK",
      "alert": "OK",
      "vis_m": 9999,
      "fzfg": false,
      "metar_trigger": false,
      "taf_trigger": false,
      "metar": "METAR LCLK 110730Z 14006KT 9999 FEW040 29/24 Q1012 NOSIG",
      "taf": "TAF LCLK 110530Z 1106/1206 32006KT 9999 FEW025"
    },
    {
      "icao": "LCPH",
      "alert": "OK",
      "vis_m": 9999,
      "fzfg": false,
      "metar_trigger": false,
      "taf_trigger": false,
      "metar": "METAR LCPH 110730Z 25008KT 240V320 9999 FEW025 29/23 Q1012 NOSIG",
      "taf": "TAF LCPH 110530Z 1106/1206 04007KT 9999 FEW020"
    },
    {
      "icao": "LEAL",
      "alert": "OK",
      "vis_m": 9999,
      "fzfg": false,
      "metar_trigger": false,
      "taf_trigger": false,
      "metar": "METAR LEAL 110730Z 26006KT 230V300 9999 FEW013 28/23 Q1011 NOSIG",
      "taf": "TAF LEAL 110500Z 1106/1206 VRB04KT 9999 FEW015 TX34/1112Z TN23/1106Z"
    },
    {
      "icao": "LEBB",
      "alert": "OK",
      "vis_m": 9999,
      "fzfg": false,
      "metar_trigger": false,
      "taf_trigger": false,
      "metar": "METAR LEBB 110730Z 10005KT 060V140 9999 FEW016 25/21 Q1012 NOSIG",
      "taf": "TAF LEBB 110500Z 1106/1206 10006KT 9999 FEW025 TX35/1113Z TN21/1106Z"
    },
    {
      "icao": "LEBL",
      "alert": "OK",
      "vis_m": 9999,
      "fzfg": false,
      "metar_trigger": false,
      "taf_trigger": false,
      "metar": "METAR LEBL 110730Z 06011KT 020V100 9999 FEW020 26/22 Q1013 NOSIG",
      "taf": "TAF LEBL 110500Z 1106/1206 07010KT 9999 FEW020 TX30/1112Z TN23/1205Z"
    },
    {
      "icao": "LECH",
      "alert": "OK",
      "vis_m": 9999,
      "fzfg": false,
      "metar_trigger": false,
      "taf_trigger": false,
      "metar": "METAR LECH 110730Z AUTO 02010KT 350V050 CAVOK 25/20 Q1014",
      "taf": "TAF LECH 110500Z 1106/1206 03007KT CAVOK TX33/1112Z TN18/1106Z"
    },
    {
      "icao": "LEMD",
      "alert": "OK",
      "vis_m": 9999,
      "fzfg": false,
      "metar_trigger": false,
      "taf_trigger": false,
      "metar": "METAR LEMD 110730Z 36004KT 330V040 CAVOK 23/08 Q1014 NOSIG",
      "taf": "TAF LEMD 110500Z 1106/1212 02005KT CAVOK TX38/1116Z TN19/1106Z"
    },
    {
      "icao": "LEMG",
      "alert": "OK",
      "vis_m": 9999,
      "fzfg": false,
      "metar_trigger": false,
      "taf_trigger": false,
      "metar": "METAR LEMG 110730Z 28014KT CAVOK 24/14 Q1010 NOSIG",
      "taf": "TAF LEMG 110500Z 1106/1206 28011KT CAVOK TX34/1114Z TN21/1205Z"
    },
    {
      "icao": "LEVC",
      "alert": "OK",
      "vis_m": 9999,
      "fzfg": false,
      "metar_trigger": false,
      "taf_trigger": false,
      "metar": "METAR LEVC 110730Z 31004KT 280V350 9999 FEW019 27/18 Q1012 NOSIG",
      "taf": "TAF LEVC 110500Z 1106/1206 30007KT 9999 FEW015 TX32/1114Z TN21/1106Z"
    },
    {
      "icao": "LEXJ",
      "alert": "OK",
      "vis_m": 9000,
      "fzfg": false,
      "metar_trigger": false,
      "taf_trigger": false,
      "metar": "METAR LEXJ 110730Z VRB02KT 9000 NSC 23/20 Q1012",
      "taf": "TAF LEXJ 110200Z 1103/1203 VRB03KT 9999 BKN020 TX29/1113Z TN21/1105Z"
    },
    {
      "icao": "LEZG",
      "alert": "OK",
      "vis_m": 9999,
      "fzfg": false,
      "metar_trigger": false,
      "taf_trigger": false,
      "metar": "METAR LEZG 110730Z 08001KT CAVOK 26/14 Q1014 NOSIG",
      "taf": "TAF LEZG 110500Z 1106/1206 10014KT CAVOK TX39/1115Z TN21/1106Z"
    },
    {
      "icao": "LEZL",
      "alert": "OK",
      "vis_m": 9999,
      "fzfg": false,
      "metar_trigger": false,
      "taf_trigger": false,
      "metar": "METAR LEZL 110730Z 21005KT 150V260 9999 BKN033 23/15 Q1012 NOSIG",
      "taf": "TAF LEZL 110200Z 1103/1203 22009KT CAVOK TX30/1115Z TN19/1105Z"
    },
    {
      "icao": "LFBD",
      "alert": "OK",
      "vis_m": 9999,
      "fzfg": false,
      "metar_trigger": false,
      "taf_trigger": false,
      "metar": "METAR LFBD 110730Z AUTO VRB03KT CAVOK 25/20 Q1013 NOSIG",
      "taf": "TAF LFBD 110500Z 1106/1212 04005KT CAVOK TX39/1115Z TN23/1205Z"
    },
    {
      "icao": "LFLL",
      "alert": "OK",
      "vis_m": 9999,
      "fzfg": false,
      "metar_trigger": false,
      "taf_trigger": false,
      "metar": "METAR LFLL 110730Z 20007KT 170V230 CAVOK 26/16 Q1015 NOSIG",
      "taf": "TAF LFLL 110500Z 1106/1212 16008KT CAVOK"
    },
    {
      "icao": "LFLS",
      "alert": "OK",
      "vis_m": 9999,
      "fzfg": false,
      "metar_trigger": false,
      "taf_trigger": false,
      "metar": "METAR LFLS 110730Z AUTO 08005KT 050V110 CAVOK 24/16 Q1016 TEMPO VRB20G45KT 3000 TSRA BKN100CB",
      "taf": "TAF LFLS 110200Z 1103/1203 VRB03KT CAVOK"
    },
    {
      "icao": "LFMN",
      "alert": "OK",
      "vis_m": 9999,
      "fzfg": false,
      "metar_trigger": false,
      "taf_trigger": false,
      "metar": "METAR LFMN 110730Z VRB02KT CAVOK 30/18 Q1014 NOSIG",
      "taf": "TAF LFMN 110200Z 1103/1209 33010KT CAVOK"
    },
    {
      "icao": "LFOB",
      "alert": "OK",
      "vis_m": 9999,
      "fzfg": false,
      "metar_trigger": false,
      "taf_trigger": false,
      "metar": "METAR LFOB 110730Z AUTO 07008KT 040V110 CAVOK 26/15 Q1017 NOSIG",
      "taf": "TAF LFOB 110500Z 1106/1206 04007KT CAVOK"
    },
    {
      "icao": "LFPO",
      "alert": "OK",
      "vis_m": 9999,
      "fzfg": false,
      "metar_trigger": false,
      "taf_trigger": false,
      "metar": "METAR LFPO 110730Z 05009KT CAVOK 26/12 Q1016 NOSIG",
      "taf": "TAF LFPO 110500Z 1106/1212 04006KT CAVOK"
    },
    {
      "icao": "LFSB",
      "alert": "OK",
      "vis_m": 9999,
      "fzfg": false,
      "metar_trigger": false,
      "taf_trigger": false,
      "metar": "METAR LFSB 110730Z AUTO VRB02KT CAVOK 26/13 Q1017 NOSIG",
      "taf": "TAF LFSB 110500Z 1106/1206 33005KT CAVOK"
    },
    {
      "icao": "LGAV",
      "alert": "OK",
      "vis_m": 9999,
      "fzfg": false,
      "metar_trigger": false,
      "taf_trigger": false,
      "metar": "METAR LGAV 110750Z 04012KT CAVOK 29/11 Q1017 NOSIG",
      "taf": "TAF LGAV 110500Z 1106/1206 05012KT 9999 FEW025"
    },
    {
      "icao": "LGTS",
      "alert": "OK",
      "vis_m": 9999,
      "fzfg": false,
      "metar_trigger": false,
      "taf_trigger": false,
      "metar": "METAR LGTS 110750Z 30006KT CAVOK 26/17 Q1018 NOSIG",
      "taf": "TAF LGTS 110500Z 1106/1206 VRB03KT 9999 FEW030"
    },
    {
      "icao": "LHBP",
      "alert": "OK",
      "vis_m": 9999,
      "fzfg": false,
      "metar_trigger": false,
      "taf_trigger": false,
      "metar": "METAR LHBP 110730Z VRB02KT CAVOK 24/11 Q1016 NOSIG",
      "taf": "TAF LHBP 110515Z 1106/1206 VRB03KT CAVOK"
    },
    {
      "icao": "LHDC",
      "alert": "OK",
      "vis_m": 9999,
      "fzfg": false,
      "metar_trigger": false,
      "taf_trigger": false,
      "metar": "METAR LHDC 110715Z AUTO 18005KT 120V230 CAVOK 23/11 Q1015 NOSIG",
      "taf": "TAF LHDC 110515Z 1106/1115 VRB04KT CAVOK"
    },
    {
      "icao": "LIBD",
      "alert": "OK",
      "vis_m": 9999,
      "fzfg": false,
      "metar_trigger": false,
      "taf_trigger": false,
      "metar": "METAR LIBD 110750Z 13005KT 070V170 CAVOK 32/11 Q1016",
      "taf": "TAF LIBD 110500Z 1106/1206 VRB05KT CAVOK"
    },
    {
      "icao": "LIBG",
      "alert": "OK",
      "vis_m": 9999,
      "fzfg": false,
      "metar_trigger": false,
      "taf_trigger": false,
      "metar": "METAR LIBG 110750Z AUTO 24004KT 180V290 9999 NCD 30/14 Q1017",
      "taf": "TAF LIBG 110500Z 1106/1206 VRB05KT CAVOK"
    },
    {
      "icao": "LIBP",
      "alert": "OK",
      "vis_m": 9999,
      "fzfg": false,
      "metar_trigger": false,
      "taf_trigger": false,
      "metar": "METAR LIBP 110750Z AUTO 05006KT 340V080 9999 NCD 31/19 Q1015",
      "taf": "TAF LIBP 110500Z 1106/1206 VRB05KT CAVOK"
    },
    {
      "icao": "LIBR",
      "alert": "OK",
      "vis_m": 9999,
      "fzfg": false,
      "metar_trigger": false,
      "taf_trigger": false,
      "metar": "METAR LIBR 110750Z 07005KT CAVOK 30/06 Q1017",
      "taf": "TAF LIBR 110500Z 1106/1206 VRB05KT CAVOK"
    },
    {
      "icao": "LICA",
      "alert": "OK",
      "vis_m": 9999,
      "fzfg": false,
      "metar_trigger": false,
      "taf_trigger": false,
      "metar": "METAR LICA 110750Z AUTO VRB03KT 9999 NCD 32/14 Q1016",
      "taf": "TAF LICA 110500Z 1106/1206 08006KT CAVOK"
    },
    {
      "icao": "LICC",
      "alert": "OK",
      "vis_m": 9999,
      "fzfg": false,
      "metar_trigger": false,
      "taf_trigger": false,
      "metar": "METAR LICC 110750Z 24007KT 200V280 CAVOK 30/23 Q1017",
      "taf": "TAF LICC 110500Z 1106/1206 VRB05KT 9999 FEW020"
    },
    {
      "icao": "LICJ",
      "alert": "OK",
      "vis_m": 9999,
      "fzfg": false,
      "metar_trigger": false,
      "taf_trigger": false,
      "metar": "METAR LICJ 110750Z 03009KT CAVOK 28/22 Q1016",
      "taf": "TAF LICJ 110500Z 1106/1206 VRB05KT CAVOK"
    },
    {
      "icao": "LIMC",
      "alert": "OK",
      "vis_m": 9999,
      "fzfg": false,
      "metar_trigger": false,
      "taf_trigger": false,
      "metar": "METAR LIMC 110750Z 36003KT 310V040 CAVOK 27/19 Q1016 NOSIG",
      "taf": "TAF LIMC 110500Z 1106/1212 VRB05KT 9999 SCT030"
    },
    {
      "icao": "LIME",
      "alert": "OK",
      "vis_m": 9999,
      "fzfg": false,
      "metar_trigger": false,
      "taf_trigger": false,
      "metar": "METAR LIME 110750Z 08004KT 030V110 CAVOK 28/17 Q1016 NOSIG",
      "taf": "TAF LIME 110500Z 1106/1206 VRB05KT 9999 FEW050"
    },
    {
      "icao": "LIMF",
      "alert": "OK",
      "vis_m": 9999,
      "fzfg": false,
      "metar_trigger": false,
      "taf_trigger": false,
      "metar": "METAR LIMF 110750Z 05005KT 360V090 CAVOK 27/18 Q1016",
      "taf": "TAF LIMF 110500Z 1106/1206 VRB05KT 9999 FEW040"
    },
    {
      "icao": "LIMJ",
      "alert": "OK",
      "vis_m": 9999,
      "fzfg": false,
      "metar_trigger": false,
      "taf_trigger": false,
      "metar": "METAR LIMJ 110750Z VRB02KT 9999 FEW030 28/22 Q1015",
      "taf": "TAF LIMJ 110500Z 1106/1206 VRB05KT 9999 FEW020"
    },
    {
      "icao": "LIPE",
      "alert": "OK",
      "vis_m": 9999,
      "fzfg": false,
      "metar_trigger": false,
      "taf_trigger": false,
      "metar": "METAR LIPE 110750Z 27005KT CAVOK 27/20 Q1014",
      "taf": "TAF LIPE 110500Z 1106/1206 VRB05KT CAVOK"
    },
    {
      "icao": "LIPH",
      "alert": "OK",
      "vis_m": 9999,
      "fzfg": false,
      "metar_trigger": false,
      "taf_trigger": false,
      "metar": "METAR LIPH 110750Z 05005KT 020V090 CAVOK 27/20 Q1015",
      "taf": "TAF LIPH 110500Z 1106/1206 VRB06KT 9999 SCT050"
    },
    {
      "icao": "LIPQ",
      "alert": "OK",
      "vis_m": 9999,
      "fzfg": false,
      "metar_trigger": false,
      "taf_trigger": false,
      "metar": "METAR LIPQ 110750Z AUTO 19003KT 150V210 9999 NCD 28/10 Q1015",
      "taf": "TAF LIPQ 110500Z 1106/1206 VRB05KT 9999 SCT060"
    },
    {
      "icao": "LIPR",
      "alert": "OK",
      "vis_m": 9999,
      "fzfg": false,
      "metar_trigger": false,
      "taf_trigger": false,
      "metar": "METAR LIPR 110750Z 02005KT CAVOK 28/20 Q1014",
      "taf": "TAF LIPR 110500Z 1106/1206 VRB05KT CAVOK"
    },
    {
      "icao": "LIPX",
      "alert": "OK",
      "vis_m": 9999,
      "fzfg": false,
      "metar_trigger": false,
      "taf_trigger": false,
      "metar": "METAR LIPX 110750Z 11003KT 040V160 CAVOK 28/21 Q1015",
      "taf": "TAF LIPX 110500Z 1106/1206 VRB05KT CAVOK"
    },
    {
      "icao": "LIPY",
      "alert": "OK",
      "vis_m": 9999,
      "fzfg": false,
      "metar_trigger": false,
      "taf_trigger": false,
      "metar": "METAR LIPY 110750Z AUTO 05004KT 360V100 9999 NCD 31/16 Q1014",
      "taf": "TAF LIPY 110500Z 1106/1206 VRB05KT CAVOK"
    },
    {
      "icao": "LIPZ",
      "alert": "OK",
      "vis_m": 9999,
      "fzfg": false,
      "metar_trigger": false,
      "taf_trigger": false,
      "metar": "METAR LIPZ 110750Z 05005KT 020V080 CAVOK 27/21 Q1015 NOSIG",
      "taf": "TAF LIPZ 110500Z 1106/1212 VRB05KT 9999 SCT050"
    },
    {
      "icao": "LIRF",
      "alert": "OK",
      "vis_m": 9999,
      "fzfg": false,
      "metar_trigger": false,
      "taf_trigger": false,
      "metar": "METAR LIRF 110750Z 16006KT 120V200 9999 FEW020 29/23 Q1016 NOSIG",
      "taf": "TAF LIRF 110500Z 1106/1212 VRB05KT 9999 FEW010"
    },
    {
      "icao": "LIRN",
      "alert": "OK",
      "vis_m": 9999,
      "fzfg": false,
      "metar_trigger": false,
      "taf_trigger": false,
      "metar": "METAR LIRN 110750Z 17003KT 100V230 CAVOK 31/15 Q1017 NOSIG",
      "taf": "TAF LIRN 110500Z 1106/1206 VRB05KT CAVOK"
    },
    {
      "icao": "LIRP",
      "alert": "OK",
      "vis_m": 9999,
      "fzfg": false,
      "metar_trigger": false,
      "taf_trigger": false,
      "metar": "METAR LIRP 110745Z 13005KT CAVOK 28/20 Q1015 NOSIG",
      "taf": "TAF LIRP 110500Z 1106/1206 10004KT 9999 FEW030"
    },
    {
      "icao": "LIRZ",
      "alert": "OK",
      "vis_m": 9999,
      "fzfg": false,
      "metar_trigger": false,
      "taf_trigger": false,
      "metar": "METAR LIRZ 110750Z AUTO VRB02KT 9999 NCD 28/17 Q1017",
      "taf": "TAF LIRZ 110500Z 1106/1206 VRB05KT CAVOK"
    },
    {
      "icao": "LJLJ",
      "alert": "OK",
      "vis_m": 9999,
      "fzfg": false,
      "metar_trigger": false,
      "taf_trigger": false,
      "metar": "METAR LJLJ 110730Z 06003KT 010V110 9999 FEW070 25/17 Q1016 NOSIG",
      "taf": "TAF LJLJ 110500Z 1106/1206 VRB02KT 9999 FEW045"
    },
    {
      "icao": "LKMT",
      "alert": "OK",
      "vis_m": 9999,
      "fzfg": false,
      "metar_trigger": false,
      "taf_trigger": false,
      "metar": "METAR LKMT 110730Z 01008KT 9999 SCT040 21/12 Q1017 NOSIG",
      "taf": "TAF LKMT 110500Z 1106/1206 02008KT CAVOK"
    },
    {
      "icao": "LKPR",
      "alert": "OK",
      "vis_m": 9999,
      "fzfg": false,
      "metar_trigger": false,
      "taf_trigger": false,
      "metar": "METAR LKPR 110730Z 36008KT 320V110 9999 FEW043 21/10 Q1019 NOSIG",
      "taf": "TAF LKPR 110500Z 1106/1212 33006KT CAVOK"
    },
    {
      "icao": "LLBG",
      "alert": "OK",
      "vis_m": 9999,
      "fzfg": false,
      "metar_trigger": false,
      "taf_trigger": false,
      "metar": "METAR LLBG 110750Z VRB03KT CAVOK 31/18 Q1012 NOSIG",
      "taf": "TAF LLBG 110501Z 1106/1206 VRB04KT 9999 SCT025 TX31/1111Z TN23/1203Z"
    },
    {
      "icao": "LMML",
      "alert": "OK",
      "vis_m": 9999,
      "fzfg": false,
      "metar_trigger": false,
      "taf_trigger": false,
      "metar": "METAR LMML 110745Z 14008KT 9999 FEW014 28/22 Q1017 NOSIG",
      "taf": "TAF LMML 110500Z 1106/1206 14005KT 8000 BKN008"
    },
    {
      "icao": "LOWW",
      "alert": "OK",
      "vis_m": 9999,
      "fzfg": false,
      "metar_trigger": false,
      "taf_trigger": false,
      "metar": "METAR LOWW 110750Z 04005KT 010V110 CAVOK 25/12 Q1017 NOSIG",
      "taf": "TAF LOWW 110515Z 1106/1212 34008KT CAVOK TX30/1114Z TN16/1203Z"
    },
    {
      "icao": "LPFR",
      "alert": "OK",
      "vis_m": 9999,
      "fzfg": false,
      "metar_trigger": false,
      "taf_trigger": false,
      "metar": "METAR LPFR 110730Z 29007KT 9999 FEW040 20/15 Q1011",
      "taf": "TAF LPFR 110500Z 1106/1206 33005KT 9999 FEW012 BKN020"
    },
    {
      "icao": "LPMA",
      "alert": "OK",
      "vis_m": 9999,
      "fzfg": false,
      "metar_trigger": false,
      "taf_trigger": false,
      "metar": "METAR LPMA 110730Z VRB03KT 9999 FEW015 22/10 Q1015",
      "taf": "TAF LPMA 110500Z 1106/1206 34010KT 9999 SCT015"
    },
    {
      "icao": "LPPR",
      "alert": "OK",
      "vis_m": 9999,
      "fzfg": false,
      "metar_trigger": false,
      "taf_trigger": false,
      "metar": "METAR LPPR 110730Z VRB02KT CAVOK 19/16 Q1009",
      "taf": "TAF LPPR 110500Z 1106/1206 VRB02KT 9999 FEW020"
    },
    {
      "icao": "LPPS",
      "alert": "OK",
      "vis_m": 9999,
      "fzfg": false,
      "metar_trigger": false,
      "taf_trigger": false,
      "metar": "METAR LPPS 110730Z 31014KT 9999 SCT014 21/16 Q1014",
      "taf": "TAF LPPS 110500Z 1106/1212 31012KT 9999 SCT015"
    },
    {
      "icao": "LPPT",
      "alert": "OK",
      "vis_m": 9999,
      "fzfg": false,
      "metar_trigger": false,
      "taf_trigger": false,
      "metar": "METAR LPPT 110730Z 02006KT 330V050 9999 FEW014 18/15 Q1010 NOSIG",
      "taf": "TAF LPPT 110500Z 1106/1212 32010KT 9999 FEW020"
    },
    {
      "icao": "LQBK",
      "alert": "OK",
      "vis_m": 9999,
      "fzfg": false,
      "metar_trigger": false,
      "taf_trigger": false,
      "metar": "METAR LQBK 110730Z VRB01KT CAVOK 27/15 Q1015 NOSIG",
      "taf": "TAF LQBK 110500Z 1106/1206 19005KT CAVOK TX31/1115Z TN17/1203Z"
    },
    {
      "icao": "LQSA",
      "alert": "OK",
      "vis_m": 9999,
      "fzfg": false,
      "metar_trigger": false,
      "taf_trigger": false,
      "metar": "METAR LQSA 110730Z VRB02KT CAVOK 21/12 Q1019 NOSIG",
      "taf": "TAF LQSA 110500Z 1106/1206 VRB02KT CAVOK TX30/1113Z TN14/1203Z"
    },
    {
      "icao": "LQTZ",
      "alert": "OK",
      "vis_m": 9999,
      "fzfg": false,
      "metar_trigger": false,
      "taf_trigger": false,
      "metar": "METAR LQTZ 110730Z VRB02KT CAVOK 25/15 Q1016",
      "taf": "TAF LQTZ 110500Z 1106/1206 27005KT CAVOK TX30/1113Z TN15/1203Z"
    },
    {
      "icao": "LRBC",
      "alert": "OK",
      "vis_m": 9999,
      "fzfg": false,
      "metar_trigger": false,
      "taf_trigger": false,
      "metar": "METAR LRBC 110730Z VRB03KT CAVOK 21/14 Q1016",
      "taf": "TAF LRBC 110500Z 1106/1115 VRB04KT CAVOK"
    },
    {
      "icao": "LRBS",
      "alert": "OK",
      "vis_m": 9999,
      "fzfg": false,
      "metar_trigger": false,
      "taf_trigger": false,
      "metar": "METAR LRBS 110730Z 23003KT 120V290 CAVOK 23/14 Q1017 NOSIG",
      "taf": "TAF LRBS 110500Z 1106/1206 VRB04KT CAVOK"
    },
    {
      "icao": "LRBV",
      "alert": "OK",
      "vis_m": 9999,
      "fzfg": false,
      "metar_trigger": false,
      "taf_trigger": false,
      "metar": "METAR LRBV 110730Z 03002KT CAVOK 21/11 Q1018",
      "taf": "TAF LRBV 110500Z 1106/1115 VRB04KT CAVOK"
    },
    {
      "icao": "LRCL",
      "alert": "OK",
      "vis_m": 9999,
      "fzfg": false,
      "metar_trigger": false,
      "taf_trigger": false,
      "metar": "METAR LRCL 110730Z 00000KT 9999 FEW068 19/11 Q1017",
      "taf": "TAF LRCL 110500Z 1106/1115 VRB04KT 9999 SCT045"
    },
    {
      "icao": "LRCV",
      "alert": "OK",
      "vis_m": 9999,
      "fzfg": false,
      "metar_trigger": false,
      "taf_trigger": false,
      "metar": "METAR LRCV 110730Z 25006KT CAVOK 24/12 Q1018",
      "taf": "TAF LRCV 110500Z 1106/1115 VRB04KT CAVOK"
    },
    {
      "icao": "LRIA",
      "alert": "OK",
      "vis_m": 9999,
      "fzfg": false,
      "metar_trigger": false,
      "taf_trigger": false,
      "metar": "METAR LRIA 110730Z 31004KT 260V070 CAVOK 21/10 Q1016",
      "taf": "TAF LRIA 110500Z 1106/1115 VRB04KT CAVOK"
    },
    {
      "icao": "LROP",
      "alert": "OK",
      "vis_m": 9999,
      "fzfg": false,
      "metar_trigger": false,
      "taf_trigger": false,
      "metar": "METAR LROP 110730Z 23004KT 190V290 CAVOK 24/16 Q1017 NOSIG",
      "taf": "TAF LROP 110500Z 1106/1206 VRB04KT CAVOK"
    },
    {
      "icao": "LRSB",
      "alert": "OK",
      "vis_m": 9999,
      "fzfg": false,
      "metar_trigger": false,
      "taf_trigger": false,
      "metar": "METAR LRSB 110730Z 01003KT 290V080 CAVOK 23/11 Q1017 NOSIG",
      "taf": "TAF LRSB 110500Z 1106/1206 VRB04KT CAVOK"
    },
    {
      "icao": "LRSM",
      "alert": "OK",
      "vis_m": 9999,
      "fzfg": false,
      "metar_trigger": false,
      "taf_trigger": false,
      "metar": "METAR LRSM 110730Z AUTO 09004KT 9999 BKN080/// BKN110/// 19/13 Q1016",
      "taf": ""
    },
    {
      "icao": "LRSV",
      "alert": "OK",
      "vis_m": 9999,
      "fzfg": false,
      "metar_trigger": false,
      "taf_trigger": false,
      "metar": "METAR LRSV 110730Z 27006KT 220V340 CAVOK 19/10 Q1016",
      "taf": "TAF LRSV 110500Z 1106/1115 26006KT CAVOK"
    },
    {
      "icao": "LRTM",
      "alert": "OK",
      "vis_m": 9999,
      "fzfg": false,
      "metar_trigger": false,
      "taf_trigger": false,
      "metar": "METAR LRTM 110730Z 09005KT 060V130 CAVOK 19/15 Q1017",
      "taf": "TAF LRTM 110500Z 1106/1115 VRB04KT CAVOK"
    },
    {
      "icao": "LRTR",
      "alert": "OK",
      "vis_m": 9999,
      "fzfg": false,
      "metar_trigger": false,
      "taf_trigger": false,
      "metar": "METAR LRTR 110730Z 17005KT 110V230 CAVOK 25/12 Q1016",
      "taf": "TAF LRTR 110500Z 1106/1206 15008KT CAVOK"
    },
    {
      "icao": "LTAC",
      "alert": "OK",
      "vis_m": 9999,
      "fzfg": false,
      "metar_trigger": false,
      "taf_trigger": false,
      "metar": "METAR LTAC 110750Z 10004KT 9999 FEW040 24/11 Q1020 NOSIG RMK RWY21C VRB03KT RWY03L 27004KT 190V320 RWY21R VRB04KT RWY03R VRB04KT RWY21L VRB04KT",
      "taf": "TAF LTAC 110440Z 1106/1206 VRB02KT CAVOK"
    },
    {
      "icao": "LTFM",
      "alert": "OK",
      "vis_m": 9999,
      "fzfg": false,
      "metar_trigger": false,
      "taf_trigger": false,
      "metar": "METAR LTFM 110750Z 06010KT 020V080 CAVOK 26/12 Q1018 NOSIG RMK RWY17L 07009KT 040V100 RWY34L 07008KT 030V100 RWY16R 07008KT RWY36 07008KT RWY18 08008KT",
      "taf": "TAF LTFM 110440Z 1106/1212 VRB02KT CAVOK"
    },
    {
      "icao": "LUKK",
      "alert": "OK",
      "vis_m": 9999,
      "fzfg": false,
      "metar_trigger": false,
      "taf_trigger": false,
      "metar": "METAR LUKK 110730Z 25007KT 190V280 CAVOK 21/12 Q1016 NOSIG",
      "taf": ""
    },
    {
      "icao": "LWOH",
      "alert": "OK",
      "vis_m": 9999,
      "fzfg": false,
      "metar_trigger": false,
      "taf_trigger": false,
      "metar": "METAR LWOH 110750Z 16005KT 130V230 CAVOK 22/14 Q1021",
      "taf": "TAF LWOH 110530Z 1106/1206 33006KT CAVOK"
    },
    {
      "icao": "LWSK",
      "alert": "OK",
      "vis_m": 9999,
      "fzfg": false,
      "metar_trigger": false,
      "taf_trigger": false,
      "metar": "METAR LWSK 110750Z VRB02KT CAVOK 25/11 Q1019 NOSIG",
      "taf": "TAF LWSK 110530Z 1103/1206 VRB06KT CAVOK"
    },
    {
      "icao": "LYBE",
      "alert": "OK",
      "vis_m": 9999,
      "fzfg": false,
      "metar_trigger": false,
      "taf_trigger": false,
      "metar": "METAR LYBE 110730Z 17006KT 140V210 CAVOK 27/12 Q1016 NOSIG",
      "taf": "TAF LYBE 110500Z 1106/1206 20006KT CAVOK TX32/1114Z TN18/1203Z"
    },
    {
      "icao": "LYNI",
      "alert": "OK",
      "vis_m": 9999,
      "fzfg": false,
      "metar_trigger": false,
      "taf_trigger": false,
      "metar": "METAR LYNI 110730Z VRB01KT CAVOK 23/10 Q1019 NOSIG",
      "taf": "TAF LYNI 110500Z 1106/1206 17006KT CAVOK TX33/1114Z TN18/1203Z"
    },
    {
      "icao": "LYPG",
      "alert": "OK",
      "vis_m": 9999,
      "fzfg": false,
      "metar_trigger": false,
      "taf_trigger": false,
      "metar": "METAR LYPG 110730Z 00000KT CAVOK 28/10 Q1017 NOSIG",
      "taf": "TAF LYPG 110500Z 1106/1206 36006KT CAVOK TX34/1113Z TN21/1203Z"
    },
    {
      "icao": "LZIB",
      "alert": "OK",
      "vis_m": 9999,
      "fzfg": false,
      "metar_trigger": false,
      "taf_trigger": false,
      "metar": "METAR LZIB 110730Z 08005KT CAVOK 25/11 Q1016 NOSIG",
      "taf": "TAF LZIB 110515Z 1106/1206 04005KT CAVOK"
    },
    {
      "icao": "LZKZ",
      "alert": "OK",
      "vis_m": 9999,
      "fzfg": false,
      "metar_trigger": false,
      "taf_trigger": false,
      "metar": "METAR LZKZ 110730Z 07006KT CAVOK 17/13 Q1016 NOSIG",
      "taf": "TAF LZKZ 110515Z 1106/1206 30005KT CAVOK"
    },
    {
      "icao": "LZTT",
      "alert": "OK",
      "vis_m": 9999,
      "fzfg": false,
      "metar_trigger": false,
      "taf_trigger": false,
      "metar": "METAR LZTT 110730Z 05006KT 9999 -SHRA FEW026 BKN053 15/12 Q1017 NOSIG",
      "taf": "TAF LZTT 110515Z 1106/1206 27010KT 9999 BKN055"
    },
    {
      "icao": "OEJN",
      "alert": "OK",
      "vis_m": 9999,
      "fzfg": false,
      "metar_trigger": false,
      "taf_trigger": false,
      "metar": "METAR OEJN 110700Z 32011KT CAVOK 36/18 Q1006 NOSIG",
      "taf": "TAF OEJN 110500Z 1106/1212 34015KT CAVOK"
    },
    {
      "icao": "OEMA",
      "alert": "OK",
      "vis_m": 9999,
      "fzfg": false,
      "metar_trigger": false,
      "taf_trigger": false,
      "metar": "METAR OEMA 110700Z VRB02KT CAVOK 39/M01 Q1012 NOSIG",
      "taf": "TAF OEMA 110500Z 1106/1212 VRB03KT CAVOK"
    },
    {
      "icao": "OJAI",
      "alert": "OK",
      "vis_m": 5000,
      "fzfg": false,
      "metar_trigger": false,
      "taf_trigger": false,
      "metar": "METAR OJAI 110700Z 32008KT 5000 HZ NSC 28/06 Q1016 NOSIG",
      "taf": "TAF OJAI 110431Z 1106/1212 30008KT 5000 HZ NSC"
    },
    {
      "icao": "OMAA",
      "alert": "OK",
      "vis_m": 9999,
      "fzfg": false,
      "metar_trigger": false,
      "taf_trigger": false,
      "metar": "METAR OMAA 110730Z 27005KT 160V310 CAVOK 40/19 Q1001 NOSIG",
      "taf": "TAF OMAA 110500Z 1106/1212 21008KT 8000 NSC"
    },
    {
      "icao": "OMDB",
      "alert": "OK",
      "vis_m": 9999,
      "fzfg": false,
      "metar_trigger": false,
      "taf_trigger": false,
      "metar": "METAR OMDB 110730Z 28013KT 240V300 CAVOK 39/25 Q1000 NOSIG",
      "taf": "TAF OMDB 110500Z 1106/1212 23008KT 8000 NSC"
    },
    {
      "icao": "UAAA",
      "alert": "OK",
      "vis_m": 9999,
      "fzfg": false,
      "metar_trigger": false,
      "taf_trigger": false,
      "metar": "METAR UAAA 110730Z 05002MPS 9999 FEW050 31/12 Q1006 NOSIG",
      "taf": "TAF UAAA 110504Z 1106/1206 04005MPS 9999 FEW050CB TX35/1110Z TN19/1201Z"
    },
    {
      "icao": "UBBB",
      "alert": "OK",
      "vis_m": 9999,
      "fzfg": false,
      "metar_trigger": false,
      "taf_trigger": false,
      "metar": "METAR UBBB 110730Z 36010KT CAVOK 31/13 Q1011 NOSIG",
      "taf": "TAF UBBB 110512Z 1106/1206 34010KT CAVOK TX32/1110Z TN21/1201Z"
    },
    {
      "icao": "UDSG",
      "alert": "OK",
      "vis_m": 9999,
      "fzfg": false,
      "metar_trigger": false,
      "taf_trigger": false,
      "metar": "METAR UDSG 110730Z VRB01KT 9999 FEW049 25/16 Q1020 NOSIG",
      "taf": "TAF UDSG 110500Z 1106/1206 05006KT 9999 FEW050"
    },
    {
      "icao": "UDYZ",
      "alert": "OK",
      "vis_m": 9999,
      "fzfg": false,
      "metar_trigger": false,
      "taf_trigger": false,
      "metar": "METAR UDYZ 110730Z VRB02KT 9999 NSC 32/16 Q1013 NOSIG",
      "taf": "TAF UDYZ 110500Z 1106/1206 20004KT 9999 FEW040"
    },
    {
      "icao": "UGKO",
      "alert": "OK",
      "vis_m": 9999,
      "fzfg": false,
      "metar_trigger": false,
      "taf_trigger": false,
      "metar": "METAR UGKO 110730Z 26008KT 220V300 9999 SCT020 BKN051 26/21 Q1015 NOSIG",
      "taf": "TAF UGKO 110500Z 1106/1206 25007KT 9999 SCT023 BKN050 TX29/1111Z TN21/1202Z"
    }
  ]
}