{
  "ts_utc": "2026-05-21T12:31:57Z",
  "threshold_m": 150,
  "source": "stations_override.txt (ICAO list) + aviationweather.gov (METAR/TAF raw)",
  "station_count": 159,
  "stations": [
    {
      "icao": "BIKF",
      "alert": "OK",
      "vis_m": 9999,
      "fzfg": false,
      "metar_trigger": false,
      "taf_trigger": false,
      "metar": "METAR BIKF 211200Z 15011KT 9999 FEW035 13/03 Q1010",
      "taf": "TAF BIKF 211032Z 2112/2212 09010KT 9999 FEW025 SCT035 TX13/2115Z TN07/2205Z"
    },
    {
      "icao": "BKPR",
      "alert": "OK",
      "vis_m": 9999,
      "fzfg": false,
      "metar_trigger": false,
      "taf_trigger": false,
      "metar": "METAR BKPR 211230Z 34011KT 9999 SCT065 21/07 Q1018 NOSIG",
      "taf": "TAF BKPR 211130Z 2112/2212 01008KT 9999 SCT050"
    },
    {
      "icao": "EBCI",
      "alert": "OK",
      "vis_m": 9999,
      "fzfg": false,
      "metar_trigger": false,
      "taf_trigger": false,
      "metar": "METAR EBCI 211220Z 23004KT 170V270 9999 FEW030 19/11 Q1029 NOSIG",
      "taf": "TAF EBCI 211110Z 2112/2218 27004KT 9999 SCT035"
    },
    {
      "icao": "EDDB",
      "alert": "OK",
      "vis_m": 9999,
      "fzfg": false,
      "metar_trigger": false,
      "taf_trigger": false,
      "metar": "METAR EDDB 211220Z AUTO 26009KT 230V310 9999 FEW047 21/11 Q1026 NOSIG",
      "taf": "TAF EDDB 211100Z 2112/2212 27007KT 9999 SCT040"
    },
    {
      "icao": "EDDH",
      "alert": "OK",
      "vis_m": 9999,
      "fzfg": false,
      "metar_trigger": false,
      "taf_trigger": false,
      "metar": "METAR EDDH 211220Z AUTO 30008KT 260V330 9999 FEW030 19/12 Q1026 NOSIG",
      "taf": "TAF EDDH 211100Z 2112/2218 28009KT 9999 SCT035"
    },
    {
      "icao": "EDDK",
      "alert": "OK",
      "vis_m": 9999,
      "fzfg": false,
      "metar_trigger": false,
      "taf_trigger": false,
      "metar": "METAR EDDK 211220Z AUTO 28007KT 230V340 9999 FEW048 21/10 Q1028 NOSIG",
      "taf": "TAF EDDK 211100Z 2112/2218 25005KT 9999 SCT035"
    },
    {
      "icao": "EDDN",
      "alert": "OK",
      "vis_m": 9999,
      "fzfg": false,
      "metar_trigger": false,
      "taf_trigger": false,
      "metar": "METAR EDDN 211220Z AUTO 29007KT 250V350 CAVOK 20/09 Q1028 NOSIG",
      "taf": "TAF EDDN 211100Z 2112/2212 32006KT CAVOK"
    },
    {
      "icao": "EDDS",
      "alert": "OK",
      "vis_m": 9999,
      "fzfg": false,
      "metar_trigger": false,
      "taf_trigger": false,
      "metar": "METAR EDDS 211220Z AUTO VRB04KT 9999 FEW040 22/11 Q1028 NOSIG",
      "taf": "TAF EDDS 211100Z 2112/2212 03004KT CAVOK"
    },
    {
      "icao": "EDFH",
      "alert": "OK",
      "vis_m": 9999,
      "fzfg": false,
      "metar_trigger": false,
      "taf_trigger": false,
      "metar": "METAR EDFH 211220Z 28007KT 240V340 9999 FEW036 18/10 Q1029 ATIS",
      "taf": "TAF EDFH 211100Z 2112/2212 28008KT CAVOK"
    },
    {
      "icao": "EDJA",
      "alert": "OK",
      "vis_m": 9999,
      "fzfg": false,
      "metar_trigger": false,
      "taf_trigger": false,
      "metar": "METAR EDJA 211220Z 04005KT 360V110 9999 SCT047 BKN058 19/08 Q1029",
      "taf": "TAF EDJA 211100Z 2112/2121 03004KT 9999 FEW055"
    },
    {
      "icao": "EDLW",
      "alert": "OK",
      "vis_m": 9999,
      "fzfg": false,
      "metar_trigger": false,
      "taf_trigger": false,
      "metar": "METAR EDLW 211220Z 23008KT 200V260 9999 FEW041 19/12 Q1028",
      "taf": "TAF EDLW 211100Z 2112/2212 23007KT 9999 SCT030"
    },
    {
      "icao": "EDNY",
      "alert": "OK",
      "vis_m": 9999,
      "fzfg": false,
      "metar_trigger": false,
      "taf_trigger": false,
      "metar": "METAR EDNY 211220Z 01005KT 330V090 9999 FEW060 22/06 Q1028",
      "taf": "TAF EDNY 211100Z 2112/2121 03006KT CAVOK"
    },
    {
      "icao": "EDSB",
      "alert": "OK",
      "vis_m": 9999,
      "fzfg": false,
      "metar_trigger": false,
      "taf_trigger": false,
      "metar": "METAR EDSB 211220Z 30004KT 230V010 CAVOK 22/10 Q1028",
      "taf": "TAF EDSB 211100Z 2112/2212 03004KT CAVOK"
    },
    {
      "icao": "EETN",
      "alert": "OK",
      "vis_m": 9999,
      "fzfg": false,
      "metar_trigger": false,
      "taf_trigger": false,
      "metar": "METAR EETN 211220Z 32004KT 300V360 9999 -SHRA FEW035CB 13/10 Q1021 NOSIG",
      "taf": "TAF EETN 211130Z 2112/2212 26006KT 9999 SCT040"
    },
    {
      "icao": "EFTU",
      "alert": "OK",
      "vis_m": 9999,
      "fzfg": false,
      "metar_trigger": false,
      "taf_trigger": false,
      "metar": "METAR EFTU 211220Z AUTO 24008KT 200V270 CAVOK 17/07 Q1020",
      "taf": "TAF EFTU 211125Z 2112/2212 22006KT CAVOK"
    },
    {
      "icao": "EGBB",
      "alert": "OK",
      "vis_m": 9999,
      "fzfg": false,
      "metar_trigger": false,
      "taf_trigger": false,
      "metar": "METAR EGBB 211220Z 22009KT 180V260 9999 BKN021 19/13 Q1025",
      "taf": "TAF EGBB 211055Z 2112/2212 23010KT 9999 FEW022"
    },
    {
      "icao": "EGGP",
      "alert": "OK",
      "vis_m": 9999,
      "fzfg": false,
      "metar_trigger": false,
      "taf_trigger": false,
      "metar": "METAR EGGP 211220Z 24014KT 9999 -RA FEW018 SCT034 BKN043 18/13 Q1023",
      "taf": "TAF EGGP 211103Z 2112/2212 21010KT 9999 SCT030"
    },
    {
      "icao": "EGGW",
      "alert": "OK",
      "vis_m": 9999,
      "fzfg": false,
      "metar_trigger": false,
      "taf_trigger": false,
      "metar": "METAR EGGW 211220Z AUTO 21009KT 140V240 9999 FEW031 21/13 Q1025",
      "taf": "TAF EGGW 211057Z 2112/2212 21010KT 9999 BKN040"
    },
    {
      "icao": "EGKK",
      "alert": "OK",
      "vis_m": 9999,
      "fzfg": false,
      "metar_trigger": false,
      "taf_trigger": false,
      "metar": "METAR EGKK 211220Z 22009KT 180V250 CAVOK 20/12 Q1026",
      "taf": "TAF EGKK 211058Z 2112/2218 20010KT 9999 SCT030"
    },
    {
      "icao": "EGNM",
      "alert": "OK",
      "vis_m": 9999,
      "fzfg": false,
      "metar_trigger": false,
      "taf_trigger": false,
      "metar": "METAR EGNM 211220Z 23011KT 9999 BKN022 17/12 Q1022",
      "taf": "TAF EGNM 211059Z 2112/2212 23010KT 9999 SCT025"
    },
    {
      "icao": "EGPD",
      "alert": "OK",
      "vis_m": 9999,
      "fzfg": false,
      "metar_trigger": false,
      "taf_trigger": false,
      "metar": "METAR EGPD 211220Z COR 15009KT 100V180 9999 FEW013 BKN018 16/12 Q1017 NOSIG",
      "taf": "TAF EGPD 211056Z 2112/2212 21009KT 9999 FEW008 SCT040"
    },
    {
      "icao": "EGPF",
      "alert": "OK",
      "vis_m": 9999,
      "fzfg": false,
      "metar_trigger": false,
      "taf_trigger": false,
      "metar": "METAR EGPF 211220Z AUTO 23013KT 9999 BKN009 OVC012 16/14 Q1019",
      "taf": ""
    },
    {
      "icao": "EHBK",
      "alert": "OK",
      "vis_m": 9999,
      "fzfg": false,
      "metar_trigger": false,
      "taf_trigger": false,
      "metar": "METAR EHBK 211225Z AUTO VRB08KT 9999 NSC 20/13 Q1028 NOSIG",
      "taf": "TAF EHBK 211058Z 2112/2218 25007KT 9999 SCT025"
    },
    {
      "icao": "EHEH",
      "alert": "OK",
      "vis_m": 9999,
      "fzfg": false,
      "metar_trigger": false,
      "taf_trigger": false,
      "metar": "METAR EHEH 211225Z AUTO 26006KT 200V320 9999 ////// 20/12 Q1028 BLU NOSIG",
      "taf": "TAF EHEH 211104Z 2112/2218 24007KT 9999 SCT030"
    },
    {
      "icao": "EKBI",
      "alert": "OK",
      "vis_m": 9999,
      "fzfg": false,
      "metar_trigger": false,
      "taf_trigger": false,
      "metar": "METAR EKBI 211220Z AUTO 28014KT 250V310 9999 FEW040/// 17/07 Q1024",
      "taf": "TAF EKBI 211127Z 2112/2212 28009KT 9999 BKN040"
    },
    {
      "icao": "EKCH",
      "alert": "OK",
      "vis_m": 9999,
      "fzfg": false,
      "metar_trigger": false,
      "taf_trigger": false,
      "metar": "METAR EKCH 211220Z 24006KT 200V260 9999 -SHRA SCT020TCU BKN039 16/11 Q1023 RESHRA NOSIG",
      "taf": "TAF EKCH 211127Z 2112/2212 19005KT 9999 SCT018"
    },
    {
      "icao": "ENAL",
      "alert": "OK",
      "vis_m": 9999,
      "fzfg": false,
      "metar_trigger": false,
      "taf_trigger": false,
      "metar": "METAR ENAL 211220Z 27009KT 9999 BKN005 11/10 Q1018",
      "taf": ""
    },
    {
      "icao": "ENBR",
      "alert": "OK",
      "vis_m": 9999,
      "fzfg": false,
      "metar_trigger": false,
      "taf_trigger": false,
      "metar": "METAR ENBR 211220Z 20005KT 130V240 9999 FEW016 SCT026 13/08 Q1020 NOSIG RMK WIND 1200FT 25004KT",
      "taf": "TAF ENBR 211100Z 2112/2212 20007KT 9999 FEW010 SCT020"
    },
    {
      "icao": "ENGM",
      "alert": "OK",
      "vis_m": 9999,
      "fzfg": false,
      "metar_trigger": false,
      "taf_trigger": false,
      "metar": "METAR ENGM 211220Z 18009KT 9999 VCSH FEW021CB 15/09 Q1017 NOSIG",
      "taf": "TAF ENGM 211100Z 2112/2212 19010KT 9999 FEW015 SCT030"
    },
    {
      "icao": "ENHD",
      "alert": "OK",
      "vis_m": 900,
      "fzfg": false,
      "metar_trigger": false,
      "taf_trigger": false,
      "metar": "METAR ENHD 211220Z 23006KT 0900 R13/0750N R31/1600D FG VV003 10/08 Q1021",
      "taf": "TAF ENHD 211100Z 2112/2121 VRB05KT 9999 BKN005"
    },
    {
      "icao": "ENTC",
      "alert": "OK",
      "vis_m": 9999,
      "fzfg": false,
      "metar_trigger": false,
      "taf_trigger": false,
      "metar": "METAR ENTC 211220Z 28009KT 9999 FEW018 10/06 Q1018 NOSIG RMK WIND 2600FT 22013KT",
      "taf": "TAF ENTC 211100Z 2112/2212 28009KT 9999 FEW012 SCT020"
    },
    {
      "icao": "ENTO",
      "alert": "OK",
      "vis_m": 9999,
      "fzfg": false,
      "metar_trigger": false,
      "taf_trigger": false,
      "metar": "METAR ENTO 211220Z 20005KT 170V230 9999 FEW014 BKN019 14/11 Q1017 NOSIG",
      "taf": "TAF ENTO 211100Z 2112/2212 20010KT 9999 FEW010 BKN025"
    },
    {
      "icao": "ENVA",
      "alert": "OK",
      "vis_m": 9999,
      "fzfg": false,
      "metar_trigger": false,
      "taf_trigger": false,
      "metar": "METAR ENVA 211220Z 12007KT 090V150 9999 FEW055 20/07 Q1015 NOSIG RMK WIND 670FT 16011KT",
      "taf": "TAF ENVA 211100Z 2112/2212 16008KT CAVOK"
    },
    {
      "icao": "ENZV",
      "alert": "OK",
      "vis_m": 9999,
      "fzfg": false,
      "metar_trigger": false,
      "taf_trigger": false,
      "metar": "METAR ENZV 211220Z 28004KT 220V330 9999 VCFG FEW005 SCT015 12/10 Q1021 NOSIG",
      "taf": "TAF ENZV 211100Z 2112/2212 VRB05KT 9999 BKN008"
    },
    {
      "icao": "EPGD",
      "alert": "OK",
      "vis_m": 9999,
      "fzfg": false,
      "metar_trigger": false,
      "taf_trigger": false,
      "metar": "METAR EPGD 211200Z 29015KT 9999 FEW028 BKN044 17/10 Q1024",
      "taf": "TAF EPGD 211130Z 2112/2212 28014KT 9999 SCT025 BKN035"
    },
    {
      "icao": "EPKK",
      "alert": "OK",
      "vis_m": 9999,
      "fzfg": false,
      "metar_trigger": false,
      "taf_trigger": false,
      "metar": "METAR EPKK 211200Z 29011KT 9999 FEW033CB SCT050 16/12 Q1024",
      "taf": "TAF EPKK 211130Z 2112/2212 26010KT 9999 SCT050"
    },
    {
      "icao": "EPKT",
      "alert": "OK",
      "vis_m": 9999,
      "fzfg": false,
      "metar_trigger": false,
      "taf_trigger": false,
      "metar": "METAR EPKT 211200Z 30008KT 270V350 9999 FEW036CB 18/11 Q1025",
      "taf": "TAF EPKT 211130Z 2112/2212 30008KT CAVOK"
    },
    {
      "icao": "EPLB",
      "alert": "OK",
      "vis_m": 9999,
      "fzfg": false,
      "metar_trigger": false,
      "taf_trigger": false,
      "metar": "METAR EPLB 211200Z 02013KT 360V060 CAVOK 24/09 Q1021",
      "taf": "TAF EPLB 211130Z 2112/2212 35010KT CAVOK"
    },
    {
      "icao": "EPMO",
      "alert": "OK",
      "vis_m": 9999,
      "fzfg": false,
      "metar_trigger": false,
      "taf_trigger": false,
      "metar": "METAR EPMO 211200Z 27013KT 9999 FEW046 23/12 Q1022",
      "taf": "TAF EPMO 211130Z 2112/2212 29012KT 9999 SCT030"
    },
    {
      "icao": "EPPO",
      "alert": "OK",
      "vis_m": 9999,
      "fzfg": false,
      "metar_trigger": false,
      "taf_trigger": false,
      "metar": "METAR EPPO 211200Z 30011KT 9999 FEW040 20/09 Q1025",
      "taf": "TAF EPPO 211130Z 2112/2212 30010KT 9999 SCT040"
    },
    {
      "icao": "EPRA",
      "alert": "OK",
      "vis_m": 9999,
      "fzfg": false,
      "metar_trigger": false,
      "taf_trigger": false,
      "metar": "METAR EPRA 211200Z 30011KT 260V340 CAVOK 23/09 Q1022",
      "taf": "TAF EPRA 211130Z 2112/2121 31012KT CAVOK"
    },
    {
      "icao": "EPRZ",
      "alert": "OK",
      "vis_m": 9999,
      "fzfg": false,
      "metar_trigger": false,
      "taf_trigger": false,
      "metar": "METAR EPRZ 211200Z 34011KT 290V360 CAVOK 23/10 Q1021",
      "taf": "TAF EPRZ 211130Z 2112/2212 32012KT CAVOK"
    },
    {
      "icao": "EPSC",
      "alert": "OK",
      "vis_m": 9999,
      "fzfg": false,
      "metar_trigger": false,
      "taf_trigger": false,
      "metar": "METAR EPSC 211200Z 24006KT 210V290 9999 FEW040 19/10 Q1025",
      "taf": "TAF EPSC 211130Z 2112/2212 27008KT 9999 SCT040"
    },
    {
      "icao": "EPSY",
      "alert": "OK",
      "vis_m": 9999,
      "fzfg": false,
      "metar_trigger": false,
      "taf_trigger": false,
      "metar": "METAR EPSY 211200Z 33004KT 9999 FEW022 SCT045CB 17/11 Q1022",
      "taf": "TAF EPSY 211130Z 2112/2121 31010KT CAVOK"
    },
    {
      "icao": "EPWA",
      "alert": "OK",
      "vis_m": 9999,
      "fzfg": false,
      "metar_trigger": false,
      "taf_trigger": false,
      "metar": "METAR EPWA 211200Z 30010KT CAVOK 23/11 Q1022 NOSIG",
      "taf": "TAF EPWA 211130Z 2112/2212 29010KT CAVOK"
    },
    {
      "icao": "EPWR",
      "alert": "OK",
      "vis_m": 9999,
      "fzfg": false,
      "metar_trigger": false,
      "taf_trigger": false,
      "metar": "METAR EPWR 211200Z 33012KT 300V360 9999 SCT043 20/09 Q1026",
      "taf": "TAF EPWR 211130Z 2112/2212 33013KT 9999 SCT040"
    },
    {
      "icao": "ESGG",
      "alert": "OK",
      "vis_m": 9999,
      "fzfg": false,
      "metar_trigger": false,
      "taf_trigger": false,
      "metar": "METAR ESGG 211220Z 22010KT 9999 FEW008CB BKN012 12/11 Q1020",
      "taf": "TAF ESGG 211130Z 2112/2212 23009KT 9999 SCT005 BKN020"
    },
    {
      "icao": "ESKN",
      "alert": "OK",
      "vis_m": 9999,
      "fzfg": false,
      "metar_trigger": false,
      "taf_trigger": false,
      "metar": "METAR ESKN 211220Z 14008KT 9999 SCT026CB SCT075 15/13 Q1018",
      "taf": "TAF ESKN 211130Z 2112/2212 24007KT 9999 BKN020"
    },
    {
      "icao": "ESMS",
      "alert": "OK",
      "vis_m": 9999,
      "fzfg": false,
      "metar_trigger": false,
      "taf_trigger": false,
      "metar": "METAR ESMS 211220Z 21012KT 9999 FEW022 15/12 Q1023",
      "taf": "TAF ESMS 211127Z 2112/2212 25006KT 9999 SCT014"
    },
    {
      "icao": "ESSA",
      "alert": "OK",
      "vis_m": 9999,
      "fzfg": false,
      "metar_trigger": false,
      "taf_trigger": false,
      "metar": "METAR ESSA 211220Z 19008KT 9999 BKN030 17/09 Q1018 NOSIG",
      "taf": ""
    },
    {
      "icao": "EYKA",
      "alert": "OK",
      "vis_m": 9999,
      "fzfg": false,
      "metar_trigger": false,
      "taf_trigger": false,
      "metar": "METAR EYKA 211220Z 35004KT 290V030 CAVOK 17/12 Q1022",
      "taf": ""
    },
    {
      "icao": "EYPA",
      "alert": "OK",
      "vis_m": 9999,
      "fzfg": false,
      "metar_trigger": false,
      "taf_trigger": false,
      "metar": "METAR EYPA 211220Z 27004KT 200V330 CAVOK 14/11 Q1022",
      "taf": "TAF EYPA 211118Z 2112/2212 26006KT 9000 NSC"
    },
    {
      "icao": "EYVI",
      "alert": "OK",
      "vis_m": 9999,
      "fzfg": false,
      "metar_trigger": false,
      "taf_trigger": false,
      "metar": "METAR EYVI 211220Z 32007KT 290V360 9999 OVC012 16/13 Q1021 NOSIG",
      "taf": ""
    },
    {
      "icao": "GCFV",
      "alert": "OK",
      "vis_m": 9999,
      "fzfg": false,
      "metar_trigger": false,
      "taf_trigger": false,
      "metar": "METAR GCFV 211200Z 15010KT 9999 FEW020 23/17 Q1017",
      "taf": "TAF GCFV 210800Z 2109/2209 33010KT 9999 FEW020 TX28/2114Z TN18/2206Z"
    },
    {
      "icao": "GCLP",
      "alert": "OK",
      "vis_m": 9999,
      "fzfg": false,
      "metar_trigger": false,
      "taf_trigger": false,
      "metar": "METAR GCLP 211200Z 03024KT 9999 FEW030 24/15 Q1017 NOSIG",
      "taf": "TAF GCLP 210800Z 2109/2209 01015KT 9999 FEW030 TX26/2114Z TN19/2206Z"
    },
    {
      "icao": "GCTS",
      "alert": "OK",
      "vis_m": 9999,
      "fzfg": false,
      "metar_trigger": false,
      "taf_trigger": false,
      "metar": "METAR GCTS 211200Z 20009KT 160V250 9999 FEW025 23/15 Q1019 NOSIG",
      "taf": "TAF GCTS 210800Z 2109/2209 20010KT 9999 FEW030 TX25/2114Z TN18/2206Z"
    },
    {
      "icao": "GMAD",
      "alert": "OK",
      "vis_m": 9999,
      "fzfg": false,
      "metar_trigger": false,
      "taf_trigger": false,
      "metar": "METAR GMAD 211200Z 27015KT 230V310 CAVOK 29/M05 Q1015 NOSIG",
      "taf": "TAF GMAD 211100Z 2112/2218 09010KT 8000 NSC"
    },
    {
      "icao": "GMMN",
      "alert": "OK",
      "vis_m": 9999,
      "fzfg": false,
      "metar_trigger": false,
      "taf_trigger": false,
      "metar": "METAR GMMN 211200Z 10008KT 030V150 CAVOK 40/10 Q1017 NOSIG",
      "taf": "TAF GMMN 211100Z 2112/2218 04016KT CAVOK"
    },
    {
      "icao": "GMMX",
      "alert": "OK",
      "vis_m": 9999,
      "fzfg": false,
      "metar_trigger": false,
      "taf_trigger": false,
      "metar": "METAR GMMX 211200Z VRB05KT CAVOK 38/09 Q1018 NOSIG",
      "taf": "TAF GMMX 211100Z 2112/2218 06006KT CAVOK"
    },
    {
      "icao": "HEGN",
      "alert": "OK",
      "vis_m": null,
      "fzfg": false,
      "metar_trigger": false,
      "taf_trigger": false,
      "metar": "",
      "taf": "TAF HEGN 211100Z 2112/2218 35018KT CAVOK"
    },
    {
      "icao": "HEMA",
      "alert": "OK",
      "vis_m": null,
      "fzfg": false,
      "metar_trigger": false,
      "taf_trigger": false,
      "metar": "",
      "taf": "TAF HEMA 211100Z 2112/2218 36020KT CAVOK"
    },
    {
      "icao": "HESH",
      "alert": "OK",
      "vis_m": null,
      "fzfg": false,
      "metar_trigger": false,
      "taf_trigger": false,
      "metar": "",
      "taf": "TAF HESH 211100Z 2112/2218 03015KT CAVOK"
    },
    {
      "icao": "HESX",
      "alert": "OK",
      "vis_m": null,
      "fzfg": false,
      "metar_trigger": false,
      "taf_trigger": false,
      "metar": "",
      "taf": "TAF HESX 211100Z 2112/2218 26012KT 9999 SCT025"
    },
    {
      "icao": "LATI",
      "alert": "OK",
      "vis_m": 9999,
      "fzfg": false,
      "metar_trigger": false,
      "taf_trigger": false,
      "metar": "METAR LATI 211220Z 31014KT 9999 FEW094 27/10 Q1015 NOSIG",
      "taf": "TAF LATI 211100Z 2112/2212 35012KT CAVOK TX30/2211Z TN11/2204Z"
    },
    {
      "icao": "LBPD",
      "alert": "OK",
      "vis_m": 9999,
      "fzfg": false,
      "metar_trigger": false,
      "taf_trigger": false,
      "metar": "METAR LBPD 211230Z AUTO 22012KT 9999 -SHRA SCT074/// OVC093/// 19/13 Q1013 TEMPO VRB20G30KT -TSRA SCT033CB",
      "taf": "TAF LBPD 211100Z 2112/2212 28014KT 9999 SCT070"
    },
    {
      "icao": "LBSF",
      "alert": "OK",
      "vis_m": 9999,
      "fzfg": false,
      "metar_trigger": false,
      "taf_trigger": false,
      "metar": "METAR LBSF 211230Z 30011KT 270V330 9999 BKN075 23/07 Q1015 NOSIG",
      "taf": "TAF LBSF 211100Z 2112/2212 29012KT 9999 BKN070"
    },
    {
      "icao": "LBWN",
      "alert": "OK",
      "vis_m": 9999,
      "fzfg": false,
      "metar_trigger": false,
      "taf_trigger": false,
      "metar": "METAR LBWN 211230Z 31016KT 9999 FEW020 BKN040 19/14 Q1011 TEMPO 5000 SHRA FEW030TCU",
      "taf": "TAF LBWN 211100Z 2112/2212 32010KT 9999 SCT045"
    },
    {
      "icao": "LCLK",
      "alert": "OK",
      "vis_m": 9999,
      "fzfg": false,
      "metar_trigger": false,
      "taf_trigger": false,
      "metar": "METAR LCLK 211200Z 21013KT 9999 FEW025CB SCT060 25/19 Q1007 NOSIG RMK CB TO SW",
      "taf": "TAF LCLK 211130Z 2112/2212 21019KT 9999 FEW025"
    },
    {
      "icao": "LCPH",
      "alert": "OK",
      "vis_m": 9999,
      "fzfg": false,
      "metar_trigger": false,
      "taf_trigger": false,
      "metar": "METAR LCPH 211200Z 31015KT 250V320 9999 FEW025CB 24/17 Q1008 NOSIG RMK DISTANT CB TO E",
      "taf": "TAF LCPH 211130Z 2112/2212 27014KT 9999 SCT015"
    },
    {
      "icao": "LEAL",
      "alert": "OK",
      "vis_m": 9999,
      "fzfg": false,
      "metar_trigger": false,
      "taf_trigger": false,
      "metar": "METAR LEAL 211200Z 08010KT 050V110 CAVOK 26/12 Q1025 NOSIG",
      "taf": "TAF LEAL 211100Z 2112/2212 09010KT CAVOK TX28/2112Z TN16/2205Z"
    },
    {
      "icao": "LEBB",
      "alert": "OK",
      "vis_m": 9999,
      "fzfg": false,
      "metar_trigger": false,
      "taf_trigger": false,
      "metar": "METAR LEBB 211200Z VRB02KT 9999 FEW048 34/16 Q1020 NOSIG",
      "taf": "TAF LEBB 211100Z 2112/2212 13009KT CAVOK TX35/2115Z TN17/2202Z"
    },
    {
      "icao": "LEBL",
      "alert": "OK",
      "vis_m": 9999,
      "fzfg": false,
      "metar_trigger": false,
      "taf_trigger": false,
      "metar": "METAR LEBL 211200Z 14008KT 100V170 CAVOK 24/16 Q1025 NOSIG",
      "taf": "TAF LEBL 211100Z 2112/2212 10008KT 9999 FEW020 TX25/2112Z TN17/2205Z"
    },
    {
      "icao": "LECH",
      "alert": "OK",
      "vis_m": 9999,
      "fzfg": false,
      "metar_trigger": false,
      "taf_trigger": false,
      "metar": "METAR LECH 211200Z AUTO 14008KT 100V160 CAVOK 25/13 Q1026",
      "taf": "TAF LECH 211100Z 2112/2212 VRB03KT CAVOK TX28/2112Z TN15/2205Z"
    },
    {
      "icao": "LEMD",
      "alert": "OK",
      "vis_m": 9999,
      "fzfg": false,
      "metar_trigger": false,
      "taf_trigger": false,
      "metar": "METAR LEMD 211200Z 15008KT 120V200 CAVOK 29/07 Q1025 NOSIG",
      "taf": "TAF LEMD 211100Z 2112/2218 VRB04KT CAVOK TX36/2216Z TN15/2205Z"
    },
    {
      "icao": "LEMG",
      "alert": "OK",
      "vis_m": 9999,
      "fzfg": false,
      "metar_trigger": false,
      "taf_trigger": false,
      "metar": "METAR LEMG 211200Z 14006KT CAVOK 27/05 Q1024 NOSIG",
      "taf": "TAF LEMG 211100Z 2112/2212 13010KT CAVOK TX28/2114Z TN17/2207Z"
    },
    {
      "icao": "LEVC",
      "alert": "OK",
      "vis_m": 9999,
      "fzfg": false,
      "metar_trigger": false,
      "taf_trigger": false,
      "metar": "METAR LEVC 211200Z 15009KT 120V190 CAVOK 28/10 Q1025 NOSIG",
      "taf": "TAF LEVC 211100Z 2112/2212 12009KT CAVOK TX28/2112Z TN16/2205Z"
    },
    {
      "icao": "LEXJ",
      "alert": "OK",
      "vis_m": 9999,
      "fzfg": false,
      "metar_trigger": false,
      "taf_trigger": false,
      "metar": "METAR LEXJ 211200Z 06006KT 020V130 CAVOK 22/18 Q1020",
      "taf": "TAF LEXJ 210800Z 2109/2209 VRB03KT CAVOK TX31/2113Z TN16/2203Z"
    },
    {
      "icao": "LEZG",
      "alert": "OK",
      "vis_m": 9999,
      "fzfg": false,
      "metar_trigger": false,
      "taf_trigger": false,
      "metar": "METAR LEZG 211200Z 09005KT 010V140 CAVOK 29/12 Q1024 NOSIG",
      "taf": "TAF LEZG 211100Z 2112/2212 10007KT CAVOK TX30/2114Z TN19/2205Z"
    },
    {
      "icao": "LEZL",
      "alert": "OK",
      "vis_m": 9999,
      "fzfg": false,
      "metar_trigger": false,
      "taf_trigger": false,
      "metar": "METAR LEZL 211200Z 09014KT 060V140 CAVOK 33/04 Q1020 NOSIG",
      "taf": "TAF LEZL 210800Z 2109/2209 09008KT CAVOK TX37/2115Z TN19/2207Z"
    },
    {
      "icao": "LFBD",
      "alert": "OK",
      "vis_m": 9999,
      "fzfg": false,
      "metar_trigger": false,
      "taf_trigger": false,
      "metar": "METAR LFBD 211200Z AUTO 12009KT CAVOK 27/12 Q1023 NOSIG",
      "taf": "TAF LFBD 211100Z 2112/2218 10010KT CAVOK TX34/2215Z TN16/2205Z"
    },
    {
      "icao": "LFLL",
      "alert": "OK",
      "vis_m": 9999,
      "fzfg": false,
      "metar_trigger": false,
      "taf_trigger": false,
      "metar": "METAR LFLL 211200Z 36004KT 310V040 CAVOK 24/11 Q1026 NOSIG",
      "taf": "TAF LFLL 211100Z 2112/2218 35004KT CAVOK"
    },
    {
      "icao": "LFLS",
      "alert": "OK",
      "vis_m": 9999,
      "fzfg": false,
      "metar_trigger": false,
      "taf_trigger": false,
      "metar": "METAR LFLS 211200Z AUTO 36004KT 300V090 CAVOK 23/12 Q1026 NOSIG",
      "taf": "TAF LFLS 210800Z 2109/2209 12005KT CAVOK"
    },
    {
      "icao": "LFMN",
      "alert": "OK",
      "vis_m": 9999,
      "fzfg": false,
      "metar_trigger": false,
      "taf_trigger": false,
      "metar": "METAR LFMN 211200Z 17005KT CAVOK 22/16 Q1025 NOSIG",
      "taf": "TAF LFMN 210800Z 2109/2215 17005KT CAVOK"
    },
    {
      "icao": "LFOB",
      "alert": "OK",
      "vis_m": 9999,
      "fzfg": false,
      "metar_trigger": false,
      "taf_trigger": false,
      "metar": "METAR LFOB 211200Z AUTO 13005KT 100V160 9999 FEW040 SCT047 20/13 Q1028 NOSIG",
      "taf": "TAF LFOB 211100Z 2112/2212 13006KT 9999 SCT040 BKN060"
    },
    {
      "icao": "LFPO",
      "alert": "OK",
      "vis_m": 9999,
      "fzfg": false,
      "metar_trigger": false,
      "taf_trigger": false,
      "metar": "METAR LFPO 211200Z VRB04KT 9999 BKN043 22/12 Q1027 NOSIG",
      "taf": "TAF LFPO 211100Z 2112/2218 12005KT CAVOK"
    },
    {
      "icao": "LFSB",
      "alert": "OK",
      "vis_m": 9999,
      "fzfg": false,
      "metar_trigger": false,
      "taf_trigger": false,
      "metar": "METAR LFSB 211200Z AUTO VRB03KT CAVOK 23/13 Q1027 NOSIG",
      "taf": "TAF LFSB 211100Z 2112/2212 01005KT CAVOK"
    },
    {
      "icao": "LGAV",
      "alert": "OK",
      "vis_m": 9999,
      "fzfg": false,
      "metar_trigger": false,
      "taf_trigger": false,
      "metar": "METAR LGAV 211220Z 07007KT 9999 FEW030 SCT040 24/12 Q1014 NOSIG",
      "taf": "TAF LGAV 211100Z 2112/2212 VRB03KT 9999 FEW025"
    },
    {
      "icao": "LGTS",
      "alert": "OK",
      "vis_m": 9999,
      "fzfg": false,
      "metar_trigger": false,
      "taf_trigger": false,
      "metar": "METAR LGTS 211220Z COR 29008KT 9999 FEW025 27/14 Q1012 NOSIG",
      "taf": "TAF LGTS 211100Z 2112/2212 32015KT 9999 FEW030"
    },
    {
      "icao": "LHBP",
      "alert": "OK",
      "vis_m": 9999,
      "fzfg": false,
      "metar_trigger": false,
      "taf_trigger": false,
      "metar": "METAR LHBP 211200Z 33012KT 9999 -SHRA FEW055CB SCT057TCU BKN090 22/10 Q1021 TEMPO 36016G28KT 4500 SHRA TSRA",
      "taf": "TAF LHBP 211115Z 2112/2212 35009KT CAVOK"
    },
    {
      "icao": "LHDC",
      "alert": "OK",
      "vis_m": 9999,
      "fzfg": false,
      "metar_trigger": false,
      "taf_trigger": false,
      "metar": "METAR LHDC 211145Z AUTO 02014KT 350V050 CAVOK 24/09 Q1019 NOSIG",
      "taf": "TAF LHDC 211115Z 2112/2121 01015KT CAVOK"
    },
    {
      "icao": "LIBD",
      "alert": "OK",
      "vis_m": 9999,
      "fzfg": false,
      "metar_trigger": false,
      "taf_trigger": false,
      "metar": "METAR LIBD 211220Z 33012KT 290V010 CAVOK 22/14 Q1019",
      "taf": "TAF LIBD 211100Z 2112/2212 33016KT CAVOK"
    },
    {
      "icao": "LIBG",
      "alert": "OK",
      "vis_m": 9999,
      "fzfg": false,
      "metar_trigger": false,
      "taf_trigger": false,
      "metar": "METAR LIBG 211220Z AUTO 36015KT 330V030 9999 NCD 26/07 Q1018",
      "taf": "TAF LIBG 211100Z 2112/2212 32015KT CAVOK"
    },
    {
      "icao": "LIBP",
      "alert": "OK",
      "vis_m": 9999,
      "fzfg": false,
      "metar_trigger": false,
      "taf_trigger": false,
      "metar": "METAR LIBP 211220Z AUTO 05008KT 360V080 9999 NCD 25/10 Q1023",
      "taf": "TAF LIBP 211100Z 2112/2212 02013KT 9999 FEW050"
    },
    {
      "icao": "LIBR",
      "alert": "OK",
      "vis_m": 9999,
      "fzfg": false,
      "metar_trigger": false,
      "taf_trigger": false,
      "metar": "METAR LIBR 211220Z 34013KT CAVOK 22/16 Q1017",
      "taf": "TAF LIBR 211100Z 2112/2212 31016KT CAVOK"
    },
    {
      "icao": "LICA",
      "alert": "OK",
      "vis_m": 9999,
      "fzfg": false,
      "metar_trigger": false,
      "taf_trigger": false,
      "metar": "METAR LICA 211220Z AUTO 26016KT 9999 SCT015/// 21/16 Q1020",
      "taf": "TAF LICA 211100Z 2112/2212 26015KT 9999 FEW030"
    },
    {
      "icao": "LICC",
      "alert": "OK",
      "vis_m": 9999,
      "fzfg": false,
      "metar_trigger": false,
      "taf_trigger": false,
      "metar": "METAR LICC 211220Z 06010KT 9999 SCT100 23/15 Q1019",
      "taf": "TAF LICC 211100Z 2112/2212 08010KT CAVOK"
    },
    {
      "icao": "LICJ",
      "alert": "OK",
      "vis_m": 9999,
      "fzfg": false,
      "metar_trigger": false,
      "taf_trigger": false,
      "metar": "METAR LICJ 211220Z 35007KT 9999 BKN016 21/16 Q1022",
      "taf": "TAF LICJ 211100Z 2112/2212 35012KT CAVOK"
    },
    {
      "icao": "LIMC",
      "alert": "OK",
      "vis_m": 9999,
      "fzfg": false,
      "metar_trigger": false,
      "taf_trigger": false,
      "metar": "METAR LIMC 211220Z 21006KT 170V250 CAVOK 26/09 Q1024 NOSIG",
      "taf": "TAF LIMC 211100Z 2112/2218 VRB05KT CAVOK"
    },
    {
      "icao": "LIME",
      "alert": "OK",
      "vis_m": 9999,
      "fzfg": false,
      "metar_trigger": false,
      "taf_trigger": false,
      "metar": "METAR LIME 211220Z 18006KT 120V240 CAVOK 25/08 Q1024 NOSIG",
      "taf": "TAF LIME 211100Z 2112/2212 VRB05KT CAVOK"
    },
    {
      "icao": "LIMF",
      "alert": "OK",
      "vis_m": 9999,
      "fzfg": false,
      "metar_trigger": false,
      "taf_trigger": false,
      "metar": "METAR LIMF 211220Z VRB02KT CAVOK 26/09 Q1024",
      "taf": "TAF LIMF 211100Z 2112/2212 VRB04KT CAVOK"
    },
    {
      "icao": "LIMJ",
      "alert": "OK",
      "vis_m": 9999,
      "fzfg": false,
      "metar_trigger": false,
      "taf_trigger": false,
      "metar": "METAR LIMJ 211220Z 22005KT CAVOK 20/16 Q1024",
      "taf": "TAF LIMJ 211100Z 2112/2212 VRB05KT CAVOK"
    },
    {
      "icao": "LIPE",
      "alert": "OK",
      "vis_m": 9999,
      "fzfg": false,
      "metar_trigger": false,
      "taf_trigger": false,
      "metar": "METAR LIPE 211220Z VRB05KT 9999 FEW050 26/13 Q1023",
      "taf": "TAF LIPE 211100Z 2112/2212 VRB06KT CAVOK"
    },
    {
      "icao": "LIPH",
      "alert": "OK",
      "vis_m": 9999,
      "fzfg": false,
      "metar_trigger": false,
      "taf_trigger": false,
      "metar": "METAR LIPH 211220Z 17006KT 150V220 CAVOK 26/09 Q1024",
      "taf": "TAF LIPH 211100Z 2112/2212 18010KT CAVOK"
    },
    {
      "icao": "LIPQ",
      "alert": "OK",
      "vis_m": 9999,
      "fzfg": false,
      "metar_trigger": false,
      "taf_trigger": false,
      "metar": "METAR LIPQ 211220Z AUTO VRB04KT 9999 FEW088/// 28/07 Q1023",
      "taf": "TAF LIPQ 211100Z 2112/2212 VRB05KT 9999 FEW050"
    },
    {
      "icao": "LIPR",
      "alert": "OK",
      "vis_m": 9999,
      "fzfg": false,
      "metar_trigger": false,
      "taf_trigger": false,
      "metar": "METAR LIPR 211220Z 02005KT 350V070 CAVOK 24/12 Q1024",
      "taf": "TAF LIPR 211100Z 2112/2212 VRB06KT CAVOK"
    },
    {
      "icao": "LIPX",
      "alert": "OK",
      "vis_m": 9999,
      "fzfg": false,
      "metar_trigger": false,
      "taf_trigger": false,
      "metar": "METAR LIPX 211220Z 09003KT 010V150 CAVOK 26/10 Q1024",
      "taf": "TAF LIPX 211100Z 2112/2212 VRB05KT CAVOK"
    },
    {
      "icao": "LIPY",
      "alert": "OK",
      "vis_m": 9999,
      "fzfg": false,
      "metar_trigger": false,
      "taf_trigger": false,
      "metar": "METAR LIPY 211220Z AUTO 34009KT 9999 NCD 22/16 Q1024",
      "taf": "TAF LIPY 211100Z 2112/2212 34010KT CAVOK"
    },
    {
      "icao": "LIPZ",
      "alert": "OK",
      "vis_m": 9999,
      "fzfg": false,
      "metar_trigger": false,
      "taf_trigger": false,
      "metar": "METAR LIPZ 211220Z 17006KT CAVOK 24/11 Q1024 NOSIG",
      "taf": "TAF LIPZ 211100Z 2112/2218 17010KT CAVOK"
    },
    {
      "icao": "LIRF",
      "alert": "OK",
      "vis_m": 9999,
      "fzfg": false,
      "metar_trigger": false,
      "taf_trigger": false,
      "metar": "METAR LIRF 211220Z 28013KT 9999 FEW040 26/09 Q1021 NOSIG",
      "taf": "TAF LIRF 211100Z 2112/2218 29013KT CAVOK"
    },
    {
      "icao": "LIRN",
      "alert": "OK",
      "vis_m": 9999,
      "fzfg": false,
      "metar_trigger": false,
      "taf_trigger": false,
      "metar": "METAR LIRN 211220Z 03012KT 350V050 9999 SCT070 26/09 Q1021 NOSIG",
      "taf": "TAF LIRN 211100Z 2112/2212 02015KT 9999 FEW040"
    },
    {
      "icao": "LIRP",
      "alert": "OK",
      "vis_m": 9999,
      "fzfg": false,
      "metar_trigger": false,
      "taf_trigger": false,
      "metar": "METAR LIRP 211215Z 33007KT 9999 FEW025 26/15 Q1023 NOSIG",
      "taf": "TAF LIRP 211100Z 2112/2212 30010KT 9999 SCT060"
    },
    {
      "icao": "LIRZ",
      "alert": "OK",
      "vis_m": 9999,
      "fzfg": false,
      "metar_trigger": false,
      "taf_trigger": false,
      "metar": "METAR LIRZ 211220Z AUTO 06013KT 9999 NCD 25/09 Q1023",
      "taf": "TAF LIRZ 211100Z 2112/2212 03015KT 9999 FEW030"
    },
    {
      "icao": "LJLJ",
      "alert": "OK",
      "vis_m": 9999,
      "fzfg": false,
      "metar_trigger": false,
      "taf_trigger": false,
      "metar": "METAR LJLJ 211200Z 01003KT 280V070 9999 FEW070 BKN080 23/08 Q1025 NOSIG",
      "taf": "TAF LJLJ 211100Z 2112/2212 32005KT 9999 FEW060 BKN080"
    },
    {
      "icao": "LKMT",
      "alert": "OK",
      "vis_m": 9999,
      "fzfg": false,
      "metar_trigger": false,
      "taf_trigger": false,
      "metar": "METAR LKMT 211200Z 05006KT 9999 SCT033 18/12 Q1026 NOSIG",
      "taf": "TAF LKMT 211100Z 2112/2212 35011KT 9999 SCT035"
    },
    {
      "icao": "LKPR",
      "alert": "OK",
      "vis_m": 9999,
      "fzfg": false,
      "metar_trigger": false,
      "taf_trigger": false,
      "metar": "METAR LKPR 211200Z 28008KT 230V310 9999 BKN048 19/09 Q1027 NOSIG",
      "taf": "TAF LKPR 211100Z 2112/2218 33009KT CAVOK"
    },
    {
      "icao": "LLBG",
      "alert": "OK",
      "vis_m": 9999,
      "fzfg": false,
      "metar_trigger": false,
      "taf_trigger": false,
      "metar": "METAR LLBG 211220Z 27017KT 9999 BKN026 22/15 Q1012 NOSIG",
      "taf": "TAF LLBG 211102Z 2112/2212 26015KT 9999 SCT030 TX22/2112Z TN18/2203Z"
    },
    {
      "icao": "LMML",
      "alert": "OK",
      "vis_m": 9999,
      "fzfg": false,
      "metar_trigger": false,
      "taf_trigger": false,
      "metar": "METAR LMML 211215Z 36006KT 310V050 CAVOK 24/09 Q1020 NOSIG",
      "taf": "TAF LMML 211100Z 2112/2212 29007KT 9999 FEW020"
    },
    {
      "icao": "LOWW",
      "alert": "OK",
      "vis_m": 9999,
      "fzfg": false,
      "metar_trigger": false,
      "taf_trigger": false,
      "metar": "METAR LOWW 211220Z 31011KT 280V350 9999 FEW044 22/11 Q1026 NOSIG",
      "taf": "TAF LOWW 211115Z 2112/2218 32015G25KT 9999 SCT050 TX24/2213Z TN14/2203Z"
    },
    {
      "icao": "LPFR",
      "alert": "OK",
      "vis_m": 9999,
      "fzfg": false,
      "metar_trigger": false,
      "taf_trigger": false,
      "metar": "METAR LPFR 211200Z 09015KT CAVOK 28/09 Q1021",
      "taf": "TAF LPFR 211100Z 2112/2212 11015KT CAVOK"
    },
    {
      "icao": "LPMA",
      "alert": "OK",
      "vis_m": 9999,
      "fzfg": false,
      "metar_trigger": false,
      "taf_trigger": false,
      "metar": "METAR LPMA 211200Z 15006KT CAVOK 21/15 Q1019",
      "taf": "TAF LPMA 211100Z 2112/2212 20010KT 9999 SCT015"
    },
    {
      "icao": "LPPR",
      "alert": "OK",
      "vis_m": 9999,
      "fzfg": false,
      "metar_trigger": false,
      "taf_trigger": false,
      "metar": "METAR LPPR 211200Z 29005KT 260V330 CAVOK 23/13 Q1022",
      "taf": "TAF LPPR 211100Z 2112/2212 26007KT CAVOK"
    },
    {
      "icao": "LPPS",
      "alert": "OK",
      "vis_m": 9999,
      "fzfg": false,
      "metar_trigger": false,
      "taf_trigger": false,
      "metar": "METAR LPPS 211200Z 36015KT 330V030 9999 FEW015 21/15 Q1020",
      "taf": "TAF LPPS 211100Z 2112/2218 35013KT 9999 SCT015"
    },
    {
      "icao": "LPPT",
      "alert": "OK",
      "vis_m": 9999,
      "fzfg": false,
      "metar_trigger": false,
      "taf_trigger": false,
      "metar": "METAR LPPT 211200Z 14007KT 110V170 CAVOK 28/11 Q1021",
      "taf": "TAF LPPT 211100Z 2112/2218 15008KT CAVOK"
    },
    {
      "icao": "LQBK",
      "alert": "OK",
      "vis_m": 9999,
      "fzfg": false,
      "metar_trigger": false,
      "taf_trigger": false,
      "metar": "METAR LQBK 211200Z VRB04KT 9999 -RA FEW017 FEW035TCU BKN040 17/13 Q1023 BECMG NSC",
      "taf": "TAF LQBK 211100Z 2112/2212 28005KT 9999 SCT045 TX21/2113Z TN10/2204Z"
    },
    {
      "icao": "LQSA",
      "alert": "OK",
      "vis_m": 9999,
      "fzfg": false,
      "metar_trigger": false,
      "taf_trigger": false,
      "metar": "METAR LQSA 211200Z 32009KT 9999 SCT055 19/09 Q1022 NOSIG",
      "taf": "TAF LQSA 211100Z 2112/2212 30008KT 9999 SCT050 TX20/2113Z TN08/2204Z"
    },
    {
      "icao": "LQTZ",
      "alert": "OK",
      "vis_m": 9999,
      "fzfg": false,
      "metar_trigger": false,
      "taf_trigger": false,
      "metar": "METAR LQTZ 211200Z 02008KT 340V060 9999 FEW040 SCT055 BKN065 20/10 Q1022",
      "taf": "TAF LQTZ 211100Z 2112/2212 03005KT 9999 SCT040 TX23/2113Z TN10/2204Z"
    },
    {
      "icao": "LRBC",
      "alert": "OK",
      "vis_m": 9999,
      "fzfg": false,
      "metar_trigger": false,
      "taf_trigger": false,
      "metar": "METAR LRBC 211200Z 33016KT 9999 SCT017 BKN025 17/15 Q1014",
      "taf": "TAF LRBC 211100Z 2112/2121 33016KT 9999 BKN020 FEW035CB BKN040"
    },
    {
      "icao": "LRBS",
      "alert": "OK",
      "vis_m": 9999,
      "fzfg": false,
      "metar_trigger": false,
      "taf_trigger": false,
      "metar": "METAR LRBS 211200Z 32004KT 220V030 9999 FEW017 17/14 Q1013 NOSIG",
      "taf": "TAF LRBS 211100Z 2112/2212 VRB04KT CAVOK"
    },
    {
      "icao": "LRBV",
      "alert": "OK",
      "vis_m": 9999,
      "fzfg": false,
      "metar_trigger": false,
      "taf_trigger": false,
      "metar": "METAR LRBV 211200Z 31011KT 280V350 9999 VCSH FEW010 BKN028 FEW040CB 13/12 Q1017 RESHRA",
      "taf": "TAF LRBV 211100Z 2112/2121 30012KT 9999 SCT020 BKN045"
    },
    {
      "icao": "LRCL",
      "alert": "OK",
      "vis_m": 9999,
      "fzfg": false,
      "metar_trigger": false,
      "taf_trigger": false,
      "metar": "METAR LRCL 211200Z 01005KT 350V050 9999 -RA BKN070 17/15 Q1019",
      "taf": "TAF LRCL 211100Z 2112/2121 31005KT 9999 BKN045"
    },
    {
      "icao": "LRCV",
      "alert": "OK",
      "vis_m": 9999,
      "fzfg": false,
      "metar_trigger": false,
      "taf_trigger": false,
      "metar": "METAR LRCV 211200Z 01004KT 310V080 9999 VCSH SCT046 FEW048CB 25/12 Q1014",
      "taf": "TAF LRCV 211100Z 2112/2121 VRB04KT CAVOK"
    },
    {
      "icao": "LRIA",
      "alert": "OK",
      "vis_m": 9999,
      "fzfg": false,
      "metar_trigger": false,
      "taf_trigger": false,
      "metar": "METAR LRIA 211200Z 31012KT 9999 BKN012 19/16 Q1014",
      "taf": "TAF LRIA 211100Z 2112/2121 32016KT 9999 FEW035CB BKN040"
    },
    {
      "icao": "LROP",
      "alert": "OK",
      "vis_m": 9999,
      "fzfg": false,
      "metar_trigger": false,
      "taf_trigger": false,
      "metar": "METAR LROP 211200Z 30007KT CAVOK 17/16 Q1013 NOSIG",
      "taf": "TAF LROP 211100Z 2112/2212 VRB04KT CAVOK"
    },
    {
      "icao": "LRSB",
      "alert": "OK",
      "vis_m": 9000,
      "fzfg": false,
      "metar_trigger": false,
      "taf_trigger": false,
      "metar": "METAR LRSB 211200Z 31007KT 9000 -SHRA FEW033 SCT045CB BKN060 16/13 Q1019",
      "taf": "TAF LRSB 211100Z 2112/2212 33012KT 9999 SCT040 BKN080"
    },
    {
      "icao": "LRSM",
      "alert": "OK",
      "vis_m": 9999,
      "fzfg": false,
      "metar_trigger": false,
      "taf_trigger": false,
      "metar": "METAR LRSM 211200Z 01008KT CAVOK 24/10 Q1018",
      "taf": "TAF LRSM 211100Z 2112/2121 36012KT CAVOK"
    },
    {
      "icao": "LRSV",
      "alert": "OK",
      "vis_m": 9999,
      "fzfg": false,
      "metar_trigger": false,
      "taf_trigger": false,
      "metar": "METAR LRSV 211200Z 31015KT 9999 -RA BKN020 16/14 Q1016",
      "taf": "TAF LRSV 211100Z 2112/2121 31016KT 9999 FEW035CB BKN040"
    },
    {
      "icao": "LRTM",
      "alert": "OK",
      "vis_m": 9999,
      "fzfg": false,
      "metar_trigger": false,
      "taf_trigger": false,
      "metar": "METAR LRTM 211200Z 29012KT 9999 -RA FEW025 SCT045 16/14 Q1018",
      "taf": "TAF LRTM 211100Z 2112/2121 31007KT 9999 BKN045"
    },
    {
      "icao": "LRTR",
      "alert": "OK",
      "vis_m": 9999,
      "fzfg": false,
      "metar_trigger": false,
      "taf_trigger": false,
      "metar": "METAR LRTR 211200Z 36015KT CAVOK 25/09 Q1018",
      "taf": "TAF LRTR 211100Z 2112/2212 35016KT CAVOK"
    },
    {
      "icao": "LTAC",
      "alert": "OK",
      "vis_m": 9999,
      "fzfg": false,
      "metar_trigger": false,
      "taf_trigger": false,
      "metar": "METAR LTAC 211220Z 35010KT 310V010 9999 TS FEW030CB BKN035 16/10 Q1011 TEMPO 4000 TSRA RMK RWY21C 32011KT RWY03L 34009KT RWY21R 32009KT RWY03R 34010KT RWY21L 34010KT",
      "taf": "TAF LTAC 211040Z 2112/2212 VRB02KT 9999 SCT040 SCT100"
    },
    {
      "icao": "LTFM",
      "alert": "OK",
      "vis_m": 9999,
      "fzfg": false,
      "metar_trigger": false,
      "taf_trigger": false,
      "metar": "METAR LTFM 211220Z 36014KT 9999 BKN032 20/13 Q1012 NOSIG RMK RWY17L 35011KT RWY34L 35014KT RWY16R 35011KT RWY36 35013KT 310V010 RWY18 35012G24KT 320V020",
      "taf": "TAF LTFM 211040Z 2112/2218 35010KT 9999 SCT032 BKN100"
    },
    {
      "icao": "LUKK",
      "alert": "OK",
      "vis_m": 9999,
      "fzfg": false,
      "metar_trigger": false,
      "taf_trigger": false,
      "metar": "METAR LUKK 211200Z 03005KT 360V060 9999 SCT035CB 22/17 Q1011 TEMPO 36016G26KT 1200 TSRA BKN012 BKN020CB",
      "taf": "TAF LUKK 211108Z 2112/2212 01014KT 9999 SCT020"
    },
    {
      "icao": "LWOH",
      "alert": "OK",
      "vis_m": 9999,
      "fzfg": false,
      "metar_trigger": false,
      "taf_trigger": false,
      "metar": "METAR LWOH 211220Z 30009KT 260V330 9999 SCT040 SCT090 21/09 Q1017",
      "taf": "TAF LWOH 210825Z 2109/2209 36012KT 9999 SCT050"
    },
    {
      "icao": "LWSK",
      "alert": "OK",
      "vis_m": 9999,
      "fzfg": false,
      "metar_trigger": false,
      "taf_trigger": false,
      "metar": "METAR LWSK 211220Z 35016KT 320V020 9999 SCT060 25/07 Q1016 NOSIG",
      "taf": "TAF LWSK 210825Z 2109/2209 33015KT CAVOK"
    },
    {
      "icao": "LYBE",
      "alert": "OK",
      "vis_m": 9999,
      "fzfg": false,
      "metar_trigger": false,
      "taf_trigger": false,
      "metar": "METAR LYBE 211200Z 35016KT CAVOK 24/10 Q1020 NOSIG",
      "taf": "TAF LYBE 211100Z 2112/2212 34014KT CAVOK TX25/2113Z TN13/2204Z"
    },
    {
      "icao": "LYNI",
      "alert": "OK",
      "vis_m": 9999,
      "fzfg": false,
      "metar_trigger": false,
      "taf_trigger": false,
      "metar": "METAR LYNI 211200Z 32019G29KT 9999 FEW050 23/09 Q1017 NOSIG",
      "taf": ""
    },
    {
      "icao": "LYPG",
      "alert": "OK",
      "vis_m": 9999,
      "fzfg": false,
      "metar_trigger": false,
      "taf_trigger": false,
      "metar": "METAR LYPG 211200Z 03007KT 350V060 9999 FEW050 SCT090 27/05 Q1016 NOSIG",
      "taf": "TAF LYPG 211100Z 2112/2212 34010KT CAVOK TX28/2112Z TN18/2204Z"
    },
    {
      "icao": "LZIB",
      "alert": "OK",
      "vis_m": 9999,
      "fzfg": false,
      "metar_trigger": false,
      "taf_trigger": false,
      "metar": "METAR LZIB 211200Z 30013KT 270V340 9999 SCT049 23/10 Q1024 NOSIG",
      "taf": "TAF LZIB 211115Z 2112/2212 33015KT 9999 SCT040"
    },
    {
      "icao": "LZKZ",
      "alert": "OK",
      "vis_m": 9999,
      "fzfg": false,
      "metar_trigger": false,
      "taf_trigger": false,
      "metar": "METAR LZKZ 211200Z 01017KT CAVOK 23/09 Q1020 NOSIG",
      "taf": "TAF LZKZ 211115Z 2112/2212 01018KT CAVOK"
    },
    {
      "icao": "LZTT",
      "alert": "OK",
      "vis_m": 9999,
      "fzfg": false,
      "metar_trigger": false,
      "taf_trigger": false,
      "metar": "METAR LZTT 211200Z 36009KT 310V030 9999 BKN060 19/06 Q1023 NOSIG",
      "taf": "TAF LZTT 211115Z 2112/2212 03010KT 9999 SCT065"
    },
    {
      "icao": "OEJN",
      "alert": "OK",
      "vis_m": 9999,
      "fzfg": false,
      "metar_trigger": false,
      "taf_trigger": false,
      "metar": "METAR OEJN 211200Z 28012KT CAVOK 34/20 Q1007 NOSIG",
      "taf": "TAF OEJN 211100Z 2112/2218 29010KT CAVOK"
    },
    {
      "icao": "OEMA",
      "alert": "OK",
      "vis_m": 9999,
      "fzfg": false,
      "metar_trigger": false,
      "taf_trigger": false,
      "metar": "METAR OEMA 211200Z 24017KT 9999 FEW045 42/M03 Q1009 NOSIG",
      "taf": "TAF OEMA 211100Z 2112/2218 28018KT 7000 NSC"
    },
    {
      "icao": "OJAI",
      "alert": "OK",
      "vis_m": 4000,
      "fzfg": false,
      "metar_trigger": false,
      "taf_trigger": false,
      "metar": "METAR OJAI 211200Z 25018KT 4000 BLDU BKN040 21/09 Q1014 NOSIG",
      "taf": "TAF OJAI 211044Z 2112/2218 25012KT 5000 HZ FEW030"
    },
    {
      "icao": "OMAA",
      "alert": "OK",
      "vis_m": 9999,
      "fzfg": false,
      "metar_trigger": false,
      "taf_trigger": false,
      "metar": "METAR OMAA 211230Z 30013KT CAVOK 35/13 Q1003 NOSIG",
      "taf": "TAF OMAA 211100Z 2112/2218 32015KT 8000 NSC"
    },
    {
      "icao": "OMDB",
      "alert": "OK",
      "vis_m": 9999,
      "fzfg": false,
      "metar_trigger": false,
      "taf_trigger": false,
      "metar": "METAR OMDB 211230Z 31010KT 190V350 CAVOK 36/12 Q1003 NOSIG",
      "taf": "TAF OMDB 211100Z 2112/2218 28010KT 8000 NSC"
    },
    {
      "icao": "UAAA",
      "alert": "OK",
      "vis_m": 9999,
      "fzfg": false,
      "metar_trigger": false,
      "taf_trigger": false,
      "metar": "METAR UAAA 211200Z 26002MPS 9999 SCT050CB OVC100 27/09 Q1002 NOSIG",
      "taf": "TAF UAAA 211102Z 2112/2212 21003G08MPS 9999 BKN050CB OVC100 TX22/2210Z TN14/2200Z"
    },
    {
      "icao": "UBBB",
      "alert": "OK",
      "vis_m": 9999,
      "fzfg": false,
      "metar_trigger": false,
      "taf_trigger": false,
      "metar": "METAR UBBB 211230Z 17012KT 9999 FEW060CB 22/16 Q1007 NOSIG",
      "taf": "TAF UBBB 211048Z 2112/2212 18012KT CAVOK TX24/2112Z TN15/2200Z"
    },
    {
      "icao": "UDSG",
      "alert": "OK",
      "vis_m": 9999,
      "fzfg": false,
      "metar_trigger": false,
      "taf_trigger": false,
      "metar": "METAR UDSG 211200Z 03003KT 330V090 9999 SCT043CB 14/05 Q1011 NOSIG",
      "taf": "TAF UDSG 211100Z 2112/2212 24006KT 9999 BKN040"
    },
    {
      "icao": "UDYZ",
      "alert": "OK",
      "vis_m": 9999,
      "fzfg": false,
      "metar_trigger": false,
      "taf_trigger": false,
      "metar": "METAR UDYZ 211200Z 17004KT 110V200 9999 SCT043CB 20/08 Q1007 NOSIG",
      "taf": "TAF UDYZ 211100Z 2112/2212 24006KT 9999 SCT040"
    },
    {
      "icao": "UGKO",
      "alert": "OK",
      "vis_m": 9999,
      "fzfg": false,
      "metar_trigger": false,
      "taf_trigger": false,
      "metar": "METAR UGKO 211200Z 29007KT 9999 FEW007 SCT025CB BKN029 16/15 Q1008 NOSIG",
      "taf": "TAF UGKO 211100Z 2112/2212 26007KT 9999 BKN050 TX22/2211Z TN14/2202Z"
    }
  ]
}