{
  "ts_utc": "2026-02-07T08:26:18Z",
  "threshold_m": 150,
  "source": "stations_override.txt (ICAO list) + aviationweather.gov (METAR/TAF raw)",
  "station_count": 159,
  "stations": [
    {
      "icao": "BIKF",
      "alert": "OK",
      "vis_m": 9999,
      "fzfg": false,
      "metar_trigger": false,
      "taf_trigger": false,
      "metar": "METAR BIKF 070800Z 06006KT CAVOK 02/M01 Q1008",
      "taf": "TAF BIKF 070740Z 0709/0809 09008KT CAVOK TX03/0714Z TNM02/0803Z"
    },
    {
      "icao": "BKPR",
      "alert": "OK",
      "vis_m": null,
      "fzfg": false,
      "metar_trigger": false,
      "taf_trigger": false,
      "metar": "",
      "taf": "TAF BKPR 070530Z 0706/0806 25010KT 9999 SCT020 BKN050"
    },
    {
      "icao": "EBCI",
      "alert": "OK",
      "vis_m": 9999,
      "fzfg": false,
      "metar_trigger": false,
      "taf_trigger": false,
      "metar": "METAR EBCI 070820Z 20007KT CAVOK 06/05 Q1002 NOSIG",
      "taf": ""
    },
    {
      "icao": "EDDB",
      "alert": "OK",
      "vis_m": 500,
      "fzfg": false,
      "metar_trigger": false,
      "taf_trigger": false,
      "metar": "METAR EDDB 070820Z AUTO VRB02KT 0500 0350 R06L/0900N R06R/1100U FG VV003 01/01 Q1004 TEMPO 0300 FG BKN001",
      "taf": "TAF EDDB 070500Z 0706/0806 09004KT 1200 BR OVC003"
    },
    {
      "icao": "EDDH",
      "alert": "OK",
      "vis_m": 3200,
      "fzfg": false,
      "metar_trigger": false,
      "taf_trigger": false,
      "metar": "METAR EDDH 070820Z AUTO 10006KT 3200 -RA BR OVC003 01/01 Q1004 TEMPO 2000 DZ",
      "taf": "TAF EDDH 070500Z 0706/0812 08007KT 3500 BR OVC003"
    },
    {
      "icao": "EDDK",
      "alert": "OK",
      "vis_m": 6000,
      "fzfg": false,
      "metar_trigger": false,
      "taf_trigger": false,
      "metar": "METAR EDDK 070820Z AUTO 12003KT 090V150 6000 FEW028 06/05 Q1003 BECMG 9999",
      "taf": ""
    },
    {
      "icao": "EDDN",
      "alert": "OK",
      "vis_m": 2400,
      "fzfg": false,
      "metar_trigger": false,
      "taf_trigger": false,
      "metar": "METAR EDDN 070820Z AUTO 14003KT 100V210 2400 1300 R28/P2000N BR OVC005 04/04 Q1004 TEMPO 1200 BR",
      "taf": "TAF EDDN 070500Z 0706/0806 13005KT 5000 BR OVC007"
    },
    {
      "icao": "EDDS",
      "alert": "OK",
      "vis_m": 9999,
      "fzfg": false,
      "metar_trigger": false,
      "taf_trigger": false,
      "metar": "METAR EDDS 070820Z AUTO VRB02KT 9999 -SHRA BKN022 SCT///TCU 06/05 Q1003 RESHRA NOSIG",
      "taf": "TAF EDDS 070500Z 0706/0806 VRB02KT 9999 SCT035"
    },
    {
      "icao": "EDFH",
      "alert": "OK",
      "vis_m": 9999,
      "fzfg": false,
      "metar_trigger": false,
      "taf_trigger": false,
      "metar": "METAR EDFH 070750Z 25003KT 9999 SCT006 OVC009 05/05 Q1002",
      "taf": "TAF EDFH 070500Z 0706/0806 24005KT 9999 SCT004 BKN020"
    },
    {
      "icao": "EDJA",
      "alert": "OK",
      "vis_m": 9999,
      "fzfg": false,
      "metar_trigger": false,
      "taf_trigger": false,
      "metar": "METAR EDJA 070750Z 23006KT 9999 FEW007 OVC032 04/03 Q1004",
      "taf": "TAF EDJA 070800Z 0709/0718 VRB02KT 9999 BKN040"
    },
    {
      "icao": "EDLW",
      "alert": "OK",
      "vis_m": 9999,
      "fzfg": false,
      "metar_trigger": false,
      "taf_trigger": false,
      "metar": "METAR EDLW 070750Z 17008KT 9999 FEW030 07/06 Q1001",
      "taf": "TAF EDLW 070500Z 0706/0806 18007KT 9999 SCT030"
    },
    {
      "icao": "EDNY",
      "alert": "OK",
      "vis_m": 9999,
      "fzfg": false,
      "metar_trigger": false,
      "taf_trigger": false,
      "metar": "METAR EDNY 070750Z VRB01KT 9999 BCFG BKN045 04/04 Q1004",
      "taf": "TAF EDNY 070800Z 0709/0718 VRB02KT 9999 BKN040"
    },
    {
      "icao": "EDSB",
      "alert": "OK",
      "vis_m": 9999,
      "fzfg": false,
      "metar_trigger": false,
      "taf_trigger": false,
      "metar": "METAR EDSB 070750Z 24002KT 9999 BKN028 BKN058 07/07 Q1004",
      "taf": "TAF EDSB 070500Z 0706/0806 21004KT 9999 BKN025"
    },
    {
      "icao": "EETN",
      "alert": "OK",
      "vis_m": 9999,
      "fzfg": false,
      "metar_trigger": false,
      "taf_trigger": false,
      "metar": "METAR EETN 070820Z 05006KT 9999 FEW007 M09/M10 Q1015 NOSIG",
      "taf": "TAF EETN 070530Z 0706/0806 05010KT 8000 BKN005 OVC010"
    },
    {
      "icao": "EFTU",
      "alert": "OK",
      "vis_m": 9999,
      "fzfg": false,
      "metar_trigger": false,
      "taf_trigger": false,
      "metar": "METAR EFTU 070820Z AUTO 04005KT 010V070 CAVOK M18/M21 Q1017",
      "taf": "TAF EFTU 070529Z 0706/0806 02003KT CAVOK"
    },
    {
      "icao": "EGBB",
      "alert": "OK",
      "vis_m": 4500,
      "fzfg": false,
      "metar_trigger": false,
      "taf_trigger": false,
      "metar": "METAR EGBB 070820Z 12010KT 4500 RA OVC007 07/06 Q0991",
      "taf": ""
    },
    {
      "icao": "EGGP",
      "alert": "OK",
      "vis_m": 9999,
      "fzfg": false,
      "metar_trigger": false,
      "taf_trigger": false,
      "metar": "METAR EGGP 070820Z 09008KT 9999 BKN035 06/05 Q0991",
      "taf": "TAF EGGP 070500Z 0706/0806 12006KT 9999 BKN016"
    },
    {
      "icao": "EGGW",
      "alert": "OK",
      "vis_m": 9000,
      "fzfg": false,
      "metar_trigger": false,
      "taf_trigger": false,
      "metar": "METAR EGGW 070820Z AUTO 15010KT 9000 -RA BKN005/// OVC009/// //////TCU 07/07 Q0993 REDZ",
      "taf": ""
    },
    {
      "icao": "EGKK",
      "alert": "OK",
      "vis_m": 8000,
      "fzfg": false,
      "metar_trigger": false,
      "taf_trigger": false,
      "metar": "METAR EGKK 070820Z 17007KT 130V220 8000 -RA SCT009 BKN011 08/08 Q0994",
      "taf": "TAF EGKK 070454Z 0706/0812 17008KT 9999 SCT018"
    },
    {
      "icao": "EGNM",
      "alert": "OK",
      "vis_m": 300,
      "fzfg": false,
      "metar_trigger": false,
      "taf_trigger": false,
      "metar": "METAR EGNM 070820Z 10004KT 0300 R14/0550N FG VV/// 05/05 Q0993",
      "taf": "TAF EGNM 070459Z 0706/0806 10004KT 0300 FG BKN001"
    },
    {
      "icao": "EGPD",
      "alert": "OK",
      "vis_m": 3000,
      "fzfg": false,
      "metar_trigger": false,
      "taf_trigger": false,
      "metar": "METAR EGPD 070820Z COR AUTO 10010KT 3000 RA BKN006/// OVC018/// //////TCU 05/04 Q0998 TEMPO 2500 RADZ BKN004",
      "taf": "TAF EGPD 070454Z 0706/0806 10011KT 9999 BKN010"
    },
    {
      "icao": "EGPF",
      "alert": "OK",
      "vis_m": 9999,
      "fzfg": false,
      "metar_trigger": false,
      "taf_trigger": false,
      "metar": "METAR EGPF 070820Z AUTO 06010KT 9999 -RA OVC010 06/04 Q0994",
      "taf": "TAF EGPF 070458Z 0706/0806 07009KT 9999 BKN020"
    },
    {
      "icao": "EHBK",
      "alert": "OK",
      "vis_m": 9999,
      "fzfg": false,
      "metar_trigger": false,
      "taf_trigger": false,
      "metar": "METAR EHBK 070755Z AUTO 19009KT 9999 NCD 07/05 Q1002 NOSIG",
      "taf": "TAF EHBK 070513Z 0706/0812 18006KT CAVOK"
    },
    {
      "icao": "EHEH",
      "alert": "OK",
      "vis_m": 9999,
      "fzfg": false,
      "metar_trigger": false,
      "taf_trigger": false,
      "metar": "METAR EHEH 070755Z AUTO 18007KT 170V230 9999 NCD 06/05 Q1001 BLU NOSIG RMK TREND FORECAST BY EHWX",
      "taf": "TAF EHEH 070538Z 0706/0812 18007KT CAVOK"
    },
    {
      "icao": "EKBI",
      "alert": "OK",
      "vis_m": 6000,
      "fzfg": false,
      "metar_trigger": false,
      "taf_trigger": false,
      "metar": "METAR EKBI 070820Z AUTO 08015KT 6000 OVC004/// M00/M00 Q1006",
      "taf": "TAF EKBI 070527Z 0706/0806 08014KT 2500 BR OVC003"
    },
    {
      "icao": "EKCH",
      "alert": "OK",
      "vis_m": 9999,
      "fzfg": false,
      "metar_trigger": false,
      "taf_trigger": false,
      "metar": "METAR EKCH 070820Z 07012KT 9999 OVC010 01/M01 Q1008 TEMPO BKN009",
      "taf": "TAF EKCH 070527Z 0706/0806 08012KT 9999 BKN009"
    },
    {
      "icao": "ENAL",
      "alert": "OK",
      "vis_m": 9999,
      "fzfg": false,
      "metar_trigger": false,
      "taf_trigger": false,
      "metar": "METAR ENAL 070750Z 14009KT CAVOK 03/M09 Q1009",
      "taf": "TAF ENAL 070500Z 0706/0715 14012KT CAVOK"
    },
    {
      "icao": "ENBR",
      "alert": "OK",
      "vis_m": 9999,
      "fzfg": false,
      "metar_trigger": false,
      "taf_trigger": false,
      "metar": "METAR ENBR 070750Z VRB01KT 9999 BKN052 01/M06 Q1008 NOSIG RMK WIND 1200FT 11007KT",
      "taf": "TAF ENBR 070500Z 0706/0806 04003KT 9999 BKN050"
    },
    {
      "icao": "ENGM",
      "alert": "OK",
      "vis_m": 9999,
      "fzfg": false,
      "metar_trigger": false,
      "taf_trigger": false,
      "metar": "METAR ENGM 070750Z 02008KT 9999 -SN BKN019 M07/M10 Q1016 NOSIG",
      "taf": ""
    },
    {
      "icao": "ENHD",
      "alert": "OK",
      "vis_m": 9999,
      "fzfg": false,
      "metar_trigger": false,
      "taf_trigger": false,
      "metar": "METAR ENHD 070750Z COR 08006KT 050V110 9999 VCSH FEW028 02/M03 Q1008",
      "taf": "TAF ENHD 070500Z 0706/0715 06005KT 9999 BKN045"
    },
    {
      "icao": "ENTC",
      "alert": "OK",
      "vis_m": 9999,
      "fzfg": false,
      "metar_trigger": false,
      "taf_trigger": false,
      "metar": "METAR ENTC 070750Z 12001KT CAVOK M08/M10 Q1022 NOSIG RMK WIND 2600FT 16009KT",
      "taf": "TAF ENTC 070500Z 0706/0806 18005KT CAVOK"
    },
    {
      "icao": "ENTO",
      "alert": "OK",
      "vis_m": 2200,
      "fzfg": false,
      "metar_trigger": false,
      "taf_trigger": false,
      "metar": "METAR ENTO 070750Z 02009KT 2200 -SN BR VV017 M06/M07 Q1015 TEMPO 1400 VV012",
      "taf": "TAF ENTO 070500Z 0706/0806 02012KT 9000 -SN BKN015"
    },
    {
      "icao": "ENVA",
      "alert": "OK",
      "vis_m": 9999,
      "fzfg": false,
      "metar_trigger": false,
      "taf_trigger": false,
      "metar": "METAR ENVA 070750Z 11005KT 070V130 CAVOK M13/M20 Q1017 NOSIG RMK WIND 670FT 11009KT",
      "taf": "TAF ENVA 062300Z 0700/0724 12008KT CAVOK"
    },
    {
      "icao": "ENZV",
      "alert": "OK",
      "vis_m": 9999,
      "fzfg": false,
      "metar_trigger": false,
      "taf_trigger": false,
      "metar": "METAR ENZV 070750Z VRB01KT 9999 VCSH BKN047 M01/M03 Q1008 RERA NOSIG",
      "taf": ""
    },
    {
      "icao": "EPGD",
      "alert": "OK",
      "vis_m": 4200,
      "fzfg": false,
      "metar_trigger": false,
      "taf_trigger": false,
      "metar": "METAR EPGD 070800Z 05008KT 4200 -FZRA -SN BR OVC003 M02/M03 Q1005",
      "taf": "TAF EPGD 070530Z 0706/0806 06008KT 5000 BR OVC005"
    },
    {
      "icao": "EPKK",
      "alert": "OK",
      "vis_m": 200,
      "fzfg": false,
      "metar_trigger": false,
      "taf_trigger": false,
      "metar": "METAR EPKK 070800Z 25004KT 0200 R25/0450N FG OVC001 01/01 Q1002",
      "taf": "TAF EPKK 070530Z 0706/0806 VRB02KT 0200 FG OVC001"
    },
    {
      "icao": "EPKT",
      "alert": "OK",
      "vis_m": 3500,
      "fzfg": false,
      "metar_trigger": false,
      "taf_trigger": false,
      "metar": "METAR EPKT 070800Z 27003KT 3500 BR BKN044 02/01 Q1002",
      "taf": "TAF EPKT 070530Z 0706/0806 VRB02KT 4000 BR BKN040"
    },
    {
      "icao": "EPLB",
      "alert": "OK",
      "vis_m": 3000,
      "fzfg": false,
      "metar_trigger": false,
      "taf_trigger": false,
      "metar": "METAR EPLB 070800Z 09006KT 3000 -FZRA BR BKN002 OVC004 M00/M00 Q1003",
      "taf": ""
    },
    {
      "icao": "EPMO",
      "alert": "OK",
      "vis_m": 500,
      "fzfg": true,
      "metar_trigger": false,
      "taf_trigger": false,
      "metar": "METAR EPMO 070800Z 02005KT 0500 R08/0700N FZFG VV001 M00/M00 Q1004",
      "taf": "TAF EPMO 070530Z 0706/0806 06007KT 1200 BR OVC002"
    },
    {
      "icao": "EPPO",
      "alert": "OK",
      "vis_m": 2400,
      "fzfg": false,
      "metar_trigger": false,
      "taf_trigger": false,
      "metar": "METAR EPPO 070800Z 07005KT 2400 BR OVC002 00/M00 Q1004",
      "taf": "TAF EPPO 070530Z 0706/0806 08005KT 2200 BR OVC002"
    },
    {
      "icao": "EPRA",
      "alert": "OK",
      "vis_m": 600,
      "fzfg": false,
      "metar_trigger": false,
      "taf_trigger": false,
      "metar": "METAR EPRA 070800Z 03004KT 0600 R07/0350N FG OVC002 00/M00 Q1002",
      "taf": ""
    },
    {
      "icao": "EPRZ",
      "alert": "OK",
      "vis_m": 200,
      "fzfg": false,
      "metar_trigger": false,
      "taf_trigger": false,
      "metar": "METAR EPRZ 070800Z 27004KT 0200 R27/0375N FG OVC001 00/00 Q1002",
      "taf": ""
    },
    {
      "icao": "EPSC",
      "alert": "OK",
      "vis_m": 3500,
      "fzfg": false,
      "metar_trigger": false,
      "taf_trigger": false,
      "metar": "METAR EPSC 070800Z 06005KT 3500 -FZDZ BR OVC003 00/M00 Q1005",
      "taf": "TAF EPSC 070530Z 0706/0806 07004KT 5000 BR SCT006 BKN011"
    },
    {
      "icao": "EPSY",
      "alert": "OK",
      "vis_m": 2500,
      "fzfg": false,
      "metar_trigger": false,
      "taf_trigger": false,
      "metar": "METAR EPSY 070800Z 04005KT 2500 BR OVC002 M02/M02 Q1004 REFZRA",
      "taf": "TAF EPSY 070530Z 0706/0715 06006KT 3000 BR OVC004"
    },
    {
      "icao": "EPWA",
      "alert": "OK",
      "vis_m": 2800,
      "fzfg": false,
      "metar_trigger": false,
      "taf_trigger": false,
      "metar": "METAR EPWA 070800Z 06004KT 020V110 2800 BR OVC002 01/00 Q1003 TEMPO 1400 BR",
      "taf": ""
    },
    {
      "icao": "EPWR",
      "alert": "OK",
      "vis_m": 2200,
      "fzfg": false,
      "metar_trigger": false,
      "taf_trigger": false,
      "metar": "METAR EPWR 070800Z 28001KT 2200 BR BKN002 OVC003 01/01 Q1003",
      "taf": "TAF EPWR 070530Z 0706/0806 VRB02KT 2000 BR BKN008 OVC020"
    },
    {
      "icao": "ESGG",
      "alert": "OK",
      "vis_m": 9999,
      "fzfg": false,
      "metar_trigger": false,
      "taf_trigger": false,
      "metar": "METAR ESGG 070820Z 07010KT 9999 BKN009 M02/M04 Q1011",
      "taf": "TAF ESGG 070530Z 0706/0806 05007KT 9999 BKN017"
    },
    {
      "icao": "ESKN",
      "alert": "OK",
      "vis_m": 9999,
      "fzfg": false,
      "metar_trigger": false,
      "taf_trigger": false,
      "metar": "METAR ESKN 070820Z 03007KT 350V060 9999 FEW012 SCT038 M04/M06 Q1015",
      "taf": "TAF ESKN 070530Z 0706/0806 03008KT 9999 OVC008"
    },
    {
      "icao": "ESMS",
      "alert": "OK",
      "vis_m": 9999,
      "fzfg": false,
      "metar_trigger": false,
      "taf_trigger": false,
      "metar": "METAR ESMS 070820Z 08017KT 9999 OVC009 00/M01 Q1007",
      "taf": "TAF ESMS 070527Z 0706/0806 09017KT 9999 OVC007"
    },
    {
      "icao": "ESSA",
      "alert": "OK",
      "vis_m": 9999,
      "fzfg": false,
      "metar_trigger": false,
      "taf_trigger": false,
      "metar": "METAR ESSA 070820Z 03010KT CAVOK M06/M09 Q1017 NOSIG",
      "taf": "TAF ESSA 070530Z 0706/0806 02012KT 9999 BKN035"
    },
    {
      "icao": "EYKA",
      "alert": "OK",
      "vis_m": 3600,
      "fzfg": false,
      "metar_trigger": false,
      "taf_trigger": false,
      "metar": "METAR EYKA 070820Z 06004KT 3600 -SN BR OVC029 M03/M04 Q1007",
      "taf": ""
    },
    {
      "icao": "EYPA",
      "alert": "OK",
      "vis_m": 8000,
      "fzfg": false,
      "metar_trigger": false,
      "taf_trigger": false,
      "metar": "METAR EYPA 070820Z 06010KT 8000 -SN BKN034 OVC044 M05/M08 Q1009",
      "taf": "TAF EYPA 070507Z 0706/0806 07010KT 9000 SCT010 OVC020"
    },
    {
      "icao": "EYVI",
      "alert": "OK",
      "vis_m": 6000,
      "fzfg": false,
      "metar_trigger": false,
      "taf_trigger": false,
      "metar": "METAR EYVI 070820Z 08003KT 050V110 6000 -SN BKN008 BKN037 M04/M05 Q1006 TEMPO BKN005",
      "taf": "TAF EYVI 070507Z 0706/0806 VRB04KT 5000 SN SCT010 OVC015"
    },
    {
      "icao": "GCFV",
      "alert": "OK",
      "vis_m": 9999,
      "fzfg": false,
      "metar_trigger": false,
      "taf_trigger": false,
      "metar": "METAR GCFV 070800Z 27005KT 230V320 9999 FEW030 13/09 Q1025",
      "taf": "TAF GCFV 070200Z 0703/0803 30005KT 9999 FEW030 TX22/0714Z TN16/0706Z"
    },
    {
      "icao": "GCLP",
      "alert": "OK",
      "vis_m": 9999,
      "fzfg": false,
      "metar_trigger": false,
      "taf_trigger": false,
      "metar": "METAR GCLP 070800Z 31007KT CAVOK 15/10 Q1024 NOSIG",
      "taf": "TAF GCLP 070200Z 0703/0803 30005KT 9999 FEW030 TX22/0714Z TN16/0706Z"
    },
    {
      "icao": "GCTS",
      "alert": "OK",
      "vis_m": 9999,
      "fzfg": false,
      "metar_trigger": false,
      "taf_trigger": false,
      "metar": "METAR GCTS 070800Z 35006KT 9999 BKN030 17/10 Q1025 NOSIG",
      "taf": "TAF GCTS 070200Z 0703/0803 36005KT 9999 FEW035 TX24/0714Z TN16/0706Z"
    },
    {
      "icao": "GMAD",
      "alert": "OK",
      "vis_m": 8000,
      "fzfg": false,
      "metar_trigger": false,
      "taf_trigger": false,
      "metar": "METAR GMAD 070800Z 08005KT 8000 NSC 07/05 Q1023 NOSIG",
      "taf": "TAF GMAD 070500Z 0706/0812 06008KT 8000 SCT016"
    },
    {
      "icao": "GMMN",
      "alert": "OK",
      "vis_m": 9999,
      "fzfg": false,
      "metar_trigger": false,
      "taf_trigger": false,
      "metar": "METAR GMMN 070800Z 20013KT 9999 SCT020 10/09 Q1022 NOSIG",
      "taf": "TAF GMMN 070500Z 0706/0812 20010KT 9999 SCT016"
    },
    {
      "icao": "GMMX",
      "alert": "OK",
      "vis_m": 9999,
      "fzfg": false,
      "metar_trigger": false,
      "taf_trigger": false,
      "metar": "METAR GMMX 070800Z 20005KT 170V230 9999 FEW026 10/08 Q1023 NOSIG",
      "taf": "TAF GMMX 070500Z 0706/0812 18006KT 8000 SCT026"
    },
    {
      "icao": "HEGN",
      "alert": "OK",
      "vis_m": 9999,
      "fzfg": false,
      "metar_trigger": false,
      "taf_trigger": false,
      "metar": "METAR HEGN 070800Z 34005KT CAVOK 24/11 Q1017 NOSIG",
      "taf": "TAF HEGN 070500Z 0706/0812 34008KT CAVOK"
    },
    {
      "icao": "HEMA",
      "alert": "OK",
      "vis_m": 9999,
      "fzfg": false,
      "metar_trigger": false,
      "taf_trigger": false,
      "metar": "METAR HEMA 070800Z 33010KT CAVOK 24/02 Q1017 NOSIG",
      "taf": "TAF HEMA 070500Z 0706/0812 34011KT CAVOK"
    },
    {
      "icao": "HESH",
      "alert": "OK",
      "vis_m": 9999,
      "fzfg": false,
      "metar_trigger": false,
      "taf_trigger": false,
      "metar": "METAR HESH 070800Z 24003KT CAVOK 23/15 Q1017 NOSIG",
      "taf": "TAF HESH 070500Z 0706/0812 16008KT CAVOK"
    },
    {
      "icao": "HESX",
      "alert": "OK",
      "vis_m": 9999,
      "fzfg": false,
      "metar_trigger": false,
      "taf_trigger": false,
      "metar": "METAR HESX 070800Z 19008KT CAVOK 21/02 Q1015 NOSIG",
      "taf": "TAF HESX 070500Z 0706/0812 23014KT 7000 NSC"
    },
    {
      "icao": "LATI",
      "alert": "OK",
      "vis_m": 9999,
      "fzfg": false,
      "metar_trigger": false,
      "taf_trigger": false,
      "metar": "METAR LATI 070820Z VRB03KT 9999 FEW025 SCT050 BKN068 13/11 Q1007 NOSIG",
      "taf": "TAF LATI 070500Z 0706/0806 VRB05KT 9999 SCT040 BKN070 TX17/0712Z TN08/0805Z"
    },
    {
      "icao": "LBPD",
      "alert": "OK",
      "vis_m": 9999,
      "fzfg": false,
      "metar_trigger": false,
      "taf_trigger": false,
      "metar": "METAR LBPD 070800Z AUTO 34006KT 9999 BKN066/// BKN076/// 09/08 Q1003 NOSIG",
      "taf": "TAF LBPD 070500Z 0706/0806 VRB04KT 9999 BKN050"
    },
    {
      "icao": "LBSF",
      "alert": "OK",
      "vis_m": 6000,
      "fzfg": false,
      "metar_trigger": false,
      "taf_trigger": false,
      "metar": "METAR LBSF 070800Z 06003KT 6000 FEW003 SCT011 BKN052 07/05 Q1003 NOSIG",
      "taf": "TAF LBSF 070500Z 0706/0806 VRB04KT 3000 BR SCT010 BKN020 OVC030"
    },
    {
      "icao": "LBWN",
      "alert": "OK",
      "vis_m": 9999,
      "fzfg": false,
      "metar_trigger": false,
      "taf_trigger": false,
      "metar": "METAR LBWN 070800Z AUTO 36012KT 9999 OVC018/// 05/05 Q1002 NOSIG",
      "taf": "TAF LBWN 070500Z 0706/0806 32010KT 9999 BKN012 BKN030"
    },
    {
      "icao": "LCLK",
      "alert": "OK",
      "vis_m": 9999,
      "fzfg": false,
      "metar_trigger": false,
      "taf_trigger": false,
      "metar": "METAR LCLK 070800Z 23017KT 9999 FEW025 SCT040 19/16 Q1010 NOSIG",
      "taf": "TAF LCLK 070530Z 0706/0806 21007KT 8000 FEW020 SCT035"
    },
    {
      "icao": "LCPH",
      "alert": "OK",
      "vis_m": 6000,
      "fzfg": false,
      "metar_trigger": false,
      "taf_trigger": false,
      "metar": "METAR LCPH 070800Z 25008KT 6000 FEW014 SCT025 19/16 Q1010 NOSIG",
      "taf": "TAF LCPH 070530Z 0706/0806 10009KT 8000 FEW015 SCT025"
    },
    {
      "icao": "LEAL",
      "alert": "OK",
      "vis_m": 9999,
      "fzfg": false,
      "metar_trigger": false,
      "taf_trigger": false,
      "metar": "METAR LEAL 070800Z 24004KT 210V280 CAVOK 11/04 Q1012 NOSIG",
      "taf": "TAF LEAL 070500Z 0706/0806 26010KT 9999 FEW040 TX15/0714Z TN10/0706Z"
    },
    {
      "icao": "LEBB",
      "alert": "OK",
      "vis_m": 9999,
      "fzfg": false,
      "metar_trigger": false,
      "taf_trigger": false,
      "metar": "METAR LEBB 070800Z 18014G27KT 130V250 CAVOK 11/02 Q1004 NOSIG",
      "taf": "TAF LEBB 070500Z 0706/0806 20010KT CAVOK TX14/0713Z TN07/0805Z"
    },
    {
      "icao": "LEBL",
      "alert": "OK",
      "vis_m": 9999,
      "fzfg": false,
      "metar_trigger": false,
      "taf_trigger": false,
      "metar": "METAR LEBL 070800Z 28012KT 9999 FEW040 11/03 Q1005 NOSIG",
      "taf": "TAF LEBL 070500Z 0706/0806 29009KT 9999 FEW025 TX15/0713Z TN09/0706Z"
    },
    {
      "icao": "LECH",
      "alert": "OK",
      "vis_m": 9999,
      "fzfg": false,
      "metar_trigger": false,
      "taf_trigger": false,
      "metar": "METAR LECH 070800Z AUTO 16004KT 090V190 CAVOK 06/01 Q1008",
      "taf": ""
    },
    {
      "icao": "LEMD",
      "alert": "OK",
      "vis_m": 9000,
      "fzfg": false,
      "metar_trigger": false,
      "taf_trigger": false,
      "metar": "METAR LEMD 070800Z 21009KT 9000 SCT017 BKN030 05/04 Q1010 NOSIG",
      "taf": "TAF LEMD 070500Z 0706/0812 23010KT 9999 BKN016 TX10/0812Z TN02/0719Z"
    },
    {
      "icao": "LEMG",
      "alert": "OK",
      "vis_m": 9999,
      "fzfg": false,
      "metar_trigger": false,
      "taf_trigger": false,
      "metar": "METAR LEMG 070800Z 26004KT 230V290 9999 FEW046 SCT065 08/06 Q1017 NOSIG",
      "taf": "TAF LEMG 070500Z 0706/0806 VRB03KT 9999 FEW040 TX16/0714Z TN10/0707Z"
    },
    {
      "icao": "LEVC",
      "alert": "OK",
      "vis_m": 9999,
      "fzfg": false,
      "metar_trigger": false,
      "taf_trigger": false,
      "metar": "METAR LEVC 070800Z 26011KT 9999 FEW048 11/03 Q1010 NOSIG",
      "taf": "TAF LEVC 070500Z 0706/0806 24009KT 9999 SCT040 TX16/0714Z TN10/0706Z"
    },
    {
      "icao": "LEXJ",
      "alert": "OK",
      "vis_m": 9999,
      "fzfg": false,
      "metar_trigger": false,
      "taf_trigger": false,
      "metar": "METAR LEXJ 070800Z 20016G28KT 160V260 9999 FEW080 11/02 Q1002",
      "taf": "TAF LEXJ 070200Z 0703/0803 20009KT 9999 FEW060 TX14/0713Z TN09/0706Z"
    },
    {
      "icao": "LEZG",
      "alert": "OK",
      "vis_m": 9999,
      "fzfg": false,
      "metar_trigger": false,
      "taf_trigger": false,
      "metar": "METAR LEZG 070800Z 24013KT CAVOK 09/02 Q1007 NOSIG",
      "taf": "TAF LEZG 070500Z 0706/0806 26012KT 9999 FEW050 TX14/0715Z TN08/0706Z"
    },
    {
      "icao": "LEZL",
      "alert": "OK",
      "vis_m": 5000,
      "fzfg": false,
      "metar_trigger": false,
      "taf_trigger": false,
      "metar": "METAR LEZL 070800Z 19004KT 150V290 5000 RA FEW014 SCT028 BKN044 10/09 Q1015 NOSIG",
      "taf": "TAF LEZL 070200Z 0703/0803 23008KT 9999 SCT030 SCT040 TX15/0715Z TN12/0707Z"
    },
    {
      "icao": "LFBD",
      "alert": "OK",
      "vis_m": 9999,
      "fzfg": false,
      "metar_trigger": false,
      "taf_trigger": false,
      "metar": "METAR LFBD 070800Z AUTO 19008KT CAVOK 07/06 Q1003 NOSIG",
      "taf": "TAF LFBD 070500Z 0706/0812 20010KT CAVOK TX13/0714Z TN06/0806Z"
    },
    {
      "icao": "LFLL",
      "alert": "OK",
      "vis_m": 9999,
      "fzfg": false,
      "metar_trigger": false,
      "taf_trigger": false,
      "metar": "METAR LFLL 070800Z 11004KT CAVOK 04/03 Q1003 NOSIG",
      "taf": "TAF LFLL 070500Z 0706/0812 VRB03KT CAVOK"
    },
    {
      "icao": "LFLS",
      "alert": "OK",
      "vis_m": 9999,
      "fzfg": false,
      "metar_trigger": false,
      "taf_trigger": false,
      "metar": "METAR LFLS 070800Z AUTO 08008KT CAVOK 03/03 Q1003 NOSIG",
      "taf": "TAF LFLS 070800Z 0709/0809 08006KT CAVOK"
    },
    {
      "icao": "LFMN",
      "alert": "OK",
      "vis_m": 9999,
      "fzfg": false,
      "metar_trigger": false,
      "taf_trigger": false,
      "metar": "METAR LFMN 070800Z 34009KT CAVOK 08/03 Q1003 NOSIG",
      "taf": "TAF LFMN 070800Z 0709/0815 33010KT CAVOK"
    },
    {
      "icao": "LFOB",
      "alert": "OK",
      "vis_m": 9999,
      "fzfg": false,
      "metar_trigger": false,
      "taf_trigger": false,
      "metar": "METAR LFOB 070800Z AUTO 16007KT 9999 FEW014 07/06 Q1000 NOSIG",
      "taf": "TAF LFOB 070500Z 0706/0806 20007KT 9999 BKN020"
    },
    {
      "icao": "LFPO",
      "alert": "OK",
      "vis_m": 9999,
      "fzfg": false,
      "metar_trigger": false,
      "taf_trigger": false,
      "metar": "METAR LFPO 070800Z 18007KT 9999 FEW021 08/06 Q1001 NOSIG",
      "taf": "TAF LFPO 070500Z 0706/0812 18005KT CAVOK"
    },
    {
      "icao": "LFSB",
      "alert": "OK",
      "vis_m": 9999,
      "fzfg": false,
      "metar_trigger": false,
      "taf_trigger": false,
      "metar": "METAR LFSB 070800Z AUTO VRB03KT CAVOK 04/04 Q1004 NOSIG",
      "taf": "TAF LFSB 070500Z 0706/0806 17004KT 9999 SCT030"
    },
    {
      "icao": "LGAV",
      "alert": "OK",
      "vis_m": 9999,
      "fzfg": false,
      "metar_trigger": false,
      "taf_trigger": false,
      "metar": "METAR LGAV 070820Z 28011KT 230V310 CAVOK 18/09 Q1007 NOSIG",
      "taf": "TAF LGAV 070500Z 0706/0806 24012KT 9999 FEW020"
    },
    {
      "icao": "LGTS",
      "alert": "OK",
      "vis_m": 100,
      "fzfg": false,
      "metar_trigger": false,
      "taf_trigger": false,
      "metar": "METAR LGTS 070820Z VRB03KT 0100 R10/0325 R28/0500 FG OVC002 08/08 Q1005 WS R10 NOSIG",
      "taf": "TAF LGTS 070500Z 0706/0806 VRB03KT 0100 FG OVC001"
    },
    {
      "icao": "LHBP",
      "alert": "OK",
      "vis_m": 9999,
      "fzfg": false,
      "metar_trigger": false,
      "taf_trigger": false,
      "metar": "METAR LHBP 070800Z 24006KT CAVOK 05/03 Q1003 NOSIG",
      "taf": "TAF LHBP 070515Z 0706/0806 27005KT CAVOK"
    },
    {
      "icao": "LHDC",
      "alert": "OK",
      "vis_m": 1000,
      "fzfg": false,
      "metar_trigger": false,
      "taf_trigger": false,
      "metar": "METAR LHDC 070745Z AUTO 21005KT 1000 R04/1300N BR BKN001 05/05 Q1003 NOSIG",
      "taf": ""
    },
    {
      "icao": "LIBD",
      "alert": "OK",
      "vis_m": 9999,
      "fzfg": false,
      "metar_trigger": false,
      "taf_trigger": false,
      "metar": "METAR LIBD 070750Z 25004KT CAVOK 13/08 Q1006",
      "taf": "TAF LIBD 070500Z 0706/0806 VRB06KT 9999 FEW030"
    },
    {
      "icao": "LIBG",
      "alert": "OK",
      "vis_m": 9999,
      "fzfg": false,
      "metar_trigger": false,
      "taf_trigger": false,
      "metar": "METAR LIBG 070750Z VRB02KT CAVOK 12/09 Q1007",
      "taf": "TAF LIBG 070800Z 0709/0718 VRB05KT 9999 FEW040"
    },
    {
      "icao": "LIBP",
      "alert": "OK",
      "vis_m": 9999,
      "fzfg": false,
      "metar_trigger": false,
      "taf_trigger": false,
      "metar": "METAR LIBP 070750Z AUTO VRB02KT 9999 NCD 09/08 Q1005",
      "taf": "TAF LIBP 070500Z 0706/0806 VRB05KT 9999 FEW060"
    },
    {
      "icao": "LIBR",
      "alert": "OK",
      "vis_m": 9999,
      "fzfg": false,
      "metar_trigger": false,
      "taf_trigger": false,
      "metar": "METAR LIBR 070750Z 25006KT CAVOK 13/08 Q1007",
      "taf": "TAF LIBR 070500Z 0706/0806 24008KT 9999 FEW040"
    },
    {
      "icao": "LICA",
      "alert": "OK",
      "vis_m": 9999,
      "fzfg": false,
      "metar_trigger": false,
      "taf_trigger": false,
      "metar": "METAR LICA 070750Z AUTO 26009KT 9999 NCD 14/12 Q1008",
      "taf": "TAF LICA 070500Z 0706/0806 27015KT 9999 SCT015"
    },
    {
      "icao": "LICC",
      "alert": "OK",
      "vis_m": 9999,
      "fzfg": false,
      "metar_trigger": false,
      "taf_trigger": false,
      "metar": "METAR LICC 070750Z 28008KT CAVOK 15/11 Q1010",
      "taf": "TAF LICC 070500Z 0706/0806 26014KT CAVOK"
    },
    {
      "icao": "LICJ",
      "alert": "OK",
      "vis_m": 9999,
      "fzfg": false,
      "metar_trigger": false,
      "taf_trigger": false,
      "metar": "METAR LICJ 070750Z 21015KT 9999 SCT040 SCT070 16/09 Q1010",
      "taf": "TAF LICJ 070500Z 0706/0806 22012KT CAVOK"
    },
    {
      "icao": "LIMC",
      "alert": "OK",
      "vis_m": 9999,
      "fzfg": false,
      "metar_trigger": false,
      "taf_trigger": false,
      "metar": "METAR LIMC 070750Z 03005KT 9999 FEW050 03/03 Q1004 NOSIG",
      "taf": "TAF LIMC 070500Z 0706/0812 VRB05KT CAVOK"
    },
    {
      "icao": "LIME",
      "alert": "OK",
      "vis_m": 9999,
      "fzfg": false,
      "metar_trigger": false,
      "taf_trigger": false,
      "metar": "METAR LIME 070750Z 01005KT 9999 SCT050 06/04 Q1004 NOSIG",
      "taf": "TAF LIME 070500Z 0706/0806 VRB05KT 9999 SCT040"
    },
    {
      "icao": "LIMF",
      "alert": "OK",
      "vis_m": 9999,
      "fzfg": false,
      "metar_trigger": false,
      "taf_trigger": false,
      "metar": "METAR LIMF 070750Z 33006KT CAVOK 05/02 Q1004",
      "taf": "TAF LIMF 070500Z 0706/0806 VRB05KT CAVOK"
    },
    {
      "icao": "LIMJ",
      "alert": "OK",
      "vis_m": 9999,
      "fzfg": false,
      "metar_trigger": false,
      "taf_trigger": false,
      "metar": "METAR LIMJ 070750Z 03002KT 9999 SCT030 11/10 Q1003",
      "taf": "TAF LIMJ 070500Z 0706/0806 VRB05KT 9999 SCT040"
    },
    {
      "icao": "LIPE",
      "alert": "OK",
      "vis_m": 9999,
      "fzfg": false,
      "metar_trigger": false,
      "taf_trigger": false,
      "metar": "METAR LIPE 070750Z 33003KT CAVOK 04/04 Q1004",
      "taf": "TAF LIPE 070500Z 0706/0806 VRB05KT 9000 FEW060"
    },
    {
      "icao": "LIPH",
      "alert": "OK",
      "vis_m": 5000,
      "fzfg": false,
      "metar_trigger": false,
      "taf_trigger": false,
      "metar": "METAR LIPH 070750Z VRB01KT 5000 BR NSC 06/06 Q1004",
      "taf": ""
    },
    {
      "icao": "LIPQ",
      "alert": "OK",
      "vis_m": 9999,
      "fzfg": false,
      "metar_trigger": false,
      "taf_trigger": false,
      "metar": "METAR LIPQ 070750Z AUTO 11004KT 030V130 9999 OVC075/// 09/08 Q1004",
      "taf": "TAF LIPQ 070500Z 0706/0806 VRB04KT 7000 SCT070"
    },
    {
      "icao": "LIPR",
      "alert": "OK",
      "vis_m": 9999,
      "fzfg": false,
      "metar_trigger": false,
      "taf_trigger": false,
      "metar": "METAR LIPR 070750Z AUTO 19005KT 9999 BKN071/// 12/08 Q1004",
      "taf": "TAF LIPR 070500Z 0706/0806 VRB05KT 9999 SCT060"
    },
    {
      "icao": "LIPX",
      "alert": "OK",
      "vis_m": 9999,
      "fzfg": false,
      "metar_trigger": false,
      "taf_trigger": false,
      "metar": "METAR LIPX 070750Z 36003KT 9999 BKN050 05/05 Q1004",
      "taf": "TAF LIPX 070500Z 0706/0806 VRB05KT 9999 SCT050"
    },
    {
      "icao": "LIPY",
      "alert": "OK",
      "vis_m": 9999,
      "fzfg": false,
      "metar_trigger": false,
      "taf_trigger": false,
      "metar": "METAR LIPY 070750Z AUTO 19005KT 9999 SCT071/// 12/08 Q1004",
      "taf": "TAF LIPY 070500Z 0706/0806 VRB05KT 9999 SCT050"
    },
    {
      "icao": "LIPZ",
      "alert": "OK",
      "vis_m": 200,
      "fzfg": false,
      "metar_trigger": false,
      "taf_trigger": false,
      "metar": "METAR LIPZ 070750Z 03003KT 0200 R04R/0400D FG VV002 06/06 Q1004 NOSIG",
      "taf": ""
    },
    {
      "icao": "LIRF",
      "alert": "OK",
      "vis_m": 9999,
      "fzfg": false,
      "metar_trigger": false,
      "taf_trigger": false,
      "metar": "METAR LIRF 070750Z 10003KT 050V190 9999 SCT035 SCT050 11/10 Q1006 NOSIG",
      "taf": "TAF LIRF 070500Z 0706/0812 VRB05KT 9999 SCT030"
    },
    {
      "icao": "LIRN",
      "alert": "OK",
      "vis_m": 9999,
      "fzfg": false,
      "metar_trigger": false,
      "taf_trigger": false,
      "metar": "METAR LIRN 070750Z VRB02KT CAVOK 14/10 Q1007 NOSIG",
      "taf": "TAF LIRN 070500Z 0706/0806 VRB05KT 9999 FEW020"
    },
    {
      "icao": "LIRP",
      "alert": "OK",
      "vis_m": 9999,
      "fzfg": false,
      "metar_trigger": false,
      "taf_trigger": false,
      "metar": "METAR LIRP 070745Z VRB03KT 9999 TS FEW023CB FEW025TCU SCT028 12/12 Q1004 TEMPO TSRA",
      "taf": "TAF LIRP 070500Z 0706/0806 28005KT 9999 SCT025"
    },
    {
      "icao": "LIRZ",
      "alert": "OK",
      "vis_m": 9999,
      "fzfg": false,
      "metar_trigger": false,
      "taf_trigger": false,
      "metar": "METAR LIRZ 070750Z AUTO VRB01KT 9999 -RA FEW005/// BKN028/// 07/07 Q1006",
      "taf": "TAF LIRZ 070500Z 0706/0806 VRB05KT 8000 BKN030"
    },
    {
      "icao": "LJLJ",
      "alert": "OK",
      "vis_m": 400,
      "fzfg": false,
      "metar_trigger": false,
      "taf_trigger": false,
      "metar": "METAR LJLJ 070800Z 31003KT 280V340 0400 R30/0800U FG VV001 03/03 Q1004 NOSIG",
      "taf": "TAF LJLJ 070500Z 0706/0806 VRB02KT 9999 FEW007"
    },
    {
      "icao": "LKMT",
      "alert": "OK",
      "vis_m": 600,
      "fzfg": false,
      "metar_trigger": false,
      "taf_trigger": false,
      "metar": "METAR LKMT 070800Z 21002KT 0600 R22/1500U R04/1000U FG OVC006 02/02 Q1003 NOSIG",
      "taf": "TAF LKMT 070500Z 0706/0806 23006KT 3500 BR BKN025"
    },
    {
      "icao": "LKPR",
      "alert": "OK",
      "vis_m": 4500,
      "fzfg": false,
      "metar_trigger": false,
      "taf_trigger": false,
      "metar": "METAR LKPR 070800Z 13003KT 4500 BR BKN006 BKN028 02/01 Q1003 TEMPO 2000 DZ BR BKN005",
      "taf": "TAF LKPR 070800Z 0709/0815 24004KT 5000 BR SCT004 OVC006"
    },
    {
      "icao": "LLBG",
      "alert": "OK",
      "vis_m": 9999,
      "fzfg": false,
      "metar_trigger": false,
      "taf_trigger": false,
      "metar": "METAR LLBG 070820Z 21011KT CAVOK 22/08 Q1014 NOSIG",
      "taf": "TAF LLBG 070507Z 0706/0806 16005KT CAVOK"
    },
    {
      "icao": "LMML",
      "alert": "OK",
      "vis_m": 9999,
      "fzfg": false,
      "metar_trigger": false,
      "taf_trigger": false,
      "metar": "METAR LMML 070815Z 24004KT 210V270 CAVOK 17/12 Q1012 NOSIG",
      "taf": ""
    },
    {
      "icao": "LOWW",
      "alert": "OK",
      "vis_m": 9999,
      "fzfg": false,
      "metar_trigger": false,
      "taf_trigger": false,
      "metar": "METAR LOWW 070820Z VRB01KT 9999 BKN012 04/02 Q1004 TEMPO BKN015",
      "taf": "TAF LOWW 070815Z 0709/0815 VRB03KT 9999 BKN025 TX06/0714Z TN03/0801Z"
    },
    {
      "icao": "LPFR",
      "alert": "OK",
      "vis_m": 6000,
      "fzfg": false,
      "metar_trigger": false,
      "taf_trigger": false,
      "metar": "METAR LPFR 070800Z 22021KT 6000 -RA SCT012 BKN045 14/12 Q1012",
      "taf": "TAF LPFR 070500Z 0706/0806 26010KT 9999 SCT025"
    },
    {
      "icao": "LPMA",
      "alert": "OK",
      "vis_m": 9999,
      "fzfg": false,
      "metar_trigger": false,
      "taf_trigger": false,
      "metar": "METAR LPMA 070800Z 25005KT 220V280 9999 SCT015 16/08 Q1019",
      "taf": "TAF LPMA 070500Z 0706/0806 22015KT 9999 SCT015"
    },
    {
      "icao": "LPPR",
      "alert": "OK",
      "vis_m": 9999,
      "fzfg": false,
      "metar_trigger": false,
      "taf_trigger": false,
      "metar": "METAR LPPR 070800Z 15012KT 9999 FEW020 SCT030 BKN047 10/07 Q1002",
      "taf": "TAF LPPR 070500Z 0706/0806 16015KT 9999 SCT020 BKN035"
    },
    {
      "icao": "LPPS",
      "alert": "OK",
      "vis_m": 9999,
      "fzfg": false,
      "metar_trigger": false,
      "taf_trigger": false,
      "metar": "METAR LPPS 070800Z 26018KT 9999 FEW014 17/12 Q1019",
      "taf": "TAF LPPS 070500Z 0706/0812 26017KT 9999 SCT015"
    },
    {
      "icao": "LPPT",
      "alert": "OK",
      "vis_m": 5000,
      "fzfg": false,
      "metar_trigger": false,
      "taf_trigger": false,
      "metar": "METAR LPPT 070800Z 20015G26KT 170V230 5000 RA BR FEW004 BKN008 12/12 Q1003 RERA WS R20",
      "taf": ""
    },
    {
      "icao": "LQBK",
      "alert": "OK",
      "vis_m": 5000,
      "fzfg": false,
      "metar_trigger": false,
      "taf_trigger": false,
      "metar": "METAR LQBK 070800Z 01002KT 5000 BR FEW001 08/08 Q1005 BECMG 7000 NSW",
      "taf": ""
    },
    {
      "icao": "LQSA",
      "alert": "OK",
      "vis_m": 3000,
      "fzfg": false,
      "metar_trigger": false,
      "taf_trigger": false,
      "metar": "METAR LQSA 070800Z 00000KT 3000 -RA BR BKN004 OVC030 06/06 Q1004 BECMG 5000 BKN010 OVC030",
      "taf": ""
    },
    {
      "icao": "LQTZ",
      "alert": "OK",
      "vis_m": 1800,
      "fzfg": false,
      "metar_trigger": false,
      "taf_trigger": false,
      "metar": "METAR LQTZ 070800Z VRB01KT 1800 -RA BR OVC003 07/07 Q1004",
      "taf": ""
    },
    {
      "icao": "LRBC",
      "alert": "OK",
      "vis_m": 5000,
      "fzfg": false,
      "metar_trigger": false,
      "taf_trigger": false,
      "metar": "METAR LRBC 070800Z VRB01KT 5000 BR OVC003 M00/M00 Q1003",
      "taf": "TAF LRBC 070500Z 0706/0715 VRB04KT 9999 OVC005"
    },
    {
      "icao": "LRBS",
      "alert": "OK",
      "vis_m": 4000,
      "fzfg": false,
      "metar_trigger": false,
      "taf_trigger": false,
      "metar": "METAR LRBS 070800Z 24004KT 220V280 4000 BR OVC003 03/03 Q1004 NOSIG",
      "taf": "TAF LRBS 070500Z 0706/0806 VRB04KT 1500 BR OVC002"
    },
    {
      "icao": "LRBV",
      "alert": "OK",
      "vis_m": 3000,
      "fzfg": false,
      "metar_trigger": false,
      "taf_trigger": false,
      "metar": "METAR LRBV 070800Z 00000KT 3000 BR OVC003 01/01 Q1003",
      "taf": "TAF LRBV 070500Z 0706/0715 VRB04KT 5000 BR BKN030"
    },
    {
      "icao": "LRCL",
      "alert": "OK",
      "vis_m": 9999,
      "fzfg": false,
      "metar_trigger": false,
      "taf_trigger": false,
      "metar": "METAR LRCL 070800Z 27003KT 230V320 9999 FEW060 08/04 Q1002",
      "taf": "TAF LRCL 070500Z 0706/0715 VRB04KT 9999 BKN035"
    },
    {
      "icao": "LRCV",
      "alert": "OK",
      "vis_m": 6000,
      "fzfg": false,
      "metar_trigger": false,
      "taf_trigger": false,
      "metar": "METAR LRCV 070800Z 31003KT 280V340 6000 FEW003 BKN012 04/04 Q1004",
      "taf": "TAF LRCV 070500Z 0706/0715 VRB04KT 1500 BR BKN005"
    },
    {
      "icao": "LRIA",
      "alert": "OK",
      "vis_m": 7000,
      "fzfg": false,
      "metar_trigger": false,
      "taf_trigger": false,
      "metar": "METAR LRIA 070800Z 26002KT 7000 OVC003 M01/M02 Q1004",
      "taf": "TAF LRIA 070500Z 0706/0715 VRB04KT 9999 SCT005 OVC015"
    },
    {
      "icao": "LROP",
      "alert": "OK",
      "vis_m": 4000,
      "fzfg": false,
      "metar_trigger": false,
      "taf_trigger": false,
      "metar": "METAR LROP 070800Z 26005KT 230V290 4000 BR OVC002 03/03 Q1004 NOSIG",
      "taf": "TAF LROP 070500Z 0706/0806 VRB04KT 0600 FG OVC001"
    },
    {
      "icao": "LRSB",
      "alert": "OK",
      "vis_m": 9999,
      "fzfg": false,
      "metar_trigger": false,
      "taf_trigger": false,
      "metar": "METAR LRSB 070800Z 04002KT 9999 -DZ BKN022 06/05 Q1003",
      "taf": "TAF LRSB 070500Z 0706/0806 VRB04KT 9999 BKN035"
    },
    {
      "icao": "LRSM",
      "alert": "OK",
      "vis_m": 3500,
      "fzfg": false,
      "metar_trigger": false,
      "taf_trigger": false,
      "metar": "METAR LRSM 070800Z AUTO 25004KT 220V280 3500 BR BKN001/// BKN024/// 07/07 Q1003",
      "taf": ""
    },
    {
      "icao": "LRSV",
      "alert": "OK",
      "vis_m": 3000,
      "fzfg": false,
      "metar_trigger": false,
      "taf_trigger": false,
      "metar": "METAR LRSV 070800Z VRB01KT 3000 BR SCT002 BKN014 M02/M02 Q1001",
      "taf": ""
    },
    {
      "icao": "LRTM",
      "alert": "OK",
      "vis_m": 8000,
      "fzfg": false,
      "metar_trigger": false,
      "taf_trigger": false,
      "metar": "METAR LRTM 070800Z 06004KT 8000 FEW005 BKN030 03/02 Q1003",
      "taf": "TAF LRTM 070500Z 0706/0715 VRB04KT 5000 BR BKN030"
    },
    {
      "icao": "LRTR",
      "alert": "OK",
      "vis_m": 9999,
      "fzfg": false,
      "metar_trigger": false,
      "taf_trigger": false,
      "metar": "METAR LRTR 070800Z VRB01KT 9999 FEW039 07/06 Q1004 NOSIG",
      "taf": "TAF LRTR 070500Z 0706/0806 VRB04KT CAVOK"
    },
    {
      "icao": "LTAC",
      "alert": "OK",
      "vis_m": 9999,
      "fzfg": false,
      "metar_trigger": false,
      "taf_trigger": false,
      "metar": "METAR LTAC 070820Z 24016KT 9999 FEW015 SCT030 BKN080 09/06 Q1004 NOSIG",
      "taf": "TAF LTAC 070440Z 0706/0806 19007KT 9999 -SHRA BKN030 BKN080"
    },
    {
      "icao": "LTFM",
      "alert": "OK",
      "vis_m": 4000,
      "fzfg": false,
      "metar_trigger": false,
      "taf_trigger": false,
      "metar": "METAR LTFM 070820Z 35007KT 310V010 4000 BR BKN003 BKN022 09/08 Q1003 NOSIG",
      "taf": "TAF LTFM 070440Z 0706/0812 23010KT 9999 FEW006 SCT032 BKN090"
    },
    {
      "icao": "LUKK",
      "alert": "OK",
      "vis_m": 9999,
      "fzfg": false,
      "metar_trigger": false,
      "taf_trigger": false,
      "metar": "METAR LUKK 070800Z 34006KT 9999 OVC006 M01/M02 Q1003 BECMG BKN010",
      "taf": "TAF LUKK 070509Z 0706/0806 33006KT 9999 OVC003"
    },
    {
      "icao": "LWOH",
      "alert": "OK",
      "vis_m": 9999,
      "fzfg": false,
      "metar_trigger": false,
      "taf_trigger": false,
      "metar": "METAR LWOH 070820Z 23003KT 170V330 9999 FEW002 SCT044 09/06 Q1006",
      "taf": "TAF LWOH 070545Z 0706/0806 11005KT 9999 SCT040"
    },
    {
      "icao": "LWSK",
      "alert": "OK",
      "vis_m": 3000,
      "fzfg": false,
      "metar_trigger": false,
      "taf_trigger": false,
      "metar": "METAR LWSK 070820Z VRB01KT 3000 BR BKN008 07/07 Q1005 NOSIG",
      "taf": "TAF LWSK 070545Z 0706/0806 VRB02KT 9999 SCT030"
    },
    {
      "icao": "LYBE",
      "alert": "OK",
      "vis_m": 300,
      "fzfg": false,
      "metar_trigger": false,
      "taf_trigger": false,
      "metar": "METAR LYBE 070800Z 26006KT 0300 R12L/0700D R30R/0450U FG VV001 06/06 Q1004 NOSIG",
      "taf": "TAF LYBE 070500Z 0706/0806 25006KT 8000 NSC TX11/0713Z TN06/0706Z"
    },
    {
      "icao": "LYNI",
      "alert": "OK",
      "vis_m": 9999,
      "fzfg": false,
      "metar_trigger": false,
      "taf_trigger": false,
      "metar": "METAR LYNI 070800Z 00000KT 9999 FEW008 BKN030 06/06 Q1004 NOSIG",
      "taf": "TAF LYNI 070500Z 0706/0806 32005KT 8000 FEW010 BKN040 OVC070 TX10/0713Z TN05/0706Z"
    },
    {
      "icao": "LYPG",
      "alert": "OK",
      "vis_m": 8000,
      "fzfg": false,
      "metar_trigger": false,
      "taf_trigger": false,
      "metar": "METAR LYPG 070800Z VRB02KT 8000 FEW006 SCT040 BKN060 10/10 Q1006 NOSIG",
      "taf": "TAF LYPG 070500Z 0706/0806 18006KT 9999 FEW010 SCT050 TX15/0713Z TN07/0706Z"
    },
    {
      "icao": "LZIB",
      "alert": "OK",
      "vis_m": 9999,
      "fzfg": false,
      "metar_trigger": false,
      "taf_trigger": false,
      "metar": "METAR LZIB 070800Z VRB03KT 9999 BKN029 05/03 Q1004 NOSIG",
      "taf": "TAF LZIB 070515Z 0706/0806 28006KT 9999 SCT023 BKN030"
    },
    {
      "icao": "LZKZ",
      "alert": "OK",
      "vis_m": 9999,
      "fzfg": false,
      "metar_trigger": false,
      "taf_trigger": false,
      "metar": "METAR LZKZ 070800Z 01003KT 9999 OVC010 05/04 Q1001 TEMPO OVC012",
      "taf": "TAF LZKZ 070515Z 0706/0806 VRB02KT 9999 SCT020 BKN030"
    },
    {
      "icao": "LZTT",
      "alert": "OK",
      "vis_m": 3000,
      "fzfg": false,
      "metar_trigger": false,
      "taf_trigger": false,
      "metar": "METAR LZTT 070800Z VRB01KT 3000 -RA BR FEW006 OVC023 02/02 Q1000 NOSIG",
      "taf": ""
    },
    {
      "icao": "OEJN",
      "alert": "OK",
      "vis_m": 9999,
      "fzfg": false,
      "metar_trigger": false,
      "taf_trigger": false,
      "metar": "METAR OEJN 070800Z 36004KT 9999 FEW040 28/16 Q1016 NOSIG",
      "taf": "TAF OEJN 070500Z 0706/0812 30012KT CAVOK"
    },
    {
      "icao": "OEMA",
      "alert": "OK",
      "vis_m": 9999,
      "fzfg": false,
      "metar_trigger": false,
      "taf_trigger": false,
      "metar": "METAR OEMA 070800Z VRB02KT CAVOK 24/11 Q1020 NOSIG",
      "taf": "TAF OEMA 070500Z 0706/0812 16006KT CAVOK"
    },
    {
      "icao": "OJAI",
      "alert": "OK",
      "vis_m": 4000,
      "fzfg": false,
      "metar_trigger": false,
      "taf_trigger": false,
      "metar": "METAR OJAI 070800Z 24018KT 4000 BLDU NSC 17/05 Q1016 NOSIG",
      "taf": "TAF OJAI 070446Z 0706/0812 23006KT 4000 DU FEW040"
    },
    {
      "icao": "OMAA",
      "alert": "OK",
      "vis_m": 9999,
      "fzfg": false,
      "metar_trigger": false,
      "taf_trigger": false,
      "metar": "METAR OMAA 070800Z 18007KT 150V220 CAVOK 28/09 Q1018 NOSIG",
      "taf": "TAF OMAA 070500Z 0706/0812 15005KT 8000 NSC"
    },
    {
      "icao": "OMDB",
      "alert": "OK",
      "vis_m": 9999,
      "fzfg": false,
      "metar_trigger": false,
      "taf_trigger": false,
      "metar": "METAR OMDB 070800Z 22006KT 160V270 CAVOK 28/12 Q1018 NOSIG",
      "taf": "TAF OMDB 070500Z 0706/0812 16005KT 8000 NSC"
    },
    {
      "icao": "UAAA",
      "alert": "OK",
      "vis_m": 9999,
      "fzfg": false,
      "metar_trigger": false,
      "taf_trigger": false,
      "metar": "METAR UAAA 070800Z 01004MPS 9999 BKN100 01/M02 Q1024 NOSIG",
      "taf": "TAF UAAA 070510Z 0706/0806 06003G08MPS 9999 SCT030 BKN100 TX02/0707Z TNM04/0802Z"
    },
    {
      "icao": "UBBB",
      "alert": "OK",
      "vis_m": 9999,
      "fzfg": false,
      "metar_trigger": false,
      "taf_trigger": false,
      "metar": "METAR UBBB 070800Z 19026KT 9999 SCT017 08/04 Q1010 NOSIG",
      "taf": "TAF UBBB 070506Z 0706/0806 17014KT 9999 SCT012 BKN030 TX10/0710Z TN04/0801Z"
    },
    {
      "icao": "UDSG",
      "alert": "OK",
      "vis_m": 5000,
      "fzfg": false,
      "metar_trigger": false,
      "taf_trigger": false,
      "metar": "METAR UDSG 070800Z 30001KT 5000 BR FEW010 BKN020 M00/M02 Q1014 NOSIG",
      "taf": "TAF UDSG 070458Z 0706/0806 VRB06KT 2000 BR OVC020"
    },
    {
      "icao": "UDYZ",
      "alert": "OK",
      "vis_m": 7000,
      "fzfg": false,
      "metar_trigger": false,
      "taf_trigger": false,
      "metar": "METAR UDYZ 070800Z 16002KT 7000 BKN043 04/M01 Q1014 NOSIG",
      "taf": "TAF UDYZ 070500Z 0706/0806 20006KT 6000 BKN040"
    },
    {
      "icao": "UGKO",
      "alert": "OK",
      "vis_m": 9999,
      "fzfg": false,
      "metar_trigger": false,
      "taf_trigger": false,
      "metar": "METAR UGKO 070800Z 09016KT CAVOK 14/01 Q1007 NOSIG",
      "taf": "TAF UGKO 070500Z 0706/0806 09017KT 9999 SCT080 TX18/0711Z TN08/0803Z"
    }
  ]
}