{
  "ts_utc": "2026-05-14T09:59:03Z",
  "threshold_m": 150,
  "source": "stations_override.txt (ICAO list) + aviationweather.gov (METAR/TAF raw)",
  "station_count": 159,
  "stations": [
    {
      "icao": "BIKF",
      "alert": "OK",
      "vis_m": 9999,
      "fzfg": false,
      "metar_trigger": false,
      "taf_trigger": false,
      "metar": "METAR BIKF 140930Z 16010KT 9999 VCSH FEW011 SCT027 BKN043 08/06 Q1014",
      "taf": "TAF BIKF 140754Z 1409/1509 16010KT 9999 FEW010 BKN020 TX09/1413Z TN06/1506Z"
    },
    {
      "icao": "BKPR",
      "alert": "OK",
      "vis_m": null,
      "fzfg": false,
      "metar_trigger": false,
      "taf_trigger": false,
      "metar": "",
      "taf": "TAF BKPR 140530Z 1406/1506 VRB05KT 9999 SCT060"
    },
    {
      "icao": "EBCI",
      "alert": "OK",
      "vis_m": 9999,
      "fzfg": false,
      "metar_trigger": false,
      "taf_trigger": false,
      "metar": "METAR EBCI 140950Z 26008KT 230V320 9999 SCT023 10/04 Q0998 TEMPO 28015G25KT 3500 SHRA",
      "taf": "TAF EBCI 140506Z 1406/1512 24010KT 9999 SCT025"
    },
    {
      "icao": "EDDB",
      "alert": "OK",
      "vis_m": 9999,
      "fzfg": false,
      "metar_trigger": false,
      "taf_trigger": false,
      "metar": "METAR EDDB 140950Z AUTO 26009KT 9999 SHRA FEW034 SCT044 FEW///CB 10/07 Q0997 TEMPO NSW",
      "taf": "TAF EDDB 140500Z 1406/1506 21009KT 9999 BKN030"
    },
    {
      "icao": "EDDH",
      "alert": "OK",
      "vis_m": 9999,
      "fzfg": false,
      "metar_trigger": false,
      "taf_trigger": false,
      "metar": "METAR EDDH 140950Z AUTO 19006KT 150V230 9999 -SHRA FEW027 BKN046 FEW///TCU 11/05 Q0995 TEMPO SHRA BKN025CB",
      "taf": "TAF EDDH 140500Z 1406/1512 VRB03KT 9999 BKN030"
    },
    {
      "icao": "EDDK",
      "alert": "OK",
      "vis_m": 9999,
      "fzfg": false,
      "metar_trigger": false,
      "taf_trigger": false,
      "metar": "METAR EDDK 140950Z AUTO 27012KT 230V290 9999 VCSH SCT028 BKN035 BKN044 FEW///TCU 11/04 Q0998 TEMPO SHRA",
      "taf": ""
    },
    {
      "icao": "EDDN",
      "alert": "OK",
      "vis_m": 9999,
      "fzfg": false,
      "metar_trigger": false,
      "taf_trigger": false,
      "metar": "METAR EDDN 140950Z AUTO 25010KT 210V280 9999 FEW035 SCT042 12/04 Q1000 RESHRA NOSIG",
      "taf": "TAF EDDN 140500Z 1406/1506 24010KT 9999 SCT015 BKN040"
    },
    {
      "icao": "EDDS",
      "alert": "OK",
      "vis_m": 9999,
      "fzfg": false,
      "metar_trigger": false,
      "taf_trigger": false,
      "metar": "METAR EDDS 140950Z AUTO 21007KT 140V290 9999 VCSH SCT025 BKN046 FEW///TCU 11/05 Q1000 NOSIG",
      "taf": "TAF EDDS 140500Z 1406/1506 22007KT 9999 SCT035"
    },
    {
      "icao": "EDFH",
      "alert": "OK",
      "vis_m": 9999,
      "fzfg": false,
      "metar_trigger": false,
      "taf_trigger": false,
      "metar": "METAR EDFH 140950Z 26011KT 220V290 9999 FEW013 SCT019 07/03 Q0998",
      "taf": "TAF EDFH 140500Z 1406/1506 25009KT 9999 BKN007"
    },
    {
      "icao": "EDJA",
      "alert": "OK",
      "vis_m": 9999,
      "fzfg": false,
      "metar_trigger": false,
      "taf_trigger": false,
      "metar": "METAR EDJA 140950Z 23014KT 9999 BKN036 10/05 Q1002",
      "taf": "TAF EDJA 140800Z 1409/1418 23015G25KT 9999 SCT020 BKN040"
    },
    {
      "icao": "EDLW",
      "alert": "OK",
      "vis_m": 9999,
      "fzfg": false,
      "metar_trigger": false,
      "taf_trigger": false,
      "metar": "METAR EDLW 140950Z 21009KT 9999 VCSH FEW014 BKN019CB BKN023 07/05 Q0997",
      "taf": ""
    },
    {
      "icao": "EDNY",
      "alert": "OK",
      "vis_m": 9999,
      "fzfg": false,
      "metar_trigger": false,
      "taf_trigger": false,
      "metar": "METAR EDNY 140950Z 25008KT 200V290 9999 FEW019 SCT022 10/05 Q1002",
      "taf": "TAF EDNY 140800Z 1409/1418 24009KT 9999 SCT020 BKN040"
    },
    {
      "icao": "EDSB",
      "alert": "OK",
      "vis_m": 9999,
      "fzfg": false,
      "metar_trigger": false,
      "taf_trigger": false,
      "metar": "METAR EDSB 140950Z 20016KT 170V230 9999 VCSH SCT026 SCT034CB 13/07 Q1001",
      "taf": "TAF EDSB 140500Z 1406/1506 20007KT 9999 SCT035"
    },
    {
      "icao": "EETN",
      "alert": "OK",
      "vis_m": 9999,
      "fzfg": false,
      "metar_trigger": false,
      "taf_trigger": false,
      "metar": "METAR EETN 140950Z 17010KT 150V210 9999 BKN030 11/05 Q1002 NOSIG",
      "taf": "TAF EETN 140530Z 1406/1506 19010KT 9999 BKN025"
    },
    {
      "icao": "EFTU",
      "alert": "OK",
      "vis_m": 9999,
      "fzfg": false,
      "metar_trigger": false,
      "taf_trigger": false,
      "metar": "METAR EFTU 140950Z AUTO 19010KT 150V220 9999 OVC012 08/06 Q1000",
      "taf": "TAF EFTU 140829Z 1409/1509 18012KT 9999 -RA OVC007"
    },
    {
      "icao": "EGBB",
      "alert": "OK",
      "vis_m": 9999,
      "fzfg": false,
      "metar_trigger": false,
      "taf_trigger": false,
      "metar": "METAR EGBB 140950Z 33009KT 9999 SCT040CB 10/02 Q1003",
      "taf": "TAF EGBB 140457Z 1406/1506 34008KT 9999 FEW030"
    },
    {
      "icao": "EGGP",
      "alert": "OK",
      "vis_m": 9999,
      "fzfg": false,
      "metar_trigger": false,
      "taf_trigger": false,
      "metar": "METAR EGGP 140950Z 31011KT 290V350 9999 FEW026 SCT032 BKN048 10/03 Q1003",
      "taf": "TAF EGGP 140455Z 1406/1506 33009KT 9999 SCT040"
    },
    {
      "icao": "EGGW",
      "alert": "OK",
      "vis_m": 9999,
      "fzfg": false,
      "metar_trigger": false,
      "taf_trigger": false,
      "metar": "METAR EGGW 140950Z AUTO 35007KT 320V020 9999 FEW025/// SCT040/// //////TCU 09/03 Q1001",
      "taf": ""
    },
    {
      "icao": "EGKK",
      "alert": "OK",
      "vis_m": 9999,
      "fzfg": false,
      "metar_trigger": false,
      "taf_trigger": false,
      "metar": "METAR EGKK 140950Z 36010KT 320V040 9999 SCT032 11/03 Q1001",
      "taf": "TAF EGKK 140500Z 1406/1512 33010KT 9999 FEW015"
    },
    {
      "icao": "EGNM",
      "alert": "OK",
      "vis_m": 9999,
      "fzfg": false,
      "metar_trigger": false,
      "taf_trigger": false,
      "metar": "METAR EGNM 140950Z 33010KT 9999 FEW022 SCT032 10/02 Q1001",
      "taf": "TAF EGNM 140456Z 1406/1506 33007KT 9999 FEW040"
    },
    {
      "icao": "EGPD",
      "alert": "OK",
      "vis_m": 9999,
      "fzfg": false,
      "metar_trigger": false,
      "taf_trigger": false,
      "metar": "METAR EGPD 140950Z 34016KT 9999 VCSH SCT013 BKN020 08/06 Q1001 RESHRA TEMPO SHRA BKN013",
      "taf": "TAF EGPD 140458Z 1406/1506 33009KT 9999 SCT025"
    },
    {
      "icao": "EGPF",
      "alert": "OK",
      "vis_m": 9999,
      "fzfg": false,
      "metar_trigger": false,
      "taf_trigger": false,
      "metar": "METAR EGPF 140950Z AUTO 32011KT 9999 BKN034 12/04 Q1004",
      "taf": "TAF EGPF 140456Z 1406/1506 29012KT 9999 SCT025"
    },
    {
      "icao": "EHBK",
      "alert": "OK",
      "vis_m": 9999,
      "fzfg": false,
      "metar_trigger": false,
      "taf_trigger": false,
      "metar": "METAR EHBK 140955Z AUTO 25004KT 190V310 9999 FEW002/// SCT017/// 09/06 Q0998 TEMPO 4000 SHRA SCT020CB",
      "taf": "TAF EHBK 140512Z 1406/1512 24010KT 9999 FEW012 BKN015"
    },
    {
      "icao": "EHEH",
      "alert": "OK",
      "vis_m": 9999,
      "fzfg": false,
      "metar_trigger": false,
      "taf_trigger": false,
      "metar": "METAR EHEH 140925Z AUTO 23005KT 200V290 9999 FEW015CB SCT046 OVC150 08/06 Q0997 RERA BLU TEMPO 26007G17KT 3500 SHRA SCT010 SCT020CB",
      "taf": "TAF EHEH 140505Z 1406/1512 24008KT 9999 FEW020 SCT030"
    },
    {
      "icao": "EKBI",
      "alert": "OK",
      "vis_m": 9999,
      "fzfg": false,
      "metar_trigger": false,
      "taf_trigger": false,
      "metar": "METAR EKBI 140950Z 26011KT 220V280 9999 -SHRA SCT026CB BKN051 11/05 Q0992",
      "taf": "TAF EKBI 140827Z 1409/1509 25008KT 9999 SCT020"
    },
    {
      "icao": "EKCH",
      "alert": "OK",
      "vis_m": 9999,
      "fzfg": false,
      "metar_trigger": false,
      "taf_trigger": false,
      "metar": "METAR EKCH 140950Z AUTO 21011KT 180V240 9999 FEW034/// 12/04 Q0994 NOSIG",
      "taf": "TAF EKCH 140827Z 1409/1509 22012KT 9999 SCT025"
    },
    {
      "icao": "ENAL",
      "alert": "OK",
      "vis_m": 9999,
      "fzfg": false,
      "metar_trigger": false,
      "taf_trigger": false,
      "metar": "METAR ENAL 140950Z 03025G44KT 350V060 9999 -RA SCT014 BKN025 07/05 Q0992",
      "taf": "TAF ENAL 140800Z 1409/1418 03022KT 9999 -RA SCT015 BKN020"
    },
    {
      "icao": "ENBR",
      "alert": "OK",
      "vis_m": 9999,
      "fzfg": false,
      "metar_trigger": false,
      "taf_trigger": false,
      "metar": "METAR ENBR 140950Z 34013KT 9999 SCT030 09/02 Q0988 NOSIG RMK WIND 1200FT 35021KT",
      "taf": "TAF ENBR 140500Z 1406/1506 34008KT 9999 FEW030"
    },
    {
      "icao": "ENGM",
      "alert": "OK",
      "vis_m": 3600,
      "fzfg": false,
      "metar_trigger": false,
      "taf_trigger": false,
      "metar": "METAR ENGM 140950Z 08004KT 040V110 3600 -DZRA FEW004 BKN006 OVC009 04/03 Q0987 TEMPO 8000 BKN010",
      "taf": ""
    },
    {
      "icao": "ENHD",
      "alert": "OK",
      "vis_m": 9999,
      "fzfg": false,
      "metar_trigger": false,
      "taf_trigger": false,
      "metar": "METAR ENHD 140950Z 33025KT 9999 SCT014 09/05 Q0988",
      "taf": "TAF ENHD 140800Z 1409/1418 33020KT 9999 FEW010 BKN030"
    },
    {
      "icao": "ENTC",
      "alert": "OK",
      "vis_m": 9999,
      "fzfg": false,
      "metar_trigger": false,
      "taf_trigger": false,
      "metar": "METAR ENTC 140950Z 07009G20KT 360V100 CAVOK 10/M00 Q1007 NOSIG RMK WIND 2600FT 10015KT",
      "taf": ""
    },
    {
      "icao": "ENTO",
      "alert": "OK",
      "vis_m": 9999,
      "fzfg": false,
      "metar_trigger": false,
      "taf_trigger": false,
      "metar": "METAR ENTO 140950Z 08004KT 040V120 9999 -RA BKN007 05/05 Q0986 TEMPO BKN012",
      "taf": "TAF ENTO 140500Z 1406/1506 35008KT 9999 -RA BKN020"
    },
    {
      "icao": "ENVA",
      "alert": "OK",
      "vis_m": 9999,
      "fzfg": false,
      "metar_trigger": false,
      "taf_trigger": false,
      "metar": "METAR ENVA 140950Z 21004KT 120V250 9999 VCSH SCT013 BKN016 09/07 Q0989 NOSIG RMK WIND 670FT 06009KT",
      "taf": "TAF ENVA 140500Z 1406/1506 03008KT 9999 -RA FEW012 BKN025"
    },
    {
      "icao": "ENZV",
      "alert": "OK",
      "vis_m": 9999,
      "fzfg": false,
      "metar_trigger": false,
      "taf_trigger": false,
      "metar": "METAR ENZV 140950Z 32016KT 9999 SCT014 10/05 Q0988 NOSIG",
      "taf": "TAF ENZV 140500Z 1406/1506 32010KT 9999 SCT008 BKN030"
    },
    {
      "icao": "EPGD",
      "alert": "OK",
      "vis_m": 9999,
      "fzfg": false,
      "metar_trigger": false,
      "taf_trigger": false,
      "metar": "METAR EPGD 140930Z 16016KT 9999 FEW016 FEW019TCU BKN023 12/06 Q0998",
      "taf": "TAF EPGD 140530Z 1406/1506 18007KT 9999 SCT030"
    },
    {
      "icao": "EPKK",
      "alert": "OK",
      "vis_m": 9999,
      "fzfg": false,
      "metar_trigger": false,
      "taf_trigger": false,
      "metar": "METAR EPKK 140930Z 24013KT 9999 FEW042 14/04 Q1004",
      "taf": "TAF EPKK 140830Z 1409/1509 22012KT CAVOK"
    },
    {
      "icao": "EPKT",
      "alert": "OK",
      "vis_m": 9999,
      "fzfg": false,
      "metar_trigger": false,
      "taf_trigger": false,
      "metar": "METAR EPKT 140930Z 21019G30KT 9999 FEW020 SCT035 14/04 Q1003",
      "taf": ""
    },
    {
      "icao": "EPLB",
      "alert": "OK",
      "vis_m": 9999,
      "fzfg": false,
      "metar_trigger": false,
      "taf_trigger": false,
      "metar": "METAR EPLB 140930Z 18014KT CAVOK 18/02 Q1004",
      "taf": "TAF EPLB 140530Z 1406/1506 VRB02KT CAVOK"
    },
    {
      "icao": "EPMO",
      "alert": "OK",
      "vis_m": 9999,
      "fzfg": false,
      "metar_trigger": false,
      "taf_trigger": false,
      "metar": "METAR EPMO 140930Z 19015KT 160V220 CAVOK 17/03 Q1001",
      "taf": "TAF EPMO 140530Z 1406/1506 17008KT CAVOK"
    },
    {
      "icao": "EPPO",
      "alert": "OK",
      "vis_m": 9999,
      "fzfg": false,
      "metar_trigger": false,
      "taf_trigger": false,
      "metar": "METAR EPPO 140930Z 24014KT 9999 SCT023 13/05 Q0999",
      "taf": "TAF EPPO 140530Z 1406/1506 17007KT CAVOK"
    },
    {
      "icao": "EPRA",
      "alert": "OK",
      "vis_m": 9999,
      "fzfg": false,
      "metar_trigger": false,
      "taf_trigger": false,
      "metar": "METAR EPRA 140930Z 18013KT 150V210 CAVOK 16/03 Q1003",
      "taf": "TAF EPRA 140830Z 1409/1418 21012KT 9999 SCT040"
    },
    {
      "icao": "EPRZ",
      "alert": "OK",
      "vis_m": 9999,
      "fzfg": false,
      "metar_trigger": false,
      "taf_trigger": false,
      "metar": "METAR EPRZ 140930Z 21006KT 150V240 CAVOK 16/04 Q1005",
      "taf": "TAF EPRZ 140530Z 1406/1506 VRB02KT CAVOK"
    },
    {
      "icao": "EPSC",
      "alert": "OK",
      "vis_m": 9999,
      "fzfg": false,
      "metar_trigger": false,
      "taf_trigger": false,
      "metar": "METAR EPSC 140930Z 18011KT 150V210 9999 -SHRA FEW002 SCT013 BKN016CB 10/07 Q0996",
      "taf": "TAF EPSC 140530Z 1406/1506 17010KT 9999 BKN025"
    },
    {
      "icao": "EPSY",
      "alert": "OK",
      "vis_m": 9999,
      "fzfg": false,
      "metar_trigger": false,
      "taf_trigger": false,
      "metar": "METAR EPSY 140930Z 18011KT 130V210 CAVOK 16/05 Q1000",
      "taf": "TAF EPSY 140830Z 1409/1418 18010KT CAVOK"
    },
    {
      "icao": "EPWA",
      "alert": "OK",
      "vis_m": 9999,
      "fzfg": false,
      "metar_trigger": false,
      "taf_trigger": false,
      "metar": "METAR EPWA 140930Z 20012KT 160V240 CAVOK 18/03 Q1001 NOSIG",
      "taf": "TAF EPWA 140830Z 1409/1509 19012KT CAVOK"
    },
    {
      "icao": "EPWR",
      "alert": "OK",
      "vis_m": 9999,
      "fzfg": false,
      "metar_trigger": false,
      "taf_trigger": false,
      "metar": "METAR EPWR 140930Z 20014KT 170V250 9999 SCT040 14/06 Q1001",
      "taf": "TAF EPWR 140830Z 1409/1509 22012KT CAVOK"
    },
    {
      "icao": "ESGG",
      "alert": "OK",
      "vis_m": 8000,
      "fzfg": false,
      "metar_trigger": false,
      "taf_trigger": false,
      "metar": "METAR ESGG 140950Z 22015KT 190V250 8000 -RA SCT007 BKN011CB OVC030 06/05 Q0989",
      "taf": "TAF ESGG 140830Z 1409/1509 22010KT 9999 SCT010 BKN030"
    },
    {
      "icao": "ESKN",
      "alert": "OK",
      "vis_m": 9999,
      "fzfg": false,
      "metar_trigger": false,
      "taf_trigger": false,
      "metar": "METAR ESKN 140950Z 14015KT 9999 BKN019 09/06 Q0993",
      "taf": "TAF ESKN 140830Z 1409/1509 17012KT 9999 SCT020 BKN030"
    },
    {
      "icao": "ESMS",
      "alert": "OK",
      "vis_m": 9999,
      "fzfg": false,
      "metar_trigger": false,
      "taf_trigger": false,
      "metar": "METAR ESMS 140950Z 22010KT 9999 FEW030 SCT036 11/04 Q0993",
      "taf": "TAF ESMS 140827Z 1409/1509 20006KT 9999 SCT025"
    },
    {
      "icao": "ESSA",
      "alert": "OK",
      "vis_m": 9999,
      "fzfg": false,
      "metar_trigger": false,
      "taf_trigger": false,
      "metar": "METAR ESSA 140950Z 17017KT 140V200 9999 BKN032 10/03 Q0994 NOSIG",
      "taf": "TAF ESSA 140830Z 1409/1509 17015KT 9999 BKN025"
    },
    {
      "icao": "EYKA",
      "alert": "OK",
      "vis_m": 9999,
      "fzfg": false,
      "metar_trigger": false,
      "taf_trigger": false,
      "metar": "METAR EYKA 140950Z 19008KT 150V240 9999 BKN044 15/05 Q1003",
      "taf": "TAF EYKA 140500Z 1406/1506 18010KT 9000 SCT045"
    },
    {
      "icao": "EYPA",
      "alert": "OK",
      "vis_m": 9999,
      "fzfg": false,
      "metar_trigger": false,
      "taf_trigger": false,
      "metar": "METAR EYPA 140950Z 19015KT 170V250 9999 FEW037 14/05 Q1000",
      "taf": "TAF EYPA 140500Z 1406/1506 18010KT 9000 SCT030"
    },
    {
      "icao": "EYVI",
      "alert": "OK",
      "vis_m": 9999,
      "fzfg": false,
      "metar_trigger": false,
      "taf_trigger": false,
      "metar": "METAR EYVI 140950Z 20011KT 170V240 9999 FEW042 15/06 Q1004 NOSIG",
      "taf": "TAF EYVI 140500Z 1406/1506 18010KT 9000 SCT035"
    },
    {
      "icao": "GCFV",
      "alert": "OK",
      "vis_m": 9999,
      "fzfg": false,
      "metar_trigger": false,
      "taf_trigger": false,
      "metar": "METAR GCFV 140930Z 02016G26KT 350V050 9999 FEW030 SCT040 22/12 Q1018",
      "taf": "TAF GCFV 140800Z 1409/1509 02015KT 9999 SCT030 TX24/1414Z TN17/1506Z"
    },
    {
      "icao": "GCLP",
      "alert": "OK",
      "vis_m": 9999,
      "fzfg": false,
      "metar_trigger": false,
      "taf_trigger": false,
      "metar": "METAR GCLP 140930Z 36019KT 330V030 9999 SCT030 21/12 Q1018 NOSIG",
      "taf": "TAF GCLP 140800Z 1409/1509 36020KT 9999 BKN035 TX23/1414Z TN17/1506Z"
    },
    {
      "icao": "GCTS",
      "alert": "OK",
      "vis_m": 9999,
      "fzfg": false,
      "metar_trigger": false,
      "taf_trigger": false,
      "metar": "METAR GCTS 140930Z 22004KT 150V280 9999 SCT040 21/11 Q1019 NOSIG",
      "taf": "TAF GCTS 140800Z 1409/1509 10010KT 9999 BKN035 TX23/1414Z TN16/1506Z"
    },
    {
      "icao": "GMAD",
      "alert": "OK",
      "vis_m": 8000,
      "fzfg": false,
      "metar_trigger": false,
      "taf_trigger": false,
      "metar": "METAR GMAD 140930Z 21007KT 8000 FEW020 BKN100 20/14 Q1013 NOSIG",
      "taf": "TAF GMAD 140500Z 1406/1512 12005KT 8000 SCT020"
    },
    {
      "icao": "GMMN",
      "alert": "OK",
      "vis_m": 9999,
      "fzfg": false,
      "metar_trigger": false,
      "taf_trigger": false,
      "metar": "METAR GMMN 140930Z 03010KT 360V060 9999 BKN026 20/14 Q1014 NOSIG",
      "taf": "TAF GMMN 140500Z 1406/1512 06006KT 9999 BKN014"
    },
    {
      "icao": "GMMX",
      "alert": "OK",
      "vis_m": 9999,
      "fzfg": false,
      "metar_trigger": false,
      "taf_trigger": false,
      "metar": "METAR GMMX 140930Z 29005KT 240V340 9999 FEW023 BKN100 17/11 Q1013 NOSIG",
      "taf": "TAF GMMX 140500Z 1406/1512 26006KT 9999 SCT090 SCT200"
    },
    {
      "icao": "HEGN",
      "alert": "OK",
      "vis_m": 9999,
      "fzfg": false,
      "metar_trigger": false,
      "taf_trigger": false,
      "metar": "METAR HEGN 140900Z 36009KT CAVOK 33/05 Q1010 NOSIG",
      "taf": "TAF HEGN 140500Z 1406/1512 01014KT CAVOK"
    },
    {
      "icao": "HEMA",
      "alert": "OK",
      "vis_m": 9999,
      "fzfg": false,
      "metar_trigger": false,
      "taf_trigger": false,
      "metar": "METAR HEMA 140900Z 34022KT CAVOK 35/00 Q1009 NOSIG",
      "taf": "TAF HEMA 140500Z 1406/1512 35015KT CAVOK"
    },
    {
      "icao": "HESH",
      "alert": "OK",
      "vis_m": 9999,
      "fzfg": false,
      "metar_trigger": false,
      "taf_trigger": false,
      "metar": "METAR HESH 140900Z 36011KT CAVOK 35/08 Q1010 NOSIG",
      "taf": "TAF HESH 140500Z 1406/1512 02014KT CAVOK"
    },
    {
      "icao": "HESX",
      "alert": "OK",
      "vis_m": 9999,
      "fzfg": false,
      "metar_trigger": false,
      "taf_trigger": false,
      "metar": "METAR HESX 140900Z 25012KT CAVOK 35/M00 Q1010 NOSIG",
      "taf": "TAF HESX 140500Z 1406/1512 25010KT CAVOK"
    },
    {
      "icao": "LATI",
      "alert": "OK",
      "vis_m": 9999,
      "fzfg": false,
      "metar_trigger": false,
      "taf_trigger": false,
      "metar": "METAR LATI 140950Z 26006KT 220V030 9999 SCT043 20/09 Q1007 BECMG 24012KT",
      "taf": "TAF LATI 140500Z 1406/1506 VRB05KT 9999 FEW040 BKN070 TX23/1412Z TN12/1504Z"
    },
    {
      "icao": "LBPD",
      "alert": "OK",
      "vis_m": 9999,
      "fzfg": false,
      "metar_trigger": false,
      "taf_trigger": false,
      "metar": "METAR LBPD 140930Z AUTO VRB03KT 9999 NCD 17/04 Q1006 NOSIG",
      "taf": "TAF LBPD 140500Z 1406/1506 30008KT 9999 SCT070"
    },
    {
      "icao": "LBSF",
      "alert": "OK",
      "vis_m": 9999,
      "fzfg": false,
      "metar_trigger": false,
      "taf_trigger": false,
      "metar": "METAR LBSF 140930Z 31005KT 230V020 CAVOK 15/M05 Q1007 NOSIG",
      "taf": "TAF LBSF 140500Z 1406/1506 VRB03KT 9999 SCT070"
    },
    {
      "icao": "LBWN",
      "alert": "OK",
      "vis_m": 9999,
      "fzfg": false,
      "metar_trigger": false,
      "taf_trigger": false,
      "metar": "METAR LBWN 140930Z 01008KT 310V080 9999 SCT040 BKN049 17/07 Q1006 NOSIG",
      "taf": "TAF LBWN 140500Z 1406/1506 33008KT 9999 SCT040"
    },
    {
      "icao": "LCLK",
      "alert": "OK",
      "vis_m": 9999,
      "fzfg": false,
      "metar_trigger": false,
      "taf_trigger": false,
      "metar": "METAR LCLK 140930Z 21017KT 9999 FEW030 26/17 Q1007 NOSIG",
      "taf": "TAF LCLK 140530Z 1406/1506 24008KT 9999 FEW030"
    },
    {
      "icao": "LCPH",
      "alert": "OK",
      "vis_m": 9000,
      "fzfg": false,
      "metar_trigger": false,
      "taf_trigger": false,
      "metar": "METAR LCPH 140930Z 15008KT 090V170 9000 NSC 24/18 Q1008 NOSIG",
      "taf": "TAF LCPH 140530Z 1406/1506 10007KT CAVOK"
    },
    {
      "icao": "LEAL",
      "alert": "OK",
      "vis_m": 9999,
      "fzfg": false,
      "metar_trigger": false,
      "taf_trigger": false,
      "metar": "METAR LEAL 140930Z 30012KT 260V340 CAVOK 26/06 Q1011 NOSIG",
      "taf": "TAF LEAL 140500Z 1406/1506 VRB03KT 9999 FEW020 TX26/1412Z TN16/1406Z"
    },
    {
      "icao": "LEBB",
      "alert": "OK",
      "vis_m": 9999,
      "fzfg": false,
      "metar_trigger": false,
      "taf_trigger": false,
      "metar": "METAR LEBB 140930Z 27011KT 220V300 9999 FEW024 SCT050 BKN065 13/10 Q1014 TEMPO 3000 RA BKN010",
      "taf": "TAF LEBB 140500Z 1406/1506 30009KT 9999 SCT030 TX16/1413Z TN11/1409Z"
    },
    {
      "icao": "LEBL",
      "alert": "OK",
      "vis_m": 9999,
      "fzfg": false,
      "metar_trigger": false,
      "taf_trigger": false,
      "metar": "METAR LEBL 140930Z 21009KT 170V240 9999 FEW045 21/07 Q1008 NOSIG",
      "taf": "TAF LEBL 140500Z 1406/1506 VRB04KT 9999 FEW020 TX24/1412Z TN12/1505Z"
    },
    {
      "icao": "LECH",
      "alert": "OK",
      "vis_m": 9999,
      "fzfg": false,
      "metar_trigger": false,
      "taf_trigger": false,
      "metar": "METAR LECH 140930Z AUTO 24004KT 140V300 CAVOK 19/07 Q1011",
      "taf": "TAF LECH 140500Z 1406/1506 32008KT 9999 FEW040 TX22/1414Z TN09/1406Z"
    },
    {
      "icao": "LEMD",
      "alert": "OK",
      "vis_m": 9999,
      "fzfg": false,
      "metar_trigger": false,
      "taf_trigger": false,
      "metar": "METAR LEMD 140930Z 29005KT 9999 SCT040 18/10 Q1012 NOSIG",
      "taf": "TAF LEMD 140500Z 1406/1512 VRB04KT CAVOK TX22/1416Z TN07/1505Z"
    },
    {
      "icao": "LEMG",
      "alert": "OK",
      "vis_m": 9999,
      "fzfg": false,
      "metar_trigger": false,
      "taf_trigger": false,
      "metar": "METAR LEMG 140930Z 28009KT 250V320 CAVOK 23/10 Q1012 NOSIG",
      "taf": "TAF LEMG 140500Z 1406/1506 28010KT CAVOK TX28/1414Z TN15/1406Z"
    },
    {
      "icao": "LEVC",
      "alert": "OK",
      "vis_m": 9999,
      "fzfg": false,
      "metar_trigger": false,
      "taf_trigger": false,
      "metar": "METAR LEVC 140930Z 24005KT CAVOK 23/10 Q1010 NOSIG",
      "taf": "TAF LEVC 140500Z 1406/1506 VRB03KT CAVOK TX28/1412Z TN14/1406Z"
    },
    {
      "icao": "LEXJ",
      "alert": "OK",
      "vis_m": 4500,
      "fzfg": false,
      "metar_trigger": false,
      "taf_trigger": false,
      "metar": "SPECI LEXJ 140941Z 28016KT 4500 RA SCT022 BKN035 BKN058 12/10 Q1015",
      "taf": "TAF LEXJ 140800Z 1409/1509 28013KT 9999 FEW020 BKN035 TX16/1414Z TN11/1503Z"
    },
    {
      "icao": "LEZG",
      "alert": "OK",
      "vis_m": 9999,
      "fzfg": false,
      "metar_trigger": false,
      "taf_trigger": false,
      "metar": "METAR LEZG 140930Z 32015KT 280V350 9999 SCT060 16/06 Q1012 NOSIG",
      "taf": "TAF LEZG 140500Z 1406/1506 30010KT 9999 FEW050 TX21/1418Z TN10/1505Z"
    },
    {
      "icao": "LEZL",
      "alert": "OK",
      "vis_m": 9999,
      "fzfg": false,
      "metar_trigger": false,
      "taf_trigger": false,
      "metar": "METAR LEZL 140930Z 14002KT CAVOK 21/12 Q1013 NOSIG",
      "taf": "TAF LEZL 140800Z 1409/1509 VRB03KT CAVOK TX27/1415Z TN13/1506Z"
    },
    {
      "icao": "LFBD",
      "alert": "OK",
      "vis_m": 9999,
      "fzfg": false,
      "metar_trigger": false,
      "taf_trigger": false,
      "metar": "METAR LFBD 140930Z AUTO 30012KT 270V330 9999 FEW028/// SCT033/// BKN240/// ///CB 14/09 Q1009 TEMPO 30020G35KT 4000 SHRA",
      "taf": "TAF LFBD 140500Z 1406/1512 27010KT 9999 BKN040 TX14/1412Z TN06/1506Z"
    },
    {
      "icao": "LFLL",
      "alert": "OK",
      "vis_m": 9999,
      "fzfg": false,
      "metar_trigger": false,
      "taf_trigger": false,
      "metar": "METAR LFLL 140930Z 20007KT 160V240 9999 SHRA FEW026CB SCT030TCU BKN080 13/06 Q1004 TEMPO 33010G25KT 4000 TSRA SCT030CB",
      "taf": "TAF LFLL 140500Z 1406/1512 15005KT 9999 BKN045"
    },
    {
      "icao": "LFLS",
      "alert": "OK",
      "vis_m": 9999,
      "fzfg": false,
      "metar_trigger": false,
      "taf_trigger": false,
      "metar": "METAR LFLS 140930Z AUTO 19011KT 9999 OVC050 10/07 Q1005 TEMPO VRB20G35KT 1500 TSRAGS BKN013 BKN033CB",
      "taf": "TAF LFLS 140800Z 1409/1509 25005KT 9999 SCT040 BKN060"
    },
    {
      "icao": "LFMN",
      "alert": "OK",
      "vis_m": 9999,
      "fzfg": false,
      "metar_trigger": false,
      "taf_trigger": false,
      "metar": "METAR LFMN 140930Z 24023KT CAVOK 22/05 Q1001 NOSIG",
      "taf": "TAF LFMN 140800Z 1409/1515 25020KT CAVOK"
    },
    {
      "icao": "LFOB",
      "alert": "OK",
      "vis_m": 9000,
      "fzfg": false,
      "metar_trigger": false,
      "taf_trigger": false,
      "metar": "METAR LFOB 140930Z AUTO 31014G25KT 230V350 9000 3900 -RA FEW022/// BKN027/// BKN038/// ///CB 08/05 Q1000 TEMPO 1200 TSRAGS BKN009 BKN014CB",
      "taf": ""
    },
    {
      "icao": "LFPO",
      "alert": "OK",
      "vis_m": 9999,
      "fzfg": false,
      "metar_trigger": false,
      "taf_trigger": false,
      "metar": "METAR LFPO 140930Z 26009KT 9999 SCT020 BKN043 BKN130 11/07 Q1001 TEMPO 4000 SHRA BKN030CB",
      "taf": "TAF LFPO 140500Z 1406/1512 24010KT 9999 SCT040"
    },
    {
      "icao": "LFSB",
      "alert": "OK",
      "vis_m": 9999,
      "fzfg": false,
      "metar_trigger": false,
      "taf_trigger": false,
      "metar": "METAR LFSB 140930Z AUTO 24007KT 160V280 9999 SCT033 SCT047 BKN068 12/06 Q1002 TEMPO SCT025TCU",
      "taf": ""
    },
    {
      "icao": "LGAV",
      "alert": "OK",
      "vis_m": 9999,
      "fzfg": false,
      "metar_trigger": false,
      "taf_trigger": false,
      "metar": "METAR LGAV 140950Z 30011KT 260V330 9999 SCT025 25/06 Q1005 NOSIG",
      "taf": ""
    },
    {
      "icao": "LGTS",
      "alert": "OK",
      "vis_m": 9999,
      "fzfg": false,
      "metar_trigger": false,
      "taf_trigger": false,
      "metar": "METAR LGTS 140950Z 28006KT 9999 FEW025 21/09 Q1006 NOSIG",
      "taf": "TAF LGTS 140500Z 1406/1506 33013KT 9999 SCT030"
    },
    {
      "icao": "LHBP",
      "alert": "OK",
      "vis_m": 9999,
      "fzfg": false,
      "metar_trigger": false,
      "taf_trigger": false,
      "metar": "METAR LHBP 140930Z 21011KT 160V260 CAVOK 18/01 Q1005 NOSIG",
      "taf": "TAF LHBP 140515Z 1406/1506 VRB03KT CAVOK"
    },
    {
      "icao": "LHDC",
      "alert": "OK",
      "vis_m": 9999,
      "fzfg": false,
      "metar_trigger": false,
      "taf_trigger": false,
      "metar": "METAR LHDC 140915Z AUTO VRB04KT CAVOK 17/03 Q1007 NOSIG",
      "taf": "TAF LHDC 140815Z 1409/1418 17005KT CAVOK"
    },
    {
      "icao": "LIBD",
      "alert": "OK",
      "vis_m": 9999,
      "fzfg": false,
      "metar_trigger": false,
      "taf_trigger": false,
      "metar": "METAR LIBD 140950Z 06007KT 030V110 CAVOK 19/13 Q1007",
      "taf": "TAF LIBD 140500Z 1406/1506 25006KT 9999 SCT020"
    },
    {
      "icao": "LIBG",
      "alert": "OK",
      "vis_m": 9999,
      "fzfg": false,
      "metar_trigger": false,
      "taf_trigger": false,
      "metar": "METAR LIBG 140850Z 22003KT 9999 FEW040 20/13 Q1007",
      "taf": "TAF LIBG 140800Z 1409/1418 VRB05KT 9999 FEW040"
    },
    {
      "icao": "LIBP",
      "alert": "OK",
      "vis_m": 9999,
      "fzfg": false,
      "metar_trigger": false,
      "taf_trigger": false,
      "metar": "METAR LIBP 140950Z AUTO 11011KT 9999 FEW052/// 22/10 Q1005",
      "taf": "TAF LIBP 140500Z 1406/1506 VRB05KT 9999 SCT070"
    },
    {
      "icao": "LIBR",
      "alert": "OK",
      "vis_m": 9999,
      "fzfg": false,
      "metar_trigger": false,
      "taf_trigger": false,
      "metar": "METAR LIBR 140950Z 03007KT 9999 SCT015 18/14 Q1007",
      "taf": "TAF LIBR 140500Z 1406/1506 VRB06KT 9999 SCT040"
    },
    {
      "icao": "LICA",
      "alert": "OK",
      "vis_m": 9999,
      "fzfg": false,
      "metar_trigger": false,
      "taf_trigger": false,
      "metar": "METAR LICA 140950Z AUTO 28019KT 9999 FEW023/// 21/15 Q1010",
      "taf": "TAF LICA 140500Z 1406/1506 27013KT 9999 SCT013"
    },
    {
      "icao": "LICC",
      "alert": "OK",
      "vis_m": 9999,
      "fzfg": false,
      "metar_trigger": false,
      "taf_trigger": false,
      "metar": "METAR LICC 140950Z 24016KT 220V280 9999 FEW050 24/17 Q1010",
      "taf": "TAF LICC 140500Z 1406/1506 26012KT CAVOK"
    },
    {
      "icao": "LICJ",
      "alert": "OK",
      "vis_m": 9999,
      "fzfg": false,
      "metar_trigger": false,
      "taf_trigger": false,
      "metar": "METAR LICJ 140950Z 25015KT 9999 FEW025 19/13 Q1012",
      "taf": "TAF LICJ 140500Z 1406/1506 26016KT CAVOK"
    },
    {
      "icao": "LIMC",
      "alert": "OK",
      "vis_m": 9999,
      "fzfg": false,
      "metar_trigger": false,
      "taf_trigger": false,
      "metar": "METAR LIMC 140950Z 19007KT 130V230 9999 FEW020TCU SCT030 17/11 Q1000 NOSIG",
      "taf": "TAF LIMC 140500Z 1406/1512 VRB05KT 9999 BKN020"
    },
    {
      "icao": "LIME",
      "alert": "OK",
      "vis_m": 9999,
      "fzfg": false,
      "metar_trigger": false,
      "taf_trigger": false,
      "metar": "METAR LIME 140950Z 13011KT 110V170 9999 SCT025 17/10 Q1000 TEMPO RA",
      "taf": "TAF LIME 140500Z 1406/1506 VRB05KT 9999 BKN050"
    },
    {
      "icao": "LIMF",
      "alert": "OK",
      "vis_m": 9999,
      "fzfg": false,
      "metar_trigger": false,
      "taf_trigger": false,
      "metar": "METAR LIMF 140950Z 16004KT 110V210 CAVOK 17/08 Q0999",
      "taf": "TAF LIMF 140500Z 1406/1506 VRB05KT 9999 FEW040"
    },
    {
      "icao": "LIMJ",
      "alert": "OK",
      "vis_m": 9999,
      "fzfg": false,
      "metar_trigger": false,
      "taf_trigger": false,
      "metar": "METAR LIMJ 140950Z 17006KT 9999 FEW020 18/14 Q1000",
      "taf": "TAF LIMJ 140500Z 1406/1506 VRB05KT 9999 FEW020"
    },
    {
      "icao": "LIPE",
      "alert": "OK",
      "vis_m": 9999,
      "fzfg": false,
      "metar_trigger": false,
      "taf_trigger": false,
      "metar": "METAR LIPE 140950Z 20018KT 9999 FEW060 20/07 Q1000",
      "taf": "TAF LIPE 140500Z 1406/1506 VRB05KT 9999 SCT060"
    },
    {
      "icao": "LIPH",
      "alert": "OK",
      "vis_m": 9999,
      "fzfg": false,
      "metar_trigger": false,
      "taf_trigger": false,
      "metar": "METAR LIPH 140950Z 05010KT 9999 BKN035 12/10 Q1002",
      "taf": "TAF LIPH 140500Z 1406/1506 VRB05KT 9999 SCT040"
    },
    {
      "icao": "LIPQ",
      "alert": "OK",
      "vis_m": 6000,
      "fzfg": false,
      "metar_trigger": false,
      "taf_trigger": false,
      "metar": "METAR LIPQ 140950Z AUTO 02003KT 360V140 6000 RA OVC047/// 11/10 Q1003",
      "taf": "TAF LIPQ 140500Z 1406/1506 07006KT 9999 SCT060"
    },
    {
      "icao": "LIPR",
      "alert": "OK",
      "vis_m": 9999,
      "fzfg": false,
      "metar_trigger": false,
      "taf_trigger": false,
      "metar": "METAR LIPR 140950Z AUTO 20010KT 160V230 9999 FEW063/// 19/09 Q1003",
      "taf": "TAF LIPR 140500Z 1406/1506 VRB05KT 9999 FEW060"
    },
    {
      "icao": "LIPX",
      "alert": "OK",
      "vis_m": 9999,
      "fzfg": false,
      "metar_trigger": false,
      "taf_trigger": false,
      "metar": "METAR LIPX 140950Z 09010KT 040V120 CAVOK 17/10 Q1001",
      "taf": "TAF LIPX 140500Z 1406/1506 07012KT 9999 BKN050"
    },
    {
      "icao": "LIPY",
      "alert": "OK",
      "vis_m": 9999,
      "fzfg": false,
      "metar_trigger": false,
      "taf_trigger": false,
      "metar": "METAR LIPY 140950Z AUTO 23010KT 9999 BKN065/// BKN190/// 20/10 Q1004",
      "taf": "TAF LIPY 140500Z 1406/1506 VRB05KT 9999 FEW060"
    },
    {
      "icao": "LIPZ",
      "alert": "OK",
      "vis_m": 9999,
      "fzfg": false,
      "metar_trigger": false,
      "taf_trigger": false,
      "metar": "METAR LIPZ 140950Z 06015KT 9999 SCT020 BKN035 14/11 Q1002 NOSIG",
      "taf": "TAF LIPZ 140500Z 1406/1512 VRB05KT 9999 SCT060"
    },
    {
      "icao": "LIRF",
      "alert": "OK",
      "vis_m": 9999,
      "fzfg": false,
      "metar_trigger": false,
      "taf_trigger": false,
      "metar": "METAR LIRF 140950Z 17007KT 140V200 9999 FEW030 SCT045 20/13 Q1006 NOSIG",
      "taf": "TAF LIRF 140500Z 1406/1512 08007KT 9999 FEW030"
    },
    {
      "icao": "LIRN",
      "alert": "OK",
      "vis_m": 9999,
      "fzfg": false,
      "metar_trigger": false,
      "taf_trigger": false,
      "metar": "METAR LIRN 140950Z 23007KT 9999 FEW030 BKN040 17/13 Q1008 RERA NOSIG",
      "taf": "TAF LIRN 140500Z 1406/1506 VRB05KT CAVOK"
    },
    {
      "icao": "LIRP",
      "alert": "OK",
      "vis_m": 9999,
      "fzfg": false,
      "metar_trigger": false,
      "taf_trigger": false,
      "metar": "METAR LIRP 140945Z 24021G32KT 9999 SCT035 19/09 Q1004 NOSIG",
      "taf": "TAF LIRP 140500Z 1406/1506 22015KT 9999 FEW020 SCT040"
    },
    {
      "icao": "LIRZ",
      "alert": "OK",
      "vis_m": 9999,
      "fzfg": false,
      "metar_trigger": false,
      "taf_trigger": false,
      "metar": "METAR LIRZ 140950Z AUTO 21012KT 9999 FEW026/// 18/12 Q1005",
      "taf": "TAF LIRZ 140500Z 1406/1506 VRB05KT 9999 SCT030"
    },
    {
      "icao": "LJLJ",
      "alert": "OK",
      "vis_m": 9999,
      "fzfg": false,
      "metar_trigger": false,
      "taf_trigger": false,
      "metar": "METAR LJLJ 140930Z 11004KT 060V160 9999 FEW060 SCT080 BKN130 14/03 Q1003 NOSIG",
      "taf": "TAF LJLJ 140500Z 1406/1506 VRB02KT 9999 SCT060"
    },
    {
      "icao": "LKMT",
      "alert": "OK",
      "vis_m": 9999,
      "fzfg": false,
      "metar_trigger": false,
      "taf_trigger": false,
      "metar": "METAR LKMT 140930Z 22017KT 9999 FEW042 15/06 Q1003 NOSIG",
      "taf": "TAF LKMT 140500Z 1406/1506 21015KT CAVOK"
    },
    {
      "icao": "LKPR",
      "alert": "OK",
      "vis_m": 9999,
      "fzfg": false,
      "metar_trigger": false,
      "taf_trigger": false,
      "metar": "METAR LKPR 140930Z 23010KT 190V270 9999 SCT038 13/05 Q1001 NOSIG",
      "taf": "TAF LKPR 140800Z 1409/1515 22012KT 9999 SCT040"
    },
    {
      "icao": "LLBG",
      "alert": "OK",
      "vis_m": 9999,
      "fzfg": false,
      "metar_trigger": false,
      "taf_trigger": false,
      "metar": "METAR LLBG 140950Z 26007KT 220V300 CAVOK 33/05 Q1009 NOSIG",
      "taf": "TAF LLBG 140504Z 1406/1506 VRB03KT CAVOK TX34/1412Z TN20/1504Z"
    },
    {
      "icao": "LMML",
      "alert": "OK",
      "vis_m": 9999,
      "fzfg": false,
      "metar_trigger": false,
      "taf_trigger": false,
      "metar": "METAR LMML 140945Z 28014KT 230V310 9999 FEW024 21/12 Q1014 NOSIG",
      "taf": "TAF LMML 140500Z 1406/1506 29017KT 9999 FEW015"
    },
    {
      "icao": "LOWW",
      "alert": "OK",
      "vis_m": 9999,
      "fzfg": false,
      "metar_trigger": false,
      "taf_trigger": false,
      "metar": "METAR LOWW 140950Z 13006KT 080V160 CAVOK 14/05 Q1004 NOSIG",
      "taf": "TAF LOWW 140815Z 1409/1515 13004KT 9999 SCT050 TX16/1411Z TN08/1501Z"
    },
    {
      "icao": "LPFR",
      "alert": "OK",
      "vis_m": 9999,
      "fzfg": false,
      "metar_trigger": false,
      "taf_trigger": false,
      "metar": "METAR LPFR 140930Z 24007KT 9999 FEW015 19/12 Q1015",
      "taf": "TAF LPFR 140500Z 1406/1506 28005KT CAVOK"
    },
    {
      "icao": "LPMA",
      "alert": "OK",
      "vis_m": 9999,
      "fzfg": false,
      "metar_trigger": false,
      "taf_trigger": false,
      "metar": "METAR LPMA 140930Z 36010KT 290V040 9999 FEW015 18/11 Q1019",
      "taf": "TAF LPMA 140500Z 1406/1506 35008KT 9999 SCT015"
    },
    {
      "icao": "LPPR",
      "alert": "OK",
      "vis_m": 9999,
      "fzfg": false,
      "metar_trigger": false,
      "taf_trigger": false,
      "metar": "METAR LPPR 140930Z 36019KT 9999 FEW020 16/07 Q1016",
      "taf": "TAF LPPR 140500Z 1406/1506 01005KT 9999 FEW015"
    },
    {
      "icao": "LPPS",
      "alert": "OK",
      "vis_m": 9999,
      "fzfg": false,
      "metar_trigger": false,
      "taf_trigger": false,
      "metar": "METAR LPPS 140930Z 34013KT 9999 SCT014 19/13 Q1020",
      "taf": "TAF LPPS 140500Z 1406/1512 33012KT 9999 SCT015"
    },
    {
      "icao": "LPPT",
      "alert": "OK",
      "vis_m": 9999,
      "fzfg": false,
      "metar_trigger": false,
      "taf_trigger": false,
      "metar": "METAR LPPT 140930Z 35013G23KT 310V020 9999 FEW022 SCT025 17/11 Q1016",
      "taf": "TAF LPPT 140500Z 1406/1512 33010KT 9999 FEW020"
    },
    {
      "icao": "LQBK",
      "alert": "OK",
      "vis_m": 9999,
      "fzfg": false,
      "metar_trigger": false,
      "taf_trigger": false,
      "metar": "METAR LQBK 140930Z 05004KT 340V130 CAVOK 17/04 Q1004 NOSIG",
      "taf": "TAF LQBK 140500Z 1406/1506 15005KT CAVOK TX21/1413Z TN08/1504Z"
    },
    {
      "icao": "LQSA",
      "alert": "OK",
      "vis_m": 9999,
      "fzfg": false,
      "metar_trigger": false,
      "taf_trigger": false,
      "metar": "METAR LQSA 140930Z 21003KT 120V290 9999 FEW050 17/03 Q1005 NOSIG",
      "taf": "TAF LQSA 140500Z 1406/1506 VRB02KT CAVOK TX22/1413Z TN08/1504Z"
    },
    {
      "icao": "LQTZ",
      "alert": "OK",
      "vis_m": 9999,
      "fzfg": false,
      "metar_trigger": false,
      "taf_trigger": false,
      "metar": "METAR LQTZ 140930Z 10003KT 010V150 CAVOK 18/05 Q1005",
      "taf": "TAF LQTZ 140500Z 1406/1506 VRB02KT CAVOK TX21/1413Z TN08/1504Z"
    },
    {
      "icao": "LRBC",
      "alert": "OK",
      "vis_m": 9999,
      "fzfg": false,
      "metar_trigger": false,
      "taf_trigger": false,
      "metar": "METAR LRBC 140930Z 34006KT 310V010 9999 FEW059 16/04 Q1007",
      "taf": "TAF LRBC 140800Z 1409/1418 36006KT CAVOK"
    },
    {
      "icao": "LRBS",
      "alert": "OK",
      "vis_m": 9999,
      "fzfg": false,
      "metar_trigger": false,
      "taf_trigger": false,
      "metar": "METAR LRBS 140930Z VRB03KT 9999 FEW046 18/07 Q1008 NOSIG",
      "taf": "TAF LRBS 140500Z 1406/1506 VRB04KT CAVOK"
    },
    {
      "icao": "LRBV",
      "alert": "OK",
      "vis_m": 9999,
      "fzfg": false,
      "metar_trigger": false,
      "taf_trigger": false,
      "metar": "METAR LRBV 140930Z 35005KT 300V090 9999 SCT033 12/04 Q1007",
      "taf": "TAF LRBV 140800Z 1409/1418 VRB04KT 9999 SCT030"
    },
    {
      "icao": "LRCL",
      "alert": "OK",
      "vis_m": 9999,
      "fzfg": false,
      "metar_trigger": false,
      "taf_trigger": false,
      "metar": "METAR LRCL 140930Z 10005KT 360V160 9999 FEW037 15/04 Q1007",
      "taf": "TAF LRCL 140800Z 1409/1418 06005KT 9999 SCT035"
    },
    {
      "icao": "LRCV",
      "alert": "OK",
      "vis_m": 9999,
      "fzfg": false,
      "metar_trigger": false,
      "taf_trigger": false,
      "metar": "METAR LRCV 140930Z 13007KT 9999 SCT036 16/09 Q1008",
      "taf": "TAF LRCV 140800Z 1409/1418 12008KT 9999 SCT030"
    },
    {
      "icao": "LRIA",
      "alert": "OK",
      "vis_m": 9999,
      "fzfg": false,
      "metar_trigger": false,
      "taf_trigger": false,
      "metar": "METAR LRIA 140930Z 33010KT 280V010 CAVOK 15/03 Q1007",
      "taf": "TAF LRIA 140800Z 1409/1418 33012KT CAVOK"
    },
    {
      "icao": "LROP",
      "alert": "OK",
      "vis_m": 9999,
      "fzfg": false,
      "metar_trigger": false,
      "taf_trigger": false,
      "metar": "METAR LROP 140930Z 11003KT 040V200 CAVOK 16/04 Q1008 NOSIG",
      "taf": "TAF LROP 140500Z 1406/1506 VRB04KT CAVOK"
    },
    {
      "icao": "LRSB",
      "alert": "OK",
      "vis_m": 9999,
      "fzfg": false,
      "metar_trigger": false,
      "taf_trigger": false,
      "metar": "METAR LRSB 140930Z VRB03KT 9999 FEW050 15/03 Q1007",
      "taf": "TAF LRSB 140500Z 1406/1506 VRB04KT CAVOK"
    },
    {
      "icao": "LRSM",
      "alert": "OK",
      "vis_m": 9999,
      "fzfg": false,
      "metar_trigger": false,
      "taf_trigger": false,
      "metar": "METAR LRSM 140930Z AUTO 26004KT 160V310 9999 FEW060/// 17/05 Q1007",
      "taf": "TAF LRSM 140800Z 1409/1418 VRB04KT CAVOK"
    },
    {
      "icao": "LRSV",
      "alert": "OK",
      "vis_m": 9999,
      "fzfg": false,
      "metar_trigger": false,
      "taf_trigger": false,
      "metar": "METAR LRSV 140930Z 25004KT 170V340 9999 BKN047 13/04 Q1007",
      "taf": "TAF LRSV 140800Z 1409/1418 VRB04KT CAVOK"
    },
    {
      "icao": "LRTM",
      "alert": "OK",
      "vis_m": 9999,
      "fzfg": false,
      "metar_trigger": false,
      "taf_trigger": false,
      "metar": "METAR LRTM 140930Z VRB03KT 9999 FEW032 14/06 Q1008",
      "taf": "TAF LRTM 140800Z 1409/1418 VRB04KT 9999 SCT030"
    },
    {
      "icao": "LRTR",
      "alert": "OK",
      "vis_m": 9999,
      "fzfg": false,
      "metar_trigger": false,
      "taf_trigger": false,
      "metar": "METAR LRTR 140930Z 10008KT 020V150 9999 FEW045 16/04 Q1007 NOSIG",
      "taf": "TAF LRTR 140500Z 1406/1506 10005KT CAVOK"
    },
    {
      "icao": "LTAC",
      "alert": "OK",
      "vis_m": 9999,
      "fzfg": false,
      "metar_trigger": false,
      "taf_trigger": false,
      "metar": "METAR LTAC 140950Z 25008KT 190V300 9999 SCT040 BKN080 21/11 Q1002 NOSIG RMK RWY21C 24007KT 180V290 RWY03L 23006KT 190V270 RWY21R 24007KT 180V300 RWY03R 20013KT RWY21L 25006KT 210V270",
      "taf": "TAF LTAC 140440Z 1406/1506 VRB02KT 9999 SCT040 SCT100"
    },
    {
      "icao": "LTFM",
      "alert": "OK",
      "vis_m": 9999,
      "fzfg": false,
      "metar_trigger": false,
      "taf_trigger": false,
      "metar": "METAR LTFM 140950Z 03012KT 9999 SCT035 BKN090 14/10 Q1007 NOSIG RMK RWY17L 02011KT RWY34L 01012KT RWY16R 02010KT RWY36 02013KT RWY18 02011KT",
      "taf": "TAF LTFM 140440Z 1406/1512 36012KT 9999 SCT035 BKN090"
    },
    {
      "icao": "LUKK",
      "alert": "OK",
      "vis_m": 9999,
      "fzfg": false,
      "metar_trigger": false,
      "taf_trigger": false,
      "metar": "METAR LUKK 140930Z 35011KT 320V030 CAVOK 16/05 Q1005 NOSIG",
      "taf": "TAF LUKK 140509Z 1406/1506 33014KT CAVOK"
    },
    {
      "icao": "LWOH",
      "alert": "OK",
      "vis_m": 9999,
      "fzfg": false,
      "metar_trigger": false,
      "taf_trigger": false,
      "metar": "METAR LWOH 140950Z 15008KT 120V180 9999 FEW030 SCT040 16/08 Q1007",
      "taf": "TAF LWOH 140850Z 1409/1509 17008KT 9999 SCT040"
    },
    {
      "icao": "LWSK",
      "alert": "OK",
      "vis_m": 9999,
      "fzfg": false,
      "metar_trigger": false,
      "taf_trigger": false,
      "metar": "METAR LWSK 140950Z 09005KT 020V180 9999 FEW040 20/07 Q1006 NOSIG",
      "taf": "TAF LWSK 140850Z 1409/1509 VRB02KT 9999 SCT050"
    },
    {
      "icao": "LYBE",
      "alert": "OK",
      "vis_m": 9999,
      "fzfg": false,
      "metar_trigger": false,
      "taf_trigger": false,
      "metar": "METAR LYBE 140930Z 10007KT 070V140 CAVOK 17/04 Q1006 NOSIG",
      "taf": "TAF LYBE 140500Z 1406/1506 13008KT CAVOK TX21/1413Z TN11/1504Z"
    },
    {
      "icao": "LYNI",
      "alert": "OK",
      "vis_m": 9999,
      "fzfg": false,
      "metar_trigger": false,
      "taf_trigger": false,
      "metar": "METAR LYNI 140930Z 25001KT CAVOK 17/03 Q1007 NOSIG",
      "taf": "TAF LYNI 140500Z 1406/1506 07005KT CAVOK TX21/1413Z TN07/1503Z"
    },
    {
      "icao": "LYPG",
      "alert": "OK",
      "vis_m": 9999,
      "fzfg": false,
      "metar_trigger": false,
      "taf_trigger": false,
      "metar": "METAR LYPG 140930Z 17005KT 080V250 9999 FEW020 SCT040 21/09 Q1006 NOSIG",
      "taf": "TAF LYPG 140500Z 1406/1506 16005KT 9999 FEW040 TX23/1413Z TN14/1504Z"
    },
    {
      "icao": "LZIB",
      "alert": "OK",
      "vis_m": 9999,
      "fzfg": false,
      "metar_trigger": false,
      "taf_trigger": false,
      "metar": "METAR LZIB 140930Z 17009KT 130V210 CAVOK 16/04 Q1004 NOSIG",
      "taf": "TAF LZIB 140515Z 1406/1506 21005KT 9999 FEW040"
    },
    {
      "icao": "LZKZ",
      "alert": "OK",
      "vis_m": 9999,
      "fzfg": false,
      "metar_trigger": false,
      "taf_trigger": false,
      "metar": "METAR LZKZ 140930Z 22008KT 190V250 CAVOK 16/04 Q1006 NOSIG",
      "taf": "TAF LZKZ 140515Z 1406/1506 VRB02KT CAVOK"
    },
    {
      "icao": "LZTT",
      "alert": "OK",
      "vis_m": 9999,
      "fzfg": false,
      "metar_trigger": false,
      "taf_trigger": false,
      "metar": "METAR LZTT 140930Z 26012KT 9999 BKN058 13/00 Q1005 NOSIG",
      "taf": "TAF LZTT 140515Z 1406/1506 25007KT 9999 FEW050"
    },
    {
      "icao": "OEJN",
      "alert": "OK",
      "vis_m": 9999,
      "fzfg": false,
      "metar_trigger": false,
      "taf_trigger": false,
      "metar": "METAR OEJN 140900Z 32009KT CAVOK 39/10 Q1006 NOSIG",
      "taf": "TAF OEJN 140500Z 1406/1512 33014KT CAVOK"
    },
    {
      "icao": "OEMA",
      "alert": "OK",
      "vis_m": 9999,
      "fzfg": false,
      "metar_trigger": false,
      "taf_trigger": false,
      "metar": "METAR OEMA 140900Z 29009KT CAVOK 38/M02 Q1012 NOSIG",
      "taf": "TAF OEMA 140500Z 1406/1512 29014KT CAVOK"
    },
    {
      "icao": "OJAI",
      "alert": "OK",
      "vis_m": 4000,
      "fzfg": false,
      "metar_trigger": false,
      "taf_trigger": false,
      "metar": "METAR OJAI 140900Z 22005KT 4000 HZ NSC 30/03 Q1014 NOSIG",
      "taf": "TAF OJAI 140500Z 1406/1512 28012KT 5000 HZ NSC"
    },
    {
      "icao": "OMAA",
      "alert": "OK",
      "vis_m": 9999,
      "fzfg": false,
      "metar_trigger": false,
      "taf_trigger": false,
      "metar": "METAR OMAA 140930Z 27016KT CAVOK 37/07 Q1003 NOSIG",
      "taf": "TAF OMAA 140500Z 1406/1512 29012KT 8000 NSC"
    },
    {
      "icao": "OMDB",
      "alert": "OK",
      "vis_m": 9999,
      "fzfg": false,
      "metar_trigger": false,
      "taf_trigger": false,
      "metar": "METAR OMDB 140930Z 27014KT CAVOK 36/15 Q1002 NOSIG",
      "taf": "TAF OMDB 140500Z 1406/1512 20008KT 8000 NSC"
    },
    {
      "icao": "UAAA",
      "alert": "OK",
      "vis_m": 9999,
      "fzfg": false,
      "metar_trigger": false,
      "taf_trigger": false,
      "metar": "METAR UAAA 140930Z 02003MPS 320V080 9999 SCT050CB BKN200 21/M01 Q1015 NOSIG",
      "taf": "TAF UAAA 140501Z 1406/1506 03002G07MPS 9999 FEW050CB SCT100 TX21/1406Z TN07/1501Z"
    },
    {
      "icao": "UBBB",
      "alert": "OK",
      "vis_m": 9999,
      "fzfg": false,
      "metar_trigger": false,
      "taf_trigger": false,
      "metar": "METAR UBBB 140930Z 33020G30KT 9999 FEW020 21/15 Q1005 NOSIG",
      "taf": "TAF UBBB 140459Z 1406/1506 32014KT CAVOK TX24/1407Z TN16/1423Z"
    },
    {
      "icao": "UDSG",
      "alert": "OK",
      "vis_m": 9999,
      "fzfg": false,
      "metar_trigger": false,
      "taf_trigger": false,
      "metar": "METAR UDSG 140930Z 25006KT 210V330 9999 SCT049TCU 17/08 Q1011 NOSIG",
      "taf": "TAF UDSG 140458Z 1406/1506 22006KT 9999 FEW040"
    },
    {
      "icao": "UDYZ",
      "alert": "OK",
      "vis_m": 9999,
      "fzfg": false,
      "metar_trigger": false,
      "taf_trigger": false,
      "metar": "METAR UDYZ 140930Z VRB03KT 9999 NSC 23/07 Q1008 NOSIG",
      "taf": "TAF UDYZ 140500Z 1406/1506 22006KT 9999 FEW040"
    },
    {
      "icao": "UGKO",
      "alert": "OK",
      "vis_m": 9999,
      "fzfg": false,
      "metar_trigger": false,
      "taf_trigger": false,
      "metar": "METAR UGKO 140930Z 12005KT 050V190 CAVOK 26/12 Q1003 NOSIG",
      "taf": "TAF UGKO 140500Z 1406/1506 09007KT CAVOK TX29/1411Z TN13/1502Z"
    }
  ]
}