{
  "ts_utc": "2026-06-03T23:20:18Z",
  "threshold_m": 150,
  "source": "stations_override.txt (ICAO list) + aviationweather.gov (METAR/TAF raw)",
  "station_count": 159,
  "stations": [
    {
      "icao": "BIKF",
      "alert": "OK",
      "vis_m": 9999,
      "fzfg": false,
      "metar_trigger": false,
      "taf_trigger": false,
      "metar": "METAR BIKF 032300Z 32003KT 9999 R19/P1500N -SHRA FEW004 BKN066 09/08 Q0993",
      "taf": "TAF BIKF 032213Z 0400/0500 28005KT 9999 -DZ SCT015 BKN025 TX12/0418Z TN08/0405Z"
    },
    {
      "icao": "BKPR",
      "alert": "OK",
      "vis_m": 9999,
      "fzfg": false,
      "metar_trigger": false,
      "taf_trigger": false,
      "metar": "METAR BKPR 032300Z 18004KT 9999 BKN090 14/12 Q1011 RETS NOSIG",
      "taf": ""
    },
    {
      "icao": "EBCI",
      "alert": "OK",
      "vis_m": 5000,
      "fzfg": false,
      "metar_trigger": false,
      "taf_trigger": false,
      "metar": "METAR EBCI 032250Z 24012KT 5000 -RADZ SCT006 BKN030 13/12 Q1005 TEMPO 4000 BKN008",
      "taf": "TAF EBCI 031700Z 0318/0424 20013KT 9999 BKN030"
    },
    {
      "icao": "EDDB",
      "alert": "OK",
      "vis_m": 9999,
      "fzfg": false,
      "metar_trigger": false,
      "taf_trigger": false,
      "metar": "METAR EDDB 032250Z AUTO 19006KT CAVOK 14/11 Q1008 NOSIG",
      "taf": "TAF EDDB 031700Z 0318/0418 18006KT CAVOK"
    },
    {
      "icao": "EDDH",
      "alert": "OK",
      "vis_m": 9999,
      "fzfg": false,
      "metar_trigger": false,
      "taf_trigger": false,
      "metar": "METAR EDDH 032250Z AUTO 17009KT 9999 FEW041 16/11 Q1003 NOSIG",
      "taf": "TAF EDDH 031700Z 0318/0424 23007KT 9999 SCT030"
    },
    {
      "icao": "EDDK",
      "alert": "OK",
      "vis_m": 9999,
      "fzfg": false,
      "metar_trigger": false,
      "taf_trigger": false,
      "metar": "METAR EDDK 032250Z AUTO 18012KT 9999 FEW030 16/13 Q1005 NOSIG",
      "taf": "TAF EDDK 031700Z 0318/0424 18009KT 9999 SCT030"
    },
    {
      "icao": "EDDN",
      "alert": "OK",
      "vis_m": 9999,
      "fzfg": false,
      "metar_trigger": false,
      "taf_trigger": false,
      "metar": "METAR EDDN 032250Z AUTO 12006KT CAVOK 13/08 Q1011",
      "taf": "TAF EDDN 031700Z 0318/0418 24007KT CAVOK"
    },
    {
      "icao": "EDDS",
      "alert": "OK",
      "vis_m": 9999,
      "fzfg": false,
      "metar_trigger": false,
      "taf_trigger": false,
      "metar": "METAR EDDS 032250Z AUTO 18003KT 150V220 CAVOK 14/09 Q1011",
      "taf": "TAF EDDS 031700Z 0318/0418 24010KT 9999 SCT030"
    },
    {
      "icao": "EDFH",
      "alert": "OK",
      "vis_m": 9999,
      "fzfg": false,
      "metar_trigger": false,
      "taf_trigger": false,
      "metar": "METAR EDFH 032250Z 21017G27KT 180V240 9999 OVC019 14/12 Q1008",
      "taf": "TAF EDFH 031700Z 0318/0418 22010KT 9999 SCT030"
    },
    {
      "icao": "EDJA",
      "alert": "OK",
      "vis_m": 9999,
      "fzfg": false,
      "metar_trigger": false,
      "taf_trigger": false,
      "metar": "METAR EDJA 032250Z AUTO 19007KT 9999 // FEW057/// BKN200/// 10/09 Q1012",
      "taf": "TAF EDJA 031700Z 0318/0403 22010KT 9999 FEW025"
    },
    {
      "icao": "EDLW",
      "alert": "OK",
      "vis_m": 9999,
      "fzfg": false,
      "metar_trigger": false,
      "taf_trigger": false,
      "metar": "METAR EDLW 032250Z AUTO 18014KT 9999 // SCT043/// BKN170/// 16/12 Q1003",
      "taf": "TAF EDLW 031700Z 0318/0418 21011KT 9999 BKN030"
    },
    {
      "icao": "EDNY",
      "alert": "OK",
      "vis_m": 9999,
      "fzfg": false,
      "metar_trigger": false,
      "taf_trigger": false,
      "metar": "METAR EDNY 032250Z AUTO 06003KT 010V110 9999 // BKN060/// BKN210/// BKN240/// 12/11 Q1013",
      "taf": "TAF EDNY 031700Z 0318/0403 22009KT CAVOK"
    },
    {
      "icao": "EDSB",
      "alert": "OK",
      "vis_m": 9999,
      "fzfg": false,
      "metar_trigger": false,
      "taf_trigger": false,
      "metar": "METAR EDSB 032250Z AUTO 20010KT 9999 // OVC059/// 18/10 Q1010",
      "taf": "TAF EDSB 031700Z 0318/0418 21010KT 9999 FEW045"
    },
    {
      "icao": "EETN",
      "alert": "OK",
      "vis_m": 9999,
      "fzfg": false,
      "metar_trigger": false,
      "taf_trigger": false,
      "metar": "METAR EETN 032250Z 16003KT CAVOK 15/13 Q1012",
      "taf": "TAF EETN 031730Z 0318/0418 13010KT CAVOK"
    },
    {
      "icao": "EFTU",
      "alert": "OK",
      "vis_m": 9999,
      "fzfg": false,
      "metar_trigger": false,
      "taf_trigger": false,
      "metar": "METAR EFTU 032250Z AUTO 13005KT CAVOK 14/10 Q1011",
      "taf": "TAF EFTU 032036Z 0321/0421 18004KT CAVOK"
    },
    {
      "icao": "EGBB",
      "alert": "OK",
      "vis_m": 9999,
      "fzfg": false,
      "metar_trigger": false,
      "taf_trigger": false,
      "metar": "METAR EGBB 032250Z 19008KT 160V230 9999 SCT019 BKN024 13/10 Q0994",
      "taf": "TAF EGBB 032257Z 0400/0424 20008KT 9999 FEW020"
    },
    {
      "icao": "EGGP",
      "alert": "OK",
      "vis_m": 9999,
      "fzfg": false,
      "metar_trigger": false,
      "taf_trigger": false,
      "metar": "METAR EGGP 032250Z 22011KT 9999 SCT035 BKN043 13/09 Q0990",
      "taf": "TAF EGGP 032254Z 0400/0424 20015G25KT 9999 FEW015 SCT035"
    },
    {
      "icao": "EGGW",
      "alert": "OK",
      "vis_m": 9999,
      "fzfg": false,
      "metar_trigger": false,
      "taf_trigger": false,
      "metar": "METAR EGGW 032250Z AUTO 21011KT 9999 BKN018 13/11 Q0996",
      "taf": "TAF EGGW 032257Z 0400/0424 22012KT 9999 SCT020"
    },
    {
      "icao": "EGKK",
      "alert": "OK",
      "vis_m": 9999,
      "fzfg": false,
      "metar_trigger": false,
      "taf_trigger": false,
      "metar": "METAR EGKK 032250Z 22010KT 9999 SCT018 SCT028 14/11 Q0999",
      "taf": "TAF EGKK 032257Z 0400/0506 22014KT 9999 SCT025"
    },
    {
      "icao": "EGNM",
      "alert": "OK",
      "vis_m": 9999,
      "fzfg": false,
      "metar_trigger": false,
      "taf_trigger": false,
      "metar": "METAR EGNM 032250Z 22013KT 9999 BKN026 12/08 Q0990",
      "taf": "TAF EGNM 032258Z 0400/0424 21013KT 9999 FEW012 SCT025"
    },
    {
      "icao": "EGPD",
      "alert": "OK",
      "vis_m": 9999,
      "fzfg": false,
      "metar_trigger": false,
      "taf_trigger": false,
      "metar": "METAR EGPD 032250Z COR AUTO 19007KT 9999 NCD 11/09 Q0983 NOSIG",
      "taf": "TAF EGPD 032253Z 0400/0424 17005KT 9999 FEW025"
    },
    {
      "icao": "EGPF",
      "alert": "OK",
      "vis_m": 9999,
      "fzfg": false,
      "metar_trigger": false,
      "taf_trigger": false,
      "metar": "METAR EGPF 032250Z AUTO 20005KT 150V250 9999 SCT017 BKN044 13/10 Q0983",
      "taf": "TAF EGPF 032311Z 0400/0424 21005KT 9999 BKN025"
    },
    {
      "icao": "EHBK",
      "alert": "OK",
      "vis_m": 9999,
      "fzfg": false,
      "metar_trigger": false,
      "taf_trigger": false,
      "metar": "METAR EHBK 032255Z AUTO 20017KT 170V240 9999 SCT020 BKN025 OVC029 16/14 Q1003",
      "taf": "TAF EHBK 031717Z 0318/0424 19012KT 9999 -RA BKN025"
    },
    {
      "icao": "EHEH",
      "alert": "OK",
      "vis_m": 9999,
      "fzfg": false,
      "metar_trigger": false,
      "taf_trigger": false,
      "metar": "METAR EHEH 032255Z AUTO 22008KT 190V250 9999 -RADZ FEW023 OVC041 14/13 Q1002 BLU",
      "taf": "TAF EHEH 031730Z 0318/0424 19013KT 9999 SCT035 BKN045"
    },
    {
      "icao": "EKBI",
      "alert": "OK",
      "vis_m": 9999,
      "fzfg": false,
      "metar_trigger": false,
      "taf_trigger": false,
      "metar": "METAR EKBI 032250Z AUTO 13007KT 9999 -RA FEW014/// BKN048/// 14/13 Q1001",
      "taf": ""
    },
    {
      "icao": "EKCH",
      "alert": "OK",
      "vis_m": 9999,
      "fzfg": false,
      "metar_trigger": false,
      "taf_trigger": false,
      "metar": "METAR EKCH 032250Z AUTO 17008KT 9999 NCD 15/12 Q1005 NOSIG",
      "taf": "TAF EKCH 032027Z 0321/0421 18010KT 9999 SCT025"
    },
    {
      "icao": "ENAL",
      "alert": "OK",
      "vis_m": 9999,
      "fzfg": false,
      "metar_trigger": false,
      "taf_trigger": false,
      "metar": "METAR ENAL 032250Z AUTO VRB01KT 9999 NCD 13/12 Q0995",
      "taf": "TAF ENAL 032000Z 0321/0406 14008KT 9999 FEW055"
    },
    {
      "icao": "ENBR",
      "alert": "OK",
      "vis_m": 9999,
      "fzfg": false,
      "metar_trigger": false,
      "taf_trigger": false,
      "metar": "METAR ENBR 032250Z AUTO 16010KT 9999 NCD 12/10 Q0995 RMK WIND 1200FT 15016KT",
      "taf": "TAF ENBR 031700Z 0318/0418 16008KT 9999 FEW012 BKN030"
    },
    {
      "icao": "ENGM",
      "alert": "OK",
      "vis_m": 9000,
      "fzfg": false,
      "metar_trigger": false,
      "taf_trigger": false,
      "metar": "METAR ENGM 032250Z 16008KT 9000 -RA FEW004 BKN007 14/13 Q1001",
      "taf": ""
    },
    {
      "icao": "ENHD",
      "alert": "OK",
      "vis_m": 9999,
      "fzfg": false,
      "metar_trigger": false,
      "taf_trigger": false,
      "metar": "METAR ENHD 032250Z AUTO 14010KT 9999 FEW017/// SCT020/// BKN024/// 13/11 Q0995",
      "taf": "TAF ENHD 031400Z 0315/0322 14012KT 9999 -SHRA FEW015 BKN025"
    },
    {
      "icao": "ENTC",
      "alert": "OK",
      "vis_m": 9999,
      "fzfg": false,
      "metar_trigger": false,
      "taf_trigger": false,
      "metar": "METAR ENTC 032250Z AUTO 06004KT 020V080 9999 NCD 14/07 Q1005 RMK WIND 2600FT 17019KT",
      "taf": "TAF ENTC 031700Z 0318/0418 02005KT CAVOK"
    },
    {
      "icao": "ENTO",
      "alert": "OK",
      "vis_m": 7000,
      "fzfg": false,
      "metar_trigger": false,
      "taf_trigger": false,
      "metar": "METAR ENTO 032250Z AUTO 18010KT 7000 RA VV006 14/14 Q1001",
      "taf": ""
    },
    {
      "icao": "ENVA",
      "alert": "OK",
      "vis_m": 9999,
      "fzfg": false,
      "metar_trigger": false,
      "taf_trigger": false,
      "metar": "METAR ENVA 032250Z 10012KT CAVOK 20/11 Q0999 RMK WIND 670FT 10013KT",
      "taf": "TAF ENVA 031700Z 0318/0418 12008KT CAVOK"
    },
    {
      "icao": "ENZV",
      "alert": "OK",
      "vis_m": 9999,
      "fzfg": false,
      "metar_trigger": false,
      "taf_trigger": false,
      "metar": "METAR ENZV 032250Z 16014KT 9999 BKN020 BKN036 14/10 Q0995",
      "taf": "TAF ENZV 031700Z 0318/0418 14012KT 9999 -SHRA SCT006 BKN018"
    },
    {
      "icao": "EPGD",
      "alert": "OK",
      "vis_m": 9999,
      "fzfg": false,
      "metar_trigger": false,
      "taf_trigger": false,
      "metar": "METAR EPGD 032300Z 14006KT CAVOK 17/11 Q1008",
      "taf": "TAF EPGD 031730Z 0318/0418 12012KT CAVOK"
    },
    {
      "icao": "EPKK",
      "alert": "OK",
      "vis_m": 4600,
      "fzfg": false,
      "metar_trigger": false,
      "taf_trigger": false,
      "metar": "METAR EPKK 032300Z 23005KT 4600 BR BKN004 15/14 Q1010",
      "taf": "TAF EPKK 032030Z 0321/0421 27005KT 9999 SCT030"
    },
    {
      "icao": "EPKT",
      "alert": "OK",
      "vis_m": 9999,
      "fzfg": false,
      "metar_trigger": false,
      "taf_trigger": false,
      "metar": "METAR EPKT 032300Z 27004KT 9999 -RA OVC019 13/13 Q1010",
      "taf": ""
    },
    {
      "icao": "EPLB",
      "alert": "OK",
      "vis_m": 9999,
      "fzfg": false,
      "metar_trigger": false,
      "taf_trigger": false,
      "metar": "METAR EPLB 032300Z 07006KT CAVOK 12/12 Q1010",
      "taf": "TAF EPLB 031730Z 0318/0418 09010KT 9999 SCT035"
    },
    {
      "icao": "EPMO",
      "alert": "OK",
      "vis_m": 9999,
      "fzfg": false,
      "metar_trigger": false,
      "taf_trigger": false,
      "metar": "METAR EPMO 032300Z 10008KT CAVOK 16/13 Q1008",
      "taf": "TAF EPMO 031730Z 0318/0418 09010KT CAVOK"
    },
    {
      "icao": "EPPO",
      "alert": "OK",
      "vis_m": 9999,
      "fzfg": false,
      "metar_trigger": false,
      "taf_trigger": false,
      "metar": "METAR EPPO 032300Z VRB01KT 9999 -RA NSC 14/13 Q1009",
      "taf": "TAF EPPO 031730Z 0318/0418 28010KT 8000 BKN016"
    },
    {
      "icao": "EPRA",
      "alert": "OK",
      "vis_m": 9999,
      "fzfg": false,
      "metar_trigger": false,
      "taf_trigger": false,
      "metar": "METAR EPRA 032300Z 12006KT CAVOK 16/13 Q1009",
      "taf": "TAF EPRA 032030Z 0321/0406 11010KT CAVOK"
    },
    {
      "icao": "EPRZ",
      "alert": "OK",
      "vis_m": 6000,
      "fzfg": false,
      "metar_trigger": false,
      "taf_trigger": false,
      "metar": "METAR EPRZ 032300Z 12001KT 6000 NSC 16/16 Q1009",
      "taf": "TAF EPRZ 031730Z 0318/0418 08008KT 9999 SCT035TCU"
    },
    {
      "icao": "EPSC",
      "alert": "OK",
      "vis_m": 5000,
      "fzfg": false,
      "metar_trigger": false,
      "taf_trigger": false,
      "metar": "METAR EPSC 032300Z 13007KT 5000 BR NSC 13/13 Q1007",
      "taf": ""
    },
    {
      "icao": "EPSY",
      "alert": "OK",
      "vis_m": 9999,
      "fzfg": false,
      "metar_trigger": false,
      "taf_trigger": false,
      "metar": "METAR EPSY 032300Z 12003KT 050V210 CAVOK 14/11 Q1009",
      "taf": "TAF EPSY 032030Z 0321/0406 14006KT CAVOK"
    },
    {
      "icao": "EPWA",
      "alert": "OK",
      "vis_m": 9999,
      "fzfg": false,
      "metar_trigger": false,
      "taf_trigger": false,
      "metar": "METAR EPWA 032300Z 12009KT CAVOK 16/13 Q1009 NOSIG",
      "taf": "TAF EPWA 032030Z 0321/0421 10010KT CAVOK"
    },
    {
      "icao": "EPWR",
      "alert": "OK",
      "vis_m": 9999,
      "fzfg": false,
      "metar_trigger": false,
      "taf_trigger": false,
      "metar": "METAR EPWR 032300Z 21005KT CAVOK 14/13 Q1010",
      "taf": "TAF EPWR 032030Z 0321/0421 24005KT 9999 OVC045"
    },
    {
      "icao": "ESGG",
      "alert": "OK",
      "vis_m": 9999,
      "fzfg": false,
      "metar_trigger": false,
      "taf_trigger": false,
      "metar": "METAR ESGG 032250Z 15008KT 9999 SCT006 BKN015 BKN074 13/13 Q1003",
      "taf": "TAF ESGG 032030Z 0321/0421 17007KT 9999 -RA SCT006 BKN030"
    },
    {
      "icao": "ESKN",
      "alert": "OK",
      "vis_m": 9999,
      "fzfg": false,
      "metar_trigger": false,
      "taf_trigger": false,
      "metar": "METAR ESKN 032250Z 12008KT CAVOK 15/13 Q1007",
      "taf": "TAF ESKN 032030Z 0321/0421 13007KT CAVOK"
    },
    {
      "icao": "ESMS",
      "alert": "OK",
      "vis_m": 6000,
      "fzfg": false,
      "metar_trigger": false,
      "taf_trigger": false,
      "metar": "METAR ESMS 032250Z AUTO 14006KT 6000 NCD 13/13 Q1005",
      "taf": "TAF ESMS 032027Z 0321/0421 18008KT 9999 SCT025"
    },
    {
      "icao": "ESSA",
      "alert": "OK",
      "vis_m": 9999,
      "fzfg": false,
      "metar_trigger": false,
      "taf_trigger": false,
      "metar": "METAR ESSA 032250Z 13009KT CAVOK 13/11 Q1008 NOSIG",
      "taf": "TAF ESSA 032030Z 0321/0421 14008KT CAVOK"
    },
    {
      "icao": "EYKA",
      "alert": "OK",
      "vis_m": 9999,
      "fzfg": false,
      "metar_trigger": false,
      "taf_trigger": false,
      "metar": "METAR EYKA 032250Z AUTO 10006KT 9999 NCD 13/09 Q1012",
      "taf": "TAF EYKA 032302Z 0400/0424 13008KT 9000 SCT040"
    },
    {
      "icao": "EYPA",
      "alert": "OK",
      "vis_m": 9999,
      "fzfg": false,
      "metar_trigger": false,
      "taf_trigger": false,
      "metar": "METAR EYPA 032250Z AUTO 12005KT 9999 NCD 16/09 Q1010",
      "taf": "TAF EYPA 032301Z 0400/0424 13010KT 9000 SCT020"
    },
    {
      "icao": "EYVI",
      "alert": "OK",
      "vis_m": 9999,
      "fzfg": false,
      "metar_trigger": false,
      "taf_trigger": false,
      "metar": "METAR EYVI 032250Z 14007KT CAVOK 12/09 Q1013 NOSIG",
      "taf": "TAF EYVI 032304Z 0400/0424 14010KT 9000 SCT045"
    },
    {
      "icao": "GCFV",
      "alert": "OK",
      "vis_m": 9999,
      "fzfg": false,
      "metar_trigger": false,
      "taf_trigger": false,
      "metar": "METAR GCFV 032300Z AUTO 36013KT CAVOK 20/15 Q1020",
      "taf": "TAF GCFV 032000Z 0321/0421 36014KT 9999 SCT018 TX26/0414Z TN19/0406Z"
    },
    {
      "icao": "GCLP",
      "alert": "OK",
      "vis_m": 9999,
      "fzfg": false,
      "metar_trigger": false,
      "taf_trigger": false,
      "metar": "METAR GCLP 032300Z 36021KT 9999 FEW025 20/15 Q1020 NOSIG",
      "taf": "TAF GCLP 032000Z 0321/0421 36022KT 9999 SCT020 TX26/0414Z TN20/0406Z"
    },
    {
      "icao": "GCTS",
      "alert": "OK",
      "vis_m": 9999,
      "fzfg": false,
      "metar_trigger": false,
      "taf_trigger": false,
      "metar": "METAR GCTS 032300Z 18003KT 160V240 9999 FEW020 20/14 Q1021 NOSIG",
      "taf": "TAF GCTS 032000Z 0321/0421 03007KT 9999 FEW020 TX28/0414Z TN19/0406Z"
    },
    {
      "icao": "GMAD",
      "alert": "OK",
      "vis_m": 8000,
      "fzfg": false,
      "metar_trigger": false,
      "taf_trigger": false,
      "metar": "METAR GMAD 032300Z 16004KT 120V180 8000 NSC 19/16 Q1015 NOSIG",
      "taf": "TAF GMAD 032300Z 0400/0506 18006KT 8000 SCT016"
    },
    {
      "icao": "GMMN",
      "alert": "OK",
      "vis_m": 9999,
      "fzfg": false,
      "metar_trigger": false,
      "taf_trigger": false,
      "metar": "METAR GMMN 032300Z 02007KT 9999 FEW020 18/15 Q1019 NOSIG",
      "taf": "TAF GMMN 031700Z 0318/0424 36014KT CAVOK"
    },
    {
      "icao": "GMMX",
      "alert": "OK",
      "vis_m": 9999,
      "fzfg": false,
      "metar_trigger": false,
      "taf_trigger": false,
      "metar": "METAR GMMX 032300Z 05003KT CAVOK 24/14 Q1018 NOSIG",
      "taf": "TAF GMMX 032300Z 0400/0506 06006KT 8000 NSC"
    },
    {
      "icao": "HEGN",
      "alert": "OK",
      "vis_m": 9999,
      "fzfg": false,
      "metar_trigger": false,
      "taf_trigger": false,
      "metar": "METAR HEGN 032300Z 35006KT CAVOK 31/11 Q1010 NOSIG",
      "taf": "TAF HEGN 032300Z 0400/0506 30010KT CAVOK"
    },
    {
      "icao": "HEMA",
      "alert": "OK",
      "vis_m": 9999,
      "fzfg": false,
      "metar_trigger": false,
      "taf_trigger": false,
      "metar": "METAR HEMA 032300Z 30008KT CAVOK 32/05 Q1010 NOSIG",
      "taf": "TAF HEMA 032300Z 0400/0506 31010KT CAVOK"
    },
    {
      "icao": "HESH",
      "alert": "OK",
      "vis_m": 9999,
      "fzfg": false,
      "metar_trigger": false,
      "taf_trigger": false,
      "metar": "METAR HESH 032300Z 34010KT CAVOK 32/09 Q1011 NOSIG",
      "taf": "TAF HESH 032300Z 0400/0506 01010KT CAVOK"
    },
    {
      "icao": "HESX",
      "alert": "OK",
      "vis_m": 9999,
      "fzfg": false,
      "metar_trigger": false,
      "taf_trigger": false,
      "metar": "METAR HESX 032300Z 06008KT CAVOK 23/12 Q1013 NOSIG",
      "taf": "TAF HESX 032300Z 0400/0506 02010KT CAVOK"
    },
    {
      "icao": "LATI",
      "alert": "OK",
      "vis_m": 9000,
      "fzfg": false,
      "metar_trigger": false,
      "taf_trigger": false,
      "metar": "METAR LATI 032320Z 01003KT 340V050 9000 VCTS -RA FEW029CB SCT045 BKN076 16/16 Q1009 NOSIG",
      "taf": "TAF LATI 032300Z 0400/0424 VRB05KT 9999 SCT040 BKN090 TX26/0412Z TN14/0404Z"
    },
    {
      "icao": "LBPD",
      "alert": "OK",
      "vis_m": 9999,
      "fzfg": false,
      "metar_trigger": false,
      "taf_trigger": false,
      "metar": "METAR LBPD 032300Z AUTO 19005KT 140V240 9999 NCD 18/15 Q1009",
      "taf": "TAF LBPD 032300Z 0400/0424 VRB04KT 9999 SCT060"
    },
    {
      "icao": "LBSF",
      "alert": "OK",
      "vis_m": 9999,
      "fzfg": false,
      "metar_trigger": false,
      "taf_trigger": false,
      "metar": "METAR LBSF 032300Z AUTO 13004KT 110V170 9999 SCT078/// //////CB 18/15 Q1010 NOSIG",
      "taf": "TAF LBSF 032300Z 0400/0424 VRB04KT 9999 SCT050"
    },
    {
      "icao": "LBWN",
      "alert": "OK",
      "vis_m": 9999,
      "fzfg": false,
      "metar_trigger": false,
      "taf_trigger": false,
      "metar": "METAR LBWN 032300Z AUTO 12004KT 9999 NCD 17/17 Q1009 NOSIG",
      "taf": "TAF LBWN 032300Z 0400/0424 VRB04KT 3000 BR BKN008"
    },
    {
      "icao": "LCLK",
      "alert": "OK",
      "vis_m": 9999,
      "fzfg": false,
      "metar_trigger": false,
      "taf_trigger": false,
      "metar": "METAR LCLK 032300Z 03010KT 9999 FEW040 23/15 Q1013 NOSIG",
      "taf": "TAF LCLK 031730Z 0318/0418 32009KT CAVOK"
    },
    {
      "icao": "LCPH",
      "alert": "OK",
      "vis_m": 9999,
      "fzfg": false,
      "metar_trigger": false,
      "taf_trigger": false,
      "metar": "METAR LCPH 032300Z 02008KT CAVOK 19/07 Q1013 NOSIG",
      "taf": "TAF LCPH 031730Z 0318/0418 35009KT CAVOK"
    },
    {
      "icao": "LEAL",
      "alert": "OK",
      "vis_m": 9999,
      "fzfg": false,
      "metar_trigger": false,
      "taf_trigger": false,
      "metar": "METAR LEAL 032300Z 00000KT 9999 SCT012 22/19 Q1016 NOSIG",
      "taf": "TAF LEAL 031700Z 0318/0418 10012KT 9999 FEW030 TX28/0412Z TN20/0405Z"
    },
    {
      "icao": "LEBB",
      "alert": "OK",
      "vis_m": 9999,
      "fzfg": false,
      "metar_trigger": false,
      "taf_trigger": false,
      "metar": "METAR LEBB 032300Z AUTO 11005KT 9999 OVC043 20/15 Q1015",
      "taf": "TAF LEBB 031700Z 0318/0418 33008KT 9999 SCT035 TX17/0414Z TN16/0406Z"
    },
    {
      "icao": "LEBL",
      "alert": "OK",
      "vis_m": 9999,
      "fzfg": false,
      "metar_trigger": false,
      "taf_trigger": false,
      "metar": "METAR LEBL 032300Z 22010KT 9999 BKN020 22/19 Q1015 NOSIG",
      "taf": "TAF LEBL 031700Z 0318/0418 21010KT 9999 FEW030 TX25/0412Z TN17/0406Z"
    },
    {
      "icao": "LECH",
      "alert": "OK",
      "vis_m": 8000,
      "fzfg": false,
      "metar_trigger": false,
      "taf_trigger": false,
      "metar": "METAR LECH 032300Z AUTO 22004KT 8000 BKN014 BKN022 19/17 Q1017",
      "taf": "TAF LECH 031700Z 0318/0418 18010KT 9999 FEW050 TX28/0413Z TN15/0405Z"
    },
    {
      "icao": "LEMD",
      "alert": "OK",
      "vis_m": 9999,
      "fzfg": false,
      "metar_trigger": false,
      "taf_trigger": false,
      "metar": "METAR LEMD 032300Z 29006KT 9999 FEW080 25/10 Q1016 NOSIG",
      "taf": ""
    },
    {
      "icao": "LEMG",
      "alert": "OK",
      "vis_m": 9999,
      "fzfg": false,
      "metar_trigger": false,
      "taf_trigger": false,
      "metar": "METAR LEMG 032300Z 00000KT CAVOK 21/18 Q1017 NOSIG",
      "taf": "TAF LEMG 031700Z 0318/0418 12010KT 9999 FEW030 TX34/0414Z TN19/0406Z"
    },
    {
      "icao": "LEVC",
      "alert": "OK",
      "vis_m": 9999,
      "fzfg": false,
      "metar_trigger": false,
      "taf_trigger": false,
      "metar": "METAR LEVC 032300Z 01005KT 350V050 CAVOK 22/19 Q1015 NOSIG",
      "taf": "TAF LEVC 031700Z 0318/0418 13012KT 9999 FEW030 TX28/0412Z TN18/0405Z"
    },
    {
      "icao": "LEXJ",
      "alert": "OK",
      "vis_m": 9999,
      "fzfg": false,
      "metar_trigger": false,
      "taf_trigger": false,
      "metar": "METAR LEXJ 032300Z AUTO VRB01KT 9999 OVC031 20/16 Q1015",
      "taf": "TAF LEXJ 032000Z 0321/0421 29009KT 9999 BKN035 TX19/0414Z TN16/0405Z"
    },
    {
      "icao": "LEZG",
      "alert": "OK",
      "vis_m": 9999,
      "fzfg": false,
      "metar_trigger": false,
      "taf_trigger": false,
      "metar": "METAR LEZG 032300Z 21005KT CAVOK 22/12 Q1014 NOSIG",
      "taf": "TAF LEZG 031700Z 0318/0418 30010KT CAVOK TX30/0415Z TN15/0405Z"
    },
    {
      "icao": "LEZL",
      "alert": "OK",
      "vis_m": 9999,
      "fzfg": false,
      "metar_trigger": false,
      "taf_trigger": false,
      "metar": "METAR LEZL 032300Z 21006KT 160V240 CAVOK 24/14 Q1016 NOSIG",
      "taf": "TAF LEZL 032000Z 0321/0421 22010KT CAVOK TX35/0415Z TN18/0407Z"
    },
    {
      "icao": "LFBD",
      "alert": "OK",
      "vis_m": 9999,
      "fzfg": false,
      "metar_trigger": false,
      "taf_trigger": false,
      "metar": "METAR LFBD 032300Z AUTO 21008KT 9999 SCT020 SCT029 BKN038 17/15 Q1014 TEMPO 4000 -RA BKN010",
      "taf": "TAF LFBD 031700Z 0318/0424 24010KT 9999 BKN020 TX20/0414Z TN12/0424Z"
    },
    {
      "icao": "LFLL",
      "alert": "OK",
      "vis_m": 9999,
      "fzfg": false,
      "metar_trigger": false,
      "taf_trigger": false,
      "metar": "METAR LFLL 032300Z 14007KT CAVOK 17/10 Q1013 NOSIG",
      "taf": "TAF LFLL 031700Z 0318/0424 12005KT CAVOK"
    },
    {
      "icao": "LFLS",
      "alert": "OK",
      "vis_m": 9999,
      "fzfg": false,
      "metar_trigger": false,
      "taf_trigger": false,
      "metar": "METAR LFLS 032300Z AUTO 10006KT CAVOK 12/10 Q1014",
      "taf": ""
    },
    {
      "icao": "LFMN",
      "alert": "OK",
      "vis_m": 9999,
      "fzfg": false,
      "metar_trigger": false,
      "taf_trigger": false,
      "metar": "METAR LFMN 032300Z 33006KT CAVOK 20/12 Q1010 NOSIG",
      "taf": "TAF LFMN 032000Z 0321/0503 07008KT CAVOK"
    },
    {
      "icao": "LFOB",
      "alert": "OK",
      "vis_m": 9999,
      "fzfg": false,
      "metar_trigger": false,
      "taf_trigger": false,
      "metar": "METAR LFOB 032300Z AUTO 22009KT 9999 FEW030 BKN058 BKN140 16/12 Q1004 TEMPO VRB25G35KT 1200 SHRA BKN009 BKN012CB BKN020",
      "taf": "TAF LFOB 031700Z 0318/0418 20012KT 9999 BKN020 OVC030"
    },
    {
      "icao": "LFPO",
      "alert": "OK",
      "vis_m": 9999,
      "fzfg": false,
      "metar_trigger": false,
      "taf_trigger": false,
      "metar": "METAR LFPO 032300Z AUTO 24011KT 9999 SCT022/// SCT040/// BKN054/// ///TCU 17/14 Q1007 TEMPO 26015G30KT 4000 -RA BECMG BKN030",
      "taf": "TAF LFPO 031700Z 0318/0424 26015KT 9999 BKN030"
    },
    {
      "icao": "LFSB",
      "alert": "OK",
      "vis_m": 9999,
      "fzfg": false,
      "metar_trigger": false,
      "taf_trigger": false,
      "metar": "METAR LFSB 032300Z AUTO 16003KT CAVOK 13/10 Q1012 NOSIG",
      "taf": "TAF LFSB 031700Z 0318/0418 25010KT CAVOK"
    },
    {
      "icao": "LGAV",
      "alert": "OK",
      "vis_m": 9999,
      "fzfg": false,
      "metar_trigger": false,
      "taf_trigger": false,
      "metar": "METAR LGAV 032250Z 19005KT 9999 FEW030 22/16 Q1011 NOSIG",
      "taf": "TAF LGAV 032300Z 0400/0424 VRB05KT 9999 FEW025"
    },
    {
      "icao": "LGTS",
      "alert": "OK",
      "vis_m": 9999,
      "fzfg": false,
      "metar_trigger": false,
      "taf_trigger": false,
      "metar": "METAR LGTS 032250Z VRB03KT 9999 FEW025 20/16 Q1009 NOSIG",
      "taf": "TAF LGTS 032300Z 0400/0424 VRB03KT 9999 SCT030"
    },
    {
      "icao": "LHBP",
      "alert": "OK",
      "vis_m": 9999,
      "fzfg": false,
      "metar_trigger": false,
      "taf_trigger": false,
      "metar": "METAR LHBP 032300Z 31010KT 9999 VCSH FEW060TCU OVC073 16/14 Q1008 NOSIG",
      "taf": "TAF LHBP 031715Z 0318/0418 31007KT CAVOK"
    },
    {
      "icao": "LHDC",
      "alert": "OK",
      "vis_m": 9999,
      "fzfg": false,
      "metar_trigger": false,
      "taf_trigger": false,
      "metar": "METAR LHDC 032245Z AUTO 36003KT CAVOK 19/15 Q1007",
      "taf": "TAF LHDC 031415Z 0315/0324 17009KT CAVOK"
    },
    {
      "icao": "LIBD",
      "alert": "OK",
      "vis_m": 9999,
      "fzfg": false,
      "metar_trigger": false,
      "taf_trigger": false,
      "metar": "METAR LIBD 032250Z 35003KT 300V030 9999 SCT010 19/18 Q1010",
      "taf": "TAF LIBD 031700Z 0318/0418 35010KT 9999 BKN025"
    },
    {
      "icao": "LIBG",
      "alert": "OK",
      "vis_m": 9999,
      "fzfg": false,
      "metar_trigger": false,
      "taf_trigger": false,
      "metar": "METAR LIBG 032250Z AUTO 26004KT 9999 NCD 20/17 Q1009",
      "taf": "TAF LIBG 031700Z 0318/0418 19012KT 9999 FEW050"
    },
    {
      "icao": "LIBP",
      "alert": "OK",
      "vis_m": 9999,
      "fzfg": false,
      "metar_trigger": false,
      "taf_trigger": false,
      "metar": "METAR LIBP 032250Z AUTO 23007KT 9999 NCD 16/16 Q1011",
      "taf": "TAF LIBP 031700Z 0318/0418 06010KT 9999 SCT050"
    },
    {
      "icao": "LIBR",
      "alert": "OK",
      "vis_m": 9999,
      "fzfg": false,
      "metar_trigger": false,
      "taf_trigger": false,
      "metar": "METAR LIBR 032250Z 27006KT CAVOK 22/19 Q1008",
      "taf": "TAF LIBR 031700Z 0318/0418 20015KT 9999 FEW030"
    },
    {
      "icao": "LICA",
      "alert": "OK",
      "vis_m": 9999,
      "fzfg": false,
      "metar_trigger": false,
      "taf_trigger": false,
      "metar": "METAR LICA 032250Z AUTO 26009KT 9999 NCD 23/21 Q1011",
      "taf": "TAF LICA 031700Z 0318/0418 27012KT 9999 FEW020"
    },
    {
      "icao": "LICC",
      "alert": "OK",
      "vis_m": 9999,
      "fzfg": false,
      "metar_trigger": false,
      "taf_trigger": false,
      "metar": "METAR LICC 032250Z 32003KT 280V020 CAVOK 23/12 Q1011",
      "taf": "TAF LICC 031700Z 0318/0418 27015KT 9999 SCT040"
    },
    {
      "icao": "LICJ",
      "alert": "OK",
      "vis_m": 9999,
      "fzfg": false,
      "metar_trigger": false,
      "taf_trigger": false,
      "metar": "METAR LICJ 032250Z 19005KT CAVOK 22/13 Q1012",
      "taf": "TAF LICJ 031700Z 0318/0418 27016KT CAVOK"
    },
    {
      "icao": "LIMC",
      "alert": "OK",
      "vis_m": 9999,
      "fzfg": false,
      "metar_trigger": false,
      "taf_trigger": false,
      "metar": "METAR LIMC 032250Z 08009KT 040V110 CAVOK 19/12 Q1011 NOSIG",
      "taf": "TAF LIMC 031700Z 0318/0424 VRB05KT 9999 FEW020"
    },
    {
      "icao": "LIME",
      "alert": "OK",
      "vis_m": 9999,
      "fzfg": false,
      "metar_trigger": false,
      "taf_trigger": false,
      "metar": "METAR LIME 032250Z 08005KT 050V110 CAVOK 19/13 Q1012 NOSIG",
      "taf": "TAF LIME 031700Z 0318/0418 12008KT CAVOK"
    },
    {
      "icao": "LIMF",
      "alert": "OK",
      "vis_m": 9999,
      "fzfg": false,
      "metar_trigger": false,
      "taf_trigger": false,
      "metar": "METAR LIMF 032250Z 33005KT CAVOK 20/13 Q1011",
      "taf": "TAF LIMF 031700Z 0318/0418 VRB05KT CAVOK"
    },
    {
      "icao": "LIMJ",
      "alert": "OK",
      "vis_m": 9999,
      "fzfg": false,
      "metar_trigger": false,
      "taf_trigger": false,
      "metar": "METAR LIMJ 032250Z AUTO 03004KT 9999 FEW017/// BKN230/// 20/15 Q1011",
      "taf": "TAF LIMJ 031700Z 0318/0418 VRB05KT CAVOK"
    },
    {
      "icao": "LIPE",
      "alert": "OK",
      "vis_m": 9999,
      "fzfg": false,
      "metar_trigger": false,
      "taf_trigger": false,
      "metar": "METAR LIPE 032250Z 10007KT CAVOK 18/14 Q1010",
      "taf": ""
    },
    {
      "icao": "LIPH",
      "alert": "OK",
      "vis_m": 9999,
      "fzfg": false,
      "metar_trigger": false,
      "taf_trigger": false,
      "metar": "METAR LIPH 032250Z AUTO VRB01KT 9999 BKN057/// 19/15 Q1012",
      "taf": "TAF LIPH 031700Z 0318/0418 VRB05KT 9999 FEW030"
    },
    {
      "icao": "LIPQ",
      "alert": "OK",
      "vis_m": 9999,
      "fzfg": false,
      "metar_trigger": false,
      "taf_trigger": false,
      "metar": "METAR LIPQ 032250Z AUTO 06002KT 9999 NCD 13/13 Q1012",
      "taf": "TAF LIPQ 031700Z 0318/0418 03008KT 9999 BKN040"
    },
    {
      "icao": "LIPR",
      "alert": "OK",
      "vis_m": 9999,
      "fzfg": false,
      "metar_trigger": false,
      "taf_trigger": false,
      "metar": "METAR LIPR 032250Z AUTO 13003KT 100V170 9999 NCD 16/14 Q1012",
      "taf": "TAF LIPR 031700Z 0318/0418 32012KT 9999 FEW040"
    },
    {
      "icao": "LIPX",
      "alert": "OK",
      "vis_m": 9999,
      "fzfg": false,
      "metar_trigger": false,
      "taf_trigger": false,
      "metar": "METAR LIPX 032250Z 07005KT 040V100 9999 SCT050 18/15 Q1012",
      "taf": "TAF LIPX 031700Z 0318/0418 10010KT CAVOK"
    },
    {
      "icao": "LIPY",
      "alert": "OK",
      "vis_m": 9999,
      "fzfg": false,
      "metar_trigger": false,
      "taf_trigger": false,
      "metar": "METAR LIPY 032250Z AUTO 18003KT 9999 NCD 16/15 Q1012",
      "taf": "TAF LIPY 031700Z 0318/0418 33012KT 9999 FEW060"
    },
    {
      "icao": "LIPZ",
      "alert": "OK",
      "vis_m": 9999,
      "fzfg": false,
      "metar_trigger": false,
      "taf_trigger": false,
      "metar": "METAR LIPZ 032250Z VRB01KT 9999 BKN060 19/15 Q1012 NOSIG",
      "taf": "TAF LIPZ 031700Z 0318/0424 11010KT 9999 SCT025"
    },
    {
      "icao": "LIRF",
      "alert": "OK",
      "vis_m": 9999,
      "fzfg": false,
      "metar_trigger": false,
      "taf_trigger": false,
      "metar": "METAR LIRF 032250Z 30006KT 270V340 CAVOK 20/18 Q1011 NOSIG",
      "taf": "TAF LIRF 031700Z 0318/0424 29014KT CAVOK"
    },
    {
      "icao": "LIRN",
      "alert": "OK",
      "vis_m": 9999,
      "fzfg": false,
      "metar_trigger": false,
      "taf_trigger": false,
      "metar": "METAR LIRN 032250Z 21003KT CAVOK 21/17 Q1012 NOSIG",
      "taf": "TAF LIRN 031700Z 0318/0418 VRB05KT 9999 SCT040"
    },
    {
      "icao": "LIRP",
      "alert": "OK",
      "vis_m": 9999,
      "fzfg": false,
      "metar_trigger": false,
      "taf_trigger": false,
      "metar": "METAR LIRP 032245Z 18002KT CAVOK 18/16 Q1012 NOSIG",
      "taf": "TAF LIRP 031700Z 0318/0418 27010KT 9999 SCT030"
    },
    {
      "icao": "LIRZ",
      "alert": "OK",
      "vis_m": 9999,
      "fzfg": false,
      "metar_trigger": false,
      "taf_trigger": false,
      "metar": "METAR LIRZ 032250Z AUTO 36005KT 9999 NCD 16/14 Q1012",
      "taf": ""
    },
    {
      "icao": "LJLJ",
      "alert": "OK",
      "vis_m": 9999,
      "fzfg": false,
      "metar_trigger": false,
      "taf_trigger": false,
      "metar": "METAR LJLJ 032300Z 30003KT 9999 FEW040 10/10 Q1013 NOSIG",
      "taf": "TAF LJLJ 032300Z 0400/0500 30003KT 9999 FEW033"
    },
    {
      "icao": "LKMT",
      "alert": "OK",
      "vis_m": 6000,
      "fzfg": false,
      "metar_trigger": false,
      "taf_trigger": false,
      "metar": "METAR LKMT 032300Z 23004KT 6000 -RA SCT022 OVC047 14/14 Q1011 NOSIG",
      "taf": ""
    },
    {
      "icao": "LKPR",
      "alert": "OK",
      "vis_m": 9999,
      "fzfg": false,
      "metar_trigger": false,
      "taf_trigger": false,
      "metar": "METAR LKPR 032300Z 24008KT CAVOK 12/09 Q1011 NOSIG",
      "taf": "TAF LKPR 032000Z 0321/0503 24008KT CAVOK"
    },
    {
      "icao": "LLBG",
      "alert": "OK",
      "vis_m": 9999,
      "fzfg": false,
      "metar_trigger": false,
      "taf_trigger": false,
      "metar": "METAR LLBG 032250Z VRB02KT CAVOK 22/15 Q1013 NOSIG",
      "taf": "TAF LLBG 032306Z 0400/0424 VRB04KT CAVOK TX33/0411Z TN20/0403Z"
    },
    {
      "icao": "LMML",
      "alert": "OK",
      "vis_m": 9999,
      "fzfg": false,
      "metar_trigger": false,
      "taf_trigger": false,
      "metar": "METAR LMML 032315Z 28008KT CAVOK 22/19 Q1013 NOSIG",
      "taf": "TAF LMML 032300Z 0400/0424 28009KT CAVOK"
    },
    {
      "icao": "LOWW",
      "alert": "OK",
      "vis_m": 9999,
      "fzfg": false,
      "metar_trigger": false,
      "taf_trigger": false,
      "metar": "METAR LOWW 032250Z 31012KT 9999 FEW034 BKN036 16/11 Q1012 NOSIG",
      "taf": "TAF LOWW 032315Z 0400/0506 30008KT CAVOK TX25/0413Z TN14/0403Z"
    },
    {
      "icao": "LPFR",
      "alert": "OK",
      "vis_m": 9999,
      "fzfg": false,
      "metar_trigger": false,
      "taf_trigger": false,
      "metar": "METAR LPFR 032300Z 31013KT CAVOK 22/15 Q1018",
      "taf": "TAF LPFR 032300Z 0400/0424 31013KT CAVOK"
    },
    {
      "icao": "LPMA",
      "alert": "OK",
      "vis_m": 9999,
      "fzfg": false,
      "metar_trigger": false,
      "taf_trigger": false,
      "metar": "METAR LPMA 032300Z 01011G22KT 330V070 9999 FEW015 22/14 Q1025",
      "taf": "TAF LPMA 032300Z 0400/0424 36013KT 9999 SCT015"
    },
    {
      "icao": "LPPR",
      "alert": "OK",
      "vis_m": 9999,
      "fzfg": false,
      "metar_trigger": false,
      "taf_trigger": false,
      "metar": "METAR LPPR 032300Z 33006KT 300V360 9999 FEW002 SCT005 BKN011 16/16 Q1019",
      "taf": "TAF LPPR 032300Z 0400/0424 33007KT 9999 SCT012 BKN030"
    },
    {
      "icao": "LPPS",
      "alert": "OK",
      "vis_m": null,
      "fzfg": false,
      "metar_trigger": false,
      "taf_trigger": false,
      "metar": "",
      "taf": ""
    },
    {
      "icao": "LPPT",
      "alert": "OK",
      "vis_m": null,
      "fzfg": false,
      "metar_trigger": false,
      "taf_trigger": false,
      "metar": "",
      "taf": ""
    },
    {
      "icao": "LQBK",
      "alert": "OK",
      "vis_m": 9999,
      "fzfg": false,
      "metar_trigger": false,
      "taf_trigger": false,
      "metar": "METAR LQBK 032300Z 24005KT 9999 BKN040 14/12 Q1012 RERA NOSIG",
      "taf": "TAF LQBK 032300Z 0400/0424 32005KT 9999 SCT040 TX25/0414Z TN11/0404Z"
    },
    {
      "icao": "LQSA",
      "alert": "OK",
      "vis_m": 9999,
      "fzfg": false,
      "metar_trigger": false,
      "taf_trigger": false,
      "metar": "METAR LQSA 032300Z 14004KT 100V160 9999 FEW011 BKN050 11/11 Q1012",
      "taf": "TAF LQSA 032300Z 0400/0424 16006KT 9999 SCT055 TX22/0413Z TN11/0404Z"
    },
    {
      "icao": "LQTZ",
      "alert": "OK",
      "vis_m": 6000,
      "fzfg": false,
      "metar_trigger": false,
      "taf_trigger": false,
      "metar": "METAR LQTZ 032300Z 27006KT 240V300 6000 SCT005 BKN008 OVC012 15/15 Q1011",
      "taf": "TAF LQTZ 032300Z 0400/0424 30005KT 9999 SCT020 BKN050 TX24/0414Z TN13/0403Z"
    },
    {
      "icao": "LRBC",
      "alert": "OK",
      "vis_m": 9999,
      "fzfg": false,
      "metar_trigger": false,
      "taf_trigger": false,
      "metar": "METAR LRBC 032300Z 14002KT 9999 FEW015 16/15 Q1010",
      "taf": "TAF LRBC 032000Z 0321/0406 VRB04KT CAVOK"
    },
    {
      "icao": "LRBS",
      "alert": "OK",
      "vis_m": 9999,
      "fzfg": false,
      "metar_trigger": false,
      "taf_trigger": false,
      "metar": "METAR LRBS 032300Z 04003KT 350V060 CAVOK 16/15 Q1009 NOSIG",
      "taf": "TAF LRBS 031700Z 0318/0418 VRB04KT CAVOK"
    },
    {
      "icao": "LRBV",
      "alert": "OK",
      "vis_m": 9999,
      "fzfg": false,
      "metar_trigger": false,
      "taf_trigger": false,
      "metar": "METAR LRBV 032300Z AUTO VRB03KT 9999 NCD 13/11 Q1011",
      "taf": "TAF LRBV 031700Z 0318/0403 VRB04KT 9999 SCT045"
    },
    {
      "icao": "LRCL",
      "alert": "OK",
      "vis_m": 9999,
      "fzfg": false,
      "metar_trigger": false,
      "taf_trigger": false,
      "metar": "METAR LRCL 032300Z 00000KT CAVOK 13/10 Q1009",
      "taf": "TAF LRCL 032000Z 0321/0406 VRB04KT CAVOK"
    },
    {
      "icao": "LRCV",
      "alert": "OK",
      "vis_m": 9999,
      "fzfg": false,
      "metar_trigger": false,
      "taf_trigger": false,
      "metar": "METAR LRCV 032300Z 33004KT 9999 TSRA FEW025 SCT040CB 21/15 Q1010",
      "taf": "TAF LRCV 032000Z 0321/0406 10007KT CAVOK"
    },
    {
      "icao": "LRIA",
      "alert": "OK",
      "vis_m": 9999,
      "fzfg": false,
      "metar_trigger": false,
      "taf_trigger": false,
      "metar": "METAR LRIA 032300Z 10009KT 9999 FEW011 16/15 Q1011",
      "taf": "TAF LRIA 032000Z 0321/0406 10008KT CAVOK"
    },
    {
      "icao": "LROP",
      "alert": "OK",
      "vis_m": 9999,
      "fzfg": false,
      "metar_trigger": false,
      "taf_trigger": false,
      "metar": "METAR LROP 032300Z 03006KT CAVOK 18/16 Q1009 NOSIG",
      "taf": "TAF LROP 031700Z 0318/0418 VRB04KT CAVOK"
    },
    {
      "icao": "LRSB",
      "alert": "OK",
      "vis_m": 9999,
      "fzfg": false,
      "metar_trigger": false,
      "taf_trigger": false,
      "metar": "METAR LRSB 032300Z 27003KT 190V300 CAVOK 15/11 Q1009",
      "taf": "TAF LRSB 031700Z 0318/0418 VRB04KT CAVOK"
    },
    {
      "icao": "LRSM",
      "alert": "OK",
      "vis_m": 9999,
      "fzfg": false,
      "metar_trigger": false,
      "taf_trigger": false,
      "metar": "METAR LRSM 032300Z AUTO 09007KT 9999 BKN130/// 16/13 Q1008",
      "taf": "TAF LRSM 031700Z 0318/0403 11007KT CAVOK"
    },
    {
      "icao": "LRSV",
      "alert": "OK",
      "vis_m": 9999,
      "fzfg": false,
      "metar_trigger": false,
      "taf_trigger": false,
      "metar": "METAR LRSV 032300Z 06003KT 030V090 CAVOK 16/15 Q1010",
      "taf": "TAF LRSV 032000Z 0321/0406 VRB04KT CAVOK"
    },
    {
      "icao": "LRTM",
      "alert": "OK",
      "vis_m": 9999,
      "fzfg": false,
      "metar_trigger": false,
      "taf_trigger": false,
      "metar": "METAR LRTM 032300Z 08005KT CAVOK 14/13 Q1009",
      "taf": "TAF LRTM 032000Z 0321/0406 VRB04KT CAVOK"
    },
    {
      "icao": "LRTR",
      "alert": "OK",
      "vis_m": 9999,
      "fzfg": false,
      "metar_trigger": false,
      "taf_trigger": false,
      "metar": "METAR LRTR 032300Z 11003KT 080V150 9999 -RA NSC 17/17 Q1008 NOSIG",
      "taf": "TAF LRTR 031700Z 0318/0418 26010KT 9999 SCT015 SCT040CB"
    },
    {
      "icao": "LTAC",
      "alert": "OK",
      "vis_m": 9999,
      "fzfg": false,
      "metar_trigger": false,
      "taf_trigger": false,
      "metar": "METAR LTAC 032250Z VRB02KT CAVOK 14/10 Q1017 NOSIG RMK RWY21C 03009KT RWY03L 14003KT 060V190 RWY21R 02008KT RWY03R 00000KT RWY21L 09004KT 050V130",
      "taf": "TAF LTAC 032240Z 0400/0424 VRB02KT CAVOK"
    },
    {
      "icao": "LTFM",
      "alert": "OK",
      "vis_m": 9999,
      "fzfg": false,
      "metar_trigger": false,
      "taf_trigger": false,
      "metar": "METAR LTFM 032250Z 21006KT 120V240 CAVOK 21/11 Q1011 NOSIG RMK RWY17L 21011G22KT RWY34L 00000KT RWY16R 19006KT RWY36 19005KT RWY18 22006KT",
      "taf": "TAF LTFM 032240Z 0400/0506 20012KT CAVOK"
    },
    {
      "icao": "LUKK",
      "alert": "OK",
      "vis_m": 9999,
      "fzfg": false,
      "metar_trigger": false,
      "taf_trigger": false,
      "metar": "METAR LUKK 032300Z 16004KT 130V200 9999 BKN006 BKN032 16/15 Q1012 NOSIG",
      "taf": "TAF LUKK 032319Z 0400/0424 VRB05KT 5000 BR BKN007"
    },
    {
      "icao": "LWOH",
      "alert": "OK",
      "vis_m": null,
      "fzfg": false,
      "metar_trigger": false,
      "taf_trigger": false,
      "metar": "",
      "taf": "TAF LWOH 032030Z 0321/0421 VRB03KT 9999 SCT040"
    },
    {
      "icao": "LWSK",
      "alert": "OK",
      "vis_m": 9999,
      "fzfg": false,
      "metar_trigger": false,
      "taf_trigger": false,
      "metar": "METAR LWSK 032320Z VRB03KT 9999 -RA SCT040 BKN070 18/14 Q1011 NOSIG",
      "taf": "TAF LWSK 032030Z 0321/0421 VRB02KT 9999 SCT050"
    },
    {
      "icao": "LYBE",
      "alert": "OK",
      "vis_m": 9999,
      "fzfg": false,
      "metar_trigger": false,
      "taf_trigger": false,
      "metar": "METAR LYBE 032300Z 25009KT 9999 SCT008 BKN045 16/15 Q1009 NOSIG",
      "taf": "TAF LYBE 031700Z 0318/0418 27012KT 9999 BKN045 TX24/0413Z TN16/0403Z"
    },
    {
      "icao": "LYNI",
      "alert": "OK",
      "vis_m": 9999,
      "fzfg": false,
      "metar_trigger": false,
      "taf_trigger": false,
      "metar": "METAR LYNI 032300Z 30006KT 270V350 9999 -SHRA FEW040TCU BKN067 18/17 Q1009 NOSIG",
      "taf": "TAF LYNI 031700Z 0318/0418 20010KT 9999 SCT050 TX23/0318Z TN15/0405Z"
    },
    {
      "icao": "LYPG",
      "alert": "OK",
      "vis_m": 9999,
      "fzfg": false,
      "metar_trigger": false,
      "taf_trigger": false,
      "metar": "METAR LYPG 032300Z 07005KT 040V100 9999 -RA SCT027 BKN034 16/16 Q1011 NOSIG",
      "taf": "TAF LYPG 031700Z 0318/0418 35007KT 9999 SCT030 BKN080 TX29/0413Z TN16/0404Z"
    },
    {
      "icao": "LZIB",
      "alert": "OK",
      "vis_m": 9999,
      "fzfg": false,
      "metar_trigger": false,
      "taf_trigger": false,
      "metar": "METAR LZIB 032300Z 30005KT 9999 -RA FEW030 15/12 Q1011 NOSIG",
      "taf": "TAF LZIB 032315Z 0400/0500 31006KT 9999 FEW025"
    },
    {
      "icao": "LZKZ",
      "alert": "OK",
      "vis_m": 9999,
      "fzfg": false,
      "metar_trigger": false,
      "taf_trigger": false,
      "metar": "METAR LZKZ 032300Z 36004KT CAVOK 18/15 Q1008 NOSIG",
      "taf": "TAF LZKZ 032315Z 0400/0500 VRB02KT 9999 SCT045"
    },
    {
      "icao": "LZTT",
      "alert": "OK",
      "vis_m": 9999,
      "fzfg": false,
      "metar_trigger": false,
      "taf_trigger": false,
      "metar": "METAR LZTT 032300Z 00000KT 9999 FEW016 SCT033 BKN070 13/13 Q1010",
      "taf": "TAF LZTT 032315Z 0400/0500 VRB02KT 9999 SCT033 BKN050"
    },
    {
      "icao": "OEJN",
      "alert": "OK",
      "vis_m": 9999,
      "fzfg": false,
      "metar_trigger": false,
      "taf_trigger": false,
      "metar": "METAR OEJN 032300Z 00000KT CAVOK 30/22 Q1006 NOSIG",
      "taf": "TAF OEJN 032300Z 0400/0506 VRB03KT CAVOK"
    },
    {
      "icao": "OEMA",
      "alert": "OK",
      "vis_m": 9999,
      "fzfg": false,
      "metar_trigger": false,
      "taf_trigger": false,
      "metar": "METAR OEMA 032300Z 36011KT CAVOK 35/M04 Q1013 NOSIG",
      "taf": "TAF OEMA 032300Z 0400/0506 VRB03KT CAVOK"
    },
    {
      "icao": "OJAI",
      "alert": "OK",
      "vis_m": 5000,
      "fzfg": false,
      "metar_trigger": false,
      "taf_trigger": false,
      "metar": "METAR OJAI 032300Z 00000KT 5000 HZ NSC 18/01 Q1018 NOSIG",
      "taf": "TAF OJAI 032300Z 0400/0506 29012KT 5000 HZ NSC"
    },
    {
      "icao": "OMAA",
      "alert": "OK",
      "vis_m": 9999,
      "fzfg": false,
      "metar_trigger": false,
      "taf_trigger": false,
      "metar": "METAR OMAA 032300Z 24007KT CAVOK 32/21 Q1001 NOSIG",
      "taf": "TAF OMAA 032300Z 0400/0506 24007KT 8000 NSC"
    },
    {
      "icao": "OMDB",
      "alert": "OK",
      "vis_m": 9999,
      "fzfg": false,
      "metar_trigger": false,
      "taf_trigger": false,
      "metar": "METAR OMDB 032300Z 18007KT 140V200 CAVOK 30/22 Q1000 NOSIG",
      "taf": "TAF OMDB 032300Z 0400/0506 19007KT 8000 NSC"
    },
    {
      "icao": "UAAA",
      "alert": "OK",
      "vis_m": 9999,
      "fzfg": false,
      "metar_trigger": false,
      "taf_trigger": false,
      "metar": "METAR UAAA 032300Z 16003MPS 9999 SCT050CB BKN130 21/10 Q1013 NOSIG",
      "taf": "TAF UAAA 031701Z 0318/0418 18003MPS 9999 SCT100 TX30/0409Z TN15/0401Z"
    },
    {
      "icao": "UBBB",
      "alert": "OK",
      "vis_m": 9999,
      "fzfg": false,
      "metar_trigger": false,
      "taf_trigger": false,
      "metar": "METAR UBBB 032300Z 00000KT CAVOK 17/14 Q1015 NOSIG",
      "taf": "TAF UBBB 032302Z 0400/0424 VRB04KT CAVOK TX24/0410Z TN15/0400Z"
    },
    {
      "icao": "UDSG",
      "alert": "OK",
      "vis_m": 9999,
      "fzfg": false,
      "metar_trigger": false,
      "taf_trigger": false,
      "metar": "METAR UDSG 032300Z 08003KT 9999 BKN049CB 09/07 Q1020 NOSIG",
      "taf": "TAF UDSG 031658Z 0318/0418 06006KT 9999 SCT040"
    },
    {
      "icao": "UDYZ",
      "alert": "OK",
      "vis_m": 9999,
      "fzfg": false,
      "metar_trigger": false,
      "taf_trigger": false,
      "metar": "METAR UDYZ 032300Z 15005KT 080V170 9999 FEW043CB 17/09 Q1015 NOSIG",
      "taf": "TAF UDYZ 031700Z 0318/0418 06006KT 9999 SCT040"
    },
    {
      "icao": "UGKO",
      "alert": "OK",
      "vis_m": 9999,
      "fzfg": false,
      "metar_trigger": false,
      "taf_trigger": false,
      "metar": "METAR UGKO 032300Z VRB02KT CAVOK 12/11 Q1014 NOSIG",
      "taf": "TAF UGKO 032300Z 0400/0424 09007KT CAVOK TX29/0411Z TN10/0402Z"
    }
  ]
}