{
  "ts_utc": "2026-04-30T04:45:09Z",
  "threshold_m": 150,
  "source": "stations_override.txt (ICAO list) + aviationweather.gov (METAR/TAF raw)",
  "station_count": 159,
  "stations": [
    {
      "icao": "BIKF",
      "alert": "OK",
      "vis_m": 9999,
      "fzfg": false,
      "metar_trigger": false,
      "taf_trigger": false,
      "metar": "METAR BIKF 300430Z 21017KT 9999 FEW024CB BKN062 04/M00 Q1008",
      "taf": "TAF BIKF 300140Z 3003/0103 21018KT 9999 -SHRA SCT020 BKN050 TX07/3014Z TN04/3003Z"
    },
    {
      "icao": "BKPR",
      "alert": "OK",
      "vis_m": 9999,
      "fzfg": false,
      "metar_trigger": false,
      "taf_trigger": false,
      "metar": "METAR BKPR 300430Z 02013KT 9999 -RA FEW017 BKN023 07/04 Q1020 NOSIG",
      "taf": "TAF BKPR 292330Z 3000/3024 01008KT 9999 SCT020 BKN040"
    },
    {
      "icao": "EBCI",
      "alert": "OK",
      "vis_m": 9999,
      "fzfg": false,
      "metar_trigger": false,
      "taf_trigger": false,
      "metar": "METAR EBCI 300420Z 06004KT CAVOK 07/M03 Q1024 NOSIG",
      "taf": "TAF EBCI 292320Z 3000/0106 09010KT CAVOK"
    },
    {
      "icao": "EDDB",
      "alert": "OK",
      "vis_m": 9999,
      "fzfg": false,
      "metar_trigger": false,
      "taf_trigger": false,
      "metar": "METAR EDDB 300420Z AUTO 33001KT CAVOK 02/M01 Q1032 NOSIG",
      "taf": "TAF EDDB 292300Z 3000/3024 VRB03KT CAVOK"
    },
    {
      "icao": "EDDH",
      "alert": "OK",
      "vis_m": 9999,
      "fzfg": false,
      "metar_trigger": false,
      "taf_trigger": false,
      "metar": "METAR EDDH 300420Z AUTO 03001KT CAVOK 03/01 Q1032 NOSIG",
      "taf": "TAF EDDH 292300Z 3000/0106 VRB02KT CAVOK"
    },
    {
      "icao": "EDDK",
      "alert": "OK",
      "vis_m": 9999,
      "fzfg": false,
      "metar_trigger": false,
      "taf_trigger": false,
      "metar": "METAR EDDK 300420Z AUTO 09010KT 060V130 CAVOK 07/M05 Q1028 NOSIG",
      "taf": "TAF EDDK 292300Z 3000/0106 09007KT CAVOK"
    },
    {
      "icao": "EDDN",
      "alert": "OK",
      "vis_m": 9999,
      "fzfg": false,
      "metar_trigger": false,
      "taf_trigger": false,
      "metar": "METAR EDDN 300420Z AUTO 08007KT CAVOK 03/M08 Q1029 NOSIG",
      "taf": "TAF EDDN 292300Z 3000/3024 07008KT CAVOK"
    },
    {
      "icao": "EDDS",
      "alert": "OK",
      "vis_m": 9999,
      "fzfg": false,
      "metar_trigger": false,
      "taf_trigger": false,
      "metar": "METAR EDDS 300420Z AUTO 09007KT CAVOK 04/M05 Q1025 NOSIG",
      "taf": "TAF EDDS 292300Z 3000/3024 07005KT CAVOK"
    },
    {
      "icao": "EDFH",
      "alert": "OK",
      "vis_m": 9999,
      "fzfg": false,
      "metar_trigger": false,
      "taf_trigger": false,
      "metar": "METAR EDFH 300420Z 09009KT 040V130 CAVOK 04/M06 Q1026",
      "taf": "TAF EDFH 292300Z 3000/3024 09008KT CAVOK"
    },
    {
      "icao": "EDJA",
      "alert": "OK",
      "vis_m": 9999,
      "fzfg": false,
      "metar_trigger": false,
      "taf_trigger": false,
      "metar": "METAR EDJA 300420Z 06011KT CAVOK 02/M06 Q1024",
      "taf": "TAF EDJA 300200Z 3003/3012 06008KT CAVOK"
    },
    {
      "icao": "EDLW",
      "alert": "OK",
      "vis_m": 9999,
      "fzfg": false,
      "metar_trigger": false,
      "taf_trigger": false,
      "metar": "METAR EDLW 300420Z 07005KT CAVOK 03/M03 Q1029",
      "taf": "TAF EDLW 300320Z 3004/3024 07004KT CAVOK"
    },
    {
      "icao": "EDNY",
      "alert": "OK",
      "vis_m": 9999,
      "fzfg": false,
      "metar_trigger": false,
      "taf_trigger": false,
      "metar": "METAR EDNY 300420Z 02009KT CAVOK 06/M03 Q1023",
      "taf": "TAF EDNY 300200Z 3003/3012 06012KT CAVOK"
    },
    {
      "icao": "EDSB",
      "alert": "OK",
      "vis_m": 9999,
      "fzfg": false,
      "metar_trigger": false,
      "taf_trigger": false,
      "metar": "METAR EDSB 300420Z 03008KT CAVOK 08/M04 Q1024",
      "taf": "TAF EDSB 292300Z 3000/3024 03012KT CAVOK"
    },
    {
      "icao": "EETN",
      "alert": "OK",
      "vis_m": 9999,
      "fzfg": false,
      "metar_trigger": false,
      "taf_trigger": false,
      "metar": "METAR EETN 300420Z 25008KT 9999 OVC026 04/02 Q1022 BECMG BKN015",
      "taf": "TAF EETN 292330Z 3000/3024 26012KT CAVOK"
    },
    {
      "icao": "EFTU",
      "alert": "OK",
      "vis_m": 9999,
      "fzfg": false,
      "metar_trigger": false,
      "taf_trigger": false,
      "metar": "METAR EFTU 300420Z AUTO 30004KT 280V340 9999 SCT004 SCT050 05/04 Q1022",
      "taf": "TAF EFTU 300234Z 3003/0103 27004KT 9999 OVC003"
    },
    {
      "icao": "EGBB",
      "alert": "OK",
      "vis_m": 9999,
      "fzfg": false,
      "metar_trigger": false,
      "taf_trigger": false,
      "metar": "METAR EGBB 300420Z 06006KT CAVOK 07/04 Q1024",
      "taf": "TAF EGBB 292303Z 3000/3024 05009KT CAVOK"
    },
    {
      "icao": "EGGP",
      "alert": "OK",
      "vis_m": 9999,
      "fzfg": false,
      "metar_trigger": false,
      "taf_trigger": false,
      "metar": "METAR EGGP 300420Z 07013KT CAVOK 07/03 Q1024",
      "taf": "TAF EGGP 292258Z 3000/3024 09014KT CAVOK"
    },
    {
      "icao": "EGGW",
      "alert": "OK",
      "vis_m": 9999,
      "fzfg": false,
      "metar_trigger": false,
      "taf_trigger": false,
      "metar": "METAR EGGW 300420Z AUTO 09008KT 9999 NCD 08/03 Q1023",
      "taf": "TAF EGGW 292253Z 3000/3024 07012KT CAVOK"
    },
    {
      "icao": "EGKK",
      "alert": "OK",
      "vis_m": 9999,
      "fzfg": false,
      "metar_trigger": false,
      "taf_trigger": false,
      "metar": "METAR EGKK 300420Z 06005KT CAVOK 08/03 Q1022",
      "taf": "TAF EGKK 292300Z 3000/0106 07012KT CAVOK"
    },
    {
      "icao": "EGNM",
      "alert": "OK",
      "vis_m": 9999,
      "fzfg": false,
      "metar_trigger": false,
      "taf_trigger": false,
      "metar": "METAR EGNM 300420Z 04006KT 020V090 CAVOK 05/03 Q1026",
      "taf": "TAF EGNM 292257Z 3000/3024 03006KT CAVOK"
    },
    {
      "icao": "EGPD",
      "alert": "OK",
      "vis_m": 9999,
      "fzfg": false,
      "metar_trigger": false,
      "taf_trigger": false,
      "metar": "METAR EGPD 300420Z COR AUTO VRB02KT 9999 FEW007 05/04 Q1029 NOSIG",
      "taf": "TAF EGPD 292253Z 3000/3024 16009KT CAVOK"
    },
    {
      "icao": "EGPF",
      "alert": "OK",
      "vis_m": 9999,
      "fzfg": false,
      "metar_trigger": false,
      "taf_trigger": false,
      "metar": "METAR EGPF 300420Z AUTO 05004KT 9999 NCD 05/02 Q1028",
      "taf": ""
    },
    {
      "icao": "EHBK",
      "alert": "OK",
      "vis_m": 9999,
      "fzfg": false,
      "metar_trigger": false,
      "taf_trigger": false,
      "metar": "METAR EHBK 300425Z AUTO 08011KT 050V120 9999 NCD 07/M03 Q1026 NOSIG",
      "taf": "TAF EHBK 292259Z 3000/0106 09010KT CAVOK"
    },
    {
      "icao": "EHEH",
      "alert": "OK",
      "vis_m": 9999,
      "fzfg": false,
      "metar_trigger": false,
      "taf_trigger": false,
      "metar": "METAR EHEH 300425Z AUTO 08008KT 050V110 9999 NCD 08/M02 Q1027 BLU NOSIG RMK TREND REMOTE BY EHWX",
      "taf": "TAF EHEH 292331Z 3000/0106 08009KT CAVOK"
    },
    {
      "icao": "EKBI",
      "alert": "OK",
      "vis_m": 9999,
      "fzfg": false,
      "metar_trigger": false,
      "taf_trigger": false,
      "metar": "METAR EKBI 300420Z AUTO 00000KT 9999 NCD 00/M00 Q1033",
      "taf": "TAF EKBI 300227Z 3003/0103 30004KT CAVOK"
    },
    {
      "icao": "EKCH",
      "alert": "OK",
      "vis_m": 9999,
      "fzfg": false,
      "metar_trigger": false,
      "taf_trigger": false,
      "metar": "METAR EKCH 300420Z AUTO 25006KT 9999 NCD 05/01 Q1031 NOSIG",
      "taf": "TAF EKCH 300227Z 3003/0103 29006KT CAVOK"
    },
    {
      "icao": "ENAL",
      "alert": "OK",
      "vis_m": 9999,
      "fzfg": false,
      "metar_trigger": false,
      "taf_trigger": false,
      "metar": "METAR ENAL 300420Z 16008KT 9999 NSC 05/05 Q1029",
      "taf": "TAF ENAL 300200Z 3003/3012 21009KT 9999 FEW006"
    },
    {
      "icao": "ENBR",
      "alert": "OK",
      "vis_m": 100,
      "fzfg": false,
      "metar_trigger": false,
      "taf_trigger": false,
      "metar": "METAR ENBR 300420Z VRB01KT 0100 R17/0350N R35/0450N FG VV002 05/05 Q1031 TEMPO 0300 FG RMK WIND 1200FT 15003KT",
      "taf": ""
    },
    {
      "icao": "ENGM",
      "alert": "OK",
      "vis_m": 9999,
      "fzfg": false,
      "metar_trigger": false,
      "taf_trigger": false,
      "metar": "METAR ENGM 300420Z 36003KT CAVOK 05/M00 Q1028 NOSIG",
      "taf": "TAF ENGM 292300Z 3000/3024 01003KT CAVOK"
    },
    {
      "icao": "ENHD",
      "alert": "OK",
      "vis_m": 250,
      "fzfg": false,
      "metar_trigger": false,
      "taf_trigger": false,
      "metar": "METAR ENHD 300420Z 35005KT 0250 R13/0700N R31/0600N FG VV002 06/05 Q1031",
      "taf": "TAF ENHD 300200Z 3003/3012 34006KT 0200 FG VV001"
    },
    {
      "icao": "ENTC",
      "alert": "OK",
      "vis_m": 9999,
      "fzfg": false,
      "metar_trigger": false,
      "taf_trigger": false,
      "metar": "METAR ENTC 300420Z 20012KT 9999 SCT014 SCT019 BKN022 06/03 Q1015 RMK WIND 2600FT 23015KT",
      "taf": ""
    },
    {
      "icao": "ENTO",
      "alert": "OK",
      "vis_m": 9999,
      "fzfg": false,
      "metar_trigger": false,
      "taf_trigger": false,
      "metar": "METAR ENTO 300420Z 30001KT CAVOK 05/05 Q1028 NOSIG",
      "taf": ""
    },
    {
      "icao": "ENVA",
      "alert": "OK",
      "vis_m": 9999,
      "fzfg": false,
      "metar_trigger": false,
      "taf_trigger": false,
      "metar": "METAR ENVA 300420Z VRB02KT 9999 FEW019 BKN026 07/06 Q1029 NOSIG RMK WIND 670FT 28003KT",
      "taf": "TAF ENVA 292300Z 3000/3024 27009KT 9999 BKN020"
    },
    {
      "icao": "ENZV",
      "alert": "OK",
      "vis_m": 200,
      "fzfg": false,
      "metar_trigger": false,
      "taf_trigger": false,
      "metar": "METAR ENZV 300420Z 32004KT 280V010 0200 FG VV001 06/06 Q1031 TEMPO 0400 FG VV003",
      "taf": ""
    },
    {
      "icao": "EPGD",
      "alert": "OK",
      "vis_m": 9999,
      "fzfg": false,
      "metar_trigger": false,
      "taf_trigger": false,
      "metar": "METAR EPGD 300430Z 21003KT 160V240 CAVOK 03/M06 Q1030",
      "taf": "TAF EPGD 292330Z 3000/3024 26005KT CAVOK"
    },
    {
      "icao": "EPKK",
      "alert": "OK",
      "vis_m": 9999,
      "fzfg": false,
      "metar_trigger": false,
      "taf_trigger": false,
      "metar": "METAR EPKK 300430Z 23001KT CAVOK M02/M05 Q1030",
      "taf": "TAF EPKK 300230Z 3003/0103 VRB02KT CAVOK"
    },
    {
      "icao": "EPKT",
      "alert": "OK",
      "vis_m": 9999,
      "fzfg": false,
      "metar_trigger": false,
      "taf_trigger": false,
      "metar": "METAR EPKT 300430Z VRB01KT CAVOK M05/M07 Q1030",
      "taf": "TAF EPKT 292330Z 3000/3024 VRB02KT CAVOK"
    },
    {
      "icao": "EPLB",
      "alert": "OK",
      "vis_m": 9999,
      "fzfg": false,
      "metar_trigger": false,
      "taf_trigger": false,
      "metar": "METAR EPLB 300430Z 29005KT CAVOK M02/M04 Q1029",
      "taf": "TAF EPLB 292330Z 3000/3024 33008KT CAVOK"
    },
    {
      "icao": "EPMO",
      "alert": "OK",
      "vis_m": 9999,
      "fzfg": false,
      "metar_trigger": false,
      "taf_trigger": false,
      "metar": "METAR EPMO 300430Z 32005KT CAVOK M01/M05 Q1030",
      "taf": "TAF EPMO 292330Z 3000/3024 VRB02KT CAVOK"
    },
    {
      "icao": "EPPO",
      "alert": "OK",
      "vis_m": 9999,
      "fzfg": false,
      "metar_trigger": false,
      "taf_trigger": false,
      "metar": "METAR EPPO 300430Z 29001KT CAVOK M01/M03 Q1031",
      "taf": "TAF EPPO 292330Z 3000/3024 VRB02KT CAVOK"
    },
    {
      "icao": "EPRA",
      "alert": "OK",
      "vis_m": 9999,
      "fzfg": false,
      "metar_trigger": false,
      "taf_trigger": false,
      "metar": "METAR EPRA 300430Z 26006KT CAVOK 01/M05 Q1030",
      "taf": "TAF EPRA 300230Z 3003/3012 27005KT CAVOK"
    },
    {
      "icao": "EPRZ",
      "alert": "OK",
      "vis_m": 9999,
      "fzfg": false,
      "metar_trigger": false,
      "taf_trigger": false,
      "metar": "METAR EPRZ 300430Z 26006KT CAVOK M01/M04 Q1030",
      "taf": "TAF EPRZ 292330Z 3000/3024 33010KT CAVOK"
    },
    {
      "icao": "EPSC",
      "alert": "OK",
      "vis_m": 9999,
      "fzfg": false,
      "metar_trigger": false,
      "taf_trigger": false,
      "metar": "METAR EPSC 300430Z VRB01KT CAVOK 04/M01 Q1031",
      "taf": "TAF EPSC 292330Z 3000/3024 VRB02KT CAVOK"
    },
    {
      "icao": "EPSY",
      "alert": "OK",
      "vis_m": 9999,
      "fzfg": false,
      "metar_trigger": false,
      "taf_trigger": false,
      "metar": "METAR EPSY 300430Z VRB01KT CAVOK M04/M05 Q1030",
      "taf": "TAF EPSY 300230Z 3003/3012 32006KT CAVOK"
    },
    {
      "icao": "EPWA",
      "alert": "OK",
      "vis_m": 9999,
      "fzfg": false,
      "metar_trigger": false,
      "taf_trigger": false,
      "metar": "METAR EPWA 300430Z 31006KT CAVOK M00/M05 Q1030 NOSIG",
      "taf": "TAF EPWA 300230Z 3003/0103 29005KT CAVOK"
    },
    {
      "icao": "EPWR",
      "alert": "OK",
      "vis_m": 9999,
      "fzfg": false,
      "metar_trigger": false,
      "taf_trigger": false,
      "metar": "METAR EPWR 300430Z 26003KT CAVOK M00/M04 Q1032",
      "taf": "TAF EPWR 300230Z 3003/0103 VRB02KT CAVOK"
    },
    {
      "icao": "ESGG",
      "alert": "OK",
      "vis_m": 9999,
      "fzfg": false,
      "metar_trigger": false,
      "taf_trigger": false,
      "metar": "METAR ESGG 300420Z 22005KT CAVOK 05/04 Q1029",
      "taf": "TAF ESGG 300230Z 3003/0103 23006KT CAVOK"
    },
    {
      "icao": "ESKN",
      "alert": "OK",
      "vis_m": 9999,
      "fzfg": false,
      "metar_trigger": false,
      "taf_trigger": false,
      "metar": "METAR ESKN 300420Z 29007KT CAVOK 07/03 Q1026",
      "taf": "TAF ESKN 300230Z 3003/0103 28005KT CAVOK"
    },
    {
      "icao": "ESMS",
      "alert": "OK",
      "vis_m": 9999,
      "fzfg": false,
      "metar_trigger": false,
      "taf_trigger": false,
      "metar": "METAR ESMS 300420Z 30003KT CAVOK 03/01 Q1030",
      "taf": "TAF ESMS 300227Z 3003/0103 30008KT CAVOK"
    },
    {
      "icao": "ESSA",
      "alert": "OK",
      "vis_m": 9999,
      "fzfg": false,
      "metar_trigger": false,
      "taf_trigger": false,
      "metar": "METAR ESSA 300420Z 24004KT 9999 BKN039 07/03 Q1025 NOSIG",
      "taf": "TAF ESSA 300230Z 3003/0103 VRB02KT CAVOK"
    },
    {
      "icao": "EYKA",
      "alert": "OK",
      "vis_m": 9999,
      "fzfg": false,
      "metar_trigger": false,
      "taf_trigger": false,
      "metar": "METAR EYKA 300420Z 26002KT CAVOK 00/M04 Q1028",
      "taf": "TAF EYKA 292300Z 3000/3024 VRB04KT 9000 NSC"
    },
    {
      "icao": "EYPA",
      "alert": "OK",
      "vis_m": 9999,
      "fzfg": false,
      "metar_trigger": false,
      "taf_trigger": false,
      "metar": "METAR EYPA 300420Z 20005KT 180V240 CAVOK 05/01 Q1028",
      "taf": "TAF EYPA 292300Z 3000/3024 VRB03KT 9000 NSC"
    },
    {
      "icao": "EYVI",
      "alert": "OK",
      "vis_m": 9999,
      "fzfg": false,
      "metar_trigger": false,
      "taf_trigger": false,
      "metar": "METAR EYVI 300420Z 31005KT 9999 FEW049 01/M05 Q1027 NOSIG",
      "taf": "TAF EYVI 292300Z 3000/3024 VRB04KT 9000 NSC"
    },
    {
      "icao": "GCFV",
      "alert": "OK",
      "vis_m": 9999,
      "fzfg": false,
      "metar_trigger": false,
      "taf_trigger": false,
      "metar": "METAR GCFV 300430Z AUTO 29006KT CAVOK 16/12 Q1015",
      "taf": "TAF GCFV 300200Z 3003/0103 32005KT 9999 SCT025 TX21/3014Z TN16/3006Z"
    },
    {
      "icao": "GCLP",
      "alert": "OK",
      "vis_m": 9999,
      "fzfg": false,
      "metar_trigger": false,
      "taf_trigger": false,
      "metar": "METAR GCLP 300430Z 27005KT 9999 SCT050 17/13 Q1015 NOSIG",
      "taf": "TAF GCLP 300200Z 3003/0103 27005KT 9999 BKN025 TX22/3014Z TN16/3006Z"
    },
    {
      "icao": "GCTS",
      "alert": "OK",
      "vis_m": 9999,
      "fzfg": false,
      "metar_trigger": false,
      "taf_trigger": false,
      "metar": "METAR GCTS 300430Z 01005KT 9999 FEW030 16/12 Q1015 NOSIG",
      "taf": "TAF GCTS 300200Z 3003/0103 VRB05KT 9999 BKN030 TX23/3014Z TN16/3006Z"
    },
    {
      "icao": "GMAD",
      "alert": "OK",
      "vis_m": 9999,
      "fzfg": false,
      "metar_trigger": false,
      "taf_trigger": false,
      "metar": "METAR GMAD 300430Z 18004KT 9999 BKN040 SCT080 17/12 Q1013 NOSIG",
      "taf": "TAF GMAD 292300Z 3000/0106 20006KT 8000 SCT023"
    },
    {
      "icao": "GMMN",
      "alert": "OK",
      "vis_m": 9999,
      "fzfg": false,
      "metar_trigger": false,
      "taf_trigger": false,
      "metar": "METAR GMMN 300430Z 03006KT 9999 BKN016 16/14 Q1015 NOSIG",
      "taf": "TAF GMMN 292300Z 3000/0106 04004KT 9999 BKN013"
    },
    {
      "icao": "GMMX",
      "alert": "OK",
      "vis_m": 4000,
      "fzfg": false,
      "metar_trigger": false,
      "taf_trigger": false,
      "metar": "METAR GMMX 300430Z 25004KT 200V280 4000 BR SCT006 BKN013 15/13 Q1014 NOSIG",
      "taf": "TAF GMMX 292300Z 3000/0106 26006KT 8000 SCT023 SCT040"
    },
    {
      "icao": "HEGN",
      "alert": "OK",
      "vis_m": 9999,
      "fzfg": false,
      "metar_trigger": false,
      "taf_trigger": false,
      "metar": "METAR HEGN 300400Z 30015KT CAVOK 22/03 Q1012 NOSIG",
      "taf": "TAF HEGN 292300Z 3000/0106 28006G18KT CAVOK"
    },
    {
      "icao": "HEMA",
      "alert": "OK",
      "vis_m": 9999,
      "fzfg": false,
      "metar_trigger": false,
      "taf_trigger": false,
      "metar": "METAR HEMA 300400Z 31010KT CAVOK 24/02 Q1012 NOSIG",
      "taf": "TAF HEMA 292300Z 3000/0106 29006G18KT CAVOK"
    },
    {
      "icao": "HESH",
      "alert": "OK",
      "vis_m": 9999,
      "fzfg": false,
      "metar_trigger": false,
      "taf_trigger": false,
      "metar": "METAR HESH 300400Z 33012KT CAVOK 23/11 Q1011 NOSIG",
      "taf": "TAF HESH 292300Z 3000/0106 32012KT CAVOK"
    },
    {
      "icao": "HESX",
      "alert": "OK",
      "vis_m": 4000,
      "fzfg": false,
      "metar_trigger": false,
      "taf_trigger": false,
      "metar": "METAR HESX 300400Z 01006KT 4000 BR NSC 16/14 Q1015 NOSIG",
      "taf": "TAF HESX 292300Z 3000/0106 36009KT CAVOK"
    },
    {
      "icao": "LATI",
      "alert": "OK",
      "vis_m": 9999,
      "fzfg": false,
      "metar_trigger": false,
      "taf_trigger": false,
      "metar": "METAR LATI 300420Z VRB02KT 9999 SCT120 11/05 Q1015 NOSIG",
      "taf": "TAF LATI 292300Z 3000/3024 VRB03KT CAVOK TX23/3010Z TN08/3018Z"
    },
    {
      "icao": "LBPD",
      "alert": "OK",
      "vis_m": 9999,
      "fzfg": false,
      "metar_trigger": false,
      "taf_trigger": false,
      "metar": "METAR LBPD 300430Z AUTO 10010KT 9999 OVC036/// 10/10 Q1019 NOSIG",
      "taf": "TAF LBPD 292300Z 3000/3024 VRB04KT 9999 BKN040"
    },
    {
      "icao": "LBSF",
      "alert": "OK",
      "vis_m": 9999,
      "fzfg": false,
      "metar_trigger": false,
      "taf_trigger": false,
      "metar": "METAR LBSF 300430Z 31004KT 9999 OVC030 09/06 Q1019 NOSIG",
      "taf": "TAF LBSF 292300Z 3000/3024 32008KT 9999 BKN020 OVC035"
    },
    {
      "icao": "LBWN",
      "alert": "OK",
      "vis_m": 9999,
      "fzfg": false,
      "metar_trigger": false,
      "taf_trigger": false,
      "metar": "METAR LBWN 300430Z 09003KT 9999 -RA FEW029 BKN040 09/09 Q1021 NOSIG",
      "taf": "TAF LBWN 292300Z 3000/3024 12010KT 9999 SCT020 BKN040"
    },
    {
      "icao": "LCLK",
      "alert": "OK",
      "vis_m": 8000,
      "fzfg": false,
      "metar_trigger": false,
      "taf_trigger": false,
      "metar": "METAR LCLK 300430Z 31005KT 8000 BKN006 16/16 Q1015 NOSIG",
      "taf": "TAF LCLK 292330Z 3000/0100 30006KT 9999 FEW030"
    },
    {
      "icao": "LCPH",
      "alert": "OK",
      "vis_m": 9999,
      "fzfg": false,
      "metar_trigger": false,
      "taf_trigger": false,
      "metar": "METAR LCPH 300430Z 07003KT 010V090 CAVOK 16/08 Q1015 NOSIG",
      "taf": "TAF LCPH 292330Z 3000/0100 33007KT 9999 SCT015"
    },
    {
      "icao": "LEAL",
      "alert": "OK",
      "vis_m": 9999,
      "fzfg": false,
      "metar_trigger": false,
      "taf_trigger": false,
      "metar": "METAR LEAL 300430Z 26005KT CAVOK 16/13 Q1014 NOSIG",
      "taf": "TAF LEAL 292300Z 3000/3024 VRB03KT 9999 FEW020 TX23/3013Z TN14/3005Z"
    },
    {
      "icao": "LEBB",
      "alert": "OK",
      "vis_m": 9999,
      "fzfg": false,
      "metar_trigger": false,
      "taf_trigger": false,
      "metar": "METAR LEBB 300430Z 09005KT 060V140 9999 FEW060 15/13 Q1013 NOSIG",
      "taf": ""
    },
    {
      "icao": "LEBL",
      "alert": "OK",
      "vis_m": 9999,
      "fzfg": false,
      "metar_trigger": false,
      "taf_trigger": false,
      "metar": "METAR LEBL 300430Z 33005KT 9999 FEW009 16/15 Q1015 NOSIG",
      "taf": ""
    },
    {
      "icao": "LECH",
      "alert": "OK",
      "vis_m": 9999,
      "fzfg": false,
      "metar_trigger": false,
      "taf_trigger": false,
      "metar": "METAR LECH 300430Z AUTO 00000KT CAVOK 13/09 Q1015",
      "taf": "TAF LECH 292300Z 3000/3024 VRB03KT 9999 FEW020 TX25/3012Z TN11/3005Z"
    },
    {
      "icao": "LEMD",
      "alert": "OK",
      "vis_m": 9999,
      "fzfg": false,
      "metar_trigger": false,
      "taf_trigger": false,
      "metar": "METAR LEMD 300430Z 18004KT 140V220 9999 SCT060 11/09 Q1015 NOSIG",
      "taf": "TAF LEMD 292300Z 3000/0106 23006KT 9999 FEW040 TX22/3016Z TN08/0106Z"
    },
    {
      "icao": "LEMG",
      "alert": "OK",
      "vis_m": 9999,
      "fzfg": false,
      "metar_trigger": false,
      "taf_trigger": false,
      "metar": "METAR LEMG 300430Z 30006KT CAVOK 13/12 Q1015 NOSIG",
      "taf": "TAF LEMG 292300Z 3000/3024 27006KT 9999 FEW020 SCT050 TX25/3014Z TN15/3006Z"
    },
    {
      "icao": "LEVC",
      "alert": "OK",
      "vis_m": 9999,
      "fzfg": false,
      "metar_trigger": false,
      "taf_trigger": false,
      "metar": "METAR LEVC 300430Z 19001KT 9999 FEW020 15/14 Q1014 NOSIG",
      "taf": "TAF LEVC 292300Z 3000/3024 VRB03KT 9999 SCT015 TX24/3013Z TN13/3005Z"
    },
    {
      "icao": "LEXJ",
      "alert": "OK",
      "vis_m": 8000,
      "fzfg": false,
      "metar_trigger": false,
      "taf_trigger": false,
      "metar": "METAR LEXJ 300430Z 24007KT 8000 NSC 14/12 Q1012",
      "taf": "TAF LEXJ 300200Z 3003/0103 04008KT 9999 FEW010 SCT020 TX19/3014Z TN13/3005Z"
    },
    {
      "icao": "LEZG",
      "alert": "OK",
      "vis_m": 9999,
      "fzfg": false,
      "metar_trigger": false,
      "taf_trigger": false,
      "metar": "METAR LEZG 300430Z 00000KT 9999 BKN060 14/13 Q1015 NOSIG",
      "taf": "TAF LEZG 292300Z 3000/3024 12005KT 9999 SCT050 TX27/3014Z TN13/3005Z"
    },
    {
      "icao": "LEZL",
      "alert": "OK",
      "vis_m": 9000,
      "fzfg": false,
      "metar_trigger": false,
      "taf_trigger": false,
      "metar": "METAR LEZL 300430Z VRB01KT 9000 FEW046 12/11 Q1015 NOSIG",
      "taf": "TAF LEZL 300200Z 3003/0103 VRB02KT 9999 SCT030 TX25/3015Z TN12/3006Z"
    },
    {
      "icao": "LFBD",
      "alert": "OK",
      "vis_m": 9999,
      "fzfg": false,
      "metar_trigger": false,
      "taf_trigger": false,
      "metar": "METAR LFBD 300430Z AUTO 12006KT 9999 ///TCU 16/12 Q1013 TEMPO 4000 -SHRA",
      "taf": "TAF LFBD 292300Z 3000/0106 14005KT CAVOK TX22/3013Z TN12/0102Z"
    },
    {
      "icao": "LFLL",
      "alert": "OK",
      "vis_m": 9999,
      "fzfg": false,
      "metar_trigger": false,
      "taf_trigger": false,
      "metar": "METAR LFLL 300430Z 14006KT CAVOK 14/08 Q1017 NOSIG",
      "taf": "TAF LFLL 292300Z 3000/0106 14006KT CAVOK"
    },
    {
      "icao": "LFLS",
      "alert": "OK",
      "vis_m": 9999,
      "fzfg": false,
      "metar_trigger": false,
      "taf_trigger": false,
      "metar": "METAR LFLS 300430Z AUTO 07010KT CAVOK 13/10 Q1017 NOSIG",
      "taf": "TAF LFLS 300200Z 3003/0103 08008KT CAVOK"
    },
    {
      "icao": "LFMN",
      "alert": "OK",
      "vis_m": 9999,
      "fzfg": false,
      "metar_trigger": false,
      "taf_trigger": false,
      "metar": "METAR LFMN 300430Z 33007KT CAVOK 16/08 Q1017 NOSIG",
      "taf": "TAF LFMN 300200Z 3003/0109 36006KT CAVOK"
    },
    {
      "icao": "LFOB",
      "alert": "OK",
      "vis_m": 9999,
      "fzfg": false,
      "metar_trigger": false,
      "taf_trigger": false,
      "metar": "METAR LFOB 300430Z AUTO 08008KT CAVOK 08/01 Q1021 NOSIG",
      "taf": "TAF LFOB 292300Z 3000/3024 08012KT CAVOK"
    },
    {
      "icao": "LFPO",
      "alert": "OK",
      "vis_m": 9999,
      "fzfg": false,
      "metar_trigger": false,
      "taf_trigger": false,
      "metar": "METAR LFPO 300430Z 09011KT CAVOK 12/M01 Q1019 NOSIG",
      "taf": "TAF LFPO 292300Z 3000/0106 08012KT CAVOK"
    },
    {
      "icao": "LFSB",
      "alert": "OK",
      "vis_m": 9999,
      "fzfg": false,
      "metar_trigger": false,
      "taf_trigger": false,
      "metar": "METAR LFSB 300430Z AUTO 30005KT CAVOK 06/M01 Q1022 NOSIG",
      "taf": "TAF LFSB 292300Z 3000/3024 09006KT CAVOK"
    },
    {
      "icao": "LGAV",
      "alert": "OK",
      "vis_m": 9999,
      "fzfg": false,
      "metar_trigger": false,
      "taf_trigger": false,
      "metar": "METAR LGAV 300420Z 00000KT CAVOK 13/07 Q1016 NOSIG",
      "taf": "TAF LGAV 292300Z 3000/3024 VRB05KT 9999 FEW030"
    },
    {
      "icao": "LGTS",
      "alert": "OK",
      "vis_m": 9999,
      "fzfg": false,
      "metar_trigger": false,
      "taf_trigger": false,
      "metar": "METAR LGTS 300420Z 13003KT 9999 FEW025 10/10 Q1017 NOSIG",
      "taf": "TAF LGTS 292300Z 3000/3024 VRB03KT 9999 FEW030"
    },
    {
      "icao": "LHBP",
      "alert": "OK",
      "vis_m": 9999,
      "fzfg": false,
      "metar_trigger": false,
      "taf_trigger": false,
      "metar": "METAR LHBP 300430Z 36007KT CAVOK 04/M07 Q1027 NOSIG",
      "taf": "TAF LHBP 292315Z 3000/3024 05010KT CAVOK"
    },
    {
      "icao": "LHDC",
      "alert": "OK",
      "vis_m": 9999,
      "fzfg": false,
      "metar_trigger": false,
      "taf_trigger": false,
      "metar": "METAR LHDC 300415Z AUTO 02013KT 350V050 CAVOK 04/M05 Q1025 NOSIG",
      "taf": "TAF LHDC 300215Z 3003/3012 02012KT CAVOK"
    },
    {
      "icao": "LIBD",
      "alert": "OK",
      "vis_m": 7000,
      "fzfg": false,
      "metar_trigger": false,
      "taf_trigger": false,
      "metar": "METAR LIBD 300420Z 29005KT 260V320 7000 -RA NSC 16/15 Q1016",
      "taf": "TAF LIBD 292300Z 3000/3024 29008KT 9999 FEW040"
    },
    {
      "icao": "LIBG",
      "alert": "OK",
      "vis_m": null,
      "fzfg": false,
      "metar_trigger": false,
      "taf_trigger": false,
      "metar": "",
      "taf": ""
    },
    {
      "icao": "LIBP",
      "alert": "OK",
      "vis_m": 5000,
      "fzfg": false,
      "metar_trigger": false,
      "taf_trigger": false,
      "metar": "METAR LIBP 300420Z AUTO 05006KT 5000 RA OVC012/// 14/14 Q1019",
      "taf": "TAF LIBP 292300Z 3000/3024 VRB05KT 9999 SCT020"
    },
    {
      "icao": "LIBR",
      "alert": "OK",
      "vis_m": 9999,
      "fzfg": false,
      "metar_trigger": false,
      "taf_trigger": false,
      "metar": "METAR LIBR 300420Z 32012KT 9999 FEW010 17/16 Q1014",
      "taf": "TAF LIBR 292300Z 3000/3024 VRB05KT 9999 SCT030"
    },
    {
      "icao": "LICA",
      "alert": "OK",
      "vis_m": 9999,
      "fzfg": false,
      "metar_trigger": false,
      "taf_trigger": false,
      "metar": "METAR LICA 300420Z AUTO 04003KT 9999 FEW089/// BKN130/// 14/12 Q1015",
      "taf": "TAF LICA 292300Z 3000/3024 VRB05KT 9999 SCT040"
    },
    {
      "icao": "LICC",
      "alert": "OK",
      "vis_m": 9999,
      "fzfg": false,
      "metar_trigger": false,
      "taf_trigger": false,
      "metar": "METAR LICC 300420Z 27005KT CAVOK 11/08 Q1015",
      "taf": "TAF LICC 292300Z 3000/3024 24006KT 9999 SCT040"
    },
    {
      "icao": "LICJ",
      "alert": "OK",
      "vis_m": 9999,
      "fzfg": false,
      "metar_trigger": false,
      "taf_trigger": false,
      "metar": "METAR LICJ 300420Z VRB02KT CAVOK 17/13 Q1014",
      "taf": "TAF LICJ 292300Z 3000/3024 VRB05KT CAVOK"
    },
    {
      "icao": "LIMC",
      "alert": "OK",
      "vis_m": 9999,
      "fzfg": false,
      "metar_trigger": false,
      "taf_trigger": false,
      "metar": "METAR LIMC 300420Z 03003KT 300V080 9999 BKN065 13/09 Q1022 NOSIG",
      "taf": "TAF LIMC 292300Z 3000/0106 08010KT 9999 SCT030"
    },
    {
      "icao": "LIME",
      "alert": "OK",
      "vis_m": 9999,
      "fzfg": false,
      "metar_trigger": false,
      "taf_trigger": false,
      "metar": "METAR LIME 300420Z VRB02KT 9999 BKN080 12/10 Q1022 NOSIG",
      "taf": "TAF LIME 292300Z 3000/3024 12010KT 9999 SCT040"
    },
    {
      "icao": "LIMF",
      "alert": "OK",
      "vis_m": 9999,
      "fzfg": false,
      "metar_trigger": false,
      "taf_trigger": false,
      "metar": "METAR LIMF 300420Z 01003KT 9999 SCT022 BKN060 14/10 Q1021",
      "taf": "TAF LIMF 292300Z 3000/3024 03008KT 9999 SCT030"
    },
    {
      "icao": "LIMJ",
      "alert": "OK",
      "vis_m": 9999,
      "fzfg": false,
      "metar_trigger": false,
      "taf_trigger": false,
      "metar": "METAR LIMJ 300420Z 02006KT CAVOK 18/11 Q1017",
      "taf": "TAF LIMJ 292300Z 3000/3024 VRB05KT 9999 FEW040"
    },
    {
      "icao": "LIPE",
      "alert": "OK",
      "vis_m": 9999,
      "fzfg": false,
      "metar_trigger": false,
      "taf_trigger": false,
      "metar": "METAR LIPE 300420Z AUTO 03003KT 350V070 9999 OVC017/// 12/10 Q1022",
      "taf": "TAF LIPE 292300Z 3000/3024 VRB05KT 9999 SCT030"
    },
    {
      "icao": "LIPH",
      "alert": "OK",
      "vis_m": 9999,
      "fzfg": false,
      "metar_trigger": false,
      "taf_trigger": false,
      "metar": "METAR LIPH 300420Z AUTO 06009KT 020V080 9999 OVC063/// 12/00 Q1023",
      "taf": "TAF LIPH 292300Z 3000/3024 VRB05KT 9999 SCT050"
    },
    {
      "icao": "LIPQ",
      "alert": "OK",
      "vis_m": 9999,
      "fzfg": false,
      "metar_trigger": false,
      "taf_trigger": false,
      "metar": "METAR LIPQ 300420Z AUTO 11011KT 9999 NCD 09/M03 Q1023",
      "taf": "TAF LIPQ 292300Z 3000/3024 07015G25KT 9999 BKN050"
    },
    {
      "icao": "LIPR",
      "alert": "OK",
      "vis_m": 9999,
      "fzfg": false,
      "metar_trigger": false,
      "taf_trigger": false,
      "metar": "METAR LIPR 300420Z AUTO 06012KT 030V090 9999 BKN029/// BKN110/// 14/09 Q1021",
      "taf": "TAF LIPR 292300Z 3000/3024 VRB05KT 9999 SCT030"
    },
    {
      "icao": "LIPX",
      "alert": "OK",
      "vis_m": 9999,
      "fzfg": false,
      "metar_trigger": false,
      "taf_trigger": false,
      "metar": "METAR LIPX 300420Z 09010KT 9999 FEW070 12/03 Q1022",
      "taf": "TAF LIPX 292300Z 3000/3024 09013KT 9999 SCT040"
    },
    {
      "icao": "LIPY",
      "alert": "OK",
      "vis_m": 9999,
      "fzfg": false,
      "metar_trigger": false,
      "taf_trigger": false,
      "metar": "METAR LIPY 300420Z AUTO 05009KT 9999 -DZ FEW027/// OVC036/// 15/11 Q1020 REDZ",
      "taf": "TAF LIPY 292300Z 3000/3024 VRB05KT 9999 SCT030"
    },
    {
      "icao": "LIPZ",
      "alert": "OK",
      "vis_m": 9999,
      "fzfg": false,
      "metar_trigger": false,
      "taf_trigger": false,
      "metar": "METAR LIPZ 300420Z 04009KT 9999 SCT060 09/02 Q1023 NOSIG",
      "taf": "TAF LIPZ 292300Z 3000/0106 06015KT 9999 FEW030"
    },
    {
      "icao": "LIRF",
      "alert": "OK",
      "vis_m": 9999,
      "fzfg": false,
      "metar_trigger": false,
      "taf_trigger": false,
      "metar": "METAR LIRF 300420Z 07006KT 9999 -SHRA SCT055 13/12 Q1016 NOSIG",
      "taf": "TAF LIRF 292300Z 3000/0106 05006KT 9999 FEW040"
    },
    {
      "icao": "LIRN",
      "alert": "OK",
      "vis_m": 9999,
      "fzfg": false,
      "metar_trigger": false,
      "taf_trigger": false,
      "metar": "METAR LIRN 300420Z 01004KT 9999 SCT080 17/10 Q1016 NOSIG",
      "taf": "TAF LIRN 292300Z 3000/3024 VRB05KT CAVOK"
    },
    {
      "icao": "LIRP",
      "alert": "OK",
      "vis_m": 9999,
      "fzfg": false,
      "metar_trigger": false,
      "taf_trigger": false,
      "metar": "METAR LIRP 300415Z 10010KT 9999 FEW060 16/10 Q1017 NOSIG",
      "taf": "TAF LIRP 292300Z 3000/3024 VRB03KT CAVOK"
    },
    {
      "icao": "LIRZ",
      "alert": "OK",
      "vis_m": 9999,
      "fzfg": false,
      "metar_trigger": false,
      "taf_trigger": false,
      "metar": "METAR LIRZ 300420Z AUTO 02009KT 9999 BKN060/// BKN093/// 14/09 Q1018",
      "taf": "TAF LIRZ 292300Z 3000/3024 VRB06KT 9999 SCT050"
    },
    {
      "icao": "LJLJ",
      "alert": "OK",
      "vis_m": 9999,
      "fzfg": false,
      "metar_trigger": false,
      "taf_trigger": false,
      "metar": "METAR LJLJ 300430Z 36002KT 9999 MIFG FEW001 M00/M01 Q1026 NOSIG",
      "taf": "TAF LJLJ 292300Z 3000/0100 13005KT 9999 SCT015"
    },
    {
      "icao": "LKMT",
      "alert": "OK",
      "vis_m": 9999,
      "fzfg": false,
      "metar_trigger": false,
      "taf_trigger": false,
      "metar": "METAR LKMT 300430Z VRB02KT CAVOK M01/M04 Q1030 NOSIG",
      "taf": "TAF LKMT 292300Z 3000/3024 03004KT CAVOK"
    },
    {
      "icao": "LKPR",
      "alert": "OK",
      "vis_m": 9999,
      "fzfg": false,
      "metar_trigger": false,
      "taf_trigger": false,
      "metar": "METAR LKPR 300430Z VRB02KT CAVOK M00/M07 Q1031 NOSIG",
      "taf": "TAF LKPR 300200Z 3003/0109 06006KT CAVOK"
    },
    {
      "icao": "LLBG",
      "alert": "OK",
      "vis_m": 9000,
      "fzfg": false,
      "metar_trigger": false,
      "taf_trigger": false,
      "metar": "METAR LLBG 300420Z VRB03KT 9000 FEW015 16/12 Q1015 TEMPO BKN015",
      "taf": "TAF LLBG 292318Z 3000/3024 VRB04KT 6000 SCT013 TX24/3009Z TN14/3003Z"
    },
    {
      "icao": "LMML",
      "alert": "OK",
      "vis_m": 9999,
      "fzfg": false,
      "metar_trigger": false,
      "taf_trigger": false,
      "metar": "METAR LMML 300415Z 08006KT CAVOK 17/16 Q1014 NOSIG",
      "taf": "TAF LMML 292300Z 3000/3024 10010KT 9999 FEW015"
    },
    {
      "icao": "LOWW",
      "alert": "OK",
      "vis_m": 9999,
      "fzfg": false,
      "metar_trigger": false,
      "taf_trigger": false,
      "metar": "METAR LOWW 300420Z 33006KT CAVOK 02/M06 Q1030 NOSIG",
      "taf": "TAF LOWW 300215Z 3003/0109 01012KT CAVOK TX14/0109Z TN00/3004Z"
    },
    {
      "icao": "LPFR",
      "alert": "OK",
      "vis_m": 9999,
      "fzfg": false,
      "metar_trigger": false,
      "taf_trigger": false,
      "metar": "METAR LPFR 300430Z 02004KT CAVOK 13/10 Q1015",
      "taf": "TAF LPFR 292300Z 3000/3024 29005KT 9999 FEW020"
    },
    {
      "icao": "LPMA",
      "alert": "OK",
      "vis_m": 9999,
      "fzfg": false,
      "metar_trigger": false,
      "taf_trigger": false,
      "metar": "METAR LPMA 300430Z 26005KT 9999 FEW015 15/09 Q1014",
      "taf": "TAF LPMA 292300Z 3000/3024 VRB05KT 9999 SCT015"
    },
    {
      "icao": "LPPR",
      "alert": "OK",
      "vis_m": 9999,
      "fzfg": false,
      "metar_trigger": false,
      "taf_trigger": false,
      "metar": "METAR LPPR 300430Z COR 18009KT 9999 VCSH FEW006 SCT011 BKN040 15/13 Q1014",
      "taf": "TAF LPPR 292300Z 3000/3024 18008KT 9999 SCT012 BKN040"
    },
    {
      "icao": "LPPS",
      "alert": "OK",
      "vis_m": 9999,
      "fzfg": false,
      "metar_trigger": false,
      "taf_trigger": false,
      "metar": "METAR LPPS 300430Z 00000KT 9999 FEW014 15/10 Q1014",
      "taf": "TAF LPPS 292300Z 3000/0106 VRB05KT 9999 SCT015 BKN030"
    },
    {
      "icao": "LPPT",
      "alert": "OK",
      "vis_m": 9999,
      "fzfg": false,
      "metar_trigger": false,
      "taf_trigger": false,
      "metar": "METAR LPPT 300430Z 22006KT 190V250 9999 FEW012 BKN048 15/12 Q1014",
      "taf": "TAF LPPT 292300Z 3000/0106 23005KT 9999 SCT012"
    },
    {
      "icao": "LQBK",
      "alert": "OK",
      "vis_m": 9999,
      "fzfg": false,
      "metar_trigger": false,
      "taf_trigger": false,
      "metar": "METAR LQBK 300430Z 31007KT 9999 FEW015 SCT035 06/03 Q1025 NOSIG",
      "taf": "TAF LQBK 292300Z 3000/3024 33005KT 9999 SCT015 BKN035 TX13/3013Z TN04/3005Z"
    },
    {
      "icao": "LQSA",
      "alert": "OK",
      "vis_m": 9999,
      "fzfg": false,
      "metar_trigger": false,
      "taf_trigger": false,
      "metar": "METAR LQSA 300430Z 33006KT 9999 -RA BKN020 OVC035 06/04 Q1023 RERA NOSIG",
      "taf": "TAF LQSA 292300Z 3000/3024 30007KT 9999 FEW025 BKN050 TX12/3013Z TN06/3004Z"
    },
    {
      "icao": "LQTZ",
      "alert": "OK",
      "vis_m": 9999,
      "fzfg": false,
      "metar_trigger": false,
      "taf_trigger": false,
      "metar": "METAR LQTZ 300430Z 00000KT 9999 -RA FEW025 OVC035 07/07 Q1024",
      "taf": "TAF LQTZ 292300Z 3000/3024 07005KT 9999 FEW015 BKN045 TX13/3013Z TN02/3005Z"
    },
    {
      "icao": "LRBC",
      "alert": "OK",
      "vis_m": 9999,
      "fzfg": false,
      "metar_trigger": false,
      "taf_trigger": false,
      "metar": "METAR LRBC 300430Z 35006KT 9999 OVC068 06/02 Q1025",
      "taf": "TAF LRBC 300200Z 3003/3012 VRB04KT CAVOK"
    },
    {
      "icao": "LRBS",
      "alert": "OK",
      "vis_m": 9999,
      "fzfg": false,
      "metar_trigger": false,
      "taf_trigger": false,
      "metar": "METAR LRBS 300430Z 05013KT 010V070 9999 -RA FEW017 OVC030 06/04 Q1022 NOSIG",
      "taf": "TAF LRBS 292300Z 3000/3024 05016KT 9999 BKN015 OVC030"
    },
    {
      "icao": "LRBV",
      "alert": "OK",
      "vis_m": 9999,
      "fzfg": false,
      "metar_trigger": false,
      "taf_trigger": false,
      "metar": "METAR LRBV 300430Z 09007KT 9999 FEW015 OVC020 03/01 Q1023",
      "taf": "TAF LRBV 300200Z 3003/3012 09010KT 9999 OVC025"
    },
    {
      "icao": "LRCL",
      "alert": "OK",
      "vis_m": 9999,
      "fzfg": false,
      "metar_trigger": false,
      "taf_trigger": false,
      "metar": "METAR LRCL 300430Z 25004KT 9999 OVC045 03/M03 Q1024",
      "taf": "TAF LRCL 300200Z 3003/3012 VRB04KT 9999 BKN040"
    },
    {
      "icao": "LRCV",
      "alert": "OK",
      "vis_m": 9999,
      "fzfg": false,
      "metar_trigger": false,
      "taf_trigger": false,
      "metar": "METAR LRCV 300430Z 09014KT 9999 -RA SCT013 OVC033 06/05 Q1021",
      "taf": "TAF LRCV 300200Z 3003/3012 08014KT 9999 SCT015 OVC025"
    },
    {
      "icao": "LRIA",
      "alert": "OK",
      "vis_m": 9999,
      "fzfg": false,
      "metar_trigger": false,
      "taf_trigger": false,
      "metar": "METAR LRIA 300430Z 30005KT CAVOK 04/M03 Q1026",
      "taf": "TAF LRIA 300200Z 3003/3012 VRB04KT CAVOK"
    },
    {
      "icao": "LROP",
      "alert": "OK",
      "vis_m": 9999,
      "fzfg": false,
      "metar_trigger": false,
      "taf_trigger": false,
      "metar": "METAR LROP 300430Z 05016KT 9999 -RA FEW017 OVC030 06/04 Q1023 NOSIG",
      "taf": "TAF LROP 292300Z 3000/3024 05016KT 9999 BKN015 OVC030"
    },
    {
      "icao": "LRSB",
      "alert": "OK",
      "vis_m": 9999,
      "fzfg": false,
      "metar_trigger": false,
      "taf_trigger": false,
      "metar": "METAR LRSB 300430Z 11003KT 9999 FEW021 SCT028 05/01 Q1022",
      "taf": "TAF LRSB 292300Z 3000/3024 10006KT CAVOK"
    },
    {
      "icao": "LRSM",
      "alert": "OK",
      "vis_m": 9999,
      "fzfg": false,
      "metar_trigger": false,
      "taf_trigger": false,
      "metar": "METAR LRSM 300430Z AUTO 00000KT 9999 NCD 05/M05 Q1025",
      "taf": "TAF LRSM 300200Z 3003/3012 VRB04KT CAVOK"
    },
    {
      "icao": "LRSV",
      "alert": "OK",
      "vis_m": 9999,
      "fzfg": false,
      "metar_trigger": false,
      "taf_trigger": false,
      "metar": "METAR LRSV 300430Z 32007KT CAVOK 03/M03 Q1025",
      "taf": "TAF LRSV 300200Z 3003/3012 35008KT CAVOK"
    },
    {
      "icao": "LRTM",
      "alert": "OK",
      "vis_m": 9999,
      "fzfg": false,
      "metar_trigger": false,
      "taf_trigger": false,
      "metar": "METAR LRTM 300430Z VRB01KT 9999 FEW035 SCT040 06/02 Q1023",
      "taf": "TAF LRTM 300200Z 3003/3012 VRB04KT 9999 SCT035"
    },
    {
      "icao": "LRTR",
      "alert": "OK",
      "vis_m": 9999,
      "fzfg": false,
      "metar_trigger": false,
      "taf_trigger": false,
      "metar": "METAR LRTR 300430Z 36015KT CAVOK 04/M06 Q1022 NOSIG",
      "taf": "TAF LRTR 292300Z 3000/3024 01014KT CAVOK"
    },
    {
      "icao": "LTAC",
      "alert": "OK",
      "vis_m": 9999,
      "fzfg": false,
      "metar_trigger": false,
      "taf_trigger": false,
      "metar": "METAR LTAC 300420Z 00000KT CAVOK 07/01 Q1018 NOSIG RMK RWY21C VRB02KT RWY03L VRB01KT RWY21R VRB02KT RWY03R 00000KT RWY21L VRB01KT",
      "taf": "TAF LTAC 292240Z 3000/3024 VRB02KT CAVOK"
    },
    {
      "icao": "LTFM",
      "alert": "OK",
      "vis_m": 9999,
      "fzfg": false,
      "metar_trigger": false,
      "taf_trigger": false,
      "metar": "METAR LTFM 300420Z 06012KT 9999 BKN015 11/08 Q1018 NOSIG RMK RWY17L 07010KT RWY34L 06009KT RWY16R 07012KT RWY36 07010KT RWY18 08012KT",
      "taf": "TAF LTFM 292240Z 3000/0106 10005KT CAVOK"
    },
    {
      "icao": "LUKK",
      "alert": "OK",
      "vis_m": 9999,
      "fzfg": false,
      "metar_trigger": false,
      "taf_trigger": false,
      "metar": "METAR LUKK 300430Z 01007KT CAVOK 06/M03 Q1025 NOSIG",
      "taf": "TAF LUKK 292317Z 3000/3024 01008KT CAVOK"
    },
    {
      "icao": "LWOH",
      "alert": "OK",
      "vis_m": null,
      "fzfg": false,
      "metar_trigger": false,
      "taf_trigger": false,
      "metar": "",
      "taf": "TAF LWOH 300230Z 3003/0103 32005KT 9999 FEW040"
    },
    {
      "icao": "LWSK",
      "alert": "OK",
      "vis_m": 9999,
      "fzfg": false,
      "metar_trigger": false,
      "taf_trigger": false,
      "metar": "METAR LWSK 300420Z 15004KT 130V190 9999 SCT050 08/05 Q1019 NOSIG",
      "taf": "TAF LWSK 300230Z 3003/0103 35010KT 9999 FEW090"
    },
    {
      "icao": "LYBE",
      "alert": "OK",
      "vis_m": 9999,
      "fzfg": false,
      "metar_trigger": false,
      "taf_trigger": false,
      "metar": "METAR LYBE 300430Z 34007KT CAVOK 07/M03 Q1024 NOSIG",
      "taf": "TAF LYBE 292300Z 3000/3024 27006KT 9999 SCT045 TX16/3013Z TN07/3004Z"
    },
    {
      "icao": "LYNI",
      "alert": "OK",
      "vis_m": 9999,
      "fzfg": false,
      "metar_trigger": false,
      "taf_trigger": false,
      "metar": "METAR LYNI 300430Z 33009KT 300V360 9999 -RA SCT013 BKN035 OVC085 08/07 Q1021 NOSIG",
      "taf": "TAF LYNI 292300Z 3000/3024 33012KT 9999 SCT012 BKN050 BKN080 TX10/3000Z TN07/3004Z"
    },
    {
      "icao": "LYPG",
      "alert": "OK",
      "vis_m": 9999,
      "fzfg": false,
      "metar_trigger": false,
      "taf_trigger": false,
      "metar": "METAR LYPG 300430Z 24004KT 9999 -RA FEW050 OVC080 14/12 Q1016 NOSIG",
      "taf": "TAF LYPG 292300Z 3000/3024 36008KT 9999 SCT050 BKN080 TX17/3006Z TN10/3024Z"
    },
    {
      "icao": "LZIB",
      "alert": "OK",
      "vis_m": 9999,
      "fzfg": false,
      "metar_trigger": false,
      "taf_trigger": false,
      "metar": "METAR LZIB 300430Z 03004KT CAVOK 03/M06 Q1029 NOSIG",
      "taf": "TAF LZIB 292315Z 3000/0100 02012KT CAVOK"
    },
    {
      "icao": "LZKZ",
      "alert": "OK",
      "vis_m": 9999,
      "fzfg": false,
      "metar_trigger": false,
      "taf_trigger": false,
      "metar": "METAR LZKZ 300430Z 36017KT CAVOK 04/M06 Q1028 NOSIG",
      "taf": "TAF LZKZ 292315Z 3000/0100 02014KT CAVOK"
    },
    {
      "icao": "LZTT",
      "alert": "OK",
      "vis_m": 9999,
      "fzfg": false,
      "metar_trigger": false,
      "taf_trigger": false,
      "metar": "METAR LZTT 300430Z VRB02KT 9999 FEW040 M02/M07 Q1027",
      "taf": ""
    },
    {
      "icao": "OEJN",
      "alert": "OK",
      "vis_m": 9999,
      "fzfg": false,
      "metar_trigger": false,
      "taf_trigger": false,
      "metar": "METAR OEJN 300400Z 03003KT CAVOK 23/13 Q1010 NOSIG",
      "taf": "TAF OEJN 292300Z 3000/0106 02005KT CAVOK"
    },
    {
      "icao": "OEMA",
      "alert": "OK",
      "vis_m": 9999,
      "fzfg": false,
      "metar_trigger": false,
      "taf_trigger": false,
      "metar": "METAR OEMA 300400Z 30002KT CAVOK 22/06 Q1014 NOSIG",
      "taf": "TAF OEMA 292300Z 3000/0106 VRB03KT 7000 NSC"
    },
    {
      "icao": "OJAI",
      "alert": "OK",
      "vis_m": 5000,
      "fzfg": false,
      "metar_trigger": false,
      "taf_trigger": false,
      "metar": "METAR OJAI 300400Z 00000KT 5000 HZ NSC 11/05 Q1018 NOSIG",
      "taf": "TAF OJAI 292300Z 3000/0106 30012KT 5000 HZ NSC"
    },
    {
      "icao": "OMAA",
      "alert": "OK",
      "vis_m": 9999,
      "fzfg": false,
      "metar_trigger": false,
      "taf_trigger": false,
      "metar": "METAR OMAA 300430Z VRB02KT CAVOK 32/16 Q1007 NOSIG",
      "taf": "TAF OMAA 292300Z 3000/0106 VRB02KT 8000 NSC"
    },
    {
      "icao": "OMDB",
      "alert": "OK",
      "vis_m": 9999,
      "fzfg": false,
      "metar_trigger": false,
      "taf_trigger": false,
      "metar": "METAR OMDB 300430Z 20004KT 170V230 CAVOK 33/16 Q1007 NOSIG",
      "taf": "TAF OMDB 292300Z 3000/0106 VRB02KT 8000 NSC"
    },
    {
      "icao": "UAAA",
      "alert": "OK",
      "vis_m": 9999,
      "fzfg": false,
      "metar_trigger": false,
      "taf_trigger": false,
      "metar": "METAR UAAA 300430Z 02002MPS 9999 NSC 22/09 Q1013 NOSIG",
      "taf": "TAF UAAA 292301Z 3000/3024 05005MPS 9999 FEW050 SCT100 TX27/3009Z TN11/3001Z"
    },
    {
      "icao": "UBBB",
      "alert": "OK",
      "vis_m": 9999,
      "fzfg": false,
      "metar_trigger": false,
      "taf_trigger": false,
      "metar": "METAR UBBB 300430Z 31012KT 9999 BKN012 OVC045 11/08 Q1019 NOSIG",
      "taf": "TAF UBBB 292256Z 3000/3024 32010KT 9999 SCT015 BKN040 TX15/3010Z TN09/3001Z"
    },
    {
      "icao": "UDSG",
      "alert": "OK",
      "vis_m": 9999,
      "fzfg": false,
      "metar_trigger": false,
      "taf_trigger": false,
      "metar": "METAR UDSG 300430Z 27001KT 9999 NSC 06/01 Q1019 NOSIG",
      "taf": "TAF UDSG 292258Z 3000/3024 24006KT 9999 SCT050"
    },
    {
      "icao": "UDYZ",
      "alert": "OK",
      "vis_m": 9999,
      "fzfg": false,
      "metar_trigger": false,
      "taf_trigger": false,
      "metar": "METAR UDYZ 300430Z 14003KT 9999 NSC 13/05 Q1017 NOSIG",
      "taf": "TAF UDYZ 292300Z 3000/3024 14006KT 9999 FEW040"
    },
    {
      "icao": "UGKO",
      "alert": "OK",
      "vis_m": 9999,
      "fzfg": false,
      "metar_trigger": false,
      "taf_trigger": false,
      "metar": "METAR UGKO 300430Z 10004KT 070V130 CAVOK 10/07 Q1019 NOSIG",
      "taf": "TAF UGKO 292300Z 3000/3024 08007KT CAVOK TX21/3011Z TN04/3002Z"
    }
  ]
}