{
  "ts_utc": "2026-07-06T22:49:19Z",
  "threshold_m": 150,
  "source": "stations_override.txt (ICAO list) + aviationweather.gov (METAR/TAF raw)",
  "station_count": 159,
  "stations": [
    {
      "icao": "BIKF",
      "alert": "OK",
      "vis_m": 9999,
      "fzfg": false,
      "metar_trigger": false,
      "taf_trigger": false,
      "metar": "METAR BIKF 062230Z 13010KT 9999 SCT022 OVC036 10/07 Q1004",
      "taf": "TAF BIKF 062241Z 0700/0800 09010KT 9999 -RA BKN028 TX11/0717Z TN08/0702Z"
    },
    {
      "icao": "BKPR",
      "alert": "OK",
      "vis_m": 9999,
      "fzfg": false,
      "metar_trigger": false,
      "taf_trigger": false,
      "metar": "METAR BKPR 062230Z VRB01KT CAVOK 17/12 Q1020 NOSIG",
      "taf": "TAF BKPR 061730Z 0618/0718 02008KT CAVOK"
    },
    {
      "icao": "EBCI",
      "alert": "OK",
      "vis_m": 9999,
      "fzfg": false,
      "metar_trigger": false,
      "taf_trigger": false,
      "metar": "METAR EBCI 062220Z 24009KT CAVOK 22/07 Q1017 NOSIG",
      "taf": "TAF EBCI 061701Z 0618/0724 26010KT CAVOK"
    },
    {
      "icao": "EDDB",
      "alert": "OK",
      "vis_m": 9999,
      "fzfg": false,
      "metar_trigger": false,
      "taf_trigger": false,
      "metar": "METAR EDDB 062220Z AUTO 27011KT CAVOK 18/16 Q1011 NOSIG",
      "taf": "TAF EDDB 061700Z 0618/0718 26014KT 9999 BKN020"
    },
    {
      "icao": "EDDH",
      "alert": "OK",
      "vis_m": 9999,
      "fzfg": false,
      "metar_trigger": false,
      "taf_trigger": false,
      "metar": "METAR EDDH 062220Z AUTO 25008KT 220V280 9999 BKN017 17/14 Q1010 TEMPO 4500 -DZ BKN012",
      "taf": "TAF EDDH 061700Z 0618/0724 27012KT 9999 BKN015"
    },
    {
      "icao": "EDDK",
      "alert": "OK",
      "vis_m": 9999,
      "fzfg": false,
      "metar_trigger": false,
      "taf_trigger": false,
      "metar": "METAR EDDK 062220Z AUTO 22006KT CAVOK 22/13 Q1015 NOSIG",
      "taf": "TAF EDDK 061700Z 0618/0724 27011KT CAVOK"
    },
    {
      "icao": "EDDN",
      "alert": "OK",
      "vis_m": 9999,
      "fzfg": false,
      "metar_trigger": false,
      "taf_trigger": false,
      "metar": "METAR EDDN 062220Z AUTO 25006KT CAVOK 21/12 Q1017",
      "taf": "TAF EDDN 061700Z 0618/0718 26009KT CAVOK"
    },
    {
      "icao": "EDDS",
      "alert": "OK",
      "vis_m": 9999,
      "fzfg": false,
      "metar_trigger": false,
      "taf_trigger": false,
      "metar": "METAR EDDS 062220Z AUTO 25004KT 200V290 CAVOK 20/10 Q1019",
      "taf": "TAF EDDS 061700Z 0618/0718 28009KT CAVOK"
    },
    {
      "icao": "EDFH",
      "alert": "OK",
      "vis_m": 9999,
      "fzfg": false,
      "metar_trigger": false,
      "taf_trigger": false,
      "metar": "METAR EDFH 062220Z 27003KT CAVOK 21/09 Q1018",
      "taf": "TAF EDFH 061700Z 0618/0718 27010KT CAVOK"
    },
    {
      "icao": "EDJA",
      "alert": "OK",
      "vis_m": 9999,
      "fzfg": false,
      "metar_trigger": false,
      "taf_trigger": false,
      "metar": "METAR EDJA 062220Z AUTO 19005KT 9999 // BKN100/// BKN130/// 16/13 Q1021",
      "taf": "TAF EDJA 061700Z 0618/0703 26010KT 9999 FEW060"
    },
    {
      "icao": "EDLW",
      "alert": "OK",
      "vis_m": 9999,
      "fzfg": false,
      "metar_trigger": false,
      "taf_trigger": false,
      "metar": "METAR EDLW 062220Z AUTO 19008KT 9999 // NCD 21/12 Q1014",
      "taf": "TAF EDLW 061700Z 0618/0718 24009KT CAVOK"
    },
    {
      "icao": "EDNY",
      "alert": "OK",
      "vis_m": 9999,
      "fzfg": false,
      "metar_trigger": false,
      "taf_trigger": false,
      "metar": "METAR EDNY 062220Z AUTO 07003KT 030V110 9999 // BKN120/// 19/13 Q1020",
      "taf": "TAF EDNY 061700Z 0618/0703 23010KT CAVOK"
    },
    {
      "icao": "EDSB",
      "alert": "OK",
      "vis_m": 9999,
      "fzfg": false,
      "metar_trigger": false,
      "taf_trigger": false,
      "metar": "METAR EDSB 062220Z AUTO 25004KT 220V290 9999 // NCD 22/13 Q1018",
      "taf": "TAF EDSB 061700Z 0618/0718 24005KT CAVOK"
    },
    {
      "icao": "EETN",
      "alert": "OK",
      "vis_m": 9999,
      "fzfg": false,
      "metar_trigger": false,
      "taf_trigger": false,
      "metar": "METAR EETN 062220Z 20008KT CAVOK 08/06 Q0998",
      "taf": "TAF EETN 061730Z 0618/0718 25015KT 9999 SCT035"
    },
    {
      "icao": "EFTU",
      "alert": "OK",
      "vis_m": 9999,
      "fzfg": false,
      "metar_trigger": false,
      "taf_trigger": false,
      "metar": "METAR EFTU 062220Z AUTO 26012KT 9999 -SHRA OVC032 //////CB 10/09 Q0994",
      "taf": "TAF EFTU 062036Z 0621/0721 26012G25KT 9999 BKN030 FEW040CB"
    },
    {
      "icao": "EGBB",
      "alert": "OK",
      "vis_m": 9999,
      "fzfg": false,
      "metar_trigger": false,
      "taf_trigger": false,
      "metar": "METAR EGBB 062220Z 25005KT 220V280 CAVOK 22/13 Q1016",
      "taf": "TAF EGBB 061658Z 0618/0718 26009KT 9999 FEW040"
    },
    {
      "icao": "EGGP",
      "alert": "OK",
      "vis_m": 9999,
      "fzfg": false,
      "metar_trigger": false,
      "taf_trigger": false,
      "metar": "METAR EGGP 062220Z 28004KT CAVOK 18/13 Q1015",
      "taf": "TAF EGGP 061704Z 0618/0718 27012KT 9999 SCT035"
    },
    {
      "icao": "EGGW",
      "alert": "OK",
      "vis_m": 9999,
      "fzfg": false,
      "metar_trigger": false,
      "taf_trigger": false,
      "metar": "METAR EGGW 062220Z AUTO 26011KT 9999 NCD 22/06 Q1016",
      "taf": "TAF EGGW 061649Z 0618/0718 26010KT CAVOK"
    },
    {
      "icao": "EGKK",
      "alert": "OK",
      "vis_m": 9999,
      "fzfg": false,
      "metar_trigger": false,
      "taf_trigger": false,
      "metar": "METAR EGKK 062220Z 22005KT CAVOK 22/12 Q1017",
      "taf": "TAF EGKK 061656Z 0618/0724 23010KT CAVOK"
    },
    {
      "icao": "EGNM",
      "alert": "OK",
      "vis_m": 9999,
      "fzfg": false,
      "metar_trigger": false,
      "taf_trigger": false,
      "metar": "METAR EGNM 062220Z 26013KT CAVOK 17/13 Q1014",
      "taf": "TAF EGNM 061704Z 0618/0718 26015KT 9999 SCT030"
    },
    {
      "icao": "EGPD",
      "alert": "OK",
      "vis_m": 9999,
      "fzfg": false,
      "metar_trigger": false,
      "taf_trigger": false,
      "metar": "METAR EGPD 062220Z AUTO 30008KT 9999 NCD 16/13 Q1007",
      "taf": "TAF EGPD 061657Z 0618/0718 28009KT 9999 SCT040"
    },
    {
      "icao": "EGPF",
      "alert": "OK",
      "vis_m": 9999,
      "fzfg": false,
      "metar_trigger": false,
      "taf_trigger": false,
      "metar": "METAR EGPF 062220Z AUTO 26012KT 9999 SCT015/// SCT027/// BKN033/// //////TCU 15/13 Q1012",
      "taf": "TAF EGPF 061700Z 0618/0718 26012KT 9999 BKN016"
    },
    {
      "icao": "EHBK",
      "alert": "OK",
      "vis_m": 9999,
      "fzfg": false,
      "metar_trigger": false,
      "taf_trigger": false,
      "metar": "METAR EHBK 062225Z AUTO 23008KT 9999 NSC 22/10 Q1015",
      "taf": "TAF EHBK 061656Z 0618/0724 26010KT CAVOK"
    },
    {
      "icao": "EHEH",
      "alert": "OK",
      "vis_m": 9999,
      "fzfg": false,
      "metar_trigger": false,
      "taf_trigger": false,
      "metar": "METAR EHEH 062225Z AUTO 24004KT 210V270 9999 OVC180 22/11 Q1014 BLU",
      "taf": "TAF EHEH 061747Z 0618/0724 27007KT CAVOK"
    },
    {
      "icao": "EKBI",
      "alert": "OK",
      "vis_m": 9999,
      "fzfg": false,
      "metar_trigger": false,
      "taf_trigger": false,
      "metar": "METAR EKBI 062220Z AUTO 27011KT 9999 BKN010/// BKN057/// 14/14 Q1006",
      "taf": "TAF EKBI 062027Z 0621/0721 26012KT 9999 -RADZ BKN008"
    },
    {
      "icao": "EKCH",
      "alert": "OK",
      "vis_m": 9999,
      "fzfg": false,
      "metar_trigger": false,
      "taf_trigger": false,
      "metar": "METAR EKCH 062220Z 26010KT 9999 BKN015 15/14 Q1004 TEMPO BKN012",
      "taf": "TAF EKCH 062027Z 0621/0721 27012KT 9000 -RADZ BKN015"
    },
    {
      "icao": "ENAL",
      "alert": "OK",
      "vis_m": 9999,
      "fzfg": false,
      "metar_trigger": false,
      "taf_trigger": false,
      "metar": "METAR ENAL 062220Z 20009KT 9999 -RA FEW021 BKN033 10/07 Q1001",
      "taf": "TAF ENAL 062000Z 0621/0706 25015KT 9999 SCT012 BKN030"
    },
    {
      "icao": "ENBR",
      "alert": "OK",
      "vis_m": 9999,
      "fzfg": false,
      "metar_trigger": false,
      "taf_trigger": false,
      "metar": "METAR ENBR 062220Z 33002KT 9999 FEW030 09/07 Q1004 RMK WIND 1200FT 32009KT",
      "taf": "TAF ENBR 061700Z 0618/0718 22008KT 9999 SCT040"
    },
    {
      "icao": "ENGM",
      "alert": "OK",
      "vis_m": 9999,
      "fzfg": false,
      "metar_trigger": false,
      "taf_trigger": false,
      "metar": "METAR ENGM 062220Z 25003KT 210V320 CAVOK 12/05 Q0999",
      "taf": "TAF ENGM 061700Z 0618/0718 20008KT CAVOK"
    },
    {
      "icao": "ENHD",
      "alert": "OK",
      "vis_m": 9999,
      "fzfg": false,
      "metar_trigger": false,
      "taf_trigger": false,
      "metar": "METAR ENHD 062220Z AUTO 35008KT 9999 OVC042/// 13/08 Q1003",
      "taf": "TAF ENHD 061400Z 0615/0622 28009KT 9999 FEW030"
    },
    {
      "icao": "ENTC",
      "alert": "OK",
      "vis_m": 9999,
      "fzfg": false,
      "metar_trigger": false,
      "taf_trigger": false,
      "metar": "METAR ENTC 062220Z 04016KT 9999 -SHRA FEW035 SCT046 13/05 Q0997 RMK WIND 2600FT 07019KT",
      "taf": "TAF ENTC 061700Z 0618/0718 03012KT 9999 FEW030"
    },
    {
      "icao": "ENTO",
      "alert": "OK",
      "vis_m": 9999,
      "fzfg": false,
      "metar_trigger": false,
      "taf_trigger": false,
      "metar": "METAR ENTO 062220Z AUTO 35003KT 9999 NCD 10/10 Q1000",
      "taf": "TAF ENTO 061700Z 0618/0718 20010KT CAVOK"
    },
    {
      "icao": "ENVA",
      "alert": "OK",
      "vis_m": 9999,
      "fzfg": false,
      "metar_trigger": false,
      "taf_trigger": false,
      "metar": "METAR ENVA 062220Z 28003KT 240V300 9999 -RA FEW025 BKN032 10/08 Q1002 RMK WIND 670FT 29007KT",
      "taf": "TAF ENVA 061700Z 0618/0718 28006KT 9999 FEW035 BKN045"
    },
    {
      "icao": "ENZV",
      "alert": "OK",
      "vis_m": 9999,
      "fzfg": false,
      "metar_trigger": false,
      "taf_trigger": false,
      "metar": "METAR ENZV 062220Z 33003KT 9999 OVC045 13/09 Q1004",
      "taf": "TAF ENZV 061700Z 0618/0718 30008KT CAVOK"
    },
    {
      "icao": "EPGD",
      "alert": "OK",
      "vis_m": 9000,
      "fzfg": false,
      "metar_trigger": false,
      "taf_trigger": false,
      "metar": "METAR EPGD 062230Z 26013KT 9000 -RA FEW007 BKN012 15/14 Q1003",
      "taf": "TAF EPGD 061730Z 0618/0718 20010KT 9999 -RA BKN020"
    },
    {
      "icao": "EPKK",
      "alert": "OK",
      "vis_m": 9999,
      "fzfg": false,
      "metar_trigger": false,
      "taf_trigger": false,
      "metar": "METAR EPKK 062230Z 24008KT 9999 BKN044 17/14 Q1013",
      "taf": "TAF EPKK 062030Z 0621/0721 24005KT CAVOK"
    },
    {
      "icao": "EPKT",
      "alert": "OK",
      "vis_m": 8000,
      "fzfg": false,
      "metar_trigger": false,
      "taf_trigger": false,
      "metar": "METAR EPKT 062230Z 24014KT 8000 -RA SCT006 BKN010 15/14 Q1013",
      "taf": ""
    },
    {
      "icao": "EPLB",
      "alert": "OK",
      "vis_m": 9999,
      "fzfg": false,
      "metar_trigger": false,
      "taf_trigger": false,
      "metar": "METAR EPLB 062230Z 24008KT CAVOK 17/11 Q1011",
      "taf": "TAF EPLB 061730Z 0618/0718 25012KT CAVOK"
    },
    {
      "icao": "EPMO",
      "alert": "OK",
      "vis_m": 9999,
      "fzfg": false,
      "metar_trigger": false,
      "taf_trigger": false,
      "metar": "METAR EPMO 062230Z 23013KT 200V260 9999 BKN020 18/14 Q1008",
      "taf": "TAF EPMO 061730Z 0618/0718 25012KT CAVOK"
    },
    {
      "icao": "EPPO",
      "alert": "OK",
      "vis_m": 9999,
      "fzfg": false,
      "metar_trigger": false,
      "taf_trigger": false,
      "metar": "METAR EPPO 062230Z 26012KT 9999 -RA BKN008 17/16 Q1009",
      "taf": "TAF EPPO 061730Z 0618/0718 21007KT 9999 OVC015"
    },
    {
      "icao": "EPRA",
      "alert": "OK",
      "vis_m": 9999,
      "fzfg": false,
      "metar_trigger": false,
      "taf_trigger": false,
      "metar": "METAR EPRA 062230Z 22008KT CAVOK 17/10 Q1010",
      "taf": "TAF EPRA 062030Z 0621/0706 24010KT 9999 BKN040"
    },
    {
      "icao": "EPRZ",
      "alert": "OK",
      "vis_m": 9999,
      "fzfg": false,
      "metar_trigger": false,
      "taf_trigger": false,
      "metar": "METAR EPRZ 062230Z 23006KT CAVOK 15/14 Q1013",
      "taf": ""
    },
    {
      "icao": "EPSC",
      "alert": "OK",
      "vis_m": 8000,
      "fzfg": false,
      "metar_trigger": false,
      "taf_trigger": false,
      "metar": "METAR EPSC 062230Z 25009KT 8000 -RA FEW002 BKN005 16/16 Q1007",
      "taf": "TAF EPSC 061730Z 0618/0718 26012KT 9999 BKN018"
    },
    {
      "icao": "EPSY",
      "alert": "OK",
      "vis_m": 9999,
      "fzfg": false,
      "metar_trigger": false,
      "taf_trigger": false,
      "metar": "METAR EPSY 062230Z 22013KT 9999 -RA BKN011 OVC017 16/12 Q1005",
      "taf": "TAF EPSY 062030Z 0621/0706 24010KT 9999 BKN030"
    },
    {
      "icao": "EPWA",
      "alert": "OK",
      "vis_m": 9999,
      "fzfg": false,
      "metar_trigger": false,
      "taf_trigger": false,
      "metar": "METAR EPWA 062230Z 23009KT 190V260 9999 BKN028 18/12 Q1008 NOSIG",
      "taf": "TAF EPWA 062030Z 0621/0721 25012KT CAVOK"
    },
    {
      "icao": "EPWR",
      "alert": "OK",
      "vis_m": 9999,
      "fzfg": false,
      "metar_trigger": false,
      "taf_trigger": false,
      "metar": "METAR EPWR 062230Z 24007KT 9999 -RA FEW021 SCT028 BKN033 18/16 Q1012",
      "taf": "TAF EPWR 062030Z 0621/0721 24012KT 9999 BKN030"
    },
    {
      "icao": "ESGG",
      "alert": "OK",
      "vis_m": 9999,
      "fzfg": false,
      "metar_trigger": false,
      "taf_trigger": false,
      "metar": "METAR ESGG 062220Z 22005KT 9999 FEW013 SCT038 11/10 Q1002",
      "taf": ""
    },
    {
      "icao": "ESKN",
      "alert": "OK",
      "vis_m": 9999,
      "fzfg": false,
      "metar_trigger": false,
      "taf_trigger": false,
      "metar": "METAR ESKN 062220Z 24007KT CAVOK 07/05 Q1000",
      "taf": "TAF ESKN 062030Z 0621/0721 VRB03KT CAVOK"
    },
    {
      "icao": "ESMS",
      "alert": "OK",
      "vis_m": 3800,
      "fzfg": false,
      "metar_trigger": false,
      "taf_trigger": false,
      "metar": "METAR ESMS 062220Z 26011KT 3800 -RA SCT018 15/15 Q1004",
      "taf": "TAF ESMS 062027Z 0621/0721 VRB04KT 8000 BKN018"
    },
    {
      "icao": "ESSA",
      "alert": "OK",
      "vis_m": 9999,
      "fzfg": false,
      "metar_trigger": false,
      "taf_trigger": false,
      "metar": "METAR ESSA 062220Z 27005KT CAVOK 09/02 Q0998 NOSIG",
      "taf": "TAF ESSA 062030Z 0621/0721 27004KT CAVOK"
    },
    {
      "icao": "EYKA",
      "alert": "OK",
      "vis_m": 9999,
      "fzfg": false,
      "metar_trigger": false,
      "taf_trigger": false,
      "metar": "METAR EYKA 062220Z AUTO 22004KT 190V250 9999 -SHRA FEW041/// SCT058/// BKN080/// 13/10 Q1005",
      "taf": "TAF EYKA 061706Z 0618/0718 21006KT 9000 OVC045"
    },
    {
      "icao": "EYPA",
      "alert": "OK",
      "vis_m": 9999,
      "fzfg": false,
      "metar_trigger": false,
      "taf_trigger": false,
      "metar": "METAR EYPA 062220Z AUTO 22005KT 180V310 9999 BKN011/// OVC044/// 15/13 Q1002",
      "taf": "TAF EYPA 061704Z 0618/0718 25007KT 9000 BKN015"
    },
    {
      "icao": "EYVI",
      "alert": "OK",
      "vis_m": 9999,
      "fzfg": false,
      "metar_trigger": false,
      "taf_trigger": false,
      "metar": "METAR EYVI 062220Z 19005KT 9999 -SHRA SCT041CB 12/12 Q1006 NOSIG",
      "taf": "TAF EYVI 061718Z 0618/0718 22006KT 9000 SCT045"
    },
    {
      "icao": "GCFV",
      "alert": "OK",
      "vis_m": 9999,
      "fzfg": false,
      "metar_trigger": false,
      "taf_trigger": false,
      "metar": "METAR GCFV 062230Z AUTO VRB01KT CAVOK 26/16 Q1017",
      "taf": "TAF GCFV 062000Z 0621/0721 31007KT CAVOK TX29/0714Z TN23/0706Z"
    },
    {
      "icao": "GCLP",
      "alert": "OK",
      "vis_m": 9999,
      "fzfg": false,
      "metar_trigger": false,
      "taf_trigger": false,
      "metar": "METAR GCLP 062230Z 36017KT 9999 FEW020 23/19 Q1017 NOSIG",
      "taf": "TAF GCLP 062000Z 0621/0721 01022KT 9999 FEW020 TX30/0714Z TN23/0706Z"
    },
    {
      "icao": "GCTS",
      "alert": "OK",
      "vis_m": 9999,
      "fzfg": false,
      "metar_trigger": false,
      "taf_trigger": false,
      "metar": "METAR GCTS 062230Z 28004KT 250V330 9999 FEW015 23/20 Q1018 NOSIG",
      "taf": "TAF GCTS 062000Z 0621/0721 10010KT 9999 FEW015 TX31/0714Z TN23/0706Z"
    },
    {
      "icao": "GMAD",
      "alert": "OK",
      "vis_m": 6000,
      "fzfg": false,
      "metar_trigger": false,
      "taf_trigger": false,
      "metar": "METAR GMAD 062230Z 00000KT 6000 OVC006 21/20 Q1016 NOSIG",
      "taf": "TAF GMAD 061700Z 0618/0724 23004KT 6000 BKN010"
    },
    {
      "icao": "GMMN",
      "alert": "OK",
      "vis_m": 9999,
      "fzfg": false,
      "metar_trigger": false,
      "taf_trigger": false,
      "metar": "METAR GMMN 062230Z 36005KT 320V030 CAVOK 26/17 Q1017 NOSIG",
      "taf": "TAF GMMN 061700Z 0618/0724 36012KT CAVOK"
    },
    {
      "icao": "GMMX",
      "alert": "OK",
      "vis_m": 9999,
      "fzfg": false,
      "metar_trigger": false,
      "taf_trigger": false,
      "metar": "METAR GMMX 062230Z 05005KT 020V080 CAVOK 35/12 Q1017 NOSIG",
      "taf": "TAF GMMX 061700Z 0618/0724 06006KT CAVOK"
    },
    {
      "icao": "HEGN",
      "alert": "OK",
      "vis_m": 9999,
      "fzfg": false,
      "metar_trigger": false,
      "taf_trigger": false,
      "metar": "METAR HEGN 062200Z 31006KT CAVOK 34/10 Q1007 NOSIG",
      "taf": "TAF HEGN 061700Z 0618/0724 30012KT CAVOK"
    },
    {
      "icao": "HEMA",
      "alert": "OK",
      "vis_m": 9999,
      "fzfg": false,
      "metar_trigger": false,
      "taf_trigger": false,
      "metar": "METAR HEMA 062200Z 21003KT CAVOK 32/06 Q1006 NOSIG",
      "taf": "TAF HEMA 061700Z 0618/0724 31015KT CAVOK"
    },
    {
      "icao": "HESH",
      "alert": "OK",
      "vis_m": 9999,
      "fzfg": false,
      "metar_trigger": false,
      "taf_trigger": false,
      "metar": "METAR HESH 062200Z 26005KT CAVOK 35/11 Q1006 NOSIG",
      "taf": "TAF HESH 061700Z 0618/0724 35012KT CAVOK"
    },
    {
      "icao": "HESX",
      "alert": "OK",
      "vis_m": 9999,
      "fzfg": false,
      "metar_trigger": false,
      "taf_trigger": false,
      "metar": "METAR HESX 062200Z 33011KT CAVOK 24/21 Q1011 NOSIG",
      "taf": "TAF HESX 061700Z 0618/0724 36010KT CAVOK"
    },
    {
      "icao": "LATI",
      "alert": "OK",
      "vis_m": null,
      "fzfg": false,
      "metar_trigger": false,
      "taf_trigger": false,
      "metar": "",
      "taf": "TAF LATI 061700Z 0618/0718 VRB05KT CAVOK TX34/0712Z TN15/0704Z"
    },
    {
      "icao": "LBPD",
      "alert": "OK",
      "vis_m": 9999,
      "fzfg": false,
      "metar_trigger": false,
      "taf_trigger": false,
      "metar": "METAR LBPD 062230Z AUTO 00000KT 9999 NCD 21/12 Q1017",
      "taf": "TAF LBPD 061700Z 0618/0718 29010KT 9999 SCT050"
    },
    {
      "icao": "LBSF",
      "alert": "OK",
      "vis_m": 9999,
      "fzfg": false,
      "metar_trigger": false,
      "taf_trigger": false,
      "metar": "METAR LBSF 062230Z AUTO 10005KT 080V140 9999 NCD 15/12 Q1019 NOSIG",
      "taf": "TAF LBSF 061700Z 0618/0718 30010KT 9999 SCT050"
    },
    {
      "icao": "LBWN",
      "alert": "OK",
      "vis_m": 9999,
      "fzfg": false,
      "metar_trigger": false,
      "taf_trigger": false,
      "metar": "METAR LBWN 062230Z AUTO VRB02KT 9999 NCD 18/13 Q1015 NOSIG",
      "taf": "TAF LBWN 061700Z 0618/0718 VRB04KT CAVOK"
    },
    {
      "icao": "LCLK",
      "alert": "OK",
      "vis_m": 9999,
      "fzfg": false,
      "metar_trigger": false,
      "taf_trigger": false,
      "metar": "METAR LCLK 062230Z 21003KT CAVOK 26/24 Q1007 NOSIG",
      "taf": "TAF LCLK 061730Z 0618/0718 22008KT 9999 FEW020"
    },
    {
      "icao": "LCPH",
      "alert": "OK",
      "vis_m": 9999,
      "fzfg": false,
      "metar_trigger": false,
      "taf_trigger": false,
      "metar": "METAR LCPH 062230Z AUTO 36002KT 9999 NCD 25/21 Q1007 NOSIG",
      "taf": "TAF LCPH 061730Z 0618/0718 34007KT 9999 FEW015"
    },
    {
      "icao": "LEAL",
      "alert": "OK",
      "vis_m": 9999,
      "fzfg": false,
      "metar_trigger": false,
      "taf_trigger": false,
      "metar": "METAR LEAL 062230Z VRB02KT CAVOK 26/20 Q1019 NOSIG",
      "taf": "TAF LEAL 061700Z 0618/0718 18010KT CAVOK TX37/0712Z TN22/0706Z"
    },
    {
      "icao": "LEBB",
      "alert": "OK",
      "vis_m": 9999,
      "fzfg": false,
      "metar_trigger": false,
      "taf_trigger": false,
      "metar": "METAR LEBB 062230Z AUTO 00000KT CAVOK 24/19 Q1017",
      "taf": "TAF LEBB 061700Z 0618/0718 29009KT CAVOK TX36/0618Z TN18/0705Z"
    },
    {
      "icao": "LEBL",
      "alert": "OK",
      "vis_m": 9999,
      "fzfg": false,
      "metar_trigger": false,
      "taf_trigger": false,
      "metar": "METAR LEBL 062230Z 22004KT CAVOK 25/24 Q1018 NOSIG",
      "taf": "TAF LEBL 061700Z 0618/0718 20010KT CAVOK TX32/0713Z TN23/0706Z"
    },
    {
      "icao": "LECH",
      "alert": "OK",
      "vis_m": 9999,
      "fzfg": false,
      "metar_trigger": false,
      "taf_trigger": false,
      "metar": "METAR LECH 062230Z AUTO 19005KT CAVOK 26/08 Q1020",
      "taf": "TAF LECH 061700Z 0618/0718 18010KT CAVOK TX40/0712Z TN21/0706Z"
    },
    {
      "icao": "LEMD",
      "alert": "OK",
      "vis_m": 9999,
      "fzfg": false,
      "metar_trigger": false,
      "taf_trigger": false,
      "metar": "METAR LEMD 062230Z 12001KT CAVOK 28/07 Q1019 NOSIG",
      "taf": "TAF LEMD 061700Z 0618/0724 VRB04KT CAVOK TX41/0716Z TN22/0705Z"
    },
    {
      "icao": "LEMG",
      "alert": "OK",
      "vis_m": 9999,
      "fzfg": false,
      "metar_trigger": false,
      "taf_trigger": false,
      "metar": "METAR LEMG 062230Z 27003KT CAVOK 23/12 Q1019 NOSIG",
      "taf": "TAF LEMG 061700Z 0618/0718 14010KT CAVOK TX34/0714Z TN23/0706Z"
    },
    {
      "icao": "LEVC",
      "alert": "OK",
      "vis_m": 9999,
      "fzfg": false,
      "metar_trigger": false,
      "taf_trigger": false,
      "metar": "METAR LEVC 062230Z VRB02KT CAVOK 27/17 Q1018 NOSIG",
      "taf": "TAF LEVC 061700Z 0618/0718 12010KT CAVOK TX41/0712Z TN22/0706Z"
    },
    {
      "icao": "LEXJ",
      "alert": "OK",
      "vis_m": 9000,
      "fzfg": false,
      "metar_trigger": false,
      "taf_trigger": false,
      "metar": "METAR LEXJ 062230Z AUTO 31008KT 9000 NSC 22/18 Q1017",
      "taf": "TAF LEXJ 062000Z 0621/0721 24009KT CAVOK TX27/0715Z TN19/0705Z"
    },
    {
      "icao": "LEZG",
      "alert": "OK",
      "vis_m": 9999,
      "fzfg": false,
      "metar_trigger": false,
      "taf_trigger": false,
      "metar": "METAR LEZG 062230Z VRB02KT CAVOK 29/07 Q1016 NOSIG",
      "taf": "TAF LEZG 061700Z 0618/0718 VRB04KT CAVOK TX43/0715Z TN24/0706Z"
    },
    {
      "icao": "LEZL",
      "alert": "OK",
      "vis_m": 9999,
      "fzfg": false,
      "metar_trigger": false,
      "taf_trigger": false,
      "metar": "METAR LEZL 062230Z 26006KT CAVOK 31/12 Q1017 NOSIG",
      "taf": "TAF LEZL 062000Z 0621/0721 23010KT CAVOK TX42/0715Z TN23/0705Z"
    },
    {
      "icao": "LFBD",
      "alert": "OK",
      "vis_m": 9999,
      "fzfg": false,
      "metar_trigger": false,
      "taf_trigger": false,
      "metar": "METAR LFBD 062230Z AUTO 07005KT CAVOK 27/10 Q1017 NOSIG",
      "taf": "TAF LFBD 061700Z 0618/0724 10010KT CAVOK TX42/0714Z TN21/0705Z"
    },
    {
      "icao": "LFLL",
      "alert": "OK",
      "vis_m": 9999,
      "fzfg": false,
      "metar_trigger": false,
      "taf_trigger": false,
      "metar": "METAR LFLL 062230Z VRB02KT CAVOK 24/08 Q1020 NOSIG",
      "taf": "TAF LFLL 061700Z 0618/0724 01010KT CAVOK"
    },
    {
      "icao": "LFLS",
      "alert": "OK",
      "vis_m": 9999,
      "fzfg": false,
      "metar_trigger": false,
      "taf_trigger": false,
      "metar": "METAR LFLS 062230Z AUTO 12005KT 080V140 CAVOK 19/07 Q1020",
      "taf": "TAF LFLS 061400Z 0615/0715 36011KT CAVOK"
    },
    {
      "icao": "LFMN",
      "alert": "OK",
      "vis_m": 9999,
      "fzfg": false,
      "metar_trigger": false,
      "taf_trigger": false,
      "metar": "METAR LFMN 062230Z 34004KT CAVOK 26/18 Q1017 NOSIG",
      "taf": "TAF LFMN 062000Z 0621/0803 VRB05KT CAVOK"
    },
    {
      "icao": "LFOB",
      "alert": "OK",
      "vis_m": 9999,
      "fzfg": false,
      "metar_trigger": false,
      "taf_trigger": false,
      "metar": "METAR LFOB 062230Z AUTO 17002KT CAVOK 17/11 Q1018 NOSIG",
      "taf": "TAF LFOB 061700Z 0618/0718 29010KT CAVOK"
    },
    {
      "icao": "LFPO",
      "alert": "OK",
      "vis_m": 9999,
      "fzfg": false,
      "metar_trigger": false,
      "taf_trigger": false,
      "metar": "METAR LFPO 062230Z AUTO 28003KT CAVOK 23/09 Q1018 NOSIG",
      "taf": "TAF LFPO 061700Z 0618/0724 31005KT CAVOK"
    },
    {
      "icao": "LFSB",
      "alert": "OK",
      "vis_m": 9999,
      "fzfg": false,
      "metar_trigger": false,
      "taf_trigger": false,
      "metar": "METAR LFSB 062230Z AUTO 08004KT CAVOK 20/12 Q1020 NOSIG",
      "taf": "TAF LFSB 061700Z 0618/0718 28007KT CAVOK"
    },
    {
      "icao": "LGAV",
      "alert": "OK",
      "vis_m": 9999,
      "fzfg": false,
      "metar_trigger": false,
      "taf_trigger": false,
      "metar": "METAR LGAV 062220Z VRB03KT CAVOK 22/09 Q1015 NOSIG",
      "taf": "TAF LGAV 061700Z 0618/0718 02012KT 9999 FEW025"
    },
    {
      "icao": "LGTS",
      "alert": "OK",
      "vis_m": 9999,
      "fzfg": false,
      "metar_trigger": false,
      "taf_trigger": false,
      "metar": "METAR LGTS 062220Z 11004KT 9999 FEW025 22/15 Q1015 NOSIG",
      "taf": "TAF LGTS 061700Z 0618/0718 VRB03KT 9999 FEW030"
    },
    {
      "icao": "LHBP",
      "alert": "OK",
      "vis_m": 9999,
      "fzfg": false,
      "metar_trigger": false,
      "taf_trigger": false,
      "metar": "METAR LHBP 062230Z 26005KT CAVOK 18/15 Q1017 NOSIG",
      "taf": "TAF LHBP 061715Z 0618/0718 28008KT CAVOK"
    },
    {
      "icao": "LHDC",
      "alert": "OK",
      "vis_m": 9999,
      "fzfg": false,
      "metar_trigger": false,
      "taf_trigger": false,
      "metar": "METAR LHDC 062215Z AUTO 21005KT CAVOK 18/14 Q1016",
      "taf": "TAF LHDC 061415Z 0615/0624 28008KT CAVOK"
    },
    {
      "icao": "LIBD",
      "alert": "OK",
      "vis_m": 9999,
      "fzfg": false,
      "metar_trigger": false,
      "taf_trigger": false,
      "metar": "METAR LIBD 062220Z 29006KT CAVOK 26/15 Q1017",
      "taf": "TAF LIBD 061700Z 0618/0718 25005KT CAVOK"
    },
    {
      "icao": "LIBG",
      "alert": "OK",
      "vis_m": 9999,
      "fzfg": false,
      "metar_trigger": false,
      "taf_trigger": false,
      "metar": "METAR LIBG 062220Z AUTO 25002KT 9999 FEW120/// BKN130/// 23/15 Q1016",
      "taf": "TAF LIBG 061700Z 0618/0718 VRB05KT CAVOK"
    },
    {
      "icao": "LIBP",
      "alert": "OK",
      "vis_m": 9999,
      "fzfg": false,
      "metar_trigger": false,
      "taf_trigger": false,
      "metar": "METAR LIBP 062220Z AUTO VRB02KT 9999 SCT100/// 20/18 Q1017",
      "taf": "TAF LIBP 061700Z 0618/0718 23007KT 9999 SCT060"
    },
    {
      "icao": "LIBR",
      "alert": "OK",
      "vis_m": 9999,
      "fzfg": false,
      "metar_trigger": false,
      "taf_trigger": false,
      "metar": "METAR LIBR 062220Z AUTO VRB02KT 9999 // NCD 24/17 Q1016",
      "taf": "TAF LIBR 061700Z 0618/0718 29007KT CAVOK"
    },
    {
      "icao": "LICA",
      "alert": "OK",
      "vis_m": 9999,
      "fzfg": false,
      "metar_trigger": false,
      "taf_trigger": false,
      "metar": "METAR LICA 062220Z AUTO 24006KT 9999 NCD 25/22 Q1018",
      "taf": "TAF LICA 061700Z 0618/0718 26012KT CAVOK"
    },
    {
      "icao": "LICC",
      "alert": "OK",
      "vis_m": 9999,
      "fzfg": false,
      "metar_trigger": false,
      "taf_trigger": false,
      "metar": "METAR LICC 062220Z 28009KT CAVOK 25/15 Q1017",
      "taf": "TAF LICC 061700Z 0618/0718 10010KT 9999 FEW060"
    },
    {
      "icao": "LICJ",
      "alert": "OK",
      "vis_m": 9999,
      "fzfg": false,
      "metar_trigger": false,
      "taf_trigger": false,
      "metar": "METAR LICJ 062220Z 17002KT CAVOK 26/15 Q1018",
      "taf": "TAF LICJ 061700Z 0618/0718 VRB05KT CAVOK"
    },
    {
      "icao": "LIMC",
      "alert": "OK",
      "vis_m": 9999,
      "fzfg": false,
      "metar_trigger": false,
      "taf_trigger": false,
      "metar": "METAR LIMC 062220Z 05003KT CAVOK 23/16 Q1018 NOSIG",
      "taf": "TAF LIMC 061700Z 0618/0724 VRB05KT CAVOK"
    },
    {
      "icao": "LIME",
      "alert": "OK",
      "vis_m": 9999,
      "fzfg": false,
      "metar_trigger": false,
      "taf_trigger": false,
      "metar": "METAR LIME 062220Z 01005KT CAVOK 25/17 Q1018 NOSIG",
      "taf": "TAF LIME 061700Z 0618/0718 VRB05KT 9999 FEW030"
    },
    {
      "icao": "LIMF",
      "alert": "OK",
      "vis_m": 9999,
      "fzfg": false,
      "metar_trigger": false,
      "taf_trigger": false,
      "metar": "METAR LIMF 062220Z 31007KT CAVOK 26/13 Q1018",
      "taf": "TAF LIMF 061700Z 0618/0718 VRB05KT CAVOK"
    },
    {
      "icao": "LIMJ",
      "alert": "OK",
      "vis_m": 9999,
      "fzfg": false,
      "metar_trigger": false,
      "taf_trigger": false,
      "metar": "METAR LIMJ 062220Z VRB02KT CAVOK 26/21 Q1016",
      "taf": "TAF LIMJ 061700Z 0618/0718 VRB05KT 9999 FEW020"
    },
    {
      "icao": "LIPE",
      "alert": "OK",
      "vis_m": 9999,
      "fzfg": false,
      "metar_trigger": false,
      "taf_trigger": false,
      "metar": "METAR LIPE 062220Z 14006KT CAVOK 24/16 Q1017",
      "taf": "TAF LIPE 061700Z 0618/0718 11010KT CAVOK"
    },
    {
      "icao": "LIPH",
      "alert": "OK",
      "vis_m": 9999,
      "fzfg": false,
      "metar_trigger": false,
      "taf_trigger": false,
      "metar": "METAR LIPH 062220Z AUTO 33003KT 9999 NCD 25/18 Q1017",
      "taf": "TAF LIPH 061700Z 0618/0718 VRB05KT 9999 SCT040"
    },
    {
      "icao": "LIPQ",
      "alert": "OK",
      "vis_m": 9999,
      "fzfg": false,
      "metar_trigger": false,
      "taf_trigger": false,
      "metar": "METAR LIPQ 062220Z AUTO 03002KT 9999 FEW190/// 21/17 Q1018",
      "taf": "TAF LIPQ 061700Z 0618/0718 03006KT 9999 SCT040"
    },
    {
      "icao": "LIPR",
      "alert": "OK",
      "vis_m": 9999,
      "fzfg": false,
      "metar_trigger": false,
      "taf_trigger": false,
      "metar": "METAR LIPR 062220Z AUTO 25001KT 9999 NCD 23/19 Q1017",
      "taf": "TAF LIPR 061700Z 0618/0718 10010KT CAVOK"
    },
    {
      "icao": "LIPX",
      "alert": "OK",
      "vis_m": 9999,
      "fzfg": false,
      "metar_trigger": false,
      "taf_trigger": false,
      "metar": "METAR LIPX 062220Z AUTO 08004KT 9999 NCD 26/18 Q1018",
      "taf": "TAF LIPX 061700Z 0618/0718 VRB05KT 9999 FEW030"
    },
    {
      "icao": "LIPY",
      "alert": "OK",
      "vis_m": 9999,
      "fzfg": false,
      "metar_trigger": false,
      "taf_trigger": false,
      "metar": "METAR LIPY 062220Z AUTO 16003KT 9999 NCD 23/18 Q1017",
      "taf": "TAF LIPY 061700Z 0618/0718 VRB05KT CAVOK"
    },
    {
      "icao": "LIPZ",
      "alert": "OK",
      "vis_m": 9999,
      "fzfg": false,
      "metar_trigger": false,
      "taf_trigger": false,
      "metar": "METAR LIPZ 062220Z 35004KT CAVOK 23/20 Q1017 NOSIG",
      "taf": "TAF LIPZ 061700Z 0618/0724 VRB05KT 9999 SCT050"
    },
    {
      "icao": "LIRF",
      "alert": "OK",
      "vis_m": 9999,
      "fzfg": false,
      "metar_trigger": false,
      "taf_trigger": false,
      "metar": "METAR LIRF 062220Z VRB02KT CAVOK 22/18 Q1017 NOSIG",
      "taf": "TAF LIRF 061700Z 0618/0724 VRB05KT CAVOK"
    },
    {
      "icao": "LIRN",
      "alert": "OK",
      "vis_m": 9999,
      "fzfg": false,
      "metar_trigger": false,
      "taf_trigger": false,
      "metar": "METAR LIRN 062220Z 23003KT CAVOK 24/16 Q1017 NOSIG",
      "taf": "TAF LIRN 061700Z 0618/0718 VRB05KT CAVOK"
    },
    {
      "icao": "LIRP",
      "alert": "OK",
      "vis_m": 9999,
      "fzfg": false,
      "metar_trigger": false,
      "taf_trigger": false,
      "metar": "METAR LIRP 062215Z 24001KT CAVOK 21/19 Q1017 NOSIG",
      "taf": "TAF LIRP 061700Z 0618/0718 21011KT 9999 FEW030"
    },
    {
      "icao": "LIRZ",
      "alert": "OK",
      "vis_m": 9999,
      "fzfg": false,
      "metar_trigger": false,
      "taf_trigger": false,
      "metar": "METAR LIRZ 062220Z AUTO 35006KT 9999 NCD 21/17 Q1019",
      "taf": "TAF LIRZ 061700Z 0618/0718 02012KT 9999 FEW040"
    },
    {
      "icao": "LJLJ",
      "alert": "OK",
      "vis_m": 9999,
      "fzfg": false,
      "metar_trigger": false,
      "taf_trigger": false,
      "metar": "METAR LJLJ 062230Z 30002KT CAVOK 19/15 Q1020 NOSIG",
      "taf": "TAF LJLJ 061700Z 0618/0718 VRB02KT 9999 FEW060"
    },
    {
      "icao": "LKMT",
      "alert": "OK",
      "vis_m": 9999,
      "fzfg": false,
      "metar_trigger": false,
      "taf_trigger": false,
      "metar": "METAR LKMT 062230Z 21007KT 9999 FEW045 18/14 Q1015 NOSIG",
      "taf": "TAF LKMT 061700Z 0618/0718 22010KT CAVOK"
    },
    {
      "icao": "LKPR",
      "alert": "OK",
      "vis_m": 9999,
      "fzfg": false,
      "metar_trigger": false,
      "taf_trigger": false,
      "metar": "METAR LKPR 062230Z 25011KT CAVOK 20/13 Q1015 NOSIG",
      "taf": "TAF LKPR 062000Z 0621/0803 24010KT CAVOK"
    },
    {
      "icao": "LLBG",
      "alert": "OK",
      "vis_m": 9999,
      "fzfg": false,
      "metar_trigger": false,
      "taf_trigger": false,
      "metar": "METAR LLBG 062220Z 26006KT CAVOK 26/22 Q1008 NOSIG",
      "taf": "TAF LLBG 061702Z 0618/0718 29006KT CAVOK TX31/0712Z TN25/0703Z"
    },
    {
      "icao": "LMML",
      "alert": "OK",
      "vis_m": 9999,
      "fzfg": false,
      "metar_trigger": false,
      "taf_trigger": false,
      "metar": "METAR LMML 062245Z 24003KT CAVOK 24/17 Q1018 NOSIG",
      "taf": "TAF LMML 061700Z 0618/0718 VRB05KT CAVOK"
    },
    {
      "icao": "LOWW",
      "alert": "OK",
      "vis_m": 9999,
      "fzfg": false,
      "metar_trigger": false,
      "taf_trigger": false,
      "metar": "METAR LOWW 062220Z AUTO 20004KT 9999 NCD 20/15 Q1017",
      "taf": "TAF LOWW 062015Z 0621/0803 27008KT 9999 SCT050 TX30/0714Z TN19/0703Z"
    },
    {
      "icao": "LPFR",
      "alert": "OK",
      "vis_m": 9999,
      "fzfg": false,
      "metar_trigger": false,
      "taf_trigger": false,
      "metar": "METAR LPFR 062230Z 26006KT CAVOK 26/19 Q1017",
      "taf": "TAF LPFR 061700Z 0618/0718 26008KT CAVOK"
    },
    {
      "icao": "LPMA",
      "alert": "OK",
      "vis_m": 9999,
      "fzfg": false,
      "metar_trigger": false,
      "taf_trigger": false,
      "metar": "METAR LPMA 062230Z VRB03KT 9999 FEW016 22/18 Q1020",
      "taf": "TAF LPMA 061700Z 0618/0718 VRB05KT 9999 SCT015"
    },
    {
      "icao": "LPPR",
      "alert": "OK",
      "vis_m": 9999,
      "fzfg": false,
      "metar_trigger": false,
      "taf_trigger": false,
      "metar": "METAR LPPR 062230Z 35006KT 9999 BKN009 18/15 Q1020",
      "taf": ""
    },
    {
      "icao": "LPPS",
      "alert": "OK",
      "vis_m": 9999,
      "fzfg": false,
      "metar_trigger": false,
      "taf_trigger": false,
      "metar": "METAR LPPS 062230Z 34005KT 9999 FEW013 21/18 Q1020",
      "taf": "TAF LPPS 061700Z 0618/0724 36010KT 9999 SCT015"
    },
    {
      "icao": "LPPT",
      "alert": "OK",
      "vis_m": 9999,
      "fzfg": false,
      "metar_trigger": false,
      "taf_trigger": false,
      "metar": "METAR LPPT 062230Z 33013KT 300V360 CAVOK 19/16 Q1019 NOSIG",
      "taf": "TAF LPPT 061700Z 0618/0724 33010KT CAVOK"
    },
    {
      "icao": "LQBK",
      "alert": "OK",
      "vis_m": 9999,
      "fzfg": false,
      "metar_trigger": false,
      "taf_trigger": false,
      "metar": "METAR LQBK 062230Z 14003KT CAVOK 19/15 Q1018 NOSIG",
      "taf": "TAF LQBK 061700Z 0618/0718 20005KT CAVOK TX32/0714Z TN15/0703Z"
    },
    {
      "icao": "LQSA",
      "alert": "OK",
      "vis_m": 9999,
      "fzfg": false,
      "metar_trigger": false,
      "taf_trigger": false,
      "metar": "METAR LQSA 062230Z VRB02KT CAVOK 16/13 Q1021",
      "taf": "TAF LQSA 061700Z 0618/0718 VRB02KT CAVOK TX28/0714Z TN14/0703Z"
    },
    {
      "icao": "LQTZ",
      "alert": "OK",
      "vis_m": 9999,
      "fzfg": false,
      "metar_trigger": false,
      "taf_trigger": false,
      "metar": "METAR LQTZ 062230Z 33006KT 290V350 9999 -RA FEW028 BKN052 19/16 Q1020",
      "taf": "TAF LQTZ 061700Z 0618/0718 03005KT CAVOK TX32/0713Z TN15/0703Z"
    },
    {
      "icao": "LRBC",
      "alert": "OK",
      "vis_m": 9999,
      "fzfg": false,
      "metar_trigger": false,
      "taf_trigger": false,
      "metar": "METAR LRBC 062230Z 36003KT 330V040 CAVOK 18/14 Q1015",
      "taf": "TAF LRBC 062000Z 0621/0706 VRB04KT CAVOK"
    },
    {
      "icao": "LRBS",
      "alert": "OK",
      "vis_m": 9999,
      "fzfg": false,
      "metar_trigger": false,
      "taf_trigger": false,
      "metar": "METAR LRBS 062230Z VRB02KT CAVOK 20/15 Q1015 NOSIG",
      "taf": "TAF LRBS 061700Z 0618/0718 VRB04KT CAVOK"
    },
    {
      "icao": "LRBV",
      "alert": "OK",
      "vis_m": 9999,
      "fzfg": false,
      "metar_trigger": false,
      "taf_trigger": false,
      "metar": "METAR LRBV 062230Z AUTO 24005KT 9999 NCD 13/12 Q1018",
      "taf": "TAF LRBV 061700Z 0618/0703 VRB04KT CAVOK"
    },
    {
      "icao": "LRCL",
      "alert": "OK",
      "vis_m": 9999,
      "fzfg": false,
      "metar_trigger": false,
      "taf_trigger": false,
      "metar": "METAR LRCL 062230Z 00000KT 9999 BKN069 18/11 Q1016",
      "taf": "TAF LRCL 062000Z 0621/0706 VRB04KT CAVOK"
    },
    {
      "icao": "LRCV",
      "alert": "OK",
      "vis_m": 9999,
      "fzfg": false,
      "metar_trigger": false,
      "taf_trigger": false,
      "metar": "METAR LRCV 062230Z 30006KT CAVOK 18/14 Q1016",
      "taf": "TAF LRCV 062000Z 0621/0706 30006KT CAVOK"
    },
    {
      "icao": "LRIA",
      "alert": "OK",
      "vis_m": 9999,
      "fzfg": false,
      "metar_trigger": false,
      "taf_trigger": false,
      "metar": "METAR LRIA 062230Z 28005KT 9999 FEW060CB 19/11 Q1015",
      "taf": "TAF LRIA 062000Z 0621/0706 VRB04KT CAVOK"
    },
    {
      "icao": "LROP",
      "alert": "OK",
      "vis_m": 9999,
      "fzfg": false,
      "metar_trigger": false,
      "taf_trigger": false,
      "metar": "METAR LROP 062230Z VRB01KT CAVOK 19/16 Q1015 NOSIG",
      "taf": "TAF LROP 061700Z 0618/0718 VRB04KT CAVOK"
    },
    {
      "icao": "LRSB",
      "alert": "OK",
      "vis_m": 9999,
      "fzfg": false,
      "metar_trigger": false,
      "taf_trigger": false,
      "metar": "METAR LRSB 062230Z 13002KT CAVOK 16/14 Q1017",
      "taf": "TAF LRSB 061700Z 0618/0718 VRB04KT CAVOK"
    },
    {
      "icao": "LRSM",
      "alert": "OK",
      "vis_m": 9999,
      "fzfg": false,
      "metar_trigger": false,
      "taf_trigger": false,
      "metar": "METAR LRSM 062230Z AUTO 25009KT 9999 FEW100/// BKN170/// 20/13 Q1015",
      "taf": "TAF LRSM 061400Z 0615/0624 26005KT 9999 SCT045"
    },
    {
      "icao": "LRSV",
      "alert": "OK",
      "vis_m": 9999,
      "fzfg": false,
      "metar_trigger": false,
      "taf_trigger": false,
      "metar": "METAR LRSV 062230Z 22007KT CAVOK 16/09 Q1016",
      "taf": "TAF LRSV 062000Z 0621/0706 VRB04KT CAVOK"
    },
    {
      "icao": "LRTM",
      "alert": "OK",
      "vis_m": 9999,
      "fzfg": false,
      "metar_trigger": false,
      "taf_trigger": false,
      "metar": "METAR LRTM 062230Z 09003KT CAVOK 14/12 Q1017",
      "taf": "TAF LRTM 062000Z 0621/0706 VRB04KT CAVOK"
    },
    {
      "icao": "LRTR",
      "alert": "OK",
      "vis_m": 9999,
      "fzfg": false,
      "metar_trigger": false,
      "taf_trigger": false,
      "metar": "METAR LRTR 062230Z 29005KT CAVOK 17/17 Q1017",
      "taf": "TAF LRTR 061700Z 0618/0718 27006KT CAVOK"
    },
    {
      "icao": "LTAC",
      "alert": "OK",
      "vis_m": 9999,
      "fzfg": false,
      "metar_trigger": false,
      "taf_trigger": false,
      "metar": "METAR LTAC 062220Z 04008KT CAVOK 18/11 Q1016 NOSIG RMK RWY21C 03008KT RWY03L 03008KT RWY21R 02009KT RWY03R 02008KT RWY21L 03007KT",
      "taf": "TAF LTAC 061640Z 0618/0718 03012KT 9999 SCT040 SCT100"
    },
    {
      "icao": "LTFM",
      "alert": "OK",
      "vis_m": 9999,
      "fzfg": false,
      "metar_trigger": false,
      "taf_trigger": false,
      "metar": "METAR LTFM 062220Z 16005KT CAVOK 21/13 Q1015 NOSIG RMK RWY17L 15006KT RWY34L 20003KT 150V210 RWY16R 13007KT RWY36 15004KT 070V190 RWY18 15005KT",
      "taf": "TAF LTFM 061640Z 0618/0724 07013KT CAVOK"
    },
    {
      "icao": "LUKK",
      "alert": "OK",
      "vis_m": 9999,
      "fzfg": false,
      "metar_trigger": false,
      "taf_trigger": false,
      "metar": "METAR LUKK 062230Z 29004KT CAVOK 18/10 Q1015 NOSIG",
      "taf": "TAF LUKK 061712Z 0618/0718 VRB05KT CAVOK"
    },
    {
      "icao": "LWOH",
      "alert": "OK",
      "vis_m": null,
      "fzfg": false,
      "metar_trigger": false,
      "taf_trigger": false,
      "metar": "",
      "taf": "TAF LWOH 062030Z 0621/0721 34005KT CAVOK"
    },
    {
      "icao": "LWSK",
      "alert": "OK",
      "vis_m": null,
      "fzfg": false,
      "metar_trigger": false,
      "taf_trigger": false,
      "metar": "",
      "taf": "TAF LWSK 062030Z 0621/0721 VRB02KT CAVOK"
    },
    {
      "icao": "LYBE",
      "alert": "OK",
      "vis_m": 9999,
      "fzfg": false,
      "metar_trigger": false,
      "taf_trigger": false,
      "metar": "METAR LYBE 062230Z 35005KT CAVOK 19/16 Q1018 NOSIG",
      "taf": "TAF LYBE 061700Z 0618/0718 24005KT CAVOK TX30/0714Z TN17/0703Z"
    },
    {
      "icao": "LYNI",
      "alert": "OK",
      "vis_m": 9999,
      "fzfg": false,
      "metar_trigger": false,
      "taf_trigger": false,
      "metar": "METAR LYNI 062230Z VRB02KT CAVOK 19/13 Q1018 NOSIG",
      "taf": "TAF LYNI 061700Z 0618/0718 36004KT CAVOK TX30/0714Z TN15/0703Z"
    },
    {
      "icao": "LYPG",
      "alert": "OK",
      "vis_m": 9999,
      "fzfg": false,
      "metar_trigger": false,
      "taf_trigger": false,
      "metar": "METAR LYPG 062230Z 35004KT 310V020 9999 FEW050 25/12 Q1016 NOSIG",
      "taf": "TAF LYPG 061700Z 0618/0718 19010KT 9999 FEW050 TX34/0713Z TN22/0703Z"
    },
    {
      "icao": "LZIB",
      "alert": "OK",
      "vis_m": 9999,
      "fzfg": false,
      "metar_trigger": false,
      "taf_trigger": false,
      "metar": "METAR LZIB 062230Z 24005KT CAVOK 21/14 Q1016 NOSIG",
      "taf": "TAF LZIB 061715Z 0618/0718 29008KT 9999 FEW040"
    },
    {
      "icao": "LZKZ",
      "alert": "OK",
      "vis_m": 9999,
      "fzfg": false,
      "metar_trigger": false,
      "taf_trigger": false,
      "metar": "METAR LZKZ 062230Z 00000KT CAVOK 16/15 Q1015 NOSIG",
      "taf": "TAF LZKZ 061715Z 0618/0718 34004KT CAVOK"
    },
    {
      "icao": "LZTT",
      "alert": "OK",
      "vis_m": 9999,
      "fzfg": false,
      "metar_trigger": false,
      "taf_trigger": false,
      "metar": "METAR LZTT 062230Z 30004KT 260V350 9999 FEW063 14/12 Q1016",
      "taf": "TAF LZTT 061715Z 0618/0718 07007KT 9999 FEW030"
    },
    {
      "icao": "OEJN",
      "alert": "OK",
      "vis_m": 9999,
      "fzfg": false,
      "metar_trigger": false,
      "taf_trigger": false,
      "metar": "METAR OEJN 062200Z 36003KT CAVOK 33/15 Q1003 NOSIG",
      "taf": "TAF OEJN 061700Z 0618/0724 04006KT 7000 NSC"
    },
    {
      "icao": "OEMA",
      "alert": "OK",
      "vis_m": 9999,
      "fzfg": false,
      "metar_trigger": false,
      "taf_trigger": false,
      "metar": "METAR OEMA 062200Z 28006KT CAVOK 38/02 Q1010 NOSIG",
      "taf": "TAF OEMA 061700Z 0618/0724 30010KT CAVOK"
    },
    {
      "icao": "OJAI",
      "alert": "OK",
      "vis_m": 5000,
      "fzfg": false,
      "metar_trigger": false,
      "taf_trigger": false,
      "metar": "METAR OJAI 062200Z 21004KT 5000 HZ NSC 22/14 Q1013 NOSIG",
      "taf": "TAF OJAI 061650Z 0618/0724 29012KT 5000 HZ FEW035"
    },
    {
      "icao": "OMAA",
      "alert": "OK",
      "vis_m": 9999,
      "fzfg": false,
      "metar_trigger": false,
      "taf_trigger": false,
      "metar": "METAR OMAA 062230Z 20004KT CAVOK 33/16 Q0997 NOSIG",
      "taf": "TAF OMAA 061700Z 0618/0800 VRB02KT 8000 NSC"
    },
    {
      "icao": "OMDB",
      "alert": "OK",
      "vis_m": 9999,
      "fzfg": false,
      "metar_trigger": false,
      "taf_trigger": false,
      "metar": "METAR OMDB 062230Z 19006KT 130V210 CAVOK 33/18 Q0996 NOSIG",
      "taf": "TAF OMDB 061700Z 0618/0800 19007KT CAVOK"
    },
    {
      "icao": "UAAA",
      "alert": "OK",
      "vis_m": 9999,
      "fzfg": false,
      "metar_trigger": false,
      "taf_trigger": false,
      "metar": "METAR UAAA 062230Z 18002MPS 9999 SCT100 19/14 Q1009 NOSIG",
      "taf": "TAF UAAA 061701Z 0618/0718 20003G08MPS 9999 SCT050CB BKN100 TX32/0710Z TN18/0700Z"
    },
    {
      "icao": "UBBB",
      "alert": "OK",
      "vis_m": 9999,
      "fzfg": false,
      "metar_trigger": false,
      "taf_trigger": false,
      "metar": "METAR UBBB 062230Z 32012KT CAVOK 24/22 Q1010 NOSIG",
      "taf": "TAF UBBB 061704Z 0618/0718 33012KT CAVOK TX28/0709Z TN22/0701Z"
    },
    {
      "icao": "UDSG",
      "alert": "OK",
      "vis_m": 9999,
      "fzfg": false,
      "metar_trigger": false,
      "taf_trigger": false,
      "metar": "METAR UDSG 062230Z VRB02KT 9999 BKN040CB 15/13 Q1018 NOSIG",
      "taf": "TAF UDSG 061658Z 0618/0718 24006KT 9999 SCT040"
    },
    {
      "icao": "UDYZ",
      "alert": "OK",
      "vis_m": 9999,
      "fzfg": false,
      "metar_trigger": false,
      "taf_trigger": false,
      "metar": "METAR UDYZ 062230Z VRB02KT 9999 NSC 17/14 Q1013 NOSIG",
      "taf": "TAF UDYZ 061700Z 0618/0718 04006KT 9999 SCT040"
    },
    {
      "icao": "UGKO",
      "alert": "OK",
      "vis_m": 8000,
      "fzfg": false,
      "metar_trigger": false,
      "taf_trigger": false,
      "metar": "METAR UGKO 062230Z 33003KT 290V010 8000 -RA SCT005 BKN015 OVC027 18/18 Q1014 NOSIG",
      "taf": "TAF UGKO 061700Z 0618/0718 26007KT 9999 SCT025 BKN050 TX26/0711Z TN19/0702Z"
    }
  ]
}