{
  "ts_utc": "2026-07-01T06:23:29Z",
  "threshold_m": 150,
  "source": "stations_override.txt (ICAO list) + aviationweather.gov (METAR/TAF raw)",
  "station_count": 159,
  "stations": [
    {
      "icao": "BIKF",
      "alert": "OK",
      "vis_m": 9999,
      "fzfg": false,
      "metar_trigger": false,
      "taf_trigger": false,
      "metar": "METAR BIKF 010600Z 21013KT 170V230 9999 -DZ FEW009 SCT040 BKN070 08/07 Q1007",
      "taf": "TAF BIKF 010451Z 0106/0206 20017KT 9999 -SHRA SCT015 BKN025 TX11/0113Z TN07/0203Z"
    },
    {
      "icao": "BKPR",
      "alert": "OK",
      "vis_m": null,
      "fzfg": false,
      "metar_trigger": false,
      "taf_trigger": false,
      "metar": "",
      "taf": "TAF BKPR 010530Z 0106/0206 36008KT 9999 SCT060"
    },
    {
      "icao": "EBCI",
      "alert": "OK",
      "vis_m": 9999,
      "fzfg": false,
      "metar_trigger": false,
      "taf_trigger": false,
      "metar": "METAR EBCI 010550Z 25005KT 9999 SCT008 15/12 Q1022 TEMPO BKN008 BECMG FEW012",
      "taf": "TAF EBCI 010510Z 0106/0212 26005KT 9999 FEW035"
    },
    {
      "icao": "EDDB",
      "alert": "OK",
      "vis_m": 9999,
      "fzfg": false,
      "metar_trigger": false,
      "taf_trigger": false,
      "metar": "METAR EDDB 010550Z AUTO 02006KT 350V050 CAVOK 19/17 Q1017 NOSIG",
      "taf": "TAF EDDB 010500Z 0106/0206 05006KT 9999 FEW012"
    },
    {
      "icao": "EDDH",
      "alert": "OK",
      "vis_m": 9999,
      "fzfg": false,
      "metar_trigger": false,
      "taf_trigger": false,
      "metar": "METAR EDDH 010550Z AUTO 02003KT 330V060 CAVOK 17/15 Q1018 NOSIG",
      "taf": "TAF EDDH 010500Z 0106/0212 03002KT 9999 SCT030"
    },
    {
      "icao": "EDDK",
      "alert": "OK",
      "vis_m": 9999,
      "fzfg": false,
      "metar_trigger": false,
      "taf_trigger": false,
      "metar": "METAR EDDK 010550Z AUTO 32004KT CAVOK 18/16 Q1020 NOSIG",
      "taf": "TAF EDDK 010500Z 0106/0212 VRB03KT CAVOK"
    },
    {
      "icao": "EDDN",
      "alert": "OK",
      "vis_m": 9999,
      "fzfg": false,
      "metar_trigger": false,
      "taf_trigger": false,
      "metar": "METAR EDDN 010550Z AUTO 36007KT 9999 FEW021 18/17 Q1018 TEMPO SHRA BKN010 BKN020CB",
      "taf": "TAF EDDN 010500Z 0106/0206 30009KT 9999 SCT006 BKN015"
    },
    {
      "icao": "EDDS",
      "alert": "OK",
      "vis_m": 9999,
      "fzfg": false,
      "metar_trigger": false,
      "taf_trigger": false,
      "metar": "METAR EDDS 010550Z AUTO 28007KT 9999 SCT036 19/15 Q1019 NOSIG",
      "taf": "TAF EDDS 010500Z 0106/0206 30005KT 9999 BKN020"
    },
    {
      "icao": "EDFH",
      "alert": "OK",
      "vis_m": 9999,
      "fzfg": false,
      "metar_trigger": false,
      "taf_trigger": false,
      "metar": "METAR EDFH 010550Z 28006KT 250V310 CAVOK 16/14 Q1021",
      "taf": "TAF EDFH 010500Z 0106/0206 32006KT CAVOK"
    },
    {
      "icao": "EDJA",
      "alert": "OK",
      "vis_m": 1900,
      "fzfg": false,
      "metar_trigger": false,
      "taf_trigger": false,
      "metar": "METAR EDJA 010550Z 27009KT 240V300 1900 TSRA FEW006 SCT009 OVC015CB 18/17 Q1019",
      "taf": "TAF EDJA 010500Z 0106/0115 26010KT 9999 FEW025"
    },
    {
      "icao": "EDLW",
      "alert": "OK",
      "vis_m": 9999,
      "fzfg": false,
      "metar_trigger": false,
      "taf_trigger": false,
      "metar": "METAR EDLW 010550Z VRB02KT CAVOK 18/15 Q1020",
      "taf": "TAF EDLW 010500Z 0106/0206 VRB03KT CAVOK"
    },
    {
      "icao": "EDNY",
      "alert": "OK",
      "vis_m": 6000,
      "fzfg": false,
      "metar_trigger": false,
      "taf_trigger": false,
      "metar": "METAR EDNY 010550Z 23005KT 190V310 6000 TSRA FEW004 SCT017 OVC021CB 18/18 Q1020 RERA",
      "taf": "TAF EDNY 010500Z 0106/0115 27007KT 9999 FEW015"
    },
    {
      "icao": "EDSB",
      "alert": "OK",
      "vis_m": 9999,
      "fzfg": false,
      "metar_trigger": false,
      "taf_trigger": false,
      "metar": "METAR EDSB 010550Z VRB02KT CAVOK 20/18 Q1019",
      "taf": "TAF EDSB 010500Z 0106/0206 30004KT 9999 FEW020"
    },
    {
      "icao": "EETN",
      "alert": "OK",
      "vis_m": 9999,
      "fzfg": false,
      "metar_trigger": false,
      "taf_trigger": false,
      "metar": "METAR EETN 010620Z 13004KT CAVOK 22/14 Q1018 NOSIG",
      "taf": "TAF EETN 010530Z 0106/0206 VRB02KT CAVOK"
    },
    {
      "icao": "EFTU",
      "alert": "OK",
      "vis_m": 9999,
      "fzfg": false,
      "metar_trigger": false,
      "taf_trigger": false,
      "metar": "METAR EFTU 010620Z AUTO 04005KT 010V070 CAVOK 19/11 Q1019",
      "taf": "TAF EFTU 010530Z 0106/0206 05008KT CAVOK"
    },
    {
      "icao": "EGBB",
      "alert": "OK",
      "vis_m": 9999,
      "fzfg": false,
      "metar_trigger": false,
      "taf_trigger": false,
      "metar": "METAR EGBB 010550Z 26003KT 9999 FEW016 15/13 Q1023",
      "taf": "TAF EGBB 010458Z 0106/0206 29005KT 9999 SCT035"
    },
    {
      "icao": "EGGP",
      "alert": "OK",
      "vis_m": 9999,
      "fzfg": false,
      "metar_trigger": false,
      "taf_trigger": false,
      "metar": "METAR EGGP 010550Z 28009KT 9999 SCT006 BKN009 15/14 Q1023",
      "taf": "TAF EGGP 010458Z 0106/0206 VRB03KT 9999 SCT025"
    },
    {
      "icao": "EGGW",
      "alert": "OK",
      "vis_m": 9999,
      "fzfg": false,
      "metar_trigger": false,
      "taf_trigger": false,
      "metar": "METAR EGGW 010550Z AUTO 29010KT 260V320 9999 BKN009 16/14 Q1022",
      "taf": "TAF EGGW 010502Z 0106/0206 29008KT 9999 SCT025"
    },
    {
      "icao": "EGKK",
      "alert": "OK",
      "vis_m": 9999,
      "fzfg": false,
      "metar_trigger": false,
      "taf_trigger": false,
      "metar": "METAR EGKK 010550Z 27004KT 220V310 9999 FEW011 SCT018 16/14 Q1023",
      "taf": "TAF EGKK 010454Z 0106/0212 32007KT 9999 SCT030"
    },
    {
      "icao": "EGNM",
      "alert": "OK",
      "vis_m": 9999,
      "fzfg": false,
      "metar_trigger": false,
      "taf_trigger": false,
      "metar": "METAR EGNM 010550Z 27009KT 9999 FEW009 14/13 Q1022",
      "taf": "TAF EGNM 010458Z 0106/0206 27004KT 9999 SCT020"
    },
    {
      "icao": "EGPD",
      "alert": "OK",
      "vis_m": 9999,
      "fzfg": false,
      "metar_trigger": false,
      "taf_trigger": false,
      "metar": "METAR EGPD 010550Z AUTO 32008KT 9999 OVC007 14/12 Q1021",
      "taf": "TAF EGPD 010456Z 0106/0206 32008KT 9999 BKN006"
    },
    {
      "icao": "EGPF",
      "alert": "OK",
      "vis_m": 2900,
      "fzfg": false,
      "metar_trigger": false,
      "taf_trigger": false,
      "metar": "METAR EGPF 010550Z AUTO VRB01KT 2900 R23/1400U BR BKN001 OVC029 14/14 Q1022",
      "taf": ""
    },
    {
      "icao": "EHBK",
      "alert": "OK",
      "vis_m": 9999,
      "fzfg": false,
      "metar_trigger": false,
      "taf_trigger": false,
      "metar": "METAR EHBK 010555Z AUTO 24003KT 200V280 9999 NCD 17/14 Q1021 NOSIG",
      "taf": "TAF EHBK 010506Z 0106/0212 VRB02KT CAVOK"
    },
    {
      "icao": "EHEH",
      "alert": "OK",
      "vis_m": 9999,
      "fzfg": false,
      "metar_trigger": false,
      "taf_trigger": false,
      "metar": "METAR EHEH 010555Z AUTO 20001KT 9999 NCD 16/14 Q1021 BLU NOSIG RMK TREND REMOTE BY EHWX",
      "taf": "TAF EHEH 010506Z 0106/0212 28005KT CAVOK"
    },
    {
      "icao": "EKBI",
      "alert": "OK",
      "vis_m": 9999,
      "fzfg": false,
      "metar_trigger": false,
      "taf_trigger": false,
      "metar": "METAR EKBI 010550Z AUTO 35006KT 9999 BKN100/// 16/12 Q1020",
      "taf": "TAF EKBI 010527Z 0106/0206 VRB04KT 9999 SCT040"
    },
    {
      "icao": "EKCH",
      "alert": "OK",
      "vis_m": 9999,
      "fzfg": false,
      "metar_trigger": false,
      "taf_trigger": false,
      "metar": "METAR EKCH 010550Z AUTO 02006KT 9999 NCD 18/12 Q1019 NOSIG",
      "taf": "TAF EKCH 010527Z 0106/0206 02008KT 9999 FEW040"
    },
    {
      "icao": "ENAL",
      "alert": "OK",
      "vis_m": 9999,
      "fzfg": false,
      "metar_trigger": false,
      "taf_trigger": false,
      "metar": "METAR ENAL 010550Z 15004KT CAVOK 13/10 Q1021",
      "taf": "TAF ENAL 010500Z 0106/0115 12005KT 9999 BKN050"
    },
    {
      "icao": "ENBR",
      "alert": "OK",
      "vis_m": 9999,
      "fzfg": false,
      "metar_trigger": false,
      "taf_trigger": false,
      "metar": "METAR ENBR 010550Z 30002KT 9999 SCT012 15/12 Q1021 NOSIG RMK WIND 1200FT 28003KT",
      "taf": ""
    },
    {
      "icao": "ENGM",
      "alert": "OK",
      "vis_m": 9999,
      "fzfg": false,
      "metar_trigger": false,
      "taf_trigger": false,
      "metar": "METAR ENGM 010550Z VRB01KT 9999 FEW008 SCT010 13/10 Q1019 NOSIG",
      "taf": ""
    },
    {
      "icao": "ENHD",
      "alert": "OK",
      "vis_m": 9999,
      "fzfg": false,
      "metar_trigger": false,
      "taf_trigger": false,
      "metar": "METAR ENHD 010550Z 28004KT 9999 BKN003 15/13 Q1021",
      "taf": "TAF ENHD 010500Z 0106/0115 33008KT 9999 FEW030"
    },
    {
      "icao": "ENTC",
      "alert": "OK",
      "vis_m": 9999,
      "fzfg": false,
      "metar_trigger": false,
      "taf_trigger": false,
      "metar": "METAR ENTC 010550Z 21019KT 9999 SCT020 BKN035 11/07 Q1012 NOSIG RMK WIND 2600FT 23015KT",
      "taf": "TAF ENTC 010500Z 0106/0206 22020KT 9999 -RADZ FEW015 BKN030"
    },
    {
      "icao": "ENTO",
      "alert": "OK",
      "vis_m": 9999,
      "fzfg": false,
      "metar_trigger": false,
      "taf_trigger": false,
      "metar": "METAR ENTO 010550Z 36005KT 9999 FEW010 16/14 Q1018 NOSIG",
      "taf": "TAF ENTO 010500Z 0106/0206 06003KT CAVOK"
    },
    {
      "icao": "ENVA",
      "alert": "OK",
      "vis_m": 9999,
      "fzfg": false,
      "metar_trigger": false,
      "taf_trigger": false,
      "metar": "METAR ENVA 010550Z 10005KT CAVOK 12/10 Q1022 NOSIG RMK WIND 670FT 10003KT",
      "taf": "TAF ENVA 010500Z 0106/0206 11003KT 9999 SCT040"
    },
    {
      "icao": "ENZV",
      "alert": "OK",
      "vis_m": 9999,
      "fzfg": false,
      "metar_trigger": false,
      "taf_trigger": false,
      "metar": "METAR ENZV 010550Z 30003KT 260V340 CAVOK 16/13 Q1021 NOSIG",
      "taf": "TAF ENZV 010500Z 0106/0206 32005KT CAVOK"
    },
    {
      "icao": "EPGD",
      "alert": "OK",
      "vis_m": 9999,
      "fzfg": false,
      "metar_trigger": false,
      "taf_trigger": false,
      "metar": "METAR EPGD 010600Z 03003KT 010V080 9999 -SHRA FEW011TCU BKN017 15/13 Q1018",
      "taf": "TAF EPGD 010530Z 0106/0206 VRB02KT 9999 BKN020"
    },
    {
      "icao": "EPKK",
      "alert": "OK",
      "vis_m": 9999,
      "fzfg": false,
      "metar_trigger": false,
      "taf_trigger": false,
      "metar": "METAR EPKK 010600Z 27006KT 240V300 CAVOK 26/21 Q1015",
      "taf": "TAF EPKK 010530Z 0106/0206 23004KT CAVOK"
    },
    {
      "icao": "EPKT",
      "alert": "OK",
      "vis_m": 9999,
      "fzfg": false,
      "metar_trigger": false,
      "taf_trigger": false,
      "metar": "METAR EPKT 010600Z 26010KT 9999 FEW044 23/20 Q1016",
      "taf": "TAF EPKT 010530Z 0106/0206 33007KT CAVOK"
    },
    {
      "icao": "EPLB",
      "alert": "OK",
      "vis_m": 9999,
      "fzfg": false,
      "metar_trigger": false,
      "taf_trigger": false,
      "metar": "METAR EPLB 010600Z 11007KT CAVOK 27/19 Q1015",
      "taf": "TAF EPLB 010530Z 0106/0206 10005KT CAVOK"
    },
    {
      "icao": "EPMO",
      "alert": "OK",
      "vis_m": 9999,
      "fzfg": false,
      "metar_trigger": false,
      "taf_trigger": false,
      "metar": "METAR EPMO 010600Z 36008KT 330V030 CAVOK 18/17 Q1016",
      "taf": "TAF EPMO 010530Z 0106/0206 12007KT CAVOK"
    },
    {
      "icao": "EPPO",
      "alert": "OK",
      "vis_m": 9999,
      "fzfg": false,
      "metar_trigger": false,
      "taf_trigger": false,
      "metar": "METAR EPPO 010600Z 35005KT 9999 OVC002 16/15 Q1017",
      "taf": "TAF EPPO 010530Z 0106/0206 33007KT 9999 BKN001"
    },
    {
      "icao": "EPRA",
      "alert": "OK",
      "vis_m": 9999,
      "fzfg": false,
      "metar_trigger": false,
      "taf_trigger": false,
      "metar": "METAR EPRA 010600Z 15008KT CAVOK 28/17 Q1014",
      "taf": "TAF EPRA 010530Z 0106/0115 15008KT CAVOK"
    },
    {
      "icao": "EPRZ",
      "alert": "OK",
      "vis_m": 9999,
      "fzfg": false,
      "metar_trigger": false,
      "taf_trigger": false,
      "metar": "METAR EPRZ 010600Z 14003KT 110V180 CAVOK 28/20 Q1015",
      "taf": "TAF EPRZ 010530Z 0106/0206 10004KT CAVOK"
    },
    {
      "icao": "EPSC",
      "alert": "OK",
      "vis_m": 9999,
      "fzfg": false,
      "metar_trigger": false,
      "taf_trigger": false,
      "metar": "METAR EPSC 010600Z 05003KT 300V110 CAVOK 19/17 Q1018",
      "taf": "TAF EPSC 010530Z 0106/0206 08005KT 9999 BKN018"
    },
    {
      "icao": "EPSY",
      "alert": "OK",
      "vis_m": 6000,
      "fzfg": false,
      "metar_trigger": false,
      "taf_trigger": false,
      "metar": "METAR EPSY 010600Z 01004KT 270V080 6000 TSRA FEW002 BKN020CB 15/14 Q1018",
      "taf": "TAF EPSY 010530Z 0106/0115 VRB12KT 6000 -TSRA BKN020CB"
    },
    {
      "icao": "EPWA",
      "alert": "OK",
      "vis_m": 9999,
      "fzfg": false,
      "metar_trigger": false,
      "taf_trigger": false,
      "metar": "METAR EPWA 010600Z 35013KT 9999 FEW030 22/16 Q1015 NOSIG",
      "taf": "TAF EPWA 010530Z 0106/0206 12009KT CAVOK"
    },
    {
      "icao": "EPWR",
      "alert": "OK",
      "vis_m": 9999,
      "fzfg": false,
      "metar_trigger": false,
      "taf_trigger": false,
      "metar": "METAR EPWR 010600Z VRB02KT 9999 -SHRA FEW006 BKN008 FEW020CB 21/19 Q1016",
      "taf": "TAF EPWR 010530Z 0106/0206 30006KT 9999 BKN006"
    },
    {
      "icao": "ESGG",
      "alert": "OK",
      "vis_m": 9999,
      "fzfg": false,
      "metar_trigger": false,
      "taf_trigger": false,
      "metar": "METAR ESGG 010550Z VRB01KT 9999 FEW025 16/13 Q1019",
      "taf": "TAF ESGG 010530Z 0106/0206 24006KT CAVOK"
    },
    {
      "icao": "ESKN",
      "alert": "OK",
      "vis_m": 9999,
      "fzfg": false,
      "metar_trigger": false,
      "taf_trigger": false,
      "metar": "METAR ESKN 010550Z VRB03KT 9999 FEW007 SCT140 19/18 Q1019",
      "taf": "TAF ESKN 010530Z 0106/0206 VRB03KT 9999 FEW003"
    },
    {
      "icao": "ESMS",
      "alert": "OK",
      "vis_m": 9999,
      "fzfg": false,
      "metar_trigger": false,
      "taf_trigger": false,
      "metar": "METAR ESMS 010550Z 36003KT CAVOK 17/13 Q1019",
      "taf": "TAF ESMS 010527Z 0106/0206 VRB04KT 9999 FEW040"
    },
    {
      "icao": "ESSA",
      "alert": "OK",
      "vis_m": 9999,
      "fzfg": false,
      "metar_trigger": false,
      "taf_trigger": false,
      "metar": "METAR ESSA 010550Z 17003KT 120V210 CAVOK 16/14 Q1019 NOSIG",
      "taf": "TAF ESSA 010530Z 0106/0206 13005KT CAVOK"
    },
    {
      "icao": "EYKA",
      "alert": "OK",
      "vis_m": 9999,
      "fzfg": false,
      "metar_trigger": false,
      "taf_trigger": false,
      "metar": "METAR EYKA 010620Z 11006KT 090V150 CAVOK 24/15 Q1018",
      "taf": "TAF EYKA 010528Z 0106/0206 11010KT 9000 NSC"
    },
    {
      "icao": "EYPA",
      "alert": "OK",
      "vis_m": 9999,
      "fzfg": false,
      "metar_trigger": false,
      "taf_trigger": false,
      "metar": "METAR EYPA 010620Z 11005KT CAVOK 18/15 Q1018",
      "taf": "TAF EYPA 010515Z 0106/0206 VRB03KT 8000 BKN040"
    },
    {
      "icao": "EYVI",
      "alert": "OK",
      "vis_m": 9999,
      "fzfg": false,
      "metar_trigger": false,
      "taf_trigger": false,
      "metar": "METAR EYVI 010620Z 12007KT 090V150 CAVOK 24/14 Q1019 NOSIG",
      "taf": "TAF EYVI 010525Z 0106/0206 11010KT 9000 NSC"
    },
    {
      "icao": "GCFV",
      "alert": "OK",
      "vis_m": 9999,
      "fzfg": false,
      "metar_trigger": false,
      "taf_trigger": false,
      "metar": "METAR GCFV 010600Z 36008KT 9999 SCT015 20/17 Q1016",
      "taf": "TAF GCFV 010200Z 0103/0203 35009KT 9999 SCT015 TX27/0114Z TN21/0106Z"
    },
    {
      "icao": "GCLP",
      "alert": "OK",
      "vis_m": 9999,
      "fzfg": false,
      "metar_trigger": false,
      "taf_trigger": false,
      "metar": "METAR GCLP 010600Z 01025KT 9999 FEW020 21/17 Q1015 NOSIG",
      "taf": "TAF GCLP 010200Z 0103/0203 36022KT 9999 SCT020 TX29/0114Z TN22/0106Z"
    },
    {
      "icao": "GCTS",
      "alert": "OK",
      "vis_m": 9999,
      "fzfg": false,
      "metar_trigger": false,
      "taf_trigger": false,
      "metar": "METAR GCTS 010600Z 06014KT 9999 FEW025 21/17 Q1016 NOSIG",
      "taf": "TAF GCTS 010200Z 0103/0203 05009KT 9999 FEW025 TX29/0114Z TN21/0106Z"
    },
    {
      "icao": "GMAD",
      "alert": "OK",
      "vis_m": 6000,
      "fzfg": false,
      "metar_trigger": false,
      "taf_trigger": false,
      "metar": "METAR GMAD 010600Z 12004KT 6000 OVC006 20/18 Q1013 NOSIG",
      "taf": "TAF GMAD 010500Z 0106/0212 10003KT 8000 FEW005"
    },
    {
      "icao": "GMMN",
      "alert": "OK",
      "vis_m": 400,
      "fzfg": false,
      "metar_trigger": false,
      "taf_trigger": false,
      "metar": "METAR GMMN 010600Z VRB02KT 0400 R35L/0200N FG OVC001 20/19 Q1014 NOSIG",
      "taf": "TAF GMMN 010500Z 0106/0212 20003KT 0400 FG"
    },
    {
      "icao": "GMMX",
      "alert": "OK",
      "vis_m": 9999,
      "fzfg": false,
      "metar_trigger": false,
      "taf_trigger": false,
      "metar": "METAR GMMX 010600Z VRB02KT CAVOK 22/16 Q1014 NOSIG",
      "taf": "TAF GMMX 010500Z 0106/0212 24006KT 8000 NSC"
    },
    {
      "icao": "HEGN",
      "alert": "OK",
      "vis_m": 9999,
      "fzfg": false,
      "metar_trigger": false,
      "taf_trigger": false,
      "metar": "METAR HEGN 010600Z 34017KT CAVOK 31/11 Q1007 NOSIG",
      "taf": "TAF HEGN 010500Z 0106/0212 32010G20KT CAVOK"
    },
    {
      "icao": "HEMA",
      "alert": "OK",
      "vis_m": 9999,
      "fzfg": false,
      "metar_trigger": false,
      "taf_trigger": false,
      "metar": "METAR HEMA 010600Z 33024KT CAVOK 33/12 Q1006 NOSIG",
      "taf": "TAF HEMA 010500Z 0106/0212 34010G20KT CAVOK"
    },
    {
      "icao": "HESH",
      "alert": "OK",
      "vis_m": 9999,
      "fzfg": false,
      "metar_trigger": false,
      "taf_trigger": false,
      "metar": "METAR HESH 010600Z 35020KT CAVOK 32/12 Q1006 NOSIG",
      "taf": "TAF HESH 010500Z 0106/0212 36010G20KT CAVOK"
    },
    {
      "icao": "HESX",
      "alert": "OK",
      "vis_m": 9999,
      "fzfg": false,
      "metar_trigger": false,
      "taf_trigger": false,
      "metar": "METAR HESX 010600Z 34008KT CAVOK 26/19 Q1011 NOSIG",
      "taf": "TAF HESX 010500Z 0106/0212 35010KT CAVOK"
    },
    {
      "icao": "LATI",
      "alert": "OK",
      "vis_m": 9999,
      "fzfg": false,
      "metar_trigger": false,
      "taf_trigger": false,
      "metar": "METAR LATI 010620Z VRB01KT CAVOK 27/16 Q1011 NOSIG",
      "taf": "TAF LATI 010500Z 0106/0206 VRB03KT CAVOK TX36/0111Z TN21/0204Z"
    },
    {
      "icao": "LBPD",
      "alert": "OK",
      "vis_m": 9999,
      "fzfg": false,
      "metar_trigger": false,
      "taf_trigger": false,
      "metar": "METAR LBPD 010600Z AUTO 33004KT 280V040 9999 NCD 27/16 Q1014 NOSIG",
      "taf": "TAF LBPD 010500Z 0106/0206 VRB03KT 9999 SCT065"
    },
    {
      "icao": "LBSF",
      "alert": "OK",
      "vis_m": 9999,
      "fzfg": false,
      "metar_trigger": false,
      "taf_trigger": false,
      "metar": "METAR LBSF 010600Z 28005KT 250V320 9999 FEW069 24/16 Q1016 NOSIG",
      "taf": "TAF LBSF 010500Z 0106/0206 30010KT 9999 SCT060"
    },
    {
      "icao": "LBWN",
      "alert": "OK",
      "vis_m": 9999,
      "fzfg": false,
      "metar_trigger": false,
      "taf_trigger": false,
      "metar": "METAR LBWN 010600Z 29006KT 260V010 CAVOK 27/20 Q1012 NOSIG",
      "taf": "TAF LBWN 010500Z 0106/0206 VRB03KT 9999 SCT045"
    },
    {
      "icao": "LCLK",
      "alert": "OK",
      "vis_m": 9999,
      "fzfg": false,
      "metar_trigger": false,
      "taf_trigger": false,
      "metar": "METAR LCLK 010600Z 17004KT 120V210 9999 FEW009 29/25 Q1007 BECMG 22015KT",
      "taf": "TAF LCLK 010530Z 0106/0206 15006KT 9999 FEW025"
    },
    {
      "icao": "LCPH",
      "alert": "OK",
      "vis_m": 9999,
      "fzfg": false,
      "metar_trigger": false,
      "taf_trigger": false,
      "metar": "METAR LCPH 010600Z 31013KT 250V320 9999 FEW012 27/23 Q1008 NOSIG",
      "taf": "TAF LCPH 010530Z 0106/0206 34009KT 9999 FEW012"
    },
    {
      "icao": "LEAL",
      "alert": "OK",
      "vis_m": 9999,
      "fzfg": false,
      "metar_trigger": false,
      "taf_trigger": false,
      "metar": "METAR LEAL 010600Z 36003KT 340V050 CAVOK 26/20 Q1019 NOSIG",
      "taf": "TAF LEAL 010500Z 0106/0206 VRB04KT CAVOK TX32/0112Z TN23/0106Z"
    },
    {
      "icao": "LEBB",
      "alert": "OK",
      "vis_m": 9999,
      "fzfg": false,
      "metar_trigger": false,
      "taf_trigger": false,
      "metar": "METAR LEBB 010600Z 32003KT 280V360 9999 BKN032 BKN045 21/16 Q1028 NOSIG",
      "taf": "TAF LEBB 010500Z 0106/0206 34007KT 9999 BKN020 TX22/0112Z TN18/0124Z"
    },
    {
      "icao": "LEBL",
      "alert": "OK",
      "vis_m": 9999,
      "fzfg": false,
      "metar_trigger": false,
      "taf_trigger": false,
      "metar": "METAR LEBL 010600Z 33010G23KT 290V360 9999 FEW030 26/16 Q1019 NOSIG",
      "taf": "TAF LEBL 010500Z 0106/0206 34008KT CAVOK TX31/0113Z TN24/0106Z"
    },
    {
      "icao": "LECH",
      "alert": "OK",
      "vis_m": 9999,
      "fzfg": false,
      "metar_trigger": false,
      "taf_trigger": false,
      "metar": "METAR LECH 010600Z AUTO 02003KT 330V050 CAVOK 24/15 Q1021",
      "taf": "TAF LECH 010500Z 0106/0206 VRB04KT CAVOK TX33/0112Z TN20/0106Z"
    },
    {
      "icao": "LEMD",
      "alert": "OK",
      "vis_m": 9999,
      "fzfg": false,
      "metar_trigger": false,
      "taf_trigger": false,
      "metar": "METAR LEMD 010600Z 01003KT 340V070 CAVOK 23/14 Q1022 NOSIG",
      "taf": "TAF LEMD 010500Z 0106/0212 03006KT CAVOK TX39/0116Z TN18/0205Z"
    },
    {
      "icao": "LEMG",
      "alert": "OK",
      "vis_m": 9999,
      "fzfg": false,
      "metar_trigger": false,
      "taf_trigger": false,
      "metar": "METAR LEMG 010600Z 29006KT CAVOK 22/14 Q1019 NOSIG",
      "taf": "TAF LEMG 010500Z 0106/0206 27006KT 9999 FEW060 TX31/0114Z TN23/0205Z"
    },
    {
      "icao": "LEVC",
      "alert": "OK",
      "vis_m": 9999,
      "fzfg": false,
      "metar_trigger": false,
      "taf_trigger": false,
      "metar": "METAR LEVC 010600Z 32005KT CAVOK 25/16 Q1019 NOSIG",
      "taf": "TAF LEVC 010500Z 0106/0206 VRB04KT CAVOK TX33/0112Z TN24/0106Z"
    },
    {
      "icao": "LEXJ",
      "alert": "OK",
      "vis_m": 9999,
      "fzfg": false,
      "metar_trigger": false,
      "taf_trigger": false,
      "metar": "METAR LEXJ 010600Z 22002KT 9999 BKN040 19/16 Q1028",
      "taf": "TAF LEXJ 010200Z 0103/0203 33009KT 9999 FEW020 BKN030 TX23/0115Z TN18/0203Z"
    },
    {
      "icao": "LEZG",
      "alert": "OK",
      "vis_m": 9999,
      "fzfg": false,
      "metar_trigger": false,
      "taf_trigger": false,
      "metar": "METAR LEZG 010600Z 29024KT 260V320 CAVOK 20/13 Q1023 NOSIG",
      "taf": "TAF LEZG 010500Z 0106/0206 30020KT CAVOK TX30/0113Z TN19/0106Z"
    },
    {
      "icao": "LEZL",
      "alert": "OK",
      "vis_m": 9999,
      "fzfg": false,
      "metar_trigger": false,
      "taf_trigger": false,
      "metar": "METAR LEZL 010600Z VRB02KT CAVOK 26/18 Q1018 NOSIG",
      "taf": "TAF LEZL 010200Z 0103/0203 VRB02KT CAVOK TX41/0115Z TN24/0105Z"
    },
    {
      "icao": "LFBD",
      "alert": "OK",
      "vis_m": 9999,
      "fzfg": false,
      "metar_trigger": false,
      "taf_trigger": false,
      "metar": "METAR LFBD 010600Z AUTO 30003KT 270V340 9999 FEW034 BKN048 18/15 Q1026 NOSIG",
      "taf": "TAF LFBD 010500Z 0106/0212 26005KT CAVOK TX30/0212Z TN16/0106Z"
    },
    {
      "icao": "LFLL",
      "alert": "OK",
      "vis_m": 9999,
      "fzfg": false,
      "metar_trigger": false,
      "taf_trigger": false,
      "metar": "METAR LFLL 010600Z 04006KT CAVOK 24/13 Q1020 NOSIG",
      "taf": "TAF LFLL 010500Z 0106/0212 35006KT CAVOK"
    },
    {
      "icao": "LFLS",
      "alert": "OK",
      "vis_m": 9999,
      "fzfg": false,
      "metar_trigger": false,
      "taf_trigger": false,
      "metar": "METAR LFLS 010600Z AUTO 01004KT 300V050 CAVOK 23/11 Q1021 NOSIG",
      "taf": "TAF LFLS 010200Z 0103/0203 VRB03KT CAVOK"
    },
    {
      "icao": "LFMN",
      "alert": "OK",
      "vis_m": 9999,
      "fzfg": false,
      "metar_trigger": false,
      "taf_trigger": false,
      "metar": "METAR LFMN 010600Z 33010KT CAVOK 26/16 Q1013 NOSIG",
      "taf": ""
    },
    {
      "icao": "LFOB",
      "alert": "OK",
      "vis_m": 9999,
      "fzfg": false,
      "metar_trigger": false,
      "taf_trigger": false,
      "metar": "METAR LFOB 010600Z AUTO 31006KT 9999 FEW011 15/13 Q1024 TEMPO BKN010",
      "taf": "TAF LFOB 010500Z 0106/0206 28008KT CAVOK"
    },
    {
      "icao": "LFPO",
      "alert": "OK",
      "vis_m": 9999,
      "fzfg": false,
      "metar_trigger": false,
      "taf_trigger": false,
      "metar": "METAR LFPO 010600Z 33009KT 9999 FEW026 18/12 Q1024 NOSIG",
      "taf": "TAF LFPO 010500Z 0106/0212 32008KT CAVOK"
    },
    {
      "icao": "LFSB",
      "alert": "OK",
      "vis_m": 9999,
      "fzfg": false,
      "metar_trigger": false,
      "taf_trigger": false,
      "metar": "METAR LFSB 010600Z AUTO 27003KT 9999 ///TCU 21/20 Q1020 TEMPO 33010G25KT 4000 TSRA SCT060CB",
      "taf": ""
    },
    {
      "icao": "LGAV",
      "alert": "OK",
      "vis_m": 9999,
      "fzfg": false,
      "metar_trigger": false,
      "taf_trigger": false,
      "metar": "METAR LGAV 010550Z VRB01KT CAVOK 28/14 Q1010 NOSIG",
      "taf": "TAF LGAV 010500Z 0106/0206 04010KT 9999 FEW025"
    },
    {
      "icao": "LGTS",
      "alert": "OK",
      "vis_m": 9999,
      "fzfg": false,
      "metar_trigger": false,
      "taf_trigger": false,
      "metar": "METAR LGTS 010550Z VRB02KT 9999 FEW018 26/20 Q1011 NOSIG",
      "taf": "TAF LGTS 010500Z 0106/0206 34013KT 9999 FEW030"
    },
    {
      "icao": "LHBP",
      "alert": "OK",
      "vis_m": 9999,
      "fzfg": false,
      "metar_trigger": false,
      "taf_trigger": false,
      "metar": "METAR LHBP 010600Z VRB02KT CAVOK 28/17 Q1015 NOSIG",
      "taf": "TAF LHBP 010515Z 0106/0206 12008KT CAVOK"
    },
    {
      "icao": "LHDC",
      "alert": "OK",
      "vis_m": 9999,
      "fzfg": false,
      "metar_trigger": false,
      "taf_trigger": false,
      "metar": "METAR LHDC 010545Z AUTO 10005KT 060V140 CAVOK 25/18 Q1015 NOSIG",
      "taf": "TAF LHDC 010515Z 0106/0115 VRB03KT CAVOK"
    },
    {
      "icao": "LIBD",
      "alert": "OK",
      "vis_m": 9999,
      "fzfg": false,
      "metar_trigger": false,
      "taf_trigger": false,
      "metar": "METAR LIBD 010550Z 29005KT 9999 FEW040 27/22 Q1012",
      "taf": "TAF LIBD 010500Z 0106/0206 VRB05KT 9000 SCT030"
    },
    {
      "icao": "LIBG",
      "alert": "OK",
      "vis_m": 9999,
      "fzfg": false,
      "metar_trigger": false,
      "taf_trigger": false,
      "metar": "METAR LIBG 010550Z AUTO 32003KT 240V010 9999 BKN110/// 27/19 Q1012",
      "taf": "TAF LIBG 010500Z 0106/0206 VRB05KT 9999 SCT030"
    },
    {
      "icao": "LIBP",
      "alert": "OK",
      "vis_m": 9999,
      "fzfg": false,
      "metar_trigger": false,
      "taf_trigger": false,
      "metar": "METAR LIBP 010550Z AUTO 24008KT 9999 NCD 25/16 Q1013",
      "taf": "TAF LIBP 010500Z 0106/0206 VRB05KT CAVOK"
    },
    {
      "icao": "LIBR",
      "alert": "OK",
      "vis_m": 9999,
      "fzfg": false,
      "metar_trigger": false,
      "taf_trigger": false,
      "metar": "METAR LIBR 010550Z 34007KT 310V010 CAVOK 28/22 Q1011",
      "taf": "TAF LIBR 010500Z 0106/0206 35012KT 9999 SCT030"
    },
    {
      "icao": "LICA",
      "alert": "OK",
      "vis_m": 9999,
      "fzfg": false,
      "metar_trigger": false,
      "taf_trigger": false,
      "metar": "METAR LICA 010550Z AUTO VRB02KT 9999 FEW018/// 27/23 Q1013",
      "taf": "TAF LICA 010500Z 0106/0206 VRB05KT 9999 BKN020"
    },
    {
      "icao": "LICC",
      "alert": "OK",
      "vis_m": 9999,
      "fzfg": false,
      "metar_trigger": false,
      "taf_trigger": false,
      "metar": "METAR LICC 010550Z 24007KT CAVOK 27/19 Q1013",
      "taf": "TAF LICC 010500Z 0106/0206 24005KT 9999 FEW040"
    },
    {
      "icao": "LICJ",
      "alert": "OK",
      "vis_m": 9999,
      "fzfg": false,
      "metar_trigger": false,
      "taf_trigger": false,
      "metar": "METAR LICJ 010550Z AUTO 21006KT 9999 NCD 28/24 Q1015",
      "taf": "TAF LICJ 010500Z 0106/0206 VRB05KT 9999 SCT020"
    },
    {
      "icao": "LIMC",
      "alert": "OK",
      "vis_m": 9999,
      "fzfg": false,
      "metar_trigger": false,
      "taf_trigger": false,
      "metar": "METAR LIMC 010550Z 01006KT CAVOK 26/18 Q1014 NOSIG",
      "taf": "TAF LIMC 010500Z 0106/0212 VRB05KT 9999 SCT050"
    },
    {
      "icao": "LIME",
      "alert": "OK",
      "vis_m": 9999,
      "fzfg": false,
      "metar_trigger": false,
      "taf_trigger": false,
      "metar": "METAR LIME 010550Z 01003KT 330V050 CAVOK 25/19 Q1014 NOSIG",
      "taf": "TAF LIME 010500Z 0106/0206 VRB05KT 9999 FEW050"
    },
    {
      "icao": "LIMF",
      "alert": "OK",
      "vis_m": 9999,
      "fzfg": false,
      "metar_trigger": false,
      "taf_trigger": false,
      "metar": "METAR LIMF 010550Z VRB02KT CAVOK 24/18 Q1015",
      "taf": "TAF LIMF 010500Z 0106/0206 VRB05KT 9999 FEW040"
    },
    {
      "icao": "LIMJ",
      "alert": "OK",
      "vis_m": 9999,
      "fzfg": false,
      "metar_trigger": false,
      "taf_trigger": false,
      "metar": "METAR LIMJ 010550Z VRB02KT CAVOK 27/18 Q1013",
      "taf": "TAF LIMJ 010500Z 0106/0206 VRB05KT CAVOK"
    },
    {
      "icao": "LIPE",
      "alert": "OK",
      "vis_m": 9999,
      "fzfg": false,
      "metar_trigger": false,
      "taf_trigger": false,
      "metar": "METAR LIPE 010550Z 21007KT CAVOK 26/19 Q1013",
      "taf": "TAF LIPE 010500Z 0106/0206 VRB06KT 9999 SCT030"
    },
    {
      "icao": "LIPH",
      "alert": "OK",
      "vis_m": 9999,
      "fzfg": false,
      "metar_trigger": false,
      "taf_trigger": false,
      "metar": "METAR LIPH 010550Z 08004KT 060V120 CAVOK 28/20 Q1013",
      "taf": "TAF LIPH 010500Z 0106/0206 VRB05KT 9999 FEW040"
    },
    {
      "icao": "LIPQ",
      "alert": "OK",
      "vis_m": 9999,
      "fzfg": false,
      "metar_trigger": false,
      "taf_trigger": false,
      "metar": "METAR LIPQ 010550Z 01003KT 330V050 CAVOK 25/19 Q1013",
      "taf": "TAF LIPQ 010500Z 0106/0206 VRB05KT 9999 FEW040"
    },
    {
      "icao": "LIPR",
      "alert": "OK",
      "vis_m": 9999,
      "fzfg": false,
      "metar_trigger": false,
      "taf_trigger": false,
      "metar": "METAR LIPR 010550Z 29003KT CAVOK 28/19 Q1013",
      "taf": "TAF LIPR 010500Z 0106/0206 VRB05KT CAVOK"
    },
    {
      "icao": "LIPX",
      "alert": "OK",
      "vis_m": 9999,
      "fzfg": false,
      "metar_trigger": false,
      "taf_trigger": false,
      "metar": "METAR LIPX 010550Z VRB02KT CAVOK 26/22 Q1013",
      "taf": "TAF LIPX 010500Z 0106/0206 VRB05KT CAVOK"
    },
    {
      "icao": "LIPY",
      "alert": "OK",
      "vis_m": 9999,
      "fzfg": false,
      "metar_trigger": false,
      "taf_trigger": false,
      "metar": "METAR LIPY 010550Z AUTO 18004KT 140V220 9999 NCD 27/16 Q1013",
      "taf": "TAF LIPY 010500Z 0106/0206 VRB05KT CAVOK"
    },
    {
      "icao": "LIPZ",
      "alert": "OK",
      "vis_m": 9999,
      "fzfg": false,
      "metar_trigger": false,
      "taf_trigger": false,
      "metar": "METAR LIPZ 010550Z 06007KT CAVOK 27/21 Q1013 NOSIG",
      "taf": "TAF LIPZ 010500Z 0106/0212 VRB05KT 9999 FEW040"
    },
    {
      "icao": "LIRF",
      "alert": "OK",
      "vis_m": 9999,
      "fzfg": false,
      "metar_trigger": false,
      "taf_trigger": false,
      "metar": "METAR LIRF 010550Z 06004KT 030V090 CAVOK 26/17 Q1013 NOSIG",
      "taf": "TAF LIRF 010500Z 0106/0212 VRB05KT CAVOK"
    },
    {
      "icao": "LIRN",
      "alert": "OK",
      "vis_m": 9999,
      "fzfg": false,
      "metar_trigger": false,
      "taf_trigger": false,
      "metar": "METAR LIRN 010550Z 02004KT 340V050 CAVOK 26/17 Q1014 NOSIG",
      "taf": "TAF LIRN 010500Z 0106/0206 VRB05KT CAVOK"
    },
    {
      "icao": "LIRP",
      "alert": "OK",
      "vis_m": 9999,
      "fzfg": false,
      "metar_trigger": false,
      "taf_trigger": false,
      "metar": "METAR LIRP 010545Z 16002KT CAVOK 23/20 Q1014 NOSIG",
      "taf": "TAF LIRP 010500Z 0106/0206 VRB03KT CAVOK"
    },
    {
      "icao": "LIRZ",
      "alert": "OK",
      "vis_m": 9999,
      "fzfg": false,
      "metar_trigger": false,
      "taf_trigger": false,
      "metar": "METAR LIRZ 010550Z AUTO 34005KT 300V010 9999 NCD 22/15 Q1015",
      "taf": "TAF LIRZ 010500Z 0106/0206 VRB05KT CAVOK"
    },
    {
      "icao": "LJLJ",
      "alert": "OK",
      "vis_m": 9999,
      "fzfg": false,
      "metar_trigger": false,
      "taf_trigger": false,
      "metar": "METAR LJLJ 010600Z 31012KT CAVOK 22/15 Q1016 NOSIG",
      "taf": "TAF LJLJ 010500Z 0106/0206 VRB02KT 9999 FEW060"
    },
    {
      "icao": "LKMT",
      "alert": "OK",
      "vis_m": 9999,
      "fzfg": false,
      "metar_trigger": false,
      "taf_trigger": false,
      "metar": "METAR LKMT 010600Z 08008KT 9999 FEW014 24/21 Q1016 NOSIG",
      "taf": "TAF LKMT 010500Z 0106/0206 VRB02KT CAVOK"
    },
    {
      "icao": "LKPR",
      "alert": "OK",
      "vis_m": 4800,
      "fzfg": false,
      "metar_trigger": false,
      "taf_trigger": false,
      "metar": "METAR LKPR 010600Z 17003KT 4800 BR SCT003 BKN005 19/18 Q1016 TEMPO 2000 TSRAGR BKN015CB",
      "taf": "TAF LKPR 010500Z 0106/0212 34008KT 9999 -RA SCT010 BKN033"
    },
    {
      "icao": "LLBG",
      "alert": "OK",
      "vis_m": 9999,
      "fzfg": false,
      "metar_trigger": false,
      "taf_trigger": false,
      "metar": "METAR LLBG 010620Z 23005KT 170V260 9999 SCT025 28/20 Q1009 NOSIG",
      "taf": "TAF LLBG 010511Z 0106/0206 28012KT CAVOK TX31/0111Z TN23/0203Z"
    },
    {
      "icao": "LMML",
      "alert": "OK",
      "vis_m": 9999,
      "fzfg": false,
      "metar_trigger": false,
      "taf_trigger": false,
      "metar": "METAR LMML 010615Z 32010KT 9999 FEW016 29/23 Q1015 NOSIG",
      "taf": "TAF LMML 010500Z 0106/0206 30005KT 9999 FEW018"
    },
    {
      "icao": "LOWW",
      "alert": "OK",
      "vis_m": 9999,
      "fzfg": false,
      "metar_trigger": false,
      "taf_trigger": false,
      "metar": "METAR LOWW 010550Z 04004KT 350V080 CAVOK 26/18 Q1015 NOSIG",
      "taf": "TAF LOWW 010515Z 0106/0212 01006KT 9999 FEW050 TX32/0111Z TN19/0202Z"
    },
    {
      "icao": "LPFR",
      "alert": "OK",
      "vis_m": 9999,
      "fzfg": false,
      "metar_trigger": false,
      "taf_trigger": false,
      "metar": "METAR LPFR 010600Z VRB02KT CAVOK 24/17 Q1018",
      "taf": "TAF LPFR 010500Z 0106/0206 VRB02KT CAVOK"
    },
    {
      "icao": "LPMA",
      "alert": "OK",
      "vis_m": 9999,
      "fzfg": false,
      "metar_trigger": false,
      "taf_trigger": false,
      "metar": "METAR LPMA 010600Z 02018G31KT 340V040 9999 FEW014 21/15 Q1020",
      "taf": "TAF LPMA 010500Z 0106/0206 02018G30KT 9999 SCT015"
    },
    {
      "icao": "LPPR",
      "alert": "OK",
      "vis_m": 9999,
      "fzfg": false,
      "metar_trigger": false,
      "taf_trigger": false,
      "metar": "METAR LPPR 010600Z 01003KT 330V080 CAVOK 16/14 Q1020",
      "taf": "TAF LPPR 010500Z 0106/0206 VRB02KT CAVOK"
    },
    {
      "icao": "LPPS",
      "alert": "OK",
      "vis_m": 9999,
      "fzfg": false,
      "metar_trigger": false,
      "taf_trigger": false,
      "metar": "METAR LPPS 010600Z 03012KT 9999 SCT014 BKN030 20/16 Q1022",
      "taf": "TAF LPPS 010500Z 0106/0212 02015KT 9999 SCT015 BKN030"
    },
    {
      "icao": "LPPT",
      "alert": "OK",
      "vis_m": 9999,
      "fzfg": false,
      "metar_trigger": false,
      "taf_trigger": false,
      "metar": "METAR LPPT 010600Z 32014KT 9999 FEW008 18/16 Q1019 NOSIG",
      "taf": "TAF LPPT 010500Z 0106/0212 33012KT CAVOK"
    },
    {
      "icao": "LQBK",
      "alert": "OK",
      "vis_m": 9999,
      "fzfg": false,
      "metar_trigger": false,
      "taf_trigger": false,
      "metar": "METAR LQBK 010600Z 17003KT 110V240 CAVOK 23/16 Q1015 NOSIG",
      "taf": "TAF LQBK 010500Z 0106/0206 15005KT CAVOK TX33/0112Z TN16/0205Z"
    },
    {
      "icao": "LQSA",
      "alert": "OK",
      "vis_m": 9999,
      "fzfg": false,
      "metar_trigger": false,
      "taf_trigger": false,
      "metar": "METAR LQSA 010600Z VRB03KT 9999 -RA FEW025 SCT050 18/17 Q1018 NOSIG",
      "taf": "TAF LQSA 010500Z 0106/0206 VRB02KT 9999 SCT055 TX30/0112Z TN16/0203Z"
    },
    {
      "icao": "LQTZ",
      "alert": "OK",
      "vis_m": 9999,
      "fzfg": false,
      "metar_trigger": false,
      "taf_trigger": false,
      "metar": "METAR LQTZ 010600Z 13010KT 9999 FEW035TCU BKN045 20/20 Q1017",
      "taf": "TAF LQTZ 010500Z 0106/0206 03005KT 9999 FEW050 TX31/0113Z TN17/0206Z"
    },
    {
      "icao": "LRBC",
      "alert": "OK",
      "vis_m": 9999,
      "fzfg": false,
      "metar_trigger": false,
      "taf_trigger": false,
      "metar": "METAR LRBC 010600Z 34006KT CAVOK 27/21 Q1016",
      "taf": "TAF LRBC 010500Z 0106/0115 VRB04KT CAVOK"
    },
    {
      "icao": "LRBS",
      "alert": "OK",
      "vis_m": 9999,
      "fzfg": false,
      "metar_trigger": false,
      "taf_trigger": false,
      "metar": "METAR LRBS 010600Z 26006KT CAVOK 23/21 Q1014 NOSIG",
      "taf": "TAF LRBS 010500Z 0106/0206 36006KT 9999 SCT045"
    },
    {
      "icao": "LRBV",
      "alert": "OK",
      "vis_m": 6000,
      "fzfg": false,
      "metar_trigger": false,
      "taf_trigger": false,
      "metar": "METAR LRBV 010600Z 10003KT 050V150 6000 BKN005 19/18 Q1018",
      "taf": "TAF LRBV 010500Z 0106/0115 10004KT 3000 BR BKN002"
    },
    {
      "icao": "LRCL",
      "alert": "OK",
      "vis_m": 9999,
      "fzfg": false,
      "metar_trigger": false,
      "taf_trigger": false,
      "metar": "METAR LRCL 010600Z VRB02KT CAVOK 24/19 Q1017",
      "taf": "TAF LRCL 010500Z 0106/0115 VRB04KT CAVOK"
    },
    {
      "icao": "LRCV",
      "alert": "OK",
      "vis_m": 9999,
      "fzfg": false,
      "metar_trigger": false,
      "taf_trigger": false,
      "metar": "METAR LRCV 010600Z 36008KT 9999 FEW028 26/19 Q1015",
      "taf": "TAF LRCV 010500Z 0106/0115 VRB04KT 9999 SCT025"
    },
    {
      "icao": "LRIA",
      "alert": "OK",
      "vis_m": 9999,
      "fzfg": false,
      "metar_trigger": false,
      "taf_trigger": false,
      "metar": "METAR LRIA 010600Z VRB02KT CAVOK 27/18 Q1016",
      "taf": "TAF LRIA 010500Z 0106/0115 VRB04KT CAVOK"
    },
    {
      "icao": "LROP",
      "alert": "OK",
      "vis_m": 9999,
      "fzfg": false,
      "metar_trigger": false,
      "taf_trigger": false,
      "metar": "METAR LROP 010600Z 26006KT CAVOK 23/21 Q1014 NOSIG",
      "taf": "TAF LROP 010500Z 0106/0206 35006KT 9999 SCT045"
    },
    {
      "icao": "LRSB",
      "alert": "OK",
      "vis_m": 9999,
      "fzfg": false,
      "metar_trigger": false,
      "taf_trigger": false,
      "metar": "METAR LRSB 010600Z VRB02KT CAVOK 23/18 Q1017",
      "taf": "TAF LRSB 010500Z 0106/0206 VRB04KT CAVOK"
    },
    {
      "icao": "LRSM",
      "alert": "OK",
      "vis_m": 9999,
      "fzfg": false,
      "metar_trigger": false,
      "taf_trigger": false,
      "metar": "METAR LRSM 010600Z 11007KT CAVOK 29/17 Q1015",
      "taf": "TAF LRSM 010500Z 0106/0115 14006KT CAVOK"
    },
    {
      "icao": "LRSV",
      "alert": "OK",
      "vis_m": 9999,
      "fzfg": false,
      "metar_trigger": false,
      "taf_trigger": false,
      "metar": "METAR LRSV 010600Z 03004KT CAVOK 26/20 Q1018",
      "taf": "TAF LRSV 010500Z 0106/0115 VRB03KT CAVOK"
    },
    {
      "icao": "LRTM",
      "alert": "OK",
      "vis_m": 9999,
      "fzfg": false,
      "metar_trigger": false,
      "taf_trigger": false,
      "metar": "METAR LRTM 010600Z 08003KT 040V160 9999 FEW012 23/21 Q1017",
      "taf": "TAF LRTM 010500Z 0106/0115 07007KT CAVOK"
    },
    {
      "icao": "LRTR",
      "alert": "OK",
      "vis_m": 9999,
      "fzfg": false,
      "metar_trigger": false,
      "taf_trigger": false,
      "metar": "METAR LRTR 010600Z 08008KT CAVOK 27/19 Q1014 NOSIG",
      "taf": "TAF LRTR 010500Z 0106/0206 16006KT CAVOK"
    },
    {
      "icao": "LTAC",
      "alert": "OK",
      "vis_m": 9999,
      "fzfg": false,
      "metar_trigger": false,
      "taf_trigger": false,
      "metar": "METAR LTAC 010550Z 07007KT 360V110 CAVOK 24/09 Q1016 NOSIG RMK RWY21C 06012KT RWY03L 05008KT 010V090 RWY21R 04012KT RWY03R 06010KT 030V090 RWY21L 07010KT 030V090",
      "taf": "TAF LTAC 010440Z 0106/0206 06008KT CAVOK"
    },
    {
      "icao": "LTFM",
      "alert": "OK",
      "vis_m": 9999,
      "fzfg": false,
      "metar_trigger": false,
      "taf_trigger": false,
      "metar": "METAR LTFM 010550Z 04016KT CAVOK 26/21 Q1011 NOSIG RMK RWY17L 03014KT RWY34L 03015KT RWY16R 03013KT RWY36 03016KT RWY18 04015KT",
      "taf": "TAF LTFM 010440Z 0106/0212 05015KT CAVOK"
    },
    {
      "icao": "LUKK",
      "alert": "OK",
      "vis_m": 9999,
      "fzfg": false,
      "metar_trigger": false,
      "taf_trigger": false,
      "metar": "METAR LUKK 010600Z 02007KT 340V050 CAVOK 26/18 Q1016 NOSIG",
      "taf": "TAF LUKK 010518Z 0106/0206 04009KT CAVOK"
    },
    {
      "icao": "LWOH",
      "alert": "OK",
      "vis_m": 9999,
      "fzfg": false,
      "metar_trigger": false,
      "taf_trigger": false,
      "metar": "METAR LWOH 010620Z VRB01KT 9999 FEW035 19/15 Q1017",
      "taf": ""
    },
    {
      "icao": "LWSK",
      "alert": "OK",
      "vis_m": 9999,
      "fzfg": false,
      "metar_trigger": false,
      "taf_trigger": false,
      "metar": "METAR LWSK 010620Z VRB02KT CAVOK 24/18 Q1014 NOSIG",
      "taf": ""
    },
    {
      "icao": "LYBE",
      "alert": "OK",
      "vis_m": 9999,
      "fzfg": false,
      "metar_trigger": false,
      "taf_trigger": false,
      "metar": "METAR LYBE 010600Z 23011KT CAVOK 22/20 Q1015 NOSIG",
      "taf": "TAF LYBE 010500Z 0106/0206 12012KT CAVOK TX33/0114Z TN20/0203Z"
    },
    {
      "icao": "LYNI",
      "alert": "OK",
      "vis_m": 9999,
      "fzfg": false,
      "metar_trigger": false,
      "taf_trigger": false,
      "metar": "METAR LYNI 010600Z 33009KT 9999 FEW050 22/18 Q1015 NOSIG",
      "taf": "TAF LYNI 010500Z 0106/0206 06006KT CAVOK TX33/0114Z TN19/0203Z"
    },
    {
      "icao": "LYPG",
      "alert": "OK",
      "vis_m": 9999,
      "fzfg": false,
      "metar_trigger": false,
      "taf_trigger": false,
      "metar": "METAR LYPG 010600Z VRB02KT 9999 FEW050 26/18 Q1012 NOSIG",
      "taf": "TAF LYPG 010500Z 0106/0206 17007KT 9999 SCT040 TX36/0113Z TN22/0203Z"
    },
    {
      "icao": "LZIB",
      "alert": "OK",
      "vis_m": 9999,
      "fzfg": false,
      "metar_trigger": false,
      "taf_trigger": false,
      "metar": "METAR LZIB 010600Z 33004KT 300V360 CAVOK 28/15 Q1014 NOSIG",
      "taf": "TAF LZIB 010515Z 0106/0206 04005KT CAVOK"
    },
    {
      "icao": "LZKZ",
      "alert": "OK",
      "vis_m": 9999,
      "fzfg": false,
      "metar_trigger": false,
      "taf_trigger": false,
      "metar": "METAR LZKZ 010600Z 04003KT 360V100 CAVOK 27/18 Q1016 NOSIG",
      "taf": "TAF LZKZ 010515Z 0106/0206 01004KT CAVOK"
    },
    {
      "icao": "LZTT",
      "alert": "OK",
      "vis_m": 9999,
      "fzfg": false,
      "metar_trigger": false,
      "taf_trigger": false,
      "metar": "METAR LZTT 010600Z VRB02KT CAVOK 24/19 Q1018 NOSIG",
      "taf": "TAF LZTT 010515Z 0106/0206 22004KT 9999 FEW065"
    },
    {
      "icao": "OEJN",
      "alert": "OK",
      "vis_m": 9999,
      "fzfg": false,
      "metar_trigger": false,
      "taf_trigger": false,
      "metar": "METAR OEJN 010600Z 31007KT CAVOK 33/22 Q1003 NOSIG",
      "taf": "TAF OEJN 302300Z 0100/0206 36006KT CAVOK"
    },
    {
      "icao": "OEMA",
      "alert": "OK",
      "vis_m": 9999,
      "fzfg": false,
      "metar_trigger": false,
      "taf_trigger": false,
      "metar": "METAR OEMA 010600Z 27005KT CAVOK 37/M01 Q1009 NOSIG",
      "taf": "TAF OEMA 302300Z 0100/0206 VRB03KT CAVOK"
    },
    {
      "icao": "OJAI",
      "alert": "OK",
      "vis_m": 5000,
      "fzfg": false,
      "metar_trigger": false,
      "taf_trigger": false,
      "metar": "METAR OJAI 010600Z 27010KT 5000 HZ NSC 25/10 Q1013 NOSIG",
      "taf": "TAF OJAI 010445Z 0106/0212 28008KT 5000 HZ NSC"
    },
    {
      "icao": "OMAA",
      "alert": "OK",
      "vis_m": 9999,
      "fzfg": false,
      "metar_trigger": false,
      "taf_trigger": false,
      "metar": "METAR OMAA 010600Z 29007KT 260V320 CAVOK 37/18 Q0998 NOSIG",
      "taf": "TAF OMAA 010500Z 0106/0212 30015KT 8000 NSC"
    },
    {
      "icao": "OMDB",
      "alert": "OK",
      "vis_m": 9999,
      "fzfg": false,
      "metar_trigger": false,
      "taf_trigger": false,
      "metar": "METAR OMDB 010600Z 26007KT 210V330 CAVOK 36/23 Q0997 NOSIG",
      "taf": "TAF OMDB 010500Z 0106/0212 22005KT CAVOK"
    },
    {
      "icao": "UAAA",
      "alert": "OK",
      "vis_m": 9999,
      "fzfg": false,
      "metar_trigger": false,
      "taf_trigger": false,
      "metar": "METAR UAAA 010600Z 15006MPS 9999 BKN050CB OVC100 23/13 Q1009 NOSIG",
      "taf": "TAF UAAA 010505Z 0106/0206 04003G08MPS 9999 BKN040CB OVC100 TX27/0110Z TN19/0201Z"
    },
    {
      "icao": "UBBB",
      "alert": "OK",
      "vis_m": 9999,
      "fzfg": false,
      "metar_trigger": false,
      "taf_trigger": false,
      "metar": "METAR UBBB 010600Z 33014KT CAVOK 28/13 Q1011 NOSIG",
      "taf": "TAF UBBB 010502Z 0106/0206 32010KT CAVOK TX30/0111Z TN22/0201Z"
    },
    {
      "icao": "UDSG",
      "alert": "OK",
      "vis_m": 9000,
      "fzfg": false,
      "metar_trigger": false,
      "taf_trigger": false,
      "metar": "METAR UDSG 010600Z 05004KT 330V110 9000 NSC 19/09 Q1019 NOSIG",
      "taf": "TAF UDSG 010458Z 0106/0206 VRB06KT 9999 FEW050"
    },
    {
      "icao": "UDYZ",
      "alert": "OK",
      "vis_m": 9999,
      "fzfg": false,
      "metar_trigger": false,
      "taf_trigger": false,
      "metar": "METAR UDYZ 010600Z VRB01KT 9999 NSC 25/09 Q1014 NOSIG",
      "taf": "TAF UDYZ 010500Z 0106/0206 16006KT 9999 FEW040"
    },
    {
      "icao": "UGKO",
      "alert": "OK",
      "vis_m": 9999,
      "fzfg": false,
      "metar_trigger": false,
      "taf_trigger": false,
      "metar": "METAR UGKO 010600Z VRB02KT CAVOK 25/18 Q1013 NOSIG",
      "taf": "TAF UGKO 010500Z 0106/0206 08007KT CAVOK TX29/0111Z TN19/0123Z"
    }
  ]
}