{
  "ts_utc": "2026-07-14T11:03:25Z",
  "threshold_m": 150,
  "source": "stations_override.txt (ICAO list) + aviationweather.gov (METAR/TAF raw)",
  "station_count": 159,
  "stations": [
    {
      "icao": "BIKF",
      "alert": "OK",
      "vis_m": 3000,
      "fzfg": false,
      "metar_trigger": false,
      "taf_trigger": false,
      "metar": "METAR BIKF 141030Z 15018KT 3000 DZ OVC003 11/11 Q1018",
      "taf": "TAF BIKF 141036Z 1412/1512 16018KT 4000 RADZ BKN005 OVC010 TX11/1415Z TN10/1503Z"
    },
    {
      "icao": "BKPR",
      "alert": "OK",
      "vis_m": 9999,
      "fzfg": false,
      "metar_trigger": false,
      "taf_trigger": false,
      "metar": "METAR BKPR 141100Z 33007KT 290V070 9999 FEW050 28/13 Q1020 NOSIG",
      "taf": "TAF BKPR 140530Z 1406/1506 33008KT 9999 FEW050"
    },
    {
      "icao": "EBCI",
      "alert": "OK",
      "vis_m": 9999,
      "fzfg": false,
      "metar_trigger": false,
      "taf_trigger": false,
      "metar": "METAR EBCI 141050Z 02007KT 330V080 CAVOK 28/17 Q1018 NOSIG",
      "taf": "TAF EBCI 140507Z 1406/1512 03007KT CAVOK"
    },
    {
      "icao": "EDDB",
      "alert": "OK",
      "vis_m": 9999,
      "fzfg": false,
      "metar_trigger": false,
      "taf_trigger": false,
      "metar": "METAR EDDB 141050Z AUTO 14005KT 110V180 9999 SHRA BKN032 FEW///TCU 19/15 Q1021 TEMPO NSW",
      "taf": "TAF EDDB 140500Z 1406/1506 05008KT 9999 BKN009"
    },
    {
      "icao": "EDDH",
      "alert": "OK",
      "vis_m": 9999,
      "fzfg": false,
      "metar_trigger": false,
      "taf_trigger": false,
      "metar": "METAR EDDH 141050Z AUTO 07011KT 040V110 CAVOK 25/12 Q1022 NOSIG",
      "taf": "TAF EDDH 140500Z 1406/1512 07005KT CAVOK"
    },
    {
      "icao": "EDDK",
      "alert": "OK",
      "vis_m": 9999,
      "fzfg": false,
      "metar_trigger": false,
      "taf_trigger": false,
      "metar": "METAR EDDK 141050Z AUTO 05005KT CAVOK 31/13 Q1017 NOSIG",
      "taf": "TAF EDDK 140500Z 1406/1512 VRB03KT CAVOK"
    },
    {
      "icao": "EDDN",
      "alert": "OK",
      "vis_m": 9999,
      "fzfg": false,
      "metar_trigger": false,
      "taf_trigger": false,
      "metar": "METAR EDDN 141050Z AUTO VRB05G17KT CAVOK 30/13 Q1017 NOSIG",
      "taf": "TAF EDDN 140500Z 1406/1506 10006KT CAVOK"
    },
    {
      "icao": "EDDS",
      "alert": "OK",
      "vis_m": 9999,
      "fzfg": false,
      "metar_trigger": false,
      "taf_trigger": false,
      "metar": "METAR EDDS 141050Z AUTO 18003KT 110V270 CAVOK 27/17 Q1017 NOSIG",
      "taf": "TAF EDDS 140500Z 1406/1506 VRB03KT CAVOK"
    },
    {
      "icao": "EDFH",
      "alert": "OK",
      "vis_m": 9999,
      "fzfg": false,
      "metar_trigger": false,
      "taf_trigger": false,
      "metar": "METAR EDFH 141050Z 02008KT 330V060 CAVOK 29/13 Q1018",
      "taf": "TAF EDFH 140500Z 1406/1506 08008KT CAVOK"
    },
    {
      "icao": "EDJA",
      "alert": "OK",
      "vis_m": 9999,
      "fzfg": false,
      "metar_trigger": false,
      "taf_trigger": false,
      "metar": "METAR EDJA 141050Z COR 17007KT 110V210 CAVOK 24/17 Q1019",
      "taf": "TAF EDJA 140800Z 1409/1418 23008KT CAVOK"
    },
    {
      "icao": "EDLW",
      "alert": "OK",
      "vis_m": 9999,
      "fzfg": false,
      "metar_trigger": false,
      "taf_trigger": false,
      "metar": "METAR EDLW 141050Z 03007KT 340V080 CAVOK 28/15 Q1018",
      "taf": "TAF EDLW 140500Z 1406/1506 04005KT CAVOK"
    },
    {
      "icao": "EDNY",
      "alert": "OK",
      "vis_m": 9999,
      "fzfg": false,
      "metar_trigger": false,
      "taf_trigger": false,
      "metar": "METAR EDNY 141050Z 04005KT 340V060 CAVOK 25/17 Q1018",
      "taf": "TAF EDNY 140800Z 1409/1418 05004KT CAVOK"
    },
    {
      "icao": "EDSB",
      "alert": "OK",
      "vis_m": 9999,
      "fzfg": false,
      "metar_trigger": false,
      "taf_trigger": false,
      "metar": "METAR EDSB 141050Z 29005KT 220V330 CAVOK 29/17 Q1016",
      "taf": "TAF EDSB 140500Z 1406/1506 27004KT CAVOK"
    },
    {
      "icao": "EETN",
      "alert": "OK",
      "vis_m": 9999,
      "fzfg": false,
      "metar_trigger": false,
      "taf_trigger": false,
      "metar": "METAR EETN 141050Z 03005KT 9999 BKN022 19/14 Q1020 NOSIG",
      "taf": "TAF EETN 140530Z 1406/1506 02010KT 9999 SCT012 BKN035"
    },
    {
      "icao": "EFTU",
      "alert": "OK",
      "vis_m": 9999,
      "fzfg": false,
      "metar_trigger": false,
      "taf_trigger": false,
      "metar": "METAR EFTU 141050Z AUTO 35007KT 290V060 CAVOK 22/09 Q1021",
      "taf": "TAF EFTU 140828Z 1409/1509 02009KT CAVOK"
    },
    {
      "icao": "EGBB",
      "alert": "OK",
      "vis_m": 9999,
      "fzfg": false,
      "metar_trigger": false,
      "taf_trigger": false,
      "metar": "METAR EGBB 141050Z 06011KT 030V090 9999 BKN021 20/13 Q1025",
      "taf": "TAF EGBB 140459Z 1406/1506 04010KT 9999 BKN012"
    },
    {
      "icao": "EGGP",
      "alert": "OK",
      "vis_m": 9999,
      "fzfg": false,
      "metar_trigger": false,
      "taf_trigger": false,
      "metar": "METAR EGGP 141050Z 06010KT CAVOK 22/10 Q1025",
      "taf": "TAF EGGP 140459Z 1406/1506 08009KT 9999 FEW045"
    },
    {
      "icao": "EGGW",
      "alert": "OK",
      "vis_m": 6000,
      "fzfg": false,
      "metar_trigger": false,
      "taf_trigger": false,
      "metar": "METAR EGGW 141050Z 03011KT 6000 OVC006 17/15 Q1023",
      "taf": ""
    },
    {
      "icao": "EGKK",
      "alert": "OK",
      "vis_m": 9999,
      "fzfg": false,
      "metar_trigger": false,
      "taf_trigger": false,
      "metar": "METAR EGKK 141050Z 05013KT 010V080 9999 SCT029 24/15 Q1021",
      "taf": "TAF EGKK 140455Z 1406/1512 05010KT CAVOK"
    },
    {
      "icao": "EGNM",
      "alert": "OK",
      "vis_m": 9999,
      "fzfg": false,
      "metar_trigger": false,
      "taf_trigger": false,
      "metar": "METAR EGNM 141050Z 04011KT 010V080 9999 FEW030 19/11 Q1026",
      "taf": "TAF EGNM 140500Z 1406/1506 04012KT 9999 FEW013"
    },
    {
      "icao": "EGPD",
      "alert": "OK",
      "vis_m": 9999,
      "fzfg": false,
      "metar_trigger": false,
      "taf_trigger": false,
      "metar": "METAR EGPD 141050Z AUTO 33004KT 9999 OVC009 14/11 Q1029",
      "taf": ""
    },
    {
      "icao": "EGPF",
      "alert": "OK",
      "vis_m": 9999,
      "fzfg": false,
      "metar_trigger": false,
      "taf_trigger": false,
      "metar": "METAR EGPF 141050Z AUTO 09010KT 050V110 9999 OVC017 17/12 Q1029",
      "taf": ""
    },
    {
      "icao": "EHBK",
      "alert": "OK",
      "vis_m": 9999,
      "fzfg": false,
      "metar_trigger": false,
      "taf_trigger": false,
      "metar": "METAR EHBK 141055Z AUTO 04013KT 360V080 9999 NSC 30/16 Q1017 NOSIG",
      "taf": "TAF EHBK 140444Z 1406/1512 05007KT CAVOK"
    },
    {
      "icao": "EHEH",
      "alert": "OK",
      "vis_m": 9999,
      "fzfg": false,
      "metar_trigger": false,
      "taf_trigger": false,
      "metar": "METAR EHEH 141055Z AUTO 08010KT 020V100 9999 NCD 28/15 Q1018 BLU NOSIG RMK TREND REMOTE BY EHWX",
      "taf": "TAF EHEH 140530Z 1406/1512 03006KT CAVOK"
    },
    {
      "icao": "EKBI",
      "alert": "OK",
      "vis_m": 9999,
      "fzfg": false,
      "metar_trigger": false,
      "taf_trigger": false,
      "metar": "METAR EKBI 141050Z AUTO 05005KT 330V140 9999 FEW060/// 26/12 Q1024",
      "taf": "TAF EKBI 140827Z 1409/1509 03008KT CAVOK"
    },
    {
      "icao": "EKCH",
      "alert": "OK",
      "vis_m": 9999,
      "fzfg": false,
      "metar_trigger": false,
      "taf_trigger": false,
      "metar": "METAR EKCH 141050Z AUTO 14006KT 110V170 9999 NCD 23/15 Q1023 NOSIG",
      "taf": "TAF EKCH 140827Z 1409/1509 VRB04KT CAVOK"
    },
    {
      "icao": "ENAL",
      "alert": "OK",
      "vis_m": 9999,
      "fzfg": false,
      "metar_trigger": false,
      "taf_trigger": false,
      "metar": "METAR ENAL 141050Z 06007KT 9999 BKN009 14/11 Q1028",
      "taf": "TAF ENAL 140800Z 1409/1418 04009KT 9999 BKN006"
    },
    {
      "icao": "ENBR",
      "alert": "OK",
      "vis_m": 9999,
      "fzfg": false,
      "metar_trigger": false,
      "taf_trigger": false,
      "metar": "METAR ENBR 141050Z 32006KT CAVOK 20/13 Q1025 NOSIG RMK WIND 1200FT 30004KT",
      "taf": "TAF ENBR 140500Z 1406/1506 33008KT 0500 FG VV002"
    },
    {
      "icao": "ENGM",
      "alert": "OK",
      "vis_m": 9999,
      "fzfg": false,
      "metar_trigger": false,
      "taf_trigger": false,
      "metar": "METAR ENGM 141050Z VRB04KT CAVOK 25/09 Q1025 NOSIG",
      "taf": "TAF ENGM 140500Z 1406/1506 02005KT CAVOK"
    },
    {
      "icao": "ENHD",
      "alert": "OK",
      "vis_m": 9999,
      "fzfg": false,
      "metar_trigger": false,
      "taf_trigger": false,
      "metar": "METAR ENHD 141050Z 34009KT 9999 1500E VCFG FEW001 SCT003 14/12 Q1026",
      "taf": "TAF ENHD 140800Z 1409/1418 34012KT 0200 FG VV001"
    },
    {
      "icao": "ENTC",
      "alert": "OK",
      "vis_m": 9999,
      "fzfg": false,
      "metar_trigger": false,
      "taf_trigger": false,
      "metar": "METAR ENTC 141050Z 28017KT 9999 -DZ SCT008 BKN018 11/08 Q1020 TEMPO SCT008 BKN014 RMK WIND 2600FT 27021G32KT",
      "taf": "TAF ENTC 140500Z 1406/1506 25010KT 9999 -DZRA SCT012 BKN020"
    },
    {
      "icao": "ENTO",
      "alert": "OK",
      "vis_m": 9999,
      "fzfg": false,
      "metar_trigger": false,
      "taf_trigger": false,
      "metar": "METAR ENTO 141050Z 03005KT 350V070 CAVOK 24/13 Q1024 NOSIG",
      "taf": "TAF ENTO 140500Z 1406/1506 36005KT CAVOK"
    },
    {
      "icao": "ENVA",
      "alert": "OK",
      "vis_m": 9999,
      "fzfg": false,
      "metar_trigger": false,
      "taf_trigger": false,
      "metar": "METAR ENVA 141050Z 26009KT CAVOK 16/11 Q1028 NOSIG RMK WIND 670FT 28006KT",
      "taf": "TAF ENVA 140500Z 1406/1506 27009KT 9999 BKN012"
    },
    {
      "icao": "ENZV",
      "alert": "OK",
      "vis_m": 9999,
      "fzfg": false,
      "metar_trigger": false,
      "taf_trigger": false,
      "metar": "METAR ENZV 141050Z 29007KT CAVOK 17/13 Q1025 NOSIG",
      "taf": "TAF ENZV 140500Z 1406/1506 30005KT 0200 FG VV001"
    },
    {
      "icao": "EPGD",
      "alert": "OK",
      "vis_m": 9999,
      "fzfg": false,
      "metar_trigger": false,
      "taf_trigger": false,
      "metar": "METAR EPGD 141100Z 02011KT 350V050 CAVOK 20/06 Q1022",
      "taf": "TAF EPGD 140530Z 1406/1506 36008KT CAVOK"
    },
    {
      "icao": "EPKK",
      "alert": "OK",
      "vis_m": 9999,
      "fzfg": false,
      "metar_trigger": false,
      "taf_trigger": false,
      "metar": "METAR EPKK 141100Z 11004KT 050V160 9999 FEW033CB 27/16 Q1018",
      "taf": "TAF EPKK 140830Z 1409/1509 10003KT CAVOK"
    },
    {
      "icao": "EPKT",
      "alert": "OK",
      "vis_m": 9999,
      "fzfg": false,
      "metar_trigger": false,
      "taf_trigger": false,
      "metar": "METAR EPKT 141100Z 35005KT 290V060 CAVOK 26/17 Q1019",
      "taf": "TAF EPKT 140530Z 1406/1506 05005KT CAVOK"
    },
    {
      "icao": "EPLB",
      "alert": "OK",
      "vis_m": 9999,
      "fzfg": false,
      "metar_trigger": false,
      "taf_trigger": false,
      "metar": "METAR EPLB 141100Z 32009KT 9999 FEW028 26/19 Q1018",
      "taf": "TAF EPLB 140530Z 1406/1506 35008KT 9999 BKN012"
    },
    {
      "icao": "EPMO",
      "alert": "OK",
      "vis_m": 9999,
      "fzfg": false,
      "metar_trigger": false,
      "taf_trigger": false,
      "metar": "METAR EPMO 141100Z 33007KT 280V010 CAVOK 25/14 Q1019",
      "taf": "TAF EPMO 140530Z 1406/1506 01007KT 9999 SCT040"
    },
    {
      "icao": "EPPO",
      "alert": "OK",
      "vis_m": 9999,
      "fzfg": false,
      "metar_trigger": false,
      "taf_trigger": false,
      "metar": "METAR EPPO 141100Z 04009KT 350V070 CAVOK 26/09 Q1020",
      "taf": "TAF EPPO 140530Z 1406/1506 06007KT CAVOK"
    },
    {
      "icao": "EPRA",
      "alert": "OK",
      "vis_m": 9999,
      "fzfg": false,
      "metar_trigger": false,
      "taf_trigger": false,
      "metar": "METAR EPRA 141100Z VRB03KT CAVOK 25/16 Q1019",
      "taf": "TAF EPRA 140830Z 1409/1418 32006KT 9999 BKN020"
    },
    {
      "icao": "EPRZ",
      "alert": "OK",
      "vis_m": 9999,
      "fzfg": false,
      "metar_trigger": false,
      "taf_trigger": false,
      "metar": "METAR EPRZ 141100Z 03007KT 360V060 9999 SCT031 26/18 Q1018",
      "taf": "TAF EPRZ 140530Z 1406/1506 34005KT 9999 BKN007"
    },
    {
      "icao": "EPSC",
      "alert": "OK",
      "vis_m": 9999,
      "fzfg": false,
      "metar_trigger": false,
      "taf_trigger": false,
      "metar": "METAR EPSC 141100Z 05008KT 010V090 CAVOK 23/09 Q1021",
      "taf": "TAF EPSC 140530Z 1406/1506 03008KT CAVOK"
    },
    {
      "icao": "EPSY",
      "alert": "OK",
      "vis_m": 9999,
      "fzfg": false,
      "metar_trigger": false,
      "taf_trigger": false,
      "metar": "METAR EPSY 141100Z 01008KT 330V040 CAVOK 21/13 Q1020",
      "taf": "TAF EPSY 140830Z 1409/1418 34008KT CAVOK"
    },
    {
      "icao": "EPWA",
      "alert": "OK",
      "vis_m": 9999,
      "fzfg": false,
      "metar_trigger": false,
      "taf_trigger": false,
      "metar": "METAR EPWA 141100Z VRB03KT CAVOK 25/17 Q1019 NOSIG",
      "taf": "TAF EPWA 140830Z 1409/1509 VRB06KT CAVOK"
    },
    {
      "icao": "EPWR",
      "alert": "OK",
      "vis_m": 9999,
      "fzfg": false,
      "metar_trigger": false,
      "taf_trigger": false,
      "metar": "METAR EPWR 141100Z 04006KT 350V070 9999 FEW046CB 25/16 Q1019",
      "taf": "TAF EPWR 140830Z 1409/1509 05004KT CAVOK"
    },
    {
      "icao": "ESGG",
      "alert": "OK",
      "vis_m": 9999,
      "fzfg": false,
      "metar_trigger": false,
      "taf_trigger": false,
      "metar": "METAR ESGG 141050Z 34008KT 300V020 CAVOK 26/10 Q1023",
      "taf": "TAF ESGG 140830Z 1409/1509 04005KT CAVOK"
    },
    {
      "icao": "ESKN",
      "alert": "OK",
      "vis_m": 9999,
      "fzfg": false,
      "metar_trigger": false,
      "taf_trigger": false,
      "metar": "METAR ESKN 141050Z VRB06KT CAVOK 24/09 Q1023",
      "taf": "TAF ESKN 140830Z 1409/1509 01005KT CAVOK"
    },
    {
      "icao": "ESMS",
      "alert": "OK",
      "vis_m": 9999,
      "fzfg": false,
      "metar_trigger": false,
      "taf_trigger": false,
      "metar": "METAR ESMS 141050Z 32005KT 260V030 CAVOK 25/12 Q1022",
      "taf": "TAF ESMS 140827Z 1409/1509 33006KT CAVOK"
    },
    {
      "icao": "ESSA",
      "alert": "OK",
      "vis_m": 9999,
      "fzfg": false,
      "metar_trigger": false,
      "taf_trigger": false,
      "metar": "METAR ESSA 141050Z 05009KT 010V080 CAVOK 23/07 Q1022 NOSIG",
      "taf": "TAF ESSA 140830Z 1409/1509 02007KT CAVOK"
    },
    {
      "icao": "EYKA",
      "alert": "OK",
      "vis_m": 9999,
      "fzfg": false,
      "metar_trigger": false,
      "taf_trigger": false,
      "metar": "METAR EYKA 141050Z 30004KT 260V330 9999 FEW014 BKN019 OVC025 21/18 Q1019",
      "taf": "TAF EYKA 141100Z 1412/1512 VRB03KT 9000 SCT020 BKN035"
    },
    {
      "icao": "EYPA",
      "alert": "OK",
      "vis_m": 9999,
      "fzfg": false,
      "metar_trigger": false,
      "taf_trigger": false,
      "metar": "METAR EYPA 141050Z VRB04KT CAVOK 21/16 Q1020",
      "taf": "TAF EYPA 141100Z 1412/1512 VRB03KT 9000 SCT030"
    },
    {
      "icao": "EYVI",
      "alert": "OK",
      "vis_m": 9999,
      "fzfg": false,
      "metar_trigger": false,
      "taf_trigger": false,
      "metar": "METAR EYVI 141050Z 33007KT 300V360 9999 OVC007 19/17 Q1019 NOSIG",
      "taf": ""
    },
    {
      "icao": "GCFV",
      "alert": "OK",
      "vis_m": 9999,
      "fzfg": false,
      "metar_trigger": false,
      "taf_trigger": false,
      "metar": "METAR GCFV 141030Z 04011KT 9999 FEW017 SCT022 25/18 Q1017",
      "taf": "TAF GCFV 140800Z 1409/1509 05011KT 9999 SCT025 TX26/1414Z TN21/1506Z"
    },
    {
      "icao": "GCLP",
      "alert": "OK",
      "vis_m": 9999,
      "fzfg": false,
      "metar_trigger": false,
      "taf_trigger": false,
      "metar": "METAR GCLP 141030Z 03017KT 010V070 9999 FEW020 25/18 Q1017 NOSIG",
      "taf": "TAF GCLP 140800Z 1409/1509 02017KT 9999 SCT020 TX27/1414Z TN21/1506Z"
    },
    {
      "icao": "GCTS",
      "alert": "OK",
      "vis_m": 9999,
      "fzfg": false,
      "metar_trigger": false,
      "taf_trigger": false,
      "metar": "METAR GCTS 141030Z 11016KT 080V140 9999 FEW030 25/18 Q1018 NOSIG",
      "taf": "TAF GCTS 140800Z 1409/1509 09015KT 9999 FEW030 TX27/1414Z TN20/1506Z"
    },
    {
      "icao": "GMAD",
      "alert": "OK",
      "vis_m": 9999,
      "fzfg": false,
      "metar_trigger": false,
      "taf_trigger": false,
      "metar": "METAR GMAD 141030Z 33005KT 250V030 CAVOK 29/18 Q1016 NOSIG",
      "taf": "TAF GMAD 140500Z 1406/1512 02003KT 8000 FEW010 SCT100"
    },
    {
      "icao": "GMMN",
      "alert": "OK",
      "vis_m": 9999,
      "fzfg": false,
      "metar_trigger": false,
      "taf_trigger": false,
      "metar": "METAR GMMN 141030Z 02005KT CAVOK 29/19 Q1018 NOSIG",
      "taf": "TAF GMMN 140500Z 1406/1512 04006KT 9999 SCT010"
    },
    {
      "icao": "GMMX",
      "alert": "OK",
      "vis_m": 9999,
      "fzfg": false,
      "metar_trigger": false,
      "taf_trigger": false,
      "metar": "METAR GMMX 141030Z VRB03KT 9999 FEW100 29/19 Q1018 NOSIG",
      "taf": "TAF GMMX 140500Z 1406/1512 30006KT CAVOK"
    },
    {
      "icao": "HEGN",
      "alert": "OK",
      "vis_m": 9999,
      "fzfg": false,
      "metar_trigger": false,
      "taf_trigger": false,
      "metar": "METAR HEGN 141000Z 01014KT CAVOK 35/13 Q1006 NOSIG",
      "taf": "TAF HEGN 141100Z 1412/1518 02018KT CAVOK"
    },
    {
      "icao": "HEMA",
      "alert": "OK",
      "vis_m": 9999,
      "fzfg": false,
      "metar_trigger": false,
      "taf_trigger": false,
      "metar": "METAR HEMA 141000Z 01018KT CAVOK 35/18 Q1005 NOSIG",
      "taf": "TAF HEMA 141100Z 1412/1518 36018KT CAVOK"
    },
    {
      "icao": "HESH",
      "alert": "OK",
      "vis_m": 9999,
      "fzfg": false,
      "metar_trigger": false,
      "taf_trigger": false,
      "metar": "METAR HESH 141000Z 03010KT CAVOK 37/16 Q1005 NOSIG",
      "taf": "TAF HESH 141100Z 1412/1518 02015KT CAVOK"
    },
    {
      "icao": "HESX",
      "alert": "OK",
      "vis_m": 9999,
      "fzfg": false,
      "metar_trigger": false,
      "taf_trigger": false,
      "metar": "METAR HESX 141000Z 30006KT CAVOK 33/18 Q1008 NOSIG",
      "taf": "TAF HESX 141100Z 1412/1518 32012KT CAVOK"
    },
    {
      "icao": "LATI",
      "alert": "OK",
      "vis_m": 9999,
      "fzfg": false,
      "metar_trigger": false,
      "taf_trigger": false,
      "metar": "METAR LATI 141050Z 35010KT CAVOK 33/15 Q1016 NOSIG",
      "taf": "TAF LATI 140500Z 1406/1506 VRB03KT CAVOK TX36/1412Z TN18/1504Z"
    },
    {
      "icao": "LBPD",
      "alert": "OK",
      "vis_m": 9999,
      "fzfg": false,
      "metar_trigger": false,
      "taf_trigger": false,
      "metar": "METAR LBPD 141100Z AUTO 29008KT 230V320 9999 FEW078/// 29/12 Q1016 NOSIG",
      "taf": "TAF LBPD 140500Z 1406/1506 VRB03KT CAVOK"
    },
    {
      "icao": "LBSF",
      "alert": "OK",
      "vis_m": 9999,
      "fzfg": false,
      "metar_trigger": false,
      "taf_trigger": false,
      "metar": "METAR LBSF 141100Z 27008KT 190V310 9999 SCT067 27/10 Q1019 NOSIG",
      "taf": "TAF LBSF 140500Z 1406/1506 VRB03KT CAVOK"
    },
    {
      "icao": "LBWN",
      "alert": "OK",
      "vis_m": 9999,
      "fzfg": false,
      "metar_trigger": false,
      "taf_trigger": false,
      "metar": "METAR LBWN 141100Z VRB06G18KT 9999 SCT028 28/15 Q1015 NOSIG",
      "taf": "TAF LBWN 140500Z 1406/1506 32010KT 9999 SCT050"
    },
    {
      "icao": "LCLK",
      "alert": "OK",
      "vis_m": 9999,
      "fzfg": false,
      "metar_trigger": false,
      "taf_trigger": false,
      "metar": "METAR LCLK 141100Z 21018KT 9999 FEW025 33/24 Q1006 NOSIG",
      "taf": "TAF LCLK 140530Z 1406/1506 20008KT 9999 FEW015"
    },
    {
      "icao": "LCPH",
      "alert": "OK",
      "vis_m": 9999,
      "fzfg": false,
      "metar_trigger": false,
      "taf_trigger": false,
      "metar": "METAR LCPH 141100Z 24006KT 190V260 9999 FEW025 31/24 Q1007 NOSIG",
      "taf": "TAF LCPH 140530Z 1406/1506 21008KT 9999 FEW012"
    },
    {
      "icao": "LEAL",
      "alert": "OK",
      "vis_m": 9999,
      "fzfg": false,
      "metar_trigger": false,
      "taf_trigger": false,
      "metar": "METAR LEAL 141030Z 09007KT 060V130 9999 SCT050 31/23 Q1016 NOSIG",
      "taf": "TAF LEAL 140500Z 1406/1506 VRB04KT 9999 FEW010 TX33/1412Z TN23/1406Z"
    },
    {
      "icao": "LEBB",
      "alert": "OK",
      "vis_m": 9999,
      "fzfg": false,
      "metar_trigger": false,
      "taf_trigger": false,
      "metar": "METAR LEBB 141030Z VRB04KT CAVOK 30/21 Q1015 NOSIG",
      "taf": "TAF LEBB 140500Z 1406/1506 VRB03KT 9999 FEW040 TX31/1413Z TN22/1505Z"
    },
    {
      "icao": "LEBL",
      "alert": "OK",
      "vis_m": 9999,
      "fzfg": false,
      "metar_trigger": false,
      "taf_trigger": false,
      "metar": "METAR LEBL 141030Z 14009KT 100V170 9999 R06R///// SCT010 28/25 Q1017 NOSIG",
      "taf": "TAF LEBL 140500Z 1406/1506 VRB04KT 9999 FEW020 TX31/1412Z TN24/1406Z"
    },
    {
      "icao": "LECH",
      "alert": "OK",
      "vis_m": 9000,
      "fzfg": false,
      "metar_trigger": false,
      "taf_trigger": false,
      "metar": "METAR LECH 141030Z AUTO 08004KT 030V140 9000 OVC021 27/22 Q1018",
      "taf": ""
    },
    {
      "icao": "LEMD",
      "alert": "OK",
      "vis_m": 9999,
      "fzfg": false,
      "metar_trigger": false,
      "taf_trigger": false,
      "metar": "METAR LEMD 141030Z 18007KT CAVOK 31/09 Q1018 NOSIG",
      "taf": "TAF LEMD 140500Z 1406/1512 VRB04KT CAVOK TX37/1416Z TN21/1505Z"
    },
    {
      "icao": "LEMG",
      "alert": "OK",
      "vis_m": 9999,
      "fzfg": false,
      "metar_trigger": false,
      "taf_trigger": false,
      "metar": "METAR LEMG 141030Z 13008KT CAVOK 31/16 Q1015 NOSIG",
      "taf": "TAF LEMG 140500Z 1406/1506 30009KT CAVOK TX35/1414Z TN22/1505Z"
    },
    {
      "icao": "LEVC",
      "alert": "OK",
      "vis_m": 9999,
      "fzfg": false,
      "metar_trigger": false,
      "taf_trigger": false,
      "metar": "METAR LEVC 141030Z 09008KT 040V130 9999 SCT023 30/23 Q1016 NOSIG",
      "taf": ""
    },
    {
      "icao": "LEXJ",
      "alert": "OK",
      "vis_m": 9999,
      "fzfg": false,
      "metar_trigger": false,
      "taf_trigger": false,
      "metar": "METAR LEXJ 141030Z 05006KT 340V140 9999 FEW022 25/21 Q1015",
      "taf": "TAF LEXJ 140800Z 1409/1509 VRB03KT 9999 FEW020 TX27/1412Z TN21/1503Z"
    },
    {
      "icao": "LEZG",
      "alert": "OK",
      "vis_m": 9999,
      "fzfg": false,
      "metar_trigger": false,
      "taf_trigger": false,
      "metar": "METAR LEZG 141030Z 06003KT CAVOK 31/18 Q1016 NOSIG",
      "taf": ""
    },
    {
      "icao": "LEZL",
      "alert": "OK",
      "vis_m": 9999,
      "fzfg": false,
      "metar_trigger": false,
      "taf_trigger": false,
      "metar": "METAR LEZL 141030Z 20005KT 130V300 9999 FEW020 28/14 Q1017 NOSIG",
      "taf": "TAF LEZL 140800Z 1409/1509 VRB03KT CAVOK TX34/1415Z TN18/1505Z"
    },
    {
      "icao": "LFBD",
      "alert": "OK",
      "vis_m": 9999,
      "fzfg": false,
      "metar_trigger": false,
      "taf_trigger": false,
      "metar": "METAR LFBD 141100Z AUTO VRB05KT 9999 FEW008 33/16 Q1016 NOSIG",
      "taf": "TAF LFBD 140500Z 1406/1512 VRB03KT CAVOK TX37/1414Z TN21/1406Z"
    },
    {
      "icao": "LFLL",
      "alert": "OK",
      "vis_m": 9999,
      "fzfg": false,
      "metar_trigger": false,
      "taf_trigger": false,
      "metar": "METAR LFLL 141100Z VRB04KT CAVOK 34/13 Q1016 NOSIG",
      "taf": "TAF LFLL 140500Z 1406/1512 18008KT CAVOK"
    },
    {
      "icao": "LFLS",
      "alert": "OK",
      "vis_m": 9999,
      "fzfg": false,
      "metar_trigger": false,
      "taf_trigger": false,
      "metar": "METAR LFLS 141100Z AUTO 29005KT 240V350 CAVOK 32/15 Q1017 NOSIG",
      "taf": "TAF LFLS 140800Z 1409/1509 20006KT CAVOK"
    },
    {
      "icao": "LFMN",
      "alert": "OK",
      "vis_m": 9999,
      "fzfg": false,
      "metar_trigger": false,
      "taf_trigger": false,
      "metar": "METAR LFMN 141100Z 12007KT 9999 FEW023 30/23 Q1016 NOSIG",
      "taf": "TAF LFMN 140800Z 1409/1515 10008KT 9999 FEW022"
    },
    {
      "icao": "LFOB",
      "alert": "OK",
      "vis_m": 9999,
      "fzfg": false,
      "metar_trigger": false,
      "taf_trigger": false,
      "metar": "METAR LFOB 141100Z AUTO 04010KT 360V080 CAVOK 30/18 Q1017 NOSIG",
      "taf": "TAF LFOB 140500Z 1406/1506 02008KT CAVOK"
    },
    {
      "icao": "LFPO",
      "alert": "OK",
      "vis_m": 9999,
      "fzfg": false,
      "metar_trigger": false,
      "taf_trigger": false,
      "metar": "METAR LFPO 141100Z 36007KT 330V040 CAVOK 30/16 Q1016 NOSIG",
      "taf": "TAF LFPO 140500Z 1406/1512 02005KT CAVOK"
    },
    {
      "icao": "LFSB",
      "alert": "OK",
      "vis_m": 9999,
      "fzfg": false,
      "metar_trigger": false,
      "taf_trigger": false,
      "metar": "METAR LFSB 141100Z AUTO VRB03KT CAVOK 33/15 Q1016 TEMPO FEW080CB",
      "taf": "TAF LFSB 140500Z 1406/1506 VRB04KT CAVOK"
    },
    {
      "icao": "LGAV",
      "alert": "OK",
      "vis_m": 9999,
      "fzfg": false,
      "metar_trigger": false,
      "taf_trigger": false,
      "metar": "METAR LGAV 141050Z 05013KT 9999 SCT025 29/14 Q1015 NOSIG",
      "taf": "TAF LGAV 140500Z 1406/1506 04010KT 9999 FEW025"
    },
    {
      "icao": "LGTS",
      "alert": "OK",
      "vis_m": 9999,
      "fzfg": false,
      "metar_trigger": false,
      "taf_trigger": false,
      "metar": "METAR LGTS 141050Z 29011KT 9999 FEW025 31/15 Q1015 NOSIG",
      "taf": "TAF LGTS 140500Z 1406/1506 33015KT 9999 FEW030"
    },
    {
      "icao": "LHBP",
      "alert": "OK",
      "vis_m": 9999,
      "fzfg": false,
      "metar_trigger": false,
      "taf_trigger": false,
      "metar": "METAR LHBP 141100Z 18005KT 110V280 CAVOK 30/13 Q1017 NOSIG",
      "taf": "TAF LHBP 140515Z 1406/1506 VRB03KT CAVOK"
    },
    {
      "icao": "LHDC",
      "alert": "OK",
      "vis_m": 9999,
      "fzfg": false,
      "metar_trigger": false,
      "taf_trigger": false,
      "metar": "METAR LHDC 141045Z AUTO VRB06KT CAVOK 30/14 Q1017 NOSIG",
      "taf": "TAF LHDC 140815Z 1409/1418 33005KT CAVOK"
    },
    {
      "icao": "LIBD",
      "alert": "OK",
      "vis_m": 9999,
      "fzfg": false,
      "metar_trigger": false,
      "taf_trigger": false,
      "metar": "METAR LIBD 141050Z 04005KT 350V080 CAVOK 31/19 Q1018",
      "taf": "TAF LIBD 140500Z 1406/1506 VRB05KT CAVOK"
    },
    {
      "icao": "LIBG",
      "alert": "OK",
      "vis_m": 9999,
      "fzfg": false,
      "metar_trigger": false,
      "taf_trigger": false,
      "metar": "METAR LIBG 141050Z AUTO 02010KT 350V060 9999 NCD 34/13 Q1017",
      "taf": "TAF LIBG 140500Z 1406/1506 35010KT CAVOK"
    },
    {
      "icao": "LIBP",
      "alert": "OK",
      "vis_m": 9999,
      "fzfg": false,
      "metar_trigger": false,
      "taf_trigger": false,
      "metar": "METAR LIBP 141050Z AUTO 06010KT 9999 NCD 35/18 Q1016",
      "taf": "TAF LIBP 140500Z 1406/1506 VRB04KT CAVOK"
    },
    {
      "icao": "LIBR",
      "alert": "OK",
      "vis_m": 9999,
      "fzfg": false,
      "metar_trigger": false,
      "taf_trigger": false,
      "metar": "METAR LIBR 141050Z 02009KT CAVOK 29/21 Q1018",
      "taf": "TAF LIBR 140500Z 1406/1506 34012KT CAVOK"
    },
    {
      "icao": "LICA",
      "alert": "OK",
      "vis_m": 9999,
      "fzfg": false,
      "metar_trigger": false,
      "taf_trigger": false,
      "metar": "METAR LICA 141050Z AUTO 26013KT 9999 NCD 30/25 Q1019",
      "taf": "TAF LICA 140500Z 1406/1506 VRB05KT CAVOK"
    },
    {
      "icao": "LICC",
      "alert": "OK",
      "vis_m": 9999,
      "fzfg": false,
      "metar_trigger": false,
      "taf_trigger": false,
      "metar": "METAR LICC 141050Z 08012KT CAVOK 32/22 Q1018",
      "taf": "TAF LICC 140500Z 1406/1506 26008KT CAVOK"
    },
    {
      "icao": "LICJ",
      "alert": "OK",
      "vis_m": 9999,
      "fzfg": false,
      "metar_trigger": false,
      "taf_trigger": false,
      "metar": "METAR LICJ 141050Z AUTO 02010KT 9999 // NCD 29/24 Q1019",
      "taf": "TAF LICJ 140500Z 1406/1506 VRB05KT CAVOK"
    },
    {
      "icao": "LIMC",
      "alert": "OK",
      "vis_m": 9999,
      "fzfg": false,
      "metar_trigger": false,
      "taf_trigger": false,
      "metar": "METAR LIMC 141050Z 23005KT 160V290 CAVOK 32/17 Q1016 NOSIG",
      "taf": "TAF LIMC 140500Z 1406/1512 VRB05KT 9999 FEW060"
    },
    {
      "icao": "LIME",
      "alert": "OK",
      "vis_m": 9999,
      "fzfg": false,
      "metar_trigger": false,
      "taf_trigger": false,
      "metar": "METAR LIME 141050Z VRB05KT 9999 FEW060 31/18 Q1016 NOSIG",
      "taf": "TAF LIME 140500Z 1406/1506 VRB05KT 9999 FEW060"
    },
    {
      "icao": "LIMF",
      "alert": "OK",
      "vis_m": 9999,
      "fzfg": false,
      "metar_trigger": false,
      "taf_trigger": false,
      "metar": "METAR LIMF 141050Z 13004KT 080V180 CAVOK 32/17 Q1017",
      "taf": "TAF LIMF 140500Z 1406/1506 VRB05KT 9999 SCT060"
    },
    {
      "icao": "LIMJ",
      "alert": "OK",
      "vis_m": 9999,
      "fzfg": false,
      "metar_trigger": false,
      "taf_trigger": false,
      "metar": "METAR LIMJ 141050Z 14010KT 9999 SCT025 28/25 Q1016",
      "taf": "TAF LIMJ 140500Z 1406/1506 VRB05KT 9999 SCT020"
    },
    {
      "icao": "LIPE",
      "alert": "OK",
      "vis_m": 9999,
      "fzfg": false,
      "metar_trigger": false,
      "taf_trigger": false,
      "metar": "METAR LIPE 141050Z 34004KT 270V070 CAVOK 33/20 Q1015",
      "taf": "TAF LIPE 140500Z 1406/1506 VRB06KT CAVOK"
    },
    {
      "icao": "LIPH",
      "alert": "OK",
      "vis_m": 9999,
      "fzfg": false,
      "metar_trigger": false,
      "taf_trigger": false,
      "metar": "METAR LIPH 141050Z 16006KT 120V210 9999 FEW030 32/16 Q1016",
      "taf": "TAF LIPH 140500Z 1406/1506 VRB05KT CAVOK"
    },
    {
      "icao": "LIPQ",
      "alert": "OK",
      "vis_m": 9999,
      "fzfg": false,
      "metar_trigger": false,
      "taf_trigger": false,
      "metar": "METAR LIPQ 141050Z AUTO 18006KT 150V220 9999 NCD 32/15 Q1016",
      "taf": "TAF LIPQ 140500Z 1406/1506 VRB05KT CAVOK"
    },
    {
      "icao": "LIPR",
      "alert": "OK",
      "vis_m": 9999,
      "fzfg": false,
      "metar_trigger": false,
      "taf_trigger": false,
      "metar": "METAR LIPR 141050Z 09008KT 060V120 CAVOK 29/21 Q1015",
      "taf": "TAF LIPR 140500Z 1406/1506 VRB05KT CAVOK"
    },
    {
      "icao": "LIPX",
      "alert": "OK",
      "vis_m": 9999,
      "fzfg": false,
      "metar_trigger": false,
      "taf_trigger": false,
      "metar": "METAR LIPX 141050Z VRB03KT CAVOK 32/20 Q1016",
      "taf": "TAF LIPX 140500Z 1406/1506 VRB06KT 9999 FEW060"
    },
    {
      "icao": "LIPY",
      "alert": "OK",
      "vis_m": 9999,
      "fzfg": false,
      "metar_trigger": false,
      "taf_trigger": false,
      "metar": "METAR LIPY 141050Z AUTO 08007KT 9999 FEW220/// 34/17 Q1015",
      "taf": "TAF LIPY 140500Z 1406/1506 VRB05KT CAVOK"
    },
    {
      "icao": "LIPZ",
      "alert": "OK",
      "vis_m": 9999,
      "fzfg": false,
      "metar_trigger": false,
      "taf_trigger": false,
      "metar": "METAR LIPZ 141050Z 14008KT CAVOK 31/18 Q1016 NOSIG",
      "taf": "TAF LIPZ 140500Z 1406/1512 VRB05KT CAVOK"
    },
    {
      "icao": "LIRF",
      "alert": "OK",
      "vis_m": 9999,
      "fzfg": false,
      "metar_trigger": false,
      "taf_trigger": false,
      "metar": "METAR LIRF 141050Z 19008KT 150V210 CAVOK 34/16 Q1018 NOSIG",
      "taf": "TAF LIRF 140500Z 1406/1512 VRB05KT CAVOK"
    },
    {
      "icao": "LIRN",
      "alert": "OK",
      "vis_m": 9999,
      "fzfg": false,
      "metar_trigger": false,
      "taf_trigger": false,
      "metar": "METAR LIRN 141050Z 18008KT 130V200 CAVOK 31/23 Q1019 NOSIG",
      "taf": "TAF LIRN 140500Z 1406/1506 VRB05KT CAVOK"
    },
    {
      "icao": "LIRP",
      "alert": "OK",
      "vis_m": 9999,
      "fzfg": false,
      "metar_trigger": false,
      "taf_trigger": false,
      "metar": "METAR LIRP 141045Z 28011KT CAVOK 33/19 Q1016 NOSIG",
      "taf": "TAF LIRP 140500Z 1406/1506 VRB05KT CAVOK"
    },
    {
      "icao": "LIRZ",
      "alert": "OK",
      "vis_m": 9999,
      "fzfg": false,
      "metar_trigger": false,
      "taf_trigger": false,
      "metar": "METAR LIRZ 141050Z AUTO 23010KT 9999 NCD 35/16 Q1018",
      "taf": "TAF LIRZ 140500Z 1406/1506 VRB05KT CAVOK"
    },
    {
      "icao": "LJLJ",
      "alert": "OK",
      "vis_m": 9999,
      "fzfg": false,
      "metar_trigger": false,
      "taf_trigger": false,
      "metar": "METAR LJLJ 141030Z VRB02KT 9999 FEW040 BKN055 28/18 Q1017 NOSIG",
      "taf": "TAF LJLJ 141100Z 1412/1512 VRB02KT 9999 SCT055"
    },
    {
      "icao": "LKMT",
      "alert": "OK",
      "vis_m": 9999,
      "fzfg": false,
      "metar_trigger": false,
      "taf_trigger": false,
      "metar": "METAR LKMT 141100Z 02009KT 340V050 9999 SCT045 28/17 Q1018 NOSIG",
      "taf": "TAF LKMT 140500Z 1406/1506 02008KT CAVOK"
    },
    {
      "icao": "LKPR",
      "alert": "OK",
      "vis_m": 9999,
      "fzfg": false,
      "metar_trigger": false,
      "taf_trigger": false,
      "metar": "METAR LKPR 141100Z 01010KT 350V060 9999 FEW035 25/16 Q1019 NOSIG",
      "taf": "TAF LKPR 140800Z 1409/1515 06005KT CAVOK"
    },
    {
      "icao": "LLBG",
      "alert": "OK",
      "vis_m": 9999,
      "fzfg": false,
      "metar_trigger": false,
      "taf_trigger": false,
      "metar": "METAR LLBG 141050Z 29011KT CAVOK 31/20 Q1007 NOSIG",
      "taf": "TAF LLBG 141101Z 1412/1512 28010KT CAVOK TX31/1412Z TN23/1503Z"
    },
    {
      "icao": "LMML",
      "alert": "OK",
      "vis_m": 9999,
      "fzfg": false,
      "metar_trigger": false,
      "taf_trigger": false,
      "metar": "METAR LMML 141045Z VRB06KT CAVOK 34/17 Q1019 NOSIG",
      "taf": "TAF LMML 140500Z 1406/1506 30008KT 9999 FEW015"
    },
    {
      "icao": "LOWW",
      "alert": "OK",
      "vis_m": 9999,
      "fzfg": false,
      "metar_trigger": false,
      "taf_trigger": false,
      "metar": "METAR LOWW 141050Z 13007KT 080V190 CAVOK 30/13 Q1017 NOSIG",
      "taf": "TAF LOWW 140819Z 1409/1515 11010KT CAVOK TX31/1414Z TN19/1504Z"
    },
    {
      "icao": "LPFR",
      "alert": "OK",
      "vis_m": 9999,
      "fzfg": false,
      "metar_trigger": false,
      "taf_trigger": false,
      "metar": "METAR LPFR 141030Z 24009KT 9999 FEW040 23/17 Q1017",
      "taf": "TAF LPFR 140500Z 1406/1506 VRB02KT CAVOK"
    },
    {
      "icao": "LPMA",
      "alert": "OK",
      "vis_m": 9999,
      "fzfg": false,
      "metar_trigger": false,
      "taf_trigger": false,
      "metar": "METAR LPMA 141030Z 17007KT 110V210 9999 SCT015 24/20 Q1018",
      "taf": "TAF LPMA 140500Z 1406/1506 VRB05KT 9999 SCT015"
    },
    {
      "icao": "LPPR",
      "alert": "OK",
      "vis_m": 9999,
      "fzfg": false,
      "metar_trigger": false,
      "taf_trigger": false,
      "metar": "METAR LPPR 141030Z VRB05KT CAVOK 23/15 Q1017",
      "taf": "TAF LPPR 140500Z 1406/1506 VRB02KT 9999 SCT020"
    },
    {
      "icao": "LPPS",
      "alert": "OK",
      "vis_m": 9999,
      "fzfg": false,
      "metar_trigger": false,
      "taf_trigger": false,
      "metar": "METAR LPPS 141030Z VRB03KT 9999 FEW015 25/18 Q1018",
      "taf": "TAF LPPS 140500Z 1406/1512 VRB05KT 9999 FEW015 SCT030"
    },
    {
      "icao": "LPPT",
      "alert": "OK",
      "vis_m": 9999,
      "fzfg": false,
      "metar_trigger": false,
      "taf_trigger": false,
      "metar": "METAR LPPT 141030Z VRB04KT 9999 FEW035 26/15 Q1017 NOSIG",
      "taf": "TAF LPPT 140500Z 1406/1512 VRB02KT 9999 FEW025"
    },
    {
      "icao": "LQBK",
      "alert": "OK",
      "vis_m": 9999,
      "fzfg": false,
      "metar_trigger": false,
      "taf_trigger": false,
      "metar": "METAR LQBK 141030Z 10007KT 050V150 CAVOK 32/12 Q1017 NOSIG",
      "taf": "TAF LQBK 140500Z 1406/1506 04005KT CAVOK TX33/1414Z TN18/1503Z"
    },
    {
      "icao": "LQSA",
      "alert": "OK",
      "vis_m": 9999,
      "fzfg": false,
      "metar_trigger": false,
      "taf_trigger": false,
      "metar": "METAR LQSA 141030Z 33005KT 290V020 CAVOK 28/13 Q1020 NOSIG",
      "taf": "TAF LQSA 140500Z 1406/1506 VRB02KT CAVOK TX31/1413Z TN15/1504Z"
    },
    {
      "icao": "LQTZ",
      "alert": "OK",
      "vis_m": 9999,
      "fzfg": false,
      "metar_trigger": false,
      "taf_trigger": false,
      "metar": "METAR LQTZ 141030Z VRB04KT CAVOK 30/13 Q1019",
      "taf": "TAF LQTZ 140500Z 1406/1506 VRB02KT 9999 SCT050 TX33/1414Z TN16/1503Z"
    },
    {
      "icao": "LRBC",
      "alert": "OK",
      "vis_m": 9999,
      "fzfg": false,
      "metar_trigger": false,
      "taf_trigger": false,
      "metar": "METAR LRBC 141030Z 34015KT 9999 FEW022 SCT032 26/18 Q1015",
      "taf": "TAF LRBC 140800Z 1409/1418 34010KT 9999 BKN025 BKN040"
    },
    {
      "icao": "LRBS",
      "alert": "OK",
      "vis_m": 9999,
      "fzfg": false,
      "metar_trigger": false,
      "taf_trigger": false,
      "metar": "METAR LRBS 141030Z VRB05KT CAVOK 29/15 Q1015 NOSIG",
      "taf": "TAF LRBS 140500Z 1406/1506 28006KT CAVOK"
    },
    {
      "icao": "LRBV",
      "alert": "OK",
      "vis_m": 9999,
      "fzfg": false,
      "metar_trigger": false,
      "taf_trigger": false,
      "metar": "METAR LRBV 141030Z 28011KT 240V320 9999 SCT036 BKN047 22/14 Q1018",
      "taf": "TAF LRBV 140800Z 1409/1418 32010KT 9999 BKN045"
    },
    {
      "icao": "LRCL",
      "alert": "OK",
      "vis_m": 9999,
      "fzfg": false,
      "metar_trigger": false,
      "taf_trigger": false,
      "metar": "METAR LRCL 141030Z 32006KT 260V020 9999 SCT036 28/16 Q1017",
      "taf": "TAF LRCL 140800Z 1409/1418 30008KT CAVOK"
    },
    {
      "icao": "LRCV",
      "alert": "OK",
      "vis_m": 9999,
      "fzfg": false,
      "metar_trigger": false,
      "taf_trigger": false,
      "metar": "METAR LRCV 141030Z 27008G18KT 240V350 CAVOK 29/14 Q1016",
      "taf": "TAF LRCV 140800Z 1409/1418 30008KT CAVOK"
    },
    {
      "icao": "LRIA",
      "alert": "OK",
      "vis_m": 9999,
      "fzfg": false,
      "metar_trigger": false,
      "taf_trigger": false,
      "metar": "METAR LRIA 141030Z 32011KT 9999 BKN019 24/18 Q1015",
      "taf": "TAF LRIA 140800Z 1409/1418 33010KT 9999 BKN035"
    },
    {
      "icao": "LROP",
      "alert": "OK",
      "vis_m": 9999,
      "fzfg": false,
      "metar_trigger": false,
      "taf_trigger": false,
      "metar": "METAR LROP 141030Z 30008KT 260V330 CAVOK 29/13 Q1015 NOSIG",
      "taf": "TAF LROP 140500Z 1406/1506 28006KT CAVOK"
    },
    {
      "icao": "LRSB",
      "alert": "OK",
      "vis_m": 9999,
      "fzfg": false,
      "metar_trigger": false,
      "taf_trigger": false,
      "metar": "METAR LRSB 141030Z 35007KT 330V030 9999 FEW050 25/15 Q1018",
      "taf": "TAF LRSB 140500Z 1406/1506 VRB04KT CAVOK"
    },
    {
      "icao": "LRSM",
      "alert": "OK",
      "vis_m": 9999,
      "fzfg": false,
      "metar_trigger": false,
      "taf_trigger": false,
      "metar": "METAR LRSM 141030Z VRB04KT 9999 SCT041 28/17 Q1017",
      "taf": "TAF LRSM 140800Z 1409/1418 VRB04KT CAVOK"
    },
    {
      "icao": "LRSV",
      "alert": "OK",
      "vis_m": 9999,
      "fzfg": false,
      "metar_trigger": false,
      "taf_trigger": false,
      "metar": "METAR LRSV 141030Z 33013KT 300V360 9999 SCT048 25/19 Q1016",
      "taf": "TAF LRSV 140800Z 1409/1418 32010KT 9999 SCT040"
    },
    {
      "icao": "LRTM",
      "alert": "OK",
      "vis_m": 9999,
      "fzfg": false,
      "metar_trigger": false,
      "taf_trigger": false,
      "metar": "METAR LRTM 141030Z 33006KT 280V010 9999 SCT037 26/19 Q1017",
      "taf": "TAF LRTM 140800Z 1409/1418 30008KT CAVOK"
    },
    {
      "icao": "LRTR",
      "alert": "OK",
      "vis_m": 9999,
      "fzfg": false,
      "metar_trigger": false,
      "taf_trigger": false,
      "metar": "METAR LRTR 141030Z VRB07KT 9999 FEW046 30/15 Q1017",
      "taf": "TAF LRTR 140500Z 1406/1506 35006KT CAVOK"
    },
    {
      "icao": "LTAC",
      "alert": "OK",
      "vis_m": 9999,
      "fzfg": false,
      "metar_trigger": false,
      "taf_trigger": false,
      "metar": "METAR LTAC 141050Z 28010KT 230V320 9999 SCT040 SCT100 28/10 Q1013 NOSIG RMK RWY21C VRB06KT RWY03L 29008KT 230V320 RWY21R 28006KT 200V310 RWY03R 27010KT 200V310 RWY21L 31012KT",
      "taf": "TAF LTAC 141040Z 1412/1512 VRB02KT 9999 SCT040 SCT100"
    },
    {
      "icao": "LTFM",
      "alert": "OK",
      "vis_m": 9999,
      "fzfg": false,
      "metar_trigger": false,
      "taf_trigger": false,
      "metar": "METAR LTFM 141050Z 35016KT 320V020 9999 BKN025 25/17 Q1015 NOSIG RMK RWY17L 34015KT 310V010 RWY34L 35016KT RWY16R 35014KT RWY36 36016KT 310V020 RWY18 36014KT",
      "taf": "TAF LTFM 141040Z 1412/1518 35015KT 9999 SCT025"
    },
    {
      "icao": "LUKK",
      "alert": "OK",
      "vis_m": 9999,
      "fzfg": false,
      "metar_trigger": false,
      "taf_trigger": false,
      "metar": "METAR LUKK 141030Z VRB05KT 9999 SCT028 BKN033 25/17 Q1014 NOSIG",
      "taf": "TAF LUKK 141054Z 1412/1512 33009KT 9999 SCT040"
    },
    {
      "icao": "LWOH",
      "alert": "OK",
      "vis_m": 9999,
      "fzfg": false,
      "metar_trigger": false,
      "taf_trigger": false,
      "metar": "METAR LWOH 141050Z 15009KT 9999 FEW040 25/17 Q1020",
      "taf": "TAF LWOH 140825Z 1409/1509 33006KT 9999 FEW040"
    },
    {
      "icao": "LWSK",
      "alert": "OK",
      "vis_m": 9999,
      "fzfg": false,
      "metar_trigger": false,
      "taf_trigger": false,
      "metar": "METAR LWSK 141050Z VRB06KT 9999 SCT055 29/14 Q1018 NOSIG",
      "taf": "TAF LWSK 140825Z 1409/1509 34010KT 9999 FEW060"
    },
    {
      "icao": "LYBE",
      "alert": "OK",
      "vis_m": 9999,
      "fzfg": false,
      "metar_trigger": false,
      "taf_trigger": false,
      "metar": "METAR LYBE 141030Z VRB05KT CAVOK 28/14 Q1019 NOSIG",
      "taf": "TAF LYBE 140500Z 1406/1506 34004KT CAVOK TX31/1414Z TN20/1503Z"
    },
    {
      "icao": "LYNI",
      "alert": "OK",
      "vis_m": 9999,
      "fzfg": false,
      "metar_trigger": false,
      "taf_trigger": false,
      "metar": "METAR LYNI 141030Z 32010KT 260V360 9999 FEW040 29/12 Q1018 NOSIG",
      "taf": "TAF LYNI 140500Z 1406/1506 33006KT CAVOK TX30/1414Z TN15/1503Z"
    },
    {
      "icao": "LYPG",
      "alert": "OK",
      "vis_m": 9999,
      "fzfg": false,
      "metar_trigger": false,
      "taf_trigger": false,
      "metar": "METAR LYPG 141030Z 18006KT 130V220 9999 FEW050 33/14 Q1016 NOSIG",
      "taf": "TAF LYPG 140500Z 1406/1506 18008KT CAVOK TX36/1415Z TN23/1503Z"
    },
    {
      "icao": "LZIB",
      "alert": "OK",
      "vis_m": 9999,
      "fzfg": false,
      "metar_trigger": false,
      "taf_trigger": false,
      "metar": "METAR LZIB 141100Z 08005KT 360V110 CAVOK 30/13 Q1016 NOSIG",
      "taf": ""
    },
    {
      "icao": "LZKZ",
      "alert": "OK",
      "vis_m": 9999,
      "fzfg": false,
      "metar_trigger": false,
      "taf_trigger": false,
      "metar": "METAR LZKZ 141100Z 02010KT 340V050 9999 SCT043 28/17 Q1017 NOSIG",
      "taf": ""
    },
    {
      "icao": "LZTT",
      "alert": "OK",
      "vis_m": 9999,
      "fzfg": false,
      "metar_trigger": false,
      "taf_trigger": false,
      "metar": "METAR LZTT 141100Z 06007KT 010V140 9999 BKN036 26/14 Q1020 NOSIG",
      "taf": ""
    },
    {
      "icao": "OEJN",
      "alert": "OK",
      "vis_m": 9999,
      "fzfg": false,
      "metar_trigger": false,
      "taf_trigger": false,
      "metar": "METAR OEJN 141100Z 29010KT CAVOK 36/19 Q1003 NOSIG",
      "taf": "TAF OEJN 140500Z 1406/1512 32012KT CAVOK"
    },
    {
      "icao": "OEMA",
      "alert": "OK",
      "vis_m": 9999,
      "fzfg": false,
      "metar_trigger": false,
      "taf_trigger": false,
      "metar": "METAR OEMA 141100Z 12007KT CAVOK 44/M04 Q1007 NOSIG",
      "taf": "TAF OEMA 140500Z 1406/1512 28012KT 9999 FEW045"
    },
    {
      "icao": "OJAI",
      "alert": "OK",
      "vis_m": 5000,
      "fzfg": false,
      "metar_trigger": false,
      "taf_trigger": false,
      "metar": "METAR OJAI 141000Z 27006KT 5000 HZ NSC 33/09 Q1011 NOSIG",
      "taf": "TAF OJAI 140943Z 1412/1518 30008KT 5000 HZ NSC"
    },
    {
      "icao": "OMAA",
      "alert": "OK",
      "vis_m": 9999,
      "fzfg": false,
      "metar_trigger": false,
      "taf_trigger": false,
      "metar": "METAR OMAA 141100Z 31004KT 260V010 CAVOK 43/17 Q0995 NOSIG",
      "taf": "TAF OMAA 141100Z 1412/1518 30010KT 8000 NSC"
    },
    {
      "icao": "OMDB",
      "alert": "OK",
      "vis_m": 9000,
      "fzfg": false,
      "metar_trigger": false,
      "taf_trigger": false,
      "metar": "METAR OMDB 141100Z 35012KT 9000 NSC 40/25 Q0996 NOSIG",
      "taf": "TAF OMDB 141100Z 1412/1518 34010KT 8000 NSC"
    },
    {
      "icao": "UAAA",
      "alert": "OK",
      "vis_m": 9999,
      "fzfg": false,
      "metar_trigger": false,
      "taf_trigger": false,
      "metar": "METAR UAAA 141030Z 05003MPS 020V080 9999 FEW050CB BKN100 33/11 Q1009 NOSIG",
      "taf": "TAF UAAA 140502Z 1406/1506 34003MPS 9999 SCT050CB BKN100 TX33/1410Z TN20/1501Z"
    },
    {
      "icao": "UBBB",
      "alert": "OK",
      "vis_m": 9999,
      "fzfg": false,
      "metar_trigger": false,
      "taf_trigger": false,
      "metar": "METAR UBBB 141100Z 03010KT 360V070 CAVOK 32/17 Q1006 NOSIG",
      "taf": "TAF UBBB 141048Z 1412/1512 02008KT CAVOK TX32/1412Z TN24/1501Z"
    },
    {
      "icao": "UDSG",
      "alert": "OK",
      "vis_m": 9999,
      "fzfg": false,
      "metar_trigger": false,
      "taf_trigger": false,
      "metar": "METAR UDSG 141030Z 36007KT 9999 FEW049 29/16 Q1013 NOSIG",
      "taf": "TAF UDSG 140458Z 1406/1506 36008KT 9999 FEW050"
    },
    {
      "icao": "UDYZ",
      "alert": "OK",
      "vis_m": 9999,
      "fzfg": false,
      "metar_trigger": false,
      "taf_trigger": false,
      "metar": "METAR UDYZ 141030Z 19006KT 9999 FEW046 35/15 Q1006 NOSIG",
      "taf": "TAF UDYZ 140500Z 1406/1506 16006KT 9999 FEW040"
    },
    {
      "icao": "UGKO",
      "alert": "OK",
      "vis_m": 9999,
      "fzfg": false,
      "metar_trigger": false,
      "taf_trigger": false,
      "metar": "METAR UGKO 141030Z 30005KT 9999 SCT025 OVC041 23/20 Q1009 NOSIG",
      "taf": "TAF UGKO 140500Z 1406/1506 25007KT 9999 SCT015 OVC030 TX26/1411Z TN20/1502Z"
    }
  ]
}