{
  "ts_utc": "2026-01-01T08:15:55Z",
  "threshold_m": 150,
  "source": "stations_override.txt (ICAO list) + aviationweather.gov (METAR/TAF raw)",
  "station_count": 159,
  "stations": [
    {
      "icao": "BIKF",
      "alert": "OK",
      "vis_m": 9999,
      "fzfg": false,
      "metar_trigger": false,
      "taf_trigger": false,
      "metar": "METAR BIKF 010800Z 30007KT 280V050 9999 BKN020 04/01 Q1020",
      "taf": "TAF BIKF 010731Z 0109/0209 28008KT 9999 SCT020 TX04/0110Z TNM05/0206Z"
    },
    {
      "icao": "BKPR",
      "alert": "OK",
      "vis_m": 9999,
      "fzfg": false,
      "metar_trigger": false,
      "taf_trigger": false,
      "metar": "METAR BKPR 010800Z 13003KT 9999 SCT080 M06/M12 Q1020 NOSIG",
      "taf": "TAF BKPR 010530Z 0106/0206 25009KT CAVOK"
    },
    {
      "icao": "EBCI",
      "alert": "OK",
      "vis_m": 9999,
      "fzfg": false,
      "metar_trigger": false,
      "taf_trigger": false,
      "metar": "METAR EBCI 010750Z 23016KT 9999 -RASN OVC011 02/M00 Q1011 TEMPO BKN009",
      "taf": "TAF EBCI 010511Z 0106/0212 25012KT 7000 SCT012 BKN018"
    },
    {
      "icao": "EDDB",
      "alert": "OK",
      "vis_m": 9999,
      "fzfg": false,
      "metar_trigger": false,
      "taf_trigger": false,
      "metar": "METAR EDDB 010750Z AUTO 24020KT 9999 FEW027 OVC035 02/M01 Q1001 TEMPO 23020G30KT",
      "taf": "TAF EDDB 010500Z 0106/0206 26015G25KT 9999 BKN015"
    },
    {
      "icao": "EDDH",
      "alert": "OK",
      "vis_m": 9999,
      "fzfg": false,
      "metar_trigger": false,
      "taf_trigger": false,
      "metar": "METAR EDDH 010750Z AUTO 24019G30KT 9999 OVC013 04/01 Q0996 NOSIG",
      "taf": "TAF EDDH 010500Z 0106/0212 25015G25KT 9999 BKN015"
    },
    {
      "icao": "EDDK",
      "alert": "OK",
      "vis_m": 9999,
      "fzfg": false,
      "metar_trigger": false,
      "taf_trigger": false,
      "metar": "METAR EDDK 010750Z AUTO 24016KT 9999 OVC022 03/M01 Q1009 TEMPO 25015G25KT",
      "taf": "TAF EDDK 010500Z 0106/0212 25013KT 9999 BKN025"
    },
    {
      "icao": "EDDN",
      "alert": "OK",
      "vis_m": 9999,
      "fzfg": false,
      "metar_trigger": false,
      "taf_trigger": false,
      "metar": "METAR EDDN 010750Z AUTO 24009KT 9999 OVC019 M00/M04 Q1011 NOSIG",
      "taf": "TAF EDDN 010500Z 0106/0206 24008KT 9999 SCT015 BKN020"
    },
    {
      "icao": "EDDS",
      "alert": "OK",
      "vis_m": 9999,
      "fzfg": false,
      "metar_trigger": false,
      "taf_trigger": false,
      "metar": "METAR EDDS 010750Z AUTO VRB02KT CAVOK M04/M08 Q1012 NOSIG",
      "taf": "TAF EDDS 010500Z 0106/0206 VRB03KT 9999 SCT025"
    },
    {
      "icao": "EDFH",
      "alert": "OK",
      "vis_m": 9999,
      "fzfg": false,
      "metar_trigger": false,
      "taf_trigger": false,
      "metar": "METAR EDFH 010750Z 26017G27KT 230V290 9999 OVC009 M01/M03 Q1009",
      "taf": "TAF EDFH 010500Z 0106/0206 26015G25KT 9999 BKN007"
    },
    {
      "icao": "EDJA",
      "alert": "OK",
      "vis_m": 9999,
      "fzfg": false,
      "metar_trigger": false,
      "taf_trigger": false,
      "metar": "METAR EDJA 010750Z 22007KT CAVOK M06/M09 Q1013",
      "taf": "TAF EDJA 010500Z 0106/0115 24007KT CAVOK"
    },
    {
      "icao": "EDLW",
      "alert": "OK",
      "vis_m": 9999,
      "fzfg": false,
      "metar_trigger": false,
      "taf_trigger": false,
      "metar": "METAR EDLW 010750Z COR 23022KT 9999 FEW025 OVC032 02/M02 Q1006",
      "taf": "TAF EDLW 010500Z 0106/0206 23015G25KT 9999 BKN025"
    },
    {
      "icao": "EDNY",
      "alert": "OK",
      "vis_m": 5000,
      "fzfg": false,
      "metar_trigger": false,
      "taf_trigger": false,
      "metar": "METAR EDNY 010750Z 08003KT 5000 BR NSC M10/M11 Q1015",
      "taf": "TAF EDNY 010500Z 0106/0115 24004KT CAVOK"
    },
    {
      "icao": "EDSB",
      "alert": "OK",
      "vis_m": 9000,
      "fzfg": false,
      "metar_trigger": false,
      "taf_trigger": false,
      "metar": "METAR EDSB 010750Z 21010KT 9000 SCT013 M03/M07 Q1016",
      "taf": "TAF EDSB 010500Z 0106/0206 22008KT 9999 SCT030"
    },
    {
      "icao": "EETN",
      "alert": "OK",
      "vis_m": 9999,
      "fzfg": false,
      "metar_trigger": false,
      "taf_trigger": false,
      "metar": "METAR EETN 010750Z 16006KT CAVOK M11/M14 Q0997 NOSIG",
      "taf": "TAF EETN 010530Z 0106/0206 16010KT 9999 SCT030"
    },
    {
      "icao": "EFTU",
      "alert": "OK",
      "vis_m": 9999,
      "fzfg": false,
      "metar_trigger": false,
      "taf_trigger": false,
      "metar": "METAR EFTU 010750Z AUTO 11009KT CAVOK M09/M13 Q0994",
      "taf": "TAF EFTU 010527Z 0106/0206 11008KT CAVOK"
    },
    {
      "icao": "EGBB",
      "alert": "OK",
      "vis_m": 9999,
      "fzfg": false,
      "metar_trigger": false,
      "taf_trigger": false,
      "metar": "METAR EGBB 010750Z 26009KT 230V290 9999 SCT019 04/01 Q1010",
      "taf": "TAF EGBB 010459Z 0106/0206 28010KT 9999 SCT030"
    },
    {
      "icao": "EGGP",
      "alert": "OK",
      "vis_m": 9999,
      "fzfg": false,
      "metar_trigger": false,
      "taf_trigger": false,
      "metar": "METAR EGGP 010750Z 29011KT 9999 -RA FEW016 SCT028 06/03 Q1010",
      "taf": "TAF EGGP 010457Z 0106/0206 26012KT 9999 SCT035"
    },
    {
      "icao": "EGGW",
      "alert": "OK",
      "vis_m": 9999,
      "fzfg": false,
      "metar_trigger": false,
      "taf_trigger": false,
      "metar": "METAR EGGW 010750Z AUTO 27019KT 9999 FEW030 02/M01 Q1009",
      "taf": "TAF EGGW 010502Z 0106/0206 27014KT 9999 SCT030"
    },
    {
      "icao": "EGKK",
      "alert": "OK",
      "vis_m": 9999,
      "fzfg": false,
      "metar_trigger": false,
      "taf_trigger": false,
      "metar": "METAR EGKK 010750Z 24005KT 150V280 CAVOK 01/M01 Q1012",
      "taf": "TAF EGKK 010500Z 0106/0212 26005KT 9999 SCT030"
    },
    {
      "icao": "EGNM",
      "alert": "OK",
      "vis_m": 9999,
      "fzfg": false,
      "metar_trigger": false,
      "taf_trigger": false,
      "metar": "METAR EGNM 010750Z 30012KT 9999 FEW021 03/00 Q1006",
      "taf": "TAF EGNM 010454Z 0106/0206 29015KT 9999 SCT030"
    },
    {
      "icao": "EGPD",
      "alert": "OK",
      "vis_m": 9999,
      "fzfg": false,
      "metar_trigger": false,
      "taf_trigger": false,
      "metar": "METAR EGPD 010750Z AUTO 31014KT 9999 -RA SCT019/// BKN028/// BKN046/// //////CB 02/00 Q1002 TEMPO 4000 SHRASN",
      "taf": "TAF EGPD 010454Z 0106/0206 30016G32KT 9999 SCT015"
    },
    {
      "icao": "EGPF",
      "alert": "OK",
      "vis_m": 9999,
      "fzfg": false,
      "metar_trigger": false,
      "taf_trigger": false,
      "metar": "METAR EGPF 010750Z AUTO 30013KT 9999 NCD 04/M01 Q1008",
      "taf": "TAF EGPF 010457Z 0106/0206 30010KT 9999 FEW035"
    },
    {
      "icao": "EHBK",
      "alert": "OK",
      "vis_m": 9999,
      "fzfg": false,
      "metar_trigger": false,
      "taf_trigger": false,
      "metar": "METAR EHBK 010755Z AUTO 24014KT 200V290 9999 -DZ BKN012 OVC014 02/00 Q1009 NOSIG",
      "taf": "TAF EHBK 010522Z 0106/0212 24015G28KT 9999 BKN018"
    },
    {
      "icao": "EHEH",
      "alert": "OK",
      "vis_m": 9999,
      "fzfg": false,
      "metar_trigger": false,
      "taf_trigger": false,
      "metar": "METAR EHEH 010755Z AUTO 23018KT 200V270 9999 OVC029 03/M01 Q1007 BLU TEMPO 26017G28KT RMK TREND REMOTE BY EHWX",
      "taf": "TAF EHEH 010604Z 0106/0212 24015G28KT 9999 OVC025"
    },
    {
      "icao": "EKBI",
      "alert": "OK",
      "vis_m": 9999,
      "fzfg": false,
      "metar_trigger": false,
      "taf_trigger": false,
      "metar": "METAR EKBI 010750Z 23010KT 9999 -SHRA FEW006 BKN010 SCT020CB 04/03 Q0986",
      "taf": "TAF EKBI 010527Z 0106/0206 25015KT 9999 BKN015"
    },
    {
      "icao": "EKCH",
      "alert": "OK",
      "vis_m": 9999,
      "fzfg": false,
      "metar_trigger": false,
      "taf_trigger": false,
      "metar": "METAR EKCH 010750Z 23021KT 9999 -SHRA BKN010CB 05/03 Q0987 BECMG BKN015",
      "taf": "TAF EKCH 010527Z 0106/0206 23016KT 9999 BKN015"
    },
    {
      "icao": "ENAL",
      "alert": "OK",
      "vis_m": 9999,
      "fzfg": false,
      "metar_trigger": false,
      "taf_trigger": false,
      "metar": "METAR ENAL 010750Z AUTO VRB03KT 9999 -RA FEW007/// SCT020/// BKN037/// 02/01 Q0978",
      "taf": "TAF ENAL 010500Z 0106/0115 20012KT 9999 -SHRA FEW005 SCT010 BKN018"
    },
    {
      "icao": "ENBR",
      "alert": "OK",
      "vis_m": 5000,
      "fzfg": false,
      "metar_trigger": false,
      "taf_trigger": false,
      "metar": "METAR ENBR 010750Z 15007KT 5000 -SHSNRA FEW003 BKN018 ///// Q0979 TEMPO 1200 SHSNRAGS BKN007 RMK WIND 1200FT 24010KT",
      "taf": "TAF ENBR 010500Z 0106/0206 VRB04KT 9999 -SHSNRA FEW005 SCT015TCU BKN018"
    },
    {
      "icao": "ENGM",
      "alert": "OK",
      "vis_m": 9999,
      "fzfg": true,
      "metar_trigger": false,
      "taf_trigger": false,
      "metar": "METAR ENGM 010750Z 01005KT 340V040 9999 FEW013 BKN016 M01/M03 Q0975 TEMPO BKN010",
      "taf": "TAF ENGM 010500Z 0106/0206 36006KT 0350 FZFG VV002"
    },
    {
      "icao": "ENHD",
      "alert": "OK",
      "vis_m": 9999,
      "fzfg": false,
      "metar_trigger": false,
      "taf_trigger": false,
      "metar": "METAR ENHD 010750Z AUTO 30020KT 9999 -RA OVC024/// 04/02 Q0980 RERA",
      "taf": ""
    },
    {
      "icao": "ENTC",
      "alert": "OK",
      "vis_m": 9999,
      "fzfg": false,
      "metar_trigger": false,
      "taf_trigger": false,
      "metar": "METAR ENTC 010750Z 25007KT CAVOK M14/M16 Q0999 NOSIG RMK WIND 2600FT 17007KT",
      "taf": "TAF ENTC 010500Z 0106/0206 24006KT CAVOK"
    },
    {
      "icao": "ENTO",
      "alert": "OK",
      "vis_m": 8000,
      "fzfg": false,
      "metar_trigger": false,
      "taf_trigger": false,
      "metar": "METAR ENTO 010750Z 26006KT 230V290 8000 -SN OVC026 00/00 Q0976 TEMPO 3000 -SN VV010",
      "taf": "TAF ENTO 010500Z 0106/0206 22006KT 9999 FEW008"
    },
    {
      "icao": "ENVA",
      "alert": "OK",
      "vis_m": 9999,
      "fzfg": false,
      "metar_trigger": false,
      "taf_trigger": false,
      "metar": "METAR ENVA 010750Z 06007KT 010V090 CAVOK M02/M06 Q0981 NOSIG RMK WIND 670FT 08014KT",
      "taf": "TAF ENVA 010500Z 0106/0206 07012KT 9999 -SN FEW020 BKN035"
    },
    {
      "icao": "ENZV",
      "alert": "OK",
      "vis_m": 9999,
      "fzfg": false,
      "metar_trigger": false,
      "taf_trigger": false,
      "metar": "METAR ENZV 010750Z VRB03KT 9999 -SHRA FEW010 SCT018 02/01 Q0981 TEMPO 2000 SHSNRAGS VV007",
      "taf": "TAF ENZV 010500Z 0106/0206 31008KT 9999 -SHRA FEW010 SCT015CB BKN025"
    },
    {
      "icao": "EPGD",
      "alert": "OK",
      "vis_m": 9999,
      "fzfg": false,
      "metar_trigger": false,
      "taf_trigger": false,
      "metar": "METAR EPGD 010800Z 21013KT 9999 BKN007 M00/M01 Q0994",
      "taf": "TAF EPGD 010530Z 0106/0206 20012KT 9999 OVC002"
    },
    {
      "icao": "EPKK",
      "alert": "OK",
      "vis_m": 7000,
      "fzfg": false,
      "metar_trigger": false,
      "taf_trigger": false,
      "metar": "METAR EPKK 010800Z 23004KT 7000 -SN OVC012 M01/M02 Q1006",
      "taf": "TAF EPKK 010530Z 0106/0206 24008KT 7000 BKN033"
    },
    {
      "icao": "EPKT",
      "alert": "OK",
      "vis_m": 3700,
      "fzfg": false,
      "metar_trigger": false,
      "taf_trigger": false,
      "metar": "METAR EPKT 010800Z 22012KT 3700 -SN BR FEW005 SCT008 BKN011 M01/M01 Q1005 RESN",
      "taf": "TAF EPKT 010530Z 0106/0206 24007KT 6000 BKN020"
    },
    {
      "icao": "EPLB",
      "alert": "OK",
      "vis_m": 6000,
      "fzfg": false,
      "metar_trigger": false,
      "taf_trigger": false,
      "metar": "METAR EPLB 010800Z 21006KT 180V330 6000 -SN BKN006 OVC024 M03/M03 Q1006",
      "taf": "TAF EPLB 010530Z 0106/0206 18008KT 8000 BKN010 BKN015"
    },
    {
      "icao": "EPMO",
      "alert": "OK",
      "vis_m": 3600,
      "fzfg": false,
      "metar_trigger": false,
      "taf_trigger": false,
      "metar": "METAR EPMO 010800Z 17008KT 3600 BR SCT005 BKN012 M02/M02 Q1002",
      "taf": "TAF EPMO 010530Z 0106/0206 18009KT 5000 -SN BR BKN005 BKN010"
    },
    {
      "icao": "EPPO",
      "alert": "OK",
      "vis_m": 9999,
      "fzfg": false,
      "metar_trigger": false,
      "taf_trigger": false,
      "metar": "METAR EPPO 010800Z 25013KT 9999 OVC014 02/00 Q1001",
      "taf": "TAF EPPO 010530Z 0106/0206 21005KT 1400 -RASN -DZ BR BKN001"
    },
    {
      "icao": "EPRA",
      "alert": "OK",
      "vis_m": 9999,
      "fzfg": false,
      "metar_trigger": false,
      "taf_trigger": false,
      "metar": "METAR EPRA 010800Z 21009KT 9999 SCT025 BKN040 M02/M04 Q1004",
      "taf": "TAF EPRA 010530Z 0106/0115 21010KT 9999 BKN020"
    },
    {
      "icao": "EPRZ",
      "alert": "OK",
      "vis_m": 9999,
      "fzfg": false,
      "metar_trigger": false,
      "taf_trigger": false,
      "metar": "METAR EPRZ 010800Z 21009KT 170V230 9999 OVC016 M03/M06 Q1008",
      "taf": "TAF EPRZ 010530Z 0106/0206 21010KT 9999 OVC015"
    },
    {
      "icao": "EPSC",
      "alert": "OK",
      "vis_m": 9999,
      "fzfg": false,
      "metar_trigger": false,
      "taf_trigger": false,
      "metar": "METAR EPSC 010800Z 21010KT 180V240 9999 OVC009 02/00 Q0997",
      "taf": "TAF EPSC 010530Z 0106/0206 23015KT 9999 BKN007"
    },
    {
      "icao": "EPSY",
      "alert": "OK",
      "vis_m": 1700,
      "fzfg": false,
      "metar_trigger": false,
      "taf_trigger": false,
      "metar": "METAR EPSY 010800Z 18011KT 1700 -SNRA BR OVC002 M03/M04 Q1000",
      "taf": ""
    },
    {
      "icao": "EPWA",
      "alert": "OK",
      "vis_m": 8000,
      "fzfg": false,
      "metar_trigger": false,
      "taf_trigger": false,
      "metar": "METAR EPWA 010800Z 17006KT 8000 BKN007 BKN019 M02/M03 Q1003 TEMPO 4000 -FZRA BR BKN004",
      "taf": "TAF EPWA 010530Z 0106/0206 16006KT 6000 BKN008 BKN010"
    },
    {
      "icao": "EPWR",
      "alert": "OK",
      "vis_m": 9999,
      "fzfg": false,
      "metar_trigger": false,
      "taf_trigger": false,
      "metar": "METAR EPWR 010800Z 26012KT 9999 FEW029 BKN034 02/M01 Q1005",
      "taf": ""
    },
    {
      "icao": "ESGG",
      "alert": "OK",
      "vis_m": 9999,
      "fzfg": false,
      "metar_trigger": false,
      "taf_trigger": false,
      "metar": "METAR ESGG 010750Z 23013KT 9999 SCT006 BKN008 03/02 Q0979",
      "taf": ""
    },
    {
      "icao": "ESKN",
      "alert": "OK",
      "vis_m": 1700,
      "fzfg": false,
      "metar_trigger": false,
      "taf_trigger": false,
      "metar": "METAR ESKN 010750Z 15014KT 1700 -SN SCT003 BKN008 00/00 Q0981",
      "taf": ""
    },
    {
      "icao": "ESMS",
      "alert": "OK",
      "vis_m": 9999,
      "fzfg": false,
      "metar_trigger": false,
      "taf_trigger": false,
      "metar": "METAR ESMS 010750Z 22021KT 9999 OVC005 04/04 Q0987",
      "taf": "TAF ESMS 010527Z 0106/0206 24016KT 9999 SCT008 BKN015"
    },
    {
      "icao": "ESSA",
      "alert": "OK",
      "vis_m": 1400,
      "fzfg": false,
      "metar_trigger": false,
      "taf_trigger": false,
      "metar": "METAR ESSA 010750Z 13015KT 1400 -SN VV013 M01/M02 Q0983 TEMPO 3000",
      "taf": "TAF ESSA 010530Z 0106/0206 13012KT 0700 SN VV006"
    },
    {
      "icao": "EYKA",
      "alert": "OK",
      "vis_m": 9999,
      "fzfg": false,
      "metar_trigger": false,
      "taf_trigger": false,
      "metar": "METAR EYKA 010750Z 21008KT 150V250 CAVOK M08/M14 Q1002",
      "taf": "TAF EYKA 010508Z 0106/0206 18012KT 9000 SCT020"
    },
    {
      "icao": "EYPA",
      "alert": "OK",
      "vis_m": 9999,
      "fzfg": false,
      "metar_trigger": false,
      "taf_trigger": false,
      "metar": "METAR EYPA 010750Z 16013KT 9999 OVC007 M05/M07 Q0996",
      "taf": ""
    },
    {
      "icao": "EYVI",
      "alert": "OK",
      "vis_m": 9999,
      "fzfg": false,
      "metar_trigger": false,
      "taf_trigger": false,
      "metar": "METAR EYVI 010750Z 17010KT CAVOK M15/M17 Q1003 NOSIG",
      "taf": "TAF EYVI 010500Z 0106/0206 18010KT 9000 NSC"
    },
    {
      "icao": "GCFV",
      "alert": "OK",
      "vis_m": 9999,
      "fzfg": false,
      "metar_trigger": false,
      "taf_trigger": false,
      "metar": "METAR GCFV 010800Z 22006KT CAVOK 14/10 Q1012",
      "taf": "TAF GCFV 010200Z 0103/0203 23005KT 9999 FEW015 TX21/0114Z TN15/0106Z"
    },
    {
      "icao": "GCLP",
      "alert": "OK",
      "vis_m": 9999,
      "fzfg": false,
      "metar_trigger": false,
      "taf_trigger": false,
      "metar": "METAR GCLP 010800Z 19017KT 9999 FEW025 18/13 Q1011 NOSIG",
      "taf": "TAF GCLP 010200Z 0103/0203 19012KT 9999 SCT025 TX21/0114Z TN16/0106Z"
    },
    {
      "icao": "GCTS",
      "alert": "OK",
      "vis_m": 9999,
      "fzfg": false,
      "metar_trigger": false,
      "taf_trigger": false,
      "metar": "METAR GCTS 010800Z 29009KT 9999 BKN025 18/13 Q1011 NOSIG",
      "taf": "TAF GCTS 010200Z 0103/0203 26014KT 9999 FEW020 TX22/0114Z TN16/0106Z"
    },
    {
      "icao": "GMAD",
      "alert": "OK",
      "vis_m": 9999,
      "fzfg": false,
      "metar_trigger": false,
      "taf_trigger": false,
      "metar": "METAR GMAD 010800Z 06007KT CAVOK 12/11 Q1015 NOSIG",
      "taf": "TAF GMAD 010500Z 0106/0212 06009KT CAVOK"
    },
    {
      "icao": "GMMN",
      "alert": "OK",
      "vis_m": 5000,
      "fzfg": false,
      "metar_trigger": false,
      "taf_trigger": false,
      "metar": "METAR GMMN 010800Z 17004KT 5000 FEW020 SCT200 10/09 Q1015 BECMG 8000",
      "taf": "TAF GMMN 010500Z 0106/0212 15005KT 6000 FEW020"
    },
    {
      "icao": "GMMX",
      "alert": "OK",
      "vis_m": 8000,
      "fzfg": false,
      "metar_trigger": false,
      "taf_trigger": false,
      "metar": "METAR GMMX 010800Z 04003KT 350V080 8000 NSC 10/09 Q1014 NOSIG",
      "taf": "TAF GMMX 010500Z 0106/0212 06006KT 8000 NSC"
    },
    {
      "icao": "HEGN",
      "alert": "OK",
      "vis_m": 9999,
      "fzfg": false,
      "metar_trigger": false,
      "taf_trigger": false,
      "metar": "METAR HEGN 010800Z 30006KT CAVOK 21/02 Q1017 NOSIG",
      "taf": "TAF HEGN 010500Z 0106/0212 27008KT CAVOK"
    },
    {
      "icao": "HEMA",
      "alert": "OK",
      "vis_m": 9999,
      "fzfg": false,
      "metar_trigger": false,
      "taf_trigger": false,
      "metar": "METAR HEMA 010800Z 27007KT CAVOK 24/M01 Q1017 NOSIG",
      "taf": "TAF HEMA 010500Z 0106/0212 25010KT CAVOK"
    },
    {
      "icao": "HESH",
      "alert": "OK",
      "vis_m": 9999,
      "fzfg": false,
      "metar_trigger": false,
      "taf_trigger": false,
      "metar": "METAR HESH 010800Z 19009KT CAVOK 25/04 Q1015 NOSIG",
      "taf": "TAF HESH 010500Z 0106/0212 26008KT CAVOK"
    },
    {
      "icao": "HESX",
      "alert": "OK",
      "vis_m": 9999,
      "fzfg": false,
      "metar_trigger": false,
      "taf_trigger": false,
      "metar": "METAR HESX 010800Z 24006KT CAVOK 14/03 Q1016 NOSIG",
      "taf": "TAF HESX 010500Z 0106/0212 24010KT CAVOK"
    },
    {
      "icao": "LATI",
      "alert": "OK",
      "vis_m": 9999,
      "fzfg": false,
      "metar_trigger": false,
      "taf_trigger": false,
      "metar": "METAR LATI 010750Z VRB02KT CAVOK M01/M09 Q1023 NOSIG",
      "taf": ""
    },
    {
      "icao": "LBPD",
      "alert": "OK",
      "vis_m": 9999,
      "fzfg": false,
      "metar_trigger": false,
      "taf_trigger": false,
      "metar": "METAR LBPD 010800Z AUTO 27013KT 9999 NCD 00/M12 Q1020 NOSIG",
      "taf": "TAF LBPD 010500Z 0106/0206 28016KT CAVOK"
    },
    {
      "icao": "LBSF",
      "alert": "OK",
      "vis_m": 9999,
      "fzfg": false,
      "metar_trigger": false,
      "taf_trigger": false,
      "metar": "METAR LBSF 010800Z 11003KT 060V170 9999 FEW076 M05/M09 Q1019 NOSIG",
      "taf": "TAF LBSF 010500Z 0106/0206 VRB04KT CAVOK"
    },
    {
      "icao": "LBWN",
      "alert": "OK",
      "vis_m": 9999,
      "fzfg": false,
      "metar_trigger": false,
      "taf_trigger": false,
      "metar": "METAR LBWN 010800Z AUTO 30012KT 9999 NCD M02/M08 Q1019 NOSIG",
      "taf": "TAF LBWN 010500Z 0106/0206 27010KT CAVOK"
    },
    {
      "icao": "LCLK",
      "alert": "OK",
      "vis_m": 9999,
      "fzfg": false,
      "metar_trigger": false,
      "taf_trigger": false,
      "metar": "METAR LCLK 010800Z 27004KT 230V300 9999 FEW025 FEW035TCU 18/09 Q1009 NOSIG",
      "taf": "TAF LCLK 010530Z 0106/0206 27010KT 9999 FEW025 SCT050"
    },
    {
      "icao": "LCPH",
      "alert": "OK",
      "vis_m": 9999,
      "fzfg": false,
      "metar_trigger": false,
      "taf_trigger": false,
      "metar": "METAR LCPH 010800Z 32018KT 9999 R29/P2000 R11/0750 FEW020 SCT040 BKN060 16/08 Q1010 NOSIG",
      "taf": "TAF LCPH 010530Z 0106/0206 29020KT 9999 FEW025TCU FEW030CB SCT040"
    },
    {
      "icao": "LEAL",
      "alert": "OK",
      "vis_m": 9999,
      "fzfg": false,
      "metar_trigger": false,
      "taf_trigger": false,
      "metar": "METAR LEAL 010800Z 00000KT 9999 SCT030 09/07 Q1019 NOSIG",
      "taf": "TAF LEAL 010500Z 0106/0206 VRB04KT 9999 BKN040 TX15/0114Z TN07/0106Z"
    },
    {
      "icao": "LEBB",
      "alert": "OK",
      "vis_m": 9999,
      "fzfg": false,
      "metar_trigger": false,
      "taf_trigger": false,
      "metar": "METAR LEBB 010800Z 17007KT 110V230 CAVOK 05/01 Q1016 NOSIG",
      "taf": "TAF LEBB 010500Z 0106/0206 13006KT CAVOK TX13/0114Z TN01/0106Z"
    },
    {
      "icao": "LEBL",
      "alert": "OK",
      "vis_m": 9000,
      "fzfg": false,
      "metar_trigger": false,
      "taf_trigger": false,
      "metar": "METAR LEBL 010800Z 33013KT 9000 FEW020 03/02 Q1019 NOSIG",
      "taf": "TAF LEBL 010500Z 0106/0206 34009KT 9999 SCT020 TX13/0112Z TN02/0106Z"
    },
    {
      "icao": "LECH",
      "alert": "OK",
      "vis_m": 8000,
      "fzfg": false,
      "metar_trigger": false,
      "taf_trigger": false,
      "metar": "METAR LECH 010800Z AUTO VRB01KT 8000 NCD 03/02 Q1019",
      "taf": ""
    },
    {
      "icao": "LEMD",
      "alert": "OK",
      "vis_m": 9000,
      "fzfg": false,
      "metar_trigger": false,
      "taf_trigger": false,
      "metar": "METAR LEMD 010800Z VRB02KT 9000 BKN029 M03/M03 Q1018 NOSIG",
      "taf": "TAF LEMD 010500Z 0106/0212 VRB03KT CAVOK TX06/0115Z TNM03/0108Z"
    },
    {
      "icao": "LEMG",
      "alert": "OK",
      "vis_m": 6000,
      "fzfg": false,
      "metar_trigger": false,
      "taf_trigger": false,
      "metar": "METAR LEMG 010800Z 09008KT 050V120 6000 DZ BKN020 OVC030 13/11 Q1018 RERA NOSIG",
      "taf": "TAF LEMG 010500Z 0106/0206 12008KT 9999 BKN025 TX17/0114Z TN11/0107Z"
    },
    {
      "icao": "LEVC",
      "alert": "OK",
      "vis_m": 9999,
      "fzfg": false,
      "metar_trigger": false,
      "taf_trigger": false,
      "metar": "METAR LEVC 010800Z 28002KT 9999 FEW020 04/03 Q1019 NOSIG",
      "taf": "TAF LEVC 010500Z 0106/0206 VRB04KT 9999 FEW035 TX15/0114Z TN05/0106Z"
    },
    {
      "icao": "LEXJ",
      "alert": "OK",
      "vis_m": 8000,
      "fzfg": false,
      "metar_trigger": false,
      "taf_trigger": false,
      "metar": "METAR LEXJ 010800Z VRB01KT 8000 NSC 01/00 Q1015",
      "taf": ""
    },
    {
      "icao": "LEZG",
      "alert": "OK",
      "vis_m": 4000,
      "fzfg": false,
      "metar_trigger": false,
      "taf_trigger": false,
      "metar": "METAR LEZG 010800Z 08005KT 060V120 4000 BR OVC003 02/02 Q1019 NOSIG",
      "taf": ""
    },
    {
      "icao": "LEZL",
      "alert": "OK",
      "vis_m": 9000,
      "fzfg": false,
      "metar_trigger": false,
      "taf_trigger": false,
      "metar": "METAR LEZL 010800Z 05008KT 9000 BKN029 BKN040 09/08 Q1016 NOSIG",
      "taf": "TAF LEZL 010200Z 0103/0203 02005KT 9999 SCT045 TX16/0114Z TN09/0107Z"
    },
    {
      "icao": "LFBD",
      "alert": "OK",
      "vis_m": 9999,
      "fzfg": true,
      "metar_trigger": false,
      "taf_trigger": false,
      "metar": "METAR LFBD 010800Z AUTO 12006KT 0600 0450 R23/0700N R05/0900D R29/0600N FZFG VV/// M01/M02 Q1017 BECMG CAVOK",
      "taf": "TAF LFBD 010500Z 0106/0212 12005KT 0600 FZFG VV/// TX05/0114Z TNM04/0205Z"
    },
    {
      "icao": "LFLL",
      "alert": "OK",
      "vis_m": 7000,
      "fzfg": false,
      "metar_trigger": false,
      "taf_trigger": false,
      "metar": "METAR LFLL 010800Z 20004KT 7000 NSC M06/M07 Q1018 NOSIG",
      "taf": "TAF LFLL 010500Z 0106/0212 15005KT 7000 NSC"
    },
    {
      "icao": "LFLS",
      "alert": "OK",
      "vis_m": 8000,
      "fzfg": false,
      "metar_trigger": false,
      "taf_trigger": false,
      "metar": "METAR LFLS 010800Z AUTO 09008KT 8000 NSC M06/M07 Q1017 NOSIG",
      "taf": "TAF LFLS 010200Z 0103/0203 VRB03KT CAVOK"
    },
    {
      "icao": "LFMN",
      "alert": "OK",
      "vis_m": 9999,
      "fzfg": false,
      "metar_trigger": false,
      "taf_trigger": false,
      "metar": "METAR LFMN 010800Z 33013KT 9999 FEW040 SCT060 04/M01 Q1017 NOSIG",
      "taf": "TAF LFMN 010200Z 0103/0209 33010KT 9999 FEW045"
    },
    {
      "icao": "LFOB",
      "alert": "OK",
      "vis_m": 9999,
      "fzfg": false,
      "metar_trigger": false,
      "taf_trigger": false,
      "metar": "METAR LFOB 010800Z AUTO 22009KT 9999 OVC033 02/M01 Q1014 TEMPO 4000 -RADZ BKN014",
      "taf": "TAF LFOB 010500Z 0106/0206 24009KT 9999 BKN020"
    },
    {
      "icao": "LFPO",
      "alert": "OK",
      "vis_m": 7000,
      "fzfg": false,
      "metar_trigger": false,
      "taf_trigger": false,
      "metar": "METAR LFPO 010800Z AUTO 24005KT 7000 OVC024 M02/M02 Q1017",
      "taf": ""
    },
    {
      "icao": "LFSB",
      "alert": "OK",
      "vis_m": 9999,
      "fzfg": false,
      "metar_trigger": false,
      "taf_trigger": false,
      "metar": "METAR LFSB 010800Z AUTO 17006KT CAVOK M06/M09 Q1017 NOSIG",
      "taf": "TAF LFSB 010500Z 0106/0206 18005KT CAVOK"
    },
    {
      "icao": "LGAV",
      "alert": "OK",
      "vis_m": 9999,
      "fzfg": false,
      "metar_trigger": false,
      "taf_trigger": false,
      "metar": "METAR LGAV 010750Z 01014KT 9999 FEW025 05/M06 Q1022 NOSIG",
      "taf": "TAF LGAV 010500Z 0106/0206 36014KT 9999 FEW020 SCT070"
    },
    {
      "icao": "LGTS",
      "alert": "OK",
      "vis_m": 9999,
      "fzfg": false,
      "metar_trigger": false,
      "taf_trigger": false,
      "metar": "METAR LGTS 010750Z 36006KT CAVOK 02/M11 Q1024 NOSIG",
      "taf": "TAF LGTS 010500Z 0106/0206 34015KT 9999 FEW030"
    },
    {
      "icao": "LHBP",
      "alert": "OK",
      "vis_m": 9999,
      "fzfg": false,
      "metar_trigger": false,
      "taf_trigger": false,
      "metar": "METAR LHBP 010800Z 19004KT 160V240 9999 -SN OVC030 00/M02 Q1014 NOSIG",
      "taf": "TAF LHBP 010515Z 0106/0206 26009KT 9999 SCT025 BKN070"
    },
    {
      "icao": "LHDC",
      "alert": "OK",
      "vis_m": 9999,
      "fzfg": false,
      "metar_trigger": false,
      "taf_trigger": false,
      "metar": "METAR LHDC 010745Z AUTO 17009KT 9999 BKN008 M02/M04 Q1014 NOSIG",
      "taf": "TAF LHDC 010515Z 0106/0115 19008KT 9999 SCT010 OVC025"
    },
    {
      "icao": "LIBD",
      "alert": "OK",
      "vis_m": 9999,
      "fzfg": false,
      "metar_trigger": false,
      "taf_trigger": false,
      "metar": "METAR LIBD 010750Z 21006KT CAVOK 03/M03 Q1021",
      "taf": "TAF LIBD 010500Z 0106/0206 26007KT 9999 FEW050"
    },
    {
      "icao": "LIBG",
      "alert": "OK",
      "vis_m": 9999,
      "fzfg": false,
      "metar_trigger": false,
      "taf_trigger": false,
      "metar": "METAR LIBG 010750Z VRB02KT CAVOK 01/01 Q1022",
      "taf": "TAF LIBG 010500Z 0107/0115 VRB05KT CAVOK"
    },
    {
      "icao": "LIBP",
      "alert": "OK",
      "vis_m": 9999,
      "fzfg": false,
      "metar_trigger": false,
      "taf_trigger": false,
      "metar": "METAR LIBP 010750Z AUTO 19003KT 170V230 9999 NCD M01/M05 Q1020",
      "taf": "TAF LIBP 010500Z 0106/0206 VRB05KT CAVOK"
    },
    {
      "icao": "LIBR",
      "alert": "OK",
      "vis_m": 9999,
      "fzfg": false,
      "metar_trigger": false,
      "taf_trigger": false,
      "metar": "METAR LIBR 010750Z 05009KT CAVOK 08/M02 Q1022",
      "taf": "TAF LIBR 010500Z 0106/0206 35010KT 9999 FEW030"
    },
    {
      "icao": "LICA",
      "alert": "OK",
      "vis_m": 9999,
      "fzfg": false,
      "metar_trigger": false,
      "taf_trigger": false,
      "metar": "METAR LICA 010750Z AUTO 04014KT 9999 NCD 07/M03 Q1021",
      "taf": "TAF LICA 010500Z 0106/0206 07013KT CAVOK"
    },
    {
      "icao": "LICC",
      "alert": "OK",
      "vis_m": 9999,
      "fzfg": false,
      "metar_trigger": false,
      "taf_trigger": false,
      "metar": "METAR LICC 010750Z 06003KT 360V170 9999 BKN025 10/08 Q1021",
      "taf": "TAF LICC 010500Z 0106/0206 VRB05KT 9999 SCT030"
    },
    {
      "icao": "LICJ",
      "alert": "OK",
      "vis_m": 9999,
      "fzfg": false,
      "metar_trigger": false,
      "taf_trigger": false,
      "metar": "METAR LICJ 010750Z 20005KT CAVOK 09/07 Q1019",
      "taf": "TAF LICJ 010500Z 0106/0206 VRB06KT CAVOK"
    },
    {
      "icao": "LIMC",
      "alert": "OK",
      "vis_m": 8000,
      "fzfg": false,
      "metar_trigger": false,
      "taf_trigger": false,
      "metar": "METAR LIMC 010750Z 36004KT 8000 R35R/P2000N R17L/1100U R35L/P2000N MIFG SCT045 M00/M01 Q1017 NOSIG",
      "taf": "TAF LIMC 010500Z 0106/0212 VRB04KT 9999 SCT040"
    },
    {
      "icao": "LIME",
      "alert": "OK",
      "vis_m": 9999,
      "fzfg": false,
      "metar_trigger": false,
      "taf_trigger": false,
      "metar": "METAR LIME 010750Z 01004KT CAVOK M01/M03 Q1017 NOSIG",
      "taf": "TAF LIME 010500Z 0106/0206 VRB04KT 9999 SCT040"
    },
    {
      "icao": "LIMF",
      "alert": "OK",
      "vis_m": 2500,
      "fzfg": false,
      "metar_trigger": false,
      "taf_trigger": false,
      "metar": "METAR LIMF 010750Z VRB02KT 2500 BR BKN040 01/M01 Q1017",
      "taf": "TAF LIMF 010500Z 0106/0206 VRB04KT 8000 SCT030"
    },
    {
      "icao": "LIMJ",
      "alert": "OK",
      "vis_m": 9999,
      "fzfg": false,
      "metar_trigger": false,
      "taf_trigger": false,
      "metar": "METAR LIMJ 010750Z 14016KT 9999 FEW030 BKN060 11/05 Q1017",
      "taf": "TAF LIMJ 010500Z 0106/0206 14014KT 9999 BKN030"
    },
    {
      "icao": "LIPE",
      "alert": "OK",
      "vis_m": 9999,
      "fzfg": false,
      "metar_trigger": false,
      "taf_trigger": false,
      "metar": "METAR LIPE 010750Z 20004KT CAVOK M01/M04 Q1019",
      "taf": "TAF LIPE 010500Z 0106/0206 VRB05KT CAVOK"
    },
    {
      "icao": "LIPH",
      "alert": "OK",
      "vis_m": 9999,
      "fzfg": false,
      "metar_trigger": false,
      "taf_trigger": false,
      "metar": "METAR LIPH 010750Z 25002KT 9999 BKN040 M01/M04 Q1019",
      "taf": "TAF LIPH 010500Z 0106/0206 VRB04KT CAVOK"
    },
    {
      "icao": "LIPQ",
      "alert": "OK",
      "vis_m": 9999,
      "fzfg": false,
      "metar_trigger": false,
      "taf_trigger": false,
      "metar": "METAR LIPQ 010750Z AUTO 02004KT 9999 BKN054/// M01/M03 Q1019",
      "taf": "TAF LIPQ 010500Z 0106/0206 VRB05KT CAVOK"
    },
    {
      "icao": "LIPR",
      "alert": "OK",
      "vis_m": 9999,
      "fzfg": false,
      "metar_trigger": false,
      "taf_trigger": false,
      "metar": "METAR LIPR 010750Z 28002KT CAVOK M01/M03 Q1019",
      "taf": "TAF LIPR 010500Z 0106/0206 VRB05KT CAVOK"
    },
    {
      "icao": "LIPX",
      "alert": "OK",
      "vis_m": 6000,
      "fzfg": false,
      "metar_trigger": false,
      "taf_trigger": false,
      "metar": "METAR LIPX 010750Z 34003KT 6000 FEW040 M03/M05 Q1018",
      "taf": "TAF LIPX 010500Z 0106/0206 VRB04KT 9999 SCT050"
    },
    {
      "icao": "LIPY",
      "alert": "OK",
      "vis_m": 9999,
      "fzfg": false,
      "metar_trigger": false,
      "taf_trigger": false,
      "metar": "METAR LIPY 010750Z AUTO 18004KT 160V220 9999 NCD 00/M04 Q1019",
      "taf": "TAF LIPY 010500Z 0106/0206 VRB05KT CAVOK"
    },
    {
      "icao": "LIPZ",
      "alert": "OK",
      "vis_m": 9999,
      "fzfg": false,
      "metar_trigger": false,
      "taf_trigger": false,
      "metar": "METAR LIPZ 010750Z 35003KT 320V030 CAVOK M02/M05 Q1019 NOSIG",
      "taf": "TAF LIPZ 010500Z 0106/0212 VRB05KT CAVOK"
    },
    {
      "icao": "LIRF",
      "alert": "OK",
      "vis_m": 9999,
      "fzfg": false,
      "metar_trigger": false,
      "taf_trigger": false,
      "metar": "METAR LIRF 010750Z 08007KT 9999 FEW050 05/M02 Q1020 NOSIG",
      "taf": "TAF LIRF 010500Z 0106/0212 08008KT 9999 FEW040"
    },
    {
      "icao": "LIRN",
      "alert": "OK",
      "vis_m": 9999,
      "fzfg": false,
      "metar_trigger": false,
      "taf_trigger": false,
      "metar": "METAR LIRN 010750Z 34003KT 200V010 CAVOK 02/M06 Q1021 NOSIG",
      "taf": "TAF LIRN 010500Z 0106/0206 VRB06KT CAVOK"
    },
    {
      "icao": "LIRP",
      "alert": "OK",
      "vis_m": 9999,
      "fzfg": false,
      "metar_trigger": false,
      "taf_trigger": false,
      "metar": "METAR LIRP 010745Z 12005KT 9999 BKN050 00/M01 Q1019 NOSIG",
      "taf": "TAF LIRP 010500Z 0106/0206 12007KT CAVOK"
    },
    {
      "icao": "LIRZ",
      "alert": "OK",
      "vis_m": 9999,
      "fzfg": false,
      "metar_trigger": false,
      "taf_trigger": false,
      "metar": "METAR LIRZ 010750Z AUTO 34003KT 270V020 9999 FEW029/// BKN053/// M03/M05 Q1020",
      "taf": "TAF LIRZ 010500Z 0106/0206 VRB03KT 9999 FEW035"
    },
    {
      "icao": "LJLJ",
      "alert": "OK",
      "vis_m": 9999,
      "fzfg": false,
      "metar_trigger": false,
      "taf_trigger": false,
      "metar": "METAR LJLJ 010800Z VRB01KT 9999 FEW039 BKN250 M07/M08 Q1017 NOSIG",
      "taf": "TAF LJLJ 010500Z 0106/0206 VRB02KT CAVOK"
    },
    {
      "icao": "LKMT",
      "alert": "OK",
      "vis_m": 9999,
      "fzfg": false,
      "metar_trigger": false,
      "taf_trigger": false,
      "metar": "METAR LKMT 010800Z 21014KT 9999 BKN021 01/M01 Q1008 NOSIG",
      "taf": "TAF LKMT 010500Z 0106/0206 22010KT 9999 BKN030"
    },
    {
      "icao": "LKPR",
      "alert": "OK",
      "vis_m": 9999,
      "fzfg": false,
      "metar_trigger": false,
      "taf_trigger": false,
      "metar": "METAR LKPR 010800Z 22019KT 9999 BKN021 00/M03 Q1007 NOSIG",
      "taf": "TAF LKPR 010500Z 0106/0212 22018KT 9999 BKN025"
    },
    {
      "icao": "LLBG",
      "alert": "OK",
      "vis_m": 9999,
      "fzfg": false,
      "metar_trigger": false,
      "taf_trigger": false,
      "metar": "METAR LLBG 010750Z 17009KT 9999 SCT030 SCT045 13/09 Q1014 TEMPO 7000 SHRA FEW025TCU",
      "taf": "TAF LLBG 010503Z 0106/0206 19012KT 9999 BKN035"
    },
    {
      "icao": "LMML",
      "alert": "OK",
      "vis_m": 9999,
      "fzfg": false,
      "metar_trigger": false,
      "taf_trigger": false,
      "metar": "METAR LMML 010745Z 08008KT 050V110 9999 FEW016TCU 12/10 Q1019 TEMPO 8000 SHRA",
      "taf": "TAF LMML 010500Z 0106/0206 10012KT 9999 SCT018"
    },
    {
      "icao": "LOWW",
      "alert": "OK",
      "vis_m": 9999,
      "fzfg": false,
      "metar_trigger": false,
      "taf_trigger": false,
      "metar": "METAR LOWW 010750Z 28015KT CAVOK 01/M05 Q1013 NOSIG",
      "taf": "TAF LOWW 010515Z 0106/0212 28012KT 9999 FEW050 TX05/0212Z TNM00/0122Z"
    },
    {
      "icao": "LPFR",
      "alert": "OK",
      "vis_m": 9000,
      "fzfg": false,
      "metar_trigger": false,
      "taf_trigger": false,
      "metar": "METAR LPFR 010800Z 06010KT 9000 SCT006 BKN012 13/11 Q1013",
      "taf": "TAF LPFR 010500Z 0106/0206 07012KT 9999 BKN020"
    },
    {
      "icao": "LPMA",
      "alert": "OK",
      "vis_m": 9999,
      "fzfg": false,
      "metar_trigger": false,
      "taf_trigger": false,
      "metar": "METAR LPMA 010800Z 21028KT 9999 SHRA BKN013 FEW018CB 18/17 Q1003",
      "taf": "TAF LPMA 010500Z 0106/0206 21022KT 9999 BKN015"
    },
    {
      "icao": "LPPR",
      "alert": "OK",
      "vis_m": 9999,
      "fzfg": false,
      "metar_trigger": false,
      "taf_trigger": false,
      "metar": "METAR LPPR 010800Z 10012KT 9999 -RA NSC 07/04 Q1013",
      "taf": "TAF LPPR 010500Z 0106/0206 11013KT CAVOK"
    },
    {
      "icao": "LPPS",
      "alert": "OK",
      "vis_m": 9999,
      "fzfg": false,
      "metar_trigger": false,
      "taf_trigger": false,
      "metar": "METAR LPPS 010800Z 19024KT 9999 BKN013 18/16 Q1003",
      "taf": "TAF LPPS 010500Z 0106/0212 19020KT 9999 SCT012 BKN030"
    },
    {
      "icao": "LPPT",
      "alert": "OK",
      "vis_m": 9999,
      "fzfg": false,
      "metar_trigger": false,
      "taf_trigger": false,
      "metar": "METAR LPPT 010800Z 06008KT 9999 SCT030 07/07 Q1013",
      "taf": "TAF LPPT 010500Z 0106/0212 08005KT 9999 BKN030"
    },
    {
      "icao": "LQBK",
      "alert": "OK",
      "vis_m": 9999,
      "fzfg": false,
      "metar_trigger": false,
      "taf_trigger": false,
      "metar": "METAR LQBK 010800Z 12007KT CAVOK M01/M09 Q1018 NOSIG",
      "taf": "TAF LQBK 010500Z 0106/0206 15005KT CAVOK TX07/0206Z TNM01/0106Z"
    },
    {
      "icao": "LQSA",
      "alert": "OK",
      "vis_m": 9999,
      "fzfg": false,
      "metar_trigger": false,
      "taf_trigger": false,
      "metar": "METAR LQSA 010800Z VRB01KT CAVOK M06/M11 Q1019 NOSIG",
      "taf": "TAF LQSA 010500Z 0106/0206 29005KT 9999 FEW050 TX02/0112Z TNM08/0106Z"
    },
    {
      "icao": "LQTZ",
      "alert": "OK",
      "vis_m": 8000,
      "fzfg": false,
      "metar_trigger": false,
      "taf_trigger": false,
      "metar": "METAR LQTZ 010800Z VRB02KT 8000 NSC M04/M05 Q1018",
      "taf": "TAF LQTZ 010500Z 0106/0206 14005KT CAVOK TX06/0113Z TNM05/0106Z"
    },
    {
      "icao": "LRBC",
      "alert": "OK",
      "vis_m": 9999,
      "fzfg": false,
      "metar_trigger": false,
      "taf_trigger": false,
      "metar": "METAR LRBC 010800Z 22009KT 190V250 9999 FEW060 M05/M17 Q1014",
      "taf": "TAF LRBC 010500Z 0106/0115 25010KT CAVOK"
    },
    {
      "icao": "LRBS",
      "alert": "OK",
      "vis_m": 9999,
      "fzfg": false,
      "metar_trigger": false,
      "taf_trigger": false,
      "metar": "METAR LRBS 010800Z 25005KT CAVOK M03/M10 Q1018 NOSIG",
      "taf": "TAF LRBS 010500Z 0106/0206 VRB04KT CAVOK"
    },
    {
      "icao": "LRBV",
      "alert": "OK",
      "vis_m": 9999,
      "fzfg": false,
      "metar_trigger": false,
      "taf_trigger": false,
      "metar": "METAR LRBV 010800Z COR 23004KT 190V270 9999 FEW025 BKN035 BKN050 M09/M13 Q1014",
      "taf": "TAF LRBV 010500Z 0106/0115 22006KT 9999 SCT025 BKN045"
    },
    {
      "icao": "LRCL",
      "alert": "OK",
      "vis_m": 9999,
      "fzfg": false,
      "metar_trigger": false,
      "taf_trigger": false,
      "metar": "METAR LRCL 010800Z VRB02KT 9999 -SN OVC040 M05/M09 Q1014",
      "taf": "TAF LRCL 010500Z 0106/0115 VRB04KT 9999 BKN050"
    },
    {
      "icao": "LRCV",
      "alert": "OK",
      "vis_m": 9999,
      "fzfg": false,
      "metar_trigger": false,
      "taf_trigger": false,
      "metar": "METAR LRCV 010800Z 27005KT CAVOK M03/M07 Q1018",
      "taf": "TAF LRCV 010500Z 0106/0115 29008KT CAVOK"
    },
    {
      "icao": "LRIA",
      "alert": "OK",
      "vis_m": 9999,
      "fzfg": false,
      "metar_trigger": false,
      "taf_trigger": false,
      "metar": "METAR LRIA 010800Z 22006KT CAVOK M02/M11 Q1013",
      "taf": "TAF LRIA 010500Z 0106/0115 23008KT CAVOK"
    },
    {
      "icao": "LROP",
      "alert": "OK",
      "vis_m": 9999,
      "fzfg": false,
      "metar_trigger": false,
      "taf_trigger": false,
      "metar": "METAR LROP 010800Z 25005KT CAVOK M03/M14 Q1018 NOSIG",
      "taf": "TAF LROP 010500Z 0106/0206 VRB04KT CAVOK"
    },
    {
      "icao": "LRSB",
      "alert": "OK",
      "vis_m": 9999,
      "fzfg": false,
      "metar_trigger": false,
      "taf_trigger": false,
      "metar": "METAR LRSB 010800Z VRB01KT 9999 BKN034 BKN060 M07/M11 Q1014 NOSIG",
      "taf": "TAF LRSB 010500Z 0106/0206 VRB04KT 9999 BKN045"
    },
    {
      "icao": "LRSM",
      "alert": "OK",
      "vis_m": 9999,
      "fzfg": false,
      "metar_trigger": false,
      "taf_trigger": false,
      "metar": "METAR LRSM 010800Z AUTO 21009KT 9999 SCT011/// OVC014/// M02/M04 Q1014",
      "taf": ""
    },
    {
      "icao": "LRSV",
      "alert": "OK",
      "vis_m": 9999,
      "fzfg": false,
      "metar_trigger": false,
      "taf_trigger": false,
      "metar": "METAR LRSV 010800Z 23007KT CAVOK M05/M11 Q1009",
      "taf": "TAF LRSV 010500Z 0106/0115 24010KT CAVOK"
    },
    {
      "icao": "LRTM",
      "alert": "OK",
      "vis_m": 9999,
      "fzfg": false,
      "metar_trigger": false,
      "taf_trigger": false,
      "metar": "METAR LRTM 010800Z 06006KT 9999 -SN FEW017 SCT039 BKN047 M05/M08 Q1015",
      "taf": "TAF LRTM 010500Z 0106/0115 07006KT 9999 BKN050"
    },
    {
      "icao": "LRTR",
      "alert": "OK",
      "vis_m": 9999,
      "fzfg": false,
      "metar_trigger": false,
      "taf_trigger": false,
      "metar": "METAR LRTR 010800Z 18008KT 9999 -SN OVC023 M02/M04 Q1017",
      "taf": "TAF LRTR 010500Z 0106/0206 18012KT 9999 SCT020 OVC030"
    },
    {
      "icao": "LTAC",
      "alert": "OK",
      "vis_m": 9999,
      "fzfg": false,
      "metar_trigger": false,
      "taf_trigger": false,
      "metar": "METAR LTAC 010750Z 31009KT 9999 SCT035 SCT100 M06/M09 Q1008 RESHSN NOSIG RMK RWY21C 30010KT RWY03L 30008KT 270V330 RWY21R 30009KT RWY03R 29008KT RWY21L 30009KT",
      "taf": ""
    },
    {
      "icao": "LTFM",
      "alert": "OK",
      "vis_m": 9999,
      "fzfg": false,
      "metar_trigger": false,
      "taf_trigger": false,
      "metar": "METAR LTFM 010750Z 28012KT 9999 VCSH BKN028 M00/M07 Q1018 NOSIG RMK RWY17L 28014KT RWY34L 28011G22KT 250V330 RWY16R 29011KT RWY36 28011KT RWY18 28014KT",
      "taf": "TAF LTFM 010440Z 0106/0212 31015KT 9999 BKN025"
    },
    {
      "icao": "LUKK",
      "alert": "OK",
      "vis_m": 9999,
      "fzfg": false,
      "metar_trigger": false,
      "taf_trigger": false,
      "metar": "METAR LUKK 010800Z 24006KT 9999 FEW042 M05/M10 Q1014 NOSIG",
      "taf": "TAF LUKK 010516Z 0106/0206 23009KT CAVOK"
    },
    {
      "icao": "LWOH",
      "alert": "OK",
      "vis_m": 9999,
      "fzfg": false,
      "metar_trigger": false,
      "taf_trigger": false,
      "metar": "METAR LWOH 010750Z 33004KT 300V360 CAVOK M06/M12 Q1020",
      "taf": "TAF LWOH 010520Z 0106/0206 33005KT CAVOK"
    },
    {
      "icao": "LWSK",
      "alert": "OK",
      "vis_m": 9999,
      "fzfg": false,
      "metar_trigger": false,
      "taf_trigger": false,
      "metar": "METAR LWSK 010750Z VRB01KT CAVOK M05/M11 Q1023 NOSIG",
      "taf": "TAF LWSK 010520Z 0106/0206 VRB02KT CAVOK"
    },
    {
      "icao": "LYBE",
      "alert": "OK",
      "vis_m": 9999,
      "fzfg": false,
      "metar_trigger": false,
      "taf_trigger": false,
      "metar": "METAR LYBE 010800Z 20007KT 9999 BKN040 00/M09 Q1018 NOSIG",
      "taf": "TAF LYBE 010500Z 0106/0206 19006KT 9999 BKN035 TX06/0112Z TNM02/0106Z"
    },
    {
      "icao": "LYNI",
      "alert": "OK",
      "vis_m": 9999,
      "fzfg": false,
      "metar_trigger": false,
      "taf_trigger": false,
      "metar": "METAR LYNI 010800Z VRB01KT 9999 BKN090 M04/M09 Q1021 NOSIG",
      "taf": "TAF LYNI 010500Z 0106/0206 18005KT 9999 SCT040 TX02/0113Z TNM06/0106Z"
    },
    {
      "icao": "LYPG",
      "alert": "OK",
      "vis_m": 9999,
      "fzfg": false,
      "metar_trigger": false,
      "taf_trigger": false,
      "metar": "METAR LYPG 010800Z VRB01KT CAVOK M01/M13 Q1023 NOSIG",
      "taf": "TAF LYPG 010500Z 0106/0206 36005KT CAVOK TX07/0114Z TNM05/0106Z"
    },
    {
      "icao": "LZIB",
      "alert": "OK",
      "vis_m": 9999,
      "fzfg": false,
      "metar_trigger": false,
      "taf_trigger": false,
      "metar": "METAR LZIB 010800Z 28016KT 9999 FEW022 02/M04 Q1012 NOSIG",
      "taf": "TAF LZIB 010515Z 0106/0206 26015KT 9999 FEW040"
    },
    {
      "icao": "LZKZ",
      "alert": "OK",
      "vis_m": 9999,
      "fzfg": false,
      "metar_trigger": false,
      "taf_trigger": false,
      "metar": "METAR LZKZ 010800Z 23007KT 9999 FEW003 BKN011 M03/M06 Q1011 NOSIG",
      "taf": "TAF LZKZ 010515Z 0106/0206 21005KT 9999 BKN012"
    },
    {
      "icao": "LZTT",
      "alert": "OK",
      "vis_m": 5000,
      "fzfg": false,
      "metar_trigger": false,
      "taf_trigger": false,
      "metar": "METAR LZTT 010800Z VRB02KT 5000 -SN BR OVC016 M06/M08 Q1006 NOSIG",
      "taf": ""
    },
    {
      "icao": "OEJN",
      "alert": "OK",
      "vis_m": 9999,
      "fzfg": false,
      "metar_trigger": false,
      "taf_trigger": false,
      "metar": "METAR OEJN 010800Z 33005KT CAVOK 27/12 Q1017 NOSIG",
      "taf": "TAF OEJN 010500Z 0106/0212 32010KT CAVOK"
    },
    {
      "icao": "OEMA",
      "alert": "OK",
      "vis_m": 9999,
      "fzfg": false,
      "metar_trigger": false,
      "taf_trigger": false,
      "metar": "METAR OEMA 010800Z VRB02KT CAVOK 21/M03 Q1020 NOSIG",
      "taf": "TAF OEMA 010500Z 0106/0212 30010KT CAVOK"
    },
    {
      "icao": "OJAI",
      "alert": "OK",
      "vis_m": 4000,
      "fzfg": false,
      "metar_trigger": false,
      "taf_trigger": false,
      "metar": "METAR OJAI 010800Z 24014KT 4000 HZ NSC 12/03 Q1015 NOSIG",
      "taf": "TAF OJAI 010500Z 0106/0212 24014KT 5000 HZ SCT035"
    },
    {
      "icao": "OMAA",
      "alert": "OK",
      "vis_m": 9999,
      "fzfg": false,
      "metar_trigger": false,
      "taf_trigger": false,
      "metar": "METAR OMAA 010800Z 31009KT 260V350 9999 FEW040 22/11 Q1018 NOSIG",
      "taf": "TAF OMAA 010500Z 0106/0212 22005KT 8000 FEW040"
    },
    {
      "icao": "OMDB",
      "alert": "OK",
      "vis_m": 9999,
      "fzfg": false,
      "metar_trigger": false,
      "taf_trigger": false,
      "metar": "METAR OMDB 010800Z VRB04KT CAVOK 22/09 Q1018 BECMG 30010KT",
      "taf": "TAF OMDB 010500Z 0106/0212 20005KT 8000 NSC"
    },
    {
      "icao": "UAAA",
      "alert": "OK",
      "vis_m": 9999,
      "fzfg": false,
      "metar_trigger": false,
      "taf_trigger": false,
      "metar": "METAR UAAA 010800Z 02003MPS 9999 OVC006 01/00 Q1023 NOSIG RMK QBB200",
      "taf": "TAF UAAA 010501Z 0106/0206 02003MPS 4000 BR BKN011 OVC020 TX02/0109Z TNM03/0202Z"
    },
    {
      "icao": "UBBB",
      "alert": "OK",
      "vis_m": 9999,
      "fzfg": false,
      "metar_trigger": false,
      "taf_trigger": false,
      "metar": "METAR UBBB 010800Z 33022G32KT 9999 BKN019 06/01 Q1012 NOSIG",
      "taf": "TAF UBBB 010459Z 0106/0206 33018G28KT 9999 SCT025 TX07/0110Z TN04/0203Z"
    },
    {
      "icao": "UDSG",
      "alert": "OK",
      "vis_m": 4500,
      "fzfg": false,
      "metar_trigger": false,
      "taf_trigger": false,
      "metar": "METAR UDSG 010800Z 05002KT 4500 -SN BR OVC026 M03/M05 Q1006 NOSIG",
      "taf": "TAF UDSG 010500Z 0106/0206 VRB06KT 2000 BR OVC020"
    },
    {
      "icao": "UDYZ",
      "alert": "OK",
      "vis_m": 3100,
      "fzfg": false,
      "metar_trigger": false,
      "taf_trigger": false,
      "metar": "METAR UDYZ 010800Z VRB02KT 3100 BR FEW010 OVC022 M00/M02 Q1008 NOSIG",
      "taf": "TAF UDYZ 010500Z 0106/0206 VRB06KT 1500 BR BKN020"
    },
    {
      "icao": "UGKO",
      "alert": "OK",
      "vis_m": 9999,
      "fzfg": false,
      "metar_trigger": false,
      "taf_trigger": false,
      "metar": "METAR UGKO 010800Z 08005KT 9999 SCT017 BKN043 02/01 Q1009 NOSIG",
      "taf": "TAF UGKO 010500Z 0106/0206 26007KT 9999 SCT015 OVC040 TX02/0111Z TNM03/0204Z"
    }
  ]
}