{
  "ts_utc": "2026-06-08T06:40:24Z",
  "threshold_m": 150,
  "source": "stations_override.txt (ICAO list) + aviationweather.gov (METAR/TAF raw)",
  "station_count": 159,
  "stations": [
    {
      "icao": "BIKF",
      "alert": "OK",
      "vis_m": 9999,
      "fzfg": false,
      "metar_trigger": false,
      "taf_trigger": false,
      "metar": "METAR BIKF 080630Z 33008KT 9999 SCT006 OVC025 09/08 Q0992",
      "taf": "TAF BIKF 080443Z 0806/0906 34010KT 9999 BKN020 TX11/0815Z TN08/0806Z"
    },
    {
      "icao": "BKPR",
      "alert": "OK",
      "vis_m": 9999,
      "fzfg": false,
      "metar_trigger": false,
      "taf_trigger": false,
      "metar": "METAR BKPR 080630Z VRB02KT CAVOK 21/15 Q1022 NOSIG",
      "taf": "TAF BKPR 080530Z 0806/0906 02008KT 9999 FEW050"
    },
    {
      "icao": "EBCI",
      "alert": "OK",
      "vis_m": 9999,
      "fzfg": false,
      "metar_trigger": false,
      "taf_trigger": false,
      "metar": "METAR EBCI 080620Z 16004KT CAVOK 14/10 Q1017 NOSIG",
      "taf": "TAF EBCI 080500Z 0806/0912 17008KT 9999 FEW030 SCT045"
    },
    {
      "icao": "EDDB",
      "alert": "OK",
      "vis_m": 9999,
      "fzfg": false,
      "metar_trigger": false,
      "taf_trigger": false,
      "metar": "METAR EDDB 080620Z AUTO VRB03KT CAVOK 18/12 Q1021 NOSIG",
      "taf": "TAF EDDB 080500Z 0806/0906 26005KT CAVOK"
    },
    {
      "icao": "EDDH",
      "alert": "OK",
      "vis_m": 9999,
      "fzfg": false,
      "metar_trigger": false,
      "taf_trigger": false,
      "metar": "METAR EDDH 080620Z AUTO 16007KT CAVOK 16/13 Q1019 NOSIG",
      "taf": "TAF EDDH 080500Z 0806/0912 VRB03KT 9999 SCT040"
    },
    {
      "icao": "EDDK",
      "alert": "OK",
      "vis_m": 9999,
      "fzfg": false,
      "metar_trigger": false,
      "taf_trigger": false,
      "metar": "METAR EDDK 080620Z AUTO 13004KT 100V180 CAVOK 16/11 Q1018 NOSIG",
      "taf": "TAF EDDK 080500Z 0806/0912 VRB03KT CAVOK"
    },
    {
      "icao": "EDDN",
      "alert": "OK",
      "vis_m": 9999,
      "fzfg": false,
      "metar_trigger": false,
      "taf_trigger": false,
      "metar": "METAR EDDN 080620Z AUTO 09003KT 040V130 CAVOK 16/10 Q1020 NOSIG",
      "taf": "TAF EDDN 080500Z 0806/0906 VRB03KT CAVOK"
    },
    {
      "icao": "EDDS",
      "alert": "OK",
      "vis_m": 9999,
      "fzfg": false,
      "metar_trigger": false,
      "taf_trigger": false,
      "metar": "METAR EDDS 080620Z AUTO VRB02KT CAVOK 16/10 Q1020 NOSIG",
      "taf": "TAF EDDS 080500Z 0806/0906 VRB03KT CAVOK"
    },
    {
      "icao": "EDFH",
      "alert": "OK",
      "vis_m": 9999,
      "fzfg": false,
      "metar_trigger": false,
      "taf_trigger": false,
      "metar": "METAR EDFH 080620Z 14007KT CAVOK 15/09 Q1019",
      "taf": "TAF EDFH 080500Z 0806/0906 15007KT CAVOK"
    },
    {
      "icao": "EDJA",
      "alert": "OK",
      "vis_m": 9999,
      "fzfg": false,
      "metar_trigger": false,
      "taf_trigger": false,
      "metar": "METAR EDJA 080620Z 21004KT 170V240 CAVOK 16/12 Q1020",
      "taf": "TAF EDJA 080500Z 0806/0815 22004KT CAVOK"
    },
    {
      "icao": "EDLW",
      "alert": "OK",
      "vis_m": 9999,
      "fzfg": false,
      "metar_trigger": false,
      "taf_trigger": false,
      "metar": "METAR EDLW 080620Z COR 13005KT 100V160 CAVOK 16/10 Q1018",
      "taf": "TAF EDLW 080500Z 0806/0906 15005KT CAVOK"
    },
    {
      "icao": "EDNY",
      "alert": "OK",
      "vis_m": 9999,
      "fzfg": false,
      "metar_trigger": false,
      "taf_trigger": false,
      "metar": "METAR EDNY 080620Z VRB01KT CAVOK 17/11 Q1021",
      "taf": "TAF EDNY 080500Z 0806/0815 VRB02KT CAVOK"
    },
    {
      "icao": "EDSB",
      "alert": "OK",
      "vis_m": 9999,
      "fzfg": false,
      "metar_trigger": false,
      "taf_trigger": false,
      "metar": "METAR EDSB 080620Z 20004KT 150V230 CAVOK 15/11 Q1019",
      "taf": "TAF EDSB 080500Z 0806/0906 VRB03KT CAVOK"
    },
    {
      "icao": "EETN",
      "alert": "OK",
      "vis_m": 9999,
      "fzfg": false,
      "metar_trigger": false,
      "taf_trigger": false,
      "metar": "METAR EETN 080620Z 12003KT CAVOK 19/12 Q1019 NOSIG",
      "taf": "TAF EETN 080530Z 0806/0906 13005KT CAVOK"
    },
    {
      "icao": "EFTU",
      "alert": "OK",
      "vis_m": 9999,
      "fzfg": false,
      "metar_trigger": false,
      "taf_trigger": false,
      "metar": "METAR EFTU 080620Z AUTO 16005KT 130V210 CAVOK 18/09 Q1018",
      "taf": "TAF EFTU 080526Z 0806/0906 19007KT CAVOK"
    },
    {
      "icao": "EGBB",
      "alert": "OK",
      "vis_m": 9999,
      "fzfg": false,
      "metar_trigger": false,
      "taf_trigger": false,
      "metar": "METAR EGBB 080620Z 19008KT 9999 -RA SCT010 BKN018 13/12 Q1012",
      "taf": "TAF EGBB 080457Z 0806/0906 19011KT 9999 SCT025"
    },
    {
      "icao": "EGGP",
      "alert": "OK",
      "vis_m": 9999,
      "fzfg": false,
      "metar_trigger": false,
      "taf_trigger": false,
      "metar": "METAR EGGP 080620Z 28010KT 9999 SCT011 BKN016 11/10 Q1011",
      "taf": "TAF EGGP 080502Z 0806/0906 17008KT 9999 SCT030"
    },
    {
      "icao": "EGGW",
      "alert": "OK",
      "vis_m": 9999,
      "fzfg": false,
      "metar_trigger": false,
      "taf_trigger": false,
      "metar": "METAR EGGW 080620Z AUTO 20009KT 160V220 9999 BKN011 13/11 Q1013",
      "taf": "TAF EGGW 080459Z 0806/0906 20010KT 9999 SCT018"
    },
    {
      "icao": "EGKK",
      "alert": "OK",
      "vis_m": 9999,
      "fzfg": false,
      "metar_trigger": false,
      "taf_trigger": false,
      "metar": "METAR EGKK 080620Z 20007KT 9999 SCT011 SCT023 14/13 Q1014",
      "taf": "TAF EGKK 080456Z 0806/0912 21010KT 9999 SCT025"
    },
    {
      "icao": "EGNM",
      "alert": "OK",
      "vis_m": 4000,
      "fzfg": false,
      "metar_trigger": false,
      "taf_trigger": false,
      "metar": "METAR EGNM 080620Z 15005KT 4000 -RA BR FEW004 BKN019 11/11 Q1009",
      "taf": "TAF EGNM 080502Z 0806/0906 21012KT 9999 SCT030"
    },
    {
      "icao": "EGPD",
      "alert": "OK",
      "vis_m": 9999,
      "fzfg": false,
      "metar_trigger": false,
      "taf_trigger": false,
      "metar": "METAR EGPD 080620Z COR AUTO 21008KT 160V230 9999 -RA SCT028 12/10 Q1005 NOSIG",
      "taf": "TAF EGPD 080454Z 0806/0906 18010KT 9999 FEW045"
    },
    {
      "icao": "EGPF",
      "alert": "OK",
      "vis_m": 9999,
      "fzfg": false,
      "metar_trigger": false,
      "taf_trigger": false,
      "metar": "METAR EGPF 080620Z AUTO 23007KT 9999 SCT038 11/08 Q1008",
      "taf": "TAF EGPF 080458Z 0806/0906 24009KT 9999 SCT025"
    },
    {
      "icao": "EHBK",
      "alert": "OK",
      "vis_m": 9999,
      "fzfg": false,
      "metar_trigger": false,
      "taf_trigger": false,
      "metar": "METAR EHBK 080625Z AUTO 19006KT 9999 NSC 15/11 Q1017 NOSIG",
      "taf": "TAF EHBK 080500Z 0806/0912 16002KT CAVOK"
    },
    {
      "icao": "EHEH",
      "alert": "OK",
      "vis_m": 9999,
      "fzfg": false,
      "metar_trigger": false,
      "taf_trigger": false,
      "metar": "METAR EHEH 080625Z AUTO 14004KT 100V210 9999 OVC170 16/11 Q1017 BLU NOSIG RMK TREND REMOTE BY EHWX",
      "taf": "TAF EHEH 080512Z 0806/0912 15005KT CAVOK"
    },
    {
      "icao": "EKBI",
      "alert": "OK",
      "vis_m": 9999,
      "fzfg": false,
      "metar_trigger": false,
      "taf_trigger": false,
      "metar": "METAR EKBI 080620Z AUTO 18006KT 150V210 9999 FEW007/// BKN034/// BKN067/// 14/13 Q1018",
      "taf": "TAF EKBI 080527Z 0806/0906 21005KT 9999 SCT013"
    },
    {
      "icao": "EKCH",
      "alert": "OK",
      "vis_m": 9999,
      "fzfg": false,
      "metar_trigger": false,
      "taf_trigger": false,
      "metar": "METAR EKCH 080620Z AUTO 26008KT 9999 FEW017/// FEW039/// 16/11 Q1019 NOSIG",
      "taf": "TAF EKCH 080527Z 0806/0906 26010KT 9999 FEW020 BKN045"
    },
    {
      "icao": "ENAL",
      "alert": "OK",
      "vis_m": 9999,
      "fzfg": false,
      "metar_trigger": false,
      "taf_trigger": false,
      "metar": "METAR ENAL 080620Z 07008KT 9999 BKN052 13/12 Q1011",
      "taf": "TAF ENAL 080500Z 0806/0815 VRB03KT 9999 BKN045"
    },
    {
      "icao": "ENBR",
      "alert": "OK",
      "vis_m": 9999,
      "fzfg": false,
      "metar_trigger": false,
      "taf_trigger": false,
      "metar": "METAR ENBR 080620Z 14010KT 9999 FEW025 BKN041 13/09 Q1011 NOSIG RMK WIND 1200FT 14016KT",
      "taf": "TAF ENBR 080500Z 0806/0906 15012KT 9999 FEW020 BKN040"
    },
    {
      "icao": "ENGM",
      "alert": "OK",
      "vis_m": 9999,
      "fzfg": false,
      "metar_trigger": false,
      "taf_trigger": false,
      "metar": "METAR ENGM 080620Z 17008KT 9999 FEW012 BKN014 14/11 Q1015 TEMPO FEW012 BKN018",
      "taf": "TAF ENGM 080500Z 0806/0906 17010KT 9999 BKN012"
    },
    {
      "icao": "ENHD",
      "alert": "OK",
      "vis_m": 9999,
      "fzfg": false,
      "metar_trigger": false,
      "taf_trigger": false,
      "metar": "METAR ENHD 080620Z 13014KT CAVOK 14/10 Q1011",
      "taf": "TAF ENHD 080500Z 0806/0815 15015KT 9999 FEW012 BKN040"
    },
    {
      "icao": "ENTC",
      "alert": "OK",
      "vis_m": 9999,
      "fzfg": false,
      "metar_trigger": false,
      "taf_trigger": false,
      "metar": "METAR ENTC 080620Z 26008KT 220V290 9999 BKN052 16/09 Q1009 NOSIG RMK WIND 2600FT 17020KT",
      "taf": ""
    },
    {
      "icao": "ENTO",
      "alert": "OK",
      "vis_m": 9999,
      "fzfg": false,
      "metar_trigger": false,
      "taf_trigger": false,
      "metar": "METAR ENTO 080620Z 21009KT 9999 SCT010 BKN012 14/12 Q1015 BECMG SCT012",
      "taf": "TAF ENTO 080500Z 0806/0906 19010KT 9999 BKN007"
    },
    {
      "icao": "ENVA",
      "alert": "OK",
      "vis_m": 9999,
      "fzfg": false,
      "metar_trigger": false,
      "taf_trigger": false,
      "metar": "METAR ENVA 080620Z 13007KT CAVOK 16/10 Q1012 NOSIG RMK WIND 670FT 09006KT",
      "taf": ""
    },
    {
      "icao": "ENZV",
      "alert": "OK",
      "vis_m": 9999,
      "fzfg": false,
      "metar_trigger": false,
      "taf_trigger": false,
      "metar": "METAR ENZV 080620Z 14013KT CAVOK 15/10 Q1012 NOSIG",
      "taf": "TAF ENZV 080500Z 0806/0906 14010KT 9999 SCT040"
    },
    {
      "icao": "EPGD",
      "alert": "OK",
      "vis_m": 9999,
      "fzfg": false,
      "metar_trigger": false,
      "taf_trigger": false,
      "metar": "METAR EPGD 080630Z 27006KT 9999 BKN011 16/13 Q1019",
      "taf": "TAF EPGD 080530Z 0806/0906 26010KT CAVOK"
    },
    {
      "icao": "EPKK",
      "alert": "OK",
      "vis_m": 9999,
      "fzfg": false,
      "metar_trigger": false,
      "taf_trigger": false,
      "metar": "METAR EPKK 080630Z 24005KT 200V260 CAVOK 18/13 Q1021",
      "taf": "TAF EPKK 080530Z 0806/0906 22005KT CAVOK"
    },
    {
      "icao": "EPKT",
      "alert": "OK",
      "vis_m": 9999,
      "fzfg": false,
      "metar_trigger": false,
      "taf_trigger": false,
      "metar": "METAR EPKT 080630Z VRB02KT CAVOK 19/12 Q1022",
      "taf": "TAF EPKT 080530Z 0806/0906 VRB02KT CAVOK"
    },
    {
      "icao": "EPLB",
      "alert": "OK",
      "vis_m": 9999,
      "fzfg": false,
      "metar_trigger": false,
      "taf_trigger": false,
      "metar": "METAR EPLB 080630Z 30009KT CAVOK 18/14 Q1019",
      "taf": "TAF EPLB 080530Z 0806/0906 32012KT CAVOK"
    },
    {
      "icao": "EPMO",
      "alert": "OK",
      "vis_m": 9999,
      "fzfg": false,
      "metar_trigger": false,
      "taf_trigger": false,
      "metar": "METAR EPMO 080630Z 31007KT 9999 BKN011 16/14 Q1020",
      "taf": "TAF EPMO 080530Z 0806/0906 32010KT 9999 BKN008"
    },
    {
      "icao": "EPPO",
      "alert": "OK",
      "vis_m": 9999,
      "fzfg": false,
      "metar_trigger": false,
      "taf_trigger": false,
      "metar": "METAR EPPO 080630Z 32005KT 9999 SCT015 17/13 Q1021",
      "taf": "TAF EPPO 080530Z 0806/0906 27007KT CAVOK"
    },
    {
      "icao": "EPRA",
      "alert": "OK",
      "vis_m": 9999,
      "fzfg": false,
      "metar_trigger": false,
      "taf_trigger": false,
      "metar": "METAR EPRA 080630Z 31006KT 260V340 CAVOK 17/12 Q1020",
      "taf": "TAF EPRA 080530Z 0806/0815 30012KT 9999 SCT040"
    },
    {
      "icao": "EPRZ",
      "alert": "OK",
      "vis_m": 9999,
      "fzfg": false,
      "metar_trigger": false,
      "taf_trigger": false,
      "metar": "METAR EPRZ 080630Z 30007KT 240V330 CAVOK 19/11 Q1021",
      "taf": "TAF EPRZ 080530Z 0806/0906 27007KT CAVOK"
    },
    {
      "icao": "EPSC",
      "alert": "OK",
      "vis_m": 9999,
      "fzfg": false,
      "metar_trigger": false,
      "taf_trigger": false,
      "metar": "METAR EPSC 080630Z 27005KT 240V310 9999 SCT015 16/12 Q1020",
      "taf": "TAF EPSC 080530Z 0806/0906 26005KT CAVOK"
    },
    {
      "icao": "EPSY",
      "alert": "OK",
      "vis_m": 9999,
      "fzfg": false,
      "metar_trigger": false,
      "taf_trigger": false,
      "metar": "METAR EPSY 080630Z 32006KT 250V010 9999 SCT011 16/13 Q1019",
      "taf": "TAF EPSY 080530Z 0806/0815 32008KT 9999 SCT040"
    },
    {
      "icao": "EPWA",
      "alert": "OK",
      "vis_m": 9999,
      "fzfg": false,
      "metar_trigger": false,
      "taf_trigger": false,
      "metar": "METAR EPWA 080630Z 29009KT 260V320 9999 BKN007 15/13 Q1020 BECMG SCT008",
      "taf": "TAF EPWA 080530Z 0806/0906 31010KT 9999 BKN008"
    },
    {
      "icao": "EPWR",
      "alert": "OK",
      "vis_m": 9999,
      "fzfg": false,
      "metar_trigger": false,
      "taf_trigger": false,
      "metar": "METAR EPWR 080630Z 28004KT 230V320 CAVOK 19/11 Q1022",
      "taf": "TAF EPWR 080530Z 0806/0906 27004KT CAVOK"
    },
    {
      "icao": "ESGG",
      "alert": "OK",
      "vis_m": 9999,
      "fzfg": false,
      "metar_trigger": false,
      "taf_trigger": false,
      "metar": "METAR ESGG 080620Z 23003KT 200V270 9999 BKN006 OVC011 14/12 Q1017",
      "taf": "TAF ESGG 080530Z 0806/0906 23005KT 9999 BKN009"
    },
    {
      "icao": "ESKN",
      "alert": "OK",
      "vis_m": 9999,
      "fzfg": false,
      "metar_trigger": false,
      "taf_trigger": false,
      "metar": "METAR ESKN 080620Z VRB01KT CAVOK 17/15 Q1016",
      "taf": "TAF ESKN 080530Z 0806/0906 VRB03KT 9999 FEW005"
    },
    {
      "icao": "ESMS",
      "alert": "OK",
      "vis_m": 9999,
      "fzfg": false,
      "metar_trigger": false,
      "taf_trigger": false,
      "metar": "METAR ESMS 080620Z 28008KT 9999 BKN044 15/12 Q1018",
      "taf": "TAF ESMS 080527Z 0806/0906 28008KT 9999 BKN025"
    },
    {
      "icao": "ESSA",
      "alert": "OK",
      "vis_m": 9999,
      "fzfg": false,
      "metar_trigger": false,
      "taf_trigger": false,
      "metar": "METAR ESSA 080620Z 17004KT 130V210 CAVOK 17/12 Q1016 NOSIG",
      "taf": "TAF ESSA 080530Z 0806/0906 17006KT CAVOK"
    },
    {
      "icao": "EYKA",
      "alert": "OK",
      "vis_m": 9999,
      "fzfg": false,
      "metar_trigger": false,
      "taf_trigger": false,
      "metar": "METAR EYKA 080620Z 27003KT 220V300 CAVOK 18/14 Q1017",
      "taf": "TAF EYKA 080500Z 0806/0906 VRB03KT 9000 NSC"
    },
    {
      "icao": "EYPA",
      "alert": "OK",
      "vis_m": 9999,
      "fzfg": false,
      "metar_trigger": false,
      "taf_trigger": false,
      "metar": "METAR EYPA 080620Z VRB02KT 9999 SCT003 15/14 Q1018",
      "taf": "TAF EYPA 080500Z 0806/0906 VRB03KT 5000 BR SCT005"
    },
    {
      "icao": "EYVI",
      "alert": "OK",
      "vis_m": 9999,
      "fzfg": false,
      "metar_trigger": false,
      "taf_trigger": false,
      "metar": "METAR EYVI 080620Z 07003KT 9999 -RA NSC 17/14 Q1017 NOSIG",
      "taf": "TAF EYVI 080510Z 0806/0906 36005KT 9000 NSC"
    },
    {
      "icao": "GCFV",
      "alert": "OK",
      "vis_m": 9999,
      "fzfg": false,
      "metar_trigger": false,
      "taf_trigger": false,
      "metar": "METAR GCFV 080630Z 01015KT 9999 BKN022 20/16 Q1020",
      "taf": "TAF GCFV 080200Z 0803/0903 03015KT 9999 SCT015 TX26/0814Z TN19/0806Z"
    },
    {
      "icao": "GCLP",
      "alert": "OK",
      "vis_m": 9999,
      "fzfg": false,
      "metar_trigger": false,
      "taf_trigger": false,
      "metar": "METAR GCLP 080630Z 36019KT 9999 BKN020 20/15 Q1020 NOSIG",
      "taf": "TAF GCLP 080200Z 0803/0903 36021KT 9999 BKN025 TX25/0814Z TN20/0806Z"
    },
    {
      "icao": "GCTS",
      "alert": "OK",
      "vis_m": 9999,
      "fzfg": false,
      "metar_trigger": false,
      "taf_trigger": false,
      "metar": "METAR GCTS 080630Z 06005KT 9999 SCT025 19/15 Q1021 NOSIG",
      "taf": "TAF GCTS 080200Z 0803/0903 06010KT 9999 SCT025 TX26/0814Z TN19/0806Z"
    },
    {
      "icao": "GMAD",
      "alert": "OK",
      "vis_m": 3000,
      "fzfg": false,
      "metar_trigger": false,
      "taf_trigger": false,
      "metar": "METAR GMAD 080630Z 24005KT 3000 BR OVC005 18/17 Q1016 NOSIG",
      "taf": "TAF GMAD 080500Z 0806/0912 06008KT 2000 BR OVC005"
    },
    {
      "icao": "GMMN",
      "alert": "OK",
      "vis_m": 9999,
      "fzfg": false,
      "metar_trigger": false,
      "taf_trigger": false,
      "metar": "METAR GMMN 080630Z 36007KT 320V040 9999 BKN012 21/17 Q1020 NOSIG",
      "taf": "TAF GMMN 080500Z 0806/0912 02006KT 9999 BKN010"
    },
    {
      "icao": "GMMX",
      "alert": "OK",
      "vis_m": 9999,
      "fzfg": false,
      "metar_trigger": false,
      "taf_trigger": false,
      "metar": "METAR GMMX 080630Z 23006KT 200V260 CAVOK 19/16 Q1019 NOSIG",
      "taf": "TAF GMMX 080500Z 0806/0912 26006KT 8000 NSC"
    },
    {
      "icao": "HEGN",
      "alert": "OK",
      "vis_m": 9999,
      "fzfg": false,
      "metar_trigger": false,
      "taf_trigger": false,
      "metar": "METAR HEGN 080600Z 34012KT CAVOK 29/07 Q1011 NOSIG",
      "taf": "TAF HEGN 080500Z 0806/0912 34015KT CAVOK"
    },
    {
      "icao": "HEMA",
      "alert": "OK",
      "vis_m": null,
      "fzfg": false,
      "metar_trigger": false,
      "taf_trigger": false,
      "metar": "",
      "taf": "TAF HEMA 080500Z 0806/0912 35015KT CAVOK"
    },
    {
      "icao": "HESH",
      "alert": "OK",
      "vis_m": 9999,
      "fzfg": false,
      "metar_trigger": false,
      "taf_trigger": false,
      "metar": "METAR HESH 080600Z 35012KT CAVOK 29/15 Q1011 NOSIG",
      "taf": "TAF HESH 080500Z 0806/0912 36015KT CAVOK"
    },
    {
      "icao": "HESX",
      "alert": "OK",
      "vis_m": 9999,
      "fzfg": false,
      "metar_trigger": false,
      "taf_trigger": false,
      "metar": "METAR HESX 080600Z 04004KT CAVOK 25/12 Q1013 NOSIG",
      "taf": "TAF HESX 080501Z 0806/0912 05005KT 6000 NSC"
    },
    {
      "icao": "LATI",
      "alert": "OK",
      "vis_m": 9999,
      "fzfg": false,
      "metar_trigger": false,
      "taf_trigger": false,
      "metar": "METAR LATI 080620Z VRB02KT CAVOK 24/16 Q1017 NOSIG",
      "taf": "TAF LATI 080500Z 0806/0906 VRB04KT CAVOK TX31/0812Z TN17/0904Z"
    },
    {
      "icao": "LBPD",
      "alert": "OK",
      "vis_m": 9999,
      "fzfg": false,
      "metar_trigger": false,
      "taf_trigger": false,
      "metar": "METAR LBPD 080630Z AUTO 26007KT 9999 NCD 24/17 Q1019 NOSIG",
      "taf": "TAF LBPD 080500Z 0806/0906 VRB04KT 9999 SCT050"
    },
    {
      "icao": "LBSF",
      "alert": "OK",
      "vis_m": 9999,
      "fzfg": false,
      "metar_trigger": false,
      "taf_trigger": false,
      "metar": "METAR LBSF 080630Z 33006KT CAVOK 20/14 Q1022 NOSIG",
      "taf": "TAF LBSF 080500Z 0806/0906 VRB04KT 9999 SCT050"
    },
    {
      "icao": "LBWN",
      "alert": "OK",
      "vis_m": 9999,
      "fzfg": false,
      "metar_trigger": false,
      "taf_trigger": false,
      "metar": "METAR LBWN 080630Z 24003KT 190V290 CAVOK 23/20 Q1018 NOSIG",
      "taf": "TAF LBWN 080500Z 0806/0906 VRB04KT 9999 SCT040"
    },
    {
      "icao": "LCLK",
      "alert": "OK",
      "vis_m": 9000,
      "fzfg": false,
      "metar_trigger": false,
      "taf_trigger": false,
      "metar": "METAR LCLK 080630Z 11006KT 9000 FEW010 27/22 Q1012 NOSIG",
      "taf": "TAF LCLK 080530Z 0806/0906 13007KT 9999 FEW012"
    },
    {
      "icao": "LCPH",
      "alert": "OK",
      "vis_m": null,
      "fzfg": false,
      "metar_trigger": false,
      "taf_trigger": false,
      "metar": "METAR LCPH 080630Z 23004KT 170V260 FEW040 25/21 Q1011 NOSIG",
      "taf": "TAF LCPH 080530Z 0806/0906 20006KT 9999 FEW012"
    },
    {
      "icao": "LEAL",
      "alert": "OK",
      "vis_m": 9999,
      "fzfg": false,
      "metar_trigger": false,
      "taf_trigger": false,
      "metar": "METAR LEAL 080630Z 26005KT CAVOK 23/18 Q1019 NOSIG",
      "taf": "TAF LEAL 080500Z 0806/0906 VRB04KT 9999 FEW030 TX29/0812Z TN19/0806Z"
    },
    {
      "icao": "LEBB",
      "alert": "OK",
      "vis_m": 9999,
      "fzfg": false,
      "metar_trigger": false,
      "taf_trigger": false,
      "metar": "METAR LEBB 080630Z 00000KT 9999 FEW030 BKN037 19/14 Q1022 NOSIG",
      "taf": "TAF LEBB 080500Z 0806/0906 30009KT 9999 SCT020 BKN030 TX21/0814Z TN15/0906Z"
    },
    {
      "icao": "LEBL",
      "alert": "OK",
      "vis_m": 9999,
      "fzfg": false,
      "metar_trigger": false,
      "taf_trigger": false,
      "metar": "METAR LEBL 080630Z 33010G23KT 280V010 CAVOK 21/15 Q1019 NOSIG",
      "taf": "TAF LEBL 080500Z 0806/0906 34006KT 9999 FEW020 TX26/0812Z TN18/0806Z"
    },
    {
      "icao": "LECH",
      "alert": "OK",
      "vis_m": 4000,
      "fzfg": false,
      "metar_trigger": false,
      "taf_trigger": false,
      "metar": "METAR LECH 080630Z 18001KT 4000 BR BKN003 18/17 Q1020",
      "taf": "TAF LECH 080500Z 0806/0906 VRB03KT 9999 FEW020 TX30/0813Z TN15/0806Z"
    },
    {
      "icao": "LEMD",
      "alert": "OK",
      "vis_m": 9999,
      "fzfg": false,
      "metar_trigger": false,
      "taf_trigger": false,
      "metar": "METAR LEMD 080630Z 35003KT CAVOK 20/12 Q1021 NOSIG",
      "taf": "TAF LEMD 080500Z 0806/0912 VRB04KT CAVOK TX34/0816Z TN17/0905Z"
    },
    {
      "icao": "LEMG",
      "alert": "OK",
      "vis_m": 9999,
      "fzfg": false,
      "metar_trigger": false,
      "taf_trigger": false,
      "metar": "METAR LEMG 080630Z 30003KT 280V340 CAVOK 20/16 Q1020 NOSIG",
      "taf": "TAF LEMG 080500Z 0806/0906 29004KT CAVOK TX28/0814Z TN20/0806Z"
    },
    {
      "icao": "LEVC",
      "alert": "OK",
      "vis_m": 9999,
      "fzfg": false,
      "metar_trigger": false,
      "taf_trigger": false,
      "metar": "METAR LEVC 080630Z 21003KT 170V250 CAVOK 21/16 Q1019 NOSIG",
      "taf": "TAF LEVC 080500Z 0806/0906 VRB03KT 9999 FEW020 TX29/0812Z TN17/0806Z"
    },
    {
      "icao": "LEXJ",
      "alert": "OK",
      "vis_m": 9999,
      "fzfg": false,
      "metar_trigger": false,
      "taf_trigger": false,
      "metar": "METAR LEXJ 080630Z 21003KT 170V250 9999 BKN036 17/15 Q1022",
      "taf": "TAF LEXJ 080200Z 0803/0903 26005KT 9999 BKN025 TX20/0813Z TN16/0805Z"
    },
    {
      "icao": "LEZG",
      "alert": "OK",
      "vis_m": 9999,
      "fzfg": false,
      "metar_trigger": false,
      "taf_trigger": false,
      "metar": "METAR LEZG 080630Z 09004KT 050V140 CAVOK 21/14 Q1019 NOSIG",
      "taf": "TAF LEZG 080500Z 0806/0906 VRB03KT 9999 FEW015 TX34/0815Z TN18/0806Z"
    },
    {
      "icao": "LEZL",
      "alert": "OK",
      "vis_m": 9999,
      "fzfg": false,
      "metar_trigger": false,
      "taf_trigger": false,
      "metar": "METAR LEZL 080630Z VRB02KT CAVOK 22/17 Q1019 NOSIG",
      "taf": "TAF LEZL 080200Z 0803/0903 VRB03KT CAVOK TX36/0815Z TN19/0806Z"
    },
    {
      "icao": "LFBD",
      "alert": "OK",
      "vis_m": 9999,
      "fzfg": false,
      "metar_trigger": false,
      "taf_trigger": false,
      "metar": "METAR LFBD 080630Z AUTO 27004KT 9999 BKN047 OVC078 17/15 Q1020 NOSIG",
      "taf": "TAF LFBD 080500Z 0806/0912 28010KT CAVOK TX22/0816Z TN12/0904Z"
    },
    {
      "icao": "LFLL",
      "alert": "OK",
      "vis_m": 9999,
      "fzfg": false,
      "metar_trigger": false,
      "taf_trigger": false,
      "metar": "METAR LFLL 080630Z 17004KT 140V200 CAVOK 19/12 Q1019 NOSIG",
      "taf": "TAF LFLL 080500Z 0806/0912 14005KT CAVOK"
    },
    {
      "icao": "LFLS",
      "alert": "OK",
      "vis_m": 9999,
      "fzfg": false,
      "metar_trigger": false,
      "taf_trigger": false,
      "metar": "METAR LFLS 080630Z AUTO 08010KT CAVOK 18/13 Q1020 BECMG 21010KT",
      "taf": "TAF LFLS 080200Z 0803/0903 09007KT CAVOK"
    },
    {
      "icao": "LFMN",
      "alert": "OK",
      "vis_m": 9999,
      "fzfg": false,
      "metar_trigger": false,
      "taf_trigger": false,
      "metar": "METAR LFMN 080630Z VRB02KT CAVOK 23/17 Q1020 NOSIG",
      "taf": "TAF LFMN 080200Z 0803/0909 VRB04KT CAVOK"
    },
    {
      "icao": "LFOB",
      "alert": "OK",
      "vis_m": 9999,
      "fzfg": false,
      "metar_trigger": false,
      "taf_trigger": false,
      "metar": "METAR LFOB 080630Z AUTO 12003KT CAVOK 14/12 Q1016 BECMG 26010KT",
      "taf": "TAF LFOB 080500Z 0806/0906 VRB03KT 9999 SCT040"
    },
    {
      "icao": "LFPO",
      "alert": "OK",
      "vis_m": 9999,
      "fzfg": false,
      "metar_trigger": false,
      "taf_trigger": false,
      "metar": "METAR LFPO 080630Z 18004KT 150V220 CAVOK 16/10 Q1016 NOSIG",
      "taf": "TAF LFPO 080500Z 0806/0912 13002KT CAVOK"
    },
    {
      "icao": "LFSB",
      "alert": "OK",
      "vis_m": 9999,
      "fzfg": false,
      "metar_trigger": false,
      "taf_trigger": false,
      "metar": "METAR LFSB 080630Z AUTO 14005KT 100V170 CAVOK 18/11 Q1020 NOSIG",
      "taf": "TAF LFSB 080500Z 0806/0906 17005KT CAVOK"
    },
    {
      "icao": "LGAV",
      "alert": "OK",
      "vis_m": 9999,
      "fzfg": false,
      "metar_trigger": false,
      "taf_trigger": false,
      "metar": "METAR LGAV 080620Z 01013KT CAVOK 28/12 Q1017 NOSIG",
      "taf": "TAF LGAV 080500Z 0806/0906 01015KT 9999 FEW025"
    },
    {
      "icao": "LGTS",
      "alert": "OK",
      "vis_m": 9999,
      "fzfg": false,
      "metar_trigger": false,
      "taf_trigger": false,
      "metar": "METAR LGTS 080620Z 27005KT 9999 FEW025 26/18 Q1018 NOSIG",
      "taf": "TAF LGTS 080500Z 0806/0906 VRB03KT 9999 FEW030"
    },
    {
      "icao": "LHBP",
      "alert": "OK",
      "vis_m": 9999,
      "fzfg": false,
      "metar_trigger": false,
      "taf_trigger": false,
      "metar": "METAR LHBP 080630Z 34007KT CAVOK 23/09 Q1021 NOSIG",
      "taf": "TAF LHBP 080515Z 0806/0906 36005KT CAVOK"
    },
    {
      "icao": "LHDC",
      "alert": "OK",
      "vis_m": 9999,
      "fzfg": false,
      "metar_trigger": false,
      "taf_trigger": false,
      "metar": "METAR LHDC 080615Z AUTO 01009KT 340V050 CAVOK 22/11 Q1020 NOSIG",
      "taf": "TAF LHDC 080515Z 0806/0815 02009KT CAVOK"
    },
    {
      "icao": "LIBD",
      "alert": "OK",
      "vis_m": 9999,
      "fzfg": false,
      "metar_trigger": false,
      "taf_trigger": false,
      "metar": "METAR LIBD 080620Z 30005KT 260V340 CAVOK 25/13 Q1018",
      "taf": "TAF LIBD 080500Z 0806/0906 VRB05KT CAVOK"
    },
    {
      "icao": "LIBG",
      "alert": "OK",
      "vis_m": 9999,
      "fzfg": false,
      "metar_trigger": false,
      "taf_trigger": false,
      "metar": "METAR LIBG 080620Z AUTO VRB02KT 9999 NCD 25/13 Q1018",
      "taf": "TAF LIBG 080500Z 0806/0906 VRB05KT CAVOK"
    },
    {
      "icao": "LIBP",
      "alert": "OK",
      "vis_m": 9999,
      "fzfg": false,
      "metar_trigger": false,
      "taf_trigger": false,
      "metar": "METAR LIBP 080620Z AUTO 23006KT 9999 NCD 24/16 Q1019",
      "taf": "TAF LIBP 080500Z 0806/0906 23005KT CAVOK"
    },
    {
      "icao": "LIBR",
      "alert": "OK",
      "vis_m": 9999,
      "fzfg": false,
      "metar_trigger": false,
      "taf_trigger": false,
      "metar": "METAR LIBR 080620Z 33007KT 300V360 CAVOK 23/18 Q1018",
      "taf": "TAF LIBR 080500Z 0806/0906 32013KT CAVOK"
    },
    {
      "icao": "LICA",
      "alert": "OK",
      "vis_m": 9999,
      "fzfg": false,
      "metar_trigger": false,
      "taf_trigger": false,
      "metar": "METAR LICA 080620Z AUTO 23003KT 180V280 9999 NCD 24/19 Q1019",
      "taf": "TAF LICA 080500Z 0806/0906 VRB05KT 9999 FEW020"
    },
    {
      "icao": "LICC",
      "alert": "OK",
      "vis_m": 9999,
      "fzfg": false,
      "metar_trigger": false,
      "taf_trigger": false,
      "metar": "METAR LICC 080620Z VRB02KT CAVOK 24/19 Q1019",
      "taf": "TAF LICC 080500Z 0806/0906 VRB04KT CAVOK"
    },
    {
      "icao": "LICJ",
      "alert": "OK",
      "vis_m": 9999,
      "fzfg": false,
      "metar_trigger": false,
      "taf_trigger": false,
      "metar": "METAR LICJ 080620Z 22004KT 190V250 CAVOK 22/18 Q1019",
      "taf": "TAF LICJ 080500Z 0806/0906 VRB05KT CAVOK"
    },
    {
      "icao": "LIMC",
      "alert": "OK",
      "vis_m": 9999,
      "fzfg": false,
      "metar_trigger": false,
      "taf_trigger": false,
      "metar": "METAR LIMC 080620Z 03007KT 9999 SCT045 21/16 Q1020 NOSIG",
      "taf": "TAF LIMC 080500Z 0806/0912 VRB05KT 9999 FEW050"
    },
    {
      "icao": "LIME",
      "alert": "OK",
      "vis_m": 9999,
      "fzfg": false,
      "metar_trigger": false,
      "taf_trigger": false,
      "metar": "METAR LIME 080620Z 01004KT 340V040 9999 FEW050 22/15 Q1020 NOSIG",
      "taf": "TAF LIME 080500Z 0806/0906 VRB04KT 9999 FEW050"
    },
    {
      "icao": "LIMF",
      "alert": "OK",
      "vis_m": 9999,
      "fzfg": false,
      "metar_trigger": false,
      "taf_trigger": false,
      "metar": "METAR LIMF 080620Z 08002KT CAVOK 22/17 Q1021",
      "taf": "TAF LIMF 080500Z 0806/0906 VRB04KT 9999 FEW050"
    },
    {
      "icao": "LIMJ",
      "alert": "OK",
      "vis_m": 9999,
      "fzfg": false,
      "metar_trigger": false,
      "taf_trigger": false,
      "metar": "METAR LIMJ 080620Z VRB03KT CAVOK 22/15 Q1019",
      "taf": "TAF LIMJ 080500Z 0806/0906 VRB05KT CAVOK"
    },
    {
      "icao": "LIPE",
      "alert": "OK",
      "vis_m": 9999,
      "fzfg": false,
      "metar_trigger": false,
      "taf_trigger": false,
      "metar": "METAR LIPE 080620Z 24003KT 210V280 CAVOK 22/14 Q1019",
      "taf": "TAF LIPE 080500Z 0806/0906 VRB05KT 9999 FEW060"
    },
    {
      "icao": "LIPH",
      "alert": "OK",
      "vis_m": 9999,
      "fzfg": false,
      "metar_trigger": false,
      "taf_trigger": false,
      "metar": "METAR LIPH 080520Z VRB01KT CAVOK 21/17 Q1019",
      "taf": "TAF LIPH 080500Z 0806/0906 VRB05KT CAVOK"
    },
    {
      "icao": "LIPQ",
      "alert": "OK",
      "vis_m": 9999,
      "fzfg": false,
      "metar_trigger": false,
      "taf_trigger": false,
      "metar": "METAR LIPQ 080620Z AUTO VRB02KT 9999 NCD 24/16 Q1019",
      "taf": "TAF LIPQ 080500Z 0806/0906 02005KT CAVOK"
    },
    {
      "icao": "LIPR",
      "alert": "OK",
      "vis_m": 9999,
      "fzfg": false,
      "metar_trigger": false,
      "taf_trigger": false,
      "metar": "METAR LIPR 080620Z 32003KT 290V360 CAVOK 23/17 Q1019",
      "taf": "TAF LIPR 080500Z 0806/0906 VRB05KT CAVOK"
    },
    {
      "icao": "LIPX",
      "alert": "OK",
      "vis_m": 9999,
      "fzfg": false,
      "metar_trigger": false,
      "taf_trigger": false,
      "metar": "METAR LIPX 080620Z VRB02KT CAVOK 24/16 Q1019",
      "taf": "TAF LIPX 080500Z 0806/0906 VRB05KT CAVOK"
    },
    {
      "icao": "LIPY",
      "alert": "OK",
      "vis_m": 9999,
      "fzfg": false,
      "metar_trigger": false,
      "taf_trigger": false,
      "metar": "METAR LIPY 080620Z AUTO 21003KT 170V260 9999 NCD 23/17 Q1019",
      "taf": "TAF LIPY 080500Z 0806/0906 VRB05KT CAVOK"
    },
    {
      "icao": "LIPZ",
      "alert": "OK",
      "vis_m": 9999,
      "fzfg": false,
      "metar_trigger": false,
      "taf_trigger": false,
      "metar": "METAR LIPZ 080620Z 02004KT CAVOK 23/16 Q1019 NOSIG",
      "taf": "TAF LIPZ 080500Z 0806/0912 04006KT CAVOK"
    },
    {
      "icao": "LIRF",
      "alert": "OK",
      "vis_m": 9999,
      "fzfg": false,
      "metar_trigger": false,
      "taf_trigger": false,
      "metar": "METAR LIRF 080620Z 10006KT 060V140 CAVOK 23/15 Q1019 NOSIG",
      "taf": "TAF LIRF 080500Z 0806/0912 VRB05KT CAVOK"
    },
    {
      "icao": "LIRN",
      "alert": "OK",
      "vis_m": 9999,
      "fzfg": false,
      "metar_trigger": false,
      "taf_trigger": false,
      "metar": "METAR LIRN 080620Z VRB01KT CAVOK 24/17 Q1019 NOSIG",
      "taf": "TAF LIRN 080500Z 0806/0906 VRB05KT CAVOK"
    },
    {
      "icao": "LIRP",
      "alert": "OK",
      "vis_m": 9999,
      "fzfg": false,
      "metar_trigger": false,
      "taf_trigger": false,
      "metar": "METAR LIRP 080615Z 15003KT CAVOK 18/16 Q1020 NOSIG",
      "taf": "TAF LIRP 080500Z 0806/0906 11003KT CAVOK"
    },
    {
      "icao": "LIRZ",
      "alert": "OK",
      "vis_m": 9999,
      "fzfg": false,
      "metar_trigger": false,
      "taf_trigger": false,
      "metar": "METAR LIRZ 080620Z AUTO VRB02KT 9999 NCD 21/15 Q1020",
      "taf": "TAF LIRZ 080500Z 0806/0906 VRB05KT CAVOK"
    },
    {
      "icao": "LJLJ",
      "alert": "OK",
      "vis_m": 9999,
      "fzfg": false,
      "metar_trigger": false,
      "taf_trigger": false,
      "metar": "METAR LJLJ 080630Z 02001KT 9999 FEW045 20/15 Q1022 NOSIG",
      "taf": "TAF LJLJ 080500Z 0806/0906 VRB02KT 9999 FEW060"
    },
    {
      "icao": "LKMT",
      "alert": "OK",
      "vis_m": 9999,
      "fzfg": false,
      "metar_trigger": false,
      "taf_trigger": false,
      "metar": "METAR LKMT 080630Z VRB02KT CAVOK 18/12 Q1022 NOSIG",
      "taf": "TAF LKMT 080500Z 0806/0906 VRB02KT CAVOK"
    },
    {
      "icao": "LKPR",
      "alert": "OK",
      "vis_m": 9999,
      "fzfg": false,
      "metar_trigger": false,
      "taf_trigger": false,
      "metar": "METAR LKPR 080630Z 13004KT 070V180 CAVOK 18/11 Q1022 NOSIG",
      "taf": "TAF LKPR 080500Z 0806/0912 VRB02KT CAVOK"
    },
    {
      "icao": "LLBG",
      "alert": "OK",
      "vis_m": 9999,
      "fzfg": false,
      "metar_trigger": false,
      "taf_trigger": false,
      "metar": "METAR LLBG 080620Z VRB03KT 9999 FEW020 26/16 Q1012 NOSIG",
      "taf": "TAF LLBG 080502Z 0806/0906 VRB04KT CAVOK TX29/0810Z TN20/0904Z"
    },
    {
      "icao": "LMML",
      "alert": "OK",
      "vis_m": 9999,
      "fzfg": false,
      "metar_trigger": false,
      "taf_trigger": false,
      "metar": "METAR LMML 080615Z 07008KT 040V110 CAVOK 25/19 Q1019 NOSIG",
      "taf": "TAF LMML 080500Z 0806/0906 07007KT 9999 FEW018"
    },
    {
      "icao": "LOWW",
      "alert": "OK",
      "vis_m": 9999,
      "fzfg": false,
      "metar_trigger": false,
      "taf_trigger": false,
      "metar": "METAR LOWW 080620Z 35004KT 320V030 CAVOK 20/10 Q1022 NOSIG",
      "taf": "TAF LOWW 080515Z 0806/0912 VRB04KT CAVOK TX28/0814Z TN17/0903Z"
    },
    {
      "icao": "LPFR",
      "alert": "OK",
      "vis_m": 9999,
      "fzfg": false,
      "metar_trigger": false,
      "taf_trigger": false,
      "metar": "METAR LPFR 080630Z 32006KT CAVOK 19/08 Q1020",
      "taf": "TAF LPFR 080500Z 0806/0906 32007KT CAVOK"
    },
    {
      "icao": "LPMA",
      "alert": "OK",
      "vis_m": 9999,
      "fzfg": false,
      "metar_trigger": false,
      "taf_trigger": false,
      "metar": "METAR LPMA 080630Z 01015KT 330V050 9999 FEW016 19/13 Q1025",
      "taf": "TAF LPMA 080500Z 0806/0906 01017KT 9999 SCT015"
    },
    {
      "icao": "LPPR",
      "alert": "OK",
      "vis_m": 9999,
      "fzfg": false,
      "metar_trigger": false,
      "taf_trigger": false,
      "metar": "METAR LPPR 080630Z 12003KT 060V180 CAVOK 15/12 Q1023",
      "taf": "TAF LPPR 080500Z 0806/0906 35005KT CAVOK"
    },
    {
      "icao": "LPPS",
      "alert": "OK",
      "vis_m": 9999,
      "fzfg": false,
      "metar_trigger": false,
      "taf_trigger": false,
      "metar": "METAR LPPS 080630Z 02010KT 350V050 9999 SCT012 18/14 Q1026",
      "taf": "TAF LPPS 080500Z 0806/0912 02015KT 9999 SCT015 SCT030"
    },
    {
      "icao": "LPPT",
      "alert": "OK",
      "vis_m": 9999,
      "fzfg": false,
      "metar_trigger": false,
      "taf_trigger": false,
      "metar": "METAR LPPT 080630Z 34009KT 300V010 9999 BKN014 16/13 Q1023",
      "taf": ""
    },
    {
      "icao": "LQBK",
      "alert": "OK",
      "vis_m": 9999,
      "fzfg": false,
      "metar_trigger": false,
      "taf_trigger": false,
      "metar": "METAR LQBK 080630Z VRB01KT CAVOK 21/16 Q1021 NOSIG",
      "taf": "TAF LQBK 080500Z 0806/0906 VRB02KT CAVOK TX29/0814Z TN14/0903Z"
    },
    {
      "icao": "LQSA",
      "alert": "OK",
      "vis_m": 9999,
      "fzfg": false,
      "metar_trigger": false,
      "taf_trigger": false,
      "metar": "METAR LQSA 080630Z VRB02KT CAVOK 18/14 Q1022 NOSIG",
      "taf": "TAF LQSA 080500Z 0806/0906 VRB02KT CAVOK TX28/0813Z TN14/0903Z"
    },
    {
      "icao": "LQTZ",
      "alert": "OK",
      "vis_m": 9999,
      "fzfg": false,
      "metar_trigger": false,
      "taf_trigger": false,
      "metar": "METAR LQTZ 080630Z VRB02KT CAVOK 19/17 Q1021",
      "taf": "TAF LQTZ 080500Z 0806/0906 VRB02KT CAVOK TX28/0814Z TN11/0903Z"
    },
    {
      "icao": "LRBC",
      "alert": "OK",
      "vis_m": 9999,
      "fzfg": false,
      "metar_trigger": false,
      "taf_trigger": false,
      "metar": "METAR LRBC 080630Z VRB02KT CAVOK 21/17 Q1019",
      "taf": "TAF LRBC 080500Z 0806/0815 VRB04KT CAVOK"
    },
    {
      "icao": "LRBS",
      "alert": "OK",
      "vis_m": 9999,
      "fzfg": false,
      "metar_trigger": false,
      "taf_trigger": false,
      "metar": "METAR LRBS 080630Z VRB03KT CAVOK 23/16 Q1019 NOSIG",
      "taf": "TAF LRBS 080500Z 0806/0906 VRB04KT CAVOK"
    },
    {
      "icao": "LRBV",
      "alert": "OK",
      "vis_m": 9999,
      "fzfg": false,
      "metar_trigger": false,
      "taf_trigger": false,
      "metar": "METAR LRBV 080630Z 32004KT 240V020 CAVOK 20/14 Q1021",
      "taf": "TAF LRBV 080500Z 0806/0815 VRB04KT CAVOK"
    },
    {
      "icao": "LRCL",
      "alert": "OK",
      "vis_m": 9999,
      "fzfg": false,
      "metar_trigger": false,
      "taf_trigger": false,
      "metar": "METAR LRCL 080630Z 26005KT 220V310 CAVOK 22/11 Q1020",
      "taf": "TAF LRCL 080500Z 0806/0815 VRB04KT CAVOK"
    },
    {
      "icao": "LRCV",
      "alert": "OK",
      "vis_m": 9999,
      "fzfg": false,
      "metar_trigger": false,
      "taf_trigger": false,
      "metar": "METAR LRCV 080630Z 29003KT 230V340 CAVOK 22/18 Q1020",
      "taf": "TAF LRCV 080500Z 0806/0815 VRB04KT CAVOK"
    },
    {
      "icao": "LRIA",
      "alert": "OK",
      "vis_m": 9999,
      "fzfg": false,
      "metar_trigger": false,
      "taf_trigger": false,
      "metar": "METAR LRIA 080630Z 28007KT 250V310 CAVOK 21/15 Q1018",
      "taf": "TAF LRIA 080500Z 0806/0815 28008KT CAVOK"
    },
    {
      "icao": "LROP",
      "alert": "OK",
      "vis_m": 9999,
      "fzfg": false,
      "metar_trigger": false,
      "taf_trigger": false,
      "metar": "METAR LROP 080630Z 13003KT 020V180 CAVOK 23/17 Q1019 NOSIG",
      "taf": "TAF LROP 080500Z 0806/0906 VRB04KT CAVOK"
    },
    {
      "icao": "LRSB",
      "alert": "OK",
      "vis_m": 9999,
      "fzfg": false,
      "metar_trigger": false,
      "taf_trigger": false,
      "metar": "METAR LRSB 080630Z VRB02KT 9999 FEW040 22/15 Q1020 NOSIG",
      "taf": "TAF LRSB 080500Z 0806/0906 VRB04KT CAVOK"
    },
    {
      "icao": "LRSM",
      "alert": "OK",
      "vis_m": 9999,
      "fzfg": false,
      "metar_trigger": false,
      "taf_trigger": false,
      "metar": "METAR LRSM 080630Z 29003KT 220V350 CAVOK 20/15 Q1020",
      "taf": "TAF LRSM 080500Z 0806/0815 VRB04KT CAVOK"
    },
    {
      "icao": "LRSV",
      "alert": "OK",
      "vis_m": 9999,
      "fzfg": false,
      "metar_trigger": false,
      "taf_trigger": false,
      "metar": "METAR LRSV 080630Z 29010KT 260V320 CAVOK 20/14 Q1019",
      "taf": "TAF LRSV 080500Z 0806/0815 30010KT CAVOK"
    },
    {
      "icao": "LRTM",
      "alert": "OK",
      "vis_m": 9999,
      "fzfg": false,
      "metar_trigger": false,
      "taf_trigger": false,
      "metar": "METAR LRTM 080630Z 25003KT 210V290 CAVOK 20/17 Q1020",
      "taf": "TAF LRTM 080500Z 0806/0815 VRB04KT CAVOK"
    },
    {
      "icao": "LRTR",
      "alert": "OK",
      "vis_m": 9999,
      "fzfg": false,
      "metar_trigger": false,
      "taf_trigger": false,
      "metar": "METAR LRTR 080630Z 36005KT 290V090 CAVOK 23/14 Q1020",
      "taf": "TAF LRTR 080500Z 0806/0906 VRB04KT CAVOK"
    },
    {
      "icao": "LTAC",
      "alert": "OK",
      "vis_m": 9999,
      "fzfg": false,
      "metar_trigger": false,
      "taf_trigger": false,
      "metar": "METAR LTAC 080620Z 04007KT 010V080 CAVOK 22/08 Q1019 NOSIG RMK RWY21C 04007KT 010V080 RWY03L 04007KT 350V070 RWY21R 01005KT 320V040 RWY03R 03008KT RWY21L 05009KT",
      "taf": "TAF LTAC 080440Z 0806/0906 03008KT CAVOK"
    },
    {
      "icao": "LTFM",
      "alert": "OK",
      "vis_m": 9999,
      "fzfg": false,
      "metar_trigger": false,
      "taf_trigger": false,
      "metar": "METAR LTFM 080620Z 03009KT 360V060 9999 SCT012 22/16 Q1018 NOSIG RMK RWY17L 04007KT 360V070 RWY34L 03008KT 350V060 RWY16R 03007KT 350V060 RWY36 04008KT RWY18 04007KT 010V070",
      "taf": "TAF LTFM 080440Z 0806/0912 04015KT 9999 SCT009"
    },
    {
      "icao": "LUKK",
      "alert": "OK",
      "vis_m": 9999,
      "fzfg": false,
      "metar_trigger": false,
      "taf_trigger": false,
      "metar": "METAR LUKK 080630Z 36004KT 290V050 CAVOK 21/14 Q1017 NOSIG",
      "taf": "TAF LUKK 080508Z 0806/0906 32012KT CAVOK"
    },
    {
      "icao": "LWOH",
      "alert": "OK",
      "vis_m": 9999,
      "fzfg": false,
      "metar_trigger": false,
      "taf_trigger": false,
      "metar": "METAR LWOH 080620Z 33009KT 280V010 9999 FEW040 SCT050 22/15 Q1021",
      "taf": ""
    },
    {
      "icao": "LWSK",
      "alert": "OK",
      "vis_m": 9999,
      "fzfg": false,
      "metar_trigger": false,
      "taf_trigger": false,
      "metar": "METAR LWSK 080620Z VRB03KT CAVOK 24/15 Q1021 NOSIG",
      "taf": ""
    },
    {
      "icao": "LYBE",
      "alert": "OK",
      "vis_m": 9999,
      "fzfg": false,
      "metar_trigger": false,
      "taf_trigger": false,
      "metar": "METAR LYBE 080630Z VRB02KT CAVOK 23/15 Q1021 NOSIG",
      "taf": "TAF LYBE 080500Z 0806/0906 04005KT CAVOK TX30/0814Z TN17/0903Z"
    },
    {
      "icao": "LYNI",
      "alert": "OK",
      "vis_m": 9999,
      "fzfg": false,
      "metar_trigger": false,
      "taf_trigger": false,
      "metar": "METAR LYNI 080630Z VRB01KT CAVOK 20/16 Q1021 NOSIG",
      "taf": "TAF LYNI 080500Z 0806/0906 33006KT CAVOK TX31/0814Z TN14/0903Z"
    },
    {
      "icao": "LYPG",
      "alert": "OK",
      "vis_m": 9999,
      "fzfg": false,
      "metar_trigger": false,
      "taf_trigger": false,
      "metar": "METAR LYPG 080630Z VRB02KT 9999 FEW050 26/17 Q1017 NOSIG",
      "taf": "TAF LYPG 080500Z 0806/0906 18007KT CAVOK TX31/0814Z TN19/0903Z"
    },
    {
      "icao": "LZIB",
      "alert": "OK",
      "vis_m": 9999,
      "fzfg": false,
      "metar_trigger": false,
      "taf_trigger": false,
      "metar": "METAR LZIB 080630Z VRB03KT CAVOK 21/11 Q1021 NOSIG",
      "taf": "TAF LZIB 080515Z 0806/0906 VRB03KT CAVOK"
    },
    {
      "icao": "LZKZ",
      "alert": "OK",
      "vis_m": 9999,
      "fzfg": false,
      "metar_trigger": false,
      "taf_trigger": false,
      "metar": "METAR LZKZ 080630Z VRB03KT CAVOK 19/13 Q1021 NOSIG",
      "taf": "TAF LZKZ 080515Z 0806/0906 VRB03KT CAVOK"
    },
    {
      "icao": "LZTT",
      "alert": "OK",
      "vis_m": 9999,
      "fzfg": false,
      "metar_trigger": false,
      "taf_trigger": false,
      "metar": "METAR LZTT 080630Z VRB03KT 9999 FEW033 17/10 Q1022 NOSIG",
      "taf": "TAF LZTT 080515Z 0806/0906 VRB03KT 9999 SCT060"
    },
    {
      "icao": "OEJN",
      "alert": "OK",
      "vis_m": 9999,
      "fzfg": false,
      "metar_trigger": false,
      "taf_trigger": false,
      "metar": "METAR OEJN 080600Z 34014KT 9999 FEW040 34/18 Q1008 NOSIG",
      "taf": "TAF OEJN 080500Z 0806/0912 34016KT 9999 FEW040"
    },
    {
      "icao": "OEMA",
      "alert": "OK",
      "vis_m": 9999,
      "fzfg": false,
      "metar_trigger": false,
      "taf_trigger": false,
      "metar": "METAR OEMA 080600Z 26003KT CAVOK 35/M03 Q1014 NOSIG",
      "taf": "TAF OEMA 080500Z 0806/0912 24012KT CAVOK"
    },
    {
      "icao": "OJAI",
      "alert": "OK",
      "vis_m": 5000,
      "fzfg": false,
      "metar_trigger": false,
      "taf_trigger": false,
      "metar": "METAR OJAI 080600Z 26005KT 5000 HZ NSC 24/11 Q1016 NOSIG",
      "taf": "TAF OJAI 080500Z 0806/0912 29010KT 5000 HZ NSC"
    },
    {
      "icao": "OMAA",
      "alert": "OK",
      "vis_m": 9999,
      "fzfg": false,
      "metar_trigger": false,
      "taf_trigger": false,
      "metar": "METAR OMAA 080630Z 20005KT 170V250 CAVOK 39/18 Q1005 NOSIG",
      "taf": "TAF OMAA 080500Z 0806/0912 23005KT 8000 NSC"
    },
    {
      "icao": "OMDB",
      "alert": "OK",
      "vis_m": 8000,
      "fzfg": false,
      "metar_trigger": false,
      "taf_trigger": false,
      "metar": "METAR OMDB 080630Z 23008KT 190V260 8000 NSC 38/17 Q1004 BECMG 28012KT",
      "taf": "TAF OMDB 080500Z 0806/0912 21008KT 8000 NSC"
    },
    {
      "icao": "UAAA",
      "alert": "OK",
      "vis_m": 9999,
      "fzfg": false,
      "metar_trigger": false,
      "taf_trigger": false,
      "metar": "METAR UAAA 080630Z 07005MPS 9999 FEW050 29/11 Q1014 NOSIG",
      "taf": "TAF UAAA 080504Z 0806/0906 05005MPS 9999 FEW050CB SCT100 TX30/0810Z TN15/0900Z"
    },
    {
      "icao": "UBBB",
      "alert": "OK",
      "vis_m": 9999,
      "fzfg": false,
      "metar_trigger": false,
      "taf_trigger": false,
      "metar": "METAR UBBB 080630Z 16008KT 120V210 9999 FEW060CB 26/15 Q1016 NOSIG",
      "taf": "TAF UBBB 080503Z 0806/0906 12006KT 9999 FEW040 TX27/0810Z TN18/0900Z"
    },
    {
      "icao": "UDSG",
      "alert": "OK",
      "vis_m": 9999,
      "fzfg": false,
      "metar_trigger": false,
      "taf_trigger": false,
      "metar": "METAR UDSG 080630Z 28003KT 250V330 9999 FEW049CB 18/09 Q1020 NOSIG",
      "taf": "TAF UDSG 080458Z 0806/0906 24006KT 9999 SCT050"
    },
    {
      "icao": "UDYZ",
      "alert": "OK",
      "vis_m": 9999,
      "fzfg": false,
      "metar_trigger": false,
      "taf_trigger": false,
      "metar": "METAR UDYZ 080630Z 22004KT 9999 FEW046 24/10 Q1016 NOSIG",
      "taf": "TAF UDYZ 080500Z 0806/0906 20006KT 9999 FEW040"
    },
    {
      "icao": "UGKO",
      "alert": "OK",
      "vis_m": 9999,
      "fzfg": false,
      "metar_trigger": false,
      "taf_trigger": false,
      "metar": "METAR UGKO 080630Z 10004KT 060V170 CAVOK 24/16 Q1015 NOSIG",
      "taf": "TAF UGKO 080500Z 0806/0906 25006KT CAVOK TX27/0811Z TN16/0902Z"
    }
  ]
}