{
  "ts_utc": "2026-05-20T08:04:39Z",
  "threshold_m": 150,
  "source": "stations_override.txt (ICAO list) + aviationweather.gov (METAR/TAF raw)",
  "station_count": 159,
  "stations": [
    {
      "icao": "BIKF",
      "alert": "OK",
      "vis_m": 9999,
      "fzfg": false,
      "metar_trigger": false,
      "taf_trigger": false,
      "metar": "METAR BIKF 200730Z 35015KT CAVOK 06/04 Q1010",
      "taf": "TAF BIKF 200740Z 2009/2109 36013KT CAVOK TX12/2015Z TN05/2105Z"
    },
    {
      "icao": "BKPR",
      "alert": "OK",
      "vis_m": 9999,
      "fzfg": false,
      "metar_trigger": false,
      "taf_trigger": false,
      "metar": "METAR BKPR 200800Z 36008KT 9999 FEW030 SCT070 17/09 Q1019 NOSIG",
      "taf": "TAF BKPR 200530Z 2006/2106 33008KT 9999 SCT050"
    },
    {
      "icao": "EBCI",
      "alert": "OK",
      "vis_m": 9999,
      "fzfg": false,
      "metar_trigger": false,
      "taf_trigger": false,
      "metar": "METAR EBCI 200750Z 23014KT 9999 SCT015 BKN022 13/10 Q1020 NOSIG",
      "taf": "TAF EBCI 200510Z 2006/2112 23009KT 9999 BKN025"
    },
    {
      "icao": "EDDB",
      "alert": "OK",
      "vis_m": 9999,
      "fzfg": false,
      "metar_trigger": false,
      "taf_trigger": false,
      "metar": "METAR EDDB 200750Z AUTO 24007KT 200V270 CAVOK 18/10 Q1019 NOSIG",
      "taf": "TAF EDDB 200500Z 2006/2106 16004KT 9999 FEW035"
    },
    {
      "icao": "EDDH",
      "alert": "OK",
      "vis_m": 9999,
      "fzfg": false,
      "metar_trigger": false,
      "taf_trigger": false,
      "metar": "METAR EDDH 200750Z AUTO 21008KT 170V230 9999 BKN014 BKN023 OVC042 15/13 Q1017 TEMPO BKN015",
      "taf": "TAF EDDH 200500Z 2006/2112 16006KT 9999 BKN012"
    },
    {
      "icao": "EDDK",
      "alert": "OK",
      "vis_m": 9999,
      "fzfg": false,
      "metar_trigger": false,
      "taf_trigger": false,
      "metar": "METAR EDDK 200750Z AUTO 09003KT 030V150 9999 -SHRA BKN027 BKN042 FEW///TCU 14/12 Q1020 RESHRA BECMG 24007KT NSW",
      "taf": ""
    },
    {
      "icao": "EDDN",
      "alert": "OK",
      "vis_m": 9999,
      "fzfg": false,
      "metar_trigger": false,
      "taf_trigger": false,
      "metar": "METAR EDDN 200750Z AUTO 14005KT 100V170 9999 FEW020 BKN034 OVC040 13/10 Q1022 BECMG 24005KT",
      "taf": "TAF EDDN 200500Z 2006/2106 13005KT 9999 BKN030"
    },
    {
      "icao": "EDDS",
      "alert": "OK",
      "vis_m": 9999,
      "fzfg": false,
      "metar_trigger": false,
      "taf_trigger": false,
      "metar": "METAR EDDS 200750Z AUTO VRB06KT 9999 FEW038 16/11 Q1023 NOSIG",
      "taf": "TAF EDDS 200500Z 2006/2106 VRB03KT 9999 SCT030"
    },
    {
      "icao": "EDFH",
      "alert": "OK",
      "vis_m": 9999,
      "fzfg": false,
      "metar_trigger": false,
      "taf_trigger": false,
      "metar": "METAR EDFH 200750Z 25009KT 230V290 9999 FEW014 BKN018 BKN041 13/10 Q1021",
      "taf": "TAF EDFH 200500Z 2006/2106 23006KT 9999 BKN010"
    },
    {
      "icao": "EDJA",
      "alert": "OK",
      "vis_m": 3500,
      "fzfg": false,
      "metar_trigger": false,
      "taf_trigger": false,
      "metar": "METAR EDJA 200750Z 23009KT 3500 -RA BR FEW004 BKN006 OVC008 11/11 Q1025 RERA",
      "taf": ""
    },
    {
      "icao": "EDLW",
      "alert": "OK",
      "vis_m": 9999,
      "fzfg": false,
      "metar_trigger": false,
      "taf_trigger": false,
      "metar": "METAR EDLW 200750Z 19008KT 9999 SCT044 13/12 Q1019",
      "taf": "TAF EDLW 200500Z 2006/2106 23010KT 9999 SCT025 BKN040"
    },
    {
      "icao": "EDNY",
      "alert": "OK",
      "vis_m": 9999,
      "fzfg": false,
      "metar_trigger": false,
      "taf_trigger": false,
      "metar": "METAR EDNY 200750Z 18004KT 150V220 9999 FEW004 BKN010 OVC020 12/11 Q1025",
      "taf": ""
    },
    {
      "icao": "EDSB",
      "alert": "OK",
      "vis_m": 9999,
      "fzfg": false,
      "metar_trigger": false,
      "taf_trigger": false,
      "metar": "METAR EDSB 200750Z 22005KT 9999 OVC033 15/13 Q1023",
      "taf": "TAF EDSB 200500Z 2006/2106 22005KT 9999 SCT030"
    },
    {
      "icao": "EETN",
      "alert": "OK",
      "vis_m": 9999,
      "fzfg": false,
      "metar_trigger": false,
      "taf_trigger": false,
      "metar": "METAR EETN 200750Z 26010KT 9999 OVC007 11/09 Q1020 BECMG BKN010",
      "taf": "TAF EETN 200530Z 2006/2106 24010KT 9999 OVC005"
    },
    {
      "icao": "EFTU",
      "alert": "OK",
      "vis_m": 9999,
      "fzfg": false,
      "metar_trigger": false,
      "taf_trigger": false,
      "metar": "METAR EFTU 200750Z AUTO 28004KT 250V340 9999 OVC009 11/09 Q1020",
      "taf": "TAF EFTU 200532Z 2006/2106 27008KT 4000 BR OVC002"
    },
    {
      "icao": "EGBB",
      "alert": "OK",
      "vis_m": 9999,
      "fzfg": false,
      "metar_trigger": false,
      "taf_trigger": false,
      "metar": "METAR EGBB 200750Z 22007KT 180V280 9999 BKN021 13/09 Q1014",
      "taf": "TAF EGBB 200456Z 2006/2106 23009KT 9999 SCT025"
    },
    {
      "icao": "EGGP",
      "alert": "OK",
      "vis_m": 9999,
      "fzfg": false,
      "metar_trigger": false,
      "taf_trigger": false,
      "metar": "METAR EGGP 200750Z 23010KT 9999 BKN042 12/09 Q1011",
      "taf": "TAF EGGP 200456Z 2006/2106 23010KT 9999 SCT030"
    },
    {
      "icao": "EGGW",
      "alert": "OK",
      "vis_m": 9999,
      "fzfg": false,
      "metar_trigger": false,
      "taf_trigger": false,
      "metar": "METAR EGGW 200750Z AUTO 25018KT 9999 SCT022 14/09 Q1015",
      "taf": "TAF EGGW 200500Z 2006/2106 24013KT 9999 SCT020"
    },
    {
      "icao": "EGKK",
      "alert": "OK",
      "vis_m": 9999,
      "fzfg": false,
      "metar_trigger": false,
      "taf_trigger": false,
      "metar": "METAR EGKK 200750Z 23011KT 9999 FEW027 14/10 Q1017",
      "taf": "TAF EGKK 200459Z 2006/2112 23010KT 9999 SCT025"
    },
    {
      "icao": "EGNM",
      "alert": "OK",
      "vis_m": 9999,
      "fzfg": false,
      "metar_trigger": false,
      "taf_trigger": false,
      "metar": "METAR EGNM 200750Z 25013KT 9999 VCSH FEW018 BKN026 11/08 Q1010",
      "taf": "TAF EGNM 200455Z 2006/2106 24014KT 9999 SCT020"
    },
    {
      "icao": "EGPD",
      "alert": "OK",
      "vis_m": 9999,
      "fzfg": false,
      "metar_trigger": false,
      "taf_trigger": false,
      "metar": "METAR EGPD 200750Z COR AUTO 21009KT 9999 NCD 14/10 Q1004 NOSIG",
      "taf": "TAF EGPD 200454Z 2006/2106 15007KT 9999 FEW035"
    },
    {
      "icao": "EGPF",
      "alert": "OK",
      "vis_m": 9999,
      "fzfg": false,
      "metar_trigger": false,
      "taf_trigger": false,
      "metar": "METAR EGPF 200750Z AUTO 22012KT 9999 FEW012 BKN032 12/10 Q1006",
      "taf": "TAF EGPF 200459Z 2006/2106 23010KT 9999 SCT012"
    },
    {
      "icao": "EHBK",
      "alert": "OK",
      "vis_m": 9999,
      "fzfg": false,
      "metar_trigger": false,
      "taf_trigger": false,
      "metar": "METAR EHBK 200755Z AUTO 23010KT 190V270 9999 OVC032 13/12 Q1019 TEMPO 7000 SHRA FEW020CB",
      "taf": "TAF EHBK 200454Z 2006/2112 21010KT 9999 BKN020"
    },
    {
      "icao": "EHEH",
      "alert": "OK",
      "vis_m": 9999,
      "fzfg": false,
      "metar_trigger": false,
      "taf_trigger": false,
      "metar": "METAR EHEH 200725Z AUTO 22010KT 180V260 9999 ////// 15/12 Q1018 BLU TEMPO FEW012 SCT020CB RMK TREND REMOTE BY EHWX",
      "taf": "TAF EHEH 200605Z 2006/2112 18007KT CAVOK"
    },
    {
      "icao": "EKBI",
      "alert": "OK",
      "vis_m": 3100,
      "fzfg": false,
      "metar_trigger": false,
      "taf_trigger": false,
      "metar": "METAR EKBI 200751Z 15007KT 120V180 3100 -DZ OVC005 12/12 Q1015",
      "taf": "TAF EKBI 200527Z 2006/2106 14006KT 8000 BKN018"
    },
    {
      "icao": "EKCH",
      "alert": "OK",
      "vis_m": 9999,
      "fzfg": false,
      "metar_trigger": false,
      "taf_trigger": false,
      "metar": "METAR EKCH 200750Z AUTO 14011KT 9999 OVC056/// 13/09 Q1018 NOSIG",
      "taf": ""
    },
    {
      "icao": "ENAL",
      "alert": "OK",
      "vis_m": 9999,
      "fzfg": false,
      "metar_trigger": false,
      "taf_trigger": false,
      "metar": "METAR ENAL 200750Z 14005G15KT 120V190 CAVOK 16/06 Q1013",
      "taf": "TAF ENAL 200500Z 2006/2015 14008KT CAVOK"
    },
    {
      "icao": "ENBR",
      "alert": "OK",
      "vis_m": 9999,
      "fzfg": false,
      "metar_trigger": false,
      "taf_trigger": false,
      "metar": "METAR ENBR 200750Z 11006KT 080V160 CAVOK 13/04 Q1012 NOSIG RMK WIND 1200FT 12018KT",
      "taf": "TAF ENBR 200500Z 2006/2106 13008KT CAVOK"
    },
    {
      "icao": "ENGM",
      "alert": "OK",
      "vis_m": 9999,
      "fzfg": false,
      "metar_trigger": false,
      "taf_trigger": false,
      "metar": "METAR ENGM 200750Z VRB02KT CAVOK 14/05 Q1017 NOSIG",
      "taf": "TAF ENGM 200500Z 2006/2106 VRB03KT CAVOK"
    },
    {
      "icao": "ENHD",
      "alert": "OK",
      "vis_m": 9999,
      "fzfg": false,
      "metar_trigger": false,
      "taf_trigger": false,
      "metar": "METAR ENHD 200750Z 13017KT 9999 -SHRA SCT035 BKN045 14/06 Q1011",
      "taf": "TAF ENHD 200500Z 2006/2015 12012KT 9999 -SHRA SCT040"
    },
    {
      "icao": "ENTC",
      "alert": "OK",
      "vis_m": 9999,
      "fzfg": false,
      "metar_trigger": false,
      "taf_trigger": false,
      "metar": "METAR ENTC 200750Z VRB02KT CAVOK 15/05 Q1018 NOSIG RMK WIND 2600FT 15016KT",
      "taf": "TAF ENTC 200500Z 2006/2106 VRB03KT CAVOK"
    },
    {
      "icao": "ENTO",
      "alert": "OK",
      "vis_m": 9999,
      "fzfg": false,
      "metar_trigger": false,
      "taf_trigger": false,
      "metar": "METAR ENTO 200750Z VRB02KT 9999 SCT049 14/06 Q1017 NOSIG",
      "taf": "TAF ENTO 200500Z 2006/2106 VRB03KT CAVOK"
    },
    {
      "icao": "ENVA",
      "alert": "OK",
      "vis_m": 9999,
      "fzfg": false,
      "metar_trigger": false,
      "taf_trigger": false,
      "metar": "METAR ENVA 200750Z 17003KT 100V250 CAVOK 15/07 Q1015 NOSIG RMK WIND 670FT 09005KT",
      "taf": "TAF ENVA 200500Z 2006/2106 VRB03KT CAVOK"
    },
    {
      "icao": "ENZV",
      "alert": "OK",
      "vis_m": 9999,
      "fzfg": false,
      "metar_trigger": false,
      "taf_trigger": false,
      "metar": "METAR ENZV 200750Z 13014KT 9999 -RA FEW031 14/08 Q1011 TEMPO 15015G25KT SHRA BKN020CB",
      "taf": ""
    },
    {
      "icao": "EPGD",
      "alert": "OK",
      "vis_m": 9999,
      "fzfg": false,
      "metar_trigger": false,
      "taf_trigger": false,
      "metar": "METAR EPGD 200730Z 10005KT 060V130 CAVOK 14/09 Q1021",
      "taf": "TAF EPGD 200530Z 2006/2106 VRB02KT CAVOK"
    },
    {
      "icao": "EPKK",
      "alert": "OK",
      "vis_m": 9999,
      "fzfg": false,
      "metar_trigger": false,
      "taf_trigger": false,
      "metar": "METAR EPKK 200730Z 23003KT 170V270 CAVOK 17/11 Q1021",
      "taf": "TAF EPKK 200530Z 2006/2106 24004KT CAVOK"
    },
    {
      "icao": "EPKT",
      "alert": "OK",
      "vis_m": 9999,
      "fzfg": false,
      "metar_trigger": false,
      "taf_trigger": false,
      "metar": "METAR EPKT 200730Z VRB03KT CAVOK 18/09 Q1021",
      "taf": "TAF EPKT 200530Z 2006/2106 VRB02KT CAVOK"
    },
    {
      "icao": "EPLB",
      "alert": "OK",
      "vis_m": 9999,
      "fzfg": false,
      "metar_trigger": false,
      "taf_trigger": false,
      "metar": "METAR EPLB 200730Z 30007KT CAVOK 17/11 Q1020",
      "taf": "TAF EPLB 200530Z 2006/2106 VRB02KT CAVOK"
    },
    {
      "icao": "EPMO",
      "alert": "OK",
      "vis_m": 9999,
      "fzfg": false,
      "metar_trigger": false,
      "taf_trigger": false,
      "metar": "METAR EPMO 200730Z 17003KT 080V230 9999 FEW031 17/11 Q1020",
      "taf": "TAF EPMO 200530Z 2006/2106 VRB02KT CAVOK"
    },
    {
      "icao": "EPPO",
      "alert": "OK",
      "vis_m": 9999,
      "fzfg": false,
      "metar_trigger": false,
      "taf_trigger": false,
      "metar": "METAR EPPO 200730Z 20004KT CAVOK 19/07 Q1020",
      "taf": "TAF EPPO 200530Z 2006/2106 VRB05KT CAVOK"
    },
    {
      "icao": "EPRA",
      "alert": "OK",
      "vis_m": 9999,
      "fzfg": false,
      "metar_trigger": false,
      "taf_trigger": false,
      "metar": "METAR EPRA 200730Z 35005KT 310V040 9999 FEW026 16/10 Q1021",
      "taf": "TAF EPRA 200530Z 2006/2015 33004KT 9999 SCT040"
    },
    {
      "icao": "EPRZ",
      "alert": "OK",
      "vis_m": 9999,
      "fzfg": false,
      "metar_trigger": false,
      "taf_trigger": false,
      "metar": "METAR EPRZ 200730Z 32005KT 260V360 9999 FEW026 17/11 Q1021",
      "taf": "TAF EPRZ 200530Z 2006/2106 VRB02KT CAVOK"
    },
    {
      "icao": "EPSC",
      "alert": "OK",
      "vis_m": 9999,
      "fzfg": false,
      "metar_trigger": false,
      "taf_trigger": false,
      "metar": "METAR EPSC 200730Z 14007KT CAVOK 15/11 Q1019",
      "taf": "TAF EPSC 200530Z 2006/2106 VRB03KT CAVOK"
    },
    {
      "icao": "EPSY",
      "alert": "OK",
      "vis_m": 9999,
      "fzfg": false,
      "metar_trigger": false,
      "taf_trigger": false,
      "metar": "METAR EPSY 200730Z 04005KT 360V090 CAVOK 18/11 Q1021",
      "taf": "TAF EPSY 200530Z 2006/2015 06007KT CAVOK"
    },
    {
      "icao": "EPWA",
      "alert": "OK",
      "vis_m": 9999,
      "fzfg": false,
      "metar_trigger": false,
      "taf_trigger": false,
      "metar": "METAR EPWA 200730Z 27004KT 200V360 9999 FEW030 17/10 Q1020 NOSIG",
      "taf": "TAF EPWA 200530Z 2006/2106 VRB02KT CAVOK"
    },
    {
      "icao": "EPWR",
      "alert": "OK",
      "vis_m": 9999,
      "fzfg": false,
      "metar_trigger": false,
      "taf_trigger": false,
      "metar": "METAR EPWR 200730Z VRB02KT CAVOK 19/10 Q1021",
      "taf": "TAF EPWR 200530Z 2006/2106 VRB05KT CAVOK"
    },
    {
      "icao": "ESGG",
      "alert": "OK",
      "vis_m": 9999,
      "fzfg": false,
      "metar_trigger": false,
      "taf_trigger": false,
      "metar": "METAR ESGG 200750Z 14008KT 110V180 CAVOK 16/05 Q1018",
      "taf": "TAF ESGG 200530Z 2006/2106 16007KT CAVOK"
    },
    {
      "icao": "ESKN",
      "alert": "OK",
      "vis_m": 9999,
      "fzfg": false,
      "metar_trigger": false,
      "taf_trigger": false,
      "metar": "METAR ESKN 200750Z 14009KT CAVOK 15/08 Q1020",
      "taf": "TAF ESKN 200530Z 2006/2106 VRB02KT CAVOK"
    },
    {
      "icao": "ESMS",
      "alert": "OK",
      "vis_m": 9999,
      "fzfg": false,
      "metar_trigger": false,
      "taf_trigger": false,
      "metar": "METAR ESMS 200750Z 12008KT CAVOK 14/09 Q1018",
      "taf": ""
    },
    {
      "icao": "ESSA",
      "alert": "OK",
      "vis_m": 9999,
      "fzfg": false,
      "metar_trigger": false,
      "taf_trigger": false,
      "metar": "METAR ESSA 200750Z 17006KT 140V230 CAVOK 16/07 Q1019 NOSIG",
      "taf": "TAF ESSA 200530Z 2006/2106 17003KT CAVOK"
    },
    {
      "icao": "EYKA",
      "alert": "OK",
      "vis_m": 9999,
      "fzfg": false,
      "metar_trigger": false,
      "taf_trigger": false,
      "metar": "METAR EYKA 200750Z 33005KT 290V010 9999 OVC009 12/10 Q1021",
      "taf": "TAF EYKA 200500Z 2006/2106 VRB03KT 9000 OVC005"
    },
    {
      "icao": "EYPA",
      "alert": "OK",
      "vis_m": 9999,
      "fzfg": false,
      "metar_trigger": false,
      "taf_trigger": false,
      "metar": "METAR EYPA 200750Z 13003KT 100V170 9999 OVC005 10/09 Q1022",
      "taf": ""
    },
    {
      "icao": "EYVI",
      "alert": "OK",
      "vis_m": 9999,
      "fzfg": false,
      "metar_trigger": false,
      "taf_trigger": false,
      "metar": "METAR EYVI 200750Z 01006KT 330V040 9999 -RA OVC013 13/10 Q1021 NOSIG",
      "taf": "TAF EYVI 200503Z 2006/2106 36011KT 9000 OVC010"
    },
    {
      "icao": "GCFV",
      "alert": "OK",
      "vis_m": 9999,
      "fzfg": false,
      "metar_trigger": false,
      "taf_trigger": false,
      "metar": "METAR GCFV 200730Z 30006KT 280V340 9999 FEW025 20/15 Q1017",
      "taf": "TAF GCFV 200200Z 2003/2103 35010KT 9999 FEW020 TX27/2014Z TN17/2006Z"
    },
    {
      "icao": "GCLP",
      "alert": "OK",
      "vis_m": 9999,
      "fzfg": false,
      "metar_trigger": false,
      "taf_trigger": false,
      "metar": "METAR GCLP 200730Z 36014KT 340V040 9999 FEW025 19/14 Q1018 NOSIG",
      "taf": "TAF GCLP 200200Z 2003/2103 36015KT 9999 SCT025 TX25/2014Z TN18/2006Z"
    },
    {
      "icao": "GCTS",
      "alert": "OK",
      "vis_m": 9999,
      "fzfg": false,
      "metar_trigger": false,
      "taf_trigger": false,
      "metar": "METAR GCTS 200730Z 02004KT 9999 FEW030 18/13 Q1019 NOSIG",
      "taf": "TAF GCTS 200200Z 2003/2103 04006KT 9999 FEW030 TX26/2014Z TN17/2006Z"
    },
    {
      "icao": "GMAD",
      "alert": "OK",
      "vis_m": 8000,
      "fzfg": false,
      "metar_trigger": false,
      "taf_trigger": false,
      "metar": "METAR GMAD 200730Z 00000KT 8000 NSC 19/15 Q1016 NOSIG",
      "taf": "TAF GMAD 200500Z 2006/2112 26006KT 8000 NSC"
    },
    {
      "icao": "GMMN",
      "alert": "OK",
      "vis_m": 9999,
      "fzfg": false,
      "metar_trigger": false,
      "taf_trigger": false,
      "metar": "METAR GMMN 200730Z 07005KT 040V100 CAVOK 20/14 Q1019 NOSIG",
      "taf": "TAF GMMN 200500Z 2006/2112 04007KT CAVOK"
    },
    {
      "icao": "GMMX",
      "alert": "OK",
      "vis_m": 9999,
      "fzfg": false,
      "metar_trigger": false,
      "taf_trigger": false,
      "metar": "METAR GMMX 200730Z 10007KT CAVOK 24/14 Q1018 NOSIG",
      "taf": "TAF GMMX 200500Z 2006/2112 06006KT CAVOK"
    },
    {
      "icao": "HEGN",
      "alert": "OK",
      "vis_m": 9999,
      "fzfg": false,
      "metar_trigger": false,
      "taf_trigger": false,
      "metar": "METAR HEGN 200800Z 35011KT 9999 SCT020 SCT025 32/10 Q1009",
      "taf": "TAF HEGN 200500Z 2006/2112 34018KT CAVOK"
    },
    {
      "icao": "HEMA",
      "alert": "OK",
      "vis_m": 9999,
      "fzfg": false,
      "metar_trigger": false,
      "taf_trigger": false,
      "metar": "METAR HEMA 200800Z 35022KT CAVOK 33/12 Q1008",
      "taf": "TAF HEMA 200500Z 2006/2112 36018KT CAVOK"
    },
    {
      "icao": "HESH",
      "alert": "OK",
      "vis_m": 9999,
      "fzfg": false,
      "metar_trigger": false,
      "taf_trigger": false,
      "metar": "METAR HESH 200800Z 34012KT CAVOK 30/13 Q1008",
      "taf": "TAF HESH 200500Z 2006/2112 02015KT CAVOK"
    },
    {
      "icao": "HESX",
      "alert": "OK",
      "vis_m": 9999,
      "fzfg": false,
      "metar_trigger": false,
      "taf_trigger": false,
      "metar": "METAR HESX 200800Z 34012KT CAVOK 24/15 Q1013",
      "taf": "TAF HESX 200500Z 2006/2112 32015KT CAVOK"
    },
    {
      "icao": "LATI",
      "alert": "OK",
      "vis_m": 9999,
      "fzfg": false,
      "metar_trigger": false,
      "taf_trigger": false,
      "metar": "METAR LATI 200750Z 34004KT 300V060 CAVOK 20/10 Q1017 NOSIG",
      "taf": "TAF LATI 200500Z 2006/2106 VRB03KT CAVOK TX26/2011Z TN11/2104Z"
    },
    {
      "icao": "LBPD",
      "alert": "OK",
      "vis_m": 9999,
      "fzfg": false,
      "metar_trigger": false,
      "taf_trigger": false,
      "metar": "METAR LBPD 200730Z AUTO 28016KT 9999 OVC130/// 19/10 Q1014 NOSIG",
      "taf": "TAF LBPD 200500Z 2006/2106 29014KT 9999 SCT050"
    },
    {
      "icao": "LBSF",
      "alert": "OK",
      "vis_m": 9999,
      "fzfg": false,
      "metar_trigger": false,
      "taf_trigger": false,
      "metar": "METAR LBSF 200730Z 28011KT 250V310 9999 FEW046 17/08 Q1017 NOSIG",
      "taf": "TAF LBSF 200500Z 2006/2106 29012KT 9999 BKN070"
    },
    {
      "icao": "LBWN",
      "alert": "OK",
      "vis_m": 9999,
      "fzfg": false,
      "metar_trigger": false,
      "taf_trigger": false,
      "metar": "METAR LBWN 200730Z 36017KT 330V030 9999 -RA FEW019 SCT032 18/14 Q1011 TEMPO 5000 SHRA FEW030TCU",
      "taf": "TAF LBWN 200500Z 2006/2106 35012KT 9999 SCT045"
    },
    {
      "icao": "LCLK",
      "alert": "OK",
      "vis_m": 9999,
      "fzfg": false,
      "metar_trigger": false,
      "taf_trigger": false,
      "metar": "METAR LCLK 200730Z 22021KT 9999 FEW025 24/18 Q1006 TEMPO 22022G32KT",
      "taf": "TAF LCLK 200530Z 2006/2106 22010KT 9999 FEW020"
    },
    {
      "icao": "LCPH",
      "alert": "OK",
      "vis_m": 9999,
      "fzfg": false,
      "metar_trigger": false,
      "taf_trigger": false,
      "metar": "METAR LCPH 200730Z 26014KT 250V320 9999 FEW025 BKN040 22/16 Q1007 NOSIG",
      "taf": "TAF LCPH 200530Z 2006/2106 34009KT 9999 FEW020"
    },
    {
      "icao": "LEAL",
      "alert": "OK",
      "vis_m": 9999,
      "fzfg": false,
      "metar_trigger": false,
      "taf_trigger": false,
      "metar": "METAR LEAL 200730Z 05003KT 010V100 CAVOK 22/13 Q1024 NOSIG",
      "taf": "TAF LEAL 200500Z 2006/2106 VRB04KT 9999 FEW010 TX27/2012Z TN16/2105Z"
    },
    {
      "icao": "LEBB",
      "alert": "OK",
      "vis_m": 9999,
      "fzfg": false,
      "metar_trigger": false,
      "taf_trigger": false,
      "metar": "METAR LEBB 200730Z 08003KT 020V190 CAVOK 20/13 Q1026 NOSIG",
      "taf": "TAF LEBB 200500Z 2006/2106 08009KT CAVOK TX24/2012Z TN14/2105Z"
    },
    {
      "icao": "LEBL",
      "alert": "OK",
      "vis_m": 7000,
      "fzfg": false,
      "metar_trigger": false,
      "taf_trigger": false,
      "metar": "METAR LEBL 200730Z 02003KT 7000 FEW010 21/16 Q1025 NOSIG",
      "taf": "TAF LEBL 200500Z 2006/2106 VRB04KT 9999 FEW010 TX23/2012Z TN16/2006Z"
    },
    {
      "icao": "LECH",
      "alert": "OK",
      "vis_m": 9999,
      "fzfg": false,
      "metar_trigger": false,
      "taf_trigger": false,
      "metar": "METAR LECH 200730Z AUTO 03004KT 350V080 CAVOK 18/11 Q1025",
      "taf": "TAF LECH 200500Z 2006/2106 VRB04KT 9999 FEW025 TX27/2012Z TN13/2105Z"
    },
    {
      "icao": "LEMD",
      "alert": "OK",
      "vis_m": 9999,
      "fzfg": false,
      "metar_trigger": false,
      "taf_trigger": false,
      "metar": "METAR LEMD 200730Z VRB02KT CAVOK 17/11 Q1025 NOSIG",
      "taf": "TAF LEMD 200500Z 2006/2112 VRB04KT CAVOK TX30/2016Z TN13/2105Z"
    },
    {
      "icao": "LEMG",
      "alert": "OK",
      "vis_m": 9999,
      "fzfg": false,
      "metar_trigger": false,
      "taf_trigger": false,
      "metar": "METAR LEMG 200730Z 30009KT CAVOK 18/09 Q1022 NOSIG",
      "taf": "TAF LEMG 200500Z 2006/2106 29006KT CAVOK TX27/2014Z TN16/2006Z"
    },
    {
      "icao": "LEVC",
      "alert": "OK",
      "vis_m": 9999,
      "fzfg": false,
      "metar_trigger": false,
      "taf_trigger": false,
      "metar": "METAR LEVC 200730Z VRB05KT CAVOK 20/15 Q1024 NOSIG",
      "taf": "TAF LEVC 200500Z 2006/2106 VRB04KT 9999 FEW015 TX27/2012Z TN16/2105Z"
    },
    {
      "icao": "LEXJ",
      "alert": "OK",
      "vis_m": 9999,
      "fzfg": false,
      "metar_trigger": false,
      "taf_trigger": false,
      "metar": "METAR LEXJ 200730Z VRB02KT CAVOK 18/13 Q1026",
      "taf": "TAF LEXJ 200200Z 2003/2103 20005KT 9999 BKN030 TX22/2012Z TN14/2103Z"
    },
    {
      "icao": "LEZG",
      "alert": "OK",
      "vis_m": 9999,
      "fzfg": false,
      "metar_trigger": false,
      "taf_trigger": false,
      "metar": "METAR LEZG 200730Z 29012KT 260V320 CAVOK 19/12 Q1025 NOSIG",
      "taf": "TAF LEZG 200500Z 2006/2106 30009KT CAVOK TX32/2014Z TN16/2105Z"
    },
    {
      "icao": "LEZL",
      "alert": "OK",
      "vis_m": 9999,
      "fzfg": false,
      "metar_trigger": false,
      "taf_trigger": false,
      "metar": "METAR LEZL 200730Z 05006KT 020V080 CAVOK 22/09 Q1021 NOSIG",
      "taf": "TAF LEZL 200200Z 2003/2103 VRB03KT CAVOK TX34/2015Z TN14/2006Z"
    },
    {
      "icao": "LFBD",
      "alert": "OK",
      "vis_m": 9999,
      "fzfg": false,
      "metar_trigger": false,
      "taf_trigger": false,
      "metar": "METAR LFBD 200730Z AUTO 24003KT 210V280 9999 FEW011 SCT050 OVC060 17/14 Q1027 TEMPO BKN008",
      "taf": "TAF LFBD 200500Z 2006/2112 22003KT 9999 BKN040 TX28/2112Z TN12/2105Z"
    },
    {
      "icao": "LFLL",
      "alert": "OK",
      "vis_m": 9999,
      "fzfg": false,
      "metar_trigger": false,
      "taf_trigger": false,
      "metar": "METAR LFLL 200730Z 34004KT 310V020 9999 FEW021 17/12 Q1026 NOSIG",
      "taf": "TAF LFLL 200500Z 2006/2112 VRB02KT CAVOK"
    },
    {
      "icao": "LFLS",
      "alert": "OK",
      "vis_m": 9999,
      "fzfg": false,
      "metar_trigger": false,
      "taf_trigger": false,
      "metar": "METAR LFLS 200730Z AUTO 11003KT 060V150 CAVOK 18/12 Q1026 NOSIG",
      "taf": "TAF LFLS 200200Z 2003/2103 09005KT CAVOK"
    },
    {
      "icao": "LFMN",
      "alert": "OK",
      "vis_m": 9999,
      "fzfg": false,
      "metar_trigger": false,
      "taf_trigger": false,
      "metar": "METAR LFMN 200730Z 06004KT 040V110 9999 FEW018 SCT260 18/13 Q1023 NOSIG",
      "taf": "TAF LFMN 200200Z 2003/2109 VRB05KT CAVOK"
    },
    {
      "icao": "LFOB",
      "alert": "OK",
      "vis_m": 9999,
      "fzfg": false,
      "metar_trigger": false,
      "taf_trigger": false,
      "metar": "METAR LFOB 200730Z AUTO 23011KT 9999 4100 -RA BKN017 BKN039 BKN049 14/12 Q1021 TEMPO 4000 -SHRA BKN014 BKN020TCU",
      "taf": "TAF LFOB 200500Z 2006/2106 23010KT 9999 SCT020 BKN040"
    },
    {
      "icao": "LFPO",
      "alert": "OK",
      "vis_m": 9999,
      "fzfg": false,
      "metar_trigger": false,
      "taf_trigger": false,
      "metar": "METAR LFPO 200730Z 23010KT 9999 BKN018 BKN060 15/11 Q1023 NOSIG",
      "taf": ""
    },
    {
      "icao": "LFSB",
      "alert": "OK",
      "vis_m": 9999,
      "fzfg": false,
      "metar_trigger": false,
      "taf_trigger": false,
      "metar": "METAR LFSB 200730Z AUTO 24004KT 210V280 9999 BKN024 BKN033 OVC052 15/13 Q1025 TEMPO FEW035TCU",
      "taf": "TAF LFSB 200500Z 2006/2106 17005KT 9999 SCT020 BKN040"
    },
    {
      "icao": "LGAV",
      "alert": "OK",
      "vis_m": 9999,
      "fzfg": false,
      "metar_trigger": false,
      "taf_trigger": false,
      "metar": "METAR LGAV 200750Z 33012KT 9999 FEW025 SCT070 22/10 Q1014 NOSIG",
      "taf": "TAF LGAV 200500Z 2006/2106 36010KT 9999 FEW025"
    },
    {
      "icao": "LGTS",
      "alert": "OK",
      "vis_m": 9999,
      "fzfg": false,
      "metar_trigger": false,
      "taf_trigger": false,
      "metar": "METAR LGTS 200750Z 31011KT 9999 FEW030 21/10 Q1015 NOSIG",
      "taf": "TAF LGTS 200500Z 2006/2106 34015KT 9999 FEW025"
    },
    {
      "icao": "LHBP",
      "alert": "OK",
      "vis_m": 9999,
      "fzfg": false,
      "metar_trigger": false,
      "taf_trigger": false,
      "metar": "METAR LHBP 200730Z VRB03KT 9999 FEW043 20/09 Q1020 NOSIG",
      "taf": "TAF LHBP 200515Z 2006/2106 35005KT CAVOK"
    },
    {
      "icao": "LHDC",
      "alert": "OK",
      "vis_m": 9999,
      "fzfg": false,
      "metar_trigger": false,
      "taf_trigger": false,
      "metar": "METAR LHDC 200715Z AUTO 01007KT 320V050 CAVOK 20/10 Q1019 NOSIG",
      "taf": "TAF LHDC 200515Z 2006/2015 01010KT CAVOK"
    },
    {
      "icao": "LIBD",
      "alert": "OK",
      "vis_m": 9999,
      "fzfg": false,
      "metar_trigger": false,
      "taf_trigger": false,
      "metar": "METAR LIBD 200750Z 31010KT 280V350 CAVOK 20/10 Q1020",
      "taf": "TAF LIBD 200500Z 2006/2106 28010KT CAVOK"
    },
    {
      "icao": "LIBG",
      "alert": "OK",
      "vis_m": 9999,
      "fzfg": false,
      "metar_trigger": false,
      "taf_trigger": false,
      "metar": "METAR LIBG 200650Z 01014KT CAVOK 21/11 Q1018",
      "taf": "TAF LIBG 200605Z 2007/2015 35015KT CAVOK"
    },
    {
      "icao": "LIBP",
      "alert": "OK",
      "vis_m": 9999,
      "fzfg": false,
      "metar_trigger": false,
      "taf_trigger": false,
      "metar": "METAR LIBP 200750Z AUTO 36007KT 330V030 9999 NCD 22/12 Q1022",
      "taf": "TAF LIBP 200500Z 2006/2106 VRB05KT 9999 BKN060"
    },
    {
      "icao": "LIBR",
      "alert": "OK",
      "vis_m": 9999,
      "fzfg": false,
      "metar_trigger": false,
      "taf_trigger": false,
      "metar": "METAR LIBR 200750Z 32016KT CAVOK 19/15 Q1019",
      "taf": "TAF LIBR 200500Z 2006/2106 32015KT CAVOK"
    },
    {
      "icao": "LICA",
      "alert": "OK",
      "vis_m": 9999,
      "fzfg": false,
      "metar_trigger": false,
      "taf_trigger": false,
      "metar": "METAR LICA 200750Z AUTO 26013KT 9999 NCD 21/15 Q1021",
      "taf": "TAF LICA 200500Z 2006/2106 26006KT 9999 SCT020"
    },
    {
      "icao": "LICC",
      "alert": "OK",
      "vis_m": 9999,
      "fzfg": false,
      "metar_trigger": false,
      "taf_trigger": false,
      "metar": "METAR LICC 200750Z VRB03KT CAVOK 22/14 Q1021",
      "taf": "TAF LICC 200500Z 2006/2106 26007KT CAVOK"
    },
    {
      "icao": "LICJ",
      "alert": "OK",
      "vis_m": 9999,
      "fzfg": false,
      "metar_trigger": false,
      "taf_trigger": false,
      "metar": "METAR LICJ 200750Z 30004KT 9999 FEW030 19/14 Q1023",
      "taf": "TAF LICJ 200500Z 2006/2106 19007KT 9999 FEW020"
    },
    {
      "icao": "LIMC",
      "alert": "OK",
      "vis_m": 9999,
      "fzfg": false,
      "metar_trigger": false,
      "taf_trigger": false,
      "metar": "METAR LIMC 200750Z 32003KT 280V030 CAVOK 20/12 Q1023 NOSIG",
      "taf": "TAF LIMC 200500Z 2006/2112 VRB05KT CAVOK"
    },
    {
      "icao": "LIME",
      "alert": "OK",
      "vis_m": 9999,
      "fzfg": false,
      "metar_trigger": false,
      "taf_trigger": false,
      "metar": "METAR LIME 200750Z 14004KT 090V200 9999 SCT100 19/11 Q1022 NOSIG",
      "taf": "TAF LIME 200500Z 2006/2106 VRB05KT CAVOK"
    },
    {
      "icao": "LIMF",
      "alert": "OK",
      "vis_m": 9999,
      "fzfg": false,
      "metar_trigger": false,
      "taf_trigger": false,
      "metar": "METAR LIMF 200750Z VRB02KT CAVOK 17/10 Q1023",
      "taf": "TAF LIMF 200500Z 2006/2106 VRB04KT CAVOK"
    },
    {
      "icao": "LIMJ",
      "alert": "OK",
      "vis_m": 9999,
      "fzfg": false,
      "metar_trigger": false,
      "taf_trigger": false,
      "metar": "METAR LIMJ 200750Z 18004KT 9999 FEW027 18/14 Q1023",
      "taf": "TAF LIMJ 200500Z 2006/2106 VRB05KT 9999 FEW010"
    },
    {
      "icao": "LIPE",
      "alert": "OK",
      "vis_m": 9999,
      "fzfg": false,
      "metar_trigger": false,
      "taf_trigger": false,
      "metar": "METAR LIPE 200750Z 29006KT 250V320 CAVOK 20/12 Q1022",
      "taf": "TAF LIPE 200500Z 2006/2106 VRB05KT CAVOK"
    },
    {
      "icao": "LIPH",
      "alert": "OK",
      "vis_m": 9999,
      "fzfg": false,
      "metar_trigger": false,
      "taf_trigger": false,
      "metar": "METAR LIPH 200750Z VRB01KT CAVOK 20/12 Q1022",
      "taf": "TAF LIPH 200500Z 2006/2106 VRB05KT 9999 FEW020"
    },
    {
      "icao": "LIPQ",
      "alert": "OK",
      "vis_m": 9999,
      "fzfg": false,
      "metar_trigger": false,
      "taf_trigger": false,
      "metar": "METAR LIPQ 200750Z AUTO VRB02KT 9999 BKN130/// 19/12 Q1021",
      "taf": "TAF LIPQ 200500Z 2006/2106 VRB05KT CAVOK"
    },
    {
      "icao": "LIPR",
      "alert": "OK",
      "vis_m": 9999,
      "fzfg": false,
      "metar_trigger": false,
      "taf_trigger": false,
      "metar": "METAR LIPR 200750Z 02005KT 350V050 CAVOK 21/12 Q1022",
      "taf": "TAF LIPR 200500Z 2006/2106 VRB05KT 9999 FEW060"
    },
    {
      "icao": "LIPX",
      "alert": "OK",
      "vis_m": 9999,
      "fzfg": false,
      "metar_trigger": false,
      "taf_trigger": false,
      "metar": "METAR LIPX 200750Z VRB02KT CAVOK 21/12 Q1022",
      "taf": "TAF LIPX 200500Z 2006/2106 VRB05KT CAVOK"
    },
    {
      "icao": "LIPY",
      "alert": "OK",
      "vis_m": 9999,
      "fzfg": false,
      "metar_trigger": false,
      "taf_trigger": false,
      "metar": "METAR LIPY 200750Z AUTO 32009KT 9999 NCD 21/12 Q1022",
      "taf": "TAF LIPY 200500Z 2006/2106 VRB05KT 9999 FEW060"
    },
    {
      "icao": "LIPZ",
      "alert": "OK",
      "vis_m": 9999,
      "fzfg": false,
      "metar_trigger": false,
      "taf_trigger": false,
      "metar": "METAR LIPZ 200750Z VRB02KT CAVOK 20/12 Q1022 NOSIG",
      "taf": "TAF LIPZ 200500Z 2006/2112 VRB05KT 9999 FEW030"
    },
    {
      "icao": "LIRF",
      "alert": "OK",
      "vis_m": 9999,
      "fzfg": false,
      "metar_trigger": false,
      "taf_trigger": false,
      "metar": "METAR LIRF 200750Z 29004KT 250V340 CAVOK 20/12 Q1022 NOSIG",
      "taf": "TAF LIRF 200500Z 2006/2112 35006KT CAVOK"
    },
    {
      "icao": "LIRN",
      "alert": "OK",
      "vis_m": 9999,
      "fzfg": false,
      "metar_trigger": false,
      "taf_trigger": false,
      "metar": "METAR LIRN 200750Z VRB01KT 9999 FEW030 20/13 Q1022 NOSIG",
      "taf": "TAF LIRN 200500Z 2006/2106 VRB05KT CAVOK"
    },
    {
      "icao": "LIRP",
      "alert": "OK",
      "vis_m": 9999,
      "fzfg": false,
      "metar_trigger": false,
      "taf_trigger": false,
      "metar": "METAR LIRP 200745Z 14003KT 9999 FEW015 17/14 Q1023 NOSIG",
      "taf": "TAF LIRP 200500Z 2006/2106 10003KT 9999 MIFG FEW020"
    },
    {
      "icao": "LIRZ",
      "alert": "OK",
      "vis_m": 9999,
      "fzfg": false,
      "metar_trigger": false,
      "taf_trigger": false,
      "metar": "METAR LIRZ 200750Z AUTO VRB01KT 9999 NCD 18/13 Q1023",
      "taf": "TAF LIRZ 200500Z 2006/2106 01006KT CAVOK"
    },
    {
      "icao": "LJLJ",
      "alert": "OK",
      "vis_m": 9999,
      "fzfg": false,
      "metar_trigger": false,
      "taf_trigger": false,
      "metar": "METAR LJLJ 200730Z VRB02KT CAVOK 13/09 Q1023 NOSIG",
      "taf": "TAF LJLJ 200500Z 2006/2106 VRB02KT CAVOK"
    },
    {
      "icao": "LKMT",
      "alert": "OK",
      "vis_m": 9999,
      "fzfg": false,
      "metar_trigger": false,
      "taf_trigger": false,
      "metar": "METAR LKMT 200730Z VRB02KT 9999 FEW030 17/09 Q1022 NOSIG",
      "taf": "TAF LKMT 200500Z 2006/2106 VRB02KT CAVOK"
    },
    {
      "icao": "LKPR",
      "alert": "OK",
      "vis_m": 9999,
      "fzfg": false,
      "metar_trigger": false,
      "taf_trigger": false,
      "metar": "METAR LKPR 200730Z 22007KT 180V250 9999 FEW043 18/08 Q1021 NOSIG",
      "taf": "TAF LKPR 200500Z 2006/2112 20005KT CAVOK"
    },
    {
      "icao": "LLBG",
      "alert": "OK",
      "vis_m": 9999,
      "fzfg": false,
      "metar_trigger": false,
      "taf_trigger": false,
      "metar": "METAR LLBG 200750Z 24008KT 180V300 9999 SCT025 26/13 Q1011 NOSIG",
      "taf": "TAF LLBG 200502Z 2006/2106 22007KT 9999 FEW020 TX25/2011Z TN18/2103Z"
    },
    {
      "icao": "LMML",
      "alert": "OK",
      "vis_m": 9999,
      "fzfg": false,
      "metar_trigger": false,
      "taf_trigger": false,
      "metar": "METAR LMML 200745Z 32011KT 290V350 9999 FEW011 22/12 Q1023 NOSIG",
      "taf": "TAF LMML 200500Z 2006/2106 30012KT CAVOK"
    },
    {
      "icao": "LOWW",
      "alert": "OK",
      "vis_m": 9999,
      "fzfg": false,
      "metar_trigger": false,
      "taf_trigger": false,
      "metar": "METAR LOWW 200750Z 36003KT 310V070 CAVOK 19/10 Q1022 NOSIG",
      "taf": "TAF LOWW 200515Z 2006/2112 VRB02KT CAVOK TX22/2014Z TN14/2006Z"
    },
    {
      "icao": "LPFR",
      "alert": "OK",
      "vis_m": 9999,
      "fzfg": false,
      "metar_trigger": false,
      "taf_trigger": false,
      "metar": "METAR LPFR 200730Z 09004KT 040V200 CAVOK 23/13 Q1020",
      "taf": "TAF LPFR 200500Z 2006/2106 VRB02KT CAVOK"
    },
    {
      "icao": "LPMA",
      "alert": "OK",
      "vis_m": 9999,
      "fzfg": false,
      "metar_trigger": false,
      "taf_trigger": false,
      "metar": "METAR LPMA 200730Z 35005KT 300V020 9999 SCT015 BKN030 18/13 Q1021",
      "taf": "TAF LPMA 200500Z 2006/2106 VRB05KT 9999 SCT015"
    },
    {
      "icao": "LPPR",
      "alert": "OK",
      "vis_m": 9999,
      "fzfg": false,
      "metar_trigger": false,
      "taf_trigger": false,
      "metar": "METAR LPPR 200730Z 03003KT 360V070 CAVOK 15/13 Q1024",
      "taf": "TAF LPPR 200500Z 2006/2106 VRB02KT 5000 BR SCT004"
    },
    {
      "icao": "LPPS",
      "alert": "OK",
      "vis_m": 9999,
      "fzfg": false,
      "metar_trigger": false,
      "taf_trigger": false,
      "metar": "METAR LPPS 200730Z 11007KT 9999 FEW015 BKN030 17/13 Q1021",
      "taf": "TAF LPPS 200500Z 2006/2112 04008KT 9999 SCT015"
    },
    {
      "icao": "LPPT",
      "alert": "OK",
      "vis_m": 9999,
      "fzfg": false,
      "metar_trigger": false,
      "taf_trigger": false,
      "metar": "METAR LPPT 200730Z 35006KT 320V020 9999 FEW008 17/14 Q1022",
      "taf": "TAF LPPT 200500Z 2006/2112 34005KT 9999 SCT008"
    },
    {
      "icao": "LQBK",
      "alert": "OK",
      "vis_m": 9999,
      "fzfg": false,
      "metar_trigger": false,
      "taf_trigger": false,
      "metar": "METAR LQBK 200730Z VRB02KT CAVOK 19/12 Q1021 NOSIG",
      "taf": "TAF LQBK 200500Z 2006/2106 15005KT CAVOK TX23/2014Z TN08/2104Z"
    },
    {
      "icao": "LQSA",
      "alert": "OK",
      "vis_m": 9999,
      "fzfg": false,
      "metar_trigger": false,
      "taf_trigger": false,
      "metar": "METAR LQSA 200730Z VRB02KT CAVOK 14/07 Q1021 NOSIG",
      "taf": "TAF LQSA 200500Z 2006/2106 29005KT 9999 SCT045 TX21/2014Z TN06/2104Z"
    },
    {
      "icao": "LQTZ",
      "alert": "OK",
      "vis_m": 9999,
      "fzfg": false,
      "metar_trigger": false,
      "taf_trigger": false,
      "metar": "METAR LQTZ 200730Z 30006KT CAVOK 17/11 Q1021",
      "taf": "TAF LQTZ 200500Z 2006/2106 27005KT CAVOK TX23/2013Z TN08/2104Z"
    },
    {
      "icao": "LRBC",
      "alert": "OK",
      "vis_m": 9999,
      "fzfg": false,
      "metar_trigger": false,
      "taf_trigger": false,
      "metar": "METAR LRBC 200730Z 34016KT 9999 FEW061 20/12 Q1014",
      "taf": "TAF LRBC 200500Z 2006/2015 34014KT 9999 SCT045"
    },
    {
      "icao": "LRBS",
      "alert": "OK",
      "vis_m": 9999,
      "fzfg": false,
      "metar_trigger": false,
      "taf_trigger": false,
      "metar": "METAR LRBS 200730Z 29005KT 210V340 CAVOK 21/14 Q1014 NOSIG",
      "taf": "TAF LRBS 200500Z 2006/2106 31008KT CAVOK"
    },
    {
      "icao": "LRBV",
      "alert": "OK",
      "vis_m": 9999,
      "fzfg": false,
      "metar_trigger": false,
      "taf_trigger": false,
      "metar": "METAR LRBV 200730Z 29008KT 260V320 9999 FEW017 SCT045 BKN072 16/12 Q1017",
      "taf": "TAF LRBV 200500Z 2006/2015 VRB04KT 9999 SCT065"
    },
    {
      "icao": "LRCL",
      "alert": "OK",
      "vis_m": 9999,
      "fzfg": false,
      "metar_trigger": false,
      "taf_trigger": false,
      "metar": "METAR LRCL 200730Z 12003KT 050V200 9999 FEW032 19/12 Q1017",
      "taf": "TAF LRCL 200500Z 2006/2015 VRB04KT CAVOK"
    },
    {
      "icao": "LRCV",
      "alert": "OK",
      "vis_m": 9999,
      "fzfg": false,
      "metar_trigger": false,
      "taf_trigger": false,
      "metar": "METAR LRCV 200730Z 28006KT CAVOK 17/14 Q1016",
      "taf": "TAF LRCV 200500Z 2006/2015 VRB04KT CAVOK"
    },
    {
      "icao": "LRIA",
      "alert": "OK",
      "vis_m": 9999,
      "fzfg": false,
      "metar_trigger": false,
      "taf_trigger": false,
      "metar": "METAR LRIA 200730Z 31013KT CAVOK 17/12 Q1014",
      "taf": "TAF LRIA 200500Z 2006/2015 32014KT 9999 SCT045"
    },
    {
      "icao": "LROP",
      "alert": "OK",
      "vis_m": 9999,
      "fzfg": false,
      "metar_trigger": false,
      "taf_trigger": false,
      "metar": "METAR LROP 200730Z 32006KT 290V360 CAVOK 21/15 Q1014 NOSIG",
      "taf": "TAF LROP 200500Z 2006/2106 32008KT CAVOK"
    },
    {
      "icao": "LRSB",
      "alert": "OK",
      "vis_m": 9999,
      "fzfg": false,
      "metar_trigger": false,
      "taf_trigger": false,
      "metar": "METAR LRSB 200730Z 31004KT 260V350 9999 FEW027 SCT055 18/12 Q1017 NOSIG",
      "taf": "TAF LRSB 200500Z 2006/2106 VRB04KT 9999 SCT040 BKN060"
    },
    {
      "icao": "LRSM",
      "alert": "OK",
      "vis_m": 9999,
      "fzfg": false,
      "metar_trigger": false,
      "taf_trigger": false,
      "metar": "METAR LRSM 200730Z 34004KT 280V090 CAVOK 20/12 Q1018",
      "taf": "TAF LRSM 200500Z 2006/2015 VRB04KT CAVOK"
    },
    {
      "icao": "LRSV",
      "alert": "OK",
      "vis_m": 9999,
      "fzfg": false,
      "metar_trigger": false,
      "taf_trigger": false,
      "metar": "METAR LRSV 200730Z 30012KT CAVOK 16/11 Q1015",
      "taf": "TAF LRSV 200500Z 2006/2015 32014KT CAVOK"
    },
    {
      "icao": "LRTM",
      "alert": "OK",
      "vis_m": 9999,
      "fzfg": false,
      "metar_trigger": false,
      "taf_trigger": false,
      "metar": "METAR LRTM 200730Z 26004KT 210V320 CAVOK 19/14 Q1017",
      "taf": "TAF LRTM 200500Z 2006/2015 VRB04KT CAVOK"
    },
    {
      "icao": "LRTR",
      "alert": "OK",
      "vis_m": 9999,
      "fzfg": false,
      "metar_trigger": false,
      "taf_trigger": false,
      "metar": "METAR LRTR 200730Z 30007KT 270V330 CAVOK 17/14 Q1018",
      "taf": "TAF LRTR 200500Z 2006/2106 34010KT CAVOK"
    },
    {
      "icao": "LTAC",
      "alert": "OK",
      "vis_m": 9999,
      "fzfg": false,
      "metar_trigger": false,
      "taf_trigger": false,
      "metar": "METAR LTAC 200750Z 06010KT 020V100 9999 SCT040 BKN100 16/10 Q1008 NOSIG RMK RWY21C 04011KT RWY03L 04011KT RWY21R 03011KT RWY03R 05009KT RWY21L 07006KT",
      "taf": "TAF LTAC 200440Z 2006/2106 03008KT 9999 SCT040 BKN100"
    },
    {
      "icao": "LTFM",
      "alert": "OK",
      "vis_m": 9999,
      "fzfg": false,
      "metar_trigger": false,
      "taf_trigger": false,
      "metar": "METAR LTFM 200750Z 35017KT 9999 BKN025 18/14 Q1010 NOSIG RMK RWY17L 34016KT RWY34L 33016KT RWY16R 34015KT RWY36 35019KT RWY18 34016KT",
      "taf": "TAF LTFM 200440Z 2006/2112 35014KT 9999 SCT012 BKN025"
    },
    {
      "icao": "LUKK",
      "alert": "OK",
      "vis_m": 9999,
      "fzfg": false,
      "metar_trigger": false,
      "taf_trigger": false,
      "metar": "METAR LUKK 200730Z 36012KT 320V030 9999 FEW049CB 19/13 Q1011 NOSIG",
      "taf": "TAF LUKK 200516Z 2006/2106 34012KT 9999 SCT040"
    },
    {
      "icao": "LWOH",
      "alert": "OK",
      "vis_m": 9999,
      "fzfg": false,
      "metar_trigger": false,
      "taf_trigger": false,
      "metar": "METAR LWOH 200750Z VRB04KT CAVOK 15/08 Q1018",
      "taf": "TAF LWOH 200520Z 2006/2106 33008KT 9999 FEW060"
    },
    {
      "icao": "LWSK",
      "alert": "OK",
      "vis_m": 9999,
      "fzfg": false,
      "metar_trigger": false,
      "taf_trigger": false,
      "metar": "METAR LWSK 200750Z 35011KT 260V040 9999 FEW050 19/10 Q1018 NOSIG",
      "taf": "TAF LWSK 200520Z 2006/2106 01005KT 9999 FEW070"
    },
    {
      "icao": "LYBE",
      "alert": "OK",
      "vis_m": 9999,
      "fzfg": false,
      "metar_trigger": false,
      "taf_trigger": false,
      "metar": "METAR LYBE 200730Z 30004KT 230V350 CAVOK 18/11 Q1020 NOSIG",
      "taf": "TAF LYBE 200500Z 2006/2106 27006KT 9999 SCT042 TX23/2013Z TN10/2104Z"
    },
    {
      "icao": "LYNI",
      "alert": "OK",
      "vis_m": 9999,
      "fzfg": false,
      "metar_trigger": false,
      "taf_trigger": false,
      "metar": "METAR LYNI 200730Z VRB02KT 9999 FEW040 BKN067 16/11 Q1018 BECMG 32015KT",
      "taf": "TAF LYNI 200500Z 2006/2106 32006KT 9999 SCT045 TX23/2014Z TN09/2104Z"
    },
    {
      "icao": "LYPG",
      "alert": "OK",
      "vis_m": 9999,
      "fzfg": false,
      "metar_trigger": false,
      "taf_trigger": false,
      "metar": "METAR LYPG 200730Z 31007KT 270V340 CAVOK 23/07 Q1018 NOSIG",
      "taf": "TAF LYPG 200500Z 2006/2106 36007KT CAVOK TX26/2014Z TN16/2103Z"
    },
    {
      "icao": "LZIB",
      "alert": "OK",
      "vis_m": 9999,
      "fzfg": false,
      "metar_trigger": false,
      "taf_trigger": false,
      "metar": "METAR LZIB 200730Z 29006KT 9999 FEW033 20/09 Q1021 NOSIG",
      "taf": "TAF LZIB 200515Z 2006/2106 VRB02KT CAVOK"
    },
    {
      "icao": "LZKZ",
      "alert": "OK",
      "vis_m": 9999,
      "fzfg": false,
      "metar_trigger": false,
      "taf_trigger": false,
      "metar": "METAR LZKZ 200730Z 36016KT CAVOK 18/09 Q1020 NOSIG",
      "taf": "TAF LZKZ 200515Z 2006/2106 02009KT CAVOK"
    },
    {
      "icao": "LZTT",
      "alert": "OK",
      "vis_m": 9999,
      "fzfg": false,
      "metar_trigger": false,
      "taf_trigger": false,
      "metar": "METAR LZTT 200730Z VRB03KT 9999 FEW050 14/06 Q1021 NOSIG",
      "taf": "TAF LZTT 200515Z 2006/2106 27005KT 9999 FEW050"
    },
    {
      "icao": "OEJN",
      "alert": "OK",
      "vis_m": 9999,
      "fzfg": false,
      "metar_trigger": false,
      "taf_trigger": false,
      "metar": "METAR OEJN 200700Z 27004KT CAVOK 36/17 Q1007 NOSIG",
      "taf": "TAF OEJN 200500Z 2006/2112 22010KT CAVOK"
    },
    {
      "icao": "OEMA",
      "alert": "OK",
      "vis_m": 4000,
      "fzfg": false,
      "metar_trigger": false,
      "taf_trigger": false,
      "metar": "METAR OEMA 200700Z 11007KT 4000 DU NSC 37/00 Q1013 NOSIG",
      "taf": "TAF OEMA 200500Z 2006/2112 10010KT 7000 NSC"
    },
    {
      "icao": "OJAI",
      "alert": "OK",
      "vis_m": 5000,
      "fzfg": false,
      "metar_trigger": false,
      "taf_trigger": false,
      "metar": "METAR OJAI 200700Z 26010KT 5000 HZ NSC 24/01 Q1013 NOSIG",
      "taf": "TAF OJAI 200435Z 2006/2112 29012KT 5000 HZ NSC"
    },
    {
      "icao": "OMAA",
      "alert": "OK",
      "vis_m": 4000,
      "fzfg": false,
      "metar_trigger": false,
      "taf_trigger": false,
      "metar": "SPECI OMAA 200740Z 27020KT 230V290 4000 BLDU NSC 40/05 Q1004 NOSIG",
      "taf": "TAF OMAA 200500Z 2006/2112 20010KT 8000 NSC"
    },
    {
      "icao": "OMDB",
      "alert": "OK",
      "vis_m": 4000,
      "fzfg": false,
      "metar_trigger": false,
      "taf_trigger": false,
      "metar": "METAR OMDB 200730Z 25010G21KT 150V290 4000 DU NSC 40/06 Q1003 NOSIG",
      "taf": ""
    },
    {
      "icao": "UAAA",
      "alert": "OK",
      "vis_m": 9999,
      "fzfg": false,
      "metar_trigger": false,
      "taf_trigger": false,
      "metar": "METAR UAAA 200730Z 32002MPS 9999 FEW050CB BKN100 18/M00 Q1011 NOSIG",
      "taf": "TAF UAAA 200504Z 2006/2106 34003MPS 9999 SCT050CB BKN100 TX21/2010Z TN08/2101Z"
    },
    {
      "icao": "UBBB",
      "alert": "OK",
      "vis_m": 9999,
      "fzfg": false,
      "metar_trigger": false,
      "taf_trigger": false,
      "metar": "METAR UBBB 200730Z 34006KT CAVOK 22/14 Q1007 NOSIG",
      "taf": "TAF UBBB 200502Z 2006/2106 36008KT 9999 SCT025 TX22/2010Z TN14/2100Z"
    },
    {
      "icao": "UDSG",
      "alert": "OK",
      "vis_m": 9999,
      "fzfg": false,
      "metar_trigger": false,
      "taf_trigger": false,
      "metar": "METAR UDSG 200730Z 14003KT 080V230 9999 FEW040TCU 13/04 Q1013 NOSIG",
      "taf": "TAF UDSG 200500Z 2006/2106 22006KT 9999 FEW050"
    },
    {
      "icao": "UDYZ",
      "alert": "OK",
      "vis_m": 9999,
      "fzfg": false,
      "metar_trigger": false,
      "taf_trigger": false,
      "metar": "METAR UDYZ 200730Z 14005KT 100V170 9999 FEW046 19/05 Q1010 NOSIG",
      "taf": "TAF UDYZ 200500Z 2006/2106 22006KT 9999 FEW040"
    },
    {
      "icao": "UGKO",
      "alert": "OK",
      "vis_m": 9999,
      "fzfg": false,
      "metar_trigger": false,
      "taf_trigger": false,
      "metar": "METAR UGKO 200730Z 08005KT 360V130 9999 FEW020 SCT070 19/14 Q1008 NOSIG",
      "taf": "TAF UGKO 200500Z 2006/2106 08007KT CAVOK TX24/2012Z TN13/2102Z"
    }
  ]
}