{
  "ts_utc": "2026-03-24T20:05:01Z",
  "threshold_m": 150,
  "source": "stations_override.txt (ICAO list) + aviationweather.gov (METAR/TAF raw)",
  "station_count": 159,
  "stations": [
    {
      "icao": "BIKF",
      "alert": "OK",
      "vis_m": 9999,
      "fzfg": false,
      "metar_trigger": false,
      "taf_trigger": false,
      "metar": "METAR BIKF 242000Z 08013KT CAVOK M02/M09 Q0996",
      "taf": "TAF BIKF 242000Z 2421/2521 08012KT 9999 SCT025 TXM02/2421Z TNM06/2508Z"
    },
    {
      "icao": "BKPR",
      "alert": "OK",
      "vis_m": 9999,
      "fzfg": false,
      "metar_trigger": false,
      "taf_trigger": false,
      "metar": "METAR BKPR 242000Z 32004KT 9999 SCT060 08/02 Q1016 NOSIG",
      "taf": "TAF BKPR 241730Z 2418/2518 34005KT 9999 BKN060"
    },
    {
      "icao": "EBCI",
      "alert": "OK",
      "vis_m": 9999,
      "fzfg": false,
      "metar_trigger": false,
      "taf_trigger": false,
      "metar": "METAR EBCI 241950Z 21014KT CAVOK 12/04 Q1011 BECMG 23015G25KT",
      "taf": "TAF EBCI 241715Z 2418/2524 22013KT CAVOK"
    },
    {
      "icao": "EDDB",
      "alert": "OK",
      "vis_m": 9999,
      "fzfg": false,
      "metar_trigger": false,
      "taf_trigger": false,
      "metar": "METAR EDDB 241950Z AUTO 20009KT CAVOK 12/03 Q1010 NOSIG",
      "taf": "TAF EDDB 241700Z 2418/2518 22012KT CAVOK"
    },
    {
      "icao": "EDDH",
      "alert": "OK",
      "vis_m": 9999,
      "fzfg": false,
      "metar_trigger": false,
      "taf_trigger": false,
      "metar": "METAR EDDH 241950Z AUTO 22015KT 9999 BKN048 13/03 Q1005 TEMPO 23015G25KT",
      "taf": "TAF EDDH 241700Z 2418/2524 22011KT 9000 BKN035"
    },
    {
      "icao": "EDDK",
      "alert": "OK",
      "vis_m": 9999,
      "fzfg": false,
      "metar_trigger": false,
      "taf_trigger": false,
      "metar": "METAR EDDK 241950Z AUTO 19008KT CAVOK 14/03 Q1012 NOSIG",
      "taf": "TAF EDDK 241700Z 2418/2524 19009KT CAVOK"
    },
    {
      "icao": "EDDN",
      "alert": "OK",
      "vis_m": 9999,
      "fzfg": false,
      "metar_trigger": false,
      "taf_trigger": false,
      "metar": "METAR EDDN 241950Z AUTO 17007KT CAVOK 11/00 Q1015 NOSIG",
      "taf": "TAF EDDN 241700Z 2418/2518 17004KT CAVOK"
    },
    {
      "icao": "EDDS",
      "alert": "OK",
      "vis_m": 9999,
      "fzfg": false,
      "metar_trigger": false,
      "taf_trigger": false,
      "metar": "METAR EDDS 241950Z AUTO VRB02KT CAVOK 10/01 Q1016 NOSIG",
      "taf": "TAF EDDS 241700Z 2418/2518 20004KT CAVOK"
    },
    {
      "icao": "EDFH",
      "alert": "OK",
      "vis_m": 9999,
      "fzfg": false,
      "metar_trigger": false,
      "taf_trigger": false,
      "metar": "METAR EDFH 241950Z 23008KT 200V260 CAVOK 11/02 Q1014",
      "taf": "TAF EDFH 241700Z 2418/2518 22010KT CAVOK"
    },
    {
      "icao": "EDJA",
      "alert": "OK",
      "vis_m": 9999,
      "fzfg": false,
      "metar_trigger": false,
      "taf_trigger": false,
      "metar": "METAR EDJA 241950Z 21008KT CAVOK 06/M00 Q1017",
      "taf": "TAF EDJA 241700Z 2418/2503 20006KT CAVOK"
    },
    {
      "icao": "EDLW",
      "alert": "OK",
      "vis_m": 9999,
      "fzfg": false,
      "metar_trigger": false,
      "taf_trigger": false,
      "metar": "METAR EDLW 241950Z 20013KT CAVOK 14/03 Q1010",
      "taf": "TAF EDLW 241700Z 2418/2518 21013KT CAVOK"
    },
    {
      "icao": "EDNY",
      "alert": "OK",
      "vis_m": 9999,
      "fzfg": false,
      "metar_trigger": false,
      "taf_trigger": false,
      "metar": "METAR EDNY 241950Z 00000KT CAVOK 07/M02 Q1018",
      "taf": "TAF EDNY 241700Z 2418/2503 VRB03KT CAVOK"
    },
    {
      "icao": "EDSB",
      "alert": "OK",
      "vis_m": 9999,
      "fzfg": false,
      "metar_trigger": false,
      "taf_trigger": false,
      "metar": "METAR EDSB 241950Z 21006KT CAVOK 10/02 Q1016",
      "taf": ""
    },
    {
      "icao": "EETN",
      "alert": "OK",
      "vis_m": 9999,
      "fzfg": false,
      "metar_trigger": false,
      "taf_trigger": false,
      "metar": "METAR EETN 241950Z 20012KT 9999 BKN040 06/M03 Q1001 NOSIG",
      "taf": "TAF EETN 241730Z 2418/2518 20015KT 9999 BKN045"
    },
    {
      "icao": "EFTU",
      "alert": "OK",
      "vis_m": 9999,
      "fzfg": false,
      "metar_trigger": false,
      "taf_trigger": false,
      "metar": "METAR EFTU 241950Z AUTO 21012KT 9999 FEW011 OVC031 03/01 Q0996",
      "taf": "TAF EFTU 241733Z 2418/2518 20011KT 9999 -RA FEW008 BKN025"
    },
    {
      "icao": "EGBB",
      "alert": "OK",
      "vis_m": 9999,
      "fzfg": false,
      "metar_trigger": false,
      "taf_trigger": false,
      "metar": "METAR EGBB 241950Z 22014G25KT 180V250 9999 -RA BKN013 BKN022 11/09 Q0999 RESHRA",
      "taf": "TAF EGBB 241657Z 2418/2518 21015G25KT 9999 SCT025"
    },
    {
      "icao": "EGGP",
      "alert": "OK",
      "vis_m": 9999,
      "fzfg": false,
      "metar_trigger": false,
      "taf_trigger": false,
      "metar": "METAR EGGP 241950Z 26025G36KT 9999 -SHRA BKN029 08/05 Q0996",
      "taf": "TAF EGGP 241658Z 2418/2518 22020G30KT 9999 FEW012 SCT022"
    },
    {
      "icao": "EGGW",
      "alert": "OK",
      "vis_m": 9999,
      "fzfg": false,
      "metar_trigger": false,
      "taf_trigger": false,
      "metar": "METAR EGGW 241950Z AUTO 22019KT 9999 BKN016 BKN020 OVC025 10/08 Q1002",
      "taf": "TAF EGGW 241655Z 2418/2518 22017G27KT 9999 BKN020"
    },
    {
      "icao": "EGKK",
      "alert": "OK",
      "vis_m": 9999,
      "fzfg": false,
      "metar_trigger": false,
      "taf_trigger": false,
      "metar": "METAR EGKK 241950Z 23018G28KT 9999 -RA BKN014 10/09 Q1006",
      "taf": ""
    },
    {
      "icao": "EGNM",
      "alert": "OK",
      "vis_m": 6000,
      "fzfg": false,
      "metar_trigger": false,
      "taf_trigger": false,
      "metar": "METAR EGNM 241950Z 26028G46KT 6000 -SHRA FEW010 SCT016 BKN025 08/06 Q0992",
      "taf": "TAF EGNM 241658Z 2418/2518 22012KT 9999 FEW009 BKN018"
    },
    {
      "icao": "EGPD",
      "alert": "OK",
      "vis_m": 9999,
      "fzfg": false,
      "metar_trigger": false,
      "taf_trigger": false,
      "metar": "METAR EGPD 241950Z COR AUTO 31008KT 9999 NCD 05/02 Q0989 NOSIG",
      "taf": ""
    },
    {
      "icao": "EGPF",
      "alert": "OK",
      "vis_m": 9999,
      "fzfg": false,
      "metar_trigger": false,
      "taf_trigger": false,
      "metar": "METAR EGPF 241950Z AUTO 29005KT 250V320 9999 NCD 06/03 Q0994",
      "taf": "TAF EGPF 241654Z 2418/2518 23008KT 9999 FEW020"
    },
    {
      "icao": "EHBK",
      "alert": "OK",
      "vis_m": 9999,
      "fzfg": false,
      "metar_trigger": false,
      "taf_trigger": false,
      "metar": "METAR EHBK 241955Z AUTO 21017KT 9999 NSC 13/05 Q1010 TEMPO 20016G26KT",
      "taf": "TAF EHBK 241710Z 2418/2524 22014KT CAVOK"
    },
    {
      "icao": "EHEH",
      "alert": "OK",
      "vis_m": 9999,
      "fzfg": false,
      "metar_trigger": false,
      "taf_trigger": false,
      "metar": "METAR EHEH 241955Z AUTO 20014KT 9999 OVC320 13/04 Q1008 BLU TEMPO 22015G25KT",
      "taf": "TAF EHEH 241757Z 2418/2524 21015G25KT CAVOK"
    },
    {
      "icao": "EKBI",
      "alert": "OK",
      "vis_m": 2700,
      "fzfg": false,
      "metar_trigger": false,
      "taf_trigger": false,
      "metar": "METAR EKBI 241950Z AUTO 21015KT 170V240 2700 -RA OVC004/// 08/07 Q0998",
      "taf": ""
    },
    {
      "icao": "EKCH",
      "alert": "OK",
      "vis_m": 3500,
      "fzfg": false,
      "metar_trigger": false,
      "taf_trigger": false,
      "metar": "METAR EKCH 241950Z 21013KT 3500 -RA OVC012 08/07 Q1003 BECMG 6000 BKN020",
      "taf": ""
    },
    {
      "icao": "ENAL",
      "alert": "OK",
      "vis_m": 9999,
      "fzfg": false,
      "metar_trigger": false,
      "taf_trigger": false,
      "metar": "METAR ENAL 241950Z 22023G34KT 9999 -RA FEW005 SCT024 BKN031 06/03 Q0979",
      "taf": "TAF ENAL 241700Z 2418/2503 20020KT 9999 SCT025 BKN040"
    },
    {
      "icao": "ENBR",
      "alert": "OK",
      "vis_m": 9999,
      "fzfg": false,
      "metar_trigger": false,
      "taf_trigger": false,
      "metar": "METAR ENBR 241950Z 16011KT 9999 FEW007 SCT020 05/04 Q0988 TEMPO FEW007 BKN012 RMK WIND 1200FT 21015KT",
      "taf": "TAF ENBR 241700Z 2418/2518 19015KT 9999 FEW012 BKN025"
    },
    {
      "icao": "ENGM",
      "alert": "OK",
      "vis_m": 9999,
      "fzfg": false,
      "metar_trigger": false,
      "taf_trigger": false,
      "metar": "METAR ENGM 241950Z 18005KT CAVOK 04/01 Q0989 NOSIG",
      "taf": ""
    },
    {
      "icao": "ENHD",
      "alert": "OK",
      "vis_m": 9999,
      "fzfg": false,
      "metar_trigger": false,
      "taf_trigger": false,
      "metar": "METAR ENHD 241950Z 16010KT 9999 -RA SCT040 06/05 Q0989",
      "taf": "TAF ENHD 241400Z 2415/2423 22016KT 9999 FEW008"
    },
    {
      "icao": "ENTC",
      "alert": "OK",
      "vis_m": 9999,
      "fzfg": false,
      "metar_trigger": false,
      "taf_trigger": false,
      "metar": "METAR ENTC 241950Z 05003KT CAVOK M01/M07 Q0982 NOSIG RMK WIND 2600FT 11008KT",
      "taf": "TAF ENTC 241700Z 2418/2518 04008KT CAVOK"
    },
    {
      "icao": "ENTO",
      "alert": "OK",
      "vis_m": 9999,
      "fzfg": false,
      "metar_trigger": false,
      "taf_trigger": false,
      "metar": "METAR ENTO 241950Z 19009KT CAVOK 06/03 Q0991 NOSIG",
      "taf": "TAF ENTO 241700Z 2418/2518 19008KT 9999 FEW005"
    },
    {
      "icao": "ENVA",
      "alert": "OK",
      "vis_m": 9999,
      "fzfg": false,
      "metar_trigger": false,
      "taf_trigger": false,
      "metar": "METAR ENVA 241950Z 18010KT CAVOK 08/M03 Q0979 NOSIG RMK WIND 670FT 19015KT",
      "taf": "TAF ENVA 241700Z 2418/2518 16008KT 9999 SCT050"
    },
    {
      "icao": "ENZV",
      "alert": "OK",
      "vis_m": 9000,
      "fzfg": false,
      "metar_trigger": false,
      "taf_trigger": false,
      "metar": "METAR ENZV 241950Z 18008KT 9000 -DZ SCT005 BKN007 06/06 Q0990 TEMPO 3000 RADZ BR BKN004",
      "taf": "TAF ENZV 241700Z 2418/2518 17010KT 9999 FEW010 BKN040"
    },
    {
      "icao": "EPGD",
      "alert": "OK",
      "vis_m": 9999,
      "fzfg": false,
      "metar_trigger": false,
      "taf_trigger": false,
      "metar": "METAR EPGD 242000Z 21010KT CAVOK 11/01 Q1009",
      "taf": "TAF EPGD 241730Z 2418/2518 19007KT CAVOK"
    },
    {
      "icao": "EPKK",
      "alert": "OK",
      "vis_m": 9999,
      "fzfg": false,
      "metar_trigger": false,
      "taf_trigger": false,
      "metar": "METAR EPKK 242000Z VRB02KT CAVOK 06/M01 Q1016",
      "taf": "TAF EPKK 241730Z 2418/2518 VRB02KT CAVOK"
    },
    {
      "icao": "EPKT",
      "alert": "OK",
      "vis_m": 9999,
      "fzfg": false,
      "metar_trigger": false,
      "taf_trigger": false,
      "metar": "METAR EPKT 242000Z 00000KT CAVOK 03/M01 Q1015",
      "taf": "TAF EPKT 241730Z 2418/2518 26004KT CAVOK"
    },
    {
      "icao": "EPLB",
      "alert": "OK",
      "vis_m": 9999,
      "fzfg": false,
      "metar_trigger": false,
      "taf_trigger": false,
      "metar": "METAR EPLB 242000Z 09002KT CAVOK 05/M01 Q1015",
      "taf": "TAF EPLB 241730Z 2418/2518 VRB02KT CAVOK"
    },
    {
      "icao": "EPMO",
      "alert": "OK",
      "vis_m": 9999,
      "fzfg": false,
      "metar_trigger": false,
      "taf_trigger": false,
      "metar": "METAR EPMO 242000Z 21007KT CAVOK 10/00 Q1014",
      "taf": "TAF EPMO 241730Z 2418/2518 24006KT CAVOK"
    },
    {
      "icao": "EPPO",
      "alert": "OK",
      "vis_m": 9999,
      "fzfg": false,
      "metar_trigger": false,
      "taf_trigger": false,
      "metar": "METAR EPPO 242000Z 20006KT CAVOK 10/02 Q1012",
      "taf": "TAF EPPO 241730Z 2418/2518 20007KT CAVOK"
    },
    {
      "icao": "EPRA",
      "alert": "OK",
      "vis_m": 9999,
      "fzfg": false,
      "metar_trigger": false,
      "taf_trigger": false,
      "metar": "METAR EPRA 242000Z 24006KT CAVOK 08/M03 Q1015",
      "taf": "TAF EPRA 241730Z 2418/2503 23006KT CAVOK"
    },
    {
      "icao": "EPRZ",
      "alert": "OK",
      "vis_m": 9999,
      "fzfg": false,
      "metar_trigger": false,
      "taf_trigger": false,
      "metar": "METAR EPRZ 242000Z VRB01KT CAVOK 05/M02 Q1016",
      "taf": "TAF EPRZ 241730Z 2418/2518 VRB02KT CAVOK"
    },
    {
      "icao": "EPSC",
      "alert": "OK",
      "vis_m": 9999,
      "fzfg": false,
      "metar_trigger": false,
      "taf_trigger": false,
      "metar": "METAR EPSC 242000Z 18006KT 150V220 CAVOK 13/01 Q1009",
      "taf": "TAF EPSC 241730Z 2418/2518 20008KT CAVOK"
    },
    {
      "icao": "EPSY",
      "alert": "OK",
      "vis_m": 9999,
      "fzfg": false,
      "metar_trigger": false,
      "taf_trigger": false,
      "metar": "METAR EPSY 242000Z 21007KT CAVOK 07/01 Q1012",
      "taf": "TAF EPSY 241730Z 2418/2503 22006KT CAVOK"
    },
    {
      "icao": "EPWA",
      "alert": "OK",
      "vis_m": 9999,
      "fzfg": false,
      "metar_trigger": false,
      "taf_trigger": false,
      "metar": "METAR EPWA 242000Z 21004KT CAVOK 05/M01 Q1014 NOSIG",
      "taf": "TAF EPWA 241730Z 2418/2518 24005KT CAVOK"
    },
    {
      "icao": "EPWR",
      "alert": "OK",
      "vis_m": 9999,
      "fzfg": false,
      "metar_trigger": false,
      "taf_trigger": false,
      "metar": "METAR EPWR 242000Z 16002KT CAVOK 06/01 Q1014",
      "taf": "TAF EPWR 241730Z 2418/2518 18007KT CAVOK"
    },
    {
      "icao": "ESGG",
      "alert": "OK",
      "vis_m": 300,
      "fzfg": false,
      "metar_trigger": false,
      "taf_trigger": false,
      "metar": "METAR ESGG 241950Z 20014KT 0300 R03/1100U R21/1100U FG VV003 06/06 Q0997",
      "taf": "TAF ESGG 241730Z 2418/2518 21016KT 3000 -DZ BR OVC005"
    },
    {
      "icao": "ESKN",
      "alert": "OK",
      "vis_m": 9999,
      "fzfg": false,
      "metar_trigger": false,
      "taf_trigger": false,
      "metar": "METAR ESKN 241950Z 21012KT 9999 BKN022 09/05 Q0997",
      "taf": "TAF ESKN 241730Z 2418/2518 22010KT 9999 BKN030"
    },
    {
      "icao": "ESMS",
      "alert": "OK",
      "vis_m": 3800,
      "fzfg": false,
      "metar_trigger": false,
      "taf_trigger": false,
      "metar": "METAR ESMS 241950Z 22016KT 3800 -RA VV017 08/07 Q1003",
      "taf": "TAF ESMS 241727Z 2418/2518 22010KT 8000 BKN025"
    },
    {
      "icao": "ESSA",
      "alert": "OK",
      "vis_m": 9999,
      "fzfg": false,
      "metar_trigger": false,
      "taf_trigger": false,
      "metar": "METAR ESSA 241950Z 18016KT 9999 BKN024 06/03 Q0995 NOSIG",
      "taf": "TAF ESSA 241730Z 2418/2518 20016G26KT 9999 BKN020"
    },
    {
      "icao": "EYKA",
      "alert": "OK",
      "vis_m": 9999,
      "fzfg": false,
      "metar_trigger": false,
      "taf_trigger": false,
      "metar": "METAR EYKA 241950Z 20004KT CAVOK 09/01 Q1011",
      "taf": "TAF EYKA 241700Z 2418/2518 VRB04KT 9000 NSC"
    },
    {
      "icao": "EYPA",
      "alert": "OK",
      "vis_m": 9999,
      "fzfg": false,
      "metar_trigger": false,
      "taf_trigger": false,
      "metar": "METAR EYPA 241950Z 21006KT CAVOK 08/02 Q1008",
      "taf": "TAF EYPA 241700Z 2418/2518 20010KT 9000 SCT045"
    },
    {
      "icao": "EYVI",
      "alert": "OK",
      "vis_m": 9999,
      "fzfg": false,
      "metar_trigger": false,
      "taf_trigger": false,
      "metar": "METAR EYVI 241950Z 17005KT CAVOK 05/M01 Q1012 NOSIG",
      "taf": ""
    },
    {
      "icao": "GCFV",
      "alert": "OK",
      "vis_m": 9999,
      "fzfg": false,
      "metar_trigger": false,
      "taf_trigger": false,
      "metar": "METAR GCFV 241930Z 02007KT 9999 FEW030 19/15 Q1012",
      "taf": "TAF GCFV 241400Z 2415/2515 18008KT 9999 FEW040 TX24/2514Z TN16/2506Z"
    },
    {
      "icao": "GCLP",
      "alert": "OK",
      "vis_m": 9999,
      "fzfg": false,
      "metar_trigger": false,
      "taf_trigger": false,
      "metar": "METAR GCLP 241930Z 17007KT 9999 FEW020TCU 18/16 Q1010 NOSIG",
      "taf": "TAF GCLP 241400Z 2415/2515 20008KT 9999 SCT010 BKN020 TX22/2514Z TN15/2506Z"
    },
    {
      "icao": "GCTS",
      "alert": "OK",
      "vis_m": 9999,
      "fzfg": false,
      "metar_trigger": false,
      "taf_trigger": false,
      "metar": "METAR GCTS 241930Z 07011KT 040V100 9999 FEW020 BKN033 19/14 Q1010 WS R07 NOSIG",
      "taf": ""
    },
    {
      "icao": "GMAD",
      "alert": "OK",
      "vis_m": 9999,
      "fzfg": false,
      "metar_trigger": false,
      "taf_trigger": false,
      "metar": "METAR GMAD 242000Z 18010KT 9999 FEW023 20/14 Q1010 NOSIG",
      "taf": "TAF GMAD 241700Z 2418/2524 27012KT 9999 FEW023"
    },
    {
      "icao": "GMMN",
      "alert": "OK",
      "vis_m": 9999,
      "fzfg": false,
      "metar_trigger": false,
      "taf_trigger": false,
      "metar": "METAR GMMN 242000Z 35005KT CAVOK 15/12 Q1015 NOSIG",
      "taf": "TAF GMMN 241700Z 2418/2524 02008KT CAVOK"
    },
    {
      "icao": "GMMX",
      "alert": "OK",
      "vis_m": 2000,
      "fzfg": false,
      "metar_trigger": false,
      "taf_trigger": false,
      "metar": "METAR GMMX 242000Z 02013KT 2000 TSRA SCT003 BKN016 FEW026CB 15/13 Q1015 TEMPO 5000 TS",
      "taf": "TAF GMMX 241700Z 2418/2524 12006KT 8000 SCT023 SCT080"
    },
    {
      "icao": "HEGN",
      "alert": "OK",
      "vis_m": 9999,
      "fzfg": false,
      "metar_trigger": false,
      "taf_trigger": false,
      "metar": "METAR HEGN 241900Z 33007KT 9999 BKN025 22/05 Q1004 NOSIG",
      "taf": "TAF HEGN 241700Z 2418/2524 29010KT 9999 SCT025"
    },
    {
      "icao": "HEMA",
      "alert": "OK",
      "vis_m": 9999,
      "fzfg": false,
      "metar_trigger": false,
      "taf_trigger": false,
      "metar": "METAR HEMA 241900Z 29003KT CAVOK 22/14 Q1004 NOSIG",
      "taf": "TAF HEMA 241700Z 2418/2524 26010KT 9999 SCT025"
    },
    {
      "icao": "HESH",
      "alert": "OK",
      "vis_m": 9999,
      "fzfg": false,
      "metar_trigger": false,
      "taf_trigger": false,
      "metar": "METAR HESH 241900Z 35004KT 9999 SCT025 21/10 Q1004 NOSIG",
      "taf": "TAF HESH 241700Z 2418/2524 30010KT 9999 SCT025"
    },
    {
      "icao": "HESX",
      "alert": "OK",
      "vis_m": 9999,
      "fzfg": false,
      "metar_trigger": false,
      "taf_trigger": false,
      "metar": "METAR HESX 241900Z 01010KT 9999 FEW020 BKN100 16/09 Q1007 NOSIG",
      "taf": "TAF HESX 241700Z 2418/2524 31009KT 9999 SCT020 SCT070"
    },
    {
      "icao": "LATI",
      "alert": "OK",
      "vis_m": 9999,
      "fzfg": false,
      "metar_trigger": false,
      "taf_trigger": false,
      "metar": "METAR LATI 241950Z VRB02KT CAVOK 12/03 Q1013 NOSIG",
      "taf": ""
    },
    {
      "icao": "LBPD",
      "alert": "OK",
      "vis_m": 9999,
      "fzfg": false,
      "metar_trigger": false,
      "taf_trigger": false,
      "metar": "METAR LBPD 242000Z AUTO 17003KT 140V230 9999 -SHRA SCT064/// OVC076/// 08/06 Q1015 NOSIG",
      "taf": "TAF LBPD 241700Z 2418/2518 12010KT 9999 BKN050"
    },
    {
      "icao": "LBSF",
      "alert": "OK",
      "vis_m": 9999,
      "fzfg": false,
      "metar_trigger": false,
      "taf_trigger": false,
      "metar": "METAR LBSF 242000Z AUTO VRB02KT 9999 FEW040/// OVC047/// 08/02 Q1016 NOSIG",
      "taf": "TAF LBSF 241700Z 2418/2518 VRB03KT 9999 SCT030 BKN050"
    },
    {
      "icao": "LBWN",
      "alert": "OK",
      "vis_m": 9999,
      "fzfg": false,
      "metar_trigger": false,
      "taf_trigger": false,
      "metar": "METAR LBWN 242000Z AUTO 02004KT 330V050 9999 NSC 09/01 Q1014 NOSIG",
      "taf": "TAF LBWN 241700Z 2418/2518 04008KT 9999 SCT045"
    },
    {
      "icao": "LCLK",
      "alert": "OK",
      "vis_m": 9999,
      "fzfg": false,
      "metar_trigger": false,
      "taf_trigger": false,
      "metar": "METAR LCLK 242000Z VRB01KT 9999 FEW030 BKN060 13/13 Q1004 NOSIG",
      "taf": "TAF LCLK 241730Z 2418/2518 26006KT 9999 FEW020 FEW025TCU SCT045"
    },
    {
      "icao": "LCPH",
      "alert": "OK",
      "vis_m": 9999,
      "fzfg": false,
      "metar_trigger": false,
      "taf_trigger": false,
      "metar": "METAR LCPH 242000Z 07003KT 9999 FEW025 13/12 Q1005 NOSIG",
      "taf": "TAF LCPH 241730Z 2418/2518 02007KT 9999 FEW025TCU SCT040"
    },
    {
      "icao": "LEAL",
      "alert": "OK",
      "vis_m": 9999,
      "fzfg": false,
      "metar_trigger": false,
      "taf_trigger": false,
      "metar": "METAR LEAL 241930Z VRB01KT CAVOK 13/10 Q1024 NOSIG",
      "taf": "TAF LEAL 241700Z 2418/2518 VRB04KT 9999 FEW020 TX20/2512Z TN07/2506Z"
    },
    {
      "icao": "LEBB",
      "alert": "OK",
      "vis_m": 9999,
      "fzfg": false,
      "metar_trigger": false,
      "taf_trigger": false,
      "metar": "METAR LEBB 241930Z 29004KT CAVOK 12/10 Q1021 NOSIG",
      "taf": "TAF LEBB 241700Z 2418/2518 VRB03KT 9999 FEW030 TX13/2509Z TN06/2504Z"
    },
    {
      "icao": "LEBL",
      "alert": "OK",
      "vis_m": 9999,
      "fzfg": false,
      "metar_trigger": false,
      "taf_trigger": false,
      "metar": "METAR LEBL 241930Z 24009KT 9999 FEW030 14/12 Q1022 NOSIG",
      "taf": "TAF LEBL 241700Z 2418/2518 23012KT 9999 FEW060 TX18/2512Z TN11/2507Z"
    },
    {
      "icao": "LECH",
      "alert": "OK",
      "vis_m": 9999,
      "fzfg": false,
      "metar_trigger": false,
      "taf_trigger": false,
      "metar": "METAR LECH 241930Z AUTO 22006KT CAVOK 11/03 Q1023",
      "taf": "TAF LECH 241700Z 2418/2518 24006KT CAVOK TX22/2513Z TN04/2506Z"
    },
    {
      "icao": "LEMD",
      "alert": "OK",
      "vis_m": 9999,
      "fzfg": false,
      "metar_trigger": false,
      "taf_trigger": false,
      "metar": "METAR LEMD 241930Z 21004KT 170V250 9999 FEW050 16/01 Q1022 NOSIG",
      "taf": "TAF LEMD 241700Z 2418/2524 VRB04KT CAVOK TX23/2516Z TN04/2507Z"
    },
    {
      "icao": "LEMG",
      "alert": "OK",
      "vis_m": 9999,
      "fzfg": false,
      "metar_trigger": false,
      "taf_trigger": false,
      "metar": "METAR LEMG 241930Z 10006KT 050V140 9999 FEW020 BKN043 15/10 Q1022 NOSIG",
      "taf": "TAF LEMG 241700Z 2418/2518 13010KT 9999 SCT045 TX18/2513Z TN10/2506Z"
    },
    {
      "icao": "LEVC",
      "alert": "OK",
      "vis_m": 9999,
      "fzfg": false,
      "metar_trigger": false,
      "taf_trigger": false,
      "metar": "METAR LEVC 241930Z 08003KT 030V140 CAVOK 14/07 Q1022 NOSIG",
      "taf": "TAF LEVC 241700Z 2418/2518 13010KT CAVOK TX24/2513Z TN07/2506Z"
    },
    {
      "icao": "LEXJ",
      "alert": "OK",
      "vis_m": 7000,
      "fzfg": false,
      "metar_trigger": false,
      "taf_trigger": false,
      "metar": "METAR LEXJ 241930Z VRB02KT 7000 NSC 13/10 Q1021",
      "taf": "TAF LEXJ 241400Z 2415/2515 04008KT 9999 FEW040 TX12/2512Z TN11/2509Z"
    },
    {
      "icao": "LEZG",
      "alert": "OK",
      "vis_m": 9999,
      "fzfg": false,
      "metar_trigger": false,
      "taf_trigger": false,
      "metar": "METAR LEZG 241930Z 19004KT 160V230 CAVOK 15/06 Q1020 NOSIG",
      "taf": "TAF LEZG 241700Z 2418/2518 VRB04KT 9999 FEW030 TX20/2514Z TN07/2506Z"
    },
    {
      "icao": "LEZL",
      "alert": "OK",
      "vis_m": 9999,
      "fzfg": false,
      "metar_trigger": false,
      "taf_trigger": false,
      "metar": "METAR LEZL 241930Z 08006KT CAVOK 17/09 Q1020 NOSIG",
      "taf": "TAF LEZL 241400Z 2415/2515 08009KT CAVOK TX25/2515Z TN11/2507Z"
    },
    {
      "icao": "LFBD",
      "alert": "OK",
      "vis_m": 9999,
      "fzfg": false,
      "metar_trigger": false,
      "taf_trigger": false,
      "metar": "METAR LFBD 242000Z AUTO 31003KT CAVOK 12/07 Q1021 NOSIG",
      "taf": "TAF LFBD 241700Z 2418/2524 29005KT CAVOK TX19/2418Z TN07/2502Z"
    },
    {
      "icao": "LFLL",
      "alert": "OK",
      "vis_m": 9999,
      "fzfg": false,
      "metar_trigger": false,
      "taf_trigger": false,
      "metar": "METAR LFLL 242000Z VRB01KT CAVOK 13/02 Q1019 NOSIG",
      "taf": "TAF LFLL 241700Z 2418/2524 16005KT CAVOK"
    },
    {
      "icao": "LFLS",
      "alert": "OK",
      "vis_m": 9999,
      "fzfg": false,
      "metar_trigger": false,
      "taf_trigger": false,
      "metar": "METAR LFLS 242000Z AUTO 10005KT CAVOK 06/03 Q1020 NOSIG",
      "taf": "TAF LFLS 241400Z 2415/2515 VRB02KT CAVOK"
    },
    {
      "icao": "LFMN",
      "alert": "OK",
      "vis_m": 9999,
      "fzfg": false,
      "metar_trigger": false,
      "taf_trigger": false,
      "metar": "METAR LFMN 242000Z 03006KT CAVOK 12/07 Q1019 NOSIG",
      "taf": "TAF LFMN 241400Z 2415/2521 19010KT CAVOK"
    },
    {
      "icao": "LFOB",
      "alert": "OK",
      "vis_m": 9999,
      "fzfg": false,
      "metar_trigger": false,
      "taf_trigger": false,
      "metar": "METAR LFOB 242000Z AUTO 22013KT CAVOK 13/04 Q1013 BECMG 24015G25KT",
      "taf": "TAF LFOB 241700Z 2418/2518 24011KT 8000 NSC"
    },
    {
      "icao": "LFPO",
      "alert": "OK",
      "vis_m": 9999,
      "fzfg": false,
      "metar_trigger": false,
      "taf_trigger": false,
      "metar": "METAR LFPO 242000Z 23011KT CAVOK 14/05 Q1015 NOSIG",
      "taf": "TAF LFPO 241700Z 2418/2524 22012KT CAVOK"
    },
    {
      "icao": "LFSB",
      "alert": "OK",
      "vis_m": 9999,
      "fzfg": false,
      "metar_trigger": false,
      "taf_trigger": false,
      "metar": "METAR LFSB 242000Z AUTO 23002KT CAVOK 09/03 Q1018 NOSIG",
      "taf": "TAF LFSB 241700Z 2418/2518 23004KT CAVOK"
    },
    {
      "icao": "LGAV",
      "alert": "OK",
      "vis_m": 9999,
      "fzfg": false,
      "metar_trigger": false,
      "taf_trigger": false,
      "metar": "METAR LGAV 241950Z 03005KT 9999 -RA FEW018 BKN030 10/07 Q1010 NOSIG",
      "taf": "TAF LGAV 241700Z 2418/2518 02014KT 9999 FEW025 SCT030 BKN070"
    },
    {
      "icao": "LGTS",
      "alert": "OK",
      "vis_m": 9000,
      "fzfg": false,
      "metar_trigger": false,
      "taf_trigger": false,
      "metar": "METAR LGTS 241950Z VRB03KT 9000 -RA FEW015 BKN035 10/10 Q1014 NOSIG",
      "taf": "TAF LGTS 241700Z 2418/2518 34013KT 9999 FEW015 SCT025"
    },
    {
      "icao": "LHBP",
      "alert": "OK",
      "vis_m": 9999,
      "fzfg": false,
      "metar_trigger": false,
      "taf_trigger": false,
      "metar": "METAR LHBP 242000Z 00000KT CAVOK 06/M01 Q1017 NOSIG",
      "taf": "TAF LHBP 241715Z 2418/2518 34006KT CAVOK"
    },
    {
      "icao": "LHDC",
      "alert": "OK",
      "vis_m": 9999,
      "fzfg": false,
      "metar_trigger": false,
      "taf_trigger": false,
      "metar": "METAR LHDC 241945Z AUTO 36002KT CAVOK 07/M01 Q1016",
      "taf": "TAF LHDC 241415Z 2415/2424 36010KT CAVOK"
    },
    {
      "icao": "LIBD",
      "alert": "OK",
      "vis_m": 9999,
      "fzfg": false,
      "metar_trigger": false,
      "taf_trigger": false,
      "metar": "METAR LIBD 241950Z 28006KT CAVOK 11/06 Q1015",
      "taf": "TAF LIBD 241700Z 2418/2518 33011KT CAVOK"
    },
    {
      "icao": "LIBG",
      "alert": "OK",
      "vis_m": 9999,
      "fzfg": false,
      "metar_trigger": false,
      "taf_trigger": false,
      "metar": "METAR LIBG 241850Z 34010KT CAVOK 12/06 Q1014",
      "taf": "TAF LIBG 241700Z 2418/2503 35012KT CAVOK"
    },
    {
      "icao": "LIBP",
      "alert": "OK",
      "vis_m": 9999,
      "fzfg": false,
      "metar_trigger": false,
      "taf_trigger": false,
      "metar": "METAR LIBP 241950Z AUTO 22004KT 9999 NCD 07/04 Q1019",
      "taf": "TAF LIBP 241700Z 2418/2518 VRB05KT CAVOK"
    },
    {
      "icao": "LIBR",
      "alert": "OK",
      "vis_m": 9999,
      "fzfg": false,
      "metar_trigger": false,
      "taf_trigger": false,
      "metar": "METAR LIBR 241950Z 35012KT CAVOK 14/09 Q1014",
      "taf": "TAF LIBR 241700Z 2418/2518 34014KT 9999 FEW015"
    },
    {
      "icao": "LICA",
      "alert": "OK",
      "vis_m": 9999,
      "fzfg": false,
      "metar_trigger": false,
      "taf_trigger": false,
      "metar": "METAR LICA 241950Z AUTO 27005KT 9999 BKN094/// 12/07 Q1016",
      "taf": "TAF LICA 241700Z 2418/2518 29010KT 9999 SCT040"
    },
    {
      "icao": "LICC",
      "alert": "OK",
      "vis_m": 9999,
      "fzfg": false,
      "metar_trigger": false,
      "taf_trigger": false,
      "metar": "METAR LICC 241950Z 20003KT CAVOK 09/07 Q1016",
      "taf": "TAF LICC 241700Z 2418/2518 25010KT 9999 SCT050"
    },
    {
      "icao": "LICJ",
      "alert": "OK",
      "vis_m": 9999,
      "fzfg": false,
      "metar_trigger": false,
      "taf_trigger": false,
      "metar": "METAR LICJ 241950Z 35007KT 9999 FEW026 14/09 Q1018",
      "taf": "TAF LICJ 241700Z 2418/2518 01012KT 9999 FEW020 BKN030"
    },
    {
      "icao": "LIMC",
      "alert": "OK",
      "vis_m": 9999,
      "fzfg": false,
      "metar_trigger": false,
      "taf_trigger": false,
      "metar": "METAR LIMC 241950Z VRB01KT CAVOK 07/02 Q1018 NOSIG",
      "taf": "TAF LIMC 241700Z 2418/2524 VRB05KT CAVOK"
    },
    {
      "icao": "LIME",
      "alert": "OK",
      "vis_m": 9999,
      "fzfg": false,
      "metar_trigger": false,
      "taf_trigger": false,
      "metar": "METAR LIME 241950Z 01005KT CAVOK 11/03 Q1019 NOSIG",
      "taf": "TAF LIME 241700Z 2418/2518 VRB05KT 9999 FEW050"
    },
    {
      "icao": "LIMF",
      "alert": "OK",
      "vis_m": 9999,
      "fzfg": false,
      "metar_trigger": false,
      "taf_trigger": false,
      "metar": "METAR LIMF 241950Z 31003KT 270V360 CAVOK 12/03 Q1019",
      "taf": "TAF LIMF 241700Z 2418/2518 VRB05KT CAVOK"
    },
    {
      "icao": "LIMJ",
      "alert": "OK",
      "vis_m": 9999,
      "fzfg": false,
      "metar_trigger": false,
      "taf_trigger": false,
      "metar": "METAR LIMJ 241950Z 08004KT CAVOK 13/04 Q1019",
      "taf": "TAF LIMJ 241700Z 2418/2518 26010KT 9999 FEW040"
    },
    {
      "icao": "LIPE",
      "alert": "OK",
      "vis_m": 9999,
      "fzfg": false,
      "metar_trigger": false,
      "taf_trigger": false,
      "metar": "METAR LIPE 241950Z 20005KT CAVOK 11/03 Q1019",
      "taf": "TAF LIPE 241700Z 2418/2518 VRB04KT CAVOK"
    },
    {
      "icao": "LIPH",
      "alert": "OK",
      "vis_m": 9999,
      "fzfg": false,
      "metar_trigger": false,
      "taf_trigger": false,
      "metar": "METAR LIPH 241950Z 23004KT CAVOK 12/03 Q1018",
      "taf": "TAF LIPH 241700Z 2418/2518 VRB05KT CAVOK"
    },
    {
      "icao": "LIPQ",
      "alert": "OK",
      "vis_m": 9999,
      "fzfg": false,
      "metar_trigger": false,
      "taf_trigger": false,
      "metar": "METAR LIPQ 241950Z AUTO 12006KT 9999 NCD 10/06 Q1018",
      "taf": "TAF LIPQ 241700Z 2418/2518 VRB03KT CAVOK"
    },
    {
      "icao": "LIPR",
      "alert": "OK",
      "vis_m": 9999,
      "fzfg": false,
      "metar_trigger": false,
      "taf_trigger": false,
      "metar": "METAR LIPR 241950Z 23005KT CAVOK 08/03 Q1019",
      "taf": "TAF LIPR 241700Z 2418/2518 VRB05KT CAVOK"
    },
    {
      "icao": "LIPX",
      "alert": "OK",
      "vis_m": 9999,
      "fzfg": false,
      "metar_trigger": false,
      "taf_trigger": false,
      "metar": "METAR LIPX 241950Z VRB02KT CAVOK 09/02 Q1018",
      "taf": "TAF LIPX 241700Z 2418/2518 VRB05KT CAVOK"
    },
    {
      "icao": "LIPY",
      "alert": "OK",
      "vis_m": 9999,
      "fzfg": false,
      "metar_trigger": false,
      "taf_trigger": false,
      "metar": "METAR LIPY 241950Z AUTO 19003KT 160V220 9999 NCD 09/07 Q1019",
      "taf": "TAF LIPY 241700Z 2418/2518 VRB05KT CAVOK"
    },
    {
      "icao": "LIPZ",
      "alert": "OK",
      "vis_m": 9999,
      "fzfg": false,
      "metar_trigger": false,
      "taf_trigger": false,
      "metar": "METAR LIPZ 241950Z 21005KT CAVOK 13/06 Q1018 NOSIG",
      "taf": "TAF LIPZ 241700Z 2418/2524 23005KT CAVOK"
    },
    {
      "icao": "LIRF",
      "alert": "OK",
      "vis_m": 9999,
      "fzfg": false,
      "metar_trigger": false,
      "taf_trigger": false,
      "metar": "METAR LIRF 241950Z 31006KT CAVOK 11/06 Q1017 NOSIG",
      "taf": "TAF LIRF 241700Z 2418/2524 34012KT CAVOK"
    },
    {
      "icao": "LIRN",
      "alert": "OK",
      "vis_m": 9999,
      "fzfg": false,
      "metar_trigger": false,
      "taf_trigger": false,
      "metar": "METAR LIRN 241950Z 30005KT CAVOK 11/06 Q1017 NOSIG",
      "taf": "TAF LIRN 241700Z 2418/2518 VRB05KT 9999 FEW040"
    },
    {
      "icao": "LIRP",
      "alert": "OK",
      "vis_m": 9999,
      "fzfg": false,
      "metar_trigger": false,
      "taf_trigger": false,
      "metar": "METAR LIRP 241945Z VRB01KT CAVOK 10/08 Q1019 NOSIG",
      "taf": "TAF LIRP 241700Z 2418/2518 30010KT CAVOK"
    },
    {
      "icao": "LIRZ",
      "alert": "OK",
      "vis_m": 9999,
      "fzfg": false,
      "metar_trigger": false,
      "taf_trigger": false,
      "metar": "METAR LIRZ 241950Z AUTO 32003KT 270V020 9999 NCD 10/03 Q1018",
      "taf": "TAF LIRZ 241700Z 2418/2518 04014KT 9999 FEW040"
    },
    {
      "icao": "LJLJ",
      "alert": "OK",
      "vis_m": 9999,
      "fzfg": false,
      "metar_trigger": false,
      "taf_trigger": false,
      "metar": "METAR LJLJ 241930Z VRB01KT 9999 SCT085 05/02 Q1018 NOSIG",
      "taf": "TAF LJLJ 241700Z 2418/2518 VRB02KT 9999 FEW070"
    },
    {
      "icao": "LKMT",
      "alert": "OK",
      "vis_m": 9999,
      "fzfg": false,
      "metar_trigger": false,
      "taf_trigger": false,
      "metar": "METAR LKMT 242000Z 21004KT CAVOK 07/M01 Q1016 NOSIG",
      "taf": "TAF LKMT 241700Z 2418/2518 05004KT CAVOK"
    },
    {
      "icao": "LKPR",
      "alert": "OK",
      "vis_m": 9999,
      "fzfg": false,
      "metar_trigger": false,
      "taf_trigger": false,
      "metar": "METAR LKPR 242000Z 17006KT CAVOK 08/M00 Q1015 NOSIG",
      "taf": "TAF LKPR 241700Z 2418/2524 23008KT CAVOK"
    },
    {
      "icao": "LLBG",
      "alert": "OK",
      "vis_m": 9999,
      "fzfg": false,
      "metar_trigger": false,
      "taf_trigger": false,
      "metar": "METAR LLBG 241950Z VRB03KT CAVOK 14/09 Q1006 NOSIG",
      "taf": "TAF LLBG 241704Z 2418/2518 VRB03KT 9999 SCT035 TX19/2512Z TN10/2504Z"
    },
    {
      "icao": "LMML",
      "alert": "OK",
      "vis_m": 9999,
      "fzfg": false,
      "metar_trigger": false,
      "taf_trigger": false,
      "metar": "METAR LMML 241945Z 31004KT 9999 FEW024 11/08 Q1016 NOSIG",
      "taf": "TAF LMML 241700Z 2418/2518 35011KT 9999 FEW025"
    },
    {
      "icao": "LOWW",
      "alert": "OK",
      "vis_m": 9999,
      "fzfg": false,
      "metar_trigger": false,
      "taf_trigger": false,
      "metar": "METAR LOWW 241950Z 26005KT CAVOK 11/00 Q1017 NOSIG",
      "taf": "TAF LOWW 241715Z 2418/2524 32010KT 9999 FEW050 TX19/2513Z TN04/2504Z"
    },
    {
      "icao": "LPFR",
      "alert": "OK",
      "vis_m": 9999,
      "fzfg": false,
      "metar_trigger": false,
      "taf_trigger": false,
      "metar": "METAR LPFR 241930Z 08006KT CAVOK 17/12 Q1019",
      "taf": "TAF LPFR 241700Z 2418/2518 12010KT CAVOK"
    },
    {
      "icao": "LPMA",
      "alert": "OK",
      "vis_m": 9999,
      "fzfg": false,
      "metar_trigger": false,
      "taf_trigger": false,
      "metar": "METAR LPMA 241930Z 01017KT 330V030 9999 SCT014 17/12 Q1017",
      "taf": "TAF LPMA 241700Z 2418/2518 02015KT 9999 SCT015"
    },
    {
      "icao": "LPPR",
      "alert": "OK",
      "vis_m": 9999,
      "fzfg": false,
      "metar_trigger": false,
      "taf_trigger": false,
      "metar": "METAR LPPR 241930Z 31005KT CAVOK 15/08 Q1021",
      "taf": "TAF LPPR 241700Z 2418/2518 32008KT CAVOK"
    },
    {
      "icao": "LPPS",
      "alert": "OK",
      "vis_m": 9999,
      "fzfg": false,
      "metar_trigger": false,
      "taf_trigger": false,
      "metar": "METAR LPPS 241930Z 02017KT 9999 SCT013 16/13 Q1018",
      "taf": "TAF LPPS 241700Z 2418/2524 05015KT 9999 SCT015 SCT030"
    },
    {
      "icao": "LPPT",
      "alert": "OK",
      "vis_m": 9999,
      "fzfg": false,
      "metar_trigger": false,
      "taf_trigger": false,
      "metar": "METAR LPPT 241930Z 30008KT 9999 FEW030 16/11 Q1021",
      "taf": "TAF LPPT 241700Z 2418/2524 31008KT CAVOK"
    },
    {
      "icao": "LQBK",
      "alert": "OK",
      "vis_m": 9999,
      "fzfg": false,
      "metar_trigger": false,
      "taf_trigger": false,
      "metar": "METAR LQBK 242000Z 14003KT CAVOK 09/03 Q1018 NOSIG",
      "taf": "TAF LQBK 241700Z 2418/2518 15005KT CAVOK TX19/2514Z TN03/2505Z"
    },
    {
      "icao": "LQSA",
      "alert": "OK",
      "vis_m": 9999,
      "fzfg": false,
      "metar_trigger": false,
      "taf_trigger": false,
      "metar": "METAR LQSA 242000Z 16002KT 9999 SCT065 07/02 Q1017 NOSIG",
      "taf": "TAF LQSA 241700Z 2418/2518 VRB02KT CAVOK TX16/2514Z TN03/2505Z"
    },
    {
      "icao": "LQTZ",
      "alert": "OK",
      "vis_m": 9999,
      "fzfg": false,
      "metar_trigger": false,
      "taf_trigger": false,
      "metar": "METAR LQTZ 242000Z VRB02KT CAVOK 06/02 Q1017",
      "taf": "TAF LQTZ 241700Z 2418/2518 VRB03KT CAVOK TX17/2514Z TN02/2505Z"
    },
    {
      "icao": "LRBC",
      "alert": "OK",
      "vis_m": 9999,
      "fzfg": false,
      "metar_trigger": false,
      "taf_trigger": false,
      "metar": "METAR LRBC 241930Z 31004KT CAVOK 07/M00 Q1016",
      "taf": "TAF LRBC 241700Z 2418/2503 VRB04KT CAVOK"
    },
    {
      "icao": "LRBS",
      "alert": "OK",
      "vis_m": 9999,
      "fzfg": false,
      "metar_trigger": false,
      "taf_trigger": false,
      "metar": "METAR LRBS 241930Z 32003KT 300V050 CAVOK 13/02 Q1015 NOSIG",
      "taf": "TAF LRBS 241700Z 2418/2518 VRB04KT CAVOK"
    },
    {
      "icao": "LRBV",
      "alert": "OK",
      "vis_m": 9999,
      "fzfg": false,
      "metar_trigger": false,
      "taf_trigger": false,
      "metar": "METAR LRBV 241930Z 21005KT 9999 OVC062 08/02 Q1015",
      "taf": "TAF LRBV 241700Z 2418/2503 VRB04KT 9999 BKN060"
    },
    {
      "icao": "LRCL",
      "alert": "OK",
      "vis_m": 9999,
      "fzfg": false,
      "metar_trigger": false,
      "taf_trigger": false,
      "metar": "METAR LRCL 241930Z 25005KT CAVOK 06/M03 Q1016",
      "taf": "TAF LRCL 241700Z 2418/2503 30008KT CAVOK"
    },
    {
      "icao": "LRCV",
      "alert": "OK",
      "vis_m": 9999,
      "fzfg": false,
      "metar_trigger": false,
      "taf_trigger": false,
      "metar": "METAR LRCV 241930Z 21005KT CAVOK 09/04 Q1015",
      "taf": "TAF LRCV 241700Z 2418/2503 VRB04KT CAVOK"
    },
    {
      "icao": "LRIA",
      "alert": "OK",
      "vis_m": 9999,
      "fzfg": false,
      "metar_trigger": false,
      "taf_trigger": false,
      "metar": "METAR LRIA 241930Z 03005KT 350V160 CAVOK 09/M01 Q1016",
      "taf": "TAF LRIA 241700Z 2418/2503 VRB04KT CAVOK"
    },
    {
      "icao": "LROP",
      "alert": "OK",
      "vis_m": 9999,
      "fzfg": false,
      "metar_trigger": false,
      "taf_trigger": false,
      "metar": "METAR LROP 241930Z 33003KT 300V010 CAVOK 12/M02 Q1015 NOSIG",
      "taf": "TAF LROP 241700Z 2418/2518 VRB04KT CAVOK"
    },
    {
      "icao": "LRSB",
      "alert": "OK",
      "vis_m": 9999,
      "fzfg": false,
      "metar_trigger": false,
      "taf_trigger": false,
      "metar": "METAR LRSB 241930Z 26007KT CAVOK 07/02 Q1015",
      "taf": "TAF LRSB 241700Z 2418/2518 VRB04KT CAVOK"
    },
    {
      "icao": "LRSM",
      "alert": "OK",
      "vis_m": 9999,
      "fzfg": false,
      "metar_trigger": false,
      "taf_trigger": false,
      "metar": "METAR LRSM 241930Z AUTO 30007KT 9999 NCD 05/M02 Q1016",
      "taf": "TAF LRSM 241400Z 2415/2424 35007KT CAVOK"
    },
    {
      "icao": "LRSV",
      "alert": "OK",
      "vis_m": 9999,
      "fzfg": false,
      "metar_trigger": false,
      "taf_trigger": false,
      "metar": "METAR LRSV 241930Z 01002KT CAVOK 10/M01 Q1015",
      "taf": "TAF LRSV 241700Z 2418/2503 VRB04KT CAVOK"
    },
    {
      "icao": "LRTM",
      "alert": "OK",
      "vis_m": 9999,
      "fzfg": false,
      "metar_trigger": false,
      "taf_trigger": false,
      "metar": "METAR LRTM 241930Z AUTO 25003KT 9999 NCD 10/M01 Q1015",
      "taf": "TAF LRTM 241400Z 2415/2424 VRB04KT 9999 SCT040"
    },
    {
      "icao": "LRTR",
      "alert": "OK",
      "vis_m": 9999,
      "fzfg": false,
      "metar_trigger": false,
      "taf_trigger": false,
      "metar": "METAR LRTR 241930Z 36007KT CAVOK 06/M01 Q1016",
      "taf": "TAF LRTR 241700Z 2418/2518 VRB04KT CAVOK"
    },
    {
      "icao": "LTAC",
      "alert": "OK",
      "vis_m": 9999,
      "fzfg": false,
      "metar_trigger": false,
      "taf_trigger": false,
      "metar": "METAR LTAC 241950Z 07004KT 040V110 9999 -SHRA BKN026 BKN080 06/04 Q1006 NOSIG RMK RWY21C VRB02KT RWY03L VRB02KT RWY21R VRB02KT RWY03R 06004KT RWY21L VRB02KT",
      "taf": "TAF LTAC 241640Z 2418/2518 03009KT 9999 SCT035 BKN100"
    },
    {
      "icao": "LTFM",
      "alert": "OK",
      "vis_m": 2000,
      "fzfg": false,
      "metar_trigger": false,
      "taf_trigger": false,
      "metar": "METAR LTFM 241950Z 05012KT 2000 0900NE R35R/1400D R17L/P1500N R34L/P1500N R36/0900U -RA BCFG BKN002 BKN020 08/08 Q1011 NOSIG RMK RWY17L 04011KT RWY34L 03012KT RWY16R 03012KT RWY36 04012KT RWY18 05009KT",
      "taf": "TAF LTFM 241640Z 2418/2524 02015KT 3200 BR BKN006 BKN022"
    },
    {
      "icao": "LUKK",
      "alert": "OK",
      "vis_m": 9999,
      "fzfg": false,
      "metar_trigger": false,
      "taf_trigger": false,
      "metar": "METAR LUKK 242000Z 03007KT CAVOK 10/M01 Q1015 NOSIG",
      "taf": "TAF LUKK 241717Z 2418/2518 35006KT CAVOK"
    },
    {
      "icao": "LWOH",
      "alert": "OK",
      "vis_m": 9999,
      "fzfg": false,
      "metar_trigger": false,
      "taf_trigger": false,
      "metar": "METAR LWOH 241950Z 01010KT 330V030 9999 SCT040 09/01 Q1014",
      "taf": "TAF LWOH 241730Z 2418/2518 36010KT 9999 SCT050"
    },
    {
      "icao": "LWSK",
      "alert": "OK",
      "vis_m": 9999,
      "fzfg": false,
      "metar_trigger": false,
      "taf_trigger": false,
      "metar": "METAR LWSK 241950Z 34004KT 310V010 9999 BKN070 09/03 Q1015 NOSIG",
      "taf": "TAF LWSK 241730Z 2418/2518 32010KT CAVOK"
    },
    {
      "icao": "LYBE",
      "alert": "OK",
      "vis_m": 9999,
      "fzfg": false,
      "metar_trigger": false,
      "taf_trigger": false,
      "metar": "METAR LYBE 242000Z 33003KT CAVOK 10/02 Q1017 NOSIG",
      "taf": "TAF LYBE 241700Z 2418/2518 33006KT CAVOK TX18/2513Z TN05/2505Z"
    },
    {
      "icao": "LYNI",
      "alert": "OK",
      "vis_m": 9999,
      "fzfg": false,
      "metar_trigger": false,
      "taf_trigger": false,
      "metar": "METAR LYNI 242000Z 11003KT 040V150 CAVOK 10/02 Q1016 NOSIG",
      "taf": "TAF LYNI 241700Z 2418/2518 32005KT 9999 SCT070 TX19/2514Z TN04/2505Z"
    },
    {
      "icao": "LYPG",
      "alert": "OK",
      "vis_m": 9999,
      "fzfg": false,
      "metar_trigger": false,
      "taf_trigger": false,
      "metar": "METAR LYPG 242000Z 36011KT CAVOK 15/01 Q1014 NOSIG",
      "taf": "TAF LYPG 241700Z 2418/2518 02012KT 9999 FEW050 TX20/2513Z TN06/2505Z"
    },
    {
      "icao": "LZIB",
      "alert": "OK",
      "vis_m": 9999,
      "fzfg": false,
      "metar_trigger": false,
      "taf_trigger": false,
      "metar": "METAR LZIB 242000Z 28003KT CAVOK 11/00 Q1017 NOSIG",
      "taf": "TAF LZIB 241715Z 2418/2518 32007KT CAVOK"
    },
    {
      "icao": "LZKZ",
      "alert": "OK",
      "vis_m": 9999,
      "fzfg": false,
      "metar_trigger": false,
      "taf_trigger": false,
      "metar": "METAR LZKZ 242000Z 20004KT 160V220 CAVOK 10/M01 Q1016 NOSIG",
      "taf": "TAF LZKZ 241715Z 2418/2518 01008KT CAVOK"
    },
    {
      "icao": "LZTT",
      "alert": "OK",
      "vis_m": 9999,
      "fzfg": false,
      "metar_trigger": false,
      "taf_trigger": false,
      "metar": "METAR LZTT 242000Z 29004KT CAVOK M00/M04 Q1016",
      "taf": "TAF LZTT 241715Z 2418/2518 22007KT 9999 SCT050"
    },
    {
      "icao": "OEJN",
      "alert": "OK",
      "vis_m": 9999,
      "fzfg": false,
      "metar_trigger": false,
      "taf_trigger": false,
      "metar": "METAR OEJN 242000Z 17004KT CAVOK 28/18 Q1003 NOSIG",
      "taf": "TAF OEJN 241700Z 2418/2524 19010KT 7000 NSC"
    },
    {
      "icao": "OEMA",
      "alert": "OK",
      "vis_m": 9999,
      "fzfg": false,
      "metar_trigger": false,
      "taf_trigger": false,
      "metar": "METAR OEMA 242000Z 21007KT CAVOK 24/09 Q1007 NOSIG",
      "taf": "TAF OEMA 241700Z 2418/2524 26006KT 7000 SCT045"
    },
    {
      "icao": "OJAI",
      "alert": "OK",
      "vis_m": 5000,
      "fzfg": false,
      "metar_trigger": false,
      "taf_trigger": false,
      "metar": "METAR OJAI 241900Z 34004KT 5000 BR NSC 08/06 Q1007 NOSIG",
      "taf": "TAF OJAI 241655Z 2418/2524 25012KT 4000 HZ SCT035"
    },
    {
      "icao": "OMAA",
      "alert": "OK",
      "vis_m": null,
      "fzfg": false,
      "metar_trigger": false,
      "taf_trigger": false,
      "metar": "",
      "taf": ""
    },
    {
      "icao": "OMDB",
      "alert": "OK",
      "vis_m": null,
      "fzfg": false,
      "metar_trigger": false,
      "taf_trigger": false,
      "metar": "",
      "taf": ""
    },
    {
      "icao": "UAAA",
      "alert": "OK",
      "vis_m": 9999,
      "fzfg": false,
      "metar_trigger": false,
      "taf_trigger": false,
      "metar": "METAR UAAA 241930Z 15001MPS 9999 FEW100 04/M01 Q1023 NOSIG",
      "taf": "TAF UAAA 241702Z 2418/2518 18003MPS 9999 FEW050 SCT100 TX17/2509Z TN02/2501Z"
    },
    {
      "icao": "UBBB",
      "alert": "OK",
      "vis_m": 9999,
      "fzfg": false,
      "metar_trigger": false,
      "taf_trigger": false,
      "metar": "METAR UBBB 242000Z 33004KT CAVOK 07/06 Q1009 NOSIG",
      "taf": "TAF UBBB 241700Z 2418/2518 32006KT 3000 BR SCT003 TX14/2510Z TN07/2500Z"
    },
    {
      "icao": "UDSG",
      "alert": "OK",
      "vis_m": 9999,
      "fzfg": false,
      "metar_trigger": false,
      "taf_trigger": false,
      "metar": "METAR UDSG 241930Z 08001KT 9999 BKN049 03/M00 Q1010 NOSIG",
      "taf": "TAF UDSG 241658Z 2418/2518 VRB06KT 9999 BKN050"
    },
    {
      "icao": "UDYZ",
      "alert": "OK",
      "vis_m": 9999,
      "fzfg": false,
      "metar_trigger": false,
      "taf_trigger": false,
      "metar": "METAR UDYZ 241930Z 01001KT 9999 FEW046 11/04 Q1008 NOSIG",
      "taf": "TAF UDYZ 241700Z 2418/2518 03006KT 9999 SCT040"
    },
    {
      "icao": "UGKO",
      "alert": "OK",
      "vis_m": 9999,
      "fzfg": false,
      "metar_trigger": false,
      "taf_trigger": false,
      "metar": "METAR UGKO 241930Z VRB02KT 9999 SCT018 OVC023 10/08 Q1009 NOSIG",
      "taf": "TAF UGKO 241700Z 2418/2518 26007KT 9999 SCT023 BKN060 TX13/2511Z TN07/2503Z"
    }
  ]
}