{
  "ts_utc": "2026-05-06T23:05:02Z",
  "threshold_m": 150,
  "source": "stations_override.txt (ICAO list) + aviationweather.gov (METAR/TAF raw)",
  "station_count": 159,
  "stations": [
    {
      "icao": "BIKF",
      "alert": "OK",
      "vis_m": 9999,
      "fzfg": false,
      "metar_trigger": false,
      "taf_trigger": false,
      "metar": "METAR BIKF 062300Z 03018KT 9999 FEW034 01/M06 Q1022",
      "taf": "TAF BIKF 062249Z 0700/0800 02018KT 9999 SCT035 TX05/0715Z TNM01/0705Z"
    },
    {
      "icao": "BKPR",
      "alert": "OK",
      "vis_m": 9999,
      "fzfg": false,
      "metar_trigger": false,
      "taf_trigger": false,
      "metar": "METAR BKPR 062300Z 35004KT 320V020 9999 BKN080 14/07 Q1016 NOSIG",
      "taf": "TAF BKPR 061730Z 0618/0718 24008KT 9999 SCT080"
    },
    {
      "icao": "EBCI",
      "alert": "OK",
      "vis_m": 9999,
      "fzfg": false,
      "metar_trigger": false,
      "taf_trigger": false,
      "metar": "METAR EBCI 062250Z 03004KT 9999 BKN032 08/06 Q1012 NOSIG",
      "taf": "TAF EBCI 061720Z 0618/0724 02007KT 9999 SCT040"
    },
    {
      "icao": "EDDB",
      "alert": "OK",
      "vis_m": 9999,
      "fzfg": false,
      "metar_trigger": false,
      "taf_trigger": false,
      "metar": "METAR EDDB 062250Z AUTO 03012KT 9999 OVC014 09/07 Q1009 NOSIG",
      "taf": "TAF EDDB 061700Z 0618/0718 03008KT 9999 BKN015"
    },
    {
      "icao": "EDDH",
      "alert": "OK",
      "vis_m": 9999,
      "fzfg": false,
      "metar_trigger": false,
      "taf_trigger": false,
      "metar": "METAR EDDH 062250Z AUTO 04006KT 360V070 9999 OVC015 09/07 Q1011 TEMPO BKN014",
      "taf": "TAF EDDH 061700Z 0618/0724 05007KT 9999 SCT030"
    },
    {
      "icao": "EDDK",
      "alert": "OK",
      "vis_m": 9999,
      "fzfg": false,
      "metar_trigger": false,
      "taf_trigger": false,
      "metar": "METAR EDDK 062250Z AUTO 32005KT 9999 BKN007 BKN012 OVC017 08/08 Q1011 TEMPO SCT007 BKN012",
      "taf": "TAF EDDK 061700Z 0618/0724 33007KT 9999 BKN006 OVC011"
    },
    {
      "icao": "EDDN",
      "alert": "OK",
      "vis_m": 9999,
      "fzfg": false,
      "metar_trigger": false,
      "taf_trigger": false,
      "metar": "METAR EDDN 062250Z AUTO 22006KT 9999 -RADZ SCT012 SCT026 BKN041 12/10 Q1009 NOSIG",
      "taf": "TAF EDDN 061700Z 0618/0718 24005KT 9999 BKN040"
    },
    {
      "icao": "EDDS",
      "alert": "OK",
      "vis_m": 9999,
      "fzfg": false,
      "metar_trigger": false,
      "taf_trigger": false,
      "metar": "METAR EDDS 062250Z AUTO 24007KT 190V320 9999 -RA BKN047 10/08 Q1010",
      "taf": "TAF EDDS 061700Z 0618/0718 21005KT 9999 BKN045"
    },
    {
      "icao": "EDFH",
      "alert": "OK",
      "vis_m": 9000,
      "fzfg": false,
      "metar_trigger": false,
      "taf_trigger": false,
      "metar": "METAR EDFH 062250Z 29006KT 9000 FEW003 OVC005 07/06 Q1010",
      "taf": "TAF EDFH 061700Z 0618/0718 33005KT 9999 BKN010"
    },
    {
      "icao": "EDJA",
      "alert": "OK",
      "vis_m": 9999,
      "fzfg": false,
      "metar_trigger": false,
      "taf_trigger": false,
      "metar": "METAR EDJA 062250Z AUTO 23010KT 9999 // OVC160/// 09/06 Q1011",
      "taf": "TAF EDJA 061700Z 0618/0703 24015G25KT 9999 SCT020"
    },
    {
      "icao": "EDLW",
      "alert": "OK",
      "vis_m": 9999,
      "fzfg": false,
      "metar_trigger": false,
      "taf_trigger": false,
      "metar": "METAR EDLW 062250Z AUTO 34005KT 9999 // OVC005/// 08/08 Q1010",
      "taf": "TAF EDLW 061700Z 0618/0718 35005KT 9999 OVC004"
    },
    {
      "icao": "EDNY",
      "alert": "OK",
      "vis_m": 9999,
      "fzfg": false,
      "metar_trigger": false,
      "taf_trigger": false,
      "metar": "METAR EDNY 062250Z AUTO 00000KT 9999 // BKN033/// BKN042/// OVC190/// 07/07 Q1011",
      "taf": "TAF EDNY 061700Z 0618/0703 24008KT 9999 SCT040"
    },
    {
      "icao": "EDSB",
      "alert": "OK",
      "vis_m": 9999,
      "fzfg": false,
      "metar_trigger": false,
      "taf_trigger": false,
      "metar": "METAR EDSB 062250Z AUTO 20011KT 9999 BKN027/// BKN031/// OVC037/// 11/10 Q1010",
      "taf": "TAF EDSB 061700Z 0618/0718 23007KT 9999 BKN045"
    },
    {
      "icao": "EETN",
      "alert": "OK",
      "vis_m": 9999,
      "fzfg": false,
      "metar_trigger": false,
      "taf_trigger": false,
      "metar": "METAR EETN 062250Z VRB02KT CAVOK 03/M01 Q1014",
      "taf": "TAF EETN 061730Z 0618/0718 35006KT CAVOK"
    },
    {
      "icao": "EFTU",
      "alert": "OK",
      "vis_m": 9999,
      "fzfg": false,
      "metar_trigger": false,
      "taf_trigger": false,
      "metar": "METAR EFTU 062250Z AUTO VRB01KT CAVOK M03/M08 Q1015",
      "taf": "TAF EFTU 062022Z 0621/0721 02003KT CAVOK"
    },
    {
      "icao": "EGBB",
      "alert": "OK",
      "vis_m": 9999,
      "fzfg": false,
      "metar_trigger": false,
      "taf_trigger": false,
      "metar": "METAR EGBB 062250Z 09004KT CAVOK 06/04 Q1016",
      "taf": "TAF EGBB 061655Z 0618/0718 04007KT 9999 SCT035"
    },
    {
      "icao": "EGGP",
      "alert": "OK",
      "vis_m": 9999,
      "fzfg": false,
      "metar_trigger": false,
      "taf_trigger": false,
      "metar": "METAR EGGP 062250Z 14008KT 100V160 CAVOK 08/03 Q1015",
      "taf": "TAF EGGP 061655Z 0618/0718 08007KT 9999 FEW035"
    },
    {
      "icao": "EGGW",
      "alert": "OK",
      "vis_m": 9999,
      "fzfg": false,
      "metar_trigger": false,
      "taf_trigger": false,
      "metar": "METAR EGGW 062250Z AUTO 36006KT 9999 OVC007 07/06 Q1015",
      "taf": "TAF EGGW 061653Z 0618/0718 03009KT 9999 SCT030"
    },
    {
      "icao": "EGKK",
      "alert": "OK",
      "vis_m": 9999,
      "fzfg": false,
      "metar_trigger": false,
      "taf_trigger": false,
      "metar": "METAR EGKK 062250Z 04005KT CAVOK 10/06 Q1015",
      "taf": "TAF EGKK 061700Z 0618/0724 04010KT 9999 SCT030"
    },
    {
      "icao": "EGNM",
      "alert": "OK",
      "vis_m": 9999,
      "fzfg": false,
      "metar_trigger": false,
      "taf_trigger": false,
      "metar": "METAR EGNM 062250Z 14003KT 9999 FEW027 04/02 Q1016",
      "taf": "TAF EGNM 061653Z 0618/0718 08005KT 9999 SCT025"
    },
    {
      "icao": "EGPD",
      "alert": "OK",
      "vis_m": 9999,
      "fzfg": false,
      "metar_trigger": false,
      "taf_trigger": false,
      "metar": "METAR EGPD 062250Z COR AUTO 16007KT 9999 NCD 07/02 Q1015 NOSIG",
      "taf": "TAF EGPD 061657Z 0618/0718 17010KT 9999 FEW045"
    },
    {
      "icao": "EGPF",
      "alert": "OK",
      "vis_m": 9999,
      "fzfg": false,
      "metar_trigger": false,
      "taf_trigger": false,
      "metar": "METAR EGPF 062250Z AUTO 12006KT 9999 NCD 08/04 Q1013",
      "taf": "TAF EGPF 061653Z 0618/0718 18004KT 9999 SCT030"
    },
    {
      "icao": "EHBK",
      "alert": "OK",
      "vis_m": 9999,
      "fzfg": false,
      "metar_trigger": false,
      "taf_trigger": false,
      "metar": "METAR EHBK 062255Z AUTO 36004KT 320V050 9999 NSC 07/06 Q1012",
      "taf": "TAF EHBK 061711Z 0618/0724 36005KT 9999 OVC016"
    },
    {
      "icao": "EHEH",
      "alert": "OK",
      "vis_m": 9999,
      "fzfg": false,
      "metar_trigger": false,
      "taf_trigger": false,
      "metar": "METAR EHEH 062255Z AUTO 01004KT 340V050 9999 SCT029 OVC033 10/06 Q1012 BLU",
      "taf": "TAF EHEH 061711Z 0618/0724 02007KT 9999 FEW018 BKN020"
    },
    {
      "icao": "EKBI",
      "alert": "OK",
      "vis_m": 9999,
      "fzfg": false,
      "metar_trigger": false,
      "taf_trigger": false,
      "metar": "METAR EKBI 062250Z AUTO 05001KT 9999 OVC069/// 07/01 Q1013",
      "taf": "TAF EKBI 062027Z 0621/0721 02006KT CAVOK"
    },
    {
      "icao": "EKCH",
      "alert": "OK",
      "vis_m": 9999,
      "fzfg": false,
      "metar_trigger": false,
      "taf_trigger": false,
      "metar": "METAR EKCH 062250Z AUTO 27001KT 9999 BKN160/// 07/04 Q1014 NOSIG",
      "taf": "TAF EKCH 062027Z 0621/0721 15008KT CAVOK"
    },
    {
      "icao": "ENAL",
      "alert": "OK",
      "vis_m": 4900,
      "fzfg": false,
      "metar_trigger": false,
      "taf_trigger": false,
      "metar": "METAR ENAL 062250Z AUTO 18010KT 4900 DZ SCT019/// SCT053/// 03/01 Q1013",
      "taf": "TAF ENAL 062000Z 0621/0706 22015KT 9999 FEW025TCU SCT040"
    },
    {
      "icao": "ENBR",
      "alert": "OK",
      "vis_m": 9999,
      "fzfg": false,
      "metar_trigger": false,
      "taf_trigger": false,
      "metar": "METAR ENBR 062250Z 11003KT 9999 FEW030 02/00 Q1016 RMK WIND 1200FT 19005KT",
      "taf": "TAF ENBR 061700Z 0618/0718 VRB05KT 9999 FEW015TCU SCT025"
    },
    {
      "icao": "ENGM",
      "alert": "OK",
      "vis_m": 9999,
      "fzfg": false,
      "metar_trigger": false,
      "taf_trigger": false,
      "metar": "METAR ENGM 062250Z 03007KT CAVOK 03/M09 Q1013",
      "taf": "TAF ENGM 061700Z 0618/0718 30005KT CAVOK"
    },
    {
      "icao": "ENHD",
      "alert": "OK",
      "vis_m": 9999,
      "fzfg": false,
      "metar_trigger": false,
      "taf_trigger": false,
      "metar": "METAR ENHD 062250Z AUTO VRB02KT 9999 NCD 02/M01 Q1016",
      "taf": "TAF ENHD 061400Z 0615/0622 32010KT 9999 SCT035"
    },
    {
      "icao": "ENTC",
      "alert": "OK",
      "vis_m": 9999,
      "fzfg": false,
      "metar_trigger": false,
      "taf_trigger": false,
      "metar": "METAR ENTC 062250Z AUTO 07003KT 030V110 9999 NCD 01/M03 Q1011 RMK WIND 2600FT 14007KT",
      "taf": "TAF ENTC 061700Z 0618/0718 02008KT 9999 FEW040"
    },
    {
      "icao": "ENTO",
      "alert": "OK",
      "vis_m": 9999,
      "fzfg": false,
      "metar_trigger": false,
      "taf_trigger": false,
      "metar": "METAR ENTO 062250Z AUTO 34008KT 9999 NCD 04/M06 Q1013",
      "taf": "TAF ENTO 061700Z 0618/0718 19010KT CAVOK"
    },
    {
      "icao": "ENVA",
      "alert": "OK",
      "vis_m": 9999,
      "fzfg": false,
      "metar_trigger": false,
      "taf_trigger": false,
      "metar": "METAR ENVA 062250Z 14006KT 9999 FEW026 BKN033 01/01 Q1014 RMK WIND 670FT 16008KT",
      "taf": ""
    },
    {
      "icao": "ENZV",
      "alert": "OK",
      "vis_m": 9999,
      "fzfg": false,
      "metar_trigger": false,
      "taf_trigger": false,
      "metar": "METAR ENZV 062250Z 35006KT CAVOK 05/00 Q1016",
      "taf": "TAF ENZV 061700Z 0618/0718 33015KT CAVOK"
    },
    {
      "icao": "EPGD",
      "alert": "OK",
      "vis_m": 3700,
      "fzfg": false,
      "metar_trigger": false,
      "taf_trigger": false,
      "metar": "METAR EPGD 062300Z 01008KT 340V040 3700 -RADZ BR OVC002 05/05 Q1009",
      "taf": "TAF EPGD 061730Z 0618/0718 05014KT 9999 BKN006"
    },
    {
      "icao": "EPKK",
      "alert": "OK",
      "vis_m": 9999,
      "fzfg": false,
      "metar_trigger": false,
      "taf_trigger": false,
      "metar": "METAR EPKK 062300Z VRB02KT 9999 BKN058 15/11 Q1007",
      "taf": "TAF EPKK 062030Z 0621/0721 06004KT CAVOK"
    },
    {
      "icao": "EPKT",
      "alert": "OK",
      "vis_m": 9999,
      "fzfg": false,
      "metar_trigger": false,
      "taf_trigger": false,
      "metar": "METAR EPKT 062300Z 17004KT CAVOK 18/09 Q1006",
      "taf": "TAF EPKT 061730Z 0618/0718 20007KT CAVOK"
    },
    {
      "icao": "EPLB",
      "alert": "OK",
      "vis_m": 9999,
      "fzfg": false,
      "metar_trigger": false,
      "taf_trigger": false,
      "metar": "METAR EPLB 062300Z 22004KT CAVOK 16/09 Q1007",
      "taf": "TAF EPLB 061730Z 0618/0718 19005KT CAVOK"
    },
    {
      "icao": "EPMO",
      "alert": "OK",
      "vis_m": 9999,
      "fzfg": false,
      "metar_trigger": false,
      "taf_trigger": false,
      "metar": "METAR EPMO 062300Z 20004KT 150V280 9999 FEW055CB 16/11 Q1006",
      "taf": "TAF EPMO 061730Z 0618/0718 26006KT CAVOK"
    },
    {
      "icao": "EPPO",
      "alert": "OK",
      "vis_m": 9999,
      "fzfg": false,
      "metar_trigger": false,
      "taf_trigger": false,
      "metar": "METAR EPPO 062300Z 35006KT 9999 OVC011 10/08 Q1008",
      "taf": "TAF EPPO 061730Z 0618/0718 30010KT 9999 BKN013"
    },
    {
      "icao": "EPRA",
      "alert": "OK",
      "vis_m": 9999,
      "fzfg": false,
      "metar_trigger": false,
      "taf_trigger": false,
      "metar": "METAR EPRA 062300Z 20008KT CAVOK 14/10 Q1006",
      "taf": "TAF EPRA 062030Z 0621/0706 21006KT CAVOK"
    },
    {
      "icao": "EPRZ",
      "alert": "OK",
      "vis_m": 9999,
      "fzfg": false,
      "metar_trigger": false,
      "taf_trigger": false,
      "metar": "METAR EPRZ 062300Z VRB02KT CAVOK 17/08 Q1008",
      "taf": "TAF EPRZ 061730Z 0618/0718 18009KT CAVOK"
    },
    {
      "icao": "EPSC",
      "alert": "OK",
      "vis_m": 9999,
      "fzfg": false,
      "metar_trigger": false,
      "taf_trigger": false,
      "metar": "METAR EPSC 062300Z 02006KT 340V070 9999 SCT009 OVC010 07/05 Q1010",
      "taf": "TAF EPSC 061730Z 0618/0718 02012KT 9999 OVC009"
    },
    {
      "icao": "EPSY",
      "alert": "OK",
      "vis_m": 9999,
      "fzfg": false,
      "metar_trigger": false,
      "taf_trigger": false,
      "metar": "METAR EPSY 062300Z 32002KT CAVOK 09/07 Q1006",
      "taf": "TAF EPSY 062030Z 0621/0706 VRB02KT CAVOK"
    },
    {
      "icao": "EPWA",
      "alert": "OK",
      "vis_m": 9999,
      "fzfg": false,
      "metar_trigger": false,
      "taf_trigger": false,
      "metar": "METAR EPWA 062300Z 14004KT 080V170 CAVOK 17/11 Q1006 TEMPO SHRA",
      "taf": "TAF EPWA 062030Z 0621/0721 VRB02KT CAVOK"
    },
    {
      "icao": "EPWR",
      "alert": "OK",
      "vis_m": 3500,
      "fzfg": false,
      "metar_trigger": false,
      "taf_trigger": false,
      "metar": "METAR EPWR 062300Z 23004KT 200V270 3500 SHRA BR FEW002 SCT006 BKN030CB 14/14 Q1007",
      "taf": ""
    },
    {
      "icao": "ESGG",
      "alert": "OK",
      "vis_m": 9999,
      "fzfg": false,
      "metar_trigger": false,
      "taf_trigger": false,
      "metar": "METAR ESGG 062250Z 30004KT CAVOK 05/M01 Q1013",
      "taf": "TAF ESGG 062030Z 0621/0721 29004KT CAVOK"
    },
    {
      "icao": "ESKN",
      "alert": "OK",
      "vis_m": 9999,
      "fzfg": false,
      "metar_trigger": false,
      "taf_trigger": false,
      "metar": "METAR ESKN 062250Z VRB02KT CAVOK 02/01 Q1014",
      "taf": "TAF ESKN 062030Z 0621/0721 VRB03KT CAVOK"
    },
    {
      "icao": "ESMS",
      "alert": "OK",
      "vis_m": 9999,
      "fzfg": false,
      "metar_trigger": false,
      "taf_trigger": false,
      "metar": "METAR ESMS 062250Z 01002KT CAVOK 02/02 Q1013",
      "taf": "TAF ESMS 062027Z 0621/0721 VRB03KT CAVOK"
    },
    {
      "icao": "ESSA",
      "alert": "OK",
      "vis_m": 9999,
      "fzfg": false,
      "metar_trigger": false,
      "taf_trigger": false,
      "metar": "METAR ESSA 062250Z 17004KT CAVOK 01/M04 Q1014 NOSIG",
      "taf": "TAF ESSA 062030Z 0621/0721 15006KT CAVOK"
    },
    {
      "icao": "EYKA",
      "alert": "OK",
      "vis_m": 9999,
      "fzfg": false,
      "metar_trigger": false,
      "taf_trigger": false,
      "metar": "METAR EYKA 062250Z AUTO 01004KT 9999 NCD 07/04 Q1007",
      "taf": "TAF EYKA 062300Z 0700/0724 VRB03KT 8000 NSC"
    },
    {
      "icao": "EYPA",
      "alert": "OK",
      "vis_m": 9999,
      "fzfg": false,
      "metar_trigger": false,
      "taf_trigger": false,
      "metar": "METAR EYPA 062250Z AUTO 06010KT 9999 BKN009/// OVC040/// 05/04 Q1009",
      "taf": "TAF EYPA 062300Z 0700/0724 06010KT 5000 BR SCT010 BKN015"
    },
    {
      "icao": "EYVI",
      "alert": "OK",
      "vis_m": 9999,
      "fzfg": false,
      "metar_trigger": false,
      "taf_trigger": false,
      "metar": "METAR EYVI 062250Z VRB02KT CAVOK 08/08 Q1007 NOSIG",
      "taf": "TAF EYVI 061700Z 0618/0718 06010KT 8000 SCT040"
    },
    {
      "icao": "GCFV",
      "alert": "OK",
      "vis_m": 9999,
      "fzfg": false,
      "metar_trigger": false,
      "taf_trigger": false,
      "metar": "METAR GCFV 062230Z AUTO 03014KT 9999 BKN023 BKN042 19/14 Q1015",
      "taf": "TAF GCFV 062000Z 0621/0721 04014KT 9999 FEW025 TX24/0714Z TN17/0706Z"
    },
    {
      "icao": "GCLP",
      "alert": "OK",
      "vis_m": 9999,
      "fzfg": false,
      "metar_trigger": false,
      "taf_trigger": false,
      "metar": "METAR GCLP 062230Z 03013KT 9999 SCT020 BKN035 19/14 Q1015 NOSIG",
      "taf": "TAF GCLP 062000Z 0621/0721 02012KT 9999 SCT030 TX22/0714Z TN17/0706Z"
    },
    {
      "icao": "GCTS",
      "alert": "OK",
      "vis_m": 9999,
      "fzfg": false,
      "metar_trigger": false,
      "taf_trigger": false,
      "metar": "METAR GCTS 062230Z 06016KT 9999 FEW020 BKN035 19/14 Q1015 NOSIG",
      "taf": "TAF GCTS 062000Z 0621/0721 08010KT 9999 BKN025 TX23/0714Z TN16/0706Z"
    },
    {
      "icao": "GMAD",
      "alert": "OK",
      "vis_m": 9999,
      "fzfg": false,
      "metar_trigger": false,
      "taf_trigger": false,
      "metar": "METAR GMAD 062300Z 19014KT 9999 FEW030 16/12 Q1011 NOSIG",
      "taf": "TAF GMAD 061700Z 0618/0724 20012KT 8000 SCT026 SCT200"
    },
    {
      "icao": "GMMN",
      "alert": "OK",
      "vis_m": 9999,
      "fzfg": false,
      "metar_trigger": false,
      "taf_trigger": false,
      "metar": "METAR GMMN 062300Z 35006KT 9999 SCT020 14/11 Q1013 NOSIG",
      "taf": "TAF GMMN 061700Z 0618/0724 36012KT 9999 BKN040"
    },
    {
      "icao": "GMMX",
      "alert": "OK",
      "vis_m": 9999,
      "fzfg": false,
      "metar_trigger": false,
      "taf_trigger": false,
      "metar": "METAR GMMX 062300Z 30008KT 270V330 9999 SCT030 BKN100 16/11 Q1013 NOSIG",
      "taf": "TAF GMMX 061700Z 0618/0724 06006KT 8000 SCT030 BKN080"
    },
    {
      "icao": "HEGN",
      "alert": "OK",
      "vis_m": 9999,
      "fzfg": false,
      "metar_trigger": false,
      "taf_trigger": false,
      "metar": "METAR HEGN 062200Z 28011KT CAVOK 21/03 Q1013 NOSIG",
      "taf": "TAF HEGN 062300Z 0700/0806 29015KT CAVOK"
    },
    {
      "icao": "HEMA",
      "alert": "OK",
      "vis_m": 9999,
      "fzfg": false,
      "metar_trigger": false,
      "taf_trigger": false,
      "metar": "METAR HEMA 062200Z 29008KT CAVOK 21/02 Q1012 NOSIG",
      "taf": "TAF HEMA 062300Z 0700/0806 30012KT CAVOK"
    },
    {
      "icao": "HESH",
      "alert": "OK",
      "vis_m": 9999,
      "fzfg": false,
      "metar_trigger": false,
      "taf_trigger": false,
      "metar": "METAR HESH 062200Z 34013KT CAVOK 24/11 Q1012 NOSIG",
      "taf": "TAF HESH 062300Z 0700/0806 33010KT CAVOK"
    },
    {
      "icao": "HESX",
      "alert": "OK",
      "vis_m": 9999,
      "fzfg": false,
      "metar_trigger": false,
      "taf_trigger": false,
      "metar": "METAR HESX 062200Z 02008KT CAVOK 15/09 Q1017 NOSIG",
      "taf": "TAF HESX 062300Z 0700/0806 01012KT CAVOK"
    },
    {
      "icao": "LATI",
      "alert": "OK",
      "vis_m": 9999,
      "fzfg": false,
      "metar_trigger": false,
      "taf_trigger": false,
      "metar": "METAR LATI 062250Z 07004KT 040V100 9999 SCT096 14/12 Q1017 NOSIG",
      "taf": "TAF LATI 062300Z 0700/0724 VRB05KT 9999 SCT040 BKN080 TX24/0712Z TN12/0704Z"
    },
    {
      "icao": "LBPD",
      "alert": "OK",
      "vis_m": 9999,
      "fzfg": false,
      "metar_trigger": false,
      "taf_trigger": false,
      "metar": "METAR LBPD 062300Z AUTO 15006KT 9999 NCD 11/07 Q1016",
      "taf": "TAF LBPD 061700Z 0618/0718 11010KT 9999 SCT070"
    },
    {
      "icao": "LBSF",
      "alert": "OK",
      "vis_m": 9999,
      "fzfg": false,
      "metar_trigger": false,
      "taf_trigger": false,
      "metar": "METAR LBSF 062300Z AUTO 10007KT 9999 NCD 12/08 Q1016 NOSIG",
      "taf": "TAF LBSF 061700Z 0618/0718 13010KT 9999 SCT070"
    },
    {
      "icao": "LBWN",
      "alert": "OK",
      "vis_m": 9999,
      "fzfg": false,
      "metar_trigger": false,
      "taf_trigger": false,
      "metar": "METAR LBWN 062300Z AUTO 11004KT 9999 BKN009/// 10/10 Q1017 NOSIG",
      "taf": "TAF LBWN 061700Z 0618/0718 09010KT CAVOK"
    },
    {
      "icao": "LCLK",
      "alert": "OK",
      "vis_m": 9999,
      "fzfg": false,
      "metar_trigger": false,
      "taf_trigger": false,
      "metar": "METAR LCLK 062300Z 32005KT CAVOK 14/12 Q1017 NOSIG",
      "taf": "TAF LCLK 061730Z 0618/0718 30007KT 9999 FEW030"
    },
    {
      "icao": "LCPH",
      "alert": "OK",
      "vis_m": 9999,
      "fzfg": false,
      "metar_trigger": false,
      "taf_trigger": false,
      "metar": "METAR LCPH 062300Z 02007KT CAVOK 13/08 Q1017 NOSIG",
      "taf": "TAF LCPH 061730Z 0618/0718 02007KT 9999 FEW030"
    },
    {
      "icao": "LEAL",
      "alert": "OK",
      "vis_m": 9999,
      "fzfg": false,
      "metar_trigger": false,
      "taf_trigger": false,
      "metar": "METAR LEAL 062230Z 03004KT 360V060 9999 FEW019 18/13 Q1012 NOSIG",
      "taf": "TAF LEAL 061700Z 0618/0718 09010KT 9999 FEW020 TX23/0712Z TN14/0705Z"
    },
    {
      "icao": "LEBB",
      "alert": "OK",
      "vis_m": 9999,
      "fzfg": false,
      "metar_trigger": false,
      "taf_trigger": false,
      "metar": "METAR LEBB 062230Z AUTO 08003KT CAVOK 10/10 Q1015",
      "taf": "TAF LEBB 061700Z 0618/0718 VRB03KT 9999 SCT015 TX21/0713Z TN07/0705Z"
    },
    {
      "icao": "LEBL",
      "alert": "OK",
      "vis_m": 9999,
      "fzfg": false,
      "metar_trigger": false,
      "taf_trigger": false,
      "metar": "METAR LEBL 062230Z 31004KT 9999 FEW020 15/10 Q1013 NOSIG",
      "taf": "TAF LEBL 061700Z 0618/0718 18009KT 9999 FEW020 TX19/0713Z TN13/0705Z"
    },
    {
      "icao": "LECH",
      "alert": "OK",
      "vis_m": 9999,
      "fzfg": false,
      "metar_trigger": false,
      "taf_trigger": false,
      "metar": "METAR LECH 062230Z AUTO 21003KT 180V240 CAVOK 13/11 Q1013",
      "taf": "TAF LECH 061700Z 0618/0718 VRB04KT 9999 FEW020 TX20/0714Z TN09/0705Z"
    },
    {
      "icao": "LEMD",
      "alert": "OK",
      "vis_m": 9999,
      "fzfg": false,
      "metar_trigger": false,
      "taf_trigger": false,
      "metar": "METAR LEMD 062230Z 34003KT 310V010 CAVOK 11/04 Q1010 NOSIG",
      "taf": "TAF LEMD 061700Z 0618/0724 VRB04KT 9999 FEW060 TX21/0716Z TN08/0705Z"
    },
    {
      "icao": "LEMG",
      "alert": "OK",
      "vis_m": 9999,
      "fzfg": false,
      "metar_trigger": false,
      "taf_trigger": false,
      "metar": "METAR LEMG 062230Z 09004KT CAVOK 16/15 Q1011 NOSIG",
      "taf": "TAF LEMG 061700Z 0618/0718 10008KT 9999 FEW020 TX23/0714Z TN16/0707Z"
    },
    {
      "icao": "LEVC",
      "alert": "OK",
      "vis_m": 9999,
      "fzfg": false,
      "metar_trigger": false,
      "taf_trigger": false,
      "metar": "METAR LEVC 062230Z 30003KT 280V340 CAVOK 14/10 Q1013 NOSIG",
      "taf": "TAF LEVC 061700Z 0618/0718 12009KT 9999 FEW030 TX21/0712Z TN11/0705Z"
    },
    {
      "icao": "LEXJ",
      "alert": "OK",
      "vis_m": 9999,
      "fzfg": false,
      "metar_trigger": false,
      "taf_trigger": false,
      "metar": "METAR LEXJ 062230Z AUTO VRB02KT CAVOK 12/11 Q1014",
      "taf": "TAF LEXJ 062000Z 0621/0721 VRB03KT 9999 SCT020 TX20/0713Z TN09/0705Z"
    },
    {
      "icao": "LEZG",
      "alert": "OK",
      "vis_m": 9999,
      "fzfg": false,
      "metar_trigger": false,
      "taf_trigger": false,
      "metar": "METAR LEZG 062230Z 26008KT CAVOK 13/09 Q1013 NOSIG",
      "taf": "TAF LEZG 061700Z 0618/0718 32010KT 9999 FEW050 TX21/0714Z TN09/0705Z"
    },
    {
      "icao": "LEZL",
      "alert": "OK",
      "vis_m": 9999,
      "fzfg": false,
      "metar_trigger": false,
      "taf_trigger": false,
      "metar": "METAR LEZL 062230Z 20005KT 140V230 CAVOK 17/09 Q1010 NOSIG",
      "taf": "TAF LEZL 062000Z 0621/0721 22010KT CAVOK TX25/0715Z TN13/0707Z"
    },
    {
      "icao": "LFBD",
      "alert": "OK",
      "vis_m": 9999,
      "fzfg": false,
      "metar_trigger": false,
      "taf_trigger": false,
      "metar": "METAR LFBD 062300Z AUTO 25005KT CAVOK 10/09 Q1014 TEMPO 4000 BR BKN002",
      "taf": "TAF LFBD 061700Z 0618/0724 30010KT 9999 BKN030 TX20/0714Z TN08/0703Z"
    },
    {
      "icao": "LFLL",
      "alert": "OK",
      "vis_m": 9999,
      "fzfg": false,
      "metar_trigger": false,
      "taf_trigger": false,
      "metar": "METAR LFLL 062300Z 00000KT CAVOK 11/09 Q1013 NOSIG",
      "taf": "TAF LFLL 061700Z 0618/0724 16006KT 9999 FEW040 BKN180"
    },
    {
      "icao": "LFLS",
      "alert": "OK",
      "vis_m": 9999,
      "fzfg": false,
      "metar_trigger": false,
      "taf_trigger": false,
      "metar": "METAR LFLS 062300Z AUTO VRB01KT 9999 ///TCU 10/10 Q1013",
      "taf": "TAF LFLS 061400Z 0615/0715 VRB04KT 9999 SCT045"
    },
    {
      "icao": "LFMN",
      "alert": "OK",
      "vis_m": 9999,
      "fzfg": false,
      "metar_trigger": false,
      "taf_trigger": false,
      "metar": "METAR LFMN 062300Z 30004KT CAVOK 14/10 Q1010 NOSIG",
      "taf": "TAF LFMN 062000Z 0621/0803 24012KT CAVOK"
    },
    {
      "icao": "LFOB",
      "alert": "OK",
      "vis_m": 9999,
      "fzfg": false,
      "metar_trigger": false,
      "taf_trigger": false,
      "metar": "METAR LFOB 062300Z AUTO 32006KT CAVOK 09/08 Q1013 NOSIG",
      "taf": "TAF LFOB 061700Z 0618/0718 32010KT 9999 SCT030"
    },
    {
      "icao": "LFPO",
      "alert": "OK",
      "vis_m": 9999,
      "fzfg": false,
      "metar_trigger": false,
      "taf_trigger": false,
      "metar": "METAR LFPO 062300Z AUTO 28004KT 9999 BKN043 BKN060 OVC072 11/07 Q1013 NOSIG",
      "taf": "TAF LFPO 061700Z 0618/0724 34007KT CAVOK"
    },
    {
      "icao": "LFSB",
      "alert": "OK",
      "vis_m": 9999,
      "fzfg": false,
      "metar_trigger": false,
      "taf_trigger": false,
      "metar": "METAR LFSB 062300Z AUTO 03002KT 9999 -RA ///TCU 10/09 Q1012 TEMPO BKN008",
      "taf": "TAF LFSB 061700Z 0618/0718 25005KT 9999 BKN040"
    },
    {
      "icao": "LGAV",
      "alert": "OK",
      "vis_m": 9999,
      "fzfg": false,
      "metar_trigger": false,
      "taf_trigger": false,
      "metar": "METAR LGAV 062250Z 03001KT CAVOK 11/08 Q1017 NOSIG",
      "taf": "TAF LGAV 061700Z 0618/0718 VRB03KT 9999 FEW025"
    },
    {
      "icao": "LGTS",
      "alert": "OK",
      "vis_m": 9999,
      "fzfg": false,
      "metar_trigger": false,
      "taf_trigger": false,
      "metar": "METAR LGTS 062250Z VRB02KT 9999 FEW025 13/13 Q1016 NOSIG",
      "taf": "TAF LGTS 061700Z 0618/0718 VRB03KT 9999 FEW025"
    },
    {
      "icao": "LHBP",
      "alert": "OK",
      "vis_m": 9999,
      "fzfg": false,
      "metar_trigger": false,
      "taf_trigger": false,
      "metar": "METAR LHBP 062300Z 22012G22KT 9999 -SHRA SCT053TCU OVC067 16/14 Q1012 NOSIG",
      "taf": "TAF LHBP 061715Z 0618/0718 21007KT CAVOK"
    },
    {
      "icao": "LHDC",
      "alert": "OK",
      "vis_m": 9999,
      "fzfg": false,
      "metar_trigger": false,
      "taf_trigger": false,
      "metar": "METAR LHDC 062245Z AUTO 16004KT CAVOK 16/09 Q1011",
      "taf": "TAF LHDC 061415Z 0615/0624 21013KT CAVOK"
    },
    {
      "icao": "LIBD",
      "alert": "OK",
      "vis_m": 9999,
      "fzfg": false,
      "metar_trigger": false,
      "taf_trigger": false,
      "metar": "METAR LIBD 062250Z 20004KT 150V230 9999 -RA BKN045 18/13 Q1014",
      "taf": "TAF LIBD 061700Z 0618/0718 17010KT CAVOK"
    },
    {
      "icao": "LIBG",
      "alert": "OK",
      "vis_m": null,
      "fzfg": false,
      "metar_trigger": false,
      "taf_trigger": false,
      "metar": "",
      "taf": "TAF LIBG 061400Z 0615/0624 16012KT 9999 BKN015"
    },
    {
      "icao": "LIBP",
      "alert": "OK",
      "vis_m": 9999,
      "fzfg": false,
      "metar_trigger": false,
      "taf_trigger": false,
      "metar": "METAR LIBP 062250Z AUTO VRB02KT 9999 OVC120/// 16/16 Q1011",
      "taf": "TAF LIBP 061700Z 0618/0718 VRB05KT 9999 FEW080"
    },
    {
      "icao": "LIBR",
      "alert": "OK",
      "vis_m": 9999,
      "fzfg": false,
      "metar_trigger": false,
      "taf_trigger": false,
      "metar": "METAR LIBR 062250Z 19008KT CAVOK 17/15 Q1015",
      "taf": "TAF LIBR 061700Z 0618/0718 17011KT 9999 FEW015"
    },
    {
      "icao": "LICA",
      "alert": "OK",
      "vis_m": 9999,
      "fzfg": false,
      "metar_trigger": false,
      "taf_trigger": false,
      "metar": "METAR LICA 062250Z AUTO 07019KT 9999 BKN130/// 18/14 Q1013",
      "taf": "TAF LICA 061700Z 0618/0718 08013KT 9999 FEW020"
    },
    {
      "icao": "LICC",
      "alert": "OK",
      "vis_m": 9999,
      "fzfg": false,
      "metar_trigger": false,
      "taf_trigger": false,
      "metar": "METAR LICC 062250Z 05009KT 9999 SCT015 18/14 Q1014",
      "taf": "TAF LICC 061700Z 0618/0718 06012KT 9999 SCT020"
    },
    {
      "icao": "LICJ",
      "alert": "OK",
      "vis_m": 9999,
      "fzfg": false,
      "metar_trigger": false,
      "taf_trigger": false,
      "metar": "METAR LICJ 062250Z 07019KT 9999 FEW007 18/17 Q1011",
      "taf": "TAF LICJ 061700Z 0618/0718 07012KT 9999 FEW020"
    },
    {
      "icao": "LIMC",
      "alert": "OK",
      "vis_m": 9999,
      "fzfg": false,
      "metar_trigger": false,
      "taf_trigger": false,
      "metar": "METAR LIMC 062250Z 34003KT 320V020 9999 BKN045 12/11 Q1011 NOSIG",
      "taf": "TAF LIMC 061700Z 0618/0724 01008KT 9999 BKN015"
    },
    {
      "icao": "LIME",
      "alert": "OK",
      "vis_m": 9999,
      "fzfg": false,
      "metar_trigger": false,
      "taf_trigger": false,
      "metar": "METAR LIME 062250Z 01006KT 9999 BKN080 13/09 Q1011 NOSIG",
      "taf": "TAF LIME 061700Z 0618/0718 VRB05KT 9999 BKN020 BKN060"
    },
    {
      "icao": "LIMF",
      "alert": "OK",
      "vis_m": 9999,
      "fzfg": false,
      "metar_trigger": false,
      "taf_trigger": false,
      "metar": "METAR LIMF 062250Z 34005KT 9999 SCT020 13/10 Q1011",
      "taf": "TAF LIMF 061700Z 0618/0718 VRB05KT 9999 SCT040"
    },
    {
      "icao": "LIMJ",
      "alert": "OK",
      "vis_m": 9999,
      "fzfg": false,
      "metar_trigger": false,
      "taf_trigger": false,
      "metar": "METAR LIMJ 062250Z 15010KT 9999 BKN027 18/13 Q1011",
      "taf": "TAF LIMJ 061700Z 0618/0718 17010KT 9999 FEW030"
    },
    {
      "icao": "LIPE",
      "alert": "OK",
      "vis_m": 9999,
      "fzfg": false,
      "metar_trigger": false,
      "taf_trigger": false,
      "metar": "METAR LIPE 062250Z AUTO 22004KT 9999 NCD 13/10 Q1011",
      "taf": "TAF LIPE 061700Z 0618/0718 18010KT CAVOK"
    },
    {
      "icao": "LIPH",
      "alert": "OK",
      "vis_m": 9999,
      "fzfg": false,
      "metar_trigger": false,
      "taf_trigger": false,
      "metar": "METAR LIPH 062250Z AUTO 04003KT 010V070 9999 NCD 14/14 Q1011",
      "taf": "TAF LIPH 061700Z 0618/0718 VRB05KT 9999 BKN015"
    },
    {
      "icao": "LIPQ",
      "alert": "OK",
      "vis_m": 9999,
      "fzfg": false,
      "metar_trigger": false,
      "taf_trigger": false,
      "metar": "METAR LIPQ 062250Z AUTO 17007KT 9999 BKN012/// BKN120/// 16/14 Q1011",
      "taf": "TAF LIPQ 061700Z 0618/0718 15007KT 9999 BKN030"
    },
    {
      "icao": "LIPR",
      "alert": "OK",
      "vis_m": 9999,
      "fzfg": false,
      "metar_trigger": false,
      "taf_trigger": false,
      "metar": "METAR LIPR 062250Z AUTO 22005KT 9999 SCT084/// BKN140/// 18/13 Q1011",
      "taf": "TAF LIPR 061700Z 0618/0718 20010KT 9999 FEW050"
    },
    {
      "icao": "LIPX",
      "alert": "OK",
      "vis_m": 3500,
      "fzfg": false,
      "metar_trigger": false,
      "taf_trigger": false,
      "metar": "METAR LIPX 062250Z 27003KT 3500 BR FEW040 13/13 Q1011",
      "taf": "TAF LIPX 061700Z 0618/0718 VRB05KT 9999 SCT040"
    },
    {
      "icao": "LIPY",
      "alert": "OK",
      "vis_m": 9999,
      "fzfg": false,
      "metar_trigger": false,
      "taf_trigger": false,
      "metar": "METAR LIPY 062250Z AUTO VRB02KT 9999 FEW086/// BKN110/// 17/14 Q1012",
      "taf": "TAF LIPY 061700Z 0618/0718 15007KT 9999 FEW040"
    },
    {
      "icao": "LIPZ",
      "alert": "OK",
      "vis_m": 9999,
      "fzfg": false,
      "metar_trigger": false,
      "taf_trigger": false,
      "metar": "METAR LIPZ 062250Z 02004KT CAVOK 14/14 Q1011 NOSIG",
      "taf": "TAF LIPZ 061700Z 0618/0724 02005KT 9999 BKN015"
    },
    {
      "icao": "LIRF",
      "alert": "OK",
      "vis_m": 8000,
      "fzfg": false,
      "metar_trigger": false,
      "taf_trigger": false,
      "metar": "METAR LIRF 062250Z 11005KT 8000 -SHRA FEW015 SCT025 16/15 Q1014 NOSIG",
      "taf": "TAF LIRF 061700Z 0618/0724 19012KT 8000 BKN020"
    },
    {
      "icao": "LIRN",
      "alert": "OK",
      "vis_m": 9999,
      "fzfg": false,
      "metar_trigger": false,
      "taf_trigger": false,
      "metar": "METAR LIRN 062250Z 12003KT 9999 -RA SCT070 16/12 Q1015 NOSIG",
      "taf": "TAF LIRN 061700Z 0618/0718 VRB05KT 9999 BKN070"
    },
    {
      "icao": "LIRP",
      "alert": "OK",
      "vis_m": 9999,
      "fzfg": false,
      "metar_trigger": false,
      "taf_trigger": false,
      "metar": "METAR LIRP 062245Z 11005KT 9999 FEW020 13/12 Q1013 NOSIG",
      "taf": "TAF LIRP 061700Z 0618/0718 24012KT 9999 SCT020 SCT050"
    },
    {
      "icao": "LIRZ",
      "alert": "OK",
      "vis_m": 9999,
      "fzfg": false,
      "metar_trigger": false,
      "taf_trigger": false,
      "metar": "METAR LIRZ 062250Z AUTO 18009KT 9999 BKN022/// 16/12 Q1014",
      "taf": "TAF LIRZ 061700Z 0618/0718 20012KT 9999 BKN030"
    },
    {
      "icao": "LJLJ",
      "alert": "OK",
      "vis_m": 9999,
      "fzfg": false,
      "metar_trigger": false,
      "taf_trigger": false,
      "metar": "METAR LJLJ 062230Z VRB02KT 9999 MIFG FEW007 SCT080 BKN110 12/11 Q1011 NOSIG",
      "taf": "TAF LJLJ 062300Z 0700/0800 VRB02KT 9999 FEW007 SCT025 BKN100"
    },
    {
      "icao": "LKMT",
      "alert": "OK",
      "vis_m": 9999,
      "fzfg": false,
      "metar_trigger": false,
      "taf_trigger": false,
      "metar": "METAR LKMT 062300Z 19010KT CAVOK 18/10 Q1006 NOSIG",
      "taf": "TAF LKMT 061700Z 0618/0718 20012KT CAVOK"
    },
    {
      "icao": "LKPR",
      "alert": "OK",
      "vis_m": 9999,
      "fzfg": false,
      "metar_trigger": false,
      "taf_trigger": false,
      "metar": "METAR LKPR 062300Z 19004KT 9999 FEW020 BKN048 13/12 Q1006 NOSIG",
      "taf": "TAF LKPR 062000Z 0621/0803 27008KT 9999 BKN050"
    },
    {
      "icao": "LLBG",
      "alert": "OK",
      "vis_m": 9999,
      "fzfg": false,
      "metar_trigger": false,
      "taf_trigger": false,
      "metar": "METAR LLBG 062250Z VRB02KT 9999 FEW030 14/09 Q1016 NOSIG",
      "taf": "TAF LLBG 061703Z 0618/0718 VRB04KT 9999 FEW030 TX23/0712Z TN13/0703Z"
    },
    {
      "icao": "LMML",
      "alert": "OK",
      "vis_m": 9999,
      "fzfg": false,
      "metar_trigger": false,
      "taf_trigger": false,
      "metar": "METAR LMML 062245Z 10019KT CAVOK 18/14 Q1010 NOSIG",
      "taf": "TAF LMML 062300Z 0700/0724 12019KT 9999 FEW015"
    },
    {
      "icao": "LOWW",
      "alert": "OK",
      "vis_m": 9999,
      "fzfg": false,
      "metar_trigger": false,
      "taf_trigger": false,
      "metar": "METAR LOWW 062250Z 24007KT CAVOK 16/10 Q1008 NOSIG",
      "taf": "TAF LOWW 062015Z 0621/0803 16012KT CAVOK TX22/0713Z TN12/0803Z"
    },
    {
      "icao": "LPFR",
      "alert": "OK",
      "vis_m": 9999,
      "fzfg": false,
      "metar_trigger": false,
      "taf_trigger": false,
      "metar": "METAR LPFR 062230Z 30010KT CAVOK 16/09 Q1010",
      "taf": "TAF LPFR 061700Z 0618/0718 26018KT 9999 FEW020"
    },
    {
      "icao": "LPMA",
      "alert": "OK",
      "vis_m": 9999,
      "fzfg": false,
      "metar_trigger": false,
      "taf_trigger": false,
      "metar": "METAR LPMA 062230Z 35009KT 9999 BKN015 16/09 Q1018",
      "taf": "TAF LPMA 061700Z 0618/0718 01015KT 9999 SCT015"
    },
    {
      "icao": "LPPR",
      "alert": "OK",
      "vis_m": 9999,
      "fzfg": false,
      "metar_trigger": false,
      "taf_trigger": false,
      "metar": "METAR LPPR 062230Z 34002KT CAVOK 12/11 Q1011",
      "taf": "TAF LPPR 061700Z 0618/0718 32015KT 9999 FEW025"
    },
    {
      "icao": "LPPS",
      "alert": "OK",
      "vis_m": 9999,
      "fzfg": false,
      "metar_trigger": false,
      "taf_trigger": false,
      "metar": "METAR LPPS 062230Z 01007KT 9999 FEW015 15/09 Q1018",
      "taf": "TAF LPPS 061700Z 0618/0724 02013KT 9999 SCT015 SCT030"
    },
    {
      "icao": "LPPT",
      "alert": "OK",
      "vis_m": 9999,
      "fzfg": false,
      "metar_trigger": false,
      "taf_trigger": false,
      "metar": "METAR LPPT 062230Z 32011KT 300V010 CAVOK 13/10 Q1012",
      "taf": "TAF LPPT 061700Z 0618/0724 32013KT 9999 FEW030"
    },
    {
      "icao": "LQBK",
      "alert": "OK",
      "vis_m": 9999,
      "fzfg": false,
      "metar_trigger": false,
      "taf_trigger": false,
      "metar": "METAR LQBK 062300Z 16006KT 130V200 CAVOK 19/06 Q1012 NOSIG",
      "taf": "TAF LQBK 061700Z 0618/0718 20005KT CAVOK TX20/0618Z TN09/0703Z"
    },
    {
      "icao": "LQSA",
      "alert": "OK",
      "vis_m": 9999,
      "fzfg": false,
      "metar_trigger": false,
      "taf_trigger": false,
      "metar": "METAR LQSA 062300Z VRB01KT 9999 SCT055 14/08 Q1015",
      "taf": "TAF LQSA 061700Z 0618/0718 VRB02KT 9999 SCT050 TX22/0714Z TN09/0704Z"
    },
    {
      "icao": "LQTZ",
      "alert": "OK",
      "vis_m": 9999,
      "fzfg": false,
      "metar_trigger": false,
      "taf_trigger": false,
      "metar": "METAR LQTZ 062300Z VRB01KT CAVOK 16/10 Q1013",
      "taf": "TAF LQTZ 061700Z 0618/0718 10005KT 9999 SCT050 TX24/0713Z TN08/0704Z"
    },
    {
      "icao": "LRBC",
      "alert": "OK",
      "vis_m": 9999,
      "fzfg": false,
      "metar_trigger": false,
      "taf_trigger": false,
      "metar": "METAR LRBC 062230Z COR 18010KT CAVOK 13/07 Q1014",
      "taf": "TAF LRBC 062000Z 0621/0706 16012KT CAVOK"
    },
    {
      "icao": "LRBS",
      "alert": "OK",
      "vis_m": 9999,
      "fzfg": false,
      "metar_trigger": false,
      "taf_trigger": false,
      "metar": "METAR LRBS 062230Z 06004KT CAVOK 13/06 Q1015 NOSIG",
      "taf": "TAF LRBS 061700Z 0618/0718 09008KT CAVOK"
    },
    {
      "icao": "LRBV",
      "alert": "OK",
      "vis_m": 9999,
      "fzfg": false,
      "metar_trigger": false,
      "taf_trigger": false,
      "metar": "METAR LRBV 062230Z AUTO VRB03KT 9999 NCD 13/07 Q1015",
      "taf": ""
    },
    {
      "icao": "LRCL",
      "alert": "OK",
      "vis_m": 9999,
      "fzfg": false,
      "metar_trigger": false,
      "taf_trigger": false,
      "metar": "METAR LRCL 062230Z 23003KT CAVOK 14/07 Q1013",
      "taf": "TAF LRCL 062000Z 0621/0706 VRB04KT CAVOK"
    },
    {
      "icao": "LRCV",
      "alert": "OK",
      "vis_m": 9999,
      "fzfg": false,
      "metar_trigger": false,
      "taf_trigger": false,
      "metar": "METAR LRCV 062230Z 09009KT CAVOK 13/11 Q1014",
      "taf": "TAF LRCV 062000Z 0621/0706 08010KT CAVOK"
    },
    {
      "icao": "LRIA",
      "alert": "OK",
      "vis_m": 9999,
      "fzfg": false,
      "metar_trigger": false,
      "taf_trigger": false,
      "metar": "METAR LRIA 062230Z 17008KT CAVOK 16/05 Q1014",
      "taf": "TAF LRIA 062000Z 0621/0706 16008KT CAVOK"
    },
    {
      "icao": "LROP",
      "alert": "OK",
      "vis_m": 9999,
      "fzfg": false,
      "metar_trigger": false,
      "taf_trigger": false,
      "metar": "METAR LROP 062230Z 04006KT CAVOK 12/08 Q1016 NOSIG",
      "taf": "TAF LROP 061700Z 0618/0718 10008KT CAVOK"
    },
    {
      "icao": "LRSB",
      "alert": "OK",
      "vis_m": 9999,
      "fzfg": false,
      "metar_trigger": false,
      "taf_trigger": false,
      "metar": "METAR LRSB 062230Z 18006KT 150V210 CAVOK 17/08 Q1014",
      "taf": "TAF LRSB 061700Z 0618/0718 VRB04KT CAVOK"
    },
    {
      "icao": "LRSM",
      "alert": "OK",
      "vis_m": 9999,
      "fzfg": false,
      "metar_trigger": false,
      "taf_trigger": false,
      "metar": "METAR LRSM 062230Z AUTO 20004KT 9999 NCD 13/08 Q1011",
      "taf": "TAF LRSM 061400Z 0615/0624 24012KT CAVOK"
    },
    {
      "icao": "LRSV",
      "alert": "OK",
      "vis_m": 9999,
      "fzfg": false,
      "metar_trigger": false,
      "taf_trigger": false,
      "metar": "METAR LRSV 062230Z 18009KT CAVOK 13/07 Q1013",
      "taf": "TAF LRSV 062000Z 0621/0706 17014KT CAVOK"
    },
    {
      "icao": "LRTM",
      "alert": "OK",
      "vis_m": 9999,
      "fzfg": false,
      "metar_trigger": false,
      "taf_trigger": false,
      "metar": "METAR LRTM 062230Z VRB02KT CAVOK 14/08 Q1013",
      "taf": "TAF LRTM 062000Z 0621/0706 VRB04KT CAVOK"
    },
    {
      "icao": "LRTR",
      "alert": "OK",
      "vis_m": 9999,
      "fzfg": false,
      "metar_trigger": false,
      "taf_trigger": false,
      "metar": "METAR LRTR 062230Z 08008KT CAVOK 12/10 Q1011",
      "taf": "TAF LRTR 061700Z 0618/0718 VRB04KT CAVOK"
    },
    {
      "icao": "LTAC",
      "alert": "OK",
      "vis_m": 9999,
      "fzfg": false,
      "metar_trigger": false,
      "taf_trigger": false,
      "metar": "METAR LTAC 062250Z 00000KT CAVOK 05/02 Q1018 NOSIG RMK RWY21C 14003KT RWY03L 11002KT RWY21R 11003KT RWY03R 11003KT RWY21L 00000KT",
      "taf": "TAF LTAC 062240Z 0700/0724 VRB02KT CAVOK"
    },
    {
      "icao": "LTFM",
      "alert": "OK",
      "vis_m": 9999,
      "fzfg": false,
      "metar_trigger": false,
      "taf_trigger": false,
      "metar": "METAR LTFM 062250Z 11004KT CAVOK 11/09 Q1017 NOSIG RMK RWY17L VRB02KT RWY34L 11005KT 070V140 RWY16R 12005G16KT 080V240 RWY36 12003KT 090V150 RWY18 11004KT",
      "taf": "TAF LTFM 062240Z 0700/0806 13006KT CAVOK"
    },
    {
      "icao": "LUKK",
      "alert": "OK",
      "vis_m": 9999,
      "fzfg": false,
      "metar_trigger": false,
      "taf_trigger": false,
      "metar": "METAR LUKK 062300Z VRB02KT CAVOK 13/05 Q1016 NOSIG",
      "taf": "TAF LUKK 061702Z 0618/0718 20009KT CAVOK"
    },
    {
      "icao": "LWOH",
      "alert": "OK",
      "vis_m": null,
      "fzfg": false,
      "metar_trigger": false,
      "taf_trigger": false,
      "metar": "",
      "taf": "TAF LWOH 062020Z 0621/0721 18006KT 9999 SCT050 BKN090"
    },
    {
      "icao": "LWSK",
      "alert": "OK",
      "vis_m": 9999,
      "fzfg": false,
      "metar_trigger": false,
      "taf_trigger": false,
      "metar": "METAR LWSK 062250Z VRB02KT CAVOK 14/07 Q1015 NOSIG",
      "taf": "TAF LWSK 062020Z 0621/0721 VRB02KT 9999 FEW060 SCT090"
    },
    {
      "icao": "LYBE",
      "alert": "OK",
      "vis_m": 9999,
      "fzfg": false,
      "metar_trigger": false,
      "taf_trigger": false,
      "metar": "METAR LYBE 062300Z 24010KT CAVOK 19/09 Q1012 NOSIG",
      "taf": "TAF LYBE 061700Z 0618/0718 20006KT CAVOK TX24/0618Z TN15/0704Z"
    },
    {
      "icao": "LYNI",
      "alert": "OK",
      "vis_m": 9999,
      "fzfg": false,
      "metar_trigger": false,
      "taf_trigger": false,
      "metar": "METAR LYNI 062300Z 08002KT CAVOK 16/07 Q1014 NOSIG",
      "taf": "TAF LYNI 061700Z 0618/0718 16005KT CAVOK TX25/0618Z TN12/0704Z"
    },
    {
      "icao": "LYPG",
      "alert": "OK",
      "vis_m": 9999,
      "fzfg": false,
      "metar_trigger": false,
      "taf_trigger": false,
      "metar": "METAR LYPG 062300Z VRB02KT 9999 FEW050 BKN080 17/13 Q1017 NOSIG",
      "taf": "TAF LYPG 061700Z 0618/0718 36005KT 9999 SCT040 BKN070 TX22/0713Z TN14/0704Z"
    },
    {
      "icao": "LZIB",
      "alert": "OK",
      "vis_m": 9999,
      "fzfg": false,
      "metar_trigger": false,
      "taf_trigger": false,
      "metar": "METAR LZIB 062300Z 20014KT CAVOK 17/11 Q1007 NOSIG",
      "taf": "TAF LZIB 061715Z 0618/0718 19012KT 9999 FEW045"
    },
    {
      "icao": "LZKZ",
      "alert": "OK",
      "vis_m": 9999,
      "fzfg": false,
      "metar_trigger": false,
      "taf_trigger": false,
      "metar": "METAR LZKZ 062300Z VRB03KT CAVOK 15/09 Q1010 NOSIG",
      "taf": "TAF LZKZ 061715Z 0618/0718 21009KT CAVOK"
    },
    {
      "icao": "LZTT",
      "alert": "OK",
      "vis_m": 9999,
      "fzfg": false,
      "metar_trigger": false,
      "taf_trigger": false,
      "metar": "METAR LZTT 062300Z 24014KT 9999 -SHRA FEW016 BKN050 14/11 Q1011",
      "taf": "TAF LZTT 061715Z 0618/0718 25007KT 9999 FEW050"
    },
    {
      "icao": "OEJN",
      "alert": "OK",
      "vis_m": 9999,
      "fzfg": false,
      "metar_trigger": false,
      "taf_trigger": false,
      "metar": "METAR OEJN 062300Z 34010KT CAVOK 26/20 Q1007 NOSIG",
      "taf": "TAF OEJN 061700Z 0618/0724 35010KT 7000 FEW040"
    },
    {
      "icao": "OEMA",
      "alert": "OK",
      "vis_m": 9999,
      "fzfg": false,
      "metar_trigger": false,
      "taf_trigger": false,
      "metar": "METAR OEMA 062300Z 01005KT 9999 SCT040 30/M06 Q1011 NOSIG",
      "taf": "TAF OEMA 061700Z 0618/0724 30006KT 9999 FEW045"
    },
    {
      "icao": "OJAI",
      "alert": "OK",
      "vis_m": 5000,
      "fzfg": false,
      "metar_trigger": false,
      "taf_trigger": false,
      "metar": "METAR OJAI 062200Z 10003KT 5000 HZ NSC 08/04 Q1018 NOSIG",
      "taf": "TAF OJAI 061700Z 0618/0724 29008KT 5000 HZ FEW035"
    },
    {
      "icao": "OMAA",
      "alert": "OK",
      "vis_m": 9999,
      "fzfg": false,
      "metar_trigger": false,
      "taf_trigger": false,
      "metar": "METAR OMAA 062300Z 32006KT 270V360 CAVOK 31/21 Q1005 NOSIG",
      "taf": "TAF OMAA 062300Z 0700/0806 35004KT 8000 NSC"
    },
    {
      "icao": "OMDB",
      "alert": "OK",
      "vis_m": 9999,
      "fzfg": false,
      "metar_trigger": false,
      "taf_trigger": false,
      "metar": "METAR OMDB 062300Z 32007KT CAVOK 32/17 Q1005 NOSIG",
      "taf": "TAF OMDB 062300Z 0700/0806 VRB02KT 8000 NSC"
    },
    {
      "icao": "UAAA",
      "alert": "OK",
      "vis_m": 9999,
      "fzfg": false,
      "metar_trigger": false,
      "taf_trigger": false,
      "metar": "METAR UAAA 062230Z VRB01MPS 9999 NSC 14/09 Q1014 NOSIG",
      "taf": "TAF UAAA 061704Z 0618/0718 18002G07MPS 9999 FEW050CB SCT100 TX28/0708Z TN11/0701Z"
    },
    {
      "icao": "UBBB",
      "alert": "OK",
      "vis_m": 9999,
      "fzfg": false,
      "metar_trigger": false,
      "taf_trigger": false,
      "metar": "METAR UBBB 062300Z 20005KT CAVOK 11/09 Q1016 NOSIG",
      "taf": "TAF UBBB 062301Z 0700/0724 VRB04KT CAVOK TX20/0710Z TN11/0701Z"
    },
    {
      "icao": "UDSG",
      "alert": "OK",
      "vis_m": 9999,
      "fzfg": false,
      "metar_trigger": false,
      "taf_trigger": false,
      "metar": "METAR UDSG 062230Z 08003KT 9999 SCT049CB 03/02 Q1018 NOSIG",
      "taf": "TAF UDSG 061658Z 0618/0718 36006KT 9999 SCT040"
    },
    {
      "icao": "UDYZ",
      "alert": "OK",
      "vis_m": 9999,
      "fzfg": false,
      "metar_trigger": false,
      "taf_trigger": false,
      "metar": "METAR UDYZ 062230Z VRB02KT 9999 FEW043CB 08/05 Q1015 NOSIG",
      "taf": "TAF UDYZ 061700Z 0618/0718 04006KT 9999 FEW040"
    },
    {
      "icao": "UGKO",
      "alert": "OK",
      "vis_m": 9999,
      "fzfg": false,
      "metar_trigger": false,
      "taf_trigger": false,
      "metar": "METAR UGKO 062230Z COR 27002KT 9999 SCT048 BKN082 10/09 Q1019 NOSIG",
      "taf": "TAF UGKO 062300Z 0700/0724 25006KT 9999 SCT030 BKN045 TX18/0711Z TN08/0702Z"
    }
  ]
}