{
  "ts_utc": "2026-06-02T04:25:22Z",
  "threshold_m": 150,
  "source": "stations_override.txt (ICAO list) + aviationweather.gov (METAR/TAF raw)",
  "station_count": 159,
  "stations": [
    {
      "icao": "BIKF",
      "alert": "OK",
      "vis_m": 9999,
      "fzfg": false,
      "metar_trigger": false,
      "taf_trigger": false,
      "metar": "METAR BIKF 020400Z 16007KT CAVOK 10/09 Q1002",
      "taf": "TAF BIKF 020103Z 0203/0303 29008KT 9999 FEW020 BKN030 TX13/0215Z TN08/0303Z"
    },
    {
      "icao": "BKPR",
      "alert": "OK",
      "vis_m": 7000,
      "fzfg": false,
      "metar_trigger": false,
      "taf_trigger": false,
      "metar": "METAR BKPR 020400Z 34003KT 310V020 7000 -RA SCT030 BKN050 14/14 Q1017 NOSIG",
      "taf": "TAF BKPR 012330Z 0200/0224 VRB05KT 9999 BKN040"
    },
    {
      "icao": "EBCI",
      "alert": "OK",
      "vis_m": 9999,
      "fzfg": false,
      "metar_trigger": false,
      "taf_trigger": false,
      "metar": "METAR EBCI 020350Z AUTO 17005KT 9999 // FEW047/// 17/11 Q1008",
      "taf": "TAF EBCI 012301Z 0200/0306 18008KT 9999 SCT045"
    },
    {
      "icao": "EDDB",
      "alert": "OK",
      "vis_m": 9999,
      "fzfg": false,
      "metar_trigger": false,
      "taf_trigger": false,
      "metar": "METAR EDDB 020420Z AUTO 10005KT CAVOK 14/11 Q1013 NOSIG",
      "taf": "TAF EDDB 012300Z 0200/0224 12003KT CAVOK"
    },
    {
      "icao": "EDDH",
      "alert": "OK",
      "vis_m": 9999,
      "fzfg": false,
      "metar_trigger": false,
      "taf_trigger": false,
      "metar": "METAR EDDH 020420Z AUTO 13005KT 100V170 CAVOK 16/11 Q1011 NOSIG",
      "taf": "TAF EDDH 012300Z 0200/0306 VRB02KT CAVOK"
    },
    {
      "icao": "EDDK",
      "alert": "OK",
      "vis_m": 9999,
      "fzfg": false,
      "metar_trigger": false,
      "taf_trigger": false,
      "metar": "METAR EDDK 020420Z AUTO VRB02KT CAVOK 15/12 Q1009 NOSIG",
      "taf": "TAF EDDK 012300Z 0200/0306 12004KT CAVOK"
    },
    {
      "icao": "EDDN",
      "alert": "OK",
      "vis_m": 9999,
      "fzfg": false,
      "metar_trigger": false,
      "taf_trigger": false,
      "metar": "METAR EDDN 020420Z AUTO 11005KT CAVOK 12/10 Q1012 NOSIG",
      "taf": "TAF EDDN 012300Z 0200/0224 10005KT CAVOK"
    },
    {
      "icao": "EDDS",
      "alert": "OK",
      "vis_m": 9999,
      "fzfg": false,
      "metar_trigger": false,
      "taf_trigger": false,
      "metar": "METAR EDDS 020420Z AUTO VRB01KT CAVOK 14/11 Q1011 NOSIG",
      "taf": "TAF EDDS 012300Z 0200/0224 VRB02KT CAVOK"
    },
    {
      "icao": "EDFH",
      "alert": "OK",
      "vis_m": 9999,
      "fzfg": false,
      "metar_trigger": false,
      "taf_trigger": false,
      "metar": "METAR EDFH 020350Z 14008KT CAVOK 12/09 Q1011",
      "taf": "TAF EDFH 012300Z 0200/0224 15005KT CAVOK"
    },
    {
      "icao": "EDJA",
      "alert": "OK",
      "vis_m": 9999,
      "fzfg": false,
      "metar_trigger": false,
      "taf_trigger": false,
      "metar": "METAR EDJA 020350Z COR AUTO 17004KT CAVOK 11/10 Q1013",
      "taf": "TAF EDJA 020200Z 0203/0212 VRB02KT CAVOK"
    },
    {
      "icao": "EDLW",
      "alert": "OK",
      "vis_m": 9999,
      "fzfg": false,
      "metar_trigger": false,
      "taf_trigger": false,
      "metar": "METAR EDLW 020350Z 16006KT CAVOK 15/12 Q1009",
      "taf": "TAF EDLW 020320Z 0204/0224 15006KT CAVOK"
    },
    {
      "icao": "EDNY",
      "alert": "OK",
      "vis_m": 9999,
      "fzfg": false,
      "metar_trigger": false,
      "taf_trigger": false,
      "metar": "METAR EDNY 020350Z 06005KT CAVOK 14/11 Q1012",
      "taf": "TAF EDNY 020200Z 0203/0212 03003KT CAVOK"
    },
    {
      "icao": "EDSB",
      "alert": "OK",
      "vis_m": 9999,
      "fzfg": false,
      "metar_trigger": false,
      "taf_trigger": false,
      "metar": "METAR EDSB 020350Z 00000KT CAVOK 14/13 Q1011",
      "taf": "TAF EDSB 012300Z 0200/0224 VRB02KT CAVOK"
    },
    {
      "icao": "EETN",
      "alert": "OK",
      "vis_m": 9999,
      "fzfg": false,
      "metar_trigger": false,
      "taf_trigger": false,
      "metar": "METAR EETN 020420Z 28004KT CAVOK 13/08 Q1012 NOSIG",
      "taf": "TAF EETN 012330Z 0200/0224 VRB02KT CAVOK"
    },
    {
      "icao": "EFTU",
      "alert": "OK",
      "vis_m": 9999,
      "fzfg": false,
      "metar_trigger": false,
      "taf_trigger": false,
      "metar": "METAR EFTU 020420Z AUTO 17004KT CAVOK 12/09 Q1011",
      "taf": "TAF EFTU 020235Z 0203/0303 21005KT CAVOK"
    },
    {
      "icao": "EGBB",
      "alert": "OK",
      "vis_m": 9999,
      "fzfg": false,
      "metar_trigger": false,
      "taf_trigger": false,
      "metar": "METAR EGBB 020350Z 20005KT 160V220 9999 BKN007 BKN011 OVC016 15/14 Q1002",
      "taf": "TAF EGBB 012256Z 0200/0224 18006KT 9999 SCT010"
    },
    {
      "icao": "EGGP",
      "alert": "OK",
      "vis_m": 9999,
      "fzfg": false,
      "metar_trigger": false,
      "taf_trigger": false,
      "metar": "METAR EGGP 020350Z 19004KT 130V230 9999 FEW044 13/11 Q1001",
      "taf": "TAF EGGP 012257Z 0200/0224 18006KT 9999 SCT025"
    },
    {
      "icao": "EGGW",
      "alert": "OK",
      "vis_m": 4600,
      "fzfg": false,
      "metar_trigger": false,
      "taf_trigger": false,
      "metar": "METAR EGGW 020350Z AUTO 20010KT 170V230 4600 DZRA OVC003/// //////TCU 14/14 Q1004",
      "taf": "TAF EGGW 012319Z 0200/0224 21012KT 9999 BKN012"
    },
    {
      "icao": "EGKK",
      "alert": "OK",
      "vis_m": 3500,
      "fzfg": false,
      "metar_trigger": false,
      "taf_trigger": false,
      "metar": "METAR EGKK 020350Z 18005KT 140V230 3500 -RADZ OVC004 15/14 Q1004",
      "taf": "TAF EGKK 012256Z 0200/0306 17005KT 9999 SCT018"
    },
    {
      "icao": "EGNM",
      "alert": "OK",
      "vis_m": 9999,
      "fzfg": false,
      "metar_trigger": false,
      "taf_trigger": false,
      "metar": "METAR EGNM 020350Z 19003KT 9999 -RA FEW006 SCT010 BKN016 14/14 Q1001",
      "taf": ""
    },
    {
      "icao": "EGPD",
      "alert": "OK",
      "vis_m": 9999,
      "fzfg": false,
      "metar_trigger": false,
      "taf_trigger": false,
      "metar": "METAR EGPD 020350Z AUTO VRB02KT 9999 NCD 13/12 Q0999 TEMPO BKN005",
      "taf": "TAF EGPD 012256Z 0200/0224 VRB03KT 9999 FEW005 SCT020"
    },
    {
      "icao": "EGPF",
      "alert": "OK",
      "vis_m": 5000,
      "fzfg": false,
      "metar_trigger": false,
      "taf_trigger": false,
      "metar": "METAR EGPF 020350Z AUTO VRB02KT 5000 BR SCT006 SCT010 OVC014 14/14 Q0999",
      "taf": ""
    },
    {
      "icao": "EHBK",
      "alert": "OK",
      "vis_m": 9999,
      "fzfg": false,
      "metar_trigger": false,
      "taf_trigger": false,
      "metar": "METAR EHBK 020355Z AUTO 16005KT 9999 NSC 16/11 Q1008 NOSIG",
      "taf": "TAF EHBK 012318Z 0200/0306 14005KT CAVOK"
    },
    {
      "icao": "EHEH",
      "alert": "OK",
      "vis_m": 9999,
      "fzfg": false,
      "metar_trigger": false,
      "taf_trigger": false,
      "metar": "METAR EHEH 020355Z AUTO 15006KT 110V170 9999 OVC140 17/12 Q1007 BLU",
      "taf": "TAF EHEH 012320Z 0200/0306 18003KT CAVOK"
    },
    {
      "icao": "EKBI",
      "alert": "OK",
      "vis_m": 9999,
      "fzfg": false,
      "metar_trigger": false,
      "taf_trigger": false,
      "metar": "METAR EKBI 020420Z AUTO 16007KT 130V190 9999 BKN049/// 15/09 Q1009",
      "taf": "TAF EKBI 020227Z 0203/0303 14008KT 9999 FEW040"
    },
    {
      "icao": "EKCH",
      "alert": "OK",
      "vis_m": 9999,
      "fzfg": false,
      "metar_trigger": false,
      "taf_trigger": false,
      "metar": "METAR EKCH 020420Z AUTO 18005KT 9999 FEW200/// 15/12 Q1012 NOSIG",
      "taf": "TAF EKCH 020227Z 0203/0303 20006KT 9999 FEW040"
    },
    {
      "icao": "ENAL",
      "alert": "OK",
      "vis_m": 9999,
      "fzfg": false,
      "metar_trigger": false,
      "taf_trigger": false,
      "metar": "METAR ENAL 020350Z 07008KT 9999 -RA SCT003 BKN056 11/10 Q1005",
      "taf": "TAF ENAL 020200Z 0203/0212 06005KT 9999 SCT004 BKN015"
    },
    {
      "icao": "ENBR",
      "alert": "OK",
      "vis_m": 9999,
      "fzfg": false,
      "metar_trigger": false,
      "taf_trigger": false,
      "metar": "METAR ENBR 020350Z 14007KT 9999 FEW006 SCT012 BKN017 11/09 Q1005 RMK WIND 1200FT 14019KT",
      "taf": ""
    },
    {
      "icao": "ENGM",
      "alert": "OK",
      "vis_m": 5000,
      "fzfg": false,
      "metar_trigger": false,
      "taf_trigger": false,
      "metar": "METAR ENGM 020350Z 19004KT 160V220 5000 OVC003 11/11 Q1008 TEMPO 4000 BR",
      "taf": "TAF ENGM 012300Z 0200/0224 18008KT 9999 SCT004 BKN012"
    },
    {
      "icao": "ENHD",
      "alert": "OK",
      "vis_m": 9999,
      "fzfg": false,
      "metar_trigger": false,
      "taf_trigger": false,
      "metar": "METAR ENHD 020350Z AUTO 14012KT 9999 FEW005/// OVC013/// 12/11 Q1005",
      "taf": ""
    },
    {
      "icao": "ENTC",
      "alert": "OK",
      "vis_m": 9999,
      "fzfg": false,
      "metar_trigger": false,
      "taf_trigger": false,
      "metar": "METAR ENTC 020350Z 04006KT CAVOK 09/04 Q1009 RMK WIND 2600FT 15013KT",
      "taf": "TAF ENTC 012300Z 0200/0224 02010KT 9999 FEW040"
    },
    {
      "icao": "ENTO",
      "alert": "OK",
      "vis_m": 9999,
      "fzfg": false,
      "metar_trigger": false,
      "taf_trigger": false,
      "metar": "METAR ENTO 020350Z 20010KT 9999 NSC 12/11 Q1008",
      "taf": "TAF ENTO 012300Z 0200/0224 19008KT 9999 SCT010 BKN020"
    },
    {
      "icao": "ENVA",
      "alert": "OK",
      "vis_m": 9999,
      "fzfg": false,
      "metar_trigger": false,
      "taf_trigger": false,
      "metar": "METAR ENVA 020350Z 09003KT 9999 FEW003 SCT017 BKN021 12/12 Q1007 RERA RMK WIND 670FT 15003KT",
      "taf": "TAF ENVA 012300Z 0200/0224 26008KT 9999 FEW010 BKN025"
    },
    {
      "icao": "ENZV",
      "alert": "OK",
      "vis_m": 9999,
      "fzfg": false,
      "metar_trigger": false,
      "taf_trigger": false,
      "metar": "METAR ENZV 020350Z 15010KT 9999 BKN022 13/10 Q1006",
      "taf": "TAF ENZV 012300Z 0200/0224 14012KT 9999 -RA FEW010 BKN025"
    },
    {
      "icao": "EPGD",
      "alert": "OK",
      "vis_m": 9999,
      "fzfg": false,
      "metar_trigger": false,
      "taf_trigger": false,
      "metar": "METAR EPGD 020400Z 28001KT CAVOK 08/07 Q1014",
      "taf": "TAF EPGD 012330Z 0200/0224 VRB02KT CAVOK"
    },
    {
      "icao": "EPKK",
      "alert": "OK",
      "vis_m": 500,
      "fzfg": false,
      "metar_trigger": false,
      "taf_trigger": false,
      "metar": "METAR EPKK 020400Z 30004KT 0500 R25/0750U FG OVC001 13/12 Q1014",
      "taf": "TAF EPKK 020230Z 0203/0303 VRB02KT 1000 BR NSC"
    },
    {
      "icao": "EPKT",
      "alert": "OK",
      "vis_m": 700,
      "fzfg": false,
      "metar_trigger": false,
      "taf_trigger": false,
      "metar": "METAR EPKT 020400Z 06003KT 0700 R26/0500D FG BKN000 07/07 Q1014",
      "taf": "TAF EPKT 012330Z 0200/0224 VRB01KT 1500 BR NSC"
    },
    {
      "icao": "EPLB",
      "alert": "OK",
      "vis_m": 3600,
      "fzfg": false,
      "metar_trigger": false,
      "taf_trigger": false,
      "metar": "METAR EPLB 020400Z 07003KT 3600 BR SCT052TCU 14/14 Q1014 RESHRA",
      "taf": "TAF EPLB 012330Z 0200/0224 VRB02KT 9999 SCT040"
    },
    {
      "icao": "EPMO",
      "alert": "OK",
      "vis_m": 250,
      "fzfg": false,
      "metar_trigger": false,
      "taf_trigger": false,
      "metar": "METAR EPMO 020400Z VRB02KT 0250 R08/0275N FG BKN001 11/11 Q1014",
      "taf": "TAF EPMO 012330Z 0200/0224 VRB02KT 2000 BR NSC"
    },
    {
      "icao": "EPPO",
      "alert": "OK",
      "vis_m": 9999,
      "fzfg": false,
      "metar_trigger": false,
      "taf_trigger": false,
      "metar": "METAR EPPO 020400Z 34001KT CAVOK 11/10 Q1014",
      "taf": "TAF EPPO 012330Z 0200/0224 VRB02KT CAVOK"
    },
    {
      "icao": "EPRA",
      "alert": "OK",
      "vis_m": 300,
      "fzfg": false,
      "metar_trigger": false,
      "taf_trigger": false,
      "metar": "METAR EPRA 020400Z VRB03KT 0300 R25/0250N FG OVC002 11/11 Q1014",
      "taf": "TAF EPRA 020230Z 0203/0212 VRB02KT 0800 FG OVC003"
    },
    {
      "icao": "EPRZ",
      "alert": "OK",
      "vis_m": 2000,
      "fzfg": false,
      "metar_trigger": false,
      "taf_trigger": false,
      "metar": "METAR EPRZ 020400Z 24002KT 2000 MIFG BR BKN001 12/12 Q1014",
      "taf": ""
    },
    {
      "icao": "EPSC",
      "alert": "OK",
      "vis_m": 9999,
      "fzfg": false,
      "metar_trigger": false,
      "taf_trigger": false,
      "metar": "METAR EPSC 020400Z 11003KT CAVOK 12/11 Q1014",
      "taf": "TAF EPSC 012330Z 0200/0224 VRB02KT CAVOK"
    },
    {
      "icao": "EPSY",
      "alert": "OK",
      "vis_m": 200,
      "fzfg": false,
      "metar_trigger": false,
      "taf_trigger": false,
      "metar": "METAR EPSY 020400Z VRB01KT 0200 R01/0300N FG VV001 12/12 Q1014",
      "taf": "TAF EPSY 020230Z 0203/0212 VRB02KT 1500 BR SCT040"
    },
    {
      "icao": "EPWA",
      "alert": "OK",
      "vis_m": 8000,
      "fzfg": false,
      "metar_trigger": false,
      "taf_trigger": false,
      "metar": "METAR EPWA 020400Z 00000KT 8000 MIFG NSC 12/12 Q1014 NOSIG",
      "taf": "TAF EPWA 020230Z 0203/0303 VRB02KT 3000 BR NSC"
    },
    {
      "icao": "EPWR",
      "alert": "OK",
      "vis_m": 9999,
      "fzfg": false,
      "metar_trigger": false,
      "taf_trigger": false,
      "metar": "METAR EPWR 020400Z 27003KT CAVOK 12/10 Q1014",
      "taf": "TAF EPWR 020230Z 0203/0303 VRB02KT CAVOK"
    },
    {
      "icao": "ESGG",
      "alert": "OK",
      "vis_m": 9999,
      "fzfg": false,
      "metar_trigger": false,
      "taf_trigger": false,
      "metar": "METAR ESGG 020350Z 19005KT 9999 -DZ BKN084 13/12 Q1010",
      "taf": "TAF ESGG 020230Z 0203/0303 16007KT 9999 SCT040"
    },
    {
      "icao": "ESKN",
      "alert": "OK",
      "vis_m": 9999,
      "fzfg": false,
      "metar_trigger": false,
      "taf_trigger": false,
      "metar": "METAR ESKN 020350Z 00000KT CAVOK 10/10 Q1011",
      "taf": "TAF ESKN 020230Z 0203/0303 VRB03KT CAVOK"
    },
    {
      "icao": "ESMS",
      "alert": "OK",
      "vis_m": 9999,
      "fzfg": false,
      "metar_trigger": false,
      "taf_trigger": false,
      "metar": "METAR ESMS 020350Z 09003KT CAVOK 11/11 Q1012",
      "taf": "TAF ESMS 020227Z 0203/0303 20005KT 9999 FEW040"
    },
    {
      "icao": "ESSA",
      "alert": "OK",
      "vis_m": 9999,
      "fzfg": false,
      "metar_trigger": false,
      "taf_trigger": false,
      "metar": "METAR ESSA 020350Z 23005KT CAVOK 11/10 Q1011 NOSIG",
      "taf": "TAF ESSA 020230Z 0203/0303 18006KT CAVOK"
    },
    {
      "icao": "EYKA",
      "alert": "OK",
      "vis_m": 9999,
      "fzfg": false,
      "metar_trigger": false,
      "taf_trigger": false,
      "metar": "METAR EYKA 020420Z VRB03KT CAVOK 15/09 Q1014",
      "taf": "TAF EYKA 012300Z 0200/0224 VRB03KT 9000 NSC"
    },
    {
      "icao": "EYPA",
      "alert": "OK",
      "vis_m": 9999,
      "fzfg": false,
      "metar_trigger": false,
      "taf_trigger": false,
      "metar": "METAR EYPA 020420Z VRB01KT CAVOK 13/08 Q1014",
      "taf": "TAF EYPA 012300Z 0200/0224 VRB03KT 9000 NSC"
    },
    {
      "icao": "EYVI",
      "alert": "OK",
      "vis_m": 9999,
      "fzfg": false,
      "metar_trigger": false,
      "taf_trigger": false,
      "metar": "METAR EYVI 020420Z 18003KT CAVOK 14/08 Q1015 NOSIG",
      "taf": "TAF EYVI 012300Z 0200/0224 VRB03KT 9000 NSC"
    },
    {
      "icao": "GCFV",
      "alert": "OK",
      "vis_m": 9999,
      "fzfg": false,
      "metar_trigger": false,
      "taf_trigger": false,
      "metar": "METAR GCFV 020400Z AUTO 01011KT 9999 OVC018 20/16 Q1019",
      "taf": "TAF GCFV 020200Z 0203/0303 36013KT 9999 BKN020 TX25/0214Z TN19/0206Z"
    },
    {
      "icao": "GCLP",
      "alert": "OK",
      "vis_m": 9999,
      "fzfg": false,
      "metar_trigger": false,
      "taf_trigger": false,
      "metar": "METAR GCLP 020400Z 36021KT 9999 SCT020 20/16 Q1019 NOSIG",
      "taf": "TAF GCLP 020200Z 0203/0303 01023KT 9999 SCT020 TX25/0214Z TN20/0206Z"
    },
    {
      "icao": "GCTS",
      "alert": "OK",
      "vis_m": 9999,
      "fzfg": false,
      "metar_trigger": false,
      "taf_trigger": false,
      "metar": "METAR GCTS 020400Z 06009KT 020V100 9999 FEW020 20/16 Q1020 NOSIG",
      "taf": "TAF GCTS 020200Z 0203/0303 VRB05KT 9999 FEW020 TX26/0214Z TN19/0206Z"
    },
    {
      "icao": "GMAD",
      "alert": "OK",
      "vis_m": 8000,
      "fzfg": false,
      "metar_trigger": false,
      "taf_trigger": false,
      "metar": "METAR GMAD 020400Z 00000KT 8000 BKN016 20/17 Q1015 NOSIG",
      "taf": "TAF GMAD 012300Z 0200/0306 12004KT 6000 SCT008 BKN016"
    },
    {
      "icao": "GMMN",
      "alert": "OK",
      "vis_m": 9999,
      "fzfg": false,
      "metar_trigger": false,
      "taf_trigger": false,
      "metar": "METAR GMMN 020400Z 32003KT 260V010 9999 SCT010 19/16 Q1019 NOSIG",
      "taf": "TAF GMMN 012300Z 0200/0306 31003KT 9999 SCT010"
    },
    {
      "icao": "GMMX",
      "alert": "OK",
      "vis_m": 9999,
      "fzfg": false,
      "metar_trigger": false,
      "taf_trigger": false,
      "metar": "METAR GMMX 020400Z 09003KT CAVOK 22/12 Q1018 NOSIG",
      "taf": "TAF GMMX 012300Z 0200/0306 02006KT CAVOK"
    },
    {
      "icao": "HEGN",
      "alert": "OK",
      "vis_m": 9999,
      "fzfg": false,
      "metar_trigger": false,
      "taf_trigger": false,
      "metar": "METAR HEGN 020400Z 14003KT CAVOK 28/14 Q1014 NOSIG",
      "taf": "TAF HEGN 012300Z 0200/0306 29015KT CAVOK"
    },
    {
      "icao": "HEMA",
      "alert": "OK",
      "vis_m": 9999,
      "fzfg": false,
      "metar_trigger": false,
      "taf_trigger": false,
      "metar": "METAR HEMA 020400Z 32012KT CAVOK 28/11 Q1013 NOSIG",
      "taf": "TAF HEMA 012300Z 0200/0306 31015KT CAVOK"
    },
    {
      "icao": "HESH",
      "alert": "OK",
      "vis_m": 9999,
      "fzfg": false,
      "metar_trigger": false,
      "taf_trigger": false,
      "metar": "METAR HESH 020400Z 33012KT CAVOK 29/11 Q1013 NOSIG",
      "taf": "TAF HESH 012300Z 0200/0306 34012KT CAVOK"
    },
    {
      "icao": "HESX",
      "alert": "OK",
      "vis_m": 9999,
      "fzfg": false,
      "metar_trigger": false,
      "taf_trigger": false,
      "metar": "METAR HESX 020400Z 07007KT CAVOK 20/17 Q1015 NOSIG",
      "taf": "TAF HESX 012300Z 0200/0306 04009KT CAVOK"
    },
    {
      "icao": "LATI",
      "alert": "OK",
      "vis_m": 9999,
      "fzfg": false,
      "metar_trigger": false,
      "taf_trigger": false,
      "metar": "METAR LATI 020420Z VRB03KT 9999 BKN085 21/11 Q1014 NOSIG",
      "taf": "TAF LATI 012300Z 0200/0224 VRB05KT CAVOK TX30/0212Z TN15/0204Z"
    },
    {
      "icao": "LBPD",
      "alert": "OK",
      "vis_m": 9999,
      "fzfg": false,
      "metar_trigger": false,
      "taf_trigger": false,
      "metar": "METAR LBPD 020400Z AUTO 33004KT 9999 NCD 15/15 Q1015 NOSIG",
      "taf": "TAF LBPD 012300Z 0200/0224 VRB04KT 9999 SCT060"
    },
    {
      "icao": "LBSF",
      "alert": "OK",
      "vis_m": 4500,
      "fzfg": false,
      "metar_trigger": false,
      "taf_trigger": false,
      "metar": "METAR LBSF 020400Z 36003KT 4500 BR BKN002 OVC009 14/14 Q1016 NOSIG",
      "taf": ""
    },
    {
      "icao": "LBWN",
      "alert": "OK",
      "vis_m": 9999,
      "fzfg": false,
      "metar_trigger": false,
      "taf_trigger": false,
      "metar": "METAR LBWN 020400Z AUTO 11011KT 9999 BKN007/// 18/18 Q1015 NOSIG",
      "taf": "TAF LBWN 012300Z 0200/0224 11010KT 9999 SCT020 BKN045"
    },
    {
      "icao": "LCLK",
      "alert": "OK",
      "vis_m": 9999,
      "fzfg": false,
      "metar_trigger": false,
      "taf_trigger": false,
      "metar": "METAR LCLK 020400Z VRB03KT CAVOK 21/15 Q1016 NOSIG",
      "taf": "TAF LCLK 012330Z 0200/0300 32006KT CAVOK"
    },
    {
      "icao": "LCPH",
      "alert": "OK",
      "vis_m": 9999,
      "fzfg": false,
      "metar_trigger": false,
      "taf_trigger": false,
      "metar": "METAR LCPH 020400Z AUTO 02005KT 010V080 9999 NCD 20/09 Q1016 NOSIG",
      "taf": "TAF LCPH 012330Z 0200/0300 01007KT CAVOK"
    },
    {
      "icao": "LEAL",
      "alert": "OK",
      "vis_m": 9999,
      "fzfg": false,
      "metar_trigger": false,
      "taf_trigger": false,
      "metar": "METAR LEAL 020400Z 25005KT CAVOK 20/13 Q1012 NOSIG",
      "taf": "TAF LEAL 012300Z 0200/0224 VRB04KT 9999 FEW015 TX32/0212Z TN20/0205Z"
    },
    {
      "icao": "LEBB",
      "alert": "OK",
      "vis_m": 9999,
      "fzfg": false,
      "metar_trigger": false,
      "taf_trigger": false,
      "metar": "METAR LEBB 020400Z 12003KT 9999 FEW012 BKN045 17/16 Q1016 NOSIG",
      "taf": ""
    },
    {
      "icao": "LEBL",
      "alert": "OK",
      "vis_m": 9999,
      "fzfg": false,
      "metar_trigger": false,
      "taf_trigger": false,
      "metar": "METAR LEBL 020400Z 30003KT 9999 FEW015 21/20 Q1012 NOSIG",
      "taf": ""
    },
    {
      "icao": "LECH",
      "alert": "OK",
      "vis_m": 9000,
      "fzfg": false,
      "metar_trigger": false,
      "taf_trigger": false,
      "metar": "METAR LECH 020400Z AUTO 05003KT 9000 NCD 17/16 Q1013",
      "taf": "TAF LECH 012300Z 0200/0224 VRB04KT 9999 FEW025 TX30/0213Z TN15/0205Z"
    },
    {
      "icao": "LEMD",
      "alert": "OK",
      "vis_m": 9999,
      "fzfg": false,
      "metar_trigger": false,
      "taf_trigger": false,
      "metar": "METAR LEMD 020400Z 13001KT CAVOK 20/10 Q1015 NOSIG",
      "taf": "TAF LEMD 012300Z 0200/0306 VRB04KT CAVOK TX32/0216Z TN18/0206Z"
    },
    {
      "icao": "LEMG",
      "alert": "OK",
      "vis_m": 9999,
      "fzfg": false,
      "metar_trigger": false,
      "taf_trigger": false,
      "metar": "METAR LEMG 020400Z 27005KT 230V300 CAVOK 19/09 Q1014 NOSIG",
      "taf": "TAF LEMG 012300Z 0200/0224 VRB02KT CAVOK TX39/0214Z TN20/0206Z"
    },
    {
      "icao": "LEVC",
      "alert": "OK",
      "vis_m": 9999,
      "fzfg": false,
      "metar_trigger": false,
      "taf_trigger": false,
      "metar": "METAR LEVC 020400Z 29003KT 270V330 CAVOK 20/17 Q1012 NOSIG",
      "taf": "TAF LEVC 012300Z 0200/0224 VRB04KT 9999 FEW020 TX29/0212Z TN19/0205Z"
    },
    {
      "icao": "LEXJ",
      "alert": "OK",
      "vis_m": 9999,
      "fzfg": false,
      "metar_trigger": false,
      "taf_trigger": false,
      "metar": "METAR LEXJ 020400Z 23007KT 200V270 9999 SCT025 SCT043 18/13 Q1016",
      "taf": "TAF LEXJ 020200Z 0203/0303 22007KT 9999 SCT025 TX21/0214Z TN16/0203Z"
    },
    {
      "icao": "LEZG",
      "alert": "OK",
      "vis_m": 9999,
      "fzfg": false,
      "metar_trigger": false,
      "taf_trigger": false,
      "metar": "METAR LEZG 020400Z 27008KT CAVOK 20/13 Q1013 NOSIG",
      "taf": "TAF LEZG 012300Z 0200/0224 30014KT 9999 FEW050 TX28/0214Z TN16/0205Z"
    },
    {
      "icao": "LEZL",
      "alert": "OK",
      "vis_m": 9999,
      "fzfg": false,
      "metar_trigger": false,
      "taf_trigger": false,
      "metar": "METAR LEZL 020400Z 14001KT CAVOK 19/15 Q1015 NOSIG",
      "taf": "TAF LEZL 020200Z 0203/0303 VRB03KT CAVOK TX38/0215Z TN21/0206Z"
    },
    {
      "icao": "LFBD",
      "alert": "OK",
      "vis_m": 9999,
      "fzfg": false,
      "metar_trigger": false,
      "taf_trigger": false,
      "metar": "METAR LFBD 020400Z AUTO 23006KT 9999 FEW019/// SCT033/// BKN150/// ///TCU 17/16 Q1013 TEMPO 27015G25KT 3000 RA BKN010 BKN020TCU",
      "taf": ""
    },
    {
      "icao": "LFLL",
      "alert": "OK",
      "vis_m": 9999,
      "fzfg": false,
      "metar_trigger": false,
      "taf_trigger": false,
      "metar": "METAR LFLL 020400Z 14004KT CAVOK 17/12 Q1011 NOSIG",
      "taf": "TAF LFLL 012300Z 0200/0306 VRB02KT CAVOK"
    },
    {
      "icao": "LFLS",
      "alert": "OK",
      "vis_m": 9999,
      "fzfg": false,
      "metar_trigger": false,
      "taf_trigger": false,
      "metar": "METAR LFLS 020400Z AUTO 11003KT CAVOK 13/12 Q1012 NOSIG",
      "taf": "TAF LFLS 020200Z 0203/0303 09005KT CAVOK"
    },
    {
      "icao": "LFMN",
      "alert": "OK",
      "vis_m": 9999,
      "fzfg": false,
      "metar_trigger": false,
      "taf_trigger": false,
      "metar": "METAR LFMN 020400Z 08008KT 9999 SCT021 BKN033 23/20 Q1012 NOSIG",
      "taf": "TAF LFMN 020200Z 0203/0309 08010KT 9999 SCT012 BKN025"
    },
    {
      "icao": "LFOB",
      "alert": "OK",
      "vis_m": 9999,
      "fzfg": false,
      "metar_trigger": false,
      "taf_trigger": false,
      "metar": "METAR LFOB 020400Z AUTO 21008KT 160V240 CAVOK 17/13 Q1007 TEMPO 3000 SHRA SCT013 BKN030CB",
      "taf": "TAF LFOB 012300Z 0200/0224 21004KT 9999 SCT040"
    },
    {
      "icao": "LFPO",
      "alert": "OK",
      "vis_m": 9999,
      "fzfg": false,
      "metar_trigger": false,
      "taf_trigger": false,
      "metar": "METAR LFPO 020400Z AUTO 23007KT 9999 ///TCU 17/13 Q1009 TEMPO 22015G25KT 2000 TSRA BKN014CB",
      "taf": "TAF LFPO 012300Z 0200/0306 23005KT CAVOK"
    },
    {
      "icao": "LFSB",
      "alert": "OK",
      "vis_m": 9999,
      "fzfg": false,
      "metar_trigger": false,
      "taf_trigger": false,
      "metar": "METAR LFSB 020400Z AUTO 18004KT CAVOK 14/12 Q1012 NOSIG",
      "taf": "TAF LFSB 012300Z 0200/0224 VRB03KT CAVOK"
    },
    {
      "icao": "LGAV",
      "alert": "OK",
      "vis_m": 9999,
      "fzfg": false,
      "metar_trigger": false,
      "taf_trigger": false,
      "metar": "METAR LGAV 020350Z VRB01KT CAVOK 18/13 Q1015 NOSIG",
      "taf": "TAF LGAV 012300Z 0200/0224 VRB05KT 9999 FEW030"
    },
    {
      "icao": "LGTS",
      "alert": "OK",
      "vis_m": 9999,
      "fzfg": false,
      "metar_trigger": false,
      "taf_trigger": false,
      "metar": "METAR LGTS 020350Z VRB02KT 9999 FEW020 19/19 Q1013 NOSIG",
      "taf": "TAF LGTS 012300Z 0200/0224 VRB03KT 9999 FEW025"
    },
    {
      "icao": "LHBP",
      "alert": "OK",
      "vis_m": 5000,
      "fzfg": false,
      "metar_trigger": false,
      "taf_trigger": false,
      "metar": "METAR LHBP 020400Z 32003KT 290V350 5000 BR SCT003 15/15 Q1013 NOSIG",
      "taf": "TAF LHBP 012315Z 0200/0224 34006KT 9999 SCT025 SCT090"
    },
    {
      "icao": "LHDC",
      "alert": "OK",
      "vis_m": 9999,
      "fzfg": false,
      "metar_trigger": false,
      "taf_trigger": false,
      "metar": "METAR LHDC 020345Z AUTO 30005KT 270V330 9999 OVC018 15/14 Q1012 NOSIG",
      "taf": "TAF LHDC 020215Z 0203/0212 34006KT 9999 SCT020 SCT070"
    },
    {
      "icao": "LIBD",
      "alert": "OK",
      "vis_m": 9999,
      "fzfg": false,
      "metar_trigger": false,
      "taf_trigger": false,
      "metar": "METAR LIBD 020350Z 24004KT CAVOK 16/15 Q1014",
      "taf": "TAF LIBD 012300Z 0200/0224 28007KT 9999 SCT010"
    },
    {
      "icao": "LIBG",
      "alert": "OK",
      "vis_m": null,
      "fzfg": false,
      "metar_trigger": false,
      "taf_trigger": false,
      "metar": "",
      "taf": "TAF LIBG 011700Z 0118/0218 21012KT CAVOK"
    },
    {
      "icao": "LIBP",
      "alert": "OK",
      "vis_m": 9999,
      "fzfg": false,
      "metar_trigger": false,
      "taf_trigger": false,
      "metar": "METAR LIBP 020350Z AUTO 23004KT 9999 NCD 17/17 Q1014",
      "taf": "TAF LIBP 012300Z 0200/0224 22006KT 9999 SCT015"
    },
    {
      "icao": "LIBR",
      "alert": "OK",
      "vis_m": 9999,
      "fzfg": false,
      "metar_trigger": false,
      "taf_trigger": false,
      "metar": "METAR LIBR 020350Z 32008KT CAVOK 20/20 Q1014",
      "taf": "TAF LIBR 012300Z 0200/0224 32008KT 9999 SCT010"
    },
    {
      "icao": "LICA",
      "alert": "OK",
      "vis_m": 9999,
      "fzfg": false,
      "metar_trigger": false,
      "taf_trigger": false,
      "metar": "METAR LICA 020350Z AUTO 07005KT 9999 NCD 15/14 Q1015",
      "taf": "TAF LICA 012300Z 0200/0224 VRB05KT CAVOK"
    },
    {
      "icao": "LICC",
      "alert": "OK",
      "vis_m": 9999,
      "fzfg": false,
      "metar_trigger": false,
      "taf_trigger": false,
      "metar": "METAR LICC 020350Z 24008KT CAVOK 18/11 Q1014",
      "taf": "TAF LICC 012300Z 0200/0224 VRB05KT CAVOK"
    },
    {
      "icao": "LICJ",
      "alert": "OK",
      "vis_m": 9999,
      "fzfg": false,
      "metar_trigger": false,
      "taf_trigger": false,
      "metar": "METAR LICJ 020350Z AUTO 17006KT 9999 // NCD 22/11 Q1014",
      "taf": "TAF LICJ 012300Z 0200/0224 20010KT CAVOK"
    },
    {
      "icao": "LIMC",
      "alert": "OK",
      "vis_m": 9999,
      "fzfg": false,
      "metar_trigger": false,
      "taf_trigger": false,
      "metar": "METAR LIMC 020350Z 10007KT 9999 BKN018 20/17 Q1013 NOSIG",
      "taf": ""
    },
    {
      "icao": "LIME",
      "alert": "OK",
      "vis_m": 9999,
      "fzfg": false,
      "metar_trigger": false,
      "taf_trigger": false,
      "metar": "METAR LIME 020350Z 15003KT 120V200 9999 -RA BKN040 20/16 Q1013 NOSIG",
      "taf": "TAF LIME 012300Z 0200/0224 12012KT CAVOK"
    },
    {
      "icao": "LIMF",
      "alert": "OK",
      "vis_m": 8000,
      "fzfg": false,
      "metar_trigger": false,
      "taf_trigger": false,
      "metar": "METAR LIMF 020350Z 07008KT 8000 BKN009 19/18 Q1013",
      "taf": "TAF LIMF 012300Z 0200/0224 VRB05KT CAVOK"
    },
    {
      "icao": "LIMJ",
      "alert": "OK",
      "vis_m": 9999,
      "fzfg": false,
      "metar_trigger": false,
      "taf_trigger": false,
      "metar": "METAR LIMJ 020350Z 13012KT 9999 SCT015 BKN023 22/21 Q1012",
      "taf": "TAF LIMJ 012300Z 0200/0224 VRB05KT 9999 SCT020"
    },
    {
      "icao": "LIPE",
      "alert": "OK",
      "vis_m": 6000,
      "fzfg": false,
      "metar_trigger": false,
      "taf_trigger": false,
      "metar": "METAR LIPE 020350Z 09005KT 6000 NSC 18/18 Q1012",
      "taf": "TAF LIPE 012300Z 0200/0224 10005KT 9999 SCT020"
    },
    {
      "icao": "LIPH",
      "alert": "OK",
      "vis_m": 9999,
      "fzfg": false,
      "metar_trigger": false,
      "taf_trigger": false,
      "metar": "METAR LIPH 020350Z AUTO 05003KT 020V080 9999 BKN090/// 18/16 Q1014",
      "taf": "TAF LIPH 012300Z 0200/0224 05005KT 9999 FEW020"
    },
    {
      "icao": "LIPQ",
      "alert": "OK",
      "vis_m": 9999,
      "fzfg": false,
      "metar_trigger": false,
      "taf_trigger": false,
      "metar": "METAR LIPQ 020350Z AUTO 07003KT 9999 NCD 16/14 Q1014",
      "taf": "TAF LIPQ 012300Z 0200/0224 VRB05KT 9999 FEW060"
    },
    {
      "icao": "LIPR",
      "alert": "OK",
      "vis_m": 9999,
      "fzfg": false,
      "metar_trigger": false,
      "taf_trigger": false,
      "metar": "METAR LIPR 020350Z AUTO 22003KT 9999 NCD 17/16 Q1013",
      "taf": "TAF LIPR 012300Z 0200/0224 VRB05KT 9999 SCT050"
    },
    {
      "icao": "LIPX",
      "alert": "OK",
      "vis_m": 9999,
      "fzfg": false,
      "metar_trigger": false,
      "taf_trigger": false,
      "metar": "METAR LIPX 020350Z 09007KT 060V120 9999 SCT065 20/17 Q1013",
      "taf": "TAF LIPX 012300Z 0200/0224 10012KT 9999 SCT030"
    },
    {
      "icao": "LIPY",
      "alert": "OK",
      "vis_m": 9999,
      "fzfg": false,
      "metar_trigger": false,
      "taf_trigger": false,
      "metar": "METAR LIPY 020350Z AUTO VRB02KT 9999 NCD 16/16 Q1014",
      "taf": "TAF LIPY 012300Z 0200/0224 19006KT 9999 SCT050"
    },
    {
      "icao": "LIPZ",
      "alert": "OK",
      "vis_m": 9999,
      "fzfg": false,
      "metar_trigger": false,
      "taf_trigger": false,
      "metar": "METAR LIPZ 020350Z 02005KT CAVOK 18/16 Q1014 NOSIG",
      "taf": "TAF LIPZ 012300Z 0200/0306 05006KT 9999 SCT015"
    },
    {
      "icao": "LIRF",
      "alert": "OK",
      "vis_m": 9999,
      "fzfg": false,
      "metar_trigger": false,
      "taf_trigger": false,
      "metar": "METAR LIRF 020350Z 11006KT CAVOK 21/20 Q1013 NOSIG",
      "taf": "TAF LIRF 012300Z 0200/0306 13008KT CAVOK"
    },
    {
      "icao": "LIRN",
      "alert": "OK",
      "vis_m": 9999,
      "fzfg": false,
      "metar_trigger": false,
      "taf_trigger": false,
      "metar": "METAR LIRN 020350Z 07003KT 9999 FEW010 SCT030 20/18 Q1015 NOSIG",
      "taf": "TAF LIRN 012300Z 0200/0224 VRB05KT 9999 FEW040"
    },
    {
      "icao": "LIRP",
      "alert": "OK",
      "vis_m": 9999,
      "fzfg": false,
      "metar_trigger": false,
      "taf_trigger": false,
      "metar": "METAR LIRP 020345Z 09003KT 9999 FEW025 SCT040 18/17 Q1013 NOSIG",
      "taf": "TAF LIRP 012300Z 0200/0224 10004KT 9999 FEW030"
    },
    {
      "icao": "LIRZ",
      "alert": "OK",
      "vis_m": 9000,
      "fzfg": false,
      "metar_trigger": false,
      "taf_trigger": false,
      "metar": "METAR LIRZ 020350Z AUTO 36003KT 9000 NCD 16/16 Q1015",
      "taf": "TAF LIRZ 012300Z 0200/0224 VRB05KT 9999 FEW040"
    },
    {
      "icao": "LJLJ",
      "alert": "OK",
      "vis_m": 9999,
      "fzfg": false,
      "metar_trigger": false,
      "taf_trigger": false,
      "metar": "METAR LJLJ 020400Z 00000KT 9999 0600SE PRFG FEW001 SCT095 13/12 Q1016 NOSIG",
      "taf": "TAF LJLJ 012300Z 0200/0300 VRB02KT 9999 FEW020 SCT040"
    },
    {
      "icao": "LKMT",
      "alert": "OK",
      "vis_m": 800,
      "fzfg": false,
      "metar_trigger": false,
      "taf_trigger": false,
      "metar": "METAR LKMT 020400Z 24003KT 0800 R22/1600U R04/P2000N PRFG FEW003 10/10 Q1015 BECMG 2500 BR BCFG",
      "taf": "TAF LKMT 012300Z 0200/0224 20004KT CAVOK"
    },
    {
      "icao": "LKPR",
      "alert": "OK",
      "vis_m": 9999,
      "fzfg": false,
      "metar_trigger": false,
      "taf_trigger": false,
      "metar": "METAR LKPR 020400Z 18004KT CAVOK 12/11 Q1014 NOSIG",
      "taf": "TAF LKPR 020200Z 0203/0309 27005KT CAVOK"
    },
    {
      "icao": "LLBG",
      "alert": "OK",
      "vis_m": 9999,
      "fzfg": false,
      "metar_trigger": false,
      "taf_trigger": false,
      "metar": "METAR LLBG 020420Z VRB03KT CAVOK 21/15 Q1016 NOSIG",
      "taf": "TAF LLBG 012301Z 0200/0224 VRB04KT 9999 FEW024 TX29/0211Z TN18/0203Z"
    },
    {
      "icao": "LMML",
      "alert": "OK",
      "vis_m": 9999,
      "fzfg": false,
      "metar_trigger": false,
      "taf_trigger": false,
      "metar": "METAR LMML 020415Z 23005KT 9999 FEW010 20/19 Q1016 NOSIG",
      "taf": "TAF LMML 012300Z 0200/0224 26006KT 9999 FEW015"
    },
    {
      "icao": "LOWW",
      "alert": "OK",
      "vis_m": 9999,
      "fzfg": false,
      "metar_trigger": false,
      "taf_trigger": false,
      "metar": "METAR LOWW 020350Z 18003KT 160V220 CAVOK 12/10 Q1015 NOSIG",
      "taf": "TAF LOWW 020215Z 0203/0309 VRB03KT CAVOK TX25/0214Z TN13/0203Z"
    },
    {
      "icao": "LPFR",
      "alert": "OK",
      "vis_m": 9999,
      "fzfg": false,
      "metar_trigger": false,
      "taf_trigger": false,
      "metar": "METAR LPFR 020400Z 29007KT CAVOK 21/13 Q1017",
      "taf": "TAF LPFR 012300Z 0200/0224 34005KT CAVOK"
    },
    {
      "icao": "LPMA",
      "alert": "OK",
      "vis_m": 9999,
      "fzfg": false,
      "metar_trigger": false,
      "taf_trigger": false,
      "metar": "METAR LPMA 020400Z 02019KT 9999 FEW013 20/15 Q1023",
      "taf": "TAF LPMA 012300Z 0200/0224 01018KT 9999 SCT015"
    },
    {
      "icao": "LPPR",
      "alert": "OK",
      "vis_m": 9999,
      "fzfg": false,
      "metar_trigger": false,
      "taf_trigger": false,
      "metar": "METAR LPPR 020400Z 32007KT 9999 BKN003 17/16 Q1020",
      "taf": "TAF LPPR 012300Z 0200/0224 32005KT 8000 BKN008"
    },
    {
      "icao": "LPPS",
      "alert": "OK",
      "vis_m": 9999,
      "fzfg": false,
      "metar_trigger": false,
      "taf_trigger": false,
      "metar": "METAR LPPS 020400Z 02008KT 330V060 9999 SCT011 BKN025 18/16 Q1024",
      "taf": "TAF LPPS 012300Z 0200/0306 01015KT 9999 SCT012 BKN025"
    },
    {
      "icao": "LPPT",
      "alert": "OK",
      "vis_m": 9999,
      "fzfg": false,
      "metar_trigger": false,
      "taf_trigger": false,
      "metar": "METAR LPPT 020400Z 35010KT 9999 BKN012 18/15 Q1020",
      "taf": "TAF LPPT 012300Z 0200/0306 34010KT 9999 BKN008"
    },
    {
      "icao": "LQBK",
      "alert": "OK",
      "vis_m": 9999,
      "fzfg": false,
      "metar_trigger": false,
      "taf_trigger": false,
      "metar": "METAR LQBK 020400Z 15003KT CAVOK 11/10 Q1016 NOSIG",
      "taf": "TAF LQBK 012300Z 0200/0224 16005KT CAVOK TX25/0214Z TN11/0203Z"
    },
    {
      "icao": "LQSA",
      "alert": "OK",
      "vis_m": 9999,
      "fzfg": false,
      "metar_trigger": false,
      "taf_trigger": false,
      "metar": "METAR LQSA 020400Z VRB02KT 9999 FEW012 SCT040 14/13 Q1017 NOSIG",
      "taf": "TAF LQSA 012300Z 0200/0224 VRB02KT 9999 SCT055 TX26/0213Z TN14/0203Z"
    },
    {
      "icao": "LQTZ",
      "alert": "OK",
      "vis_m": 9999,
      "fzfg": false,
      "metar_trigger": false,
      "taf_trigger": false,
      "metar": "METAR LQTZ 020400Z VRB02KT CAVOK 11/11 Q1016",
      "taf": "TAF LQTZ 012300Z 0200/0224 27005KT 9999 FEW030 TX25/0214Z TN10/0203Z"
    },
    {
      "icao": "LRBC",
      "alert": "OK",
      "vis_m": 8000,
      "fzfg": false,
      "metar_trigger": false,
      "taf_trigger": false,
      "metar": "METAR LRBC 020400Z 13010KT 8000 RA SCT012 OVC055 15/15 Q1014",
      "taf": "TAF LRBC 020200Z 0203/0212 15010KT 5000 -RA BKN010 BKN040"
    },
    {
      "icao": "LRBS",
      "alert": "OK",
      "vis_m": 9999,
      "fzfg": false,
      "metar_trigger": false,
      "taf_trigger": false,
      "metar": "METAR LRBS 020400Z 17006KT 140V200 9999 SCT007 BKN023 17/16 Q1013 NOSIG",
      "taf": "TAF LRBS 012300Z 0200/0224 09006KT 9999 SCT045"
    },
    {
      "icao": "LRBV",
      "alert": "OK",
      "vis_m": 4000,
      "fzfg": false,
      "metar_trigger": false,
      "taf_trigger": false,
      "metar": "METAR LRBV 020400Z COR VRB02KT 4000 -RA BR FEW007 SCT023 BKN043 14/13 Q1013",
      "taf": "TAF LRBV 020200Z 0203/0212 VRB04KT 5000 -RA BKN010 BKN035"
    },
    {
      "icao": "LRCL",
      "alert": "OK",
      "vis_m": 9999,
      "fzfg": false,
      "metar_trigger": false,
      "taf_trigger": false,
      "metar": "METAR LRCL 020400Z 25003KT 9999 -RA FEW020 OVC061 15/15 Q1012",
      "taf": "TAF LRCL 020200Z 0203/0212 VRB04KT 9999 BKN030"
    },
    {
      "icao": "LRCV",
      "alert": "OK",
      "vis_m": 9999,
      "fzfg": false,
      "metar_trigger": false,
      "taf_trigger": false,
      "metar": "METAR LRCV 020400Z 28009KT 9999 FEW010 16/16 Q1013",
      "taf": "TAF LRCV 020200Z 0203/0212 25010KT 9999 SCT030"
    },
    {
      "icao": "LRIA",
      "alert": "OK",
      "vis_m": 8000,
      "fzfg": false,
      "metar_trigger": false,
      "taf_trigger": false,
      "metar": "METAR LRIA 020400Z 10015KT 8000 RA SCT002 SCT010 13/12 Q1015",
      "taf": "TAF LRIA 020200Z 0203/0212 12012KT 5000 -RA SCT015 BKN035"
    },
    {
      "icao": "LROP",
      "alert": "OK",
      "vis_m": 9999,
      "fzfg": false,
      "metar_trigger": false,
      "taf_trigger": false,
      "metar": "METAR LROP 020400Z 18006KT 150V210 9999 FEW007 BKN021 17/16 Q1013 NOSIG",
      "taf": "TAF LROP 012300Z 0200/0224 09006KT 9999 SCT045"
    },
    {
      "icao": "LRSB",
      "alert": "OK",
      "vis_m": 8000,
      "fzfg": false,
      "metar_trigger": false,
      "taf_trigger": false,
      "metar": "METAR LRSB 020400Z 19002KT 8000 -RA FEW010 BKN050 15/15 Q1013",
      "taf": "TAF LRSB 012300Z 0200/0224 VRB04KT 9999 SCT020 BKN045"
    },
    {
      "icao": "LRSM",
      "alert": "OK",
      "vis_m": 9000,
      "fzfg": false,
      "metar_trigger": false,
      "taf_trigger": false,
      "metar": "METAR LRSM 020400Z AUTO 24006KT 9000 RA FEW002/// BKN026/// BKN039/// 16/15 Q1011",
      "taf": "TAF LRSM 020200Z 0203/0212 VRB04KT 9999 BKN015 BKN040"
    },
    {
      "icao": "LRSV",
      "alert": "OK",
      "vis_m": 5000,
      "fzfg": false,
      "metar_trigger": false,
      "taf_trigger": false,
      "metar": "METAR LRSV 020400Z 12011KT 5000 -RA BR BKN003 13/13 Q1013",
      "taf": "TAF LRSV 020200Z 0203/0212 14012KT 5000 -RA BKN010 BKN030"
    },
    {
      "icao": "LRTM",
      "alert": "OK",
      "vis_m": 7000,
      "fzfg": false,
      "metar_trigger": false,
      "taf_trigger": false,
      "metar": "METAR LRTM 020400Z 05002KT 7000 -RA FEW005 SCT008 OVC016 16/15 Q1012",
      "taf": "TAF LRTM 020200Z 0203/0212 VRB04KT 9999 BKN030"
    },
    {
      "icao": "LRTR",
      "alert": "OK",
      "vis_m": 9999,
      "fzfg": false,
      "metar_trigger": false,
      "taf_trigger": false,
      "metar": "METAR LRTR 020400Z 23004KT 9999 FEW005 BKN020 15/14 Q1013",
      "taf": "TAF LRTR 012300Z 0200/0224 26008KT 9999 BKN040"
    },
    {
      "icao": "LTAC",
      "alert": "OK",
      "vis_m": 9999,
      "fzfg": false,
      "metar_trigger": false,
      "taf_trigger": false,
      "metar": "METAR LTAC 020350Z VRB01KT CAVOK 11/08 Q1020 NOSIG RMK RWY21C VRB02KT RWY03L 00000KT RWY21R 00000KT RWY03R 00000KT RWY21L VRB01KT",
      "taf": "TAF LTAC 012240Z 0200/0224 VRB02KT CAVOK"
    },
    {
      "icao": "LTFM",
      "alert": "OK",
      "vis_m": 9999,
      "fzfg": false,
      "metar_trigger": false,
      "taf_trigger": false,
      "metar": "METAR LTFM 020350Z 31003KT 250V360 9999 FEW038 BKN090 18/15 Q1015 NOSIG RMK RWY17L 33003KT 280V030 RWY34L 34003KT 300V360 RWY16R 31004KT RWY36 VRB02KT RWY18 VRB02KT",
      "taf": "TAF LTFM 012240Z 0200/0306 VRB02KT CAVOK"
    },
    {
      "icao": "LUKK",
      "alert": "OK",
      "vis_m": 9999,
      "fzfg": false,
      "metar_trigger": false,
      "taf_trigger": false,
      "metar": "METAR LUKK 020400Z 13006KT 9999 -RA NSC 13/12 Q1017 NOSIG",
      "taf": "TAF LUKK 012309Z 0200/0224 VRB06KT CAVOK"
    },
    {
      "icao": "LWOH",
      "alert": "OK",
      "vis_m": null,
      "fzfg": false,
      "metar_trigger": false,
      "taf_trigger": false,
      "metar": "",
      "taf": "TAF LWOH 020230Z 0203/0303 VRB02KT 9999 FEW040"
    },
    {
      "icao": "LWSK",
      "alert": "OK",
      "vis_m": 9999,
      "fzfg": false,
      "metar_trigger": false,
      "taf_trigger": false,
      "metar": "METAR LWSK 020420Z 03004KT 360V140 9999 SCT050 BKN090 16/13 Q1016 NOSIG",
      "taf": "TAF LWSK 020230Z 0203/0303 VRB02KT 9999 FEW050"
    },
    {
      "icao": "LYBE",
      "alert": "OK",
      "vis_m": 9999,
      "fzfg": false,
      "metar_trigger": false,
      "taf_trigger": false,
      "metar": "METAR LYBE 020400Z 24008KT 200V260 CAVOK 15/13 Q1015 NOSIG",
      "taf": "TAF LYBE 012300Z 0200/0224 25007KT CAVOK TX26/0213Z TN14/0204Z"
    },
    {
      "icao": "LYNI",
      "alert": "OK",
      "vis_m": 8000,
      "fzfg": false,
      "metar_trigger": false,
      "taf_trigger": false,
      "metar": "METAR LYNI 020400Z VRB02KT 8000 RA SCT005 BKN020 BKN030 16/16 Q1016 BECMG NSW BKN020",
      "taf": "TAF LYNI 012300Z 0200/0224 32005KT 8000 SCT045 TX25/0213Z TN12/0224Z"
    },
    {
      "icao": "LYPG",
      "alert": "OK",
      "vis_m": 9999,
      "fzfg": false,
      "metar_trigger": false,
      "taf_trigger": false,
      "metar": "METAR LYPG 020400Z 33006KT 9999 FEW040 SCT050 18/15 Q1014 NOSIG",
      "taf": "TAF LYPG 012300Z 0200/0224 36005KT 9999 SCT040 BKN080 TX27/0214Z TN19/0203Z"
    },
    {
      "icao": "LZIB",
      "alert": "OK",
      "vis_m": 9999,
      "fzfg": false,
      "metar_trigger": false,
      "taf_trigger": false,
      "metar": "METAR LZIB 020400Z 14003KT CAVOK 14/12 Q1014 NOSIG",
      "taf": "TAF LZIB 012315Z 0200/0300 31005KT CAVOK"
    },
    {
      "icao": "LZKZ",
      "alert": "OK",
      "vis_m": 9999,
      "fzfg": false,
      "metar_trigger": false,
      "taf_trigger": false,
      "metar": "METAR LZKZ 020400Z 04004KT 9999 FEW018 13/12 Q1013 NOSIG",
      "taf": "TAF LZKZ 012315Z 0200/0300 02008KT CAVOK"
    },
    {
      "icao": "LZTT",
      "alert": "OK",
      "vis_m": 9999,
      "fzfg": false,
      "metar_trigger": false,
      "taf_trigger": false,
      "metar": "METAR LZTT 020400Z VRB02KT 9999 FEW004 08/08 Q1014",
      "taf": "TAF LZTT 012315Z 0200/0300 05004KT 3000 BR FEW005"
    },
    {
      "icao": "OEJN",
      "alert": "OK",
      "vis_m": 9999,
      "fzfg": false,
      "metar_trigger": false,
      "taf_trigger": false,
      "metar": "METAR OEJN 020400Z 35007KT 9999 FEW040 28/21 Q1009 NOSIG",
      "taf": "TAF OEJN 012300Z 0200/0306 VRB03KT CAVOK"
    },
    {
      "icao": "OEMA",
      "alert": "OK",
      "vis_m": 9999,
      "fzfg": false,
      "metar_trigger": false,
      "taf_trigger": false,
      "metar": "METAR OEMA 020400Z 11002KT CAVOK 30/03 Q1016 NOSIG",
      "taf": "TAF OEMA 012300Z 0200/0306 VRB03KT CAVOK"
    },
    {
      "icao": "OJAI",
      "alert": "OK",
      "vis_m": 5000,
      "fzfg": false,
      "metar_trigger": false,
      "taf_trigger": false,
      "metar": "METAR OJAI 020400Z 00000KT 5000 HZ NSC 16/02 Q1019 NOSIG",
      "taf": "TAF OJAI 012300Z 0200/0306 29010KT 5000 HZ NSC"
    },
    {
      "icao": "OMAA",
      "alert": "OK",
      "vis_m": 9999,
      "fzfg": false,
      "metar_trigger": false,
      "taf_trigger": false,
      "metar": "METAR OMAA 020400Z 21007KT CAVOK 31/18 Q1006 NOSIG",
      "taf": "TAF OMAA 012300Z 0200/0306 23007KT 8000 NSC"
    },
    {
      "icao": "OMDB",
      "alert": "OK",
      "vis_m": 9999,
      "fzfg": false,
      "metar_trigger": false,
      "taf_trigger": false,
      "metar": "METAR OMDB 020400Z 19011KT CAVOK 31/19 Q1005 NOSIG",
      "taf": "TAF OMDB 012300Z 0200/0306 19009KT CAVOK"
    },
    {
      "icao": "UAAA",
      "alert": "OK",
      "vis_m": 9999,
      "fzfg": false,
      "metar_trigger": false,
      "taf_trigger": false,
      "metar": "METAR UAAA 020400Z 12004MPS 9999 SCT050CB BKN100 28/15 Q1014 NOSIG",
      "taf": "TAF UAAA 012304Z 0200/0224 22003G08MPS 9999 BKN050CB OVC100 TX30/0210Z TN22/0201Z"
    },
    {
      "icao": "UBBB",
      "alert": "OK",
      "vis_m": 9999,
      "fzfg": false,
      "metar_trigger": false,
      "taf_trigger": false,
      "metar": "METAR UBBB 020400Z 33020KT CAVOK 19/14 Q1013 NOSIG",
      "taf": "TAF UBBB 012259Z 0200/0224 32018G28KT 9999 SCT015 TX20/0210Z TN15/0201Z"
    },
    {
      "icao": "UDSG",
      "alert": "OK",
      "vis_m": 9999,
      "fzfg": false,
      "metar_trigger": false,
      "taf_trigger": false,
      "metar": "METAR UDSG 020400Z 18004KT 9999 FEW049 12/08 Q1020 NOSIG",
      "taf": "TAF UDSG 012300Z 0200/0224 24006KT 9999 SCT040"
    },
    {
      "icao": "UDYZ",
      "alert": "OK",
      "vis_m": 9999,
      "fzfg": false,
      "metar_trigger": false,
      "taf_trigger": false,
      "metar": "METAR UDYZ 020400Z VRB01KT 9999 SCT043CB 17/08 Q1017 NOSIG",
      "taf": "TAF UDYZ 012300Z 0200/0224 16006KT 9999 FEW040"
    },
    {
      "icao": "UGKO",
      "alert": "OK",
      "vis_m": 6000,
      "fzfg": false,
      "metar_trigger": false,
      "taf_trigger": false,
      "metar": "METAR UGKO 020400Z 28008KT 6000 VCTSRA SCT006 BKN022CB OVC032 14/13 Q1017 TEMPO TS",
      "taf": "TAF UGKO 012300Z 0200/0224 26007KT 9999 SCT025 BKN040 TX22/0212Z TN13/0202Z"
    }
  ]
}