{
  "ts_utc": "2026-02-15T05:45:32Z",
  "threshold_m": 150,
  "source": "stations_override.txt (ICAO list) + aviationweather.gov (METAR/TAF raw)",
  "station_count": 159,
  "stations": [
    {
      "icao": "BIKF",
      "alert": "OK",
      "vis_m": 9999,
      "fzfg": false,
      "metar_trigger": false,
      "taf_trigger": false,
      "metar": "METAR BIKF 150530Z 08019KT CAVOK M03/M15 Q0996",
      "taf": "TAF BIKF 150438Z 1506/1606 07017KT CAVOK TXM02/1515Z TNM06/1522Z"
    },
    {
      "icao": "BKPR",
      "alert": "OK",
      "vis_m": 9999,
      "fzfg": false,
      "metar_trigger": false,
      "taf_trigger": false,
      "metar": "METAR BKPR 150530Z VRB02KT 9999 -RA SCT025 BKN050 06/06 Q0998 NOSIG",
      "taf": "TAF BKPR 150530Z 1506/1606 15006KT 9999 BKN030"
    },
    {
      "icao": "EBCI",
      "alert": "OK",
      "vis_m": 9999,
      "fzfg": false,
      "metar_trigger": false,
      "taf_trigger": false,
      "metar": "METAR EBCI 150520Z 18005KT CAVOK M03/M05 Q1017 NOSIG",
      "taf": "TAF EBCI 150515Z 1506/1612 14005KT CAVOK"
    },
    {
      "icao": "EDDB",
      "alert": "OK",
      "vis_m": 9999,
      "fzfg": false,
      "metar_trigger": false,
      "taf_trigger": false,
      "metar": "METAR EDDB 150520Z AUTO 36006KT 330V040 9999 OVC035 M02/M08 Q1019 NOSIG",
      "taf": "TAF EDDB 150500Z 1506/1606 35004KT 9999 BKN035"
    },
    {
      "icao": "EDDH",
      "alert": "OK",
      "vis_m": 9999,
      "fzfg": false,
      "metar_trigger": false,
      "taf_trigger": false,
      "metar": "METAR EDDH 150520Z AUTO 10003KT 060V140 9999 3700 BR NCD M09/M10 Q1020 TEMPO 2500 BCFG",
      "taf": "TAF EDDH 150500Z 1506/1612 VRB02KT 9999 SCT015"
    },
    {
      "icao": "EDDK",
      "alert": "OK",
      "vis_m": 5000,
      "fzfg": false,
      "metar_trigger": false,
      "taf_trigger": false,
      "metar": "METAR EDDK 150520Z AUTO 06002KT 5000 BR NCD M04/M05 Q1019 NOSIG",
      "taf": "TAF EDDK 150500Z 1506/1612 VRB03KT 9999 FEW030"
    },
    {
      "icao": "EDDN",
      "alert": "OK",
      "vis_m": 9999,
      "fzfg": false,
      "metar_trigger": false,
      "taf_trigger": false,
      "metar": "METAR EDDN 150520Z AUTO 34003KT 9999 FEW024 OVC032 M01/M05 Q1017 NOSIG",
      "taf": "TAF EDDN 150500Z 1506/1606 02003KT 9999 BKN020"
    },
    {
      "icao": "EDDS",
      "alert": "OK",
      "vis_m": 9999,
      "fzfg": false,
      "metar_trigger": false,
      "taf_trigger": false,
      "metar": "METAR EDDS 150520Z AUTO VRB02KT 9999 FEW016 OVC029 M00/M02 Q1016 NOSIG",
      "taf": "TAF EDDS 150500Z 1506/1606 36004KT 9999 BKN025"
    },
    {
      "icao": "EDFH",
      "alert": "OK",
      "vis_m": 9999,
      "fzfg": false,
      "metar_trigger": false,
      "taf_trigger": false,
      "metar": "METAR EDFH 150520Z VRB01KT 9999 OVC025 M03/M04 Q1016",
      "taf": "TAF EDFH 150500Z 1506/1606 VRB03KT 9999 BKN025"
    },
    {
      "icao": "EDJA",
      "alert": "OK",
      "vis_m": 9999,
      "fzfg": false,
      "metar_trigger": false,
      "taf_trigger": false,
      "metar": "METAR EDJA 150520Z 02007KT 9999 SCT007 BKN011 OVC014 M02/M03 Q1015",
      "taf": "TAF EDJA 150500Z 1506/1515 01005KT 9999 SCT008 OVC013"
    },
    {
      "icao": "EDLW",
      "alert": "OK",
      "vis_m": 9999,
      "fzfg": false,
      "metar_trigger": false,
      "taf_trigger": false,
      "metar": "METAR EDLW 150520Z 12006KT CAVOK M05/M06 Q1018",
      "taf": "TAF EDLW 150500Z 1506/1606 14004KT CAVOK"
    },
    {
      "icao": "EDNY",
      "alert": "OK",
      "vis_m": 7000,
      "fzfg": false,
      "metar_trigger": false,
      "taf_trigger": false,
      "metar": "METAR EDNY 150520Z AUTO VRB02KT 7000 // OVC018/// 00/M00 Q1016",
      "taf": "TAF EDNY 150500Z 1506/1515 02004KT 6000 SCT013 OVC015"
    },
    {
      "icao": "EDSB",
      "alert": "OK",
      "vis_m": 9999,
      "fzfg": false,
      "metar_trigger": false,
      "taf_trigger": false,
      "metar": "METAR EDSB 150520Z 01004KT 9999 FEW021 OVC042 01/M02 Q1018",
      "taf": "TAF EDSB 150500Z 1506/1606 02004KT 9999 BKN020"
    },
    {
      "icao": "EETN",
      "alert": "OK",
      "vis_m": 9999,
      "fzfg": false,
      "metar_trigger": false,
      "taf_trigger": false,
      "metar": "METAR EETN 150520Z 21003KT 170V270 9999 SCT018 BKN025 M16/M17 Q1016 NOSIG",
      "taf": "TAF EETN 150530Z 1506/1606 20008KT 9999 SCT020"
    },
    {
      "icao": "EFTU",
      "alert": "OK",
      "vis_m": 9999,
      "fzfg": false,
      "metar_trigger": false,
      "taf_trigger": false,
      "metar": "METAR EFTU 150520Z AUTO 22005KT 9999 OVC007 M10/M11 Q1014",
      "taf": "TAF EFTU 150527Z 1506/1606 22005KT 9999 BKN007"
    },
    {
      "icao": "EGBB",
      "alert": "OK",
      "vis_m": 9999,
      "fzfg": false,
      "metar_trigger": false,
      "taf_trigger": false,
      "metar": "METAR EGBB 150520Z 17012KT 9999 -RA OVC011 03/01 Q1005",
      "taf": "TAF EGBB 150458Z 1506/1606 17011KT 9999 BKN014"
    },
    {
      "icao": "EGGP",
      "alert": "OK",
      "vis_m": 9999,
      "fzfg": false,
      "metar_trigger": false,
      "taf_trigger": false,
      "metar": "METAR EGGP 150520Z 16011KT 130V190 9999 SCT016 BKN020 OVC024 03/01 Q1003",
      "taf": "TAF EGGP 150455Z 1506/1606 17011KT 9999 SCT025"
    },
    {
      "icao": "EGGW",
      "alert": "OK",
      "vis_m": 9999,
      "fzfg": false,
      "metar_trigger": false,
      "taf_trigger": false,
      "metar": "METAR EGGW 150520Z AUTO 17012KT 9999 -RA BKN014 02/00 Q1009",
      "taf": "TAF EGGW 150507Z 1506/1606 18017G27KT 9999 SCT025"
    },
    {
      "icao": "EGKK",
      "alert": "OK",
      "vis_m": 9000,
      "fzfg": false,
      "metar_trigger": false,
      "taf_trigger": false,
      "metar": "METAR EGKK 150520Z 18012KT 150V210 9000 -RA SCT012 SCT016 03/02 Q1011",
      "taf": "TAF EGKK 150458Z 1506/1612 17012KT 9999 SCT012 BKN018"
    },
    {
      "icao": "EGNM",
      "alert": "OK",
      "vis_m": 8000,
      "fzfg": false,
      "metar_trigger": false,
      "taf_trigger": false,
      "metar": "METAR EGNM 150520Z 17012KT 8000 -SN SCT007 BKN013 00/M00 Q1003",
      "taf": "TAF EGNM 150525Z 1506/1606 17009KT 9999 FEW030"
    },
    {
      "icao": "EGPD",
      "alert": "OK",
      "vis_m": 9999,
      "fzfg": false,
      "metar_trigger": false,
      "taf_trigger": false,
      "metar": "METAR EGPD 150520Z AUTO 18022G33KT 9999 BKN011 OVC021 02/00 Q0997 TEMPO SCT011",
      "taf": "TAF EGPD 150454Z 1506/1606 18018G30KT 9999 SCT020"
    },
    {
      "icao": "EGPF",
      "alert": "OK",
      "vis_m": 9000,
      "fzfg": false,
      "metar_trigger": false,
      "taf_trigger": false,
      "metar": "METAR EGPF 150520Z AUTO 17008KT 9000 -RA BKN012/// OVC045/// //////CB 04/02 Q0996 RERA REDZ",
      "taf": "TAF EGPF 150458Z 1506/1606 20006KT 9999 FEW015 SCT030"
    },
    {
      "icao": "EHBK",
      "alert": "OK",
      "vis_m": 9999,
      "fzfg": false,
      "metar_trigger": false,
      "taf_trigger": false,
      "metar": "METAR EHBK 150525Z AUTO 15006KT 9999 NSC M04/M05 Q1018 NOSIG",
      "taf": "TAF EHBK 150504Z 1506/1612 15005KT CAVOK"
    },
    {
      "icao": "EHEH",
      "alert": "OK",
      "vis_m": 9999,
      "fzfg": false,
      "metar_trigger": false,
      "taf_trigger": false,
      "metar": "METAR EHEH 150525Z AUTO 15006KT 120V180 9999 OVC130 M04/M06 Q1018 BLU",
      "taf": "TAF EHEH 142333Z 1500/1606 VRB03KT CAVOK"
    },
    {
      "icao": "EKBI",
      "alert": "OK",
      "vis_m": 9999,
      "fzfg": false,
      "metar_trigger": false,
      "taf_trigger": false,
      "metar": "METAR EKBI 150520Z AUTO 15005KT 120V190 9999 BKN045/// M04/M06 Q1017",
      "taf": "TAF EKBI 150527Z 1506/1606 15005KT 9999 BKN030"
    },
    {
      "icao": "EKCH",
      "alert": "OK",
      "vis_m": 9999,
      "fzfg": false,
      "metar_trigger": false,
      "taf_trigger": false,
      "metar": "METAR EKCH 150520Z AUTO 15002KT 9999 NCD M08/M11 Q1020 NOSIG",
      "taf": "TAF EKCH 150527Z 1506/1606 VRB03KT CAVOK"
    },
    {
      "icao": "ENAL",
      "alert": "OK",
      "vis_m": 9999,
      "fzfg": false,
      "metar_trigger": false,
      "taf_trigger": false,
      "metar": "METAR ENAL 150520Z AUTO 18012KT 9999 NCD 01/M07 Q1004",
      "taf": "TAF ENAL 150500Z 1506/1515 17012KT CAVOK"
    },
    {
      "icao": "ENBR",
      "alert": "OK",
      "vis_m": 9999,
      "fzfg": false,
      "metar_trigger": false,
      "taf_trigger": false,
      "metar": "METAR ENBR 150520Z 15011KT 9999 BKN027 M00/M04 Q1008 RMK WIND 1200FT 14028KT",
      "taf": "TAF ENBR 150500Z 1506/1606 14008KT 9999 SCT015"
    },
    {
      "icao": "ENGM",
      "alert": "OK",
      "vis_m": 9999,
      "fzfg": false,
      "metar_trigger": false,
      "taf_trigger": false,
      "metar": "METAR ENGM 150520Z COR 02003KT 9999 FEW007 BKN023 M18/M20 Q1015 NOSIG",
      "taf": "TAF ENGM 150500Z 1506/1606 02003KT 9999 FEW002 BKN020"
    },
    {
      "icao": "ENHD",
      "alert": "OK",
      "vis_m": 9999,
      "fzfg": false,
      "metar_trigger": false,
      "taf_trigger": false,
      "metar": "METAR ENHD 150520Z AUTO 13016KT 9999 BKN028/// M00/M03 Q1008",
      "taf": "TAF ENHD 150500Z 1506/1515 14012KT 9999 BKN030"
    },
    {
      "icao": "ENTC",
      "alert": "OK",
      "vis_m": 9999,
      "fzfg": false,
      "metar_trigger": false,
      "taf_trigger": false,
      "metar": "METAR ENTC 150520Z 21019KT 9999 -SN FEW014 SCT041 BKN052 M02/M06 Q1000 REFZRA RESG RMK WIND 2600FT 24021KT",
      "taf": "TAF ENTC 150500Z 1506/1606 21020KT 9999 FEW012 BKN030"
    },
    {
      "icao": "ENTO",
      "alert": "OK",
      "vis_m": 9999,
      "fzfg": false,
      "metar_trigger": false,
      "taf_trigger": false,
      "metar": "METAR ENTO 150520Z AUTO 32004KT 9999 BKN009/// BKN012/// M09/M11 Q1016",
      "taf": "TAF ENTO 150500Z 1506/1606 VRB03KT 9999 -SN BKN012"
    },
    {
      "icao": "ENVA",
      "alert": "OK",
      "vis_m": 9999,
      "fzfg": false,
      "metar_trigger": false,
      "taf_trigger": false,
      "metar": "METAR ENVA 150520Z 08005KT CAVOK M12/M13 Q1008 RMK WIND 670FT 14009KT",
      "taf": "TAF ENVA 150500Z 1506/1606 10008KT 9999 FEW015 SCT025"
    },
    {
      "icao": "ENZV",
      "alert": "OK",
      "vis_m": 9999,
      "fzfg": false,
      "metar_trigger": false,
      "taf_trigger": false,
      "metar": "METAR ENZV 150520Z 12011KT 9999 FEW020 M01/M05 Q1009",
      "taf": "TAF ENZV 150500Z 1506/1606 17012KT 9999 BKN035"
    },
    {
      "icao": "EPGD",
      "alert": "OK",
      "vis_m": 9999,
      "fzfg": false,
      "metar_trigger": false,
      "taf_trigger": false,
      "metar": "METAR EPGD 150530Z 03004KT 350V060 9999 BKN016 M06/M08 Q1017",
      "taf": "TAF EPGD 150530Z 1506/1606 04005KT CAVOK"
    },
    {
      "icao": "EPKK",
      "alert": "OK",
      "vis_m": 2300,
      "fzfg": false,
      "metar_trigger": false,
      "taf_trigger": false,
      "metar": "METAR EPKK 150530Z 32003KT 2300 SN BR FEW006 BKN012 OVC017 M03/M04 Q1012",
      "taf": "TAF EPKK 150530Z 1506/1606 34004KT 2000 SN BR BKN012"
    },
    {
      "icao": "EPKT",
      "alert": "OK",
      "vis_m": 2000,
      "fzfg": false,
      "metar_trigger": false,
      "taf_trigger": false,
      "metar": "METAR EPKT 150530Z 34005KT 2000 SN BR SCT006 BKN009 OVC020 M04/M05 Q1013",
      "taf": "TAF EPKT 150530Z 1506/1606 34006KT 3000 -SN BR BKN020"
    },
    {
      "icao": "EPLB",
      "alert": "OK",
      "vis_m": 2400,
      "fzfg": false,
      "metar_trigger": false,
      "taf_trigger": false,
      "metar": "METAR EPLB 150530Z 35007KT 2400 -SN BR BKN009 OVC013 M06/M07 Q1012",
      "taf": "TAF EPLB 150530Z 1506/1606 36010KT 5000 -SN BR SCT008 BKN010"
    },
    {
      "icao": "EPMO",
      "alert": "OK",
      "vis_m": 9999,
      "fzfg": false,
      "metar_trigger": false,
      "taf_trigger": false,
      "metar": "METAR EPMO 150530Z 01008KT 9999 OVC009 M07/M08 Q1015",
      "taf": "TAF EPMO 150530Z 1506/1606 36008KT 9999 BKN012"
    },
    {
      "icao": "EPPO",
      "alert": "OK",
      "vis_m": 9999,
      "fzfg": false,
      "metar_trigger": false,
      "taf_trigger": false,
      "metar": "METAR EPPO 150530Z 02009KT 9999 -SN OVC033 M04/M10 Q1017",
      "taf": "TAF EPPO 150530Z 1506/1606 35010KT 9999 BKN020"
    },
    {
      "icao": "EPRA",
      "alert": "OK",
      "vis_m": 5000,
      "fzfg": false,
      "metar_trigger": false,
      "taf_trigger": false,
      "metar": "METAR EPRA 150530Z 35008KT 5000 -SN OVC006 M05/M07 Q1013",
      "taf": "TAF EPRA 150530Z 1506/1515 35008KT 6000 -SN OVC006"
    },
    {
      "icao": "EPRZ",
      "alert": "OK",
      "vis_m": 1500,
      "fzfg": false,
      "metar_trigger": false,
      "taf_trigger": false,
      "metar": "METAR EPRZ 150530Z 33008KT 1500 SN BR BKN002 M03/M03 Q1011",
      "taf": "TAF EPRZ 150530Z 1506/1606 34008KT 1200 SN BR BKN002 OVC012"
    },
    {
      "icao": "EPSC",
      "alert": "OK",
      "vis_m": 9999,
      "fzfg": false,
      "metar_trigger": false,
      "taf_trigger": false,
      "metar": "METAR EPSC 150530Z 31005KT 9999 FEW026 OVC041 M03/M05 Q1019",
      "taf": "TAF EPSC 150530Z 1506/1606 35005KT 9999 BKN035"
    },
    {
      "icao": "EPSY",
      "alert": "OK",
      "vis_m": 9999,
      "fzfg": false,
      "metar_trigger": false,
      "taf_trigger": false,
      "metar": "METAR EPSY 150530Z 36005KT CAVOK M09/M11 Q1015",
      "taf": "TAF EPSY 150530Z 1506/1515 01008KT CAVOK"
    },
    {
      "icao": "EPWA",
      "alert": "OK",
      "vis_m": 9999,
      "fzfg": false,
      "metar_trigger": false,
      "taf_trigger": false,
      "metar": "METAR EPWA 150530Z 01006KT 320V050 9999 BKN013 M06/M08 Q1014 NOSIG",
      "taf": "TAF EPWA 150530Z 1506/1606 36007KT 9999 BKN013"
    },
    {
      "icao": "EPWR",
      "alert": "OK",
      "vis_m": 9999,
      "fzfg": false,
      "metar_trigger": false,
      "taf_trigger": false,
      "metar": "METAR EPWR 150530Z 33010KT 9999 -SN SCT011 BKN020 M02/M04 Q1016",
      "taf": "TAF EPWR 150530Z 1506/1606 34012KT 9999 BKN020"
    },
    {
      "icao": "ESGG",
      "alert": "OK",
      "vis_m": 9999,
      "fzfg": false,
      "metar_trigger": false,
      "taf_trigger": false,
      "metar": "METAR ESGG 150520Z 14008KT CAVOK M12/M14 Q1017",
      "taf": "TAF ESGG 150530Z 1506/1606 16008KT CAVOK"
    },
    {
      "icao": "ESKN",
      "alert": "OK",
      "vis_m": 9999,
      "fzfg": false,
      "metar_trigger": false,
      "taf_trigger": false,
      "metar": "METAR ESKN 150520Z 25002KT CAVOK M16/M17 Q1018",
      "taf": "TAF ESKN 150530Z 1506/1606 26003KT CAVOK"
    },
    {
      "icao": "ESMS",
      "alert": "OK",
      "vis_m": 9999,
      "fzfg": false,
      "metar_trigger": false,
      "taf_trigger": false,
      "metar": "METAR ESMS 150520Z 09003KT CAVOK M14/M15 Q1019",
      "taf": "TAF ESMS 150527Z 1506/1606 VRB03KT CAVOK"
    },
    {
      "icao": "ESSA",
      "alert": "OK",
      "vis_m": 9999,
      "fzfg": false,
      "metar_trigger": false,
      "taf_trigger": false,
      "metar": "METAR ESSA 150520Z 25009KT CAVOK M13/M15 Q1016 NOSIG",
      "taf": "TAF ESSA 150530Z 1506/1606 25008KT CAVOK"
    },
    {
      "icao": "EYKA",
      "alert": "OK",
      "vis_m": 9999,
      "fzfg": false,
      "metar_trigger": false,
      "taf_trigger": false,
      "metar": "METAR EYKA 150520Z 34003KT CAVOK M15/M18 Q1017",
      "taf": "TAF EYKA 150500Z 1506/1606 VRB04KT 9000 NSC"
    },
    {
      "icao": "EYPA",
      "alert": "OK",
      "vis_m": 9999,
      "fzfg": false,
      "metar_trigger": false,
      "taf_trigger": false,
      "metar": "METAR EYPA 150520Z VRB02KT CAVOK M18/M21 Q1019",
      "taf": "TAF EYPA 150500Z 1506/1606 VRB03KT 9000 NSC"
    },
    {
      "icao": "EYVI",
      "alert": "OK",
      "vis_m": 9999,
      "fzfg": false,
      "metar_trigger": false,
      "taf_trigger": false,
      "metar": "METAR EYVI 150520Z COR 02008KT CAVOK M14/M17 Q1014 NOSIG",
      "taf": "TAF EYVI 150500Z 1506/1606 VRB05KT 9000 NSC"
    },
    {
      "icao": "GCFV",
      "alert": "OK",
      "vis_m": 8000,
      "fzfg": false,
      "metar_trigger": false,
      "taf_trigger": false,
      "metar": "METAR GCFV 150530Z AUTO 02025KT 8000 OVC031 17/09 Q1024",
      "taf": "TAF GCFV 150200Z 1503/1603 03025KT 9999 FEW040 TX20/1514Z TN16/1506Z"
    },
    {
      "icao": "GCLP",
      "alert": "OK",
      "vis_m": 9999,
      "fzfg": false,
      "metar_trigger": false,
      "taf_trigger": false,
      "metar": "METAR GCLP 150530Z 01017KT 9999 FEW030 16/09 Q1025 NOSIG",
      "taf": "TAF GCLP 150200Z 1503/1603 02026KT 9999 FEW035 TX20/1514Z TN16/1506Z"
    },
    {
      "icao": "GCTS",
      "alert": "OK",
      "vis_m": 9999,
      "fzfg": false,
      "metar_trigger": false,
      "taf_trigger": false,
      "metar": "METAR GCTS 150530Z 06026G40KT 9999 FEW030 18/M04 Q1023 NOSIG",
      "taf": "TAF GCTS 150200Z 1503/1603 06020KT 9999 FEW035 TX24/1514Z TN17/1506Z"
    },
    {
      "icao": "GMAD",
      "alert": "OK",
      "vis_m": 9999,
      "fzfg": false,
      "metar_trigger": false,
      "taf_trigger": false,
      "metar": "METAR GMAD 150530Z 00000KT CAVOK 07/06 Q1020 NOSIG",
      "taf": "TAF GMAD 150500Z 1506/1612 07004KT CAVOK"
    },
    {
      "icao": "GMMN",
      "alert": "OK",
      "vis_m": 9999,
      "fzfg": false,
      "metar_trigger": false,
      "taf_trigger": false,
      "metar": "METAR GMMN 150530Z 14004KT 9999 BKN026 06/05 Q1030 NOSIG",
      "taf": "TAF GMMN 150500Z 1506/1612 14004KT 9999 BKN024"
    },
    {
      "icao": "GMMX",
      "alert": "OK",
      "vis_m": 9999,
      "fzfg": false,
      "metar_trigger": false,
      "taf_trigger": false,
      "metar": "METAR GMMX 150530Z 11007KT CAVOK 05/03 Q1028 NOSIG",
      "taf": "TAF GMMX 150500Z 1506/1612 06006KT CAVOK"
    },
    {
      "icao": "HEGN",
      "alert": "OK",
      "vis_m": 9999,
      "fzfg": false,
      "metar_trigger": false,
      "taf_trigger": false,
      "metar": "METAR HEGN 150500Z 30010KT CAVOK 15/M02 Q1019 NOSIG",
      "taf": "TAF HEGN 150500Z 1506/1612 29012KT 6000 NSC"
    },
    {
      "icao": "HEMA",
      "alert": "OK",
      "vis_m": 9999,
      "fzfg": false,
      "metar_trigger": false,
      "taf_trigger": false,
      "metar": "METAR HEMA 150500Z 31014KT CAVOK 21/M00 Q1015 NOSIG",
      "taf": "TAF HEMA 150540Z 1506/1612 32012KT 6000 NSC"
    },
    {
      "icao": "HESH",
      "alert": "OK",
      "vis_m": 9999,
      "fzfg": false,
      "metar_trigger": false,
      "taf_trigger": false,
      "metar": "METAR HESH 150500Z 34008KT CAVOK 20/04 Q1018 NOSIG",
      "taf": "TAF HESH 150500Z 1506/1612 35012KT 6000 NSC"
    },
    {
      "icao": "HESX",
      "alert": "OK",
      "vis_m": 9999,
      "fzfg": false,
      "metar_trigger": false,
      "taf_trigger": false,
      "metar": "METAR HESX 150500Z 09006KT CAVOK 13/M00 Q1018 NOSIG",
      "taf": "TAF HESX 150540Z 1506/1612 14008KT 6000 NSC"
    },
    {
      "icao": "LATI",
      "alert": "OK",
      "vis_m": 9999,
      "fzfg": false,
      "metar_trigger": false,
      "taf_trigger": false,
      "metar": "METAR LATI 150520Z 15008KT 9999 -DZ SCT030 BKN080 13/08 Q0997 NOSIG",
      "taf": ""
    },
    {
      "icao": "LBPD",
      "alert": "OK",
      "vis_m": 6000,
      "fzfg": false,
      "metar_trigger": false,
      "taf_trigger": false,
      "metar": "METAR LBPD 150530Z AUTO VRB03KT 6000 FEW004/// SCT058/// 06/06 Q1002 TEMPO 5000 RA",
      "taf": "TAF LBPD 150500Z 1506/1606 10010KT 9999 SCT005 BKN050"
    },
    {
      "icao": "LBSF",
      "alert": "OK",
      "vis_m": 6000,
      "fzfg": false,
      "metar_trigger": false,
      "taf_trigger": false,
      "metar": "METAR LBSF 150530Z 25005KT 6000 RA BKN050 OVC067 05/04 Q1000 TEMPO 4000 RA BKN040",
      "taf": "TAF LBSF 150500Z 1506/1606 VRB03KT 8000 BKN040"
    },
    {
      "icao": "LBWN",
      "alert": "OK",
      "vis_m": 9999,
      "fzfg": false,
      "metar_trigger": false,
      "taf_trigger": false,
      "metar": "METAR LBWN 150530Z 10007KT 9999 FEW004 SCT026 10/08 Q1006 NOSIG",
      "taf": "TAF LBWN 150500Z 1506/1606 09010KT 9999 SCT045"
    },
    {
      "icao": "LCLK",
      "alert": "OK",
      "vis_m": 9999,
      "fzfg": false,
      "metar_trigger": false,
      "taf_trigger": false,
      "metar": "METAR LCLK 150530Z 31003KT CAVOK 11/10 Q1021 NOSIG",
      "taf": "TAF LCLK 150530Z 1506/1606 30007KT 9999 FEW020"
    },
    {
      "icao": "LCPH",
      "alert": "OK",
      "vis_m": 9999,
      "fzfg": false,
      "metar_trigger": false,
      "taf_trigger": false,
      "metar": "METAR LCPH 150530Z 08005KT 9999 FEW020 12/08 Q1021 NOSIG",
      "taf": "TAF LCPH 150530Z 1506/1606 02007KT 8000 SCT018"
    },
    {
      "icao": "LEAL",
      "alert": "OK",
      "vis_m": 9999,
      "fzfg": false,
      "metar_trigger": false,
      "taf_trigger": false,
      "metar": "METAR LEAL 150530Z 31027KT CAVOK 12/M04 Q1019 NOSIG",
      "taf": "TAF LEAL 150500Z 1506/1606 31020KT 9999 FEW040 TX20/1513Z TN09/1506Z"
    },
    {
      "icao": "LEBB",
      "alert": "OK",
      "vis_m": 9999,
      "fzfg": false,
      "metar_trigger": false,
      "taf_trigger": false,
      "metar": "METAR LEBB 150530Z VRB02KT 9999 OVC035 09/04 Q1022 NOSIG",
      "taf": "TAF LEBB 150500Z 1506/1606 18005KT 9999 SCT020 BKN030 TX15/1512Z TN09/1506Z"
    },
    {
      "icao": "LEBL",
      "alert": "OK",
      "vis_m": 9999,
      "fzfg": false,
      "metar_trigger": false,
      "taf_trigger": false,
      "metar": "METAR LEBL 150530Z 34011KT 320V020 CAVOK 08/01 Q1015 NOSIG",
      "taf": "TAF LEBL 150500Z 1506/1606 32008KT 9999 FEW035 TX15/1513Z TN07/1506Z"
    },
    {
      "icao": "LECH",
      "alert": "OK",
      "vis_m": 9999,
      "fzfg": false,
      "metar_trigger": false,
      "taf_trigger": false,
      "metar": "METAR LECH 150530Z AUTO 14009G20KT 090V210 CAVOK 11/M10 Q1017",
      "taf": ""
    },
    {
      "icao": "LEMD",
      "alert": "OK",
      "vis_m": 9999,
      "fzfg": false,
      "metar_trigger": false,
      "taf_trigger": false,
      "metar": "METAR LEMD 150530Z VRB01KT 9999 FEW060 M00/M02 Q1025 NOSIG",
      "taf": "TAF LEMD 150500Z 1506/1612 VRB04KT 9999 FEW040 TX13/1515Z TNM00/1507Z"
    },
    {
      "icao": "LEMG",
      "alert": "OK",
      "vis_m": 9999,
      "fzfg": false,
      "metar_trigger": false,
      "taf_trigger": false,
      "metar": "METAR LEMG 150530Z 30016G26KT CAVOK 09/03 Q1026 NOSIG",
      "taf": "TAF LEMG 150500Z 1506/1606 30012KT CAVOK TX18/1514Z TN09/1507Z"
    },
    {
      "icao": "LEVC",
      "alert": "OK",
      "vis_m": 9999,
      "fzfg": false,
      "metar_trigger": false,
      "taf_trigger": false,
      "metar": "METAR LEVC 150530Z 30011KT CAVOK 11/M08 Q1020 NOSIG",
      "taf": "TAF LEVC 150500Z 1506/1606 30015KT 9999 FEW060 TX19/1514Z TN10/1506Z"
    },
    {
      "icao": "LEXJ",
      "alert": "OK",
      "vis_m": 9999,
      "fzfg": false,
      "metar_trigger": false,
      "taf_trigger": false,
      "metar": "METAR LEXJ 150530Z 24008KT 9999 FEW030 BKN050 11/03 Q1021",
      "taf": "TAF LEXJ 150200Z 1503/1603 22009KT 9999 SCT020 BKN040 TX15/1514Z TN09/1503Z"
    },
    {
      "icao": "LEZG",
      "alert": "OK",
      "vis_m": 9999,
      "fzfg": false,
      "metar_trigger": false,
      "taf_trigger": false,
      "metar": "METAR LEZG 150530Z 28020KT 9999 SCT050 07/M00 Q1021 NOSIG",
      "taf": "TAF LEZG 150500Z 1506/1606 30020KT 9999 FEW040 TX16/1512Z TN06/1506Z"
    },
    {
      "icao": "LEZL",
      "alert": "OK",
      "vis_m": 9999,
      "fzfg": false,
      "metar_trigger": false,
      "taf_trigger": false,
      "metar": "METAR LEZL 150530Z 00000KT CAVOK 06/05 Q1029 NOSIG",
      "taf": "TAF LEZL 150200Z 1503/1603 21005KT 9999 FEW040 TX18/1515Z TN06/1507Z"
    },
    {
      "icao": "LFBD",
      "alert": "OK",
      "vis_m": 9999,
      "fzfg": false,
      "metar_trigger": false,
      "taf_trigger": false,
      "metar": "METAR LFBD 150530Z AUTO 18008KT 9999 OVC036 06/03 Q1020 TEMPO 2000 RA BKN004",
      "taf": "TAF LFBD 150500Z 1506/1612 19005KT 9999 BKN030 TX13/1612Z TN05/1506Z"
    },
    {
      "icao": "LFLL",
      "alert": "OK",
      "vis_m": 9999,
      "fzfg": false,
      "metar_trigger": false,
      "taf_trigger": false,
      "metar": "METAR LFLL 150530Z 34010KT 9999 BKN016 OVC021 01/M02 Q1019 NOSIG",
      "taf": "TAF LFLL 150500Z 1506/1612 34010KT 9999 BKN020"
    },
    {
      "icao": "LFLS",
      "alert": "OK",
      "vis_m": 9999,
      "fzfg": false,
      "metar_trigger": false,
      "taf_trigger": false,
      "metar": "METAR LFLS 150530Z AUTO VRB05KT 9999 OVC009 M00/M02 Q1018 NOSIG",
      "taf": "TAF LFLS 150200Z 1503/1603 35018KT 9999 BKN012"
    },
    {
      "icao": "LFMN",
      "alert": "OK",
      "vis_m": 9999,
      "fzfg": false,
      "metar_trigger": false,
      "taf_trigger": false,
      "metar": "METAR LFMN 150530Z 32008KT CAVOK 09/03 Q1004 NOSIG",
      "taf": "TAF LFMN 150200Z 1503/1609 34010KT CAVOK"
    },
    {
      "icao": "LFOB",
      "alert": "OK",
      "vis_m": 9000,
      "fzfg": false,
      "metar_trigger": false,
      "taf_trigger": false,
      "metar": "METAR LFOB 150530Z AUTO 15006KT 9000 NSC M01/M02 Q1016 TEMPO 2000 SN OVC006",
      "taf": "TAF LFOB 150500Z 1506/1606 17012KT 9999 OVC040"
    },
    {
      "icao": "LFPO",
      "alert": "OK",
      "vis_m": 9999,
      "fzfg": false,
      "metar_trigger": false,
      "taf_trigger": false,
      "metar": "METAR LFPO 150530Z 18005KT CAVOK M01/M03 Q1017 NOSIG",
      "taf": "TAF LFPO 150500Z 1506/1612 17007KT CAVOK"
    },
    {
      "icao": "LFSB",
      "alert": "OK",
      "vis_m": 9999,
      "fzfg": false,
      "metar_trigger": false,
      "taf_trigger": false,
      "metar": "METAR LFSB 150530Z AUTO 30007KT 9999 FEW011 OVC032 01/M00 Q1018 TEMPO BKN005",
      "taf": "TAF LFSB 150530Z 1506/1606 VRB03KT 9999 FEW009 BKN030"
    },
    {
      "icao": "LGAV",
      "alert": "OK",
      "vis_m": 9000,
      "fzfg": false,
      "metar_trigger": false,
      "taf_trigger": false,
      "metar": "METAR LGAV 150520Z 15004KT 100V190 9000 FEW020 SCT070 17/10 Q1005 NOSIG",
      "taf": "TAF LGAV 150500Z 1506/1606 16012KT 9999 SCT025"
    },
    {
      "icao": "LGTS",
      "alert": "OK",
      "vis_m": 9999,
      "fzfg": false,
      "metar_trigger": false,
      "taf_trigger": false,
      "metar": "METAR LGTS 150520Z 12016G26KT 9999 -RA SCT025 16/12 Q1001 NOSIG",
      "taf": "TAF LGTS 150500Z 1506/1606 13015KT 9999 SCT025"
    },
    {
      "icao": "LHBP",
      "alert": "OK",
      "vis_m": 9999,
      "fzfg": false,
      "metar_trigger": false,
      "taf_trigger": false,
      "metar": "METAR LHBP 150530Z 32012KT 9999 FEW041 BKN090 05/03 Q1004 NOSIG",
      "taf": "TAF LHBP 150515Z 1506/1606 32007KT 9999 SCT020 BKN050"
    },
    {
      "icao": "LHDC",
      "alert": "OK",
      "vis_m": 9999,
      "fzfg": false,
      "metar_trigger": false,
      "taf_trigger": false,
      "metar": "METAR LHDC 150515Z AUTO 03014KT CAVOK 05/03 Q1002",
      "taf": "TAF LHDC 150515Z 1506/1515 02012KT CAVOK"
    },
    {
      "icao": "LIBD",
      "alert": "OK",
      "vis_m": 9999,
      "fzfg": false,
      "metar_trigger": false,
      "taf_trigger": false,
      "metar": "METAR LIBD 150520Z 26006KT 9999 -RA BKN045 09/08 Q0996",
      "taf": "TAF LIBD 150500Z 1506/1606 26012KT 9999 BKN030"
    },
    {
      "icao": "LIBG",
      "alert": "OK",
      "vis_m": null,
      "fzfg": false,
      "metar_trigger": false,
      "taf_trigger": false,
      "metar": "",
      "taf": ""
    },
    {
      "icao": "LIBP",
      "alert": "OK",
      "vis_m": 6000,
      "fzfg": false,
      "metar_trigger": false,
      "taf_trigger": false,
      "metar": "METAR LIBP 150520Z AUTO 33004KT 300V360 6000 RA OVC016/// 10/10 Q0999",
      "taf": "TAF LIBP 150500Z 1506/1606 31012KT 9999 BKN030"
    },
    {
      "icao": "LIBR",
      "alert": "OK",
      "vis_m": 9999,
      "fzfg": false,
      "metar_trigger": false,
      "taf_trigger": false,
      "metar": "METAR LIBR 150520Z 19005KT CAVOK 09/08 Q0997",
      "taf": "TAF LIBR 150500Z 1506/1606 24015KT 9999 SCT030"
    },
    {
      "icao": "LICA",
      "alert": "OK",
      "vis_m": 9999,
      "fzfg": false,
      "metar_trigger": false,
      "taf_trigger": false,
      "metar": "METAR LICA 150520Z AUTO 06006KT 9999 BKN062/// 09/08 Q0998",
      "taf": "TAF LICA 150500Z 1506/1606 08008KT 9999 SCT020 SCT050"
    },
    {
      "icao": "LICC",
      "alert": "OK",
      "vis_m": 9999,
      "fzfg": false,
      "metar_trigger": false,
      "taf_trigger": false,
      "metar": "METAR LICC 150520Z 28002KT 9999 SCT040 10/07 Q0999",
      "taf": "TAF LICC 150500Z 1506/1606 26007KT 9999 SCT020"
    },
    {
      "icao": "LICJ",
      "alert": "OK",
      "vis_m": 9999,
      "fzfg": false,
      "metar_trigger": false,
      "taf_trigger": false,
      "metar": "METAR LICJ 150520Z AUTO 25017KT 9999 4200W -RA FEW013/// SCT027/// BKN051/// 14/12 Q0995",
      "taf": "TAF LICJ 150500Z 1506/1606 25018KT 9999 SCT030"
    },
    {
      "icao": "LIMC",
      "alert": "OK",
      "vis_m": 9999,
      "fzfg": false,
      "metar_trigger": false,
      "taf_trigger": false,
      "metar": "METAR LIMC 150520Z 04013KT CAVOK 10/M06 Q1005 NOSIG",
      "taf": "TAF LIMC 150500Z 1506/1612 01012KT CAVOK"
    },
    {
      "icao": "LIME",
      "alert": "OK",
      "vis_m": 9999,
      "fzfg": false,
      "metar_trigger": false,
      "taf_trigger": false,
      "metar": "METAR LIME 150520Z 01005KT CAVOK 04/04 Q1004 NOSIG",
      "taf": "TAF LIME 150500Z 1506/1606 VRB05KT CAVOK"
    },
    {
      "icao": "LIMF",
      "alert": "OK",
      "vis_m": null,
      "fzfg": false,
      "metar_trigger": false,
      "taf_trigger": false,
      "metar": "METAR LIMF 150520Z AUTO 36004KT //// // NCD 02/M01 Q1005",
      "taf": "TAF LIMF 150500Z 1506/1606 VRB05KT CAVOK"
    },
    {
      "icao": "LIMJ",
      "alert": "OK",
      "vis_m": 9999,
      "fzfg": false,
      "metar_trigger": false,
      "taf_trigger": false,
      "metar": "METAR LIMJ 150520Z 02021KT CAVOK 13/M01 Q1002",
      "taf": "TAF LIMJ 150500Z 1506/1606 03013KT CAVOK"
    },
    {
      "icao": "LIPE",
      "alert": "OK",
      "vis_m": 9999,
      "fzfg": false,
      "metar_trigger": false,
      "taf_trigger": false,
      "metar": "METAR LIPE 150520Z 30005KT 9999 BKN030 08/08 Q1004",
      "taf": "TAF LIPE 150500Z 1506/1606 VRB05KT 8000 SCT030"
    },
    {
      "icao": "LIPH",
      "alert": "OK",
      "vis_m": 9999,
      "fzfg": false,
      "metar_trigger": false,
      "taf_trigger": false,
      "metar": "METAR LIPH 150520Z AUTO 26006KT 9999 OVC078/// 09/07 Q1002",
      "taf": "TAF LIPH 150500Z 1506/1606 04007KT 8000 BKN040"
    },
    {
      "icao": "LIPQ",
      "alert": "OK",
      "vis_m": 9999,
      "fzfg": false,
      "metar_trigger": false,
      "taf_trigger": false,
      "metar": "METAR LIPQ 150520Z AUTO 22004KT 180V260 9999 FEW110/// OVC170/// 07/06 Q1002",
      "taf": "TAF LIPQ 150500Z 1506/1606 04012KT 9999 SCT040"
    },
    {
      "icao": "LIPR",
      "alert": "OK",
      "vis_m": 5000,
      "fzfg": false,
      "metar_trigger": false,
      "taf_trigger": false,
      "metar": "METAR LIPR 150520Z AUTO 31011KT 5000 DZRA BR BKN006/// 09/08 Q1002",
      "taf": "TAF LIPR 150500Z 1506/1606 33013KT 8000 BKN030"
    },
    {
      "icao": "LIPX",
      "alert": "OK",
      "vis_m": 2500,
      "fzfg": false,
      "metar_trigger": false,
      "taf_trigger": false,
      "metar": "METAR LIPX 150520Z VRB02KT 2500 BCFG NSC 07/07 Q1004",
      "taf": "TAF LIPX 150500Z 1506/1606 VRB05KT 8000 FEW050"
    },
    {
      "icao": "LIPY",
      "alert": "OK",
      "vis_m": 9999,
      "fzfg": false,
      "metar_trigger": false,
      "taf_trigger": false,
      "metar": "METAR LIPY 150520Z AUTO 32012KT 9999 BKN003/// OVC035/// 10/10 Q1000",
      "taf": "TAF LIPY 150500Z 1506/1606 33013KT 8000 BKN040"
    },
    {
      "icao": "LIPZ",
      "alert": "OK",
      "vis_m": 9999,
      "fzfg": false,
      "metar_trigger": false,
      "taf_trigger": false,
      "metar": "METAR LIPZ 150520Z 31003KT CAVOK 09/07 Q1002 NOSIG",
      "taf": "TAF LIPZ 150500Z 1506/1612 VRB05KT 8000 BKN030"
    },
    {
      "icao": "LIRF",
      "alert": "OK",
      "vis_m": 9999,
      "fzfg": false,
      "metar_trigger": false,
      "taf_trigger": false,
      "metar": "METAR LIRF 150520Z 32003KT 290V360 CAVOK 08/07 Q0999 NOSIG",
      "taf": "TAF LIRF 150500Z 1506/1612 34013KT 9999 FEW040"
    },
    {
      "icao": "LIRN",
      "alert": "OK",
      "vis_m": 9999,
      "fzfg": false,
      "metar_trigger": false,
      "taf_trigger": false,
      "metar": "METAR LIRN 150520Z VRB02KT 9999 BKN070 09/08 Q0998 NOSIG",
      "taf": "TAF LIRN 150500Z 1506/1606 VRB05KT 9999 SCT040"
    },
    {
      "icao": "LIRP",
      "alert": "OK",
      "vis_m": 9999,
      "fzfg": false,
      "metar_trigger": false,
      "taf_trigger": false,
      "metar": "METAR LIRP 150515Z 35005KT CAVOK 07/06 Q1002 NOSIG",
      "taf": "TAF LIRP 150500Z 1506/1606 VRB03KT CAVOK"
    },
    {
      "icao": "LIRZ",
      "alert": "OK",
      "vis_m": 9999,
      "fzfg": false,
      "metar_trigger": false,
      "taf_trigger": false,
      "metar": "METAR LIRZ 150520Z AUTO VRB02KT 9999 FEW027/// 06/05 Q1000",
      "taf": "TAF LIRZ 150500Z 1506/1606 02011KT 9999 FEW030"
    },
    {
      "icao": "LJLJ",
      "alert": "OK",
      "vis_m": 9999,
      "fzfg": false,
      "metar_trigger": false,
      "taf_trigger": false,
      "metar": "METAR LJLJ 150530Z 07004KT 050V210 9999 FEW003 SCT065 BKN110 04/03 Q1004 NOSIG",
      "taf": "TAF LJLJ 150500Z 1506/1606 20004KT 9999 FEW002 SCT045 BKN090"
    },
    {
      "icao": "LKMT",
      "alert": "OK",
      "vis_m": 8000,
      "fzfg": false,
      "metar_trigger": false,
      "taf_trigger": false,
      "metar": "METAR LKMT 150530Z 01010KT 8000 -SN SCT011 BKN025 OVC032 M03/M03 Q1013 NOSIG",
      "taf": "TAF LKMT 150500Z 1506/1606 01012KT 9999 BKN020"
    },
    {
      "icao": "LKPR",
      "alert": "OK",
      "vis_m": 9999,
      "fzfg": false,
      "metar_trigger": false,
      "taf_trigger": false,
      "metar": "METAR LKPR 150530Z 29008KT 9999 -SN FEW022 OVC037 M03/M05 Q1016 NOSIG",
      "taf": "TAF LKPR 150500Z 1506/1612 35010KT 9999 OVC035"
    },
    {
      "icao": "LLBG",
      "alert": "OK",
      "vis_m": 7000,
      "fzfg": false,
      "metar_trigger": false,
      "taf_trigger": false,
      "metar": "METAR LLBG 150520Z VRB02KT 7000 NSC 11/08 Q1022 TEMPO 5000 DU",
      "taf": "TAF LLBG 150508Z 1506/1606 VRB04KT 8000 NSC"
    },
    {
      "icao": "LMML",
      "alert": "OK",
      "vis_m": 9999,
      "fzfg": false,
      "metar_trigger": false,
      "taf_trigger": false,
      "metar": "METAR LMML 150515Z 24015G27KT 9999 -RA FEW017 BKN044 13/10 Q1002 NOSIG",
      "taf": "TAF LMML 150500Z 1506/1606 25018KT 9999 FEW018"
    },
    {
      "icao": "LOWW",
      "alert": "OK",
      "vis_m": 9999,
      "fzfg": false,
      "metar_trigger": false,
      "taf_trigger": false,
      "metar": "METAR LOWW 150520Z 33019G29KT 9999 -SN FEW011 SCT014 BKN024 00/M02 Q1012 TEMPO BKN014",
      "taf": "TAF LOWW 150515Z 1506/1612 34010KT 9999 SCT009 BKN020 TX01/1509Z TNM05/1602Z"
    },
    {
      "icao": "LPFR",
      "alert": "OK",
      "vis_m": 9999,
      "fzfg": false,
      "metar_trigger": false,
      "taf_trigger": false,
      "metar": "METAR LPFR 150530Z 25006KT CAVOK 10/08 Q1030",
      "taf": "TAF LPFR 150500Z 1506/1606 VRB02KT CAVOK"
    },
    {
      "icao": "LPMA",
      "alert": "OK",
      "vis_m": 9999,
      "fzfg": false,
      "metar_trigger": false,
      "taf_trigger": false,
      "metar": "METAR LPMA 150530Z 02014KT 9999 FEW016 15/08 Q1031",
      "taf": "TAF LPMA 150500Z 1506/1606 02012KT 9999 SCT015"
    },
    {
      "icao": "LPPR",
      "alert": "OK",
      "vis_m": 4000,
      "fzfg": false,
      "metar_trigger": false,
      "taf_trigger": false,
      "metar": "METAR LPPR 150530Z 24005KT 190V300 4000 -SHRA BR FEW003 BKN008 11/11 Q1028",
      "taf": "TAF LPPR 150500Z 1506/1606 VRB02KT 9999 FEW012 BKN025"
    },
    {
      "icao": "LPPS",
      "alert": "OK",
      "vis_m": 9999,
      "fzfg": false,
      "metar_trigger": false,
      "taf_trigger": false,
      "metar": "METAR LPPS 150530Z 06010KT 9999 FEW015 14/09 Q1031",
      "taf": "TAF LPPS 150500Z 1506/1612 06010KT 9999 SCT015"
    },
    {
      "icao": "LPPT",
      "alert": "OK",
      "vis_m": 8000,
      "fzfg": false,
      "metar_trigger": false,
      "taf_trigger": false,
      "metar": "METAR LPPT 150530Z 27004KT 8000 FEW014 SCT018 BKN024 10/09 Q1030",
      "taf": "TAF LPPT 150500Z 1506/1612 29005KT 9999 SCT030"
    },
    {
      "icao": "LQBK",
      "alert": "OK",
      "vis_m": 7000,
      "fzfg": false,
      "metar_trigger": false,
      "taf_trigger": false,
      "metar": "METAR LQBK 150530Z 30017KT 7000 RA BKN010 OVC027 05/04 Q1002 TEMPO 34017G27KT",
      "taf": "TAF LQBK 150500Z 1506/1606 35012KT 9999 RA SCT007 BKN012 OVC020 TX05/1506Z TNM06/1606Z"
    },
    {
      "icao": "LQSA",
      "alert": "OK",
      "vis_m": 6000,
      "fzfg": false,
      "metar_trigger": false,
      "taf_trigger": false,
      "metar": "METAR LQSA 150530Z VRB02KT 6000 SHRA FEW020 SCT035TCU BKN045 04/04 Q0998 BECMG 2000 SN BKN010 OVC030",
      "taf": "TAF LQSA 150500Z 1506/1606 29007KT 1500 SN BKN010 OVC030 TX03/1506Z TNM04/1605Z"
    },
    {
      "icao": "LQTZ",
      "alert": "OK",
      "vis_m": 3500,
      "fzfg": false,
      "metar_trigger": false,
      "taf_trigger": false,
      "metar": "METAR LQTZ 150530Z 30007KT 270V330 3500 -RA BR FEW010 BKN020 OVC040 06/06 Q0999",
      "taf": "TAF LQTZ 150500Z 1506/1606 27005KT 9999 SCT005 BKN012 OVC025 TX06/1506Z TNM06/1606Z"
    },
    {
      "icao": "LRBC",
      "alert": "OK",
      "vis_m": 300,
      "fzfg": false,
      "metar_trigger": false,
      "taf_trigger": false,
      "metar": "METAR LRBC 150530Z 00000KT 0300 R16/0550N FG VV002 04/04 Q1005",
      "taf": "TAF LRBC 150500Z 1506/1515 VRB04KT 0300 FG VV001"
    },
    {
      "icao": "LRBS",
      "alert": "OK",
      "vis_m": 4000,
      "fzfg": false,
      "metar_trigger": false,
      "taf_trigger": false,
      "metar": "METAR LRBS 150530Z 06007KT 4000 BR FEW002 05/05 Q1003 NOSIG",
      "taf": "TAF LRBS 150500Z 1506/1606 05010KT 3000 BR SCT045"
    },
    {
      "icao": "LRBV",
      "alert": "OK",
      "vis_m": 9999,
      "fzfg": false,
      "metar_trigger": false,
      "taf_trigger": false,
      "metar": "METAR LRBV 150530Z VRB02KT 9999 -RA FEW055 SCT077 05/02 Q1002",
      "taf": "TAF LRBV 150500Z 1506/1515 VRB04KT 9999 BKN055"
    },
    {
      "icao": "LRCL",
      "alert": "OK",
      "vis_m": 9999,
      "fzfg": false,
      "metar_trigger": false,
      "taf_trigger": false,
      "metar": "METAR LRCL 150530Z 00000KT 9999 OVC062 02/01 Q1003",
      "taf": "TAF LRCL 150500Z 1506/1515 VRB04KT 9999 SCT045"
    },
    {
      "icao": "LRCV",
      "alert": "OK",
      "vis_m": 9999,
      "fzfg": false,
      "metar_trigger": false,
      "taf_trigger": false,
      "metar": "METAR LRCV 150530Z 07012KT CAVOK 07/06 Q1001",
      "taf": "TAF LRCV 150500Z 1506/1515 08014KT 5000 -RA BR BKN045"
    },
    {
      "icao": "LRIA",
      "alert": "OK",
      "vis_m": 9999,
      "fzfg": false,
      "metar_trigger": false,
      "taf_trigger": false,
      "metar": "METAR LRIA 150530Z 08007KT 9999 FEW023 04/03 Q1006",
      "taf": "TAF LRIA 150500Z 1506/1515 10010KT CAVOK"
    },
    {
      "icao": "LROP",
      "alert": "OK",
      "vis_m": 3000,
      "fzfg": false,
      "metar_trigger": false,
      "taf_trigger": false,
      "metar": "METAR LROP 150530Z 07009KT 3000 BR NSC 05/05 Q1003 NOSIG",
      "taf": "TAF LROP 150500Z 1506/1606 05010KT 3000 BR SCT045"
    },
    {
      "icao": "LRSB",
      "alert": "OK",
      "vis_m": 9999,
      "fzfg": false,
      "metar_trigger": false,
      "taf_trigger": false,
      "metar": "METAR LRSB 150530Z 08003KT 060V120 9999 -RA FEW040 SCT050 BKN077 07/05 Q1002",
      "taf": "TAF LRSB 150500Z 1506/1606 13005KT 9999 BKN050"
    },
    {
      "icao": "LRSM",
      "alert": "OK",
      "vis_m": 9999,
      "fzfg": false,
      "metar_trigger": false,
      "taf_trigger": false,
      "metar": "METAR LRSM 150530Z 35005KT CAVOK 05/03 Q1003",
      "taf": "TAF LRSM 150500Z 1506/1515 VRB04KT CAVOK"
    },
    {
      "icao": "LRSV",
      "alert": "OK",
      "vis_m": 200,
      "fzfg": false,
      "metar_trigger": false,
      "taf_trigger": false,
      "metar": "METAR LRSV 150530Z 34005KT 0200 R34/0550N FG VV001 02/02 Q1005",
      "taf": "TAF LRSV 150500Z 1506/1515 33006KT 0300 FG VV001"
    },
    {
      "icao": "LRTM",
      "alert": "OK",
      "vis_m": 9999,
      "fzfg": false,
      "metar_trigger": false,
      "taf_trigger": false,
      "metar": "METAR LRTM 150530Z 11003KT 9999 FEW044 04/02 Q1003",
      "taf": "TAF LRTM 150500Z 1506/1515 VRB04KT 9999 SCT045"
    },
    {
      "icao": "LRTR",
      "alert": "OK",
      "vis_m": 8000,
      "fzfg": false,
      "metar_trigger": false,
      "taf_trigger": false,
      "metar": "METAR LRTR 150530Z 07008KT 8000 -RA FEW039 BKN044 07/07 Q1001",
      "taf": "TAF LRTR 150500Z 1506/1606 09006KT 5000 -RA BKN040"
    },
    {
      "icao": "LTAC",
      "alert": "OK",
      "vis_m": 4900,
      "fzfg": false,
      "metar_trigger": false,
      "taf_trigger": false,
      "metar": "METAR LTAC 150520Z 13004KT 060V170 4900 BR NSC 00/M01 Q1019 NOSIG RMK RWY21C VRB02KT RWY03L 10005KT RWY21R VRB02KT RWY03R VRB02KT RWY21L 12003KT",
      "taf": "TAF LTAC 150440Z 1506/1606 VRB02KT CAVOK"
    },
    {
      "icao": "LTFM",
      "alert": "OK",
      "vis_m": 9999,
      "fzfg": false,
      "metar_trigger": false,
      "taf_trigger": false,
      "metar": "METAR LTFM 150520Z 18010KT CAVOK 12/05 Q1009 NOSIG RMK RWY17L 17013KT RWY34L 16010KT RWY16R 17012KT RWY36 18010KT RWY18 18014KT",
      "taf": "TAF LTFM 150440Z 1506/1612 16012KT CAVOK"
    },
    {
      "icao": "LUKK",
      "alert": "OK",
      "vis_m": 1600,
      "fzfg": false,
      "metar_trigger": false,
      "taf_trigger": false,
      "metar": "METAR LUKK 150530Z 08009KT 1600 0650SW R08/0750N BR PRFG OVC001 02/02 Q1008 BECMG 1000 RA BR",
      "taf": "TAF LUKK 150529Z 1506/1606 16010KT 5000 -RA BR BKN005 OVC012"
    },
    {
      "icao": "LWOH",
      "alert": "OK",
      "vis_m": null,
      "fzfg": false,
      "metar_trigger": false,
      "taf_trigger": false,
      "metar": "",
      "taf": "TAF LWOH 150230Z 1503/1603 35005KT 9999 -RA SCT015 OVC035"
    },
    {
      "icao": "LWSK",
      "alert": "OK",
      "vis_m": 9999,
      "fzfg": false,
      "metar_trigger": false,
      "taf_trigger": false,
      "metar": "METAR LWSK 150520Z VRB02KT 9999 -RA SCT015 OVC050 09/08 Q0999 NOSIG",
      "taf": "TAF LWSK 150230Z 1503/1603 14012KT 9999 RA SCT035 OVC070"
    },
    {
      "icao": "LYBE",
      "alert": "OK",
      "vis_m": 9999,
      "fzfg": false,
      "metar_trigger": false,
      "taf_trigger": false,
      "metar": "METAR LYBE 150530Z 09007KT 050V120 9999 -RA SCT006 BKN029 08/07 Q0999 RERA NOSIG",
      "taf": "TAF LYBE 150500Z 1506/1606 06008KT 8000 RA BKN006 BKN025 TX07/1506Z TNM03/1606Z"
    },
    {
      "icao": "LYNI",
      "alert": "OK",
      "vis_m": 9999,
      "fzfg": false,
      "metar_trigger": false,
      "taf_trigger": false,
      "metar": "METAR LYNI 150530Z 10008KT 080V150 9999 -RA FEW017 BKN043 09/08 Q0999 NOSIG",
      "taf": "TAF LYNI 150500Z 1506/1606 10008KT 9999 FEW017 BKN040 BKN070 TX12/1511Z TN00/1606Z"
    },
    {
      "icao": "LYPG",
      "alert": "OK",
      "vis_m": 9999,
      "fzfg": false,
      "metar_trigger": false,
      "taf_trigger": false,
      "metar": "METAR LYPG 150530Z 03005KT 360V060 9999 FEW007 SCT034 BKN070 08/07 Q0996 RETS TEMPO 5000 TSRA FEW007 FEW030CB BKN040",
      "taf": "TAF LYPG 150500Z 1506/1606 17005KT 9999 FEW010 BKN034 OVC070 TX11/1512Z TN07/1605Z"
    },
    {
      "icao": "LZIB",
      "alert": "OK",
      "vis_m": 9999,
      "fzfg": false,
      "metar_trigger": false,
      "taf_trigger": false,
      "metar": "METAR LZIB 150530Z 35017KT 9999 SCT022 BKN026 01/M03 Q1011 NOSIG",
      "taf": "TAF LZIB 150515Z 1506/1606 33017KT 9999 BKN020"
    },
    {
      "icao": "LZKZ",
      "alert": "OK",
      "vis_m": 9999,
      "fzfg": false,
      "metar_trigger": false,
      "taf_trigger": false,
      "metar": "METAR LZKZ 150530Z 36024KT 9999 FEW017 02/M01 Q1006 NOSIG",
      "taf": "TAF LZKZ 150515Z 1506/1606 36023KT CAVOK"
    },
    {
      "icao": "LZTT",
      "alert": "OK",
      "vis_m": 2300,
      "fzfg": false,
      "metar_trigger": false,
      "taf_trigger": false,
      "metar": "METAR LZTT 150530Z 06012KT 2300 -SN BKN013 OVC020 M03/M04 Q1006",
      "taf": "TAF LZTT 150515Z 1506/1606 07012KT 9999 OVC020"
    },
    {
      "icao": "OEJN",
      "alert": "OK",
      "vis_m": 9999,
      "fzfg": false,
      "metar_trigger": false,
      "taf_trigger": false,
      "metar": "METAR OEJN 150500Z 33006KT CAVOK 23/15 Q1014 NOSIG",
      "taf": "TAF OEJN 150500Z 1506/1612 29010KT CAVOK"
    },
    {
      "icao": "OEMA",
      "alert": "OK",
      "vis_m": 9999,
      "fzfg": false,
      "metar_trigger": false,
      "taf_trigger": false,
      "metar": "METAR OEMA 150500Z 04009KT CAVOK 19/M07 Q1022 NOSIG",
      "taf": "TAF OEMA 150500Z 1506/1612 08015KT 7000 NSC"
    },
    {
      "icao": "OJAI",
      "alert": "OK",
      "vis_m": 3000,
      "fzfg": false,
      "metar_trigger": false,
      "taf_trigger": false,
      "metar": "METAR OJAI 150500Z 09003KT 3000 DU NSC 04/02 Q1022 NOSIG",
      "taf": "TAF OJAI 150500Z 1506/1612 14010KT 2000 DU NSC"
    },
    {
      "icao": "OMAA",
      "alert": "OK",
      "vis_m": 9999,
      "fzfg": false,
      "metar_trigger": false,
      "taf_trigger": false,
      "metar": "METAR OMAA 150530Z 18003KT 140V200 CAVOK 24/05 Q1016 NOSIG",
      "taf": "TAF OMAA 150500Z 1506/1612 16006KT 8000 NSC"
    },
    {
      "icao": "OMDB",
      "alert": "OK",
      "vis_m": 9999,
      "fzfg": false,
      "metar_trigger": false,
      "taf_trigger": false,
      "metar": "METAR OMDB 150530Z 15004KT CAVOK 25/02 Q1016 NOSIG",
      "taf": "TAF OMDB 150500Z 1506/1612 20005KT CAVOK"
    },
    {
      "icao": "UAAA",
      "alert": "CRITICAL",
      "vis_m": 100,
      "fzfg": true,
      "metar_trigger": true,
      "taf_trigger": false,
      "metar": "METAR UAAA 150530Z 02002MPS 350V050 0100 R23L/0175N FZFG VV001 M03/M03 Q1021 NOSIG RMK QBB050",
      "taf": "TAF UAAA 150503Z 1506/1606 VRB01MPS 1100 BR FU OVC004 TX01/1509Z TNM02/1602Z"
    },
    {
      "icao": "UBBB",
      "alert": "OK",
      "vis_m": 9999,
      "fzfg": false,
      "metar_trigger": false,
      "taf_trigger": false,
      "metar": "METAR UBBB 150530Z 33022G34KT 9999 SCT060CB 09/06 Q1015 NOSIG",
      "taf": "TAF UBBB 150459Z 1506/1606 32020G30KT 9999 SCT012 BKN035 TX11/1510Z TN05/1601Z"
    },
    {
      "icao": "UDSG",
      "alert": "OK",
      "vis_m": 9000,
      "fzfg": false,
      "metar_trigger": false,
      "taf_trigger": false,
      "metar": "METAR UDSG 150530Z 07003KT 9000 SCT049 M00/M01 Q1022 NOSIG",
      "taf": "TAF UDSG 150458Z 1506/1606 VRB06KT 9999 SCT040"
    },
    {
      "icao": "UDYZ",
      "alert": "OK",
      "vis_m": 5000,
      "fzfg": false,
      "metar_trigger": false,
      "taf_trigger": false,
      "metar": "METAR UDYZ 150530Z VRB01KT 5000 BR FEW046 02/01 Q1021 NOSIG",
      "taf": "TAF UDYZ 150500Z 1506/1606 20006KT 9999 FEW040"
    },
    {
      "icao": "UGKO",
      "alert": "OK",
      "vis_m": 9999,
      "fzfg": false,
      "metar_trigger": false,
      "taf_trigger": false,
      "metar": "METAR UGKO 150530Z 32006KT 9999 SCT004 BKN007 09/09 Q1022 NOSIG",
      "taf": "TAF UGKO 150500Z 1506/1606 30007KT 9999 BKN050 TX18/1511Z TN10/1506Z"
    }
  ]
}