{
  "ts_utc": "2025-12-25T00:43:24Z",
  "threshold_m": 150,
  "source": "stations_override.txt (ICAO list) + aviationweather.gov (METAR/TAF raw)",
  "station_count": 159,
  "stations": [
    {
      "icao": "BIKF",
      "alert": "OK",
      "vis_m": 2000,
      "fzfg": false,
      "metar_trigger": false,
      "taf_trigger": false,
      "metar": "METAR BIKF 250030Z 17029G39KT 2000 -DZRA BR OVC004 08/08 Q1015",
      "taf": "TAF BIKF 242259Z 2500/2600 18030G40KT 6000 -RADZ SCT007 BKN012 TX09/2503Z TN06/2600Z"
    },
    {
      "icao": "BKPR",
      "alert": "OK",
      "vis_m": 9999,
      "fzfg": false,
      "metar_trigger": false,
      "taf_trigger": false,
      "metar": "METAR BKPR 250030Z 35016KT 9999 -RA FEW010 BKN030 03/02 Q1019 NOSIG",
      "taf": "TAF BKPR 242330Z 2500/2524 36015KT 9999 SCT008 BKN030"
    },
    {
      "icao": "EBCI",
      "alert": "OK",
      "vis_m": 9999,
      "fzfg": false,
      "metar_trigger": false,
      "taf_trigger": false,
      "metar": "METAR EBCI 250020Z 05020KT 9999 FEW025 M03/M08 Q1024 NOSIG",
      "taf": "TAF EBCI 242310Z 2500/2606 05013KT CAVOK"
    },
    {
      "icao": "EDDB",
      "alert": "OK",
      "vis_m": 9999,
      "fzfg": false,
      "metar_trigger": false,
      "taf_trigger": false,
      "metar": "METAR EDDB 250020Z AUTO 06008KT 9999 FEW011 M08/M10 Q1038 NOSIG",
      "taf": "TAF EDDB 242300Z 2500/2524 07008KT CAVOK"
    },
    {
      "icao": "EDDH",
      "alert": "OK",
      "vis_m": 9999,
      "fzfg": false,
      "metar_trigger": false,
      "taf_trigger": false,
      "metar": "METAR EDDH 250020Z AUTO 08008KT CAVOK M03/M06 Q1039 NOSIG",
      "taf": "TAF EDDH 242300Z 2500/2606 08009KT CAVOK"
    },
    {
      "icao": "EDDK",
      "alert": "OK",
      "vis_m": 9999,
      "fzfg": false,
      "metar_trigger": false,
      "taf_trigger": false,
      "metar": "METAR EDDK 250020Z AUTO 36002KT CAVOK M05/M09 Q1028 NOSIG",
      "taf": "TAF EDDK 242300Z 2500/2606 07007KT CAVOK"
    },
    {
      "icao": "EDDN",
      "alert": "OK",
      "vis_m": 9999,
      "fzfg": false,
      "metar_trigger": false,
      "taf_trigger": false,
      "metar": "METAR EDDN 250020Z AUTO 07009KT 030V110 CAVOK M02/M07 Q1024",
      "taf": "TAF EDDN 242300Z 2500/2524 07011KT 9999 FEW020"
    },
    {
      "icao": "EDDS",
      "alert": "OK",
      "vis_m": 9999,
      "fzfg": false,
      "metar_trigger": false,
      "taf_trigger": false,
      "metar": "METAR EDDS 250020Z AUTO 06014KT 9999 OVC021 M00/M05 Q1019",
      "taf": "TAF EDDS 242300Z 2500/2524 06015G25KT 9999 BKN020"
    },
    {
      "icao": "EDFH",
      "alert": "OK",
      "vis_m": 9999,
      "fzfg": false,
      "metar_trigger": false,
      "taf_trigger": false,
      "metar": "METAR EDFH 250020Z 07015KT 9999 FEW023 M05/M08 Q1022",
      "taf": "TAF EDFH 242300Z 2500/2524 08015G25KT 9999 BKN030"
    },
    {
      "icao": "EDJA",
      "alert": "OK",
      "vis_m": 9999,
      "fzfg": false,
      "metar_trigger": false,
      "taf_trigger": false,
      "metar": "METAR EDJA 250020Z AUTO 06015G26KT 9999 // OVC009/// M02/M03 Q1017",
      "taf": "TAF EDJA 241700Z 2418/2503 06015KT 6000 BKN011"
    },
    {
      "icao": "EDLW",
      "alert": "OK",
      "vis_m": 9999,
      "fzfg": false,
      "metar_trigger": false,
      "taf_trigger": false,
      "metar": "METAR EDLW 250020Z AUTO 03014KT 9999 // NCD M05/M08 Q1031",
      "taf": "TAF EDLW 241700Z 2418/2518 05011KT CAVOK"
    },
    {
      "icao": "EDNY",
      "alert": "OK",
      "vis_m": 9999,
      "fzfg": false,
      "metar_trigger": false,
      "taf_trigger": false,
      "metar": "METAR EDNY 250020Z AUTO 05016KT 9999 // FEW020/// 00/M03 Q1016",
      "taf": "TAF EDNY 241400Z 2415/2418 04015KT 9999 BKN020"
    },
    {
      "icao": "EDSB",
      "alert": "OK",
      "vis_m": 9999,
      "fzfg": false,
      "metar_trigger": false,
      "taf_trigger": false,
      "metar": "METAR EDSB 250020Z AUTO 04021KT 9999 // OVC032/// 01/M05 Q1020",
      "taf": "TAF EDSB 242300Z 2500/2524 04015G25KT 9999 BKN035"
    },
    {
      "icao": "EETN",
      "alert": "OK",
      "vis_m": 9999,
      "fzfg": false,
      "metar_trigger": false,
      "taf_trigger": false,
      "metar": "METAR EETN 250020Z 28015KT 9999 OVC007 04/02 Q1030",
      "taf": "TAF EETN 242330Z 2500/2524 28012KT 9999 OVC007"
    },
    {
      "icao": "EFTU",
      "alert": "OK",
      "vis_m": 9999,
      "fzfg": false,
      "metar_trigger": false,
      "taf_trigger": false,
      "metar": "METAR EFTU 250020Z AUTO 27007KT CAVOK 01/01 Q1029",
      "taf": "TAF EFTU 242327Z 2500/2524 28007KT CAVOK"
    },
    {
      "icao": "EGBB",
      "alert": "OK",
      "vis_m": 9999,
      "fzfg": false,
      "metar_trigger": false,
      "taf_trigger": false,
      "metar": "METAR EGBB 250020Z 04014G24KT 9999 BKN029 04/M01 Q1035",
      "taf": "TAF EGBB 242256Z 2500/2524 04010KT 9999 SCT030"
    },
    {
      "icao": "EGGP",
      "alert": "OK",
      "vis_m": 9999,
      "fzfg": false,
      "metar_trigger": false,
      "taf_trigger": false,
      "metar": "METAR EGGP 250020Z AUTO 05007KT 9999 BKN031/// 03/M01 Q1037",
      "taf": "TAF EGGP 242254Z 2500/2524 07009KT 9999 SCT025"
    },
    {
      "icao": "EGGW",
      "alert": "OK",
      "vis_m": 9999,
      "fzfg": false,
      "metar_trigger": false,
      "taf_trigger": false,
      "metar": "METAR EGGW 250020Z AUTO 03015KT 9999 NCD 01/M01 Q1031",
      "taf": "TAF EGGW 242257Z 2500/2524 04013KT 9999 FEW025"
    },
    {
      "icao": "EGKK",
      "alert": "OK",
      "vis_m": 9999,
      "fzfg": false,
      "metar_trigger": false,
      "taf_trigger": false,
      "metar": "METAR EGKK 250020Z 03015KT 9999 BKN024 03/M00 Q1029",
      "taf": "TAF EGKK 242256Z 2500/2606 04012KT 9999 FEW030"
    },
    {
      "icao": "EGNM",
      "alert": "OK",
      "vis_m": null,
      "fzfg": false,
      "metar_trigger": false,
      "taf_trigger": false,
      "metar": "",
      "taf": "TAF EGNM 241658Z 2418/2518 06008KT 9999 SCT025"
    },
    {
      "icao": "EGPD",
      "alert": "OK",
      "vis_m": 9999,
      "fzfg": false,
      "metar_trigger": false,
      "taf_trigger": false,
      "metar": "METAR EGPD 250020Z AUTO VRB01KT 9999 NCD M02/M02 Q1041 TEMPO 4000 BR",
      "taf": "TAF EGPD 242300Z 2500/2524 VRB02KT 9999 FEW025"
    },
    {
      "icao": "EGPF",
      "alert": "OK",
      "vis_m": 5000,
      "fzfg": false,
      "metar_trigger": false,
      "taf_trigger": false,
      "metar": "METAR EGPF 250020Z 26001KT 5000 BR NSC M02/M02 Q1041",
      "taf": "TAF EGPF 242304Z 2500/2524 09004KT 9999 FEW018 SCT022"
    },
    {
      "icao": "EHBK",
      "alert": "OK",
      "vis_m": 9999,
      "fzfg": false,
      "metar_trigger": false,
      "taf_trigger": false,
      "metar": "METAR EHBK 250025Z AUTO 05018KT 020V080 9999 NCD M03/M08 Q1027",
      "taf": "TAF EHBK 242256Z 2500/2606 05018KT CAVOK"
    },
    {
      "icao": "EHEH",
      "alert": "OK",
      "vis_m": 9999,
      "fzfg": false,
      "metar_trigger": false,
      "taf_trigger": false,
      "metar": "METAR EHEH 250025Z AUTO 06014KT 030V090 9999 NCD M02/M08 Q1030 BLU",
      "taf": "TAF EHEH 242349Z 2500/2606 05015KT CAVOK"
    },
    {
      "icao": "EKBI",
      "alert": "OK",
      "vis_m": 9999,
      "fzfg": false,
      "metar_trigger": false,
      "taf_trigger": false,
      "metar": "METAR EKBI 250020Z AUTO 13003KT 9999 OVC018/// 01/M02 Q1041",
      "taf": "TAF EKBI 242327Z 2500/2524 VRB04KT 9999 BKN020"
    },
    {
      "icao": "EKCH",
      "alert": "OK",
      "vis_m": 9999,
      "fzfg": false,
      "metar_trigger": false,
      "taf_trigger": false,
      "metar": "METAR EKCH 250020Z AUTO 02008KT 9999 SCT027/// M00/M02 Q1042 NOSIG",
      "taf": "TAF EKCH 242327Z 2500/2524 04006KT 9999 SCT030"
    },
    {
      "icao": "ENAL",
      "alert": "OK",
      "vis_m": 9999,
      "fzfg": false,
      "metar_trigger": false,
      "taf_trigger": false,
      "metar": "METAR ENAL 250020Z AUTO 20013KT 9999 OVC038/// 08/04 Q1037",
      "taf": "TAF ENAL 242300Z 2500/2509 21015KT 9999 BKN020"
    },
    {
      "icao": "ENBR",
      "alert": "OK",
      "vis_m": 9999,
      "fzfg": false,
      "metar_trigger": false,
      "taf_trigger": false,
      "metar": "METAR ENBR 250020Z AUTO 14003KT 100V160 9999 OVC026/// 03/02 Q1041 RMK WIND 1200FT VRB02KT",
      "taf": "TAF ENBR 242300Z 2500/2524 12005KT 9999 BKN025"
    },
    {
      "icao": "ENGM",
      "alert": "OK",
      "vis_m": 9999,
      "fzfg": false,
      "metar_trigger": false,
      "taf_trigger": false,
      "metar": "METAR ENGM 250020Z 27003KT 200V350 9999 FEW002 M09/M10 Q1038",
      "taf": "TAF ENGM 242300Z 2500/2524 VRB03KT CAVOK"
    },
    {
      "icao": "ENHD",
      "alert": "OK",
      "vis_m": 9999,
      "fzfg": false,
      "metar_trigger": false,
      "taf_trigger": false,
      "metar": "METAR ENHD 250020Z AUTO 13003KT 110V170 9999 OVC030/// 01/00 Q1041",
      "taf": "TAF ENHD 241400Z 2415/2423 02005KT 9999 FEW030"
    },
    {
      "icao": "ENTC",
      "alert": "OK",
      "vis_m": 3900,
      "fzfg": false,
      "metar_trigger": false,
      "taf_trigger": false,
      "metar": "METAR ENTC 250020Z AUTO 25021KT 3900 +DZRA OVC030/// 06/04 Q1003 RMK WIND 2600FT 26043G62KT",
      "taf": "TAF ENTC 242300Z 2500/2524 22025KT 9999 -RA FEW009 BKN018"
    },
    {
      "icao": "ENTO",
      "alert": "OK",
      "vis_m": 9999,
      "fzfg": false,
      "metar_trigger": false,
      "taf_trigger": false,
      "metar": "METAR ENTO 250020Z AUTO VRB02KT 9999 NCD M07/M07 Q1039",
      "taf": "TAF ENTO 242300Z 2500/2524 24005KT CAVOK"
    },
    {
      "icao": "ENVA",
      "alert": "OK",
      "vis_m": 9999,
      "fzfg": false,
      "metar_trigger": false,
      "taf_trigger": false,
      "metar": "METAR ENVA 250020Z AUTO 24012KT 9999 BKN025/// OVC039/// 07/03 Q1033 RMK WIND 670FT 25016G27KT",
      "taf": "TAF ENVA 242300Z 2500/2524 25015KT 9999 FEW012 BKN020"
    },
    {
      "icao": "ENZV",
      "alert": "OK",
      "vis_m": 9999,
      "fzfg": false,
      "metar_trigger": false,
      "taf_trigger": false,
      "metar": "METAR ENZV 250020Z 00000KT CAVOK M04/M04 Q1041",
      "taf": "TAF ENZV 242300Z 2500/2524 VRB03KT CAVOK"
    },
    {
      "icao": "EPGD",
      "alert": "OK",
      "vis_m": 9999,
      "fzfg": false,
      "metar_trigger": false,
      "taf_trigger": false,
      "metar": "METAR EPGD 250030Z VRB01KT CAVOK M08/M10 Q1040",
      "taf": "TAF EPGD 242330Z 2500/2524 VRB03KT CAVOK"
    },
    {
      "icao": "EPKK",
      "alert": "OK",
      "vis_m": 9999,
      "fzfg": false,
      "metar_trigger": false,
      "taf_trigger": false,
      "metar": "METAR EPKK 250030Z 06011KT 9999 OVC010 M05/M08 Q1034",
      "taf": "TAF EPKK 242330Z 2500/2524 05010KT 9999 OVC011"
    },
    {
      "icao": "EPKT",
      "alert": "OK",
      "vis_m": 9999,
      "fzfg": false,
      "metar_trigger": false,
      "taf_trigger": false,
      "metar": "METAR EPKT 250030Z 07011KT 9999 OVC008 M06/M08 Q1034",
      "taf": "TAF EPKT 242330Z 2500/2524 07010KT 9999 OVC008"
    },
    {
      "icao": "EPLB",
      "alert": "OK",
      "vis_m": 9999,
      "fzfg": false,
      "metar_trigger": false,
      "taf_trigger": false,
      "metar": "METAR EPLB 250030Z 07008KT CAVOK M12/M13 Q1039",
      "taf": "TAF EPLB 242330Z 2500/2524 08006KT CAVOK"
    },
    {
      "icao": "EPMO",
      "alert": "OK",
      "vis_m": 9999,
      "fzfg": false,
      "metar_trigger": false,
      "taf_trigger": false,
      "metar": "METAR EPMO 250030Z 07005KT CAVOK M11/M12 Q1040",
      "taf": "TAF EPMO 242330Z 2500/2524 07005KT CAVOK"
    },
    {
      "icao": "EPPO",
      "alert": "OK",
      "vis_m": 9999,
      "fzfg": false,
      "metar_trigger": false,
      "taf_trigger": false,
      "metar": "METAR EPPO 250030Z 08006KT CAVOK M09/M11 Q1039",
      "taf": "TAF EPPO 242330Z 2500/2524 09010KT CAVOK"
    },
    {
      "icao": "EPRA",
      "alert": "OK",
      "vis_m": 9999,
      "fzfg": false,
      "metar_trigger": false,
      "taf_trigger": false,
      "metar": "METAR EPRA 250030Z 05003KT CAVOK M12/M14 Q1038",
      "taf": "TAF EPRA 242330Z 2500/2509 06005KT CAVOK"
    },
    {
      "icao": "EPRZ",
      "alert": "OK",
      "vis_m": 9999,
      "fzfg": false,
      "metar_trigger": false,
      "taf_trigger": false,
      "metar": "METAR EPRZ 250030Z 06010KT 9999 OVC012 M05/M08 Q1036",
      "taf": "TAF EPRZ 242330Z 2500/2524 06010KT 9999 OVC011"
    },
    {
      "icao": "EPSC",
      "alert": "OK",
      "vis_m": 9999,
      "fzfg": false,
      "metar_trigger": false,
      "taf_trigger": false,
      "metar": "METAR EPSC 250030Z 04004KT CAVOK M09/M10 Q1040",
      "taf": "TAF EPSC 242330Z 2500/2524 08003KT CAVOK"
    },
    {
      "icao": "EPSY",
      "alert": "OK",
      "vis_m": 9999,
      "fzfg": false,
      "metar_trigger": false,
      "taf_trigger": false,
      "metar": "METAR EPSY 250030Z 00000KT CAVOK M13/M15 Q1041",
      "taf": "TAF EPSY 242330Z 2500/2509 VRB02KT CAVOK"
    },
    {
      "icao": "EPWA",
      "alert": "OK",
      "vis_m": 9999,
      "fzfg": false,
      "metar_trigger": false,
      "taf_trigger": false,
      "metar": "METAR EPWA 250030Z 07007KT CAVOK M09/M12 Q1040 NOSIG",
      "taf": "TAF EPWA 242330Z 2500/2524 07007KT CAVOK"
    },
    {
      "icao": "EPWR",
      "alert": "OK",
      "vis_m": 9999,
      "fzfg": false,
      "metar_trigger": false,
      "taf_trigger": false,
      "metar": "METAR EPWR 250030Z 05003KT 020V080 9999 BKN015 M07/M10 Q1037",
      "taf": "TAF EPWR 242330Z 2500/2524 07005KT 9999 BKN016"
    },
    {
      "icao": "ESGG",
      "alert": "OK",
      "vis_m": 9999,
      "fzfg": false,
      "metar_trigger": false,
      "taf_trigger": false,
      "metar": "METAR ESGG 250020Z VRB03KT 9999 BKN012 M01/M02 Q1039",
      "taf": "TAF ESGG 242330Z 2500/2524 VRB02KT 9999 SCT010 BKN015"
    },
    {
      "icao": "ESKN",
      "alert": "OK",
      "vis_m": 9999,
      "fzfg": false,
      "metar_trigger": false,
      "taf_trigger": false,
      "metar": "METAR ESKN 250020Z 27008KT 9999 OVC002 M04/M04 Q1037",
      "taf": "TAF ESKN 242330Z 2500/2524 28009KT 9999 BKN002"
    },
    {
      "icao": "ESMS",
      "alert": "OK",
      "vis_m": 9999,
      "fzfg": false,
      "metar_trigger": false,
      "taf_trigger": false,
      "metar": "METAR ESMS 250020Z 36004KT 9999 BKN025 M04/M05 Q1041",
      "taf": "TAF ESMS 242327Z 2500/2524 VRB04KT 9999 BKN030"
    },
    {
      "icao": "ESSA",
      "alert": "OK",
      "vis_m": 9999,
      "fzfg": false,
      "metar_trigger": false,
      "taf_trigger": false,
      "metar": "METAR ESSA 250020Z 25006KT CAVOK M04/M05 Q1035 NOSIG",
      "taf": "TAF ESSA 242330Z 2500/2524 25008KT CAVOK"
    },
    {
      "icao": "EYKA",
      "alert": "OK",
      "vis_m": 9999,
      "fzfg": false,
      "metar_trigger": false,
      "taf_trigger": false,
      "metar": "METAR EYKA 250020Z 26007KT 9999 OVC028 M03/M08 Q1039",
      "taf": "TAF EYKA 242300Z 2500/2524 26010KT 9000 OVC025"
    },
    {
      "icao": "EYPA",
      "alert": "OK",
      "vis_m": 9999,
      "fzfg": false,
      "metar_trigger": false,
      "taf_trigger": false,
      "metar": "METAR EYPA 250020Z AUTO 31005KT 280V350 9999 BKN028/// OVC032/// 03/M03 Q1039",
      "taf": "TAF EYPA 242300Z 2500/2524 26014KT 9000 OVC020"
    },
    {
      "icao": "EYVI",
      "alert": "OK",
      "vis_m": 9999,
      "fzfg": false,
      "metar_trigger": false,
      "taf_trigger": false,
      "metar": "METAR EYVI 250020Z 27007KT 9999 OVC029 M04/M08 Q1038 NOSIG",
      "taf": "TAF EYVI 242300Z 2500/2524 VRB05KT 9000 OVC025"
    },
    {
      "icao": "GCFV",
      "alert": "OK",
      "vis_m": 9000,
      "fzfg": false,
      "metar_trigger": false,
      "taf_trigger": false,
      "metar": "METAR GCFV 250030Z AUTO VRB02KT 9000 -RA FEW024 BKN046 16/14 Q1014",
      "taf": "TAF GCFV 242000Z 2421/2521 28007KT 9999 SCT035 TX21/2514Z TN15/2506Z"
    },
    {
      "icao": "GCLP",
      "alert": "OK",
      "vis_m": 9999,
      "fzfg": false,
      "metar_trigger": false,
      "taf_trigger": false,
      "metar": "METAR GCLP 250030Z 33006KT 310V010 9999 BKN040 18/13 Q1015 NOSIG",
      "taf": "TAF GCLP 242000Z 2421/2521 30005KT 9999 BKN040 TX21/2514Z TN16/2506Z"
    },
    {
      "icao": "GCTS",
      "alert": "OK",
      "vis_m": 9999,
      "fzfg": false,
      "metar_trigger": false,
      "taf_trigger": false,
      "metar": "METAR GCTS 250030Z 36007KT 9999 SCT040 17/09 Q1015 NOSIG",
      "taf": "TAF GCTS 242000Z 2421/2521 36006KT 9999 FEW035 TX23/2514Z TN15/2506Z"
    },
    {
      "icao": "GMAD",
      "alert": "OK",
      "vis_m": 6000,
      "fzfg": false,
      "metar_trigger": false,
      "taf_trigger": false,
      "metar": "METAR GMAD 250030Z 20006KT 6000 FEW020 BKN033 14/14 Q1010 NOSIG",
      "taf": "TAF GMAD 242300Z 2500/2606 21006KT 8000 SCT010 BKN020"
    },
    {
      "icao": "GMMN",
      "alert": "OK",
      "vis_m": 9999,
      "fzfg": false,
      "metar_trigger": false,
      "taf_trigger": false,
      "metar": "METAR GMMN 250030Z 20003KT 9999 BKN020 09/08 Q1009 NOSIG",
      "taf": "TAF GMMN 242300Z 2500/2606 23007KT 9999 SCT013 BKN020"
    },
    {
      "icao": "GMMX",
      "alert": "OK",
      "vis_m": 3000,
      "fzfg": false,
      "metar_trigger": false,
      "taf_trigger": false,
      "metar": "METAR GMMX 250030Z 26008KT 3000 RA SCT010 BKN020 11/10 Q1010 NOSIG",
      "taf": ""
    },
    {
      "icao": "HEGN",
      "alert": "OK",
      "vis_m": 9999,
      "fzfg": false,
      "metar_trigger": false,
      "taf_trigger": false,
      "metar": "METAR HEGN 250000Z 30007KT CAVOK 17/06 Q1016 NOSIG",
      "taf": "TAF HEGN 242300Z 2500/2606 31010KT CAVOK"
    },
    {
      "icao": "HEMA",
      "alert": "OK",
      "vis_m": 9999,
      "fzfg": false,
      "metar_trigger": false,
      "taf_trigger": false,
      "metar": "METAR HEMA 250000Z 28009KT CAVOK 17/11 Q1015 NOSIG",
      "taf": "TAF HEMA 242300Z 2500/2606 30012KT CAVOK"
    },
    {
      "icao": "HESH",
      "alert": "OK",
      "vis_m": 9999,
      "fzfg": false,
      "metar_trigger": false,
      "taf_trigger": false,
      "metar": "METAR HESH 250000Z 31007KT CAVOK 20/06 Q1016 NOSIG",
      "taf": "TAF HESH 242300Z 2500/2606 32010KT CAVOK"
    },
    {
      "icao": "HESX",
      "alert": "OK",
      "vis_m": 5000,
      "fzfg": false,
      "metar_trigger": false,
      "taf_trigger": false,
      "metar": "METAR HESX 250000Z 03005KT 5000 BR NSC 11/10 Q1018 NOSIG",
      "taf": "TAF HESX 242300Z 2500/2606 03009KT CAVOK"
    },
    {
      "icao": "LATI",
      "alert": "OK",
      "vis_m": 8000,
      "fzfg": false,
      "metar_trigger": false,
      "taf_trigger": false,
      "metar": "METAR LATI 250020Z VRB02KT 8000 NSC 06/04 Q1015 NOSIG",
      "taf": "TAF LATI 242300Z 2500/2524 VRB05KT CAVOK TX16/2512Z TN04/2505Z"
    },
    {
      "icao": "LBPD",
      "alert": "OK",
      "vis_m": 5000,
      "fzfg": false,
      "metar_trigger": false,
      "taf_trigger": false,
      "metar": "METAR LBPD 250030Z AUTO 27004KT 5000 RA SCT007/// OVC009/// 05/05 Q1022",
      "taf": "TAF LBPD 242300Z 2500/2524 VRB03KT 4000 RA BKN005 OVC010"
    },
    {
      "icao": "LBSF",
      "alert": "OK",
      "vis_m": 9999,
      "fzfg": false,
      "metar_trigger": false,
      "taf_trigger": false,
      "metar": "METAR LBSF 250030Z AUTO 13003KT 9999 -RA BKN017/// OVC024/// 04/03 Q1021 TEMPO 5000 RA",
      "taf": "TAF LBSF 242300Z 2500/2524 04008KT 7000 RA BKN010 OVC020"
    },
    {
      "icao": "LBWN",
      "alert": "OK",
      "vis_m": 9999,
      "fzfg": false,
      "metar_trigger": false,
      "taf_trigger": false,
      "metar": "METAR LBWN 250030Z AUTO 06021G33KT 9999 -RA FEW013/// OVC034/// 07/07 Q1025 NOSIG",
      "taf": "TAF LBWN 242300Z 2500/2524 06020G40KT 5000 RA BKN010 OVC020"
    },
    {
      "icao": "LCLK",
      "alert": "OK",
      "vis_m": 9999,
      "fzfg": false,
      "metar_trigger": false,
      "taf_trigger": false,
      "metar": "METAR LCLK 250030Z 33005KT 9999 FEW025 BKN060 15/13 Q1019 NOSIG",
      "taf": "TAF LCLK 242330Z 2500/2600 35008KT 9999 FEW025 SCT035"
    },
    {
      "icao": "LCPH",
      "alert": "OK",
      "vis_m": 9999,
      "fzfg": false,
      "metar_trigger": false,
      "taf_trigger": false,
      "metar": "METAR LCPH 250030Z AUTO 02007KT 9999 NCD 14/10 Q1019 NOSIG",
      "taf": "TAF LCPH 242330Z 2500/2600 08007KT 9999 FEW025"
    },
    {
      "icao": "LEAL",
      "alert": "OK",
      "vis_m": 9999,
      "fzfg": false,
      "metar_trigger": false,
      "taf_trigger": false,
      "metar": "METAR LEAL 250030Z VRB01KT CAVOK 08/05 Q1008 NOSIG",
      "taf": "TAF LEAL 242300Z 2500/2524 32009KT 9999 FEW030 TX14/2512Z TN05/2506Z"
    },
    {
      "icao": "LEBB",
      "alert": "OK",
      "vis_m": 9999,
      "fzfg": false,
      "metar_trigger": false,
      "taf_trigger": false,
      "metar": "METAR LEBB 250030Z AUTO VRB01KT 9999 FEW036 SCT044 OVC050 07/04 Q1014",
      "taf": "TAF LEBB 242300Z 2500/2524 VRB03KT 9999 BKN030 TX07/2514Z TN02/2507Z"
    },
    {
      "icao": "LEBL",
      "alert": "OK",
      "vis_m": 7000,
      "fzfg": false,
      "metar_trigger": false,
      "taf_trigger": false,
      "metar": "METAR LEBL 250030Z 04006KT 7000 DZ BKN018 BKN022 OVC025 08/08 Q1008 NOSIG",
      "taf": "TAF LEBL 242300Z 2500/2524 34010KT 9999 BKN025 TX13/2513Z TN08/2506Z"
    },
    {
      "icao": "LECH",
      "alert": "OK",
      "vis_m": 9999,
      "fzfg": false,
      "metar_trigger": false,
      "taf_trigger": false,
      "metar": "METAR LECH 250030Z AUTO VRB02KT 9999 OVC070 06/03 Q1007",
      "taf": ""
    },
    {
      "icao": "LEMD",
      "alert": "OK",
      "vis_m": 9999,
      "fzfg": false,
      "metar_trigger": false,
      "taf_trigger": false,
      "metar": "METAR LEMD 250030Z 36003KT 9999 SCT045 04/02 Q1007 NOSIG",
      "taf": "TAF LEMD 242300Z 2500/2606 VRB03KT 9999 FEW030 TX06/2514Z TNM00/2506Z"
    },
    {
      "icao": "LEMG",
      "alert": "OK",
      "vis_m": 9999,
      "fzfg": false,
      "metar_trigger": false,
      "taf_trigger": false,
      "metar": "METAR LEMG 250030Z 28007KT 9999 FEW030 09/08 Q1007 NOSIG",
      "taf": "TAF LEMG 242300Z 2500/2524 29010KT 9999 FEW030 TX14/2514Z TN07/2506Z"
    },
    {
      "icao": "LEVC",
      "alert": "OK",
      "vis_m": 9999,
      "fzfg": false,
      "metar_trigger": false,
      "taf_trigger": false,
      "metar": "METAR LEVC 250030Z 33006KT 9999 FEW067 08/03 Q1007 NOSIG",
      "taf": "TAF LEVC 242300Z 2500/2524 27007KT 9999 FEW020 TX12/2512Z TN04/2506Z"
    },
    {
      "icao": "LEXJ",
      "alert": "OK",
      "vis_m": 7000,
      "fzfg": false,
      "metar_trigger": false,
      "taf_trigger": false,
      "metar": "METAR LEXJ 250030Z AUTO 25004KT 7000 SCT036 SCT042 OVC060 07/03 Q1015",
      "taf": "TAF LEXJ 242000Z 2421/2521 VRB03KT 9999 SCT015 BKN025 TX08/2515Z TN04/2507Z"
    },
    {
      "icao": "LEZG",
      "alert": "OK",
      "vis_m": 9999,
      "fzfg": false,
      "metar_trigger": false,
      "taf_trigger": false,
      "metar": "METAR LEZG 250030Z 28018KT 9999 SCT030 05/M00 Q1009 NOSIG",
      "taf": "TAF LEZG 242300Z 2500/2524 29020KT 9999 FEW080 TX06/2514Z TN03/2506Z"
    },
    {
      "icao": "LEZL",
      "alert": "OK",
      "vis_m": 9000,
      "fzfg": false,
      "metar_trigger": false,
      "taf_trigger": false,
      "metar": "METAR LEZL 250030Z AUTO 06001KT 9000 NSC 08/08 Q1008",
      "taf": "TAF LEZL 242000Z 2421/2521 VRB03KT 9999 FEW040 TX15/2515Z TN06/2507Z"
    },
    {
      "icao": "LFBD",
      "alert": "OK",
      "vis_m": 9999,
      "fzfg": false,
      "metar_trigger": false,
      "taf_trigger": false,
      "metar": "METAR LFBD 250030Z AUTO 03010KT 9999 OVC044 03/M02 Q1015 TEMPO BKN014",
      "taf": "TAF LFBD 242300Z 2500/2606 02010KT 9999 BKN040 TX04/2514Z TNM02/2508Z"
    },
    {
      "icao": "LFLL",
      "alert": "OK",
      "vis_m": 4200,
      "fzfg": false,
      "metar_trigger": false,
      "taf_trigger": false,
      "metar": "METAR LFLL 250030Z 30004KT 4200 -SN SCT002 OVC006 00/M00 Q1012 NOSIG",
      "taf": "TAF LFLL 242300Z 2500/2606 29004KT 9999 BKN008"
    },
    {
      "icao": "LFLS",
      "alert": "OK",
      "vis_m": 9999,
      "fzfg": false,
      "metar_trigger": false,
      "taf_trigger": false,
      "metar": "METAR LFLS 250030Z AUTO 24004KT 9999 BKN011 OVC022 00/M00 Q1011",
      "taf": "TAF LFLS 241940Z 2419/2515 34005KT 9999 OVC020"
    },
    {
      "icao": "LFMN",
      "alert": "OK",
      "vis_m": 9999,
      "fzfg": false,
      "metar_trigger": false,
      "taf_trigger": false,
      "metar": "METAR LFMN 250030Z 02016KT 9999 BKN060 BKN093 13/01 Q1008 NOSIG",
      "taf": "TAF LFMN 242000Z 2421/2603 03012KT 9999 BKN060"
    },
    {
      "icao": "LFOB",
      "alert": "OK",
      "vis_m": 9999,
      "fzfg": false,
      "metar_trigger": false,
      "taf_trigger": false,
      "metar": "METAR LFOB 250030Z AUTO 04021G32KT 9999 SCT022 BKN047 OVC056 M01/M05 Q1022 NOSIG",
      "taf": "TAF LFOB 242300Z 2500/2524 04015G25KT 9999 BKN020"
    },
    {
      "icao": "LFPO",
      "alert": "OK",
      "vis_m": 9999,
      "fzfg": false,
      "metar_trigger": false,
      "taf_trigger": false,
      "metar": "METAR LFPO 250030Z 04017KT 9999 BKN036 00/M06 Q1020 NOSIG",
      "taf": "TAF LFPO 242300Z 2500/2606 06015G25KT 9999 BKN030"
    },
    {
      "icao": "LFSB",
      "alert": "OK",
      "vis_m": 9999,
      "fzfg": false,
      "metar_trigger": false,
      "taf_trigger": false,
      "metar": "METAR LFSB 250030Z AUTO 36006KT 9999 OVC029 01/M02 Q1016 NOSIG",
      "taf": "TAF LFSB 242300Z 2500/2524 35007KT 9999 FEW020 BKN030"
    },
    {
      "icao": "LGAV",
      "alert": "OK",
      "vis_m": 9999,
      "fzfg": false,
      "metar_trigger": false,
      "taf_trigger": false,
      "metar": "METAR LGAV 250020Z 26004KT 9999 FEW018 SCT030 11/09 Q1016 NOSIG",
      "taf": "TAF LGAV 242300Z 2500/2524 18010KT 9999 FEW015 BKN025 BKN070"
    },
    {
      "icao": "LGTS",
      "alert": "OK",
      "vis_m": 7000,
      "fzfg": false,
      "metar_trigger": false,
      "taf_trigger": false,
      "metar": "METAR LGTS 250020Z VRB02KT 7000 -RA SCT006 OVC020 11/11 Q1016 NOSIG",
      "taf": "TAF LGTS 242300Z 2500/2524 VRB05KT 8000 FEW012 BKN025"
    },
    {
      "icao": "LHBP",
      "alert": "OK",
      "vis_m": 9999,
      "fzfg": false,
      "metar_trigger": false,
      "taf_trigger": false,
      "metar": "METAR LHBP 250030Z 07009KT 040V100 9999 FEW030 OVC035 04/M03 Q1027 TEMPO 4000 -SN",
      "taf": "TAF LHBP 242315Z 2500/2524 07009KT 9999 BKN035 OVC050"
    },
    {
      "icao": "LHDC",
      "alert": "OK",
      "vis_m": 9999,
      "fzfg": false,
      "metar_trigger": false,
      "taf_trigger": false,
      "metar": "METAR LHDC 250015Z AUTO 07014KT 9999 -RA OVC029 03/00 Q1027",
      "taf": ""
    },
    {
      "icao": "LIBD",
      "alert": "OK",
      "vis_m": 9999,
      "fzfg": false,
      "metar_trigger": false,
      "taf_trigger": false,
      "metar": "METAR LIBD 250020Z 21008KT CAVOK 06/05 Q1013",
      "taf": "TAF LIBD 242300Z 2500/2524 VRB05KT CAVOK"
    },
    {
      "icao": "LIBG",
      "alert": "OK",
      "vis_m": null,
      "fzfg": false,
      "metar_trigger": false,
      "taf_trigger": false,
      "metar": "",
      "taf": "TAF LIBG 241700Z 2418/2503 VRB05KT 9999 FEW030"
    },
    {
      "icao": "LIBP",
      "alert": "OK",
      "vis_m": 9999,
      "fzfg": false,
      "metar_trigger": false,
      "taf_trigger": false,
      "metar": "METAR LIBP 250020Z AUTO 18005KT 9999 BKN100/// BKN150/// 08/06 Q1013",
      "taf": "TAF LIBP 242300Z 2500/2524 VRB05KT 9999 BKN060"
    },
    {
      "icao": "LIBR",
      "alert": "OK",
      "vis_m": 9999,
      "fzfg": false,
      "metar_trigger": false,
      "taf_trigger": false,
      "metar": "METAR LIBR 250020Z 21005KT CAVOK 11/09 Q1014",
      "taf": "TAF LIBR 242300Z 2500/2524 16005KT 9999 FEW040"
    },
    {
      "icao": "LICA",
      "alert": "OK",
      "vis_m": 9999,
      "fzfg": false,
      "metar_trigger": false,
      "taf_trigger": false,
      "metar": "METAR LICA 250020Z AUTO 06008KT 9999 NCD 08/06 Q1013",
      "taf": "TAF LICA 242300Z 2500/2524 07012KT CAVOK"
    },
    {
      "icao": "LICC",
      "alert": "OK",
      "vis_m": 9999,
      "fzfg": false,
      "metar_trigger": false,
      "taf_trigger": false,
      "metar": "METAR LICC 250020Z 23004KT 9999 SCT060 08/07 Q1013",
      "taf": "TAF LICC 242300Z 2500/2524 25008KT 9999 SCT030"
    },
    {
      "icao": "LICJ",
      "alert": "OK",
      "vis_m": 9999,
      "fzfg": false,
      "metar_trigger": false,
      "taf_trigger": false,
      "metar": "METAR LICJ 250020Z 18014KT CAVOK 14/06 Q1010",
      "taf": "TAF LICJ 242300Z 2500/2524 21015KT 9999 SCT040"
    },
    {
      "icao": "LIMC",
      "alert": "OK",
      "vis_m": 9999,
      "fzfg": false,
      "metar_trigger": false,
      "taf_trigger": false,
      "metar": "METAR LIMC 250020Z 35004KT 9999 -RA BKN040 05/03 Q1017 NOSIG",
      "taf": "TAF LIMC 242300Z 2500/2606 VRB05KT 4000 RA BKN014"
    },
    {
      "icao": "LIME",
      "alert": "OK",
      "vis_m": 9999,
      "fzfg": false,
      "metar_trigger": false,
      "taf_trigger": false,
      "metar": "METAR LIME 250020Z 25006KT 9999 -RA BKN025 05/05 Q1017 NOSIG",
      "taf": "TAF LIME 242300Z 2500/2524 VRB05KT 6000 SCT015 BKN030"
    },
    {
      "icao": "LIMF",
      "alert": "OK",
      "vis_m": 8000,
      "fzfg": false,
      "metar_trigger": false,
      "taf_trigger": false,
      "metar": "METAR LIMF 242350Z 32006KT 8000 -RA OVC030 05/03 Q1017",
      "taf": "TAF LIMF 242300Z 2500/2524 35006KT 4000 RA OVC020"
    },
    {
      "icao": "LIMJ",
      "alert": "OK",
      "vis_m": 9999,
      "fzfg": false,
      "metar_trigger": false,
      "taf_trigger": false,
      "metar": "METAR LIMJ 250020Z 03012KT 9999 SCT060 10/01 Q1012",
      "taf": "TAF LIMJ 242300Z 2500/2524 02014KT 9999 BKN060"
    },
    {
      "icao": "LIPE",
      "alert": "OK",
      "vis_m": 8000,
      "fzfg": false,
      "metar_trigger": false,
      "taf_trigger": false,
      "metar": "METAR LIPE 250020Z VRB02KT 8000 RA BKN010 07/05 Q1016",
      "taf": "TAF LIPE 242300Z 2500/2524 05012KT 8000 RA BKN008"
    },
    {
      "icao": "LIPH",
      "alert": "OK",
      "vis_m": 9999,
      "fzfg": false,
      "metar_trigger": false,
      "taf_trigger": false,
      "metar": "METAR LIPH 250020Z AUTO 06015G28KT 9999 RA OVC026/// 07/02 Q1019",
      "taf": "TAF LIPH 242300Z 2500/2524 05014KT 9999 BKN030"
    },
    {
      "icao": "LIPQ",
      "alert": "OK",
      "vis_m": 9999,
      "fzfg": false,
      "metar_trigger": false,
      "taf_trigger": false,
      "metar": "METAR LIPQ 250020Z AUTO 08012G22KT 9999 BKN068/// 08/M02 Q1019",
      "taf": "TAF LIPQ 242300Z 2500/2524 06020G33KT 9999 BKN050"
    },
    {
      "icao": "LIPR",
      "alert": "OK",
      "vis_m": 9000,
      "fzfg": false,
      "metar_trigger": false,
      "taf_trigger": false,
      "metar": "METAR LIPR 250020Z AUTO 05004KT 9000 -RA FEW027/// BKN044/// BKN054/// 10/09 Q1013",
      "taf": "TAF LIPR 242300Z 2500/2524 08015KT 8000 BKN020"
    },
    {
      "icao": "LIPX",
      "alert": "OK",
      "vis_m": 9999,
      "fzfg": false,
      "metar_trigger": false,
      "taf_trigger": false,
      "metar": "METAR LIPX 250020Z 07018G28KT 9999 -RA BKN045 BKN080 08/02 Q1017",
      "taf": "TAF LIPX 242300Z 2500/2524 08014KT 6000 BKN040"
    },
    {
      "icao": "LIPY",
      "alert": "OK",
      "vis_m": 9999,
      "fzfg": false,
      "metar_trigger": false,
      "taf_trigger": false,
      "metar": "METAR LIPY 250020Z AUTO 09006KT 050V130 9999 BKN032/// 12/08 Q1013",
      "taf": "TAF LIPY 242300Z 2500/2524 10015KT 9999 SCT050"
    },
    {
      "icao": "LIPZ",
      "alert": "OK",
      "vis_m": 9999,
      "fzfg": false,
      "metar_trigger": false,
      "taf_trigger": false,
      "metar": "METAR LIPZ 250020Z 05013KT 9999 -RA BKN040 06/02 Q1019 NOSIG",
      "taf": "TAF LIPZ 242300Z 2500/2606 07015KT 9999 BKN040"
    },
    {
      "icao": "LIRF",
      "alert": "OK",
      "vis_m": 9999,
      "fzfg": false,
      "metar_trigger": false,
      "taf_trigger": false,
      "metar": "METAR LIRF 250020Z 10013KT 9999 -SHRA SCT050 10/08 Q1010 NOSIG",
      "taf": "TAF LIRF 242300Z 2500/2606 10012KT 7000 RA BKN030"
    },
    {
      "icao": "LIRN",
      "alert": "OK",
      "vis_m": 9999,
      "fzfg": false,
      "metar_trigger": false,
      "taf_trigger": false,
      "metar": "METAR LIRN 250020Z 03004KT 9999 FEW040 10/07 Q1012 NOSIG",
      "taf": "TAF LIRN 242300Z 2500/2524 21010KT 7000 SCT020 BKN040"
    },
    {
      "icao": "LIRP",
      "alert": "OK",
      "vis_m": 9999,
      "fzfg": false,
      "metar_trigger": false,
      "taf_trigger": false,
      "metar": "METAR LIRP 250015Z 09014KT 9999 SCT040 SCT070 10/04 Q1010 NOSIG",
      "taf": "TAF LIRP 242300Z 2500/2524 07012KT 9999 SCT030 SCT070"
    },
    {
      "icao": "LIRZ",
      "alert": "OK",
      "vis_m": 9999,
      "fzfg": false,
      "metar_trigger": false,
      "taf_trigger": false,
      "metar": "METAR LIRZ 250020Z AUTO 35008KT 9999 OVC058/// 08/07 Q1011",
      "taf": "TAF LIRZ 242300Z 2500/2524 VRB06KT 9999 BKN050"
    },
    {
      "icao": "LJLJ",
      "alert": "OK",
      "vis_m": 7000,
      "fzfg": false,
      "metar_trigger": false,
      "taf_trigger": false,
      "metar": "METAR LJLJ 250030Z VRB02KT 7000 FEW003 SCT018 BKN055 01/00 Q1024 NOSIG",
      "taf": "TAF LJLJ 242300Z 2500/2600 VRB02KT 9999 SCT025 OVC050"
    },
    {
      "icao": "LKMT",
      "alert": "OK",
      "vis_m": 9999,
      "fzfg": false,
      "metar_trigger": false,
      "taf_trigger": false,
      "metar": "METAR LKMT 250030Z 03013KT 9999 OVC011 M05/M06 Q1033 NOSIG",
      "taf": "TAF LKMT 242300Z 2500/2524 04014KT 9999 BKN011 OVC015"
    },
    {
      "icao": "LKPR",
      "alert": "OK",
      "vis_m": 9999,
      "fzfg": false,
      "metar_trigger": false,
      "taf_trigger": false,
      "metar": "METAR LKPR 250030Z 07010KT 9999 FEW015 BKN026 BKN046 M04/M06 Q1030 NOSIG",
      "taf": "TAF LKPR 242300Z 2500/2606 06008KT 9999 BKN030"
    },
    {
      "icao": "LLBG",
      "alert": "OK",
      "vis_m": 9999,
      "fzfg": false,
      "metar_trigger": false,
      "taf_trigger": false,
      "metar": "METAR LLBG 250020Z VRB03KT CAVOK 14/07 Q1018 NOSIG",
      "taf": "TAF LLBG 242300Z 2500/2524 VRB04KT CAVOK"
    },
    {
      "icao": "LMML",
      "alert": "OK",
      "vis_m": 9999,
      "fzfg": false,
      "metar_trigger": false,
      "taf_trigger": false,
      "metar": "METAR LMML 250015Z 23012KT 9999 SCT029TCU 15/10 Q1013 NOSIG",
      "taf": "TAF LMML 242300Z 2500/2524 23015KT 9999 SCT030"
    },
    {
      "icao": "LOWW",
      "alert": "OK",
      "vis_m": 9999,
      "fzfg": false,
      "metar_trigger": false,
      "taf_trigger": false,
      "metar": "METAR LOWW 250020Z 35006KT 9999 OVC038 M01/M03 Q1029 NOSIG",
      "taf": "TAF LOWW 242315Z 2500/2606 01008KT 9999 BKN040 TXM01/2518Z TNM04/2606Z"
    },
    {
      "icao": "LPFR",
      "alert": "OK",
      "vis_m": 9999,
      "fzfg": false,
      "metar_trigger": false,
      "taf_trigger": false,
      "metar": "METAR LPFR 250030Z 31003KT 280V350 CAVOK 07/05 Q1008",
      "taf": "TAF LPFR 242300Z 2500/2524 VRB02KT CAVOK"
    },
    {
      "icao": "LPMA",
      "alert": "OK",
      "vis_m": 9999,
      "fzfg": false,
      "metar_trigger": false,
      "taf_trigger": false,
      "metar": "METAR LPMA 250030Z 35007KT 290V040 9999 -SHRA BKN015 15/11 Q1015",
      "taf": "TAF LPMA 242300Z 2500/2524 VRB05KT 9999 SCT015"
    },
    {
      "icao": "LPPR",
      "alert": "OK",
      "vis_m": 8000,
      "fzfg": false,
      "metar_trigger": false,
      "taf_trigger": false,
      "metar": "METAR LPPR 250030Z VRB01KT 8000 NSC 06/05 Q1010",
      "taf": "TAF LPPR 242300Z 2500/2524 04007KT CAVOK"
    },
    {
      "icao": "LPPS",
      "alert": "OK",
      "vis_m": 9999,
      "fzfg": false,
      "metar_trigger": false,
      "taf_trigger": false,
      "metar": "METAR LPPS 250030Z 33014KT 9999 -SHRA BKN014 16/11 Q1015",
      "taf": "TAF LPPS 242300Z 2500/2606 34015KT 9999 SCT015"
    },
    {
      "icao": "LPPT",
      "alert": "OK",
      "vis_m": 9999,
      "fzfg": false,
      "metar_trigger": false,
      "taf_trigger": false,
      "metar": "METAR LPPT 250030Z 30005KT CAVOK 09/05 Q1009",
      "taf": "TAF LPPT 242300Z 2500/2606 32007KT CAVOK"
    },
    {
      "icao": "LQBK",
      "alert": "OK",
      "vis_m": 4500,
      "fzfg": false,
      "metar_trigger": false,
      "taf_trigger": false,
      "metar": "METAR LQBK 250030Z 31006KT 4500 DZ BR OVC005 03/03 Q1023 NOSIG",
      "taf": ""
    },
    {
      "icao": "LQSA",
      "alert": "OK",
      "vis_m": 3500,
      "fzfg": false,
      "metar_trigger": false,
      "taf_trigger": false,
      "metar": "METAR LQSA 250030Z 29002KT 3500 -DZ BR OVC005 03/03 Q1020",
      "taf": "TAF LQSA 242300Z 2500/2524 29005KT 6000 BKN008 TX04/2513Z TNM01/2522Z"
    },
    {
      "icao": "LQTZ",
      "alert": "OK",
      "vis_m": 2300,
      "fzfg": false,
      "metar_trigger": false,
      "taf_trigger": false,
      "metar": "METAR LQTZ 250030Z 28004KT 2300 -DZ BR OVC002 03/03 Q1022",
      "taf": "TAF LQTZ 242300Z 2500/2524 04005KT 6000 BKN007 OVC015 TX04/2500Z TNM00/2522Z"
    },
    {
      "icao": "LRBC",
      "alert": "OK",
      "vis_m": 9999,
      "fzfg": false,
      "metar_trigger": false,
      "taf_trigger": false,
      "metar": "METAR LRBC 250030Z 02004KT 340V060 9999 OVC022 M01/M04 Q1035",
      "taf": "TAF LRBC 242300Z 2500/2509 VRB04KT 9999 OVC025"
    },
    {
      "icao": "LRBS",
      "alert": "OK",
      "vis_m": 9999,
      "fzfg": false,
      "metar_trigger": false,
      "taf_trigger": false,
      "metar": "METAR LRBS 250030Z 04019G33KT 010V070 9999 FEW014 BKN018 M00/M03 Q1030 NOSIG",
      "taf": "TAF LRBS 242300Z 2500/2524 05020G32KT 9999 BKN015"
    },
    {
      "icao": "LRBV",
      "alert": "OK",
      "vis_m": 9999,
      "fzfg": false,
      "metar_trigger": false,
      "taf_trigger": false,
      "metar": "METAR LRBV 250030Z AUTO 06018KT 9999 SG FEW033/// BKN054/// OVC066/// M01/M06 Q1028",
      "taf": "TAF LRBV 242000Z 2421/2506 06020KT 9999 BKN040"
    },
    {
      "icao": "LRCL",
      "alert": "OK",
      "vis_m": 9999,
      "fzfg": false,
      "metar_trigger": false,
      "taf_trigger": false,
      "metar": "METAR LRCL 250030Z COR 08003KT 9999 -RA OVC046 01/M01 Q1029",
      "taf": "TAF LRCL 242300Z 2500/2509 VRB04KT 9999 OVC040"
    },
    {
      "icao": "LRCV",
      "alert": "OK",
      "vis_m": 2600,
      "fzfg": false,
      "metar_trigger": false,
      "taf_trigger": false,
      "metar": "METAR LRCV 250030Z 07026KT 2600 -SN FEW005 BKN009 OVC013 00/00 Q1027",
      "taf": "TAF LRCV 242300Z 2500/2509 06025KT 3000 -SN SCT005 OVC010"
    },
    {
      "icao": "LRIA",
      "alert": "OK",
      "vis_m": 9999,
      "fzfg": false,
      "metar_trigger": false,
      "taf_trigger": false,
      "metar": "METAR LRIA 250030Z 03007KT 9999 BKN024 M05/M07 Q1037",
      "taf": "TAF LRIA 242300Z 2500/2509 04008KT 9999 BKN025"
    },
    {
      "icao": "LROP",
      "alert": "OK",
      "vis_m": 9999,
      "fzfg": false,
      "metar_trigger": false,
      "taf_trigger": false,
      "metar": "METAR LROP 250030Z 05026KT 9999 BKN024 M00/M04 Q1030 NOSIG",
      "taf": "TAF LROP 242300Z 2500/2524 06025KT 9999 BKN015"
    },
    {
      "icao": "LRSB",
      "alert": "OK",
      "vis_m": 9999,
      "fzfg": false,
      "metar_trigger": false,
      "taf_trigger": false,
      "metar": "METAR LRSB 250030Z 11007KT 9999 BKN022 01/M02 Q1027",
      "taf": "TAF LRSB 242300Z 2500/2524 10010KT 9999 SCT020 BKN050"
    },
    {
      "icao": "LRSM",
      "alert": "OK",
      "vis_m": 9999,
      "fzfg": false,
      "metar_trigger": false,
      "taf_trigger": false,
      "metar": "METAR LRSM 250030Z AUTO 10005KT 9999 OVC070/// 03/M01 Q1029",
      "taf": "TAF LRSM 241400Z 2415/2424 06005KT 9999 BKN045"
    },
    {
      "icao": "LRSV",
      "alert": "OK",
      "vis_m": 6000,
      "fzfg": false,
      "metar_trigger": false,
      "taf_trigger": false,
      "metar": "METAR LRSV 250030Z 06007KT 6000 OVC003 M05/M06 Q1035",
      "taf": "TAF LRSV 242300Z 2500/2509 09008KT 9999 BKN010 OVC020"
    },
    {
      "icao": "LRTM",
      "alert": "OK",
      "vis_m": 9999,
      "fzfg": false,
      "metar_trigger": false,
      "taf_trigger": false,
      "metar": "METAR LRTM 250030Z AUTO VRB01KT 9999 SCT050/// BKN065/// 01/M01 Q1029",
      "taf": "TAF LRTM 241400Z 2415/2424 08006KT 7000 SCT010 OVC030"
    },
    {
      "icao": "LRTR",
      "alert": "OK",
      "vis_m": 9999,
      "fzfg": false,
      "metar_trigger": false,
      "taf_trigger": false,
      "metar": "METAR LRTR 250030Z VRB01KT 9999 -RA SCT048 04/04 Q1025",
      "taf": "TAF LRTR 242300Z 2500/2524 07006KT 9999 SCT045"
    },
    {
      "icao": "LTAC",
      "alert": "OK",
      "vis_m": 3700,
      "fzfg": false,
      "metar_trigger": false,
      "taf_trigger": false,
      "metar": "METAR LTAC 250020Z 18002KT 3700 1800SW BCFG FEW003 BKN200 00/M00 Q1023 BECMG 1200 BKN007 RMK RWY21C 19003KT RWY03L 00000KT RWY21R VRB01KT RWY03R VRB01KT RWY21L 00000KT",
      "taf": "TAF LTAC 242240Z 2500/2524 VRB02KT 1200 BCFG BKN007"
    },
    {
      "icao": "LTFM",
      "alert": "OK",
      "vis_m": 9999,
      "fzfg": false,
      "metar_trigger": false,
      "taf_trigger": false,
      "metar": "METAR LTFM 250020Z 08015KT 9999 SCT013 SCT040 BKN120 12/10 Q1021 NOSIG RMK RWY17L 08016KT RWY34L 07017KT RWY16R 08016KT RWY36 08015KT RWY18 09016KT",
      "taf": ""
    },
    {
      "icao": "LUKK",
      "alert": "OK",
      "vis_m": 9999,
      "fzfg": false,
      "metar_trigger": false,
      "taf_trigger": false,
      "metar": "METAR LUKK 250030Z 08007KT 050V110 9999 SCT016 OVC028 M06/M09 Q1037 NOSIG",
      "taf": "TAF LUKK 242310Z 2500/2524 06009KT 9999 SCT025"
    },
    {
      "icao": "LWOH",
      "alert": "OK",
      "vis_m": null,
      "fzfg": false,
      "metar_trigger": false,
      "taf_trigger": false,
      "metar": "",
      "taf": "TAF LWOH 242310Z 2500/2524 33010KT 9999 FEW020 BKN040"
    },
    {
      "icao": "LWSK",
      "alert": "OK",
      "vis_m": 6000,
      "fzfg": false,
      "metar_trigger": false,
      "taf_trigger": false,
      "metar": "METAR LWSK 250030Z 00000KT 6000 -RA SCT010 OVC030 07/06 Q1018 NOSIG",
      "taf": "TAF LWSK 242310Z 2500/2524 VRB02KT 6000 SCT020 OVC040"
    },
    {
      "icao": "LYBE",
      "alert": "OK",
      "vis_m": 9999,
      "fzfg": false,
      "metar_trigger": false,
      "taf_trigger": false,
      "metar": "METAR LYBE 250030Z 11015KT 9999 BKN045 04/M01 Q1024 NOSIG",
      "taf": "TAF LYBE 242300Z 2500/2524 10016KT 9999 SCT012 BKN030 TX04/2500Z TNM00/2524Z"
    },
    {
      "icao": "LYNI",
      "alert": "OK",
      "vis_m": 9999,
      "fzfg": false,
      "metar_trigger": false,
      "taf_trigger": false,
      "metar": "METAR LYNI 250030Z 03006KT 330V080 9999 -RA FEW015 BKN025 OVC070 04/00 Q1022 NOSIG",
      "taf": "TAF LYNI 242300Z 2500/2524 05012KT 9999 SCT010 BKN022 TX04/2500Z TNM00/2524Z"
    },
    {
      "icao": "LYPG",
      "alert": "OK",
      "vis_m": 200,
      "fzfg": false,
      "metar_trigger": false,
      "taf_trigger": false,
      "metar": "METAR LYPG 250030Z 29002KT 0200 R18/0400U R36/0250N FG SCT004 05/05 Q1017 NOSIG",
      "taf": "TAF LYPG 242300Z 2500/2524 VRB02KT 0300 FG FEW007 TX12/2513Z TN03/2505Z"
    },
    {
      "icao": "LZIB",
      "alert": "OK",
      "vis_m": 9999,
      "fzfg": false,
      "metar_trigger": false,
      "taf_trigger": false,
      "metar": "METAR LZIB 250030Z 03007KT 9999 BKN041 01/M03 Q1028 NOSIG",
      "taf": "TAF LZIB 242315Z 2500/2600 04008KT 9999 BKN040"
    },
    {
      "icao": "LZKZ",
      "alert": "OK",
      "vis_m": 9999,
      "fzfg": false,
      "metar_trigger": false,
      "taf_trigger": false,
      "metar": "METAR LZKZ 250030Z 36019KT 9999 OVC045 M01/M05 Q1030 NOSIG",
      "taf": "TAF LZKZ 242315Z 2500/2600 01018KT 9999 BKN045"
    },
    {
      "icao": "LZTT",
      "alert": "OK",
      "vis_m": 9999,
      "fzfg": false,
      "metar_trigger": false,
      "taf_trigger": false,
      "metar": "METAR LZTT 250030Z 05007KT 9999 OVC010 M06/M08 Q1029",
      "taf": "TAF LZTT 242315Z 2500/2600 15004KT 9999 BKN018"
    },
    {
      "icao": "OEJN",
      "alert": "OK",
      "vis_m": 8000,
      "fzfg": false,
      "metar_trigger": false,
      "taf_trigger": false,
      "metar": "METAR OEJN 250000Z 34003KT 8000 NSC 25/24 Q1012 NOSIG",
      "taf": "TAF OEJN 242300Z 2500/2606 01005KT 8000 SCT040"
    },
    {
      "icao": "OEMA",
      "alert": "OK",
      "vis_m": 9999,
      "fzfg": false,
      "metar_trigger": false,
      "taf_trigger": false,
      "metar": "METAR OEMA 250000Z 03011KT 9999 SCT045 20/08 Q1018 NOSIG",
      "taf": "TAF OEMA 242300Z 2500/2606 08008KT 7000 SCT045"
    },
    {
      "icao": "OJAI",
      "alert": "OK",
      "vis_m": 5000,
      "fzfg": false,
      "metar_trigger": false,
      "taf_trigger": false,
      "metar": "METAR OJAI 250000Z 09010KT 5000 HZ NSC 07/04 Q1021 NOSIG",
      "taf": "TAF OJAI 242300Z 2500/2606 14010KT 5000 HZ NSC"
    },
    {
      "icao": "OMAA",
      "alert": "OK",
      "vis_m": 9999,
      "fzfg": false,
      "metar_trigger": false,
      "taf_trigger": false,
      "metar": "METAR OMAA 250000Z 21003KT CAVOK 18/14 Q1016 NOSIG",
      "taf": "TAF OMAA 242300Z 2500/2606 VRB02KT 8000 FEW035"
    },
    {
      "icao": "OMDB",
      "alert": "OK",
      "vis_m": 9999,
      "fzfg": false,
      "metar_trigger": false,
      "taf_trigger": false,
      "metar": "METAR OMDB 250030Z 18005KT 9999 FEW040 18/13 Q1016 NOSIG",
      "taf": "TAF OMDB 242300Z 2500/2606 18005KT 8000 NSC"
    },
    {
      "icao": "UAAA",
      "alert": "CRITICAL",
      "vis_m": 150,
      "fzfg": true,
      "metar_trigger": true,
      "taf_trigger": false,
      "metar": "METAR UAAA 250030Z 19001MPS 0150 R23L/0650D FZFG VV001 M07/M09 Q1020 NOSIG RMK QBB050",
      "taf": "TAF UAAA 242302Z 2500/2524 22002MPS 0600 FZFG VV003 TX00/2509Z TNM09/2501Z"
    },
    {
      "icao": "UBBB",
      "alert": "OK",
      "vis_m": 6000,
      "fzfg": false,
      "metar_trigger": false,
      "taf_trigger": false,
      "metar": "METAR UBBB 250030Z 33020G30KT 6000 -SHRA SCT005 SCT035CB OVC035 08/07 Q1022 NOSIG",
      "taf": "TAF UBBB 242309Z 2500/2524 32020G30KT 9999 SCT010 BKN030 TX08/2510Z TN06/2501Z"
    },
    {
      "icao": "UDSG",
      "alert": "OK",
      "vis_m": 7000,
      "fzfg": false,
      "metar_trigger": false,
      "taf_trigger": false,
      "metar": "METAR UDSG 250030Z 06001KT 7000 SCT049 M05/M06 Q1022 NOSIG",
      "taf": "TAF UDSG 242300Z 2500/2524 VRB06KT 9999 SCT050"
    },
    {
      "icao": "UDYZ",
      "alert": "OK",
      "vis_m": 3800,
      "fzfg": false,
      "metar_trigger": false,
      "taf_trigger": false,
      "metar": "METAR UDYZ 250030Z 24003KT 3800 BR NSC M04/M07 Q1023 NOSIG",
      "taf": "TAF UDYZ 242300Z 2500/2524 14006KT 3500 BR NSC"
    },
    {
      "icao": "UGKO",
      "alert": "OK",
      "vis_m": 1600,
      "fzfg": false,
      "metar_trigger": false,
      "taf_trigger": false,
      "metar": "METAR UGKO 250030Z 21003KT 1600 BR SCT046 BKN053 07/06 Q1023 NOSIG",
      "taf": "TAF UGKO 242300Z 2500/2524 26007KT 9999 SCT023 BKN050 TX08/2511Z TN04/2503Z"
    }
  ]
}