{
  "ts_utc": "2026-05-09T23:29:33Z",
  "threshold_m": 150,
  "source": "stations_override.txt (ICAO list) + aviationweather.gov (METAR/TAF raw)",
  "station_count": 159,
  "stations": [
    {
      "icao": "BIKF",
      "alert": "OK",
      "vis_m": 9999,
      "fzfg": false,
      "metar_trigger": false,
      "taf_trigger": false,
      "metar": "METAR BIKF 092300Z 28004KT 9999 BKN008 OVC031 06/06 Q1023",
      "taf": "TAF BIKF 092248Z 1000/1100 27005KT 9999 BKN008 OVC014 TX07/1013Z TN05/1006Z"
    },
    {
      "icao": "BKPR",
      "alert": "OK",
      "vis_m": null,
      "fzfg": false,
      "metar_trigger": false,
      "taf_trigger": false,
      "metar": "",
      "taf": ""
    },
    {
      "icao": "EBCI",
      "alert": "OK",
      "vis_m": 9999,
      "fzfg": false,
      "metar_trigger": false,
      "taf_trigger": false,
      "metar": "METAR EBCI 092320Z 02006KT CAVOK 13/07 Q1015 NOSIG",
      "taf": "TAF EBCI 092301Z 1000/1106 04007KT CAVOK"
    },
    {
      "icao": "EDDB",
      "alert": "OK",
      "vis_m": 9999,
      "fzfg": false,
      "metar_trigger": false,
      "taf_trigger": false,
      "metar": "METAR EDDB 092320Z AUTO 10002KT CAVOK 07/06 Q1018 NOSIG",
      "taf": "TAF EDDB 092300Z 1000/1024 10004KT CAVOK"
    },
    {
      "icao": "EDDH",
      "alert": "OK",
      "vis_m": 9999,
      "fzfg": false,
      "metar_trigger": false,
      "taf_trigger": false,
      "metar": "METAR EDDH 092320Z AUTO VRB02KT CAVOK 11/06 Q1017 NOSIG",
      "taf": "TAF EDDH 092300Z 1000/1106 VRB03KT 9999 SCT040"
    },
    {
      "icao": "EDDK",
      "alert": "OK",
      "vis_m": 9999,
      "fzfg": false,
      "metar_trigger": false,
      "taf_trigger": false,
      "metar": "METAR EDDK 092320Z AUTO VRB02KT CAVOK 08/07 Q1015 NOSIG",
      "taf": "TAF EDDK 092300Z 1000/1106 VRB03KT CAVOK"
    },
    {
      "icao": "EDDN",
      "alert": "OK",
      "vis_m": 9999,
      "fzfg": false,
      "metar_trigger": false,
      "taf_trigger": false,
      "metar": "METAR EDDN 092320Z AUTO 11003KT 030V180 CAVOK 13/07 Q1015",
      "taf": "TAF EDDN 092300Z 1000/1024 10004KT CAVOK"
    },
    {
      "icao": "EDDS",
      "alert": "OK",
      "vis_m": 9999,
      "fzfg": false,
      "metar_trigger": false,
      "taf_trigger": false,
      "metar": "METAR EDDS 092320Z AUTO 32003KT CAVOK 13/09 Q1013",
      "taf": "TAF EDDS 092300Z 1000/1024 VRB03KT CAVOK"
    },
    {
      "icao": "EDFH",
      "alert": "OK",
      "vis_m": 9999,
      "fzfg": false,
      "metar_trigger": false,
      "taf_trigger": false,
      "metar": "METAR EDFH 092320Z 11003KT 060V160 CAVOK 12/06 Q1015",
      "taf": "TAF EDFH 092300Z 1000/1024 10005KT CAVOK"
    },
    {
      "icao": "EDJA",
      "alert": "OK",
      "vis_m": 9999,
      "fzfg": false,
      "metar_trigger": false,
      "taf_trigger": false,
      "metar": "METAR EDJA 092320Z AUTO 05005KT 9999 // NCD 10/06 Q1014",
      "taf": "TAF EDJA 091700Z 0918/1003 06005KT CAVOK"
    },
    {
      "icao": "EDLW",
      "alert": "OK",
      "vis_m": 9999,
      "fzfg": false,
      "metar_trigger": false,
      "taf_trigger": false,
      "metar": "METAR EDLW 092320Z AUTO 20004KT 9999 // FEW070/// 09/08 Q1015",
      "taf": "TAF EDLW 091700Z 0918/1018 07004KT CAVOK"
    },
    {
      "icao": "EDNY",
      "alert": "OK",
      "vis_m": 9999,
      "fzfg": false,
      "metar_trigger": false,
      "taf_trigger": false,
      "metar": "METAR EDNY 092320Z AUTO 05004KT 9999 // NCD 11/07 Q1012",
      "taf": "TAF EDNY 091700Z 0918/1003 03004KT CAVOK"
    },
    {
      "icao": "EDSB",
      "alert": "OK",
      "vis_m": 9999,
      "fzfg": false,
      "metar_trigger": false,
      "taf_trigger": false,
      "metar": "METAR EDSB 092320Z AUTO 03006KT 9999 // NCD 15/11 Q1013",
      "taf": "TAF EDSB 092300Z 1000/1024 02006KT CAVOK"
    },
    {
      "icao": "EETN",
      "alert": "OK",
      "vis_m": 9999,
      "fzfg": false,
      "metar_trigger": false,
      "taf_trigger": false,
      "metar": "METAR EETN 092320Z 08004KT CAVOK 05/M03 Q1022",
      "taf": "TAF EETN 091730Z 0918/1018 06012KT CAVOK"
    },
    {
      "icao": "EFTU",
      "alert": "OK",
      "vis_m": 9999,
      "fzfg": false,
      "metar_trigger": false,
      "taf_trigger": false,
      "metar": "METAR EFTU 092320Z AUTO 12006KT CAVOK 02/M07 Q1021",
      "taf": "TAF EFTU 092031Z 0921/1021 13005KT CAVOK"
    },
    {
      "icao": "EGBB",
      "alert": "OK",
      "vis_m": 9999,
      "fzfg": false,
      "metar_trigger": false,
      "taf_trigger": false,
      "metar": "METAR EGBB 092320Z 02010KT 9999 BKN011 10/07 Q1020",
      "taf": "TAF EGBB 092258Z 1000/1024 04010KT 9999 FEW045"
    },
    {
      "icao": "EGGP",
      "alert": "OK",
      "vis_m": 9999,
      "fzfg": false,
      "metar_trigger": false,
      "taf_trigger": false,
      "metar": "METAR EGGP 092320Z 06010KT CAVOK 08/04 Q1023",
      "taf": "TAF EGGP 092255Z 1000/1024 05010KT 9999 SCT035"
    },
    {
      "icao": "EGGW",
      "alert": "OK",
      "vis_m": 9999,
      "fzfg": false,
      "metar_trigger": false,
      "taf_trigger": false,
      "metar": "METAR EGGW 092320Z AUTO 02013KT 9999 NCD 09/07 Q1019",
      "taf": "TAF EGGW 092259Z 1000/1024 03009KT 9999 FEW020"
    },
    {
      "icao": "EGKK",
      "alert": "OK",
      "vis_m": 9999,
      "fzfg": false,
      "metar_trigger": false,
      "taf_trigger": false,
      "metar": "METAR EGKK 092320Z COR 07004KT CAVOK 10/04 Q1017",
      "taf": "TAF EGKK 092256Z 1000/1106 03010KT CAVOK"
    },
    {
      "icao": "EGNM",
      "alert": "OK",
      "vis_m": 9999,
      "fzfg": false,
      "metar_trigger": false,
      "taf_trigger": false,
      "metar": "METAR EGNM 092320Z 02015KT 9999 BKN045 06/04 Q1022",
      "taf": "TAF EGNM 092258Z 1000/1024 02015KT 9999 FEW010 SCT035"
    },
    {
      "icao": "EGPD",
      "alert": "OK",
      "vis_m": 9999,
      "fzfg": false,
      "metar_trigger": false,
      "taf_trigger": false,
      "metar": "METAR EGPD 092320Z COR AUTO 35001KT 9999 NCD 03/M00 Q1025 NOSIG",
      "taf": "TAF EGPD 092254Z 1000/1024 26005KT 9999 FEW020 SCT040"
    },
    {
      "icao": "EGPF",
      "alert": "OK",
      "vis_m": 9999,
      "fzfg": false,
      "metar_trigger": false,
      "taf_trigger": false,
      "metar": "METAR EGPF 092320Z AUTO 35002KT 9999 NCD 07/05 Q1026",
      "taf": "TAF EGPF 092255Z 1000/1024 VRB03KT 9999 SCT030"
    },
    {
      "icao": "EHBK",
      "alert": "OK",
      "vis_m": 9999,
      "fzfg": false,
      "metar_trigger": false,
      "taf_trigger": false,
      "metar": "METAR EHBK 092325Z AUTO 05006KT 9999 NSC 11/07 Q1015",
      "taf": "TAF EHBK 092312Z 1000/1106 06005KT CAVOK"
    },
    {
      "icao": "EHEH",
      "alert": "OK",
      "vis_m": 9999,
      "fzfg": false,
      "metar_trigger": false,
      "taf_trigger": false,
      "metar": "METAR EHEH 092255Z AUTO 01003KT 9999 NCD 09/07 Q1016 BLU",
      "taf": "TAF EHEH 091720Z 0918/1024 03007KT CAVOK"
    },
    {
      "icao": "EKBI",
      "alert": "OK",
      "vis_m": 9999,
      "fzfg": false,
      "metar_trigger": false,
      "taf_trigger": false,
      "metar": "METAR EKBI 092320Z AUTO 08003KT 9999 NCD 03/02 Q1018",
      "taf": "TAF EKBI 092327Z 1000/1024 11006KT CAVOK"
    },
    {
      "icao": "EKCH",
      "alert": "OK",
      "vis_m": 9999,
      "fzfg": false,
      "metar_trigger": false,
      "taf_trigger": false,
      "metar": "METAR EKCH 092320Z AUTO 11004KT 9999 FEW063/// 08/06 Q1020 NOSIG",
      "taf": "TAF EKCH 092327Z 1000/1024 16006KT CAVOK"
    },
    {
      "icao": "ENAL",
      "alert": "OK",
      "vis_m": 9999,
      "fzfg": false,
      "metar_trigger": false,
      "taf_trigger": false,
      "metar": "METAR ENAL 092320Z AUTO 23016KT 9999 BKN015/// BKN020/// 06/03 Q1016",
      "taf": "TAF ENAL 092000Z 0921/1006 23018KT 9999 FEW012 SCT020"
    },
    {
      "icao": "ENBR",
      "alert": "OK",
      "vis_m": 9999,
      "fzfg": false,
      "metar_trigger": false,
      "taf_trigger": false,
      "metar": "METAR ENBR 092320Z 11003KT 9999 -RA BKN038 04/02 Q1020 RMK WIND 1200FT 31009KT",
      "taf": "TAF ENBR 091700Z 0918/1018 26005KT 9999 -SHRA FEW018 BKN035"
    },
    {
      "icao": "ENGM",
      "alert": "OK",
      "vis_m": 9999,
      "fzfg": false,
      "metar_trigger": false,
      "taf_trigger": false,
      "metar": "METAR ENGM 092320Z 21002KT CAVOK 06/M02 Q1016",
      "taf": "TAF ENGM 091700Z 0918/1018 20015KT CAVOK"
    },
    {
      "icao": "ENHD",
      "alert": "OK",
      "vis_m": 9999,
      "fzfg": false,
      "metar_trigger": false,
      "taf_trigger": false,
      "metar": "METAR ENHD 092320Z AUTO VRB01KT 9999 NCD 04/02 Q1020",
      "taf": "TAF ENHD 091400Z 0915/0922 33005KT 9999 -RA FEW008 BKN020"
    },
    {
      "icao": "ENTC",
      "alert": "OK",
      "vis_m": 9999,
      "fzfg": false,
      "metar_trigger": false,
      "taf_trigger": false,
      "metar": "METAR ENTC 092320Z AUTO VRB02KT 9999 NCD 07/M00 Q1011 RMK WIND 2600FT VRB02KT",
      "taf": "TAF ENTC 091700Z 0918/1018 02006KT 9999 SCT060"
    },
    {
      "icao": "ENTO",
      "alert": "OK",
      "vis_m": 9999,
      "fzfg": false,
      "metar_trigger": false,
      "taf_trigger": false,
      "metar": "METAR ENTO 092320Z AUTO 21003KT 9999 SCT047/// 07/03 Q1017",
      "taf": "TAF ENTO 091700Z 0918/1018 20010KT CAVOK"
    },
    {
      "icao": "ENVA",
      "alert": "OK",
      "vis_m": 9999,
      "fzfg": false,
      "metar_trigger": false,
      "taf_trigger": false,
      "metar": "METAR ENVA 092320Z 11003KT 030V130 CAVOK 05/05 Q1015 RMK WIND 670FT 16004KT",
      "taf": "TAF ENVA 091700Z 0918/1018 13005KT 9999 -RA SCT020 BKN035"
    },
    {
      "icao": "ENZV",
      "alert": "OK",
      "vis_m": 9999,
      "fzfg": false,
      "metar_trigger": false,
      "taf_trigger": false,
      "metar": "METAR ENZV 092320Z 32002KT 9999 FEW011 SCT025 05/03 Q1020",
      "taf": "TAF ENZV 091700Z 0918/1018 34005KT 9999 FEW010 BKN025"
    },
    {
      "icao": "EPGD",
      "alert": "OK",
      "vis_m": 9999,
      "fzfg": false,
      "metar_trigger": false,
      "taf_trigger": false,
      "metar": "METAR EPGD 092300Z VRB01KT CAVOK 04/00 Q1020",
      "taf": "TAF EPGD 091730Z 0918/1018 04010KT CAVOK"
    },
    {
      "icao": "EPKK",
      "alert": "OK",
      "vis_m": 9999,
      "fzfg": false,
      "metar_trigger": false,
      "taf_trigger": false,
      "metar": "METAR EPKK 092300Z 03003KT CAVOK 06/05 Q1019",
      "taf": "TAF EPKK 092030Z 0921/1021 04005KT 9999 BKN050"
    },
    {
      "icao": "EPKT",
      "alert": "OK",
      "vis_m": 2500,
      "fzfg": false,
      "metar_trigger": false,
      "taf_trigger": false,
      "metar": "METAR EPKT 092300Z VRB01KT 2500 0400N BCFG BR NSC 02/01 Q1019",
      "taf": ""
    },
    {
      "icao": "EPLB",
      "alert": "OK",
      "vis_m": 9999,
      "fzfg": false,
      "metar_trigger": false,
      "taf_trigger": false,
      "metar": "METAR EPLB 092300Z 30004KT CAVOK 04/03 Q1019",
      "taf": "TAF EPLB 091730Z 0918/1018 33005KT 9999 BKN040"
    },
    {
      "icao": "EPMO",
      "alert": "OK",
      "vis_m": 9999,
      "fzfg": false,
      "metar_trigger": false,
      "taf_trigger": false,
      "metar": "METAR EPMO 092300Z VRB01KT CAVOK 05/04 Q1020",
      "taf": "TAF EPMO 091730Z 0918/1018 06010KT CAVOK"
    },
    {
      "icao": "EPPO",
      "alert": "OK",
      "vis_m": 9999,
      "fzfg": false,
      "metar_trigger": false,
      "taf_trigger": false,
      "metar": "METAR EPPO 092300Z 01002KT CAVOK 06/04 Q1019",
      "taf": "TAF EPPO 091730Z 0918/1018 VRB02KT CAVOK"
    },
    {
      "icao": "EPRA",
      "alert": "OK",
      "vis_m": 9999,
      "fzfg": false,
      "metar_trigger": false,
      "taf_trigger": false,
      "metar": "METAR EPRA 092300Z 19003KT CAVOK 05/03 Q1020",
      "taf": "TAF EPRA 092030Z 0921/1006 VRB02KT CAVOK"
    },
    {
      "icao": "EPRZ",
      "alert": "OK",
      "vis_m": 9999,
      "fzfg": false,
      "metar_trigger": false,
      "taf_trigger": false,
      "metar": "METAR EPRZ 092300Z 31002KT CAVOK 07/06 Q1020",
      "taf": "TAF EPRZ 091730Z 0918/1018 34007KT 9999 BKN047"
    },
    {
      "icao": "EPSC",
      "alert": "OK",
      "vis_m": 9999,
      "fzfg": false,
      "metar_trigger": false,
      "taf_trigger": false,
      "metar": "METAR EPSC 092300Z VRB01KT CAVOK 07/02 Q1019",
      "taf": "TAF EPSC 091730Z 0918/1018 03007KT CAVOK"
    },
    {
      "icao": "EPSY",
      "alert": "OK",
      "vis_m": 9999,
      "fzfg": false,
      "metar_trigger": false,
      "taf_trigger": false,
      "metar": "METAR EPSY 092300Z VRB02KT CAVOK M01/M01 Q1020",
      "taf": "TAF EPSY 092030Z 0921/1006 VRB02KT CAVOK"
    },
    {
      "icao": "EPWA",
      "alert": "OK",
      "vis_m": 9999,
      "fzfg": false,
      "metar_trigger": false,
      "taf_trigger": false,
      "metar": "METAR EPWA 092300Z 16002KT CAVOK 05/04 Q1020 NOSIG",
      "taf": "TAF EPWA 092030Z 0921/1021 VRB02KT CAVOK"
    },
    {
      "icao": "EPWR",
      "alert": "OK",
      "vis_m": 9999,
      "fzfg": false,
      "metar_trigger": false,
      "taf_trigger": false,
      "metar": "METAR EPWR 092300Z VRB01KT 9999 MIFG NSC 07/06 Q1019",
      "taf": "TAF EPWR 092030Z 0921/1021 13004KT CAVOK"
    },
    {
      "icao": "ESGG",
      "alert": "OK",
      "vis_m": 9999,
      "fzfg": false,
      "metar_trigger": false,
      "taf_trigger": false,
      "metar": "METAR ESGG 092320Z 16006KT CAVOK 05/M01 Q1018",
      "taf": "TAF ESGG 092030Z 0921/1021 16003KT CAVOK"
    },
    {
      "icao": "ESKN",
      "alert": "OK",
      "vis_m": 9999,
      "fzfg": false,
      "metar_trigger": false,
      "taf_trigger": false,
      "metar": "METAR ESKN 092320Z 13007KT CAVOK 06/03 Q1020",
      "taf": "TAF ESKN 092030Z 0921/1021 11003KT CAVOK"
    },
    {
      "icao": "ESMS",
      "alert": "OK",
      "vis_m": 9999,
      "fzfg": false,
      "metar_trigger": false,
      "taf_trigger": false,
      "metar": "METAR ESMS 092320Z 08003KT CAVOK 03/00 Q1019",
      "taf": "TAF ESMS 092027Z 0921/1021 14010KT CAVOK"
    },
    {
      "icao": "ESSA",
      "alert": "OK",
      "vis_m": 9999,
      "fzfg": false,
      "metar_trigger": false,
      "taf_trigger": false,
      "metar": "METAR ESSA 092320Z 15004KT CAVOK 03/M00 Q1020 NOSIG",
      "taf": "TAF ESSA 092030Z 0921/1021 14007KT CAVOK"
    },
    {
      "icao": "EYKA",
      "alert": "OK",
      "vis_m": 8000,
      "fzfg": false,
      "metar_trigger": false,
      "taf_trigger": false,
      "metar": "METAR EYKA 092320Z 33004KT 300V360 8000 OVC005 06/05 Q1017",
      "taf": "TAF EYKA 092300Z 1000/1024 VRB03KT 5000 BR OVC005"
    },
    {
      "icao": "EYPA",
      "alert": "OK",
      "vis_m": 9999,
      "fzfg": false,
      "metar_trigger": false,
      "taf_trigger": false,
      "metar": "METAR EYPA 092320Z AUTO 00000KT 9999 NCD 03/01 Q1020",
      "taf": "TAF EYPA 092300Z 1000/1024 VRB03KT 9000 NSC"
    },
    {
      "icao": "EYVI",
      "alert": "OK",
      "vis_m": 4500,
      "fzfg": false,
      "metar_trigger": false,
      "taf_trigger": false,
      "metar": "METAR EYVI 092320Z 33005KT 4500 BR OVC002 06/05 Q1016 NOSIG",
      "taf": "TAF EYVI 092300Z 1000/1024 VRB03KT 3000 BR OVC002"
    },
    {
      "icao": "GCFV",
      "alert": "OK",
      "vis_m": 9999,
      "fzfg": false,
      "metar_trigger": false,
      "taf_trigger": false,
      "metar": "METAR GCFV 092300Z AUTO 35006KT CAVOK 20/14 Q1018",
      "taf": "TAF GCFV 092000Z 0921/1021 30005KT 9999 SCT040 TX24/1014Z TN17/1006Z"
    },
    {
      "icao": "GCLP",
      "alert": "OK",
      "vis_m": 9999,
      "fzfg": false,
      "metar_trigger": false,
      "taf_trigger": false,
      "metar": "METAR GCLP 092300Z 34006KT 300V010 9999 SCT030 BKN050 20/15 Q1018 NOSIG",
      "taf": "TAF GCLP 092000Z 0921/1021 36007KT 9999 SCT020 BKN035 TX23/1014Z TN17/1006Z"
    },
    {
      "icao": "GCTS",
      "alert": "OK",
      "vis_m": 9999,
      "fzfg": false,
      "metar_trigger": false,
      "taf_trigger": false,
      "metar": "METAR GCTS 092300Z 06009KT 9999 FEW030 BKN045 20/13 Q1018 NOSIG",
      "taf": "TAF GCTS 092000Z 0921/1021 04006KT 9999 SCT040 TX25/1014Z TN18/1006Z"
    },
    {
      "icao": "GMAD",
      "alert": "OK",
      "vis_m": 9999,
      "fzfg": false,
      "metar_trigger": false,
      "taf_trigger": false,
      "metar": "METAR GMAD 092300Z 18006KT 140V210 9999 FEW033 16/14 Q1017 NOSIG",
      "taf": "TAF GMAD 092300Z 1000/1106 12004KT 8000 SCT026"
    },
    {
      "icao": "GMMN",
      "alert": "OK",
      "vis_m": 9999,
      "fzfg": false,
      "metar_trigger": false,
      "taf_trigger": false,
      "metar": "METAR GMMN 092300Z 23004KT 9999 SCT020 14/11 Q1017 NOSIG",
      "taf": "TAF GMMN 092300Z 1000/1106 20006KT 9999 FEW020 BKN080"
    },
    {
      "icao": "GMMX",
      "alert": "OK",
      "vis_m": 9999,
      "fzfg": false,
      "metar_trigger": false,
      "taf_trigger": false,
      "metar": "METAR GMMX 092300Z 25004KT 230V300 9999 SCT026 16/09 Q1017 NOSIG",
      "taf": "TAF GMMX 092300Z 1000/1106 06006KT 8000 SCT023"
    },
    {
      "icao": "HEGN",
      "alert": "OK",
      "vis_m": 9999,
      "fzfg": false,
      "metar_trigger": false,
      "taf_trigger": false,
      "metar": "METAR HEGN 092300Z 34008KT CAVOK 25/03 Q1011 NOSIG",
      "taf": "TAF HEGN 092300Z 1000/1106 30015KT CAVOK"
    },
    {
      "icao": "HEMA",
      "alert": "OK",
      "vis_m": 9999,
      "fzfg": false,
      "metar_trigger": false,
      "taf_trigger": false,
      "metar": "METAR HEMA 092300Z 33008KT CAVOK 24/10 Q1010 NOSIG",
      "taf": "TAF HEMA 092300Z 1000/1106 31015KT CAVOK"
    },
    {
      "icao": "HESH",
      "alert": "OK",
      "vis_m": 9999,
      "fzfg": false,
      "metar_trigger": false,
      "taf_trigger": false,
      "metar": "METAR HESH 092300Z 34015KT CAVOK 27/12 Q1010 NOSIG",
      "taf": "TAF HESH 092300Z 1000/1106 35015KT CAVOK"
    },
    {
      "icao": "HESX",
      "alert": "OK",
      "vis_m": 9999,
      "fzfg": false,
      "metar_trigger": false,
      "taf_trigger": false,
      "metar": "METAR HESX 092300Z 05009KT CAVOK 17/10 Q1016 NOSIG",
      "taf": "TAF HESX 092300Z 1000/1106 06010KT CAVOK"
    },
    {
      "icao": "LATI",
      "alert": "OK",
      "vis_m": 3200,
      "fzfg": false,
      "metar_trigger": false,
      "taf_trigger": false,
      "metar": "METAR LATI 092320Z 07002KT 3200 0800S R17/P2000N R35/1100N BCFG NSC 13/11 Q1017 NOSIG",
      "taf": "TAF LATI 091700Z 0918/1018 VRB04KT CAVOK TX24/1012Z TN11/1004Z"
    },
    {
      "icao": "LBPD",
      "alert": "OK",
      "vis_m": 9999,
      "fzfg": false,
      "metar_trigger": false,
      "taf_trigger": false,
      "metar": "METAR LBPD 092300Z AUTO VRB02KT 9999 FEW100/// 14/14 Q1015",
      "taf": "TAF LBPD 092300Z 1000/1024 VRB04KT 9999 BKN050"
    },
    {
      "icao": "LBSF",
      "alert": "OK",
      "vis_m": 9999,
      "fzfg": false,
      "metar_trigger": false,
      "taf_trigger": false,
      "metar": "METAR LBSF 092300Z AUTO 36005KT 9999 FEW019/// 12/11 Q1017 NOSIG",
      "taf": "TAF LBSF 092300Z 1000/1024 VRB04KT 9999 BKN050"
    },
    {
      "icao": "LBWN",
      "alert": "OK",
      "vis_m": 4100,
      "fzfg": false,
      "metar_trigger": false,
      "taf_trigger": false,
      "metar": "METAR LBWN 092300Z AUTO 27003KT 4100 BR NSC 14/14 Q1014 TEMPO 2000 BR",
      "taf": "TAF LBWN 092300Z 1000/1024 VRB04KT 9999 SCT030 BKN045"
    },
    {
      "icao": "LCLK",
      "alert": "OK",
      "vis_m": 9999,
      "fzfg": false,
      "metar_trigger": false,
      "taf_trigger": false,
      "metar": "METAR LCLK 092300Z 32004KT CAVOK 21/09 Q1014 NOSIG",
      "taf": "TAF LCLK 091730Z 0918/1018 33006KT CAVOK"
    },
    {
      "icao": "LCPH",
      "alert": "OK",
      "vis_m": 9999,
      "fzfg": false,
      "metar_trigger": false,
      "taf_trigger": false,
      "metar": "METAR LCPH 092300Z 01005KT CAVOK 18/06 Q1015 NOSIG",
      "taf": "TAF LCPH 091730Z 0918/1018 35009KT CAVOK"
    },
    {
      "icao": "LEAL",
      "alert": "OK",
      "vis_m": 9999,
      "fzfg": false,
      "metar_trigger": false,
      "taf_trigger": false,
      "metar": "METAR LEAL 092300Z 32002KT CAVOK 16/15 Q1015 NOSIG",
      "taf": "TAF LEAL 092300Z 1000/1024 VRB04KT 9999 FEW035 TX26/1012Z TN13/1005Z"
    },
    {
      "icao": "LEBB",
      "alert": "OK",
      "vis_m": 9999,
      "fzfg": false,
      "metar_trigger": false,
      "taf_trigger": false,
      "metar": "METAR LEBB 092300Z AUTO 17004KT 080V230 CAVOK 15/13 Q1008",
      "taf": "TAF LEBB 092300Z 1000/1024 14009KT 9999 FEW050 TX20/1015Z TN11/1024Z"
    },
    {
      "icao": "LEBL",
      "alert": "OK",
      "vis_m": 6000,
      "fzfg": false,
      "metar_trigger": false,
      "taf_trigger": false,
      "metar": "METAR LEBL 092300Z 30006KT 6000 FEW060 15/14 Q1013 NOSIG",
      "taf": "TAF LEBL 092300Z 1000/1024 VRB04KT 9999 FEW050 TX21/1013Z TN13/1005Z"
    },
    {
      "icao": "LECH",
      "alert": "OK",
      "vis_m": 3200,
      "fzfg": false,
      "metar_trigger": false,
      "taf_trigger": false,
      "metar": "METAR LECH 092300Z AUTO 20004KT 170V230 3200 BR SCT001 13/12 Q1014",
      "taf": "TAF LECH 092300Z 1000/1024 VRB04KT 9999 FEW020 TX23/1014Z TN10/1005Z"
    },
    {
      "icao": "LEMD",
      "alert": "OK",
      "vis_m": 6000,
      "fzfg": false,
      "metar_trigger": false,
      "taf_trigger": false,
      "metar": "SPECI LEMD 092305Z 19007KT 160V240 6000 RA SCT035 BKN040TCU OVC075 11/11 Q1014 NOSIG",
      "taf": "TAF LEMD 092300Z 1000/1106 20007KT 9999 FEW030 TX16/1015Z TN08/1005Z"
    },
    {
      "icao": "LEMG",
      "alert": "OK",
      "vis_m": 9999,
      "fzfg": false,
      "metar_trigger": false,
      "taf_trigger": false,
      "metar": "METAR LEMG 092300Z 21005KT 180V270 9999 FEW017 SCT070 16/12 Q1016 NOSIG",
      "taf": "TAF LEMG 092300Z 1000/1024 16006KT 9999 FEW015 SCT030 TX22/1014Z TN15/1007Z"
    },
    {
      "icao": "LEVC",
      "alert": "OK",
      "vis_m": 9999,
      "fzfg": false,
      "metar_trigger": false,
      "taf_trigger": false,
      "metar": "METAR LEVC 092300Z 27002KT 9999 FEW063 15/15 Q1014 NOSIG",
      "taf": "TAF LEVC 092300Z 1000/1024 VRB04KT 9999 FEW020 TX24/1012Z TN13/1005Z"
    },
    {
      "icao": "LEXJ",
      "alert": "OK",
      "vis_m": 9999,
      "fzfg": false,
      "metar_trigger": false,
      "taf_trigger": false,
      "metar": "METAR LEXJ 092300Z AUTO 24003KT 150V290 CAVOK 17/09 Q1008",
      "taf": "TAF LEXJ 092000Z 0921/1021 20009KT 9999 FEW050 TX21/1015Z TN13/1005Z"
    },
    {
      "icao": "LEZG",
      "alert": "OK",
      "vis_m": 9999,
      "fzfg": false,
      "metar_trigger": false,
      "taf_trigger": false,
      "metar": "METAR LEZG 092300Z 09006KT 9999 FEW085 14/12 Q1012 NOSIG",
      "taf": "TAF LEZG 092300Z 1000/1024 VRB04KT 9999 FEW020 TX23/1014Z TN11/1005Z"
    },
    {
      "icao": "LEZL",
      "alert": "OK",
      "vis_m": 9999,
      "fzfg": false,
      "metar_trigger": false,
      "taf_trigger": false,
      "metar": "METAR LEZL 092300Z 18006KT 150V210 9999 FEW030 17/14 Q1014 NOSIG",
      "taf": "TAF LEZL 092000Z 0921/1021 20008KT 9999 SCT030 TX22/1015Z TN12/1007Z"
    },
    {
      "icao": "LFBD",
      "alert": "OK",
      "vis_m": 9999,
      "fzfg": false,
      "metar_trigger": false,
      "taf_trigger": false,
      "metar": "METAR LFBD 092300Z AUTO 16008KT CAVOK 18/12 Q1009 TEMPO 4000 SHRA BKN040TCU",
      "taf": "TAF LFBD 092300Z 1000/1106 16005KT CAVOK TX22/1013Z TN13/1005Z"
    },
    {
      "icao": "LFLL",
      "alert": "OK",
      "vis_m": 9999,
      "fzfg": false,
      "metar_trigger": false,
      "taf_trigger": false,
      "metar": "METAR LFLL 092300Z 20005KT 9999 FEW066TCU BKN066 BKN100 18/10 Q1012 TEMPO 4000 SHRA FEW050CB BKN055TCU",
      "taf": "TAF LFLL 092300Z 1000/1106 18005KT CAVOK"
    },
    {
      "icao": "LFLS",
      "alert": "OK",
      "vis_m": 9999,
      "fzfg": false,
      "metar_trigger": false,
      "taf_trigger": false,
      "metar": "METAR LFLS 092300Z AUTO 21004KT 9999 BKN058/// BKN072/// OVC082/// ///CB 16/10 Q1013",
      "taf": "TAF LFLS 091400Z 0915/1015 30005KT CAVOK"
    },
    {
      "icao": "LFMN",
      "alert": "OK",
      "vis_m": 9999,
      "fzfg": false,
      "metar_trigger": false,
      "taf_trigger": false,
      "metar": "METAR LFMN 092300Z 07008KT 9999 BKN100 19/14 Q1012 NOSIG",
      "taf": "TAF LFMN 092000Z 0921/1103 09020KT 9999 BKN080"
    },
    {
      "icao": "LFOB",
      "alert": "OK",
      "vis_m": 9999,
      "fzfg": false,
      "metar_trigger": false,
      "taf_trigger": false,
      "metar": "METAR LFOB 092300Z AUTO 03005KT CAVOK 13/09 Q1013 NOSIG",
      "taf": "TAF LFOB 092300Z 1000/1024 06008KT CAVOK"
    },
    {
      "icao": "LFPO",
      "alert": "OK",
      "vis_m": 9999,
      "fzfg": false,
      "metar_trigger": false,
      "taf_trigger": false,
      "metar": "METAR LFPO 092300Z AUTO 04010KT CAVOK 17/09 Q1012 NOSIG",
      "taf": "TAF LFPO 091700Z 0918/1024 07005KT CAVOK"
    },
    {
      "icao": "LFSB",
      "alert": "OK",
      "vis_m": 9999,
      "fzfg": false,
      "metar_trigger": false,
      "taf_trigger": false,
      "metar": "METAR LFSB 092300Z AUTO 31004KT CAVOK 14/10 Q1012 NOSIG",
      "taf": "TAF LFSB 092300Z 1000/1024 VRB03KT CAVOK"
    },
    {
      "icao": "LGAV",
      "alert": "OK",
      "vis_m": 9999,
      "fzfg": false,
      "metar_trigger": false,
      "taf_trigger": false,
      "metar": "METAR LGAV 092320Z 26003KT 9999 FEW030 14/12 Q1015 NOSIG",
      "taf": "TAF LGAV 092300Z 1000/1024 VRB05KT 9999 FEW025"
    },
    {
      "icao": "LGTS",
      "alert": "OK",
      "vis_m": 9999,
      "fzfg": false,
      "metar_trigger": false,
      "taf_trigger": false,
      "metar": "METAR LGTS 092320Z VRB03KT 9999 FEW025 14/14 Q1016 NOSIG",
      "taf": "TAF LGTS 092300Z 1000/1024 VRB03KT 9999 FEW025"
    },
    {
      "icao": "LHBP",
      "alert": "OK",
      "vis_m": 9999,
      "fzfg": false,
      "metar_trigger": false,
      "taf_trigger": false,
      "metar": "METAR LHBP 092300Z 10005KT 060V130 CAVOK 13/07 Q1017 NOSIG",
      "taf": "TAF LHBP 092315Z 1000/1024 08008KT CAVOK"
    },
    {
      "icao": "LHDC",
      "alert": "OK",
      "vis_m": 9999,
      "fzfg": false,
      "metar_trigger": false,
      "taf_trigger": false,
      "metar": "METAR LHDC 092245Z AUTO 03007KT CAVOK 12/06 Q1017",
      "taf": "TAF LHDC 091415Z 0915/0924 02007KT CAVOK"
    },
    {
      "icao": "LIBD",
      "alert": "OK",
      "vis_m": 9999,
      "fzfg": false,
      "metar_trigger": false,
      "taf_trigger": false,
      "metar": "METAR LIBD 092320Z 22005KT CAVOK 13/11 Q1016",
      "taf": "TAF LIBD 091700Z 0918/1018 22005KT CAVOK"
    },
    {
      "icao": "LIBG",
      "alert": "OK",
      "vis_m": null,
      "fzfg": false,
      "metar_trigger": false,
      "taf_trigger": false,
      "metar": "",
      "taf": "TAF LIBG 091400Z 0915/0924 VRB05KT 9999 FEW040"
    },
    {
      "icao": "LIBP",
      "alert": "OK",
      "vis_m": 9999,
      "fzfg": false,
      "metar_trigger": false,
      "taf_trigger": false,
      "metar": "METAR LIBP 092320Z AUTO 19002KT 9999 BKN008/// BKN220/// 14/14 Q1016",
      "taf": "TAF LIBP 091700Z 0918/1018 VRB05KT 9999 FEW080"
    },
    {
      "icao": "LIBR",
      "alert": "OK",
      "vis_m": 9999,
      "fzfg": false,
      "metar_trigger": false,
      "taf_trigger": false,
      "metar": "METAR LIBR 092320Z 25003KT CAVOK 14/13 Q1016",
      "taf": "TAF LIBR 091700Z 0918/1018 23005KT CAVOK"
    },
    {
      "icao": "LICA",
      "alert": "OK",
      "vis_m": 9999,
      "fzfg": false,
      "metar_trigger": false,
      "taf_trigger": false,
      "metar": "METAR LICA 092320Z AUTO 06016KT 9999 BKN140/// 19/13 Q1015",
      "taf": "TAF LICA 091700Z 0918/1018 08015KT 9999 FEW080"
    },
    {
      "icao": "LICC",
      "alert": "OK",
      "vis_m": 9999,
      "fzfg": false,
      "metar_trigger": false,
      "taf_trigger": false,
      "metar": "METAR LICC 092320Z 06008KT CAVOK 19/16 Q1016",
      "taf": "TAF LICC 091700Z 0918/1018 09010KT 9999 SCT020"
    },
    {
      "icao": "LICJ",
      "alert": "OK",
      "vis_m": 7000,
      "fzfg": false,
      "metar_trigger": false,
      "taf_trigger": false,
      "metar": "METAR LICJ 092320Z 32013KT 7000 -RA BKN050 19/17 Q1018",
      "taf": "TAF LICJ 091700Z 0918/1018 08010KT CAVOK"
    },
    {
      "icao": "LIMC",
      "alert": "OK",
      "vis_m": 9999,
      "fzfg": false,
      "metar_trigger": false,
      "taf_trigger": false,
      "metar": "METAR LIMC 092320Z VRB02KT 9999 FEW090 14/10 Q1015 NOSIG",
      "taf": ""
    },
    {
      "icao": "LIME",
      "alert": "OK",
      "vis_m": 9999,
      "fzfg": false,
      "metar_trigger": false,
      "taf_trigger": false,
      "metar": "METAR LIME 092320Z 02004KT CAVOK 16/10 Q1015 NOSIG",
      "taf": "TAF LIME 091700Z 0918/1018 VRB05KT 9999 SCT040"
    },
    {
      "icao": "LIMF",
      "alert": "OK",
      "vis_m": 9999,
      "fzfg": false,
      "metar_trigger": false,
      "taf_trigger": false,
      "metar": "METAR LIMF 092320Z 32007KT 9999 SCT060 18/11 Q1015",
      "taf": "TAF LIMF 091700Z 0918/1018 VRB05KT 9999 SCT030"
    },
    {
      "icao": "LIMJ",
      "alert": "OK",
      "vis_m": 9999,
      "fzfg": false,
      "metar_trigger": false,
      "taf_trigger": false,
      "metar": "METAR LIMJ 092320Z 02004KT 9999 SCT070 18/12 Q1014",
      "taf": "TAF LIMJ 091700Z 0918/1018 19010KT 9999 SCT020"
    },
    {
      "icao": "LIPE",
      "alert": "OK",
      "vis_m": 9999,
      "fzfg": false,
      "metar_trigger": false,
      "taf_trigger": false,
      "metar": "METAR LIPE 092320Z 15003KT CAVOK 14/11 Q1014",
      "taf": "TAF LIPE 091700Z 0918/1018 10010KT 9999 FEW060"
    },
    {
      "icao": "LIPH",
      "alert": "OK",
      "vis_m": 9999,
      "fzfg": false,
      "metar_trigger": false,
      "taf_trigger": false,
      "metar": "METAR LIPH 092320Z AUTO 02004KT 350V050 9999 FEW061/// 17/12 Q1015",
      "taf": "TAF LIPH 091700Z 0918/1018 12006KT 9999 FEW050"
    },
    {
      "icao": "LIPQ",
      "alert": "OK",
      "vis_m": 9999,
      "fzfg": false,
      "metar_trigger": false,
      "taf_trigger": false,
      "metar": "METAR LIPQ 092320Z AUTO 06003KT 030V110 9999 NCD 12/11 Q1016",
      "taf": "TAF LIPQ 091700Z 0918/1018 VRB05KT 9999 FEW040"
    },
    {
      "icao": "LIPR",
      "alert": "OK",
      "vis_m": 9999,
      "fzfg": false,
      "metar_trigger": false,
      "taf_trigger": false,
      "metar": "METAR LIPR 092320Z AUTO 20002KT 9999 FEW091/// 16/11 Q1015",
      "taf": "TAF LIPR 091700Z 0918/1018 VRB05KT 9999 FEW060"
    },
    {
      "icao": "LIPX",
      "alert": "OK",
      "vis_m": 9999,
      "fzfg": false,
      "metar_trigger": false,
      "taf_trigger": false,
      "metar": "METAR LIPX 092320Z 07003KT CAVOK 16/10 Q1015",
      "taf": "TAF LIPX 091700Z 0918/1018 VRB05KT 9999 SCT040"
    },
    {
      "icao": "LIPY",
      "alert": "OK",
      "vis_m": 9999,
      "fzfg": false,
      "metar_trigger": false,
      "taf_trigger": false,
      "metar": "METAR LIPY 092320Z AUTO 25003KT 9999 BKN100/// BKN210/// 14/12 Q1015",
      "taf": "TAF LIPY 091700Z 0918/1018 VRB05KT 9999 FEW060"
    },
    {
      "icao": "LIPZ",
      "alert": "OK",
      "vis_m": 9999,
      "fzfg": false,
      "metar_trigger": false,
      "taf_trigger": false,
      "metar": "METAR LIPZ 092320Z 10002KT 9999 FEW060 18/15 Q1015 NOSIG",
      "taf": "TAF LIPZ 091700Z 0918/1024 VRB05KT 9999 FEW060"
    },
    {
      "icao": "LIRF",
      "alert": "OK",
      "vis_m": 9000,
      "fzfg": false,
      "metar_trigger": false,
      "taf_trigger": false,
      "metar": "METAR LIRF 092320Z 20004KT 160V220 9000 -DZ FEW050 18/15 Q1016 NOSIG",
      "taf": "TAF LIRF 091700Z 0918/1024 VRB05KT 9999 FEW050"
    },
    {
      "icao": "LIRN",
      "alert": "OK",
      "vis_m": 9999,
      "fzfg": false,
      "metar_trigger": false,
      "taf_trigger": false,
      "metar": "METAR LIRN 092320Z 03003KT 320V090 CAVOK 18/14 Q1014 NOSIG",
      "taf": "TAF LIRN 091700Z 0918/1018 VRB05KT 9999 FEW080"
    },
    {
      "icao": "LIRP",
      "alert": "OK",
      "vis_m": 9999,
      "fzfg": false,
      "metar_trigger": false,
      "taf_trigger": false,
      "metar": "METAR LIRP 092315Z 13003KT CAVOK 15/14 Q1014 NOSIG",
      "taf": "TAF LIRP 092300Z 1000/1024 VRB03KT 9999 FEW030 SCT070"
    },
    {
      "icao": "LIRZ",
      "alert": "OK",
      "vis_m": 9999,
      "fzfg": false,
      "metar_trigger": false,
      "taf_trigger": false,
      "metar": "METAR LIRZ 092320Z AUTO 03004KT 9999 SCT065/// BKN150/// 15/13 Q1016",
      "taf": "TAF LIRZ 091700Z 0918/1018 VRB05KT 9999 FEW060"
    },
    {
      "icao": "LJLJ",
      "alert": "OK",
      "vis_m": 9999,
      "fzfg": false,
      "metar_trigger": false,
      "taf_trigger": false,
      "metar": "METAR LJLJ 092300Z 36003KT 300V020 9999 FEW050 12/09 Q1017 NOSIG",
      "taf": "TAF LJLJ 092300Z 1000/1100 12005KT 9999 SCT060"
    },
    {
      "icao": "LKMT",
      "alert": "OK",
      "vis_m": 8000,
      "fzfg": false,
      "metar_trigger": false,
      "taf_trigger": false,
      "metar": "METAR LKMT 092300Z 34002KT 8000 NSC 05/05 Q1019 NOSIG",
      "taf": "TAF LKMT 092300Z 1000/1024 VRB02KT CAVOK"
    },
    {
      "icao": "LKPR",
      "alert": "OK",
      "vis_m": 9999,
      "fzfg": false,
      "metar_trigger": false,
      "taf_trigger": false,
      "metar": "METAR LKPR 092300Z 13005KT CAVOK 08/05 Q1018 NOSIG",
      "taf": "TAF LKPR 092300Z 1000/1106 09006KT CAVOK"
    },
    {
      "icao": "LLBG",
      "alert": "OK",
      "vis_m": 9999,
      "fzfg": false,
      "metar_trigger": false,
      "taf_trigger": false,
      "metar": "METAR LLBG 092320Z VRB03KT CAVOK 18/14 Q1015 NOSIG",
      "taf": "TAF LLBG 092314Z 1000/1024 VRB04KT CAVOK TX28/1012Z TN15/1003Z"
    },
    {
      "icao": "LMML",
      "alert": "OK",
      "vis_m": null,
      "fzfg": false,
      "metar_trigger": false,
      "taf_trigger": false,
      "metar": "",
      "taf": "TAF LMML 091700Z 0918/1018 10015KT 9999 FEW015"
    },
    {
      "icao": "LOWW",
      "alert": "OK",
      "vis_m": 9999,
      "fzfg": false,
      "metar_trigger": false,
      "taf_trigger": false,
      "metar": "METAR LOWW 092320Z 35004KT CAVOK 09/05 Q1018 NOSIG",
      "taf": "TAF LOWW 092315Z 1000/1106 33003KT CAVOK TX23/1015Z TN08/1003Z"
    },
    {
      "icao": "LPFR",
      "alert": "OK",
      "vis_m": 9999,
      "fzfg": false,
      "metar_trigger": false,
      "taf_trigger": false,
      "metar": "METAR LPFR 092300Z 21010KT 9999 FEW018 17/14 Q1013",
      "taf": "TAF LPFR 092300Z 1000/1024 24012KT 9999 SCT020"
    },
    {
      "icao": "LPMA",
      "alert": "OK",
      "vis_m": 9999,
      "fzfg": false,
      "metar_trigger": false,
      "taf_trigger": false,
      "metar": "METAR LPMA 092300Z 03003KT 320V070 9999 FEW015 16/11 Q1015",
      "taf": "TAF LPMA 092300Z 1000/1024 VRB05KT 9999 SCT015"
    },
    {
      "icao": "LPPR",
      "alert": "OK",
      "vis_m": 9999,
      "fzfg": false,
      "metar_trigger": false,
      "taf_trigger": false,
      "metar": "METAR LPPR 092300Z 17012KT 9999 -SHRA FEW018 FEW025CB SCT040 13/11 Q1008 RETSRA",
      "taf": "TAF LPPR 092300Z 1000/1024 12010KT 9999 SCT020"
    },
    {
      "icao": "LPPS",
      "alert": "OK",
      "vis_m": 9999,
      "fzfg": false,
      "metar_trigger": false,
      "taf_trigger": false,
      "metar": "METAR LPPS 092300Z 28011KT 9999 SCT015 16/09 Q1015",
      "taf": "TAF LPPS 092300Z 1000/1106 27013KT 9999 SCT015"
    },
    {
      "icao": "LPPT",
      "alert": "OK",
      "vis_m": 9999,
      "fzfg": false,
      "metar_trigger": false,
      "taf_trigger": false,
      "metar": "METAR LPPT 092300Z 20010KT 9999 FEW016 14/11 Q1009",
      "taf": "TAF LPPT 092300Z 1000/1106 21012KT 9999 SCT020"
    },
    {
      "icao": "LQBK",
      "alert": "OK",
      "vis_m": 9999,
      "fzfg": false,
      "metar_trigger": false,
      "taf_trigger": false,
      "metar": "METAR LQBK 092300Z VRB01KT CAVOK 10/08 Q1016 NOSIG",
      "taf": "TAF LQBK 092300Z 1000/1024 16005KT CAVOK TX25/1013Z TN08/1004Z"
    },
    {
      "icao": "LQSA",
      "alert": "OK",
      "vis_m": 9999,
      "fzfg": false,
      "metar_trigger": false,
      "taf_trigger": false,
      "metar": "METAR LQSA 092300Z 00000KT CAVOK 09/08 Q1018",
      "taf": "TAF LQSA 092300Z 1000/1024 VRB02KT CAVOK TX23/1014Z TN08/1004Z"
    },
    {
      "icao": "LQTZ",
      "alert": "OK",
      "vis_m": 9999,
      "fzfg": false,
      "metar_trigger": false,
      "taf_trigger": false,
      "metar": "METAR LQTZ 092300Z 11002KT CAVOK 09/09 Q1017",
      "taf": "TAF LQTZ 092300Z 1000/1024 VRB02KT CAVOK TX25/1013Z TN07/1004Z"
    },
    {
      "icao": "LRBC",
      "alert": "OK",
      "vis_m": 5000,
      "fzfg": false,
      "metar_trigger": false,
      "taf_trigger": false,
      "metar": "METAR LRBC 092300Z 34009KT 5000 RA BR OVC005 13/13 Q1016 RERA",
      "taf": "TAF LRBC 092000Z 0921/1006 VRB04KT 5000 -RA BR BKN010 OVC030"
    },
    {
      "icao": "LRBS",
      "alert": "OK",
      "vis_m": 4500,
      "fzfg": false,
      "metar_trigger": false,
      "taf_trigger": false,
      "metar": "METAR LRBS 092300Z VRB02KT 4500 BR NSC 14/13 Q1015 NOSIG",
      "taf": ""
    },
    {
      "icao": "LRBV",
      "alert": "OK",
      "vis_m": 9999,
      "fzfg": false,
      "metar_trigger": false,
      "taf_trigger": false,
      "metar": "METAR LRBV 092300Z AUTO 29009KT 9999 -RA OVC009/// 12/11 Q1016 REDZ",
      "taf": "TAF LRBV 091700Z 0918/1003 VRB04KT 5000 -RA BR SCT015 BKN030"
    },
    {
      "icao": "LRCL",
      "alert": "OK",
      "vis_m": 7000,
      "fzfg": false,
      "metar_trigger": false,
      "taf_trigger": false,
      "metar": "METAR LRCL 092300Z 00000KT 7000 MIFG NSC 10/09 Q1017",
      "taf": "TAF LRCL 092000Z 0921/1006 VRB04KT 9999 SCT045"
    },
    {
      "icao": "LRCV",
      "alert": "OK",
      "vis_m": 6000,
      "fzfg": false,
      "metar_trigger": false,
      "taf_trigger": false,
      "metar": "METAR LRCV 092300Z 35001KT 6000 OVC002 15/15 Q1016",
      "taf": ""
    },
    {
      "icao": "LRIA",
      "alert": "OK",
      "vis_m": 9999,
      "fzfg": false,
      "metar_trigger": false,
      "taf_trigger": false,
      "metar": "METAR LRIA 092300Z 33010KT 9999 -RA BKN003 OVC022 14/13 Q1015",
      "taf": "TAF LRIA 092000Z 0921/1006 VRB04KT 5000 -RA BR BKN010 OVC030"
    },
    {
      "icao": "LROP",
      "alert": "OK",
      "vis_m": 8000,
      "fzfg": false,
      "metar_trigger": false,
      "taf_trigger": false,
      "metar": "METAR LROP 092300Z 33005KT 8000 NSC 14/13 Q1015 NOSIG",
      "taf": "TAF LROP 091700Z 0918/1018 04008KT 9999 BKN040"
    },
    {
      "icao": "LRSB",
      "alert": "OK",
      "vis_m": 9999,
      "fzfg": false,
      "metar_trigger": false,
      "taf_trigger": false,
      "metar": "METAR LRSB 092300Z 29001KT 9999 SCT060 12/11 Q1017",
      "taf": "TAF LRSB 091700Z 0918/1018 VRB04KT 9999 SCT040 BKN070"
    },
    {
      "icao": "LRSM",
      "alert": "OK",
      "vis_m": 9999,
      "fzfg": false,
      "metar_trigger": false,
      "taf_trigger": false,
      "metar": "METAR LRSM 092300Z AUTO 14001KT 9999 FEW075/// 09/08 Q1017",
      "taf": "TAF LRSM 091400Z 0915/0924 34006KT CAVOK"
    },
    {
      "icao": "LRSV",
      "alert": "OK",
      "vis_m": 8000,
      "fzfg": false,
      "metar_trigger": false,
      "taf_trigger": false,
      "metar": "METAR LRSV 092300Z 33009KT 300V360 8000 -RA BKN004 BKN030 12/12 Q1017",
      "taf": "TAF LRSV 092000Z 0921/1006 35008KT 5000 -RA BR SCT015 BKN040"
    },
    {
      "icao": "LRTM",
      "alert": "OK",
      "vis_m": 7000,
      "fzfg": false,
      "metar_trigger": false,
      "taf_trigger": false,
      "metar": "METAR LRTM 092300Z 21002KT 7000 MIFG FEW004 12/12 Q1016",
      "taf": "TAF LRTM 092000Z 0921/1006 VRB04KT 9999 SCT040"
    },
    {
      "icao": "LRTR",
      "alert": "OK",
      "vis_m": 9999,
      "fzfg": false,
      "metar_trigger": false,
      "taf_trigger": false,
      "metar": "METAR LRTR 092300Z 08006KT CAVOK 09/09 Q1016",
      "taf": "TAF LRTR 091700Z 0918/1018 VRB04KT 9999 SCT045"
    },
    {
      "icao": "LTAC",
      "alert": "OK",
      "vis_m": 9999,
      "fzfg": false,
      "metar_trigger": false,
      "taf_trigger": false,
      "metar": "METAR LTAC 092320Z 19004KT 130V200 9999 FEW040 SCT080 12/11 Q1018 NOSIG RMK RWY21C VRB02KT RWY03L 20003KT RWY21R VRB02KT RWY03R 17003KT RWY21L 16003KT",
      "taf": "TAF LTAC 092240Z 1000/1024 VRB02KT 9999 SCT040 SCT100"
    },
    {
      "icao": "LTFM",
      "alert": "OK",
      "vis_m": 9999,
      "fzfg": false,
      "metar_trigger": false,
      "taf_trigger": false,
      "metar": "METAR LTFM 092320Z 20006KT 160V220 9999 SCT035 BKN100 16/13 Q1014 NOSIG RMK RWY17L 20010KT RWY34L VRB02KT RWY16R 23004KT RWY36 21006KT RWY18 21008KT",
      "taf": "TAF LTFM 092240Z 1000/1106 20010KT 9999 SCT035 BKN100"
    },
    {
      "icao": "LUKK",
      "alert": "OK",
      "vis_m": 8000,
      "fzfg": false,
      "metar_trigger": false,
      "taf_trigger": false,
      "metar": "METAR LUKK 092300Z VRB03KT 8000 -SHRA FEW024 SCT035 OVC044CB 14/13 Q1015 TEMPO 5000 SHRA",
      "taf": ""
    },
    {
      "icao": "LWOH",
      "alert": "OK",
      "vis_m": null,
      "fzfg": false,
      "metar_trigger": false,
      "taf_trigger": false,
      "metar": "",
      "taf": "TAF LWOH 092325Z 1000/1024 34005KT CAVOK"
    },
    {
      "icao": "LWSK",
      "alert": "OK",
      "vis_m": 9999,
      "fzfg": false,
      "metar_trigger": false,
      "taf_trigger": false,
      "metar": "METAR LWSK 092250Z VRB02KT CAVOK 12/10 Q1017 NOSIG",
      "taf": "TAF LWSK 092325Z 1000/1024 VRB02KT CAVOK"
    },
    {
      "icao": "LYBE",
      "alert": "OK",
      "vis_m": 9999,
      "fzfg": false,
      "metar_trigger": false,
      "taf_trigger": false,
      "metar": "METAR LYBE 092300Z 24004KT 200V260 CAVOK 13/12 Q1016 NOSIG",
      "taf": "TAF LYBE 092300Z 1000/1024 20005KT CAVOK TX26/1014Z TN11/1003Z"
    },
    {
      "icao": "LYNI",
      "alert": "OK",
      "vis_m": 9999,
      "fzfg": false,
      "metar_trigger": false,
      "taf_trigger": false,
      "metar": "METAR LYNI 092300Z VRB01KT 9999 MIFG NSC 12/12 Q1017 BECMG 3000 BR",
      "taf": "TAF LYNI 092300Z 1000/1024 09004KT 8000 SCT040 TX24/1013Z TN09/1003Z"
    },
    {
      "icao": "LYPG",
      "alert": "OK",
      "vis_m": 9999,
      "fzfg": false,
      "metar_trigger": false,
      "taf_trigger": false,
      "metar": "METAR LYPG 092300Z 33006KT CAVOK 15/14 Q1017 NOSIG",
      "taf": "TAF LYPG 092300Z 1000/1024 36005KT 9999 FEW080 TX23/1014Z TN13/1004Z"
    },
    {
      "icao": "LZIB",
      "alert": "OK",
      "vis_m": 9999,
      "fzfg": false,
      "metar_trigger": false,
      "taf_trigger": false,
      "metar": "METAR LZIB 092300Z 19002KT CAVOK 11/05 Q1018 NOSIG",
      "taf": "TAF LZIB 092315Z 1000/1100 VRB02KT CAVOK"
    },
    {
      "icao": "LZKZ",
      "alert": "OK",
      "vis_m": 9999,
      "fzfg": false,
      "metar_trigger": false,
      "taf_trigger": false,
      "metar": "METAR LZKZ 092300Z 01011KT 9999 SCT048 11/06 Q1018 NOSIG",
      "taf": "TAF LZKZ 092315Z 1000/1100 02012KT CAVOK"
    },
    {
      "icao": "LZTT",
      "alert": "OK",
      "vis_m": 9999,
      "fzfg": false,
      "metar_trigger": false,
      "taf_trigger": false,
      "metar": "METAR LZTT 092300Z 09003KT 9999 FEW012 OVC025 08/05 Q1019",
      "taf": "TAF LZTT 092315Z 1000/1100 VRB02KT 9999 FEW015 BKN025"
    },
    {
      "icao": "OEJN",
      "alert": "OK",
      "vis_m": 9999,
      "fzfg": false,
      "metar_trigger": false,
      "taf_trigger": false,
      "metar": "METAR OEJN 092300Z 33006KT CAVOK 27/21 Q1007 NOSIG",
      "taf": "TAF OEJN 092300Z 1000/1106 VRB03KT 7000 NSC"
    },
    {
      "icao": "OEMA",
      "alert": "OK",
      "vis_m": 9999,
      "fzfg": false,
      "metar_trigger": false,
      "taf_trigger": false,
      "metar": "METAR OEMA 092300Z 01004KT CAVOK 30/01 Q1012 NOSIG",
      "taf": "TAF OEMA 092300Z 1000/1106 VRB03KT 7000 NSC"
    },
    {
      "icao": "OJAI",
      "alert": "OK",
      "vis_m": 4000,
      "fzfg": false,
      "metar_trigger": false,
      "taf_trigger": false,
      "metar": "METAR OJAI 092300Z 00000KT 4000 HZ NSC 16/05 Q1017 NOSIG",
      "taf": "TAF OJAI 092300Z 1000/1106 29010KT 6000 NSC"
    },
    {
      "icao": "OMAA",
      "alert": "OK",
      "vis_m": 9999,
      "fzfg": false,
      "metar_trigger": false,
      "taf_trigger": false,
      "metar": "METAR OMAA 092300Z 30006KT CAVOK 29/20 Q1007 NOSIG",
      "taf": "TAF OMAA 092300Z 1000/1106 31014KT 8000 NSC"
    },
    {
      "icao": "OMDB",
      "alert": "OK",
      "vis_m": 9999,
      "fzfg": false,
      "metar_trigger": false,
      "taf_trigger": false,
      "metar": "METAR OMDB 092300Z 19006KT 110V230 CAVOK 29/19 Q1006 NOSIG",
      "taf": "TAF OMDB 092300Z 1000/1106 20007KT CAVOK"
    },
    {
      "icao": "UAAA",
      "alert": "OK",
      "vis_m": 9999,
      "fzfg": false,
      "metar_trigger": false,
      "taf_trigger": false,
      "metar": "SPECI UAAA 092309Z 28007MPS 9999 BKN050CB OVC100 20/11 Q1013 NOSIG",
      "taf": ""
    },
    {
      "icao": "UBBB",
      "alert": "OK",
      "vis_m": 9999,
      "fzfg": false,
      "metar_trigger": false,
      "taf_trigger": false,
      "metar": "METAR UBBB 092300Z 24004KT CAVOK 19/10 Q1016 NOSIG",
      "taf": "TAF UBBB 092308Z 1000/1024 23005KT CAVOK TX25/1010Z TN14/1001Z"
    },
    {
      "icao": "UDSG",
      "alert": "OK",
      "vis_m": 9999,
      "fzfg": false,
      "metar_trigger": false,
      "taf_trigger": false,
      "metar": "METAR UDSG 092300Z 14001KT 9999 NSC 06/02 Q1022 NOSIG",
      "taf": "TAF UDSG 092300Z 1000/1024 06006KT 9999 SCT050"
    },
    {
      "icao": "UDYZ",
      "alert": "OK",
      "vis_m": 9999,
      "fzfg": false,
      "metar_trigger": false,
      "taf_trigger": false,
      "metar": "METAR UDYZ 092300Z 07003KT 9999 NSC 13/04 Q1019 NOSIG",
      "taf": "TAF UDYZ 092300Z 1000/1024 14006KT 9999 FEW040"
    },
    {
      "icao": "UGKO",
      "alert": "OK",
      "vis_m": 9999,
      "fzfg": false,
      "metar_trigger": false,
      "taf_trigger": false,
      "metar": "METAR UGKO 092300Z 13005KT CAVOK 12/10 Q1015 NOSIG",
      "taf": "TAF UGKO 092300Z 1000/1024 09010KT CAVOK TX29/1011Z TN12/1001Z"
    }
  ]
}