{
  "ts_utc": "2026-01-09T18:17:22Z",
  "threshold_m": 150,
  "source": "stations_override.txt (ICAO list) + aviationweather.gov (METAR/TAF raw)",
  "station_count": 159,
  "stations": [
    {
      "icao": "BIKF",
      "alert": "OK",
      "vis_m": 9999,
      "fzfg": false,
      "metar_trigger": false,
      "taf_trigger": false,
      "metar": "METAR BIKF 091800Z 06013KT CAVOK M01/M07 Q1011",
      "taf": "TAF BIKF 091616Z 0918/1018 03015KT 9999 FEW040 TXM01/0921Z TNM07/1010Z"
    },
    {
      "icao": "BKPR",
      "alert": "OK",
      "vis_m": 9999,
      "fzfg": false,
      "metar_trigger": false,
      "taf_trigger": false,
      "metar": "METAR BKPR 091730Z 18011KT 9999 BKN025 00/M04 Q1005 NOSIG",
      "taf": "TAF BKPR 091730Z 0918/1018 18008KT 9999 FEW012 SCT030 BKN080"
    },
    {
      "icao": "EBCI",
      "alert": "OK",
      "vis_m": 4000,
      "fzfg": false,
      "metar_trigger": false,
      "taf_trigger": false,
      "metar": "METAR EBCI 091750Z 25017KT 4000 -SNRA SCT004 BKN005 01/01 Q0990 TEMPO 2000 SN BKN004",
      "taf": "TAF EBCI 091700Z 0918/1024 30010KT 6000 -RASN SCT006 BKN010"
    },
    {
      "icao": "EDDB",
      "alert": "OK",
      "vis_m": 8000,
      "fzfg": false,
      "metar_trigger": false,
      "taf_trigger": false,
      "metar": "METAR EDDB 091750Z AUTO 09013KT 8000 3800 HZ FEW018 BKN036 BKN044 M06/M10 Q1000 TEMPO 4000 -SN",
      "taf": "TAF EDDB 091700Z 0918/1018 08015KT 9999 SCT020"
    },
    {
      "icao": "EDDH",
      "alert": "OK",
      "vis_m": 9999,
      "fzfg": false,
      "metar_trigger": false,
      "taf_trigger": false,
      "metar": "METAR EDDH 091750Z AUTO 07020KT 9999 OVC048 M04/M10 Q0998 REUP TEMPO 09020G30KT",
      "taf": "TAF EDDH 091700Z 0918/1024 08020G30KT 9999 SCT030"
    },
    {
      "icao": "EDDK",
      "alert": "OK",
      "vis_m": 9999,
      "fzfg": false,
      "metar_trigger": false,
      "taf_trigger": false,
      "metar": "METAR EDDK 091750Z AUTO 22011KT 190V250 9999 -RA BKN021 OVC025 04/01 Q0988 TEMPO RA",
      "taf": "TAF EDDK 091700Z 0918/1024 23008KT 9999 FEW014 OVC025"
    },
    {
      "icao": "EDDN",
      "alert": "OK",
      "vis_m": 9999,
      "fzfg": false,
      "metar_trigger": false,
      "taf_trigger": false,
      "metar": "METAR EDDN 091750Z AUTO 21008KT 9999 FEW034 05/M00 Q0994 NOSIG",
      "taf": "TAF EDDN 091700Z 0918/1018 20008KT 9999 BKN035"
    },
    {
      "icao": "EDDS",
      "alert": "OK",
      "vis_m": 9999,
      "fzfg": false,
      "metar_trigger": false,
      "taf_trigger": false,
      "metar": "METAR EDDS 091750Z AUTO 21009KT 180V250 9999 -RA FEW022 04/01 Q0994 TEMPO 20015G30KT SHRA",
      "taf": "TAF EDDS 091700Z 0918/1018 20013KT 9999 BKN025"
    },
    {
      "icao": "EDFH",
      "alert": "OK",
      "vis_m": 3600,
      "fzfg": false,
      "metar_trigger": false,
      "taf_trigger": false,
      "metar": "METAR EDFH 091750Z 24018G28KT 210V270 3600 -SN BKN002 01/M00 Q0989",
      "taf": "TAF EDFH 091700Z 0918/1018 24015G25KT 6000 SCT002 BKN008"
    },
    {
      "icao": "EDJA",
      "alert": "OK",
      "vis_m": 9999,
      "fzfg": false,
      "metar_trigger": false,
      "taf_trigger": false,
      "metar": "METAR EDJA 091750Z COR 23019G34KT CAVOK 03/M02 Q0997",
      "taf": "TAF EDJA 091700Z 0918/1003 24015G25KT 9999 SCT035"
    },
    {
      "icao": "EDLW",
      "alert": "OK",
      "vis_m": 9999,
      "fzfg": false,
      "metar_trigger": false,
      "taf_trigger": false,
      "metar": "METAR EDLW 091750Z 16006KT 9999 -RA FEW013 SCT016 OVC033 03/01 Q0987",
      "taf": "TAF EDLW 091700Z 0918/1018 17007KT 9999 BKN015"
    },
    {
      "icao": "EDNY",
      "alert": "OK",
      "vis_m": 9999,
      "fzfg": false,
      "metar_trigger": false,
      "taf_trigger": false,
      "metar": "METAR EDNY 091750Z 23014KT CAVOK 05/M01 Q0998",
      "taf": "TAF EDNY 091700Z 0918/1003 23015G25KT 9999 SCT025 BKN040"
    },
    {
      "icao": "EDSB",
      "alert": "OK",
      "vis_m": 6000,
      "fzfg": false,
      "metar_trigger": false,
      "taf_trigger": false,
      "metar": "METAR EDSB 091750Z 21016KT 6000 RA FEW017 BKN020 OVC032 05/03 Q0995",
      "taf": "TAF EDSB 091700Z 0918/1018 20015G25KT 9999 BKN030"
    },
    {
      "icao": "EETN",
      "alert": "OK",
      "vis_m": 9999,
      "fzfg": false,
      "metar_trigger": false,
      "taf_trigger": false,
      "metar": "METAR EETN 091750Z 04013KT CAVOK M05/M08 Q1016 TEMPO 04016G30KT",
      "taf": "TAF EETN 091730Z 0918/1018 05018G30KT 9999 DRSN SCT020"
    },
    {
      "icao": "EFTU",
      "alert": "OK",
      "vis_m": 9999,
      "fzfg": false,
      "metar_trigger": false,
      "taf_trigger": false,
      "metar": "METAR EFTU 091750Z AUTO 05006KT 020V080 9999 NCD M15/M19 Q1021",
      "taf": "TAF EFTU 091730Z 0918/1018 04006KT CAVOK"
    },
    {
      "icao": "EGBB",
      "alert": "OK",
      "vis_m": 9999,
      "fzfg": false,
      "metar_trigger": false,
      "taf_trigger": false,
      "metar": "METAR EGBB 091750Z 31012KT CAVOK 03/01 Q1002",
      "taf": "TAF EGBB 091701Z 0918/1018 32008KT 9999 FEW010"
    },
    {
      "icao": "EGGP",
      "alert": "OK",
      "vis_m": 9999,
      "fzfg": false,
      "metar_trigger": false,
      "taf_trigger": false,
      "metar": "METAR EGGP 091750Z 33007KT CAVOK 04/01 Q1004",
      "taf": "TAF EGGP 091658Z 0918/1018 34010KT 9999 SCT020"
    },
    {
      "icao": "EGGW",
      "alert": "OK",
      "vis_m": 9999,
      "fzfg": false,
      "metar_trigger": false,
      "taf_trigger": false,
      "metar": "METAR EGGW 091750Z AUTO 32019KT 9999 BKN012 BKN017 03/01 Q0999",
      "taf": "TAF EGGW 091704Z 0918/1018 32013KT 9999 SCT010 BKN016"
    },
    {
      "icao": "EGKK",
      "alert": "OK",
      "vis_m": 9999,
      "fzfg": false,
      "metar_trigger": false,
      "taf_trigger": false,
      "metar": "METAR EGKK 091750Z 31015KT 9999 BKN022 04/02 Q0999",
      "taf": "TAF EGKK 091657Z 0918/1024 31012KT 9999 SCT020"
    },
    {
      "icao": "EGNM",
      "alert": "OK",
      "vis_m": 9999,
      "fzfg": false,
      "metar_trigger": false,
      "taf_trigger": false,
      "metar": "METAR EGNM 091750Z 36010KT 9999 SCT012 SCT020 02/00 Q1003",
      "taf": "TAF EGNM 091100Z 0912/1012 01010KT 9999 SCT025"
    },
    {
      "icao": "EGPD",
      "alert": "OK",
      "vis_m": 9999,
      "fzfg": false,
      "metar_trigger": false,
      "taf_trigger": false,
      "metar": "METAR EGPD 091750Z AUTO 15004KT 9999 SCT021/// BKN030/// BKN039/// //////TCU 02/01 Q1007 TEMPO 4000 SHRASN",
      "taf": "TAF EGPD 091659Z 0918/1018 12007KT 9999 FEW015 SCT040"
    },
    {
      "icao": "EGPF",
      "alert": "OK",
      "vis_m": 9999,
      "fzfg": false,
      "metar_trigger": false,
      "taf_trigger": false,
      "metar": "METAR EGPF 091750Z AUTO 12003KT 100V160 9999 FEW023 01/01 Q1006",
      "taf": "TAF EGPF 091659Z 0918/1018 VRB03KT 9999 SCT020"
    },
    {
      "icao": "EHBK",
      "alert": "OK",
      "vis_m": 9000,
      "fzfg": false,
      "metar_trigger": false,
      "taf_trigger": false,
      "metar": "METAR EHBK 091755Z AUTO 23016KT 200V260 9000 DZ SCT005 OVC006 02/01 Q0987 BECMG 6000 RASN",
      "taf": "TAF EHBK 091712Z 0918/1024 24013KT 9999 -RADZ BKN008"
    },
    {
      "icao": "EHEH",
      "alert": "OK",
      "vis_m": 4000,
      "fzfg": false,
      "metar_trigger": false,
      "taf_trigger": false,
      "metar": "METAR EHEH 091755Z AUTO 28008KT 230V330 4000 SNRA FEW003 OVC004 01/00 Q0987 YLO TEMPO 2000 -RASN SCT004 BKN006",
      "taf": ""
    },
    {
      "icao": "EKBI",
      "alert": "OK",
      "vis_m": 9999,
      "fzfg": false,
      "metar_trigger": false,
      "taf_trigger": false,
      "metar": "METAR EKBI 091750Z AUTO 07021G31KT 030V090 9999 -SN OVC034/// M01/M05 Q1006",
      "taf": "TAF EKBI 091727Z 0918/1018 07020KT 9000 BKN025"
    },
    {
      "icao": "EKCH",
      "alert": "OK",
      "vis_m": 9999,
      "fzfg": false,
      "metar_trigger": false,
      "taf_trigger": false,
      "metar": "METAR EKCH 091750Z AUTO 06018KT 9999 OVC033/// M01/M05 Q1009 TEMPO 09020G30KT",
      "taf": "TAF EKCH 091727Z 0918/1018 05018KT 9999 BKN018"
    },
    {
      "icao": "ENAL",
      "alert": "OK",
      "vis_m": 9999,
      "fzfg": false,
      "metar_trigger": false,
      "taf_trigger": false,
      "metar": "METAR ENAL 091750Z 17004KT 130V210 CAVOK 01/M07 Q1014",
      "taf": "TAF ENAL 091700Z 0918/1003 14008KT 9999 SCT060"
    },
    {
      "icao": "ENBR",
      "alert": "OK",
      "vis_m": 9999,
      "fzfg": false,
      "metar_trigger": false,
      "taf_trigger": false,
      "metar": "METAR ENBR 091750Z 09004KT CAVOK M04/M12 Q1014 NOSIG RMK WIND 1200FT 11008KT",
      "taf": "TAF ENBR 091700Z 0918/1018 08005KT CAVOK"
    },
    {
      "icao": "ENGM",
      "alert": "OK",
      "vis_m": 9999,
      "fzfg": false,
      "metar_trigger": false,
      "taf_trigger": false,
      "metar": "METAR ENGM 091750Z 03006KT 9999 -SN BKN029 M06/M07 Q1020 NOSIG",
      "taf": "TAF ENGM 091700Z 0918/1018 02005KT 9999 -SN FEW010 BKN030"
    },
    {
      "icao": "ENHD",
      "alert": "OK",
      "vis_m": 9999,
      "fzfg": false,
      "metar_trigger": false,
      "taf_trigger": false,
      "metar": "METAR ENHD 091750Z 10011KT CAVOK M01/M11 Q1014",
      "taf": "TAF ENHD 091400Z 0915/0923 10008KT CAVOK"
    },
    {
      "icao": "ENTC",
      "alert": "OK",
      "vis_m": 9999,
      "fzfg": false,
      "metar_trigger": false,
      "taf_trigger": false,
      "metar": "METAR ENTC 091750Z 21009KT CAVOK M07/M14 Q1023 NOSIG RMK WIND 2600FT 16015KT",
      "taf": "TAF ENTC 091700Z 0918/1018 20005KT CAVOK"
    },
    {
      "icao": "ENTO",
      "alert": "OK",
      "vis_m": 8000,
      "fzfg": false,
      "metar_trigger": false,
      "taf_trigger": false,
      "metar": "METAR ENTO 091750Z 04008KT 010V070 8000 -SN BKN020 M03/M06 Q1019 NOSIG",
      "taf": "TAF ENTO 091700Z 0918/1018 03010KT 9999 -SN BKN030"
    },
    {
      "icao": "ENVA",
      "alert": "OK",
      "vis_m": 9999,
      "fzfg": false,
      "metar_trigger": false,
      "taf_trigger": false,
      "metar": "METAR ENVA 091750Z 10008KT 070V140 CAVOK M02/M10 Q1017 TEMPO 16015G25KT RMK WIND 670FT 16017KT",
      "taf": "TAF ENVA 091700Z 0918/1018 10008KT CAVOK"
    },
    {
      "icao": "ENZV",
      "alert": "OK",
      "vis_m": 9999,
      "fzfg": false,
      "metar_trigger": false,
      "taf_trigger": false,
      "metar": "METAR ENZV 091750Z 10012KT CAVOK M00/M09 Q1014 NOSIG",
      "taf": "TAF ENZV 091700Z 0918/1018 08008KT CAVOK"
    },
    {
      "icao": "EPGD",
      "alert": "OK",
      "vis_m": 9999,
      "fzfg": false,
      "metar_trigger": false,
      "taf_trigger": false,
      "metar": "METAR EPGD 091800Z 07009KT 040V110 9999 BKN018 M05/M08 Q1005",
      "taf": "TAF EPGD 091730Z 0918/1018 05012KT 9999 BKN016"
    },
    {
      "icao": "EPKK",
      "alert": "OK",
      "vis_m": 5000,
      "fzfg": false,
      "metar_trigger": false,
      "taf_trigger": false,
      "metar": "METAR EPKK 091800Z 24003KT 5000 BR NSC M09/M11 Q1000",
      "taf": "TAF EPKK 091730Z 0918/1018 07003KT 6000 NSC"
    },
    {
      "icao": "EPKT",
      "alert": "OK",
      "vis_m": 5000,
      "fzfg": false,
      "metar_trigger": false,
      "taf_trigger": false,
      "metar": "METAR EPKT 091800Z 28002KT 5000 BR NSC M11/M12 Q1000",
      "taf": "TAF EPKT 091730Z 0918/1018 06002KT 6000 NSC"
    },
    {
      "icao": "EPLB",
      "alert": "OK",
      "vis_m": 9999,
      "fzfg": false,
      "metar_trigger": false,
      "taf_trigger": false,
      "metar": "METAR EPLB 091800Z 29008KT 270V330 9999 -SN OVC024 M09/M11 Q0999",
      "taf": "TAF EPLB 091730Z 0918/1018 29008KT 7000 -SN BKN020"
    },
    {
      "icao": "EPMO",
      "alert": "OK",
      "vis_m": 9999,
      "fzfg": false,
      "metar_trigger": false,
      "taf_trigger": false,
      "metar": "METAR EPMO 091800Z 35005KT CAVOK M11/M13 Q1002",
      "taf": "TAF EPMO 091730Z 0918/1018 33007KT 8000 BKN020"
    },
    {
      "icao": "EPPO",
      "alert": "OK",
      "vis_m": 9000,
      "fzfg": false,
      "metar_trigger": false,
      "taf_trigger": false,
      "metar": "METAR EPPO 091800Z 09006KT 9000 NSC M09/M11 Q1003",
      "taf": "TAF EPPO 091730Z 0918/1018 08005KT 7000 NSC"
    },
    {
      "icao": "EPRA",
      "alert": "OK",
      "vis_m": 8000,
      "fzfg": false,
      "metar_trigger": false,
      "taf_trigger": false,
      "metar": "METAR EPRA 091800Z 31007KT 8000 -SN BKN012 M11/M13 Q1001",
      "taf": "TAF EPRA 091730Z 0918/1003 31008KT 8000 SCT030"
    },
    {
      "icao": "EPRZ",
      "alert": "OK",
      "vis_m": 9999,
      "fzfg": false,
      "metar_trigger": false,
      "taf_trigger": false,
      "metar": "METAR EPRZ 091800Z 27007KT CAVOK M11/M13 Q1000",
      "taf": "TAF EPRZ 091730Z 0918/1018 VRB02KT 9999 FEW046"
    },
    {
      "icao": "EPSC",
      "alert": "OK",
      "vis_m": 9999,
      "fzfg": false,
      "metar_trigger": false,
      "taf_trigger": false,
      "metar": "METAR EPSC 091800Z 07007KT 010V090 CAVOK M05/M08 Q1004",
      "taf": "TAF EPSC 091730Z 0918/1018 07010KT CAVOK"
    },
    {
      "icao": "EPSY",
      "alert": "OK",
      "vis_m": 9999,
      "fzfg": false,
      "metar_trigger": false,
      "taf_trigger": false,
      "metar": "METAR EPSY 091800Z 30004KT 270V360 9999 BKN008 BKN014 M13/M14 Q1002",
      "taf": "TAF EPSY 091730Z 0918/1003 36007KT 9999 BKN012"
    },
    {
      "icao": "EPWA",
      "alert": "OK",
      "vis_m": 9999,
      "fzfg": false,
      "metar_trigger": false,
      "taf_trigger": false,
      "metar": "METAR EPWA 091800Z 36012KT 9999 -SN BKN020 M09/M13 Q1002 NOSIG",
      "taf": "TAF EPWA 091730Z 0918/1018 33008KT 8000 BKN020"
    },
    {
      "icao": "EPWR",
      "alert": "OK",
      "vis_m": 8000,
      "fzfg": false,
      "metar_trigger": false,
      "taf_trigger": false,
      "metar": "METAR EPWR 091800Z 09007KT 8000 NSC M06/M08 Q1001",
      "taf": "TAF EPWR 091730Z 0918/1018 07008KT 9000 NSC"
    },
    {
      "icao": "ESGG",
      "alert": "OK",
      "vis_m": 9999,
      "fzfg": false,
      "metar_trigger": false,
      "taf_trigger": false,
      "metar": "METAR ESGG 091750Z 07012KT 9999 BKN027 M04/M08 Q1013",
      "taf": "TAF ESGG 091730Z 0918/1018 04008KT 9999 BKN030"
    },
    {
      "icao": "ESKN",
      "alert": "OK",
      "vis_m": 9999,
      "fzfg": false,
      "metar_trigger": false,
      "taf_trigger": false,
      "metar": "METAR ESKN 091750Z 03010KT 9999 BKN036 M04/M08 Q1018",
      "taf": "TAF ESKN 091730Z 0918/1018 02010KT 9999 BKN035"
    },
    {
      "icao": "ESMS",
      "alert": "OK",
      "vis_m": 9999,
      "fzfg": false,
      "metar_trigger": false,
      "taf_trigger": false,
      "metar": "METAR ESMS 091750Z 08021KT 9999 BKN036 M01/M07 Q1007",
      "taf": "TAF ESMS 091727Z 0918/1018 08020KT 9999 BKN040"
    },
    {
      "icao": "ESSA",
      "alert": "OK",
      "vis_m": 9999,
      "fzfg": false,
      "metar_trigger": false,
      "taf_trigger": false,
      "metar": "METAR ESSA 091750Z 02010KT CAVOK M08/M11 Q1020 NOSIG",
      "taf": "TAF ESSA 091730Z 0918/1018 02012KT CAVOK"
    },
    {
      "icao": "EYKA",
      "alert": "OK",
      "vis_m": 9999,
      "fzfg": false,
      "metar_trigger": false,
      "taf_trigger": false,
      "metar": "METAR EYKA 091750Z 36011KT 320V040 9999 -SN BLSN OVC019 M09/M11 Q1001",
      "taf": "TAF EYKA 091723Z 0918/1018 02012KT 3000 SN BLSN SCT005 OVC010"
    },
    {
      "icao": "EYPA",
      "alert": "OK",
      "vis_m": 9999,
      "fzfg": false,
      "metar_trigger": false,
      "taf_trigger": false,
      "metar": "METAR EYPA 091750Z 04016KT CAVOK M07/M11 Q1007",
      "taf": "TAF EYPA 091722Z 0918/1018 04014KT 9000 NSC"
    },
    {
      "icao": "EYVI",
      "alert": "OK",
      "vis_m": 1400,
      "fzfg": false,
      "metar_trigger": false,
      "taf_trigger": false,
      "metar": "METAR EYVI 091750Z 01013KT 1400 R01/P2000N SN BLSN OVC013 M10/M12 Q0997 TEMPO 0800 +SN",
      "taf": "TAF EYVI 091725Z 0918/1018 01013KT 1500 SN OVC015"
    },
    {
      "icao": "GCFV",
      "alert": "OK",
      "vis_m": 9999,
      "fzfg": false,
      "metar_trigger": false,
      "taf_trigger": false,
      "metar": "METAR GCFV 091800Z 04014KT 9999 FEW030 BKN040 18/12 Q1028",
      "taf": "TAF GCFV 091400Z 0915/1015 05013KT 9999 SCT025 TX20/1014Z TN15/1006Z"
    },
    {
      "icao": "GCLP",
      "alert": "OK",
      "vis_m": 9999,
      "fzfg": false,
      "metar_trigger": false,
      "taf_trigger": false,
      "metar": "METAR GCLP 091800Z 03013KT 9999 SCT030 18/11 Q1028 NOSIG",
      "taf": "TAF GCLP 091400Z 0915/1015 03013KT 9999 FEW030 TX19/1014Z TN15/1006Z"
    },
    {
      "icao": "GCTS",
      "alert": "OK",
      "vis_m": 9999,
      "fzfg": false,
      "metar_trigger": false,
      "taf_trigger": false,
      "metar": "METAR GCTS 091800Z 07016KT 9999 FEW035 19/10 Q1028 NOSIG",
      "taf": "TAF GCTS 091400Z 0915/1015 10015KT 9999 FEW030 TX23/1014Z TN15/1006Z"
    },
    {
      "icao": "GMAD",
      "alert": "OK",
      "vis_m": 9999,
      "fzfg": false,
      "metar_trigger": false,
      "taf_trigger": false,
      "metar": "METAR GMAD 091800Z 25007KT CAVOK 14/08 Q1026 NOSIG",
      "taf": "TAF GMAD 091700Z 0918/1024 06008KT CAVOK"
    },
    {
      "icao": "GMMN",
      "alert": "OK",
      "vis_m": 9999,
      "fzfg": false,
      "metar_trigger": false,
      "taf_trigger": false,
      "metar": "METAR GMMN 091800Z 01007KT 9999 SCT023 11/08 Q1030 NOSIG",
      "taf": "TAF GMMN 091700Z 0918/1024 02006KT 9999 FEW023"
    },
    {
      "icao": "GMMX",
      "alert": "OK",
      "vis_m": 9999,
      "fzfg": false,
      "metar_trigger": false,
      "taf_trigger": false,
      "metar": "METAR GMMX 091800Z 01004KT 300V050 CAVOK 14/07 Q1028 NOSIG",
      "taf": "TAF GMMX 091700Z 0918/1024 06006KT 8000 NSC"
    },
    {
      "icao": "HEGN",
      "alert": "OK",
      "vis_m": 9999,
      "fzfg": false,
      "metar_trigger": false,
      "taf_trigger": false,
      "metar": "METAR HEGN 091700Z 34016KT CAVOK 20/07 Q1018 NOSIG",
      "taf": "TAF HEGN 091700Z 0918/1024 31010G22KT CAVOK"
    },
    {
      "icao": "HEMA",
      "alert": "OK",
      "vis_m": 8000,
      "fzfg": false,
      "metar_trigger": false,
      "taf_trigger": false,
      "metar": "METAR HEMA 091700Z 34018KT 8000 NSC 21/14 Q1016 NOSIG",
      "taf": "TAF HEMA 091700Z 0918/1024 34008G20KT 8000 NSC"
    },
    {
      "icao": "HESH",
      "alert": "OK",
      "vis_m": 9999,
      "fzfg": false,
      "metar_trigger": false,
      "taf_trigger": false,
      "metar": "METAR HESH 091700Z 03005KT CAVOK 21/09 Q1016 NOSIG",
      "taf": "TAF HESH 091700Z 0918/1024 36012KT CAVOK"
    },
    {
      "icao": "HESX",
      "alert": "OK",
      "vis_m": 9999,
      "fzfg": false,
      "metar_trigger": false,
      "taf_trigger": false,
      "metar": "METAR HESX 091700Z 32017KT CAVOK 16/07 Q1019 NOSIG",
      "taf": "TAF HESX 091700Z 0918/1024 32015KT 9999 SCT025"
    },
    {
      "icao": "LATI",
      "alert": "OK",
      "vis_m": null,
      "fzfg": false,
      "metar_trigger": false,
      "taf_trigger": false,
      "metar": "",
      "taf": "TAF LATI 091700Z 0918/1018 14013KT 9999 -RA SCT030 BKN060 TX14/1001Z TN07/1018Z"
    },
    {
      "icao": "LBPD",
      "alert": "OK",
      "vis_m": 9999,
      "fzfg": false,
      "metar_trigger": false,
      "taf_trigger": false,
      "metar": "METAR LBPD 091800Z AUTO 19003KT 140V210 9999 OVC080/// 03/M02 Q1006 NOSIG",
      "taf": "TAF LBPD 091700Z 0918/1018 VRB03KT 9999 SCT050"
    },
    {
      "icao": "LBSF",
      "alert": "OK",
      "vis_m": 9999,
      "fzfg": false,
      "metar_trigger": false,
      "taf_trigger": false,
      "metar": "METAR LBSF 091800Z AUTO 00000KT 9999 SCT057/// OVC071/// 01/M03 Q1005 NOSIG",
      "taf": "TAF LBSF 091700Z 0918/1018 VRB03KT 9999 SCT030 BKN050"
    },
    {
      "icao": "LBWN",
      "alert": "OK",
      "vis_m": 9999,
      "fzfg": false,
      "metar_trigger": false,
      "taf_trigger": false,
      "metar": "METAR LBWN 091800Z AUTO 03004KT 9999 NSC 00/M04 Q1006 NOSIG",
      "taf": "TAF LBWN 091700Z 0918/1018 VRB04KT CAVOK"
    },
    {
      "icao": "LCLK",
      "alert": "OK",
      "vis_m": 9999,
      "fzfg": false,
      "metar_trigger": false,
      "taf_trigger": false,
      "metar": "METAR LCLK 091800Z 30010KT 9999 FEW020 13/07 Q1012 NOSIG",
      "taf": "TAF LCLK 091730Z 0918/1018 30018KT 9999 FEW020 SCT040"
    },
    {
      "icao": "LCPH",
      "alert": "OK",
      "vis_m": 9999,
      "fzfg": false,
      "metar_trigger": false,
      "taf_trigger": false,
      "metar": "METAR LCPH 091800Z 32028KT 9999 FEW030 SCT045 15/06 Q1013 NOSIG",
      "taf": "TAF LCPH 091730Z 0918/1018 30025G35KT 9999 FEW025 SCT040"
    },
    {
      "icao": "LEAL",
      "alert": "OK",
      "vis_m": 9999,
      "fzfg": false,
      "metar_trigger": false,
      "taf_trigger": false,
      "metar": "METAR LEAL 091800Z 24009KT CAVOK 16/05 Q1020 WS R28 NOSIG",
      "taf": "TAF LEAL 091700Z 0918/1018 27009KT CAVOK TX16/1014Z TN08/1006Z"
    },
    {
      "icao": "LEBB",
      "alert": "OK",
      "vis_m": 9999,
      "fzfg": false,
      "metar_trigger": false,
      "taf_trigger": false,
      "metar": "METAR LEBB 091800Z 27010KT 230V300 9999 -RA FEW025TCU SCT037 BKN065 09/04 Q1021 TEMPO 3000 TSRA SCT025CB",
      "taf": "TAF LEBB 091700Z 0918/1018 29009KT 9999 FEW020 SCT040 TX10/0923Z TN07/0923Z"
    },
    {
      "icao": "LEBL",
      "alert": "OK",
      "vis_m": 9999,
      "fzfg": false,
      "metar_trigger": false,
      "taf_trigger": false,
      "metar": "METAR LEBL 091800Z 27023KT 9999 FEW050 13/M01 Q1012 NOSIG",
      "taf": "TAF LEBL 091700Z 0918/1018 30010KT 9999 FEW020 TX16/1013Z TN07/1006Z"
    },
    {
      "icao": "LECH",
      "alert": "OK",
      "vis_m": 9999,
      "fzfg": false,
      "metar_trigger": false,
      "taf_trigger": false,
      "metar": "METAR LECH 091800Z AUTO 29013G25KT 230V340 CAVOK 13/M03 Q1016",
      "taf": ""
    },
    {
      "icao": "LEMD",
      "alert": "OK",
      "vis_m": 9999,
      "fzfg": false,
      "metar_trigger": false,
      "taf_trigger": false,
      "metar": "METAR LEMD 091800Z 25017KT 9999 FEW050 09/M01 Q1020 NOSIG",
      "taf": "TAF LEMD 091700Z 0918/1024 27012KT 9999 SCT030 TX10/1014Z TN01/1006Z"
    },
    {
      "icao": "LEMG",
      "alert": "OK",
      "vis_m": 9999,
      "fzfg": false,
      "metar_trigger": false,
      "taf_trigger": false,
      "metar": "METAR LEMG 091800Z 32012KT 9999 FEW050 15/09 Q1025 NOSIG",
      "taf": "TAF LEMG 091700Z 0918/1018 29010KT 9999 FEW030 TX18/1014Z TN10/1006Z"
    },
    {
      "icao": "LEVC",
      "alert": "OK",
      "vis_m": 9999,
      "fzfg": false,
      "metar_trigger": false,
      "taf_trigger": false,
      "metar": "METAR LEVC 091800Z 26011KT 9999 FEW030 15/02 Q1017 NOSIG",
      "taf": "TAF LEVC 091700Z 0918/1018 27015KT 9999 FEW040 TX16/1014Z TN07/1006Z"
    },
    {
      "icao": "LEXJ",
      "alert": "OK",
      "vis_m": 9999,
      "fzfg": false,
      "metar_trigger": false,
      "taf_trigger": false,
      "metar": "METAR LEXJ 091800Z 27016KT 9999 SCT040 BKN060 BKN070 08/04 Q1021 RESHGR",
      "taf": "TAF LEXJ 091400Z 0915/1015 29015KT 9999 SCT025 TX11/0915Z TN07/0921Z"
    },
    {
      "icao": "LEZG",
      "alert": "OK",
      "vis_m": 9999,
      "fzfg": false,
      "metar_trigger": false,
      "taf_trigger": false,
      "metar": "METAR LEZG 091800Z 29008KT 9999 FEW085 08/03 Q1018 NOSIG",
      "taf": "TAF LEZG 091700Z 0918/1018 29012KT 9999 FEW040 TX11/1015Z TN05/1006Z"
    },
    {
      "icao": "LEZL",
      "alert": "OK",
      "vis_m": 9999,
      "fzfg": false,
      "metar_trigger": false,
      "taf_trigger": false,
      "metar": "METAR LEZL 091800Z 27006KT 9999 FEW045 14/12 Q1027 NOSIG",
      "taf": "TAF LEZL 091400Z 0915/1015 27010KT 9999 SCT030 TX16/0915Z TN06/1007Z"
    },
    {
      "icao": "LFBD",
      "alert": "OK",
      "vis_m": 9999,
      "fzfg": false,
      "metar_trigger": false,
      "taf_trigger": false,
      "metar": "METAR LFBD 091800Z AUTO 01012KT 9999 3700 -RA SCT018/// BKN030/// BKN040/// ///CB 05/04 Q1014",
      "taf": ""
    },
    {
      "icao": "LFLL",
      "alert": "OK",
      "vis_m": 9999,
      "fzfg": false,
      "metar_trigger": false,
      "taf_trigger": false,
      "metar": "METAR LFLL 091800Z 25009KT CAVOK 05/01 Q1005 NOSIG",
      "taf": "TAF LFLL 091700Z 0918/1024 25010KT 9999 SCT060"
    },
    {
      "icao": "LFLS",
      "alert": "OK",
      "vis_m": 9999,
      "fzfg": false,
      "metar_trigger": false,
      "taf_trigger": false,
      "metar": "METAR LFLS 091800Z AUTO 14005KT 9999 -RA FEW017/// BKN023/// BKN035/// ///TCU 02/02 Q1005 TEMPO 22010KT 4000 -SHRA BECMG BKN055",
      "taf": ""
    },
    {
      "icao": "LFMN",
      "alert": "OK",
      "vis_m": 9999,
      "fzfg": false,
      "metar_trigger": false,
      "taf_trigger": false,
      "metar": "METAR LFMN 091800Z 28010KT 260V320 9999 FEW066 SCT200 11/03 Q1003 NOSIG",
      "taf": ""
    },
    {
      "icao": "LFOB",
      "alert": "OK",
      "vis_m": 9999,
      "fzfg": false,
      "metar_trigger": false,
      "taf_trigger": false,
      "metar": "METAR LFOB 091800Z AUTO 29020KT 9999 FEW015 BKN029 BKN049 04/02 Q0998 TEMPO 4000 -SHRA BKN011TCU BECMG 28015G25KT",
      "taf": "TAF LFOB 091700Z 0918/1018 28015G25KT 9999 BKN025"
    },
    {
      "icao": "LFPO",
      "alert": "OK",
      "vis_m": 9999,
      "fzfg": false,
      "metar_trigger": false,
      "taf_trigger": false,
      "metar": "METAR LFPO 091814Z 27013KT 9999 -SHRA FEW023 SCT033 BKN150 05/02 Q1000 NOSIG",
      "taf": "TAF LFPO 091700Z 0918/1024 27015KT 9999 SCT020 BKN140"
    },
    {
      "icao": "LFSB",
      "alert": "OK",
      "vis_m": 9999,
      "fzfg": false,
      "metar_trigger": false,
      "taf_trigger": false,
      "metar": "METAR LFSB 091800Z AUTO 23017KT 200V270 9999 FEW056 BKN190 BKN210 06/00 Q0999 TEMPO SCT030TCU BECMG 25015G30KT",
      "taf": "TAF LFSB 091700Z 0918/1018 25015G30KT 9999 FEW030 SCT050"
    },
    {
      "icao": "LGAV",
      "alert": "OK",
      "vis_m": 9999,
      "fzfg": false,
      "metar_trigger": false,
      "taf_trigger": false,
      "metar": "METAR LGAV 091750Z VRB03KT 9999 FEW030 09/02 Q1012 NOSIG",
      "taf": "TAF LGAV 091700Z 0918/1018 24012KT 9999 FEW025"
    },
    {
      "icao": "LGTS",
      "alert": "OK",
      "vis_m": 9999,
      "fzfg": false,
      "metar_trigger": false,
      "taf_trigger": false,
      "metar": "METAR LGTS 091750Z VRB03KT 9999 FEW025 04/01 Q1009 NOSIG",
      "taf": "TAF LGTS 091700Z 0918/1018 VRB03KT 9999 FEW030"
    },
    {
      "icao": "LHBP",
      "alert": "OK",
      "vis_m": 6000,
      "fzfg": false,
      "metar_trigger": false,
      "taf_trigger": false,
      "metar": "METAR LHBP 091800Z 05003KT 6000 -SG OVC009 M07/M09 Q1002 NOSIG",
      "taf": "TAF LHBP 091715Z 0918/1018 09006KT 7000 BKN015 BKN025"
    },
    {
      "icao": "LHDC",
      "alert": "OK",
      "vis_m": 7000,
      "fzfg": false,
      "metar_trigger": false,
      "taf_trigger": false,
      "metar": "METAR LHDC 091745Z AUTO 08006KT 7000 OVC016 M05/M07 Q1002 NOSIG",
      "taf": "TAF LHDC 091415Z 0915/0924 VRB02KT 7000 NSC"
    },
    {
      "icao": "LIBD",
      "alert": "OK",
      "vis_m": 9999,
      "fzfg": false,
      "metar_trigger": false,
      "taf_trigger": false,
      "metar": "METAR LIBD 091750Z 21005KT CAVOK 12/07 Q1005",
      "taf": "TAF LIBD 091700Z 0918/1018 25016KT 9999 SCT040"
    },
    {
      "icao": "LIBG",
      "alert": "OK",
      "vis_m": 9999,
      "fzfg": false,
      "metar_trigger": false,
      "taf_trigger": false,
      "metar": "METAR LIBG 091750Z 23005KT 190V280 9999 FEW030 15/12 Q1006",
      "taf": "TAF LIBG 091700Z 0918/1003 21010KT 9999 SCT040"
    },
    {
      "icao": "LIBP",
      "alert": "OK",
      "vis_m": 9999,
      "fzfg": false,
      "metar_trigger": false,
      "taf_trigger": false,
      "metar": "METAR LIBP 091750Z AUTO 22013KT 9999 SCT100/// 10/07 Q1002",
      "taf": "TAF LIBP 091700Z 0918/1018 24012KT 9999 SCT050"
    },
    {
      "icao": "LIBR",
      "alert": "OK",
      "vis_m": 9999,
      "fzfg": false,
      "metar_trigger": false,
      "taf_trigger": false,
      "metar": "METAR LIBR 091750Z 22010KT CAVOK 14/09 Q1006",
      "taf": "TAF LIBR 091700Z 0918/1018 21013KT 9999 FEW040"
    },
    {
      "icao": "LICA",
      "alert": "OK",
      "vis_m": 9999,
      "fzfg": false,
      "metar_trigger": false,
      "taf_trigger": false,
      "metar": "METAR LICA 091750Z AUTO 25020KT 9999 SCT028/// BKN064/// 16/11 Q1011",
      "taf": "TAF LICA 091700Z 0918/1018 27026G38KT 9999 BKN016"
    },
    {
      "icao": "LICC",
      "alert": "OK",
      "vis_m": 9999,
      "fzfg": false,
      "metar_trigger": false,
      "taf_trigger": false,
      "metar": "METAR LICC 091750Z 26013KT 9999 FEW060 14/10 Q1014",
      "taf": "TAF LICC 091700Z 0918/1018 26013KT 9999 FEW050"
    },
    {
      "icao": "LICJ",
      "alert": "OK",
      "vis_m": 9999,
      "fzfg": false,
      "metar_trigger": false,
      "taf_trigger": false,
      "metar": "METAR LICJ 091750Z 22019KT 9999 SCT050 16/11 Q1013",
      "taf": "TAF LICJ 091700Z 0918/1018 23020G30KT 9999 SCT020"
    },
    {
      "icao": "LIMC",
      "alert": "OK",
      "vis_m": 4500,
      "fzfg": false,
      "metar_trigger": false,
      "taf_trigger": false,
      "metar": "METAR LIMC 091750Z VRB02KT 4500 BR NSC 00/M02 Q1001 NOSIG",
      "taf": "TAF LIMC 091700Z 0918/1024 VRB04KT 9000 SCT030"
    },
    {
      "icao": "LIME",
      "alert": "OK",
      "vis_m": 8000,
      "fzfg": false,
      "metar_trigger": false,
      "taf_trigger": false,
      "metar": "METAR LIME 091750Z 26005KT 220V290 8000 SCT030 00/M02 Q1000 NOSIG",
      "taf": "TAF LIME 091700Z 0918/1018 VRB04KT 9999 SCT050"
    },
    {
      "icao": "LIMF",
      "alert": "OK",
      "vis_m": 6000,
      "fzfg": false,
      "metar_trigger": false,
      "taf_trigger": false,
      "metar": "METAR LIMF 091750Z VRB01KT 6000 NSC 00/M03 Q1000",
      "taf": "TAF LIMF 091700Z 0918/1018 VRB05KT 9999 FEW030"
    },
    {
      "icao": "LIMJ",
      "alert": "OK",
      "vis_m": 9999,
      "fzfg": false,
      "metar_trigger": false,
      "taf_trigger": false,
      "metar": "METAR LIMJ 091750Z AUTO 03007KT 9999 NCD 09/03 Q0999",
      "taf": "TAF LIMJ 091700Z 0918/1018 36013KT 9999 FEW030"
    },
    {
      "icao": "LIPE",
      "alert": "OK",
      "vis_m": 7000,
      "fzfg": false,
      "metar_trigger": false,
      "taf_trigger": false,
      "metar": "METAR LIPE 091750Z 23005KT 7000 NSC 00/M02 Q1001",
      "taf": "TAF LIPE 091700Z 0918/1018 VRB05KT 6000 BKN015"
    },
    {
      "icao": "LIPH",
      "alert": "OK",
      "vis_m": 9999,
      "fzfg": false,
      "metar_trigger": false,
      "taf_trigger": false,
      "metar": "METAR LIPH 091750Z 25004KT 220V280 CAVOK 02/M01 Q1001",
      "taf": "TAF LIPH 091700Z 0918/1018 VRB05KT 9999 SCT040"
    },
    {
      "icao": "LIPQ",
      "alert": "OK",
      "vis_m": 9999,
      "fzfg": false,
      "metar_trigger": false,
      "taf_trigger": false,
      "metar": "METAR LIPQ 091750Z AUTO 33002KT 9999 OVC004/// 03/02 Q1000",
      "taf": "TAF LIPQ 091700Z 0918/1018 VRB05KT 9999 BKN030"
    },
    {
      "icao": "LIPR",
      "alert": "OK",
      "vis_m": 8000,
      "fzfg": false,
      "metar_trigger": false,
      "taf_trigger": false,
      "metar": "METAR LIPR 091750Z 17007G18KT 130V210 8000 NSC 02/01 Q0999 RERA",
      "taf": "TAF LIPR 091700Z 0918/1018 29010KT 9999 SCT040"
    },
    {
      "icao": "LIPX",
      "alert": "OK",
      "vis_m": 9999,
      "fzfg": false,
      "metar_trigger": false,
      "taf_trigger": false,
      "metar": "METAR LIPX 091750Z VRB02KT CAVOK M01/M03 Q1001",
      "taf": "TAF LIPX 091700Z 0918/1018 VRB05KT 9999 FEW020"
    },
    {
      "icao": "LIPY",
      "alert": "OK",
      "vis_m": 6000,
      "fzfg": false,
      "metar_trigger": false,
      "taf_trigger": false,
      "metar": "METAR LIPY 091750Z AUTO VRB02KT 6000 FEW006/// SCT100/// 04/03 Q1001",
      "taf": "TAF LIPY 091700Z 0918/1018 24012KT 9999 SCT050"
    },
    {
      "icao": "LIPZ",
      "alert": "OK",
      "vis_m": 9999,
      "fzfg": false,
      "metar_trigger": false,
      "taf_trigger": false,
      "metar": "METAR LIPZ 091750Z 26006KT 220V280 CAVOK 02/M01 Q1001 NOSIG",
      "taf": "TAF LIPZ 091700Z 0918/1024 VRB05KT 9999 SCT030"
    },
    {
      "icao": "LIRF",
      "alert": "OK",
      "vis_m": 9999,
      "fzfg": false,
      "metar_trigger": false,
      "taf_trigger": false,
      "metar": "METAR LIRF 091750Z 25016KT 9999 FEW020 14/09 Q1005 NOSIG",
      "taf": "TAF LIRF 091700Z 0918/1024 25023G35KT 9999 SCT020"
    },
    {
      "icao": "LIRN",
      "alert": "OK",
      "vis_m": 9999,
      "fzfg": false,
      "metar_trigger": false,
      "taf_trigger": false,
      "metar": "METAR LIRN 091750Z 25009KT 230V330 9999 SCT035 14/10 Q1007 RERA NOSIG",
      "taf": "TAF LIRN 091700Z 0918/1018 25018KT 9999 BKN025"
    },
    {
      "icao": "LIRP",
      "alert": "OK",
      "vis_m": 9999,
      "fzfg": false,
      "metar_trigger": false,
      "taf_trigger": false,
      "metar": "METAR LIRP 091745Z 26020KT 9999 SCT035 12/06 Q1002 NOSIG",
      "taf": "TAF LIRP 091700Z 0918/1018 27015KT 9999 FEW020 SCT040"
    },
    {
      "icao": "LIRZ",
      "alert": "OK",
      "vis_m": 9999,
      "fzfg": false,
      "metar_trigger": false,
      "taf_trigger": false,
      "metar": "METAR LIRZ 091750Z AUTO 24008KT 9999 BKN060/// 10/04 Q1003",
      "taf": "TAF LIRZ 091700Z 0918/1018 24012KT 9999 BKN040"
    },
    {
      "icao": "LJLJ",
      "alert": "OK",
      "vis_m": 5000,
      "fzfg": false,
      "metar_trigger": false,
      "taf_trigger": false,
      "metar": "METAR LJLJ 091800Z VRB01KT 5000 BR SCT004 OVC013 M00/M01 Q1000 NOSIG",
      "taf": "TAF LJLJ 091700Z 0918/1018 29006KT 6000 FEW003 BKN016 BKN030"
    },
    {
      "icao": "LKMT",
      "alert": "OK",
      "vis_m": 9999,
      "fzfg": false,
      "metar_trigger": false,
      "taf_trigger": false,
      "metar": "METAR LKMT 091800Z 27002KT 9999 SCT033 OVC041 M05/M08 Q1000 NOSIG",
      "taf": "TAF LKMT 091700Z 0918/1018 VRB02KT 9999 BKN035"
    },
    {
      "icao": "LKPR",
      "alert": "OK",
      "vis_m": 4000,
      "fzfg": false,
      "metar_trigger": false,
      "taf_trigger": false,
      "metar": "METAR LKPR 091800Z 09004KT 040V120 4000 -SN BR FEW005 SCT008 BKN020 M04/M05 Q0997 NOSIG",
      "taf": "TAF LKPR 091700Z 0918/1024 09007KT 7000 SCT008 OVC015"
    },
    {
      "icao": "LLBG",
      "alert": "OK",
      "vis_m": 9999,
      "fzfg": false,
      "metar_trigger": false,
      "taf_trigger": false,
      "metar": "METAR LLBG 091750Z 32007KT 9999 FEW030 BKN045 16/08 Q1016 TEMPO 7000 SHRA FEW025TCU RMK RERA",
      "taf": "TAF LLBG 091703Z 0918/1018 29012KT 9999 SCT035"
    },
    {
      "icao": "LMML",
      "alert": "OK",
      "vis_m": 9999,
      "fzfg": false,
      "metar_trigger": false,
      "taf_trigger": false,
      "metar": "METAR LMML 091745Z 24009KT 200V270 9999 FEW013 14/10 Q1017 NOSIG",
      "taf": "TAF LMML 091700Z 0918/1018 24018KT 9999 FEW015"
    },
    {
      "icao": "LOWW",
      "alert": "OK",
      "vis_m": 7000,
      "fzfg": false,
      "metar_trigger": false,
      "taf_trigger": false,
      "metar": "METAR LOWW 091750Z 13003KT 7000 FEW006 BKN009 M06/M08 Q1001 NOSIG",
      "taf": "TAF LOWW 091715Z 0918/1024 12003KT 6000 BKN008 TXM02/1013Z TNM06/1024Z"
    },
    {
      "icao": "LPFR",
      "alert": "OK",
      "vis_m": 9999,
      "fzfg": false,
      "metar_trigger": false,
      "taf_trigger": false,
      "metar": "METAR LPFR 091800Z 31013KT 9999 FEW012 15/09 Q1028",
      "taf": "TAF LPFR 091700Z 0918/1018 26012KT 9999 SCT012 BKN018"
    },
    {
      "icao": "LPMA",
      "alert": "OK",
      "vis_m": 7000,
      "fzfg": false,
      "metar_trigger": false,
      "taf_trigger": false,
      "metar": "METAR LPMA 091800Z 03012KT 7000 -SHRA BKN010 15/13 Q1032",
      "taf": "TAF LPMA 091700Z 0918/1018 05010KT 9999 SCT015"
    },
    {
      "icao": "LPPR",
      "alert": "OK",
      "vis_m": 9999,
      "fzfg": false,
      "metar_trigger": false,
      "taf_trigger": false,
      "metar": "METAR LPPR 091800Z 33008KT 300V360 9999 FEW024 SCT040 12/08 Q1027",
      "taf": "TAF LPPR 091700Z 0918/1018 30007KT 9999 FEW015 SCT030"
    },
    {
      "icao": "LPPS",
      "alert": "OK",
      "vis_m": 9999,
      "fzfg": false,
      "metar_trigger": false,
      "taf_trigger": false,
      "metar": "METAR LPPS 091800Z 03004KT 9999 FEW013 15/12 Q1032",
      "taf": "TAF LPPS 091700Z 0918/1024 07008KT 9999 SCT015 SCT030"
    },
    {
      "icao": "LPPT",
      "alert": "OK",
      "vis_m": 9999,
      "fzfg": false,
      "metar_trigger": false,
      "taf_trigger": false,
      "metar": "METAR LPPT 091800Z VRB01KT 9999 FEW020 BKN038 12/08 Q1029",
      "taf": "TAF LPPT 091700Z 0918/1024 32010KT 9999 SCT020"
    },
    {
      "icao": "LQBK",
      "alert": "OK",
      "vis_m": 4000,
      "fzfg": false,
      "metar_trigger": false,
      "taf_trigger": false,
      "metar": "METAR LQBK 091800Z 16011KT 4000 +RASN FEW007 BKN025 OVC037 01/01 Q1002 NOSIG",
      "taf": "TAF LQBK 091700Z 0918/1018 VRB03KT 7000 SCT040 TX00/1013Z TNM02/1006Z"
    },
    {
      "icao": "LQSA",
      "alert": "OK",
      "vis_m": 3000,
      "fzfg": false,
      "metar_trigger": false,
      "taf_trigger": false,
      "metar": "METAR LQSA 091800Z VRB02KT 3000 -FZDZ FEW030 SCT045 M02/M02 Q1001 NOSIG",
      "taf": ""
    },
    {
      "icao": "LQTZ",
      "alert": "OK",
      "vis_m": 1200,
      "fzfg": false,
      "metar_trigger": false,
      "taf_trigger": false,
      "metar": "METAR LQTZ 091800Z 28006KT 250V310 1200 R09/1700U BR BKN001 M00/M00 Q1000",
      "taf": "TAF LQTZ 091700Z 0918/1018 16005KT 3000 BR SCT005 BKN025 TX01/1013Z TNM03/1006Z"
    },
    {
      "icao": "LRBC",
      "alert": "OK",
      "vis_m": 9999,
      "fzfg": false,
      "metar_trigger": false,
      "taf_trigger": false,
      "metar": "METAR LRBC 091800Z 14004KT 110V170 CAVOK M05/M12 Q1002",
      "taf": "TAF LRBC 091700Z 0918/1003 20005KT CAVOK"
    },
    {
      "icao": "LRBS",
      "alert": "OK",
      "vis_m": 9999,
      "fzfg": false,
      "metar_trigger": false,
      "taf_trigger": false,
      "metar": "METAR LRBS 091800Z 25004KT CAVOK 01/M03 Q1005 NOSIG",
      "taf": "TAF LRBS 091700Z 0918/1018 VRB04KT CAVOK"
    },
    {
      "icao": "LRBV",
      "alert": "OK",
      "vis_m": 9999,
      "fzfg": false,
      "metar_trigger": false,
      "taf_trigger": false,
      "metar": "METAR LRBV 091800Z 07003KT 9999 -SN OVC047 M05/M08 Q1002",
      "taf": "TAF LRBV 091700Z 0918/1003 VRB04KT 9999 BKN050"
    },
    {
      "icao": "LRCL",
      "alert": "OK",
      "vis_m": 9999,
      "fzfg": false,
      "metar_trigger": false,
      "taf_trigger": false,
      "metar": "METAR LRCL 091800Z COR 08007KT 9999 OVC054 M06/M09 Q1002",
      "taf": "TAF LRCL 091700Z 0918/1003 VRB04KT 9999 OVC040"
    },
    {
      "icao": "LRCV",
      "alert": "OK",
      "vis_m": 9999,
      "fzfg": false,
      "metar_trigger": false,
      "taf_trigger": false,
      "metar": "METAR LRCV 091800Z 15002KT 9999 -SN SCT021 BKN032 M00/M02 Q1004",
      "taf": "TAF LRCV 091700Z 0918/1003 VRB04KT 9999 BKN040"
    },
    {
      "icao": "LRIA",
      "alert": "OK",
      "vis_m": 9999,
      "fzfg": false,
      "metar_trigger": false,
      "taf_trigger": false,
      "metar": "METAR LRIA 091800Z 16003KT 110V200 CAVOK M04/M08 Q1002",
      "taf": "TAF LRIA 091700Z 0918/1003 22006KT CAVOK"
    },
    {
      "icao": "LROP",
      "alert": "OK",
      "vis_m": 9999,
      "fzfg": false,
      "metar_trigger": false,
      "taf_trigger": false,
      "metar": "METAR LROP 091800Z 24004KT CAVOK M00/M03 Q1005 NOSIG",
      "taf": "TAF LROP 091700Z 0918/1018 VRB04KT CAVOK"
    },
    {
      "icao": "LRSB",
      "alert": "OK",
      "vis_m": 9999,
      "fzfg": false,
      "metar_trigger": false,
      "taf_trigger": false,
      "metar": "METAR LRSB 091800Z 10001KT 9999 BKN044 SCT060 M04/M08 Q1001",
      "taf": "TAF LRSB 091700Z 0918/1018 VRB04KT 9999 OVC045"
    },
    {
      "icao": "LRSM",
      "alert": "OK",
      "vis_m": 7000,
      "fzfg": false,
      "metar_trigger": false,
      "taf_trigger": false,
      "metar": "METAR LRSM 091800Z AUTO 08005KT 7000 OVC027/// M10/M11 Q1003",
      "taf": "TAF LRSM 091400Z 0915/0924 VRB04KT CAVOK"
    },
    {
      "icao": "LRSV",
      "alert": "OK",
      "vis_m": 9999,
      "fzfg": false,
      "metar_trigger": false,
      "taf_trigger": false,
      "metar": "METAR LRSV 091800Z 22008KT CAVOK M07/M12 Q0999",
      "taf": "TAF LRSV 091700Z 0918/1003 22008KT CAVOK"
    },
    {
      "icao": "LRTM",
      "alert": "OK",
      "vis_m": 9999,
      "fzfg": false,
      "metar_trigger": false,
      "taf_trigger": false,
      "metar": "METAR LRTM 091800Z AUTO 07005KT 9999 OVC049/// M06/M08 Q1003",
      "taf": "TAF LRTM 091400Z 0915/0924 VRB04KT CAVOK"
    },
    {
      "icao": "LRTR",
      "alert": "OK",
      "vis_m": 5000,
      "fzfg": false,
      "metar_trigger": false,
      "taf_trigger": false,
      "metar": "METAR LRTR 091800Z 10011KT 5000 BR BKN007 OVC027 M03/M03 Q1002",
      "taf": "TAF LRTR 091700Z 0918/1018 11010KT 3000 -SN BR BKN010 OVC025"
    },
    {
      "icao": "LTAC",
      "alert": "OK",
      "vis_m": 9999,
      "fzfg": false,
      "metar_trigger": false,
      "taf_trigger": false,
      "metar": "METAR LTAC 091750Z 27015KT CAVOK M03/M11 Q1010 NOSIG RMK RWY21C 26015KT RWY03L 26013KT RWY21R 25013KT RWY03R 25011KT RWY21L 26012KT",
      "taf": "TAF LTAC 091640Z 0918/1018 26012KT CAVOK"
    },
    {
      "icao": "LTFM",
      "alert": "OK",
      "vis_m": 9999,
      "fzfg": false,
      "metar_trigger": false,
      "taf_trigger": false,
      "metar": "METAR LTFM 091750Z 22012KT CAVOK 07/M02 Q1009 NOSIG RMK RWY17L 22014KT RWY34L 21010KT RWY16R 21009KT RWY36 22011KT RWY18 23014KT",
      "taf": "TAF LTFM 091640Z 0918/1024 20018KT CAVOK"
    },
    {
      "icao": "LUKK",
      "alert": "OK",
      "vis_m": 9999,
      "fzfg": false,
      "metar_trigger": false,
      "taf_trigger": false,
      "metar": "METAR LUKK 091800Z 23006KT CAVOK M04/M09 Q1002 NOSIG",
      "taf": "TAF LUKK 091702Z 0918/1018 VRB05KT 9999 SCT030"
    },
    {
      "icao": "LWOH",
      "alert": "OK",
      "vis_m": null,
      "fzfg": false,
      "metar_trigger": false,
      "taf_trigger": false,
      "metar": "",
      "taf": "TAF LWOH 091740Z 0918/1018 VRB03KT 3000 RA SCT005 OVC020"
    },
    {
      "icao": "LWSK",
      "alert": "OK",
      "vis_m": null,
      "fzfg": false,
      "metar_trigger": false,
      "taf_trigger": false,
      "metar": "",
      "taf": "TAF LWSK 091740Z 0918/1018 VRB02KT 9999 FEW050"
    },
    {
      "icao": "LYBE",
      "alert": "OK",
      "vis_m": 8000,
      "fzfg": false,
      "metar_trigger": false,
      "taf_trigger": false,
      "metar": "METAR LYBE 091800Z 11007KT 8000 SCT040 01/00 Q1000 NOSIG",
      "taf": "TAF LYBE 091700Z 0918/1018 10006KT 6000 BKN040 TX01/0918Z TN00/1006Z"
    },
    {
      "icao": "LYNI",
      "alert": "OK",
      "vis_m": 9999,
      "fzfg": false,
      "metar_trigger": false,
      "taf_trigger": false,
      "metar": "METAR LYNI 091800Z 20003KT 9999 -RA FEW050 OVC083 01/01 Q1005 NOSIG",
      "taf": "TAF LYNI 091700Z 0918/1018 17004KT 8000 SCT015 BKN030 TX01/0918Z TN00/1006Z"
    },
    {
      "icao": "LYPG",
      "alert": "OK",
      "vis_m": 4000,
      "fzfg": false,
      "metar_trigger": false,
      "taf_trigger": false,
      "metar": "METAR LYPG 091800Z 32004KT 270V360 4000 RA FEW007 SCT020 BKN040 02/01 Q1007 NOSIG",
      "taf": "TAF LYPG 091700Z 0918/1018 35005KT 7000 RA FEW010 SCT023 OVC070 TX08/1012Z TN02/0918Z"
    },
    {
      "icao": "LZIB",
      "alert": "OK",
      "vis_m": 9999,
      "fzfg": false,
      "metar_trigger": false,
      "taf_trigger": false,
      "metar": "METAR LZIB 091800Z 04006KT 9999 OVC009 M05/M06 Q1001 NOSIG",
      "taf": "TAF LZIB 091715Z 0918/1018 06005KT 9999 OVC008"
    },
    {
      "icao": "LZKZ",
      "alert": "OK",
      "vis_m": 9999,
      "fzfg": false,
      "metar_trigger": false,
      "taf_trigger": false,
      "metar": "METAR LZKZ 091800Z 09003KT CAVOK M11/M13 Q1002 NOSIG",
      "taf": "TAF LZKZ 091715Z 0918/1018 VRB02KT 9999 SCT045"
    },
    {
      "icao": "LZTT",
      "alert": "OK",
      "vis_m": 9999,
      "fzfg": false,
      "metar_trigger": false,
      "taf_trigger": false,
      "metar": "METAR LZTT 091800Z 33003KT 9999 FEW063 M11/M14 Q0997 NOSIG",
      "taf": "TAF LZTT 091715Z 0918/1018 VRB02KT 9999 BKN045"
    },
    {
      "icao": "OEJN",
      "alert": "OK",
      "vis_m": 9999,
      "fzfg": false,
      "metar_trigger": false,
      "taf_trigger": false,
      "metar": "METAR OEJN 091800Z 22004KT 9999 SCT040 26/17 Q1014 NOSIG",
      "taf": "TAF OEJN 091700Z 0918/1024 04006KT 6000 SCT040"
    },
    {
      "icao": "OEMA",
      "alert": "OK",
      "vis_m": 9999,
      "fzfg": false,
      "metar_trigger": false,
      "taf_trigger": false,
      "metar": "METAR OEMA 091800Z 22009KT CAVOK 23/09 Q1018 NOSIG",
      "taf": "TAF OEMA 091700Z 0918/1024 30010KT 7000 SCT040"
    },
    {
      "icao": "OJAI",
      "alert": "OK",
      "vis_m": 2500,
      "fzfg": false,
      "metar_trigger": false,
      "taf_trigger": false,
      "metar": "METAR OJAI 091800Z 24012KT 2500 -RA FEW015 BKN025 08/08 Q1016 NOSIG",
      "taf": "TAF OJAI 091700Z 0918/1024 26016KT 2500 RA BR SCT030 BKN035"
    },
    {
      "icao": "OMAA",
      "alert": "OK",
      "vis_m": 9999,
      "fzfg": false,
      "metar_trigger": false,
      "taf_trigger": false,
      "metar": "METAR OMAA 091800Z 03005KT CAVOK 19/13 Q1018 NOSIG",
      "taf": "TAF OMAA 091700Z 0918/1100 VRB02KT 8000 NSC"
    },
    {
      "icao": "OMDB",
      "alert": "OK",
      "vis_m": 9999,
      "fzfg": false,
      "metar_trigger": false,
      "taf_trigger": false,
      "metar": "METAR OMDB 091800Z 06004KT 360V110 CAVOK 22/12 Q1018 NOSIG",
      "taf": "TAF OMDB 091700Z 0918/1100 12005KT 8000 NSC"
    },
    {
      "icao": "UAAA",
      "alert": "OK",
      "vis_m": 1900,
      "fzfg": false,
      "metar_trigger": false,
      "taf_trigger": false,
      "metar": "METAR UAAA 091800Z VRB01MPS 1900 R23L/P2000U BR OVC007 M05/M06 Q1021 NOSIG",
      "taf": "TAF UAAA 091701Z 0918/1018 17003MPS 1200 BR FU BKN011 OVC020 TX03/1009Z TNM07/1001Z"
    },
    {
      "icao": "UBBB",
      "alert": "OK",
      "vis_m": 3000,
      "fzfg": false,
      "metar_trigger": false,
      "taf_trigger": false,
      "metar": "METAR UBBB 091800Z 31016KT 3000 BR BKN003 08/07 Q1001 NOSIG",
      "taf": ""
    },
    {
      "icao": "UDSG",
      "alert": "OK",
      "vis_m": 1800,
      "fzfg": false,
      "metar_trigger": false,
      "taf_trigger": false,
      "metar": "METAR UDSG 091800Z 15001KT 1800 R02/P2000N BR OVC026 M03/M03 Q1005 NOSIG",
      "taf": "TAF UDSG 091700Z 0918/1018 VRB06KT 1500 BR OVC020"
    },
    {
      "icao": "UDYZ",
      "alert": "OK",
      "vis_m": 1700,
      "fzfg": false,
      "metar_trigger": false,
      "taf_trigger": false,
      "metar": "METAR UDYZ 091800Z 27006KT 1700 R08/P2000D BR BKN033CB M00/M02 Q1006 NOSIG",
      "taf": "TAF UDYZ 091700Z 0918/1018 24006KT 1000 BR BKN030CB"
    },
    {
      "icao": "UGKO",
      "alert": "OK",
      "vis_m": 9999,
      "fzfg": false,
      "metar_trigger": false,
      "taf_trigger": false,
      "metar": "METAR UGKO 091800Z 07007KT 9999 OVC050 05/05 Q1006 NOSIG",
      "taf": "TAF UGKO 091700Z 0918/1018 25010KT 9999 OVC050 TX09/1012Z TN04/1003Z"
    }
  ]
}