{
  "ts_utc": "2026-01-29T08:54:44Z",
  "threshold_m": 150,
  "source": "stations_override.txt (ICAO list) + aviationweather.gov (METAR/TAF raw)",
  "station_count": 159,
  "stations": [
    {
      "icao": "BIKF",
      "alert": "OK",
      "vis_m": 9999,
      "fzfg": false,
      "metar_trigger": false,
      "taf_trigger": false,
      "metar": "METAR BIKF 290830Z 04009KT CAVOK 03/M01 Q0998",
      "taf": "TAF BIKF 290738Z 2909/3009 04012KT 9999 FEW025 TX05/2915Z TN01/3006Z"
    },
    {
      "icao": "BKPR",
      "alert": "OK",
      "vis_m": null,
      "fzfg": false,
      "metar_trigger": false,
      "taf_trigger": false,
      "metar": "",
      "taf": ""
    },
    {
      "icao": "EBCI",
      "alert": "OK",
      "vis_m": 800,
      "fzfg": false,
      "metar_trigger": false,
      "taf_trigger": false,
      "metar": "METAR EBCI 290820Z VRB02KT 0800 R24/P2000N -DZ FG BKN001 BKN002 01/00 Q0998 TEMPO 0400 -DZ FG BKN001",
      "taf": "TAF EBCI 290505Z 2906/3012 02003KT 2500 -SG BR BKN003"
    },
    {
      "icao": "EDDB",
      "alert": "OK",
      "vis_m": 9999,
      "fzfg": false,
      "metar_trigger": false,
      "taf_trigger": false,
      "metar": "METAR EDDB 290850Z AUTO 08011KT 9999 OVC010 M01/M03 Q1003 TEMPO BKN009",
      "taf": "TAF EDDB 290500Z 2906/3006 07010KT 9999 OVC012"
    },
    {
      "icao": "EDDH",
      "alert": "OK",
      "vis_m": 9999,
      "fzfg": false,
      "metar_trigger": false,
      "taf_trigger": false,
      "metar": "METAR EDDH 290850Z AUTO 08011KT 9999 OVC011 00/M02 Q1004 TEMPO OVC009",
      "taf": "TAF EDDH 290500Z 2906/3012 08010KT 9999 OVC015"
    },
    {
      "icao": "EDDK",
      "alert": "OK",
      "vis_m": 5000,
      "fzfg": false,
      "metar_trigger": false,
      "taf_trigger": false,
      "metar": "METAR EDDK 290850Z AUTO VRB02KT 5000 BR OVC008 01/00 Q0999 BECMG 5000",
      "taf": "TAF EDDK 290500Z 2906/3012 12003KT 6000 OVC006"
    },
    {
      "icao": "EDDN",
      "alert": "OK",
      "vis_m": 2800,
      "fzfg": false,
      "metar_trigger": false,
      "taf_trigger": false,
      "metar": "METAR EDDN 290850Z AUTO 34003KT 2800 -SN BR FEW003 OVC011 00/M00 Q0997 TEMPO 3000 BKN005",
      "taf": "TAF EDDN 290500Z 2906/3006 VRB02KT 3500 -SN BR BKN005"
    },
    {
      "icao": "EDDS",
      "alert": "OK",
      "vis_m": 3400,
      "fzfg": false,
      "metar_trigger": false,
      "taf_trigger": false,
      "metar": "METAR EDDS 290850Z AUTO VRB02KT 3400 -SN BR FEW006 SCT020 BKN025 01/00 Q0997 TEMPO 2000 RASN BKN004",
      "taf": "TAF EDDS 290500Z 2906/3006 VRB03KT 6000 SCT002 BKN010"
    },
    {
      "icao": "EDFH",
      "alert": "OK",
      "vis_m": 1500,
      "fzfg": true,
      "metar_trigger": false,
      "taf_trigger": false,
      "metar": "METAR EDFH 290820Z 15005KT 1500 R21/1300U FZFG BKN001 OVC004 M00/M00 Q0996",
      "taf": "TAF EDFH 290500Z 2906/3006 16005KT 3000 BR SCT001 BKN005"
    },
    {
      "icao": "EDJA",
      "alert": "OK",
      "vis_m": 3400,
      "fzfg": false,
      "metar_trigger": false,
      "taf_trigger": false,
      "metar": "METAR EDJA 290820Z 23008KT 3400 -SN OVC005 00/M00 Q0996",
      "taf": "TAF EDJA 290800Z 2909/2918 25008KT 4000 -SN OVC005"
    },
    {
      "icao": "EDLW",
      "alert": "OK",
      "vis_m": 3300,
      "fzfg": false,
      "metar_trigger": false,
      "taf_trigger": false,
      "metar": "METAR EDLW 290820Z 04006KT 3300 BR OVC004 M01/M01 Q0999",
      "taf": "TAF EDLW 290500Z 2906/3006 07006KT 6000 OVC007"
    },
    {
      "icao": "EDNY",
      "alert": "OK",
      "vis_m": 9999,
      "fzfg": false,
      "metar_trigger": false,
      "taf_trigger": false,
      "metar": "METAR EDNY 290820Z 25007KT 230V290 9999 -RA OVC008 02/01 Q0998",
      "taf": "TAF EDNY 290800Z 2909/2918 25006KT 9999 BKN011"
    },
    {
      "icao": "EDSB",
      "alert": "OK",
      "vis_m": 5000,
      "fzfg": false,
      "metar_trigger": false,
      "taf_trigger": false,
      "metar": "METAR EDSB 290820Z 19003KT 5000 -DZ BR BKN007 OVC012 03/02 Q0999",
      "taf": "TAF EDSB 290500Z 2906/3006 VRB03KT 6000 SCT003 BKN015"
    },
    {
      "icao": "EETN",
      "alert": "OK",
      "vis_m": 9999,
      "fzfg": false,
      "metar_trigger": false,
      "taf_trigger": false,
      "metar": "METAR EETN 290850Z 09009KT CAVOK M11/M13 Q1019 NOSIG",
      "taf": "TAF EETN 290530Z 2906/3006 09010KT 9999 SCT012"
    },
    {
      "icao": "EFTU",
      "alert": "OK",
      "vis_m": 9000,
      "fzfg": false,
      "metar_trigger": false,
      "taf_trigger": false,
      "metar": "METAR EFTU 290850Z AUTO 08006KT 9000 3800 -SN OVC017 M12/M14 Q1021",
      "taf": "TAF EFTU 290834Z 2909/3009 07006KT 9999 BKN015"
    },
    {
      "icao": "EGBB",
      "alert": "OK",
      "vis_m": 2300,
      "fzfg": true,
      "metar_trigger": false,
      "taf_trigger": false,
      "metar": "METAR EGBB 290820Z 11008KT 090V170 2300 BR OVC002 03/03 Q0997",
      "taf": "TAF EGBB 290454Z 2906/3006 14008KT 0300 FG FZFG VV///"
    },
    {
      "icao": "EGGP",
      "alert": "OK",
      "vis_m": 7000,
      "fzfg": false,
      "metar_trigger": false,
      "taf_trigger": false,
      "metar": "METAR EGGP 290820Z 12014KT 7000 BKN009 BKN012 04/03 Q0996",
      "taf": "TAF EGGP 290455Z 2906/3006 14007KT 9999 SCT020"
    },
    {
      "icao": "EGGW",
      "alert": "OK",
      "vis_m": 3300,
      "fzfg": false,
      "metar_trigger": false,
      "taf_trigger": false,
      "metar": "METAR EGGW 290820Z AUTO 12008KT 3300 BR BKN002 04/04 Q0998",
      "taf": ""
    },
    {
      "icao": "EGKK",
      "alert": "OK",
      "vis_m": 4000,
      "fzfg": true,
      "metar_trigger": false,
      "taf_trigger": false,
      "metar": "METAR EGKK 290820Z 08004KT 4000 VCFG SCT005 BKN018 02/02 Q0998",
      "taf": "TAF EGKK 290451Z 2906/3012 09003KT 0300 FZFG VV///"
    },
    {
      "icao": "EGNM",
      "alert": "OK",
      "vis_m": 2000,
      "fzfg": false,
      "metar_trigger": false,
      "taf_trigger": false,
      "metar": "METAR EGNM 290820Z 10011KT 070V130 2000 BR SCT002 OVC003 02/02 Q0998",
      "taf": ""
    },
    {
      "icao": "EGPD",
      "alert": "OK",
      "vis_m": 9999,
      "fzfg": false,
      "metar_trigger": false,
      "taf_trigger": false,
      "metar": "METAR EGPD 290820Z AUTO 14012KT 9999 SCT016 BKN025 BKN032 05/02 Q1001 TEMPO BKN014",
      "taf": "TAF EGPD 290454Z 2906/3006 13012KT 9999 SCT015 BKN030"
    },
    {
      "icao": "EGPF",
      "alert": "OK",
      "vis_m": 8000,
      "fzfg": false,
      "metar_trigger": false,
      "taf_trigger": false,
      "metar": "METAR EGPF 290820Z 06007KT 040V110 8000 NSC 02/01 Q0998",
      "taf": "TAF EGPF 290501Z 2906/3006 09007KT 9999 FEW018 SCT040"
    },
    {
      "icao": "EHBK",
      "alert": "OK",
      "vis_m": 5000,
      "fzfg": false,
      "metar_trigger": false,
      "taf_trigger": false,
      "metar": "METAR EHBK 290825Z AUTO 26003KT 230V310 5000 BR SCT007/// BKN008/// OVC009/// 00/M01 Q0999 TEMPO BKN002",
      "taf": "TAF EHBK 290509Z 2906/3012 30003KT 3000 BR BKN004"
    },
    {
      "icao": "EHEH",
      "alert": "OK",
      "vis_m": null,
      "fzfg": false,
      "metar_trigger": false,
      "taf_trigger": false,
      "metar": "",
      "taf": "TAF EHEH 290513Z 2906/3012 02006KT 4000 BR -SN BKN006 OVC008"
    },
    {
      "icao": "EKBI",
      "alert": "OK",
      "vis_m": 9999,
      "fzfg": false,
      "metar_trigger": false,
      "taf_trigger": false,
      "metar": "METAR EKBI 290850Z 06015KT 9999 BKN025 M02/M06 Q1009",
      "taf": "TAF EKBI 290832Z 2909/3009 08015KT 9999 BKN020"
    },
    {
      "icao": "EKCH",
      "alert": "OK",
      "vis_m": 9999,
      "fzfg": false,
      "metar_trigger": false,
      "taf_trigger": false,
      "metar": "METAR EKCH 290850Z AUTO 05013KT 9999 OVC023/// M02/M06 Q1010 NOSIG",
      "taf": "TAF EKCH 290827Z 2909/3009 08008KT 9999 BKN022"
    },
    {
      "icao": "ENAL",
      "alert": "OK",
      "vis_m": 9999,
      "fzfg": false,
      "metar_trigger": false,
      "taf_trigger": false,
      "metar": "METAR ENAL 290820Z 13012KT 9999 FEW036 M02/M06 Q1012",
      "taf": "TAF ENAL 290800Z 2909/2918 14008KT 9999 BKN030"
    },
    {
      "icao": "ENBR",
      "alert": "OK",
      "vis_m": 9999,
      "fzfg": false,
      "metar_trigger": false,
      "taf_trigger": false,
      "metar": "METAR ENBR 290820Z 12004KT 9999 BKN026 M03/M07 Q1012 NOSIG RMK WIND 1200FT 16009KT",
      "taf": "TAF ENBR 290500Z 2906/3006 VRB03KT 9999 SCT030"
    },
    {
      "icao": "ENGM",
      "alert": "OK",
      "vis_m": 9999,
      "fzfg": false,
      "metar_trigger": false,
      "taf_trigger": false,
      "metar": "METAR ENGM 290820Z 35004KT CAVOK M15/M17 Q1017 NOSIG",
      "taf": "TAF ENGM 290500Z 2906/3006 02007KT 9999 BKN030"
    },
    {
      "icao": "ENHD",
      "alert": "OK",
      "vis_m": 9999,
      "fzfg": false,
      "metar_trigger": false,
      "taf_trigger": false,
      "metar": "METAR ENHD 290820Z 10006KT CAVOK M07/M13 Q1012",
      "taf": "TAF ENHD 290800Z 2909/2918 10008KT CAVOK"
    },
    {
      "icao": "ENTC",
      "alert": "OK",
      "vis_m": 9999,
      "fzfg": false,
      "metar_trigger": false,
      "taf_trigger": false,
      "metar": "METAR ENTC 290820Z 23006KT 190V260 9999 SCT007 SCT062 M07/M09 Q1021 TEMPO BKN007 RMK WIND 2600FT 28004KT",
      "taf": "TAF ENTC 290500Z 2906/3006 22005KT 9999 FEW007 SCT025"
    },
    {
      "icao": "ENTO",
      "alert": "OK",
      "vis_m": 9999,
      "fzfg": false,
      "metar_trigger": false,
      "taf_trigger": false,
      "metar": "METAR ENTO 290820Z 02006KT 9999 BKN015 OVC031 M09/M11 Q1017 TEMPO BKN014",
      "taf": "TAF ENTO 290500Z 2906/3006 02008KT 9999 -SN BKN025"
    },
    {
      "icao": "ENVA",
      "alert": "OK",
      "vis_m": 9999,
      "fzfg": false,
      "metar_trigger": false,
      "taf_trigger": false,
      "metar": "METAR ENVA 290820Z 12006KT CAVOK M17/M20 Q1016 NOSIG RMK WIND 670FT 10009KT",
      "taf": "TAF ENVA 290500Z 2906/3006 10008KT CAVOK"
    },
    {
      "icao": "ENZV",
      "alert": "OK",
      "vis_m": 9999,
      "fzfg": false,
      "metar_trigger": false,
      "taf_trigger": false,
      "metar": "METAR ENZV 290820Z 15006KT CAVOK M08/M13 Q1013 NOSIG NOSIG",
      "taf": ""
    },
    {
      "icao": "EPGD",
      "alert": "OK",
      "vis_m": 9999,
      "fzfg": false,
      "metar_trigger": false,
      "taf_trigger": false,
      "metar": "METAR EPGD 290830Z 05011KT 9999 -SG SCT005 OVC006 M07/M08 Q1008",
      "taf": "TAF EPGD 290530Z 2906/3006 08010KT 9999 OVC007"
    },
    {
      "icao": "EPKK",
      "alert": "OK",
      "vis_m": 4000,
      "fzfg": false,
      "metar_trigger": false,
      "taf_trigger": false,
      "metar": "METAR EPKK 290830Z 06011KT 4000 BR OVC006 M01/M02 Q1001",
      "taf": "TAF EPKK 290830Z 2909/3009 06010KT 3500 -FZDZ OVC005"
    },
    {
      "icao": "EPKT",
      "alert": "OK",
      "vis_m": 9999,
      "fzfg": false,
      "metar_trigger": false,
      "taf_trigger": false,
      "metar": "METAR EPKT 290830Z 06013KT 9999 BKN008 M01/M03 Q1000",
      "taf": "TAF EPKT 290530Z 2906/3006 06010KT 9999 -SN OVC008"
    },
    {
      "icao": "EPLB",
      "alert": "OK",
      "vis_m": 9000,
      "fzfg": false,
      "metar_trigger": false,
      "taf_trigger": false,
      "metar": "METAR EPLB 290830Z 03008KT 9000 OVC016 M00/M01 Q1003",
      "taf": "TAF EPLB 290530Z 2906/3006 02007KT 7000 BKN018"
    },
    {
      "icao": "EPMO",
      "alert": "OK",
      "vis_m": 7000,
      "fzfg": false,
      "metar_trigger": false,
      "taf_trigger": false,
      "metar": "METAR EPMO 290830Z 03009KT 7000 FEW009 OVC025 M06/M07 Q1005",
      "taf": "TAF EPMO 290530Z 2906/3006 04010KT 7000 SCT008 BKN020"
    },
    {
      "icao": "EPPO",
      "alert": "OK",
      "vis_m": 7000,
      "fzfg": false,
      "metar_trigger": false,
      "taf_trigger": false,
      "metar": "METAR EPPO 290830Z 06010KT 7000 SCT007 OVC022 M04/M06 Q1005",
      "taf": "TAF EPPO 290530Z 2906/3006 04010KT 7000 OVC008"
    },
    {
      "icao": "EPRA",
      "alert": "OK",
      "vis_m": 5000,
      "fzfg": false,
      "metar_trigger": false,
      "taf_trigger": false,
      "metar": "METAR EPRA 290830Z 04006KT 5000 BR BKN005 M01/M02 Q1003",
      "taf": "TAF EPRA 290830Z 2909/2918 05008KT 5000 BR BKN005"
    },
    {
      "icao": "EPRZ",
      "alert": "OK",
      "vis_m": 9999,
      "fzfg": false,
      "metar_trigger": false,
      "taf_trigger": false,
      "metar": "METAR EPRZ 290830Z 03010KT 9999 OVC007 M01/M02 Q1001",
      "taf": "TAF EPRZ 290530Z 2906/3006 04008KT 7000 OVC003"
    },
    {
      "icao": "EPSC",
      "alert": "OK",
      "vis_m": 9999,
      "fzfg": false,
      "metar_trigger": false,
      "taf_trigger": false,
      "metar": "METAR EPSC 290830Z 05008KT 9999 BKN005 OVC007 M04/M05 Q1006",
      "taf": ""
    },
    {
      "icao": "EPSY",
      "alert": "OK",
      "vis_m": 9000,
      "fzfg": false,
      "metar_trigger": false,
      "taf_trigger": false,
      "metar": "METAR EPSY 290830Z 03009KT 9000 OVC007 M08/M09 Q1006",
      "taf": "TAF EPSY 290830Z 2909/2918 04010KT 8000 BKN010"
    },
    {
      "icao": "EPWA",
      "alert": "OK",
      "vis_m": 7000,
      "fzfg": false,
      "metar_trigger": false,
      "taf_trigger": false,
      "metar": "METAR EPWA 290830Z 01007KT 340V040 7000 OVC008 M03/M05 Q1005 NOSIG",
      "taf": "TAF EPWA 290830Z 2909/3009 03008KT 7000 SCT008 BKN025"
    },
    {
      "icao": "EPWR",
      "alert": "OK",
      "vis_m": 9000,
      "fzfg": false,
      "metar_trigger": false,
      "taf_trigger": false,
      "metar": "METAR EPWR 290830Z 07010KT 9000 OVC012 00/M03 Q1002",
      "taf": "TAF EPWR 290830Z 2909/3009 08010KT 9999 OVC012"
    },
    {
      "icao": "ESGG",
      "alert": "OK",
      "vis_m": 9999,
      "fzfg": false,
      "metar_trigger": false,
      "taf_trigger": false,
      "metar": "METAR ESGG 290820Z 09009KT 9999 OVC027 M04/M10 Q1012",
      "taf": "TAF ESGG 290830Z 2909/3009 08008KT 9999 OVC030"
    },
    {
      "icao": "ESKN",
      "alert": "OK",
      "vis_m": 9999,
      "fzfg": false,
      "metar_trigger": false,
      "taf_trigger": false,
      "metar": "METAR ESKN 290820Z 03008KT 350V060 9999 BKN030 M05/M07 Q1016",
      "taf": "TAF ESKN 290830Z 2909/3009 02009KT 9999 -SN BKN025"
    },
    {
      "icao": "ESMS",
      "alert": "OK",
      "vis_m": 9999,
      "fzfg": false,
      "metar_trigger": false,
      "taf_trigger": false,
      "metar": "METAR ESMS 290820Z 09016KT 9999 OVC019 M02/M06 Q1009",
      "taf": "TAF ESMS 290827Z 2909/3009 08016KT 9999 OVC020"
    },
    {
      "icao": "ESSA",
      "alert": "OK",
      "vis_m": 9999,
      "fzfg": false,
      "metar_trigger": false,
      "taf_trigger": false,
      "metar": "METAR ESSA 290820Z 02009KT 9999 BKN023 M07/M09 Q1018 NOSIG",
      "taf": "TAF ESSA 290830Z 2909/3009 02009KT 9999 -SHSN BKN020"
    },
    {
      "icao": "EYKA",
      "alert": "OK",
      "vis_m": 9999,
      "fzfg": false,
      "metar_trigger": false,
      "taf_trigger": false,
      "metar": "METAR EYKA 290850Z 02006KT 340V070 9999 -SN OVC015 M09/M12 Q1009",
      "taf": "TAF EYKA 290509Z 2906/3006 03010KT 9000 OVC015"
    },
    {
      "icao": "EYPA",
      "alert": "OK",
      "vis_m": 9999,
      "fzfg": false,
      "metar_trigger": false,
      "taf_trigger": false,
      "metar": "METAR EYPA 290850Z 07010KT CAVOK M09/M14 Q1012",
      "taf": "TAF EYPA 290509Z 2906/3006 05013KT 9000 OVC015"
    },
    {
      "icao": "EYVI",
      "alert": "OK",
      "vis_m": 9999,
      "fzfg": false,
      "metar_trigger": false,
      "taf_trigger": false,
      "metar": "METAR EYVI 290850Z 05011KT 9999 -SN OVC010 M10/M11 Q1007 NOSIG",
      "taf": ""
    },
    {
      "icao": "GCFV",
      "alert": "OK",
      "vis_m": 9999,
      "fzfg": false,
      "metar_trigger": false,
      "taf_trigger": false,
      "metar": "METAR GCFV 290830Z 34009KT 290V360 9999 FEW024 BKN030 18/14 Q1024",
      "taf": "TAF GCFV 290800Z 2909/3009 33008KT 9999 BKN030 TX23/2914Z TN15/3006Z"
    },
    {
      "icao": "GCLP",
      "alert": "OK",
      "vis_m": 9999,
      "fzfg": false,
      "metar_trigger": false,
      "taf_trigger": false,
      "metar": "METAR GCLP 290830Z 33006KT 300V360 9999 BKN032 18/12 Q1024 NOSIG",
      "taf": "TAF GCLP 290800Z 2909/3009 36010KT 9999 BKN035 TX22/2914Z TN16/3006Z"
    },
    {
      "icao": "GCTS",
      "alert": "OK",
      "vis_m": 9999,
      "fzfg": false,
      "metar_trigger": false,
      "taf_trigger": false,
      "metar": "METAR GCTS 290830Z VRB01KT 9999 FEW020 BKN035 19/14 Q1024 NOSIG",
      "taf": "TAF GCTS 290800Z 2909/3009 26008KT 9999 BKN030 TX23/2914Z TN15/3006Z"
    },
    {
      "icao": "GMAD",
      "alert": "OK",
      "vis_m": 8000,
      "fzfg": false,
      "metar_trigger": false,
      "taf_trigger": false,
      "metar": "METAR GMAD 290830Z 31004KT 8000 BKN020 15/15 Q1022 NOSIG",
      "taf": "TAF GMAD 290500Z 2906/3012 06008KT 6000 BKN006"
    },
    {
      "icao": "GMMN",
      "alert": "OK",
      "vis_m": 9999,
      "fzfg": false,
      "metar_trigger": false,
      "taf_trigger": false,
      "metar": "METAR GMMN 290830Z 21011KT 9999 BKN004 BKN016 15/14 Q1021 NOSIG",
      "taf": "TAF GMMN 290500Z 2906/3012 22015KT 8000 BKN008 BKN016"
    },
    {
      "icao": "GMMX",
      "alert": "OK",
      "vis_m": 5000,
      "fzfg": false,
      "metar_trigger": false,
      "taf_trigger": false,
      "metar": "METAR GMMX 290830Z 29003KT 5000 BKN020 SCT080 13/12 Q1023 NOSIG",
      "taf": "TAF GMMX 290500Z 2906/3012 06006KT 8000 SCT020 SCT080"
    },
    {
      "icao": "HEGN",
      "alert": "OK",
      "vis_m": 9999,
      "fzfg": false,
      "metar_trigger": false,
      "taf_trigger": false,
      "metar": "METAR HEGN 290800Z 30005KT CAVOK 20/04 Q1022 NOSIG",
      "taf": "TAF HEGN 290500Z 2906/3012 30008KT 6000 NSC"
    },
    {
      "icao": "HEMA",
      "alert": "OK",
      "vis_m": 4000,
      "fzfg": false,
      "metar_trigger": false,
      "taf_trigger": false,
      "metar": "METAR HEMA 290800Z 34008KT 4000 DU NSC 21/08 Q1021 NOSIG",
      "taf": "TAF HEMA 290500Z 2906/3012 31008KT 6000 NSC"
    },
    {
      "icao": "HESH",
      "alert": "OK",
      "vis_m": 9999,
      "fzfg": false,
      "metar_trigger": false,
      "taf_trigger": false,
      "metar": "METAR HESH 290800Z 36008KT CAVOK 21/06 Q1021 NOSIG",
      "taf": "TAF HESH 290500Z 2906/3012 22008KT 6000 NSC"
    },
    {
      "icao": "HESX",
      "alert": "OK",
      "vis_m": 9999,
      "fzfg": false,
      "metar_trigger": false,
      "taf_trigger": false,
      "metar": "METAR HESX 290800Z 19009KT CAVOK 16/04 Q1020 NOSIG",
      "taf": "TAF HESX 290500Z 2906/3012 19012KT 9999 SCT025"
    },
    {
      "icao": "LATI",
      "alert": "OK",
      "vis_m": 9999,
      "fzfg": false,
      "metar_trigger": false,
      "taf_trigger": false,
      "metar": "METAR LATI 290850Z VRB02KT 9999 SCT060 BKN078 11/08 Q0994 NOSIG",
      "taf": "TAF LATI 290500Z 2906/3006 VRB05KT 9999 SCT030 BKN060 TX13/2912Z TN09/3005Z"
    },
    {
      "icao": "LBPD",
      "alert": "OK",
      "vis_m": 8000,
      "fzfg": false,
      "metar_trigger": false,
      "taf_trigger": false,
      "metar": "METAR LBPD 290830Z AUTO 31005KT 8000 -RA OVC057/// 05/05 Q0999 NOSIG",
      "taf": "TAF LBPD 290500Z 2906/3006 VRB04KT 9999 BKN040"
    },
    {
      "icao": "LBSF",
      "alert": "OK",
      "vis_m": 9999,
      "fzfg": false,
      "metar_trigger": false,
      "taf_trigger": false,
      "metar": "METAR LBSF 290830Z 10008KT 9999 BKN058 OVC070 06/03 Q0998 NOSIG",
      "taf": "TAF LBSF 290500Z 2906/3006 12010KT 9999 SCT040 BKN070"
    },
    {
      "icao": "LBWN",
      "alert": "OK",
      "vis_m": 9999,
      "fzfg": false,
      "metar_trigger": false,
      "taf_trigger": false,
      "metar": "METAR LBWN 290830Z AUTO 12005KT 9999 FEW017/// 12/10 Q1000 NOSIG",
      "taf": "TAF LBWN 290500Z 2906/3006 09010KT 9999 SCT020 BKN045"
    },
    {
      "icao": "LCLK",
      "alert": "OK",
      "vis_m": 9999,
      "fzfg": false,
      "metar_trigger": false,
      "taf_trigger": false,
      "metar": "METAR LCLK 290830Z 22010KT 9999 FEW020 19/13 Q1017 NOSIG",
      "taf": "TAF LCLK 290530Z 2906/3006 26010KT 9999 FEW030 SCT040"
    },
    {
      "icao": "LCPH",
      "alert": "OK",
      "vis_m": 9999,
      "fzfg": false,
      "metar_trigger": false,
      "taf_trigger": false,
      "metar": "METAR LCPH 290830Z VRB02KT 9999 FEW030 BKN065 17/11 Q1017 NOSIG",
      "taf": "TAF LCPH 290530Z 2906/3006 07007KT 9999 FEW030 SCT040"
    },
    {
      "icao": "LEAL",
      "alert": "OK",
      "vis_m": 9999,
      "fzfg": false,
      "metar_trigger": false,
      "taf_trigger": false,
      "metar": "METAR LEAL 290830Z 30004KT 9999 SCT066 14/08 Q1004 NOSIG",
      "taf": "TAF LEAL 290500Z 2906/3006 VRB04KT 9999 FEW040 TX22/2914Z TN11/2906Z"
    },
    {
      "icao": "LEBB",
      "alert": "OK",
      "vis_m": 9999,
      "fzfg": false,
      "metar_trigger": false,
      "taf_trigger": false,
      "metar": "METAR LEBB 290830Z 20012KT 150V260 9999 FEW070 13/06 Q0998 NOSIG",
      "taf": "TAF LEBB 290500Z 2906/3006 22009KT 9999 FEW030 TX16/2914Z TN08/3002Z"
    },
    {
      "icao": "LEBL",
      "alert": "OK",
      "vis_m": 9999,
      "fzfg": false,
      "metar_trigger": false,
      "taf_trigger": false,
      "metar": "METAR LEBL 290830Z 33003KT 200V360 9999 FEW020 09/05 Q1002 NOSIG",
      "taf": "TAF LEBL 290500Z 2906/3006 VRB04KT 9999 FEW020 TX14/2912Z TN07/2906Z"
    },
    {
      "icao": "LECH",
      "alert": "OK",
      "vis_m": 9000,
      "fzfg": false,
      "metar_trigger": false,
      "taf_trigger": false,
      "metar": "METAR LECH 290830Z AUTO 00000KT 9000 NSC 08/05 Q1002",
      "taf": ""
    },
    {
      "icao": "LEMD",
      "alert": "OK",
      "vis_m": 9999,
      "fzfg": false,
      "metar_trigger": false,
      "taf_trigger": false,
      "metar": "METAR LEMD 290830Z 22007KT 190V250 9999 SCT050 10/10 Q1004 NOSIG",
      "taf": "TAF LEMD 290500Z 2906/3012 VRB04KT 9999 SCT020 TX14/2915Z TN06/3007Z"
    },
    {
      "icao": "LEMG",
      "alert": "OK",
      "vis_m": 9999,
      "fzfg": false,
      "metar_trigger": false,
      "taf_trigger": false,
      "metar": "METAR LEMG 290830Z 03001KT 9999 FEW025 SCT050 14/13 Q1011 NOSIG",
      "taf": "TAF LEMG 290500Z 2906/3006 29006KT 9999 FEW020 BKN025 TX19/2914Z TN11/3006Z"
    },
    {
      "icao": "LEVC",
      "alert": "OK",
      "vis_m": 9999,
      "fzfg": false,
      "metar_trigger": false,
      "taf_trigger": false,
      "metar": "METAR LEVC 290830Z 16004KT 9999 FEW035 11/08 Q1003 NOSIG",
      "taf": "TAF LEVC 290500Z 2906/3006 VRB04KT 9999 FEW030 TX21/2914Z TN10/2906Z"
    },
    {
      "icao": "LEXJ",
      "alert": "OK",
      "vis_m": 9999,
      "fzfg": false,
      "metar_trigger": false,
      "taf_trigger": false,
      "metar": "METAR LEXJ 290830Z 23009KT 170V250 9999 FEW040 12/05 Q0997",
      "taf": "TAF LEXJ 290800Z 2909/3009 22009KT 9999 FEW040 TX16/2914Z TN09/3005Z"
    },
    {
      "icao": "LEZG",
      "alert": "OK",
      "vis_m": 9999,
      "fzfg": false,
      "metar_trigger": false,
      "taf_trigger": false,
      "metar": "METAR LEZG 290830Z 07006KT 9999 FEW003 OVC050 06/06 Q1002 NOSIG",
      "taf": "TAF LEZG 290500Z 2906/3006 10006KT 9999 FEW040 TX14/2913Z TN06/2906Z"
    },
    {
      "icao": "LEZL",
      "alert": "OK",
      "vis_m": 9000,
      "fzfg": false,
      "metar_trigger": false,
      "taf_trigger": false,
      "metar": "METAR LEZL 290830Z 24017KT 200V270 9000 OVC011 17/17 Q1012 BECMG BKN016",
      "taf": "TAF LEZL 290800Z 2909/3009 24012KT 8000 FEW010 BKN016 TX18/2915Z TN10/3007Z"
    },
    {
      "icao": "LFBD",
      "alert": "OK",
      "vis_m": 9999,
      "fzfg": false,
      "metar_trigger": false,
      "taf_trigger": false,
      "metar": "METAR LFBD 290830Z AUTO 16005KT CAVOK 06/05 Q0998 BECMG 23010KT",
      "taf": "TAF LFBD 290500Z 2906/3012 VRB03KT CAVOK TX12/2915Z TN05/2906Z"
    },
    {
      "icao": "LFLL",
      "alert": "OK",
      "vis_m": 1500,
      "fzfg": false,
      "metar_trigger": false,
      "taf_trigger": false,
      "metar": "METAR LFLL 290830Z 24002KT 1500 0400N R35L/1800D R17R/1400U R35R/1100U R17L/0450U PRFG BR FEW000 02/02 Q1000 NOSIG",
      "taf": ""
    },
    {
      "icao": "LFLS",
      "alert": "OK",
      "vis_m": 9999,
      "fzfg": false,
      "metar_trigger": false,
      "taf_trigger": false,
      "metar": "METAR LFLS 290830Z AUTO 23002KT 0300 0250 R09/0325N R27/P2400 FG VV/// 02/02 Q0999 BECMG CAVOK",
      "taf": "TAF LFLS 290800Z 2909/3009 VRB03KT CAVOK"
    },
    {
      "icao": "LFMN",
      "alert": "OK",
      "vis_m": 9999,
      "fzfg": false,
      "metar_trigger": false,
      "taf_trigger": false,
      "metar": "METAR LFMN 290830Z 32009KT 9999 FEW016 08/03 Q0995 NOSIG",
      "taf": "TAF LFMN 290800Z 2909/3015 33010KT CAVOK"
    },
    {
      "icao": "LFOB",
      "alert": "OK",
      "vis_m": 300,
      "fzfg": true,
      "metar_trigger": false,
      "taf_trigger": false,
      "metar": "METAR LFOB 290830Z AUTO VRB02KT 0300 0250 R30/0325N R12/0400N FG VV/// 00/00 Q0999 TEMPO 0400 FZFG",
      "taf": "TAF LFOB 290500Z 2906/3006 15005KT 3000 BR OVC003"
    },
    {
      "icao": "LFPO",
      "alert": "OK",
      "vis_m": 450,
      "fzfg": false,
      "metar_trigger": false,
      "taf_trigger": false,
      "metar": "METAR LFPO 290830Z 20003KT 160V240 0450 R02/0800U R25/0800N R07/0600D R24/0650N R06/0550N FG VV/// 01/01 Q1000 NOSIG",
      "taf": "TAF LFPO 290500Z 2906/3012 16005KT 0800 FG VV///"
    },
    {
      "icao": "LFSB",
      "alert": "OK",
      "vis_m": 9999,
      "fzfg": false,
      "metar_trigger": false,
      "taf_trigger": false,
      "metar": "METAR LFSB 290830Z AUTO 14003KT 9999 BKN014 BKN039 OVC062 04/03 Q0999 TEMPO 25010G20KT BECMG FEW010 BKN030",
      "taf": "TAF LFSB 290500Z 2906/3006 VRB03KT 9999 BKN009 OVC025"
    },
    {
      "icao": "LGAV",
      "alert": "OK",
      "vis_m": 9999,
      "fzfg": false,
      "metar_trigger": false,
      "taf_trigger": false,
      "metar": "METAR LGAV 290820Z 20019KT 9999 SCT015 SCT035 BKN070 16/10 Q1000 NOSIG",
      "taf": "TAF LGAV 290500Z 2906/3006 19018KT 9999 SCT018 SCT070"
    },
    {
      "icao": "LGTS",
      "alert": "OK",
      "vis_m": 8000,
      "fzfg": false,
      "metar_trigger": false,
      "taf_trigger": false,
      "metar": "METAR LGTS 290820Z VRB02KT 8000 4000NE BR SCT006 BKN025 09/09 Q0998 NOSIG",
      "taf": "TAF LGTS 290500Z 2906/3006 34010KT 9999 FEW010 BKN025"
    },
    {
      "icao": "LHBP",
      "alert": "OK",
      "vis_m": 9999,
      "fzfg": false,
      "metar_trigger": false,
      "taf_trigger": false,
      "metar": "METAR LHBP 290830Z 06007KT 030V090 9999 -RA OVC005 04/03 Q0996 NOSIG",
      "taf": "TAF LHBP 290515Z 2906/3006 06009KT 8000 -RA FEW007 OVC025"
    },
    {
      "icao": "LHDC",
      "alert": "OK",
      "vis_m": 9999,
      "fzfg": false,
      "metar_trigger": false,
      "taf_trigger": false,
      "metar": "METAR LHDC 290815Z AUTO 05007KT 9999 -RA OVC037 05/04 Q0997 TEMPO 4500 RA OVC014",
      "taf": "TAF LHDC 290815Z 2909/2918 06008KT 9999 -RA FEW008 OVC035"
    },
    {
      "icao": "LIBD",
      "alert": "OK",
      "vis_m": 9999,
      "fzfg": false,
      "metar_trigger": false,
      "taf_trigger": false,
      "metar": "METAR LIBD 290820Z 26005KT 9999 FEW040 09/08 Q0993",
      "taf": "TAF LIBD 290500Z 2906/3006 VRB05KT 9999 FEW020 SCT050"
    },
    {
      "icao": "LIBG",
      "alert": "OK",
      "vis_m": 9999,
      "fzfg": false,
      "metar_trigger": false,
      "taf_trigger": false,
      "metar": "METAR LIBG 290750Z 35007KT 9999 -RA FEW020 SCT040 10/09 Q0992",
      "taf": "TAF LIBG 290800Z 2909/2918 05010KT 9999 SCT030"
    },
    {
      "icao": "LIBP",
      "alert": "OK",
      "vis_m": 9999,
      "fzfg": false,
      "metar_trigger": false,
      "taf_trigger": false,
      "metar": "METAR LIBP 290820Z AUTO 20003KT 180V240 9999 OVC064/// 10/04 Q0995",
      "taf": "TAF LIBP 290500Z 2906/3006 VRB05KT 9999 SCT060"
    },
    {
      "icao": "LIBR",
      "alert": "OK",
      "vis_m": 9999,
      "fzfg": false,
      "metar_trigger": false,
      "taf_trigger": false,
      "metar": "METAR LIBR 290820Z 35005KT 9999 -RA FEW025 12/10 Q0993 RERA",
      "taf": "TAF LIBR 290500Z 2906/3006 17008KT 9999 SCT020"
    },
    {
      "icao": "LICA",
      "alert": "OK",
      "vis_m": 9999,
      "fzfg": false,
      "metar_trigger": false,
      "taf_trigger": false,
      "metar": "METAR LICA 290820Z AUTO VRB02KT 9999 RA OVC009/// 11/11 Q0993",
      "taf": "TAF LICA 290500Z 2906/3006 07010KT 9999 SCT040"
    },
    {
      "icao": "LICC",
      "alert": "OK",
      "vis_m": 9999,
      "fzfg": false,
      "metar_trigger": false,
      "taf_trigger": false,
      "metar": "METAR LICC 290820Z 27014KT 9999 FEW030 14/12 Q0994",
      "taf": "TAF LICC 290500Z 2906/3006 26020G32KT 9999 SCT030"
    },
    {
      "icao": "LICJ",
      "alert": "OK",
      "vis_m": 9999,
      "fzfg": false,
      "metar_trigger": false,
      "taf_trigger": false,
      "metar": "METAR LICJ 290820Z 30023KT 9999 SCT030 SCT045 14/09 Q1000",
      "taf": "TAF LICJ 290500Z 2906/3006 29026G36KT 9999 SCT040"
    },
    {
      "icao": "LIMC",
      "alert": "OK",
      "vis_m": 300,
      "fzfg": false,
      "metar_trigger": false,
      "taf_trigger": false,
      "metar": "METAR LIMC 290820Z 04003KT 0300 R35R/0400N R17L/0400N R35L/0400N FG VV002 03/03 Q0994 NOSIG",
      "taf": "TAF LIMC 290500Z 2906/3012 VRB05KT 6000 BKN020"
    },
    {
      "icao": "LIME",
      "alert": "OK",
      "vis_m": 2500,
      "fzfg": false,
      "metar_trigger": false,
      "taf_trigger": false,
      "metar": "METAR LIME 290820Z VRB01KT 2500 BR BKN003 05/05 Q0994 BECMG 5000 BR",
      "taf": "TAF LIME 290500Z 2906/3006 VRB04KT 6000 SCT010 BKN025"
    },
    {
      "icao": "LIMF",
      "alert": "OK",
      "vis_m": 4000,
      "fzfg": false,
      "metar_trigger": false,
      "taf_trigger": false,
      "metar": "METAR LIMF 290820Z VRB02KT 4000 BR NSC 02/01 Q0994",
      "taf": ""
    },
    {
      "icao": "LIMJ",
      "alert": "OK",
      "vis_m": 9999,
      "fzfg": false,
      "metar_trigger": false,
      "taf_trigger": false,
      "metar": "METAR LIMJ 290820Z 04008KT 9999 FEW060 08/03 Q0994",
      "taf": "TAF LIMJ 290500Z 2906/3006 04008KT 9999 SCT040"
    },
    {
      "icao": "LIPE",
      "alert": "OK",
      "vis_m": 7000,
      "fzfg": false,
      "metar_trigger": false,
      "taf_trigger": false,
      "metar": "METAR LIPE 290820Z VRB02KT 7000 SCT070 05/05 Q0994",
      "taf": "TAF LIPE 290500Z 2906/3006 VRB05KT 4000 BR SCT020"
    },
    {
      "icao": "LIPH",
      "alert": "OK",
      "vis_m": 700,
      "fzfg": false,
      "metar_trigger": false,
      "taf_trigger": false,
      "metar": "METAR LIPH 290820Z 20002KT 0700 R07/1400U FG VV002 06/06 Q0995",
      "taf": "TAF LIPH 290500Z 2906/3006 VRB05KT 0800 FG BKN002"
    },
    {
      "icao": "LIPQ",
      "alert": "OK",
      "vis_m": 9999,
      "fzfg": false,
      "metar_trigger": false,
      "taf_trigger": false,
      "metar": "METAR LIPQ 290820Z AUTO VRB01KT 9999 OVC011/// 08/07 Q0995",
      "taf": "TAF LIPQ 290500Z 2906/3006 VRB05KT 2000 BR OVC005"
    },
    {
      "icao": "LIPR",
      "alert": "OK",
      "vis_m": 300,
      "fzfg": false,
      "metar_trigger": false,
      "taf_trigger": false,
      "metar": "METAR LIPR 290820Z 02003KT 0300 R30/0500N FG OVC002 05/05 Q0995",
      "taf": "TAF LIPR 290500Z 2906/3006 VRB05KT 3000 BR FEW005"
    },
    {
      "icao": "LIPX",
      "alert": "OK",
      "vis_m": 100,
      "fzfg": false,
      "metar_trigger": false,
      "taf_trigger": false,
      "metar": "METAR LIPX 290820Z VRB02KT 0100 R04/0225N FG VV001 05/05 Q0995",
      "taf": "TAF LIPX 290500Z 2906/3006 24006KT 6000 SCT020"
    },
    {
      "icao": "LIPY",
      "alert": "OK",
      "vis_m": 9999,
      "fzfg": false,
      "metar_trigger": false,
      "taf_trigger": false,
      "metar": "METAR LIPY 290820Z AUTO 18006KT 9999 OVC067/// 10/06 Q0994",
      "taf": "TAF LIPY 290500Z 2906/3006 VRB05KT 9999 FEW030 BKN070"
    },
    {
      "icao": "LIPZ",
      "alert": "OK",
      "vis_m": 900,
      "fzfg": false,
      "metar_trigger": false,
      "taf_trigger": false,
      "metar": "METAR LIPZ 290820Z 09003KT 060V140 0900 R04R/1800N FG BKN002 05/05 Q0995 NOSIG",
      "taf": "TAF LIPZ 290500Z 2906/3012 24006KT 0400 FG OVC001"
    },
    {
      "icao": "LIRF",
      "alert": "OK",
      "vis_m": 9999,
      "fzfg": false,
      "metar_trigger": false,
      "taf_trigger": false,
      "metar": "METAR LIRF 290820Z 08006KT 050V120 9999 SCT030 09/09 Q0996 NOSIG",
      "taf": "TAF LIRF 290500Z 2906/3012 07007KT 9999 SCT030"
    },
    {
      "icao": "LIRN",
      "alert": "OK",
      "vis_m": 9999,
      "fzfg": false,
      "metar_trigger": false,
      "taf_trigger": false,
      "metar": "METAR LIRN 290820Z 30005KT 9999 FEW020 BKN060 10/08 Q0996 NOSIG",
      "taf": "TAF LIRN 290500Z 2906/3006 04008KT 9999 SCT030"
    },
    {
      "icao": "LIRP",
      "alert": "OK",
      "vis_m": 9999,
      "fzfg": false,
      "metar_trigger": false,
      "taf_trigger": false,
      "metar": "METAR LIRP 290815Z 08012KT 9999 -RA SCT020 SCT030 09/09 Q0993 NOSIG",
      "taf": "TAF LIRP 290500Z 2906/3006 12007KT 9999 SCT020 SCT050"
    },
    {
      "icao": "LIRZ",
      "alert": "OK",
      "vis_m": 9999,
      "fzfg": false,
      "metar_trigger": false,
      "taf_trigger": false,
      "metar": "METAR LIRZ 290820Z AUTO 19003KT 9999 FEW005/// SCT120/// 07/07 Q0995",
      "taf": "TAF LIRZ 290500Z 2906/3006 VRB05KT 7000 BKN025"
    },
    {
      "icao": "LJLJ",
      "alert": "OK",
      "vis_m": 300,
      "fzfg": false,
      "metar_trigger": false,
      "taf_trigger": false,
      "metar": "METAR LJLJ 290830Z VRB02KT 0300 R30/1000N FG VV001 05/04 Q0994 NOSIG",
      "taf": ""
    },
    {
      "icao": "LKMT",
      "alert": "OK",
      "vis_m": 3500,
      "fzfg": false,
      "metar_trigger": false,
      "taf_trigger": false,
      "metar": "METAR LKMT 290830Z 03011KT 3500 -SN BR OVC005 M00/M01 Q0999 NOSIG",
      "taf": "TAF LKMT 290500Z 2906/3006 03009KT 4000 -SN BR SCT003 OVC005"
    },
    {
      "icao": "LKPR",
      "alert": "OK",
      "vis_m": 1600,
      "fzfg": false,
      "metar_trigger": false,
      "taf_trigger": false,
      "metar": "METAR LKPR 290830Z 07010KT 1600 SN FEW003 OVC004 M01/M01 Q0997 TEMPO 1200 SN OVC002",
      "taf": "TAF LKPR 290800Z 2909/3015 06009KT 3000 -SN BR OVC005"
    },
    {
      "icao": "LLBG",
      "alert": "OK",
      "vis_m": 9999,
      "fzfg": false,
      "metar_trigger": false,
      "taf_trigger": false,
      "metar": "METAR LLBG 290850Z 20011KT 9999 SCT050 17/10 Q1020 NOSIG RMK SCT080",
      "taf": "TAF LLBG 290500Z 2906/3006 18010KT 9999 SCT035"
    },
    {
      "icao": "LMML",
      "alert": "OK",
      "vis_m": 9999,
      "fzfg": false,
      "metar_trigger": false,
      "taf_trigger": false,
      "metar": "METAR LMML 290845Z 26030G43KT 9999 FEW028 15/10 Q1003 NOSIG",
      "taf": "TAF LMML 290500Z 2906/3006 28030G40KT 9999 FEW020"
    },
    {
      "icao": "LOWW",
      "alert": "OK",
      "vis_m": 2600,
      "fzfg": false,
      "metar_trigger": false,
      "taf_trigger": false,
      "metar": "METAR LOWW 290820Z 32005KT 2600 1300W R29/P1500D R34/P1500D -RA BR FEW003 BKN008 03/03 Q0997 BECMG 5000 BR TEMPO SCT008 BKN013",
      "taf": ""
    },
    {
      "icao": "LPFR",
      "alert": "OK",
      "vis_m": 6000,
      "fzfg": false,
      "metar_trigger": false,
      "taf_trigger": false,
      "metar": "METAR LPFR 290830Z 24016KT 6000 FEW003 BKN005 16/15 Q1013",
      "taf": "TAF LPFR 290500Z 2906/3006 25018KT 8000 SCT008 BKN015"
    },
    {
      "icao": "LPMA",
      "alert": "OK",
      "vis_m": 9999,
      "fzfg": false,
      "metar_trigger": false,
      "taf_trigger": false,
      "metar": "METAR LPMA 290830Z 31003KT 9999 FEW015 16/13 Q1021",
      "taf": "TAF LPMA 290500Z 2906/3006 VRB05KT 9999 SCT015"
    },
    {
      "icao": "LPPR",
      "alert": "OK",
      "vis_m": 5000,
      "fzfg": false,
      "metar_trigger": false,
      "taf_trigger": false,
      "metar": "METAR LPPR 290830Z 29005KT 230V340 5000 RADZ BR SCT002 BKN003 14/13 Q1003",
      "taf": ""
    },
    {
      "icao": "LPPS",
      "alert": "OK",
      "vis_m": 9999,
      "fzfg": false,
      "metar_trigger": false,
      "taf_trigger": false,
      "metar": "METAR LPPS 290830Z 28014KT 9999 FEW012 18/16 Q1021",
      "taf": "TAF LPPS 290500Z 2906/3012 27015KT 9999 SCT012 SCT030"
    },
    {
      "icao": "LPPT",
      "alert": "OK",
      "vis_m": 4500,
      "fzfg": false,
      "metar_trigger": false,
      "taf_trigger": false,
      "metar": "METAR LPPT 290830Z 25017KT 4500 -RADZ BR SCT004 BKN007 16/16 Q1009",
      "taf": "TAF LPPT 290500Z 2906/3012 23015KT 6000 -RA SCT004 BKN008"
    },
    {
      "icao": "LQBK",
      "alert": "OK",
      "vis_m": 4000,
      "fzfg": false,
      "metar_trigger": false,
      "taf_trigger": false,
      "metar": "METAR LQBK 290830Z VRB03KT 4000 BR FEW002 05/05 Q0995 TEMPO 6000 NSW",
      "taf": "TAF LQBK 290500Z 2906/3006 16005KT 9999 SCT045 TX10/2913Z TN02/2906Z"
    },
    {
      "icao": "LQSA",
      "alert": "OK",
      "vis_m": 9999,
      "fzfg": false,
      "metar_trigger": false,
      "taf_trigger": false,
      "metar": "METAR LQSA 290830Z VRB02KT CAVOK 06/04 Q0995 NOSIG",
      "taf": ""
    },
    {
      "icao": "LQTZ",
      "alert": "OK",
      "vis_m": 9999,
      "fzfg": false,
      "metar_trigger": false,
      "taf_trigger": false,
      "metar": "METAR LQTZ 290830Z VRB01KT CAVOK 11/04 Q0995",
      "taf": "TAF LQTZ 290500Z 2906/3006 27005KT 9999 SCT050 TX13/2913Z TN02/2906Z"
    },
    {
      "icao": "LRBC",
      "alert": "OK",
      "vis_m": 6000,
      "fzfg": false,
      "metar_trigger": false,
      "taf_trigger": false,
      "metar": "METAR LRBC 290830Z 34009KT 6000 OVC005 02/02 Q1000",
      "taf": "TAF LRBC 290800Z 2909/2918 34008KT 7000 OVC005"
    },
    {
      "icao": "LRBS",
      "alert": "OK",
      "vis_m": 9999,
      "fzfg": false,
      "metar_trigger": false,
      "taf_trigger": false,
      "metar": "METAR LRBS 290830Z 00000KT CAVOK 06/04 Q0999 NOSIG",
      "taf": "TAF LRBS 290500Z 2906/3006 VRB04KT 5000 BR NSC"
    },
    {
      "icao": "LRBV",
      "alert": "OK",
      "vis_m": 9999,
      "fzfg": false,
      "metar_trigger": false,
      "taf_trigger": false,
      "metar": "METAR LRBV 290830Z 05003KT 350V090 9999 FEW064 SCT081 04/01 Q0997",
      "taf": "TAF LRBV 290800Z 2909/2918 VRB04KT 9999 SCT065"
    },
    {
      "icao": "LRCL",
      "alert": "OK",
      "vis_m": 2000,
      "fzfg": false,
      "metar_trigger": false,
      "taf_trigger": false,
      "metar": "METAR LRCL 290830Z 00000KT 2000 -RA BR SCT025 OVC038 02/02 Q0997",
      "taf": "TAF LRCL 290800Z 2909/2918 VRB04KT 3000 -RA BR OVC030"
    },
    {
      "icao": "LRCV",
      "alert": "OK",
      "vis_m": 9999,
      "fzfg": false,
      "metar_trigger": false,
      "taf_trigger": false,
      "metar": "METAR LRCV 290830Z 07006KT CAVOK 05/05 Q0998",
      "taf": "TAF LRCV 290800Z 2909/2918 VRB04KT CAVOK"
    },
    {
      "icao": "LRIA",
      "alert": "OK",
      "vis_m": 350,
      "fzfg": false,
      "metar_trigger": false,
      "taf_trigger": false,
      "metar": "METAR LRIA 290830Z 31005KT 0350 R14/0800U FG OVC001 02/01 Q1000",
      "taf": "TAF LRIA 290800Z 2909/2918 31006KT 0300 FG OVC001"
    },
    {
      "icao": "LROP",
      "alert": "OK",
      "vis_m": 5000,
      "fzfg": false,
      "metar_trigger": false,
      "taf_trigger": false,
      "metar": "METAR LROP 290830Z 00000KT 5000 BR NSC 04/04 Q0999 NOSIG",
      "taf": "TAF LROP 290500Z 2906/3006 VRB04KT 5000 BR NSC"
    },
    {
      "icao": "LRSB",
      "alert": "OK",
      "vis_m": 9999,
      "fzfg": false,
      "metar_trigger": false,
      "taf_trigger": false,
      "metar": "METAR LRSB 290830Z VRB01KT 9999 FEW065 05/03 Q0997 NOSIG",
      "taf": "TAF LRSB 290500Z 2906/3006 VRB04KT 9999 SCT035 BKN060"
    },
    {
      "icao": "LRSM",
      "alert": "OK",
      "vis_m": 9999,
      "fzfg": false,
      "metar_trigger": false,
      "taf_trigger": false,
      "metar": "METAR LRSM 290830Z VRB02KT CAVOK 04/03 Q0997",
      "taf": "TAF LRSM 290800Z 2909/2918 VRB04KT 9999 BKN045"
    },
    {
      "icao": "LRSV",
      "alert": "OK",
      "vis_m": 500,
      "fzfg": true,
      "metar_trigger": false,
      "taf_trigger": false,
      "metar": "METAR LRSV 290830Z 01007KT 0500 R34/0900 FZFG VV002 M01/M01 Q0999",
      "taf": "TAF LRSV 290800Z 2909/2918 01006KT 0800 FZFG OVC002"
    },
    {
      "icao": "LRTM",
      "alert": "OK",
      "vis_m": 2300,
      "fzfg": false,
      "metar_trigger": false,
      "taf_trigger": false,
      "metar": "METAR LRTM 290830Z 07003KT 2300 -RA BR SCT008 BKN035 01/01 Q0998",
      "taf": "TAF LRTM 290800Z 2909/2918 VRB04KT 2500 -RA BR SCT010 BKN035"
    },
    {
      "icao": "LRTR",
      "alert": "OK",
      "vis_m": 9999,
      "fzfg": false,
      "metar_trigger": false,
      "taf_trigger": false,
      "metar": "METAR LRTR 290830Z 11008KT 9999 -RA OVC043 06/06 Q0995 NOSIG",
      "taf": "TAF LRTR 290500Z 2906/3006 11010KT 9999 -RA OVC040"
    },
    {
      "icao": "LTAC",
      "alert": "OK",
      "vis_m": 4200,
      "fzfg": false,
      "metar_trigger": false,
      "taf_trigger": false,
      "metar": "METAR LTAC 290820Z VRB02KT 4200 BR SCT040 BKN100 04/03 Q1012 BECMG 8000 RMK RWY21C 00000KT RWY03L VRB02KT RWY21R 00000KT RWY03R VRB02KT RWY21L VRB02KT",
      "taf": "TAF LTAC 290440Z 2906/3006 VRB02KT 2000 BCFG BKN010"
    },
    {
      "icao": "LTFM",
      "alert": "OK",
      "vis_m": 9999,
      "fzfg": false,
      "metar_trigger": false,
      "taf_trigger": false,
      "metar": "METAR LTFM 290820Z 20016KT 9999 SCT035 BKN100 15/07 Q1002 NOSIG RMK RWY17L 20015KT RWY34L 19015KT RWY16R 20015KT RWY36 20017KT RWY18 21016KT",
      "taf": "TAF LTFM 290440Z 2906/3012 21020G33KT 9999 SCT035 BKN100"
    },
    {
      "icao": "LUKK",
      "alert": "OK",
      "vis_m": 350,
      "fzfg": false,
      "metar_trigger": false,
      "taf_trigger": false,
      "metar": "METAR LUKK 290830Z VRB01KT 0350 0300SW R08/0400N FG VV003 03/03 Q0999 NOSIG",
      "taf": "TAF LUKK 290516Z 2906/3006 VRB05KT 0500 FG VV002"
    },
    {
      "icao": "LWOH",
      "alert": "OK",
      "vis_m": 9999,
      "fzfg": false,
      "metar_trigger": false,
      "taf_trigger": false,
      "metar": "METAR LWOH 290850Z 31004KT 280V350 9999 SCT020 OVC040 06/05 Q0996",
      "taf": "TAF LWOH 290645Z 2906/3006 VRB02KT 9999 FEW020 OVC040"
    },
    {
      "icao": "LWSK",
      "alert": "OK",
      "vis_m": 5000,
      "fzfg": false,
      "metar_trigger": false,
      "taf_trigger": false,
      "metar": "METAR LWSK 290850Z 19003KT 5000 BR FEW020 OVC050 05/04 Q0998 NOSIG",
      "taf": "TAF LWSK 290645Z 2906/3006 VRB02KT 5000 BR FEW025 BKN080"
    },
    {
      "icao": "LYBE",
      "alert": "OK",
      "vis_m": 9999,
      "fzfg": false,
      "metar_trigger": false,
      "taf_trigger": false,
      "metar": "METAR LYBE 290830Z 16006KT CAVOK 10/05 Q0995 NOSIG",
      "taf": "TAF LYBE 290500Z 2906/3006 16005KT CAVOK TX14/2913Z TN04/3006Z"
    },
    {
      "icao": "LYNI",
      "alert": "OK",
      "vis_m": 9999,
      "fzfg": false,
      "metar_trigger": false,
      "taf_trigger": false,
      "metar": "METAR LYNI 290830Z VRB02KT CAVOK 06/05 Q0997 NOSIG",
      "taf": "TAF LYNI 290500Z 2906/3006 09005KT 9999 SCT060 TX13/2913Z TN04/3006Z"
    },
    {
      "icao": "LYPG",
      "alert": "OK",
      "vis_m": 9999,
      "fzfg": false,
      "metar_trigger": false,
      "taf_trigger": false,
      "metar": "METAR LYPG 290830Z 35007KT 9999 FEW013 SCT050 BKN070 09/08 Q0995 NOSIG",
      "taf": "TAF LYPG 290500Z 2906/3006 36005KT 9999 SCT040 TX13/2913Z TN06/3005Z"
    },
    {
      "icao": "LZIB",
      "alert": "OK",
      "vis_m": 6000,
      "fzfg": false,
      "metar_trigger": false,
      "taf_trigger": false,
      "metar": "METAR LZIB 290830Z 01004KT 6000 -RA FEW008 BKN011 04/04 Q0996 TEMPO BKN008",
      "taf": "TAF LZIB 290515Z 2906/3006 03009KT 6000 -RA SCT004 OVC010"
    },
    {
      "icao": "LZKZ",
      "alert": "OK",
      "vis_m": 9999,
      "fzfg": false,
      "metar_trigger": false,
      "taf_trigger": false,
      "metar": "METAR LZKZ 290830Z 01009KT 9999 FEW018 OVC043 03/01 Q0998 NOSIG",
      "taf": "TAF LZKZ 290515Z 2906/3006 01015KT 9999 SCT013 OVC020"
    },
    {
      "icao": "LZTT",
      "alert": "OK",
      "vis_m": 6000,
      "fzfg": false,
      "metar_trigger": false,
      "taf_trigger": false,
      "metar": "METAR LZTT 290830Z 06006KT 6000 -SN FEW005 BKN010 OVC016 M00/M01 Q0997 NOSIG",
      "taf": "TAF LZTT 290515Z 2906/3006 07007KT 6000 -SN SCT010 BKN018"
    },
    {
      "icao": "OEJN",
      "alert": "OK",
      "vis_m": 9999,
      "fzfg": false,
      "metar_trigger": false,
      "taf_trigger": false,
      "metar": "METAR OEJN 290800Z 34009KT CAVOK 26/09 Q1017 NOSIG",
      "taf": "TAF OEJN 290500Z 2906/3012 33013KT CAVOK"
    },
    {
      "icao": "OEMA",
      "alert": "OK",
      "vis_m": 9999,
      "fzfg": false,
      "metar_trigger": false,
      "taf_trigger": false,
      "metar": "METAR OEMA 290800Z 12004KT CAVOK 20/M03 Q1023 NOSIG",
      "taf": "TAF OEMA 290500Z 2906/3012 09010KT CAVOK"
    },
    {
      "icao": "OJAI",
      "alert": "OK",
      "vis_m": 4000,
      "fzfg": false,
      "metar_trigger": false,
      "taf_trigger": false,
      "metar": "METAR OJAI 290800Z 22012KT 4000 HZ BKN030 11/05 Q1022 NOSIG",
      "taf": "TAF OJAI 290500Z 2906/3012 24014KT 3000 BR SCT025TCU BKN030"
    },
    {
      "icao": "OMAA",
      "alert": "OK",
      "vis_m": 9999,
      "fzfg": false,
      "metar_trigger": false,
      "taf_trigger": false,
      "metar": "METAR OMAA 290830Z 20006KT 130V270 CAVOK 26/07 Q1017 NOSIG",
      "taf": "TAF OMAA 290500Z 2906/3012 19007KT 8000 NSC"
    },
    {
      "icao": "OMDB",
      "alert": "OK",
      "vis_m": 9999,
      "fzfg": false,
      "metar_trigger": false,
      "taf_trigger": false,
      "metar": "METAR OMDB 290830Z 24010KT 190V260 CAVOK 26/10 Q1018 NOSIG",
      "taf": "TAF OMDB 290500Z 2906/3012 21008KT 8000 NSC"
    },
    {
      "icao": "UAAA",
      "alert": "OK",
      "vis_m": 2800,
      "fzfg": false,
      "metar_trigger": false,
      "taf_trigger": false,
      "metar": "METAR UAAA 290830Z 04004MPS 2800 BR OVC008 M01/M03 Q1028 NOSIG",
      "taf": "TAF UAAA 290504Z 2906/3006 04003MPS 2000 BR BKN004 OVC011 TXM01/2908Z TNM05/3002Z"
    },
    {
      "icao": "UBBB",
      "alert": "OK",
      "vis_m": 6000,
      "fzfg": false,
      "metar_trigger": false,
      "taf_trigger": false,
      "metar": "METAR UBBB 290830Z 15010KT 6000 -RA OVC019 06/05 Q1014 NOSIG",
      "taf": "TAF UBBB 290500Z 2906/3006 14006KT 9999 BKN012 BKN025 TX09/2911Z TN04/3001Z"
    },
    {
      "icao": "UDSG",
      "alert": "OK",
      "vis_m": 3000,
      "fzfg": false,
      "metar_trigger": false,
      "taf_trigger": false,
      "metar": "METAR UDSG 290830Z 18001KT 3000 BR NSC M08/M09 Q1016 NOSIG",
      "taf": "TAF UDSG 290500Z 2906/3006 VRB06KT 5000 BR SCT030"
    },
    {
      "icao": "UDYZ",
      "alert": "OK",
      "vis_m": 3900,
      "fzfg": false,
      "metar_trigger": false,
      "taf_trigger": false,
      "metar": "METAR UDYZ 290830Z VRB01KT 3900 BR FEW016 M02/M06 Q1018 NOSIG",
      "taf": "TAF UDYZ 290500Z 2906/3006 24006KT 2000 BR BKN015"
    },
    {
      "icao": "UGKO",
      "alert": "OK",
      "vis_m": 9999,
      "fzfg": false,
      "metar_trigger": false,
      "taf_trigger": false,
      "metar": "METAR UGKO 290830Z 10008KT CAVOK 13/M01 Q1012 NOSIG",
      "taf": "TAF UGKO 290500Z 2906/3006 09007KT CAVOK TX16/2911Z TN05/2906Z"
    }
  ]
}