{
  "ts_utc": "2026-07-14T14:17:25Z",
  "threshold_m": 150,
  "source": "stations_override.txt (ICAO list) + aviationweather.gov (METAR/TAF raw)",
  "station_count": 159,
  "stations": [
    {
      "icao": "BIKF",
      "alert": "OK",
      "vis_m": 2000,
      "fzfg": false,
      "metar_trigger": false,
      "taf_trigger": false,
      "metar": "METAR BIKF 141400Z 15018KT 2000 DZRA BR OVC003 12/12 Q1018",
      "taf": "TAF BIKF 141355Z 1415/1515 16018KT 4000 RADZ BKN004 OVC010 TX12/1415Z TN10/1503Z"
    },
    {
      "icao": "BKPR",
      "alert": "OK",
      "vis_m": 9999,
      "fzfg": false,
      "metar_trigger": false,
      "taf_trigger": false,
      "metar": "METAR BKPR 141400Z 27006KT 210V320 9999 FEW065 29/13 Q1019 NOSIG",
      "taf": "TAF BKPR 141130Z 1412/1512 34008KT 9999 FEW050"
    },
    {
      "icao": "EBCI",
      "alert": "OK",
      "vis_m": 9999,
      "fzfg": false,
      "metar_trigger": false,
      "taf_trigger": false,
      "metar": "METAR EBCI 141350Z 04009KT CAVOK 31/15 Q1018 NOSIG",
      "taf": "TAF EBCI 141100Z 1412/1518 04010KT CAVOK"
    },
    {
      "icao": "EDDB",
      "alert": "OK",
      "vis_m": 9999,
      "fzfg": false,
      "metar_trigger": false,
      "taf_trigger": false,
      "metar": "METAR EDDB 141350Z AUTO 14007KT 100V170 9999 FEW041 21/15 Q1020 NOSIG",
      "taf": "TAF EDDB 141100Z 1412/1512 06010KT 9999 SCT030"
    },
    {
      "icao": "EDDH",
      "alert": "OK",
      "vis_m": 9999,
      "fzfg": false,
      "metar_trigger": false,
      "taf_trigger": false,
      "metar": "METAR EDDH 141350Z AUTO 04010KT 340V080 CAVOK 26/11 Q1021 NOSIG",
      "taf": "TAF EDDH 141100Z 1412/1518 03010KT CAVOK"
    },
    {
      "icao": "EDDK",
      "alert": "OK",
      "vis_m": 9999,
      "fzfg": false,
      "metar_trigger": false,
      "taf_trigger": false,
      "metar": "METAR EDDK 141350Z AUTO 36010KT 320V040 CAVOK 32/13 Q1016 NOSIG",
      "taf": "TAF EDDK 141100Z 1412/1518 04008KT CAVOK"
    },
    {
      "icao": "EDDN",
      "alert": "OK",
      "vis_m": 9999,
      "fzfg": false,
      "metar_trigger": false,
      "taf_trigger": false,
      "metar": "METAR EDDN 141350Z AUTO VRB04KT CAVOK 32/13 Q1015 NOSIG",
      "taf": "TAF EDDN 141100Z 1412/1512 20004KT CAVOK"
    },
    {
      "icao": "EDDS",
      "alert": "OK",
      "vis_m": 9999,
      "fzfg": false,
      "metar_trigger": false,
      "taf_trigger": false,
      "metar": "METAR EDDS 141350Z AUTO VRB04KT CAVOK 31/15 Q1016 NOSIG",
      "taf": "TAF EDDS 141100Z 1412/1512 30008KT CAVOK"
    },
    {
      "icao": "EDFH",
      "alert": "OK",
      "vis_m": 9999,
      "fzfg": false,
      "metar_trigger": false,
      "taf_trigger": false,
      "metar": "METAR EDFH 141350Z VRB03KT 9999 2000N TSRA BKN080CB 28/11 Q1018",
      "taf": "TAF EDFH 141100Z 1412/1512 05010KT CAVOK"
    },
    {
      "icao": "EDJA",
      "alert": "OK",
      "vis_m": 9999,
      "fzfg": false,
      "metar_trigger": false,
      "taf_trigger": false,
      "metar": "METAR EDJA 141350Z 28007KT 250V310 CAVOK 29/14 Q1018",
      "taf": "TAF EDJA 141100Z 1412/1421 VRB03KT CAVOK"
    },
    {
      "icao": "EDLW",
      "alert": "OK",
      "vis_m": 9999,
      "fzfg": false,
      "metar_trigger": false,
      "taf_trigger": false,
      "metar": "METAR EDLW 141350Z 04008KT 330V090 CAVOK 28/13 Q1018",
      "taf": "TAF EDLW 141100Z 1412/1512 06009KT CAVOK"
    },
    {
      "icao": "EDNY",
      "alert": "OK",
      "vis_m": 9999,
      "fzfg": false,
      "metar_trigger": false,
      "taf_trigger": false,
      "metar": "METAR EDNY 141350Z 22005KT 140V270 CAVOK 30/17 Q1016",
      "taf": "TAF EDNY 141100Z 1412/1421 05004KT CAVOK"
    },
    {
      "icao": "EDSB",
      "alert": "OK",
      "vis_m": 9999,
      "fzfg": false,
      "metar_trigger": false,
      "taf_trigger": false,
      "metar": "METAR EDSB 141350Z VRB02KT CAVOK 32/15 Q1015",
      "taf": "TAF EDSB 141100Z 1412/1512 33005KT 9999 FEW030"
    },
    {
      "icao": "EETN",
      "alert": "OK",
      "vis_m": 9999,
      "fzfg": false,
      "metar_trigger": false,
      "taf_trigger": false,
      "metar": "METAR EETN 141350Z 36004KT CAVOK 21/14 Q1020 NOSIG",
      "taf": "TAF EETN 141130Z 1412/1512 01010KT 9999 BKN025"
    },
    {
      "icao": "EFTU",
      "alert": "OK",
      "vis_m": 9999,
      "fzfg": false,
      "metar_trigger": false,
      "taf_trigger": false,
      "metar": "METAR EFTU 141350Z AUTO 03006KT 310V070 CAVOK 24/09 Q1020",
      "taf": "TAF EFTU 141125Z 1412/1512 35008KT CAVOK"
    },
    {
      "icao": "EGBB",
      "alert": "OK",
      "vis_m": 9999,
      "fzfg": false,
      "metar_trigger": false,
      "taf_trigger": false,
      "metar": "METAR EGBB 141350Z 06011KT 040V100 9999 FEW042 25/14 Q1023",
      "taf": "TAF EGBB 141054Z 1412/1512 04010KT 9999 SCT020"
    },
    {
      "icao": "EGGP",
      "alert": "OK",
      "vis_m": 9999,
      "fzfg": false,
      "metar_trigger": false,
      "taf_trigger": false,
      "metar": "METAR EGGP 141350Z 06011KT 9999 FEW046 25/13 Q1024",
      "taf": ""
    },
    {
      "icao": "EGGW",
      "alert": "OK",
      "vis_m": 9999,
      "fzfg": false,
      "metar_trigger": false,
      "taf_trigger": false,
      "metar": "METAR EGGW 141350Z AUTO 02011KT 350V050 9999 SCT024 24/16 Q1022",
      "taf": "TAF EGGW 141102Z 1412/1512 04012KT 6000 BKN008"
    },
    {
      "icao": "EGKK",
      "alert": "OK",
      "vis_m": 9999,
      "fzfg": false,
      "metar_trigger": false,
      "taf_trigger": false,
      "metar": "METAR EGKK 141350Z 04013G24KT 010V080 9999 FEW048 28/15 Q1020",
      "taf": "TAF EGKK 141055Z 1412/1518 05012KT 9999 FEW035"
    },
    {
      "icao": "EGNM",
      "alert": "OK",
      "vis_m": 9999,
      "fzfg": false,
      "metar_trigger": false,
      "taf_trigger": false,
      "metar": "METAR EGNM 141350Z 06010KT 010V080 9999 FEW036 22/13 Q1026",
      "taf": "TAF EGNM 141057Z 1412/1512 04012KT 9999 FEW035"
    },
    {
      "icao": "EGPD",
      "alert": "OK",
      "vis_m": 9999,
      "fzfg": false,
      "metar_trigger": false,
      "taf_trigger": false,
      "metar": "METAR EGPD 141350Z 09006KT 040V160 9999 BKN015 17/12 Q1029",
      "taf": "TAF EGPD 141102Z 1412/1512 09010KT 9999 OVC009"
    },
    {
      "icao": "EGPF",
      "alert": "OK",
      "vis_m": 9999,
      "fzfg": false,
      "metar_trigger": false,
      "taf_trigger": false,
      "metar": "METAR EGPF 141350Z AUTO 07011KT 9999 NCD 21/12 Q1027",
      "taf": "TAF EGPF 141111Z 1412/1512 09008KT 9999 BKN025"
    },
    {
      "icao": "EHBK",
      "alert": "OK",
      "vis_m": 9999,
      "fzfg": false,
      "metar_trigger": false,
      "taf_trigger": false,
      "metar": "METAR EHBK 141355Z AUTO 04012KT 360V070 9999 NSC 31/13 Q1017 NOSIG",
      "taf": "TAF EHBK 141030Z 1412/1518 05010KT CAVOK"
    },
    {
      "icao": "EHEH",
      "alert": "OK",
      "vis_m": 9999,
      "fzfg": false,
      "metar_trigger": false,
      "taf_trigger": false,
      "metar": "METAR EHEH 141355Z AUTO 05010G20KT 020V100 9999 NCD 31/13 Q1018 BLU NOSIG RMK TREND REMOTE BY EHWX",
      "taf": "TAF EHEH 141106Z 1412/1518 06011KT CAVOK"
    },
    {
      "icao": "EKBI",
      "alert": "OK",
      "vis_m": 9999,
      "fzfg": false,
      "metar_trigger": false,
      "taf_trigger": false,
      "metar": "METAR EKBI 141350Z AUTO 04006KT 330V100 9999 NCD 27/09 Q1023",
      "taf": "TAF EKBI 141127Z 1412/1512 03008KT 9999 FEW045"
    },
    {
      "icao": "EKCH",
      "alert": "OK",
      "vis_m": 9999,
      "fzfg": false,
      "metar_trigger": false,
      "taf_trigger": false,
      "metar": "METAR EKCH 141350Z AUTO 13004KT 070V230 9999 NCD 25/13 Q1022 NOSIG",
      "taf": "TAF EKCH 141127Z 1412/1512 13006KT CAVOK"
    },
    {
      "icao": "ENAL",
      "alert": "OK",
      "vis_m": 9999,
      "fzfg": false,
      "metar_trigger": false,
      "taf_trigger": false,
      "metar": "METAR ENAL 141350Z 05008KT 9999 SCT011 16/11 Q1028",
      "taf": "TAF ENAL 141100Z 1412/1421 04009KT 9999 SCT006"
    },
    {
      "icao": "ENBR",
      "alert": "OK",
      "vis_m": 9999,
      "fzfg": false,
      "metar_trigger": false,
      "taf_trigger": false,
      "metar": "METAR ENBR 141350Z 32008KT CAVOK 21/14 Q1025 NOSIG RMK WIND 1200FT 29004KT",
      "taf": "TAF ENBR 141100Z 1412/1512 33008KT CAVOK"
    },
    {
      "icao": "ENGM",
      "alert": "OK",
      "vis_m": 9999,
      "fzfg": false,
      "metar_trigger": false,
      "taf_trigger": false,
      "metar": "METAR ENGM 141350Z 07005KT 010V120 CAVOK 27/07 Q1023 NOSIG",
      "taf": "TAF ENGM 141100Z 1412/1512 02005KT CAVOK"
    },
    {
      "icao": "ENHD",
      "alert": "OK",
      "vis_m": 9999,
      "fzfg": false,
      "metar_trigger": false,
      "taf_trigger": false,
      "metar": "METAR ENHD 141350Z 35012KT CAVOK 16/12 Q1025",
      "taf": "TAF ENHD 141100Z 1412/1421 34012KT 9999 FEW003"
    },
    {
      "icao": "ENTC",
      "alert": "OK",
      "vis_m": 9999,
      "fzfg": false,
      "metar_trigger": false,
      "taf_trigger": false,
      "metar": "METAR ENTC 141350Z 27012KT 9999 FEW022 BKN032 11/07 Q1020 NOSIG RMK WIND 2600FT 26022KT",
      "taf": "TAF ENTC 141100Z 1412/1512 25010KT 9999 -DZ SCT010 BKN020"
    },
    {
      "icao": "ENTO",
      "alert": "OK",
      "vis_m": 9999,
      "fzfg": false,
      "metar_trigger": false,
      "taf_trigger": false,
      "metar": "METAR ENTO 141350Z 06005KT CAVOK 26/12 Q1023 NOSIG",
      "taf": "TAF ENTO 141100Z 1412/1512 02005KT CAVOK"
    },
    {
      "icao": "ENVA",
      "alert": "OK",
      "vis_m": 9999,
      "fzfg": false,
      "metar_trigger": false,
      "taf_trigger": false,
      "metar": "METAR ENVA 141350Z 24008KT CAVOK 19/12 Q1027 NOSIG RMK WIND 670FT 28005KT",
      "taf": "TAF ENVA 141100Z 1412/1512 27009KT 9999 FEW020"
    },
    {
      "icao": "ENZV",
      "alert": "OK",
      "vis_m": 9999,
      "fzfg": false,
      "metar_trigger": false,
      "taf_trigger": false,
      "metar": "METAR ENZV 141350Z 28006KT CAVOK 21/15 Q1025 NOSIG",
      "taf": "TAF ENZV 141100Z 1412/1512 30008KT CAVOK"
    },
    {
      "icao": "EPGD",
      "alert": "OK",
      "vis_m": 9999,
      "fzfg": false,
      "metar_trigger": false,
      "taf_trigger": false,
      "metar": "METAR EPGD 141400Z 01007KT 340V040 CAVOK 20/11 Q1022",
      "taf": "TAF EPGD 141130Z 1412/1512 02013KT CAVOK"
    },
    {
      "icao": "EPKK",
      "alert": "OK",
      "vis_m": 9999,
      "fzfg": false,
      "metar_trigger": false,
      "taf_trigger": false,
      "metar": "METAR EPKK 141400Z 05007KT 9999 FEW046 23/16 Q1018",
      "taf": "TAF EPKK 141130Z 1412/1512 10005KT CAVOK"
    },
    {
      "icao": "EPKT",
      "alert": "OK",
      "vis_m": 9999,
      "fzfg": false,
      "metar_trigger": false,
      "taf_trigger": false,
      "metar": "METAR EPKT 141400Z 13007KT 100V220 9999 FEW035CB 25/16 Q1019",
      "taf": "TAF EPKT 141130Z 1412/1512 36005KT CAVOK"
    },
    {
      "icao": "EPLB",
      "alert": "OK",
      "vis_m": 9999,
      "fzfg": false,
      "metar_trigger": false,
      "taf_trigger": false,
      "metar": "METAR EPLB 141400Z 01004KT 350V100 9999 FEW039 28/18 Q1017",
      "taf": "TAF EPLB 141130Z 1412/1512 33008KT CAVOK"
    },
    {
      "icao": "EPMO",
      "alert": "OK",
      "vis_m": 9999,
      "fzfg": false,
      "metar_trigger": false,
      "taf_trigger": false,
      "metar": "METAR EPMO 141400Z 35006KT 310V050 CAVOK 26/14 Q1018",
      "taf": "TAF EPMO 141130Z 1412/1512 VRB06KT CAVOK"
    },
    {
      "icao": "EPPO",
      "alert": "OK",
      "vis_m": 9999,
      "fzfg": false,
      "metar_trigger": false,
      "taf_trigger": false,
      "metar": "METAR EPPO 141400Z 36008KT CAVOK 25/08 Q1020",
      "taf": "TAF EPPO 141130Z 1412/1512 06007KT CAVOK"
    },
    {
      "icao": "EPRA",
      "alert": "OK",
      "vis_m": 9999,
      "fzfg": false,
      "metar_trigger": false,
      "taf_trigger": false,
      "metar": "METAR EPRA 141400Z 03006KT 350V050 CAVOK 27/16 Q1018",
      "taf": "TAF EPRA 141130Z 1412/1421 36005KT CAVOK"
    },
    {
      "icao": "EPRZ",
      "alert": "OK",
      "vis_m": 9999,
      "fzfg": false,
      "metar_trigger": false,
      "taf_trigger": false,
      "metar": "METAR EPRZ 141400Z 34007KT 9999 TS SCT050CB 21/17 Q1018",
      "taf": "TAF EPRZ 141130Z 1412/1512 34005KT CAVOK"
    },
    {
      "icao": "EPSC",
      "alert": "OK",
      "vis_m": 9999,
      "fzfg": false,
      "metar_trigger": false,
      "taf_trigger": false,
      "metar": "METAR EPSC 141400Z 04009KT CAVOK 24/10 Q1021",
      "taf": "TAF EPSC 141130Z 1412/1512 05010KT CAVOK"
    },
    {
      "icao": "EPSY",
      "alert": "OK",
      "vis_m": 9999,
      "fzfg": false,
      "metar_trigger": false,
      "taf_trigger": false,
      "metar": "METAR EPSY 141400Z 01007KT 320V040 CAVOK 23/12 Q1020",
      "taf": "TAF EPSY 141130Z 1412/1421 36008KT CAVOK"
    },
    {
      "icao": "EPWA",
      "alert": "OK",
      "vis_m": 9999,
      "fzfg": false,
      "metar_trigger": false,
      "taf_trigger": false,
      "metar": "METAR EPWA 141400Z 01006KT 310V050 CAVOK 27/14 Q1018 NOSIG",
      "taf": "TAF EPWA 141130Z 1412/1512 VRB06KT CAVOK"
    },
    {
      "icao": "EPWR",
      "alert": "OK",
      "vis_m": 9999,
      "fzfg": false,
      "metar_trigger": false,
      "taf_trigger": false,
      "metar": "METAR EPWR 141400Z 04008KT 9999 SCT038CB 25/17 Q1018",
      "taf": "TAF EPWR 141130Z 1412/1512 05004KT CAVOK"
    },
    {
      "icao": "ESGG",
      "alert": "OK",
      "vis_m": 9999,
      "fzfg": false,
      "metar_trigger": false,
      "taf_trigger": false,
      "metar": "METAR ESGG 141350Z 35012KT CAVOK 27/10 Q1022",
      "taf": "TAF ESGG 141130Z 1412/1512 36007KT CAVOK"
    },
    {
      "icao": "ESKN",
      "alert": "OK",
      "vis_m": 9999,
      "fzfg": false,
      "metar_trigger": false,
      "taf_trigger": false,
      "metar": "METAR ESKN 141350Z VRB04KT CAVOK 26/09 Q1022",
      "taf": "TAF ESKN 141130Z 1412/1512 02006KT CAVOK"
    },
    {
      "icao": "ESMS",
      "alert": "OK",
      "vis_m": 9999,
      "fzfg": false,
      "metar_trigger": false,
      "taf_trigger": false,
      "metar": "METAR ESMS 141350Z 35008KT 290V020 CAVOK 25/13 Q1022",
      "taf": "TAF ESMS 141127Z 1412/1512 32010KT CAVOK"
    },
    {
      "icao": "ESSA",
      "alert": "OK",
      "vis_m": 9999,
      "fzfg": false,
      "metar_trigger": false,
      "taf_trigger": false,
      "metar": "METAR ESSA 141350Z 36008KT CAVOK 24/07 Q1021 NOSIG",
      "taf": "TAF ESSA 141130Z 1412/1512 02009KT CAVOK"
    },
    {
      "icao": "EYKA",
      "alert": "OK",
      "vis_m": 9999,
      "fzfg": false,
      "metar_trigger": false,
      "taf_trigger": false,
      "metar": "METAR EYKA 141350Z 35004KT 310V040 9999 FEW034 BKN043 23/16 Q1018",
      "taf": "TAF EYKA 141100Z 1412/1512 VRB03KT 9000 SCT020 BKN035"
    },
    {
      "icao": "EYPA",
      "alert": "OK",
      "vis_m": 9999,
      "fzfg": false,
      "metar_trigger": false,
      "taf_trigger": false,
      "metar": "METAR EYPA 141350Z VRB06KT 9999 FEW041 BKN047 19/16 Q1020",
      "taf": "TAF EYPA 141100Z 1412/1512 VRB03KT 9000 SCT030"
    },
    {
      "icao": "EYVI",
      "alert": "OK",
      "vis_m": 9999,
      "fzfg": false,
      "metar_trigger": false,
      "taf_trigger": false,
      "metar": "METAR EYVI 141350Z VRB02KT 9999 FEW016 SCT023 23/17 Q1018 NOSIG",
      "taf": ""
    },
    {
      "icao": "GCFV",
      "alert": "OK",
      "vis_m": 9999,
      "fzfg": false,
      "metar_trigger": false,
      "taf_trigger": false,
      "metar": "METAR GCFV 141400Z 04011KT 9999 FEW020 25/19 Q1017",
      "taf": "TAF GCFV 140800Z 1409/1509 05011KT 9999 SCT025 TX26/1414Z TN21/1506Z"
    },
    {
      "icao": "GCLP",
      "alert": "OK",
      "vis_m": 9999,
      "fzfg": false,
      "metar_trigger": false,
      "taf_trigger": false,
      "metar": "METAR GCLP 141400Z 02016KT 9999 FEW020 26/19 Q1017 NOSIG",
      "taf": "TAF GCLP 140800Z 1409/1509 02017KT 9999 SCT020 TX27/1414Z TN21/1506Z"
    },
    {
      "icao": "GCTS",
      "alert": "OK",
      "vis_m": 9999,
      "fzfg": false,
      "metar_trigger": false,
      "taf_trigger": false,
      "metar": "METAR GCTS 141400Z 10015KT 070V130 9999 FEW030 28/18 Q1017 NOSIG",
      "taf": "TAF GCTS 140800Z 1409/1509 09015KT 9999 FEW030 TX27/1414Z TN20/1506Z"
    },
    {
      "icao": "GMAD",
      "alert": "OK",
      "vis_m": 9999,
      "fzfg": false,
      "metar_trigger": false,
      "taf_trigger": false,
      "metar": "METAR GMAD 141400Z 26011KT 240V300 CAVOK 31/16 Q1014 NOSIG",
      "taf": "TAF GMAD 141100Z 1412/1518 33005KT CAVOK"
    },
    {
      "icao": "GMMN",
      "alert": "OK",
      "vis_m": 9999,
      "fzfg": false,
      "metar_trigger": false,
      "taf_trigger": false,
      "metar": "METAR GMMN 141400Z 36011KT 320V040 CAVOK 31/20 Q1017 NOSIG",
      "taf": "TAF GMMN 141100Z 1412/1518 36012KT CAVOK"
    },
    {
      "icao": "GMMX",
      "alert": "OK",
      "vis_m": 9999,
      "fzfg": false,
      "metar_trigger": false,
      "taf_trigger": false,
      "metar": "METAR GMMX 141400Z VRB03KT 9999 SCT030 35/15 Q1017 NOSIG",
      "taf": "TAF GMMX 141100Z 1412/1518 30006KT CAVOK"
    },
    {
      "icao": "HEGN",
      "alert": "OK",
      "vis_m": 9999,
      "fzfg": false,
      "metar_trigger": false,
      "taf_trigger": false,
      "metar": "METAR HEGN 141400Z 36012KT CAVOK 36/08 Q1004 NOSIG",
      "taf": "TAF HEGN 141100Z 1412/1518 02018KT CAVOK"
    },
    {
      "icao": "HEMA",
      "alert": "OK",
      "vis_m": 9999,
      "fzfg": false,
      "metar_trigger": false,
      "taf_trigger": false,
      "metar": "METAR HEMA 141400Z 34018KT CAVOK 33/13 Q1004 NOSIG",
      "taf": "TAF HEMA 141100Z 1412/1518 36018KT CAVOK"
    },
    {
      "icao": "HESH",
      "alert": "OK",
      "vis_m": 9999,
      "fzfg": false,
      "metar_trigger": false,
      "taf_trigger": false,
      "metar": "METAR HESH 141400Z 36006KT CAVOK 38/12 Q1003 NOSIG",
      "taf": "TAF HESH 141100Z 1412/1518 02015KT CAVOK"
    },
    {
      "icao": "HESX",
      "alert": "OK",
      "vis_m": 9999,
      "fzfg": false,
      "metar_trigger": false,
      "taf_trigger": false,
      "metar": "METAR HESX 141400Z 01007KT CAVOK 36/16 Q1007 NOSIG",
      "taf": "TAF HESX 141100Z 1412/1518 32012KT CAVOK"
    },
    {
      "icao": "LATI",
      "alert": "OK",
      "vis_m": null,
      "fzfg": false,
      "metar_trigger": false,
      "taf_trigger": false,
      "metar": "",
      "taf": "TAF LATI 141100Z 1412/1512 34012KT CAVOK TX37/1512Z TN19/1504Z"
    },
    {
      "icao": "LBPD",
      "alert": "OK",
      "vis_m": 9999,
      "fzfg": false,
      "metar_trigger": false,
      "taf_trigger": false,
      "metar": "METAR LBPD 141400Z AUTO 33008KT 270V020 9999 NCD 31/12 Q1015 NOSIG",
      "taf": "TAF LBPD 141100Z 1412/1512 31010KT CAVOK"
    },
    {
      "icao": "LBSF",
      "alert": "OK",
      "vis_m": 9999,
      "fzfg": false,
      "metar_trigger": false,
      "taf_trigger": false,
      "metar": "METAR LBSF 141400Z 29009KT 260V330 9999 FEW071 BKN083 29/11 Q1017 NOSIG",
      "taf": "TAF LBSF 141100Z 1412/1512 31010KT CAVOK"
    },
    {
      "icao": "LBWN",
      "alert": "OK",
      "vis_m": 9999,
      "fzfg": false,
      "metar_trigger": false,
      "taf_trigger": false,
      "metar": "METAR LBWN 141400Z 32009KT 280V350 9999 SCT028 29/15 Q1014 NOSIG",
      "taf": "TAF LBWN 141100Z 1412/1512 35008KT 9999 SCT050"
    },
    {
      "icao": "LCLK",
      "alert": "OK",
      "vis_m": 9999,
      "fzfg": false,
      "metar_trigger": false,
      "taf_trigger": false,
      "metar": "METAR LCLK 141400Z 21019KT 9999 FEW025 32/25 Q1005 NOSIG",
      "taf": "TAF LCLK 141130Z 1412/1512 21020KT 9999 FEW025"
    },
    {
      "icao": "LCPH",
      "alert": "OK",
      "vis_m": 9999,
      "fzfg": false,
      "metar_trigger": false,
      "taf_trigger": false,
      "metar": "METAR LCPH 141400Z 24006KT 9999 FEW025 31/24 Q1006 NOSIG",
      "taf": "TAF LCPH 141130Z 1412/1512 25010KT 9999 FEW025"
    },
    {
      "icao": "LEAL",
      "alert": "OK",
      "vis_m": 9999,
      "fzfg": false,
      "metar_trigger": false,
      "taf_trigger": false,
      "metar": "METAR LEAL 141400Z 09008KT 050V140 CAVOK 32/22 Q1015 NOSIG",
      "taf": "TAF LEAL 141100Z 1412/1512 11010KT CAVOK TX34/1414Z TN25/1505Z"
    },
    {
      "icao": "LEBB",
      "alert": "OK",
      "vis_m": 9999,
      "fzfg": false,
      "metar_trigger": false,
      "taf_trigger": false,
      "metar": "METAR LEBB 141400Z 28011KT 240V320 CAVOK 30/22 Q1014 NOSIG",
      "taf": "TAF LEBB 141100Z 1412/1512 32008KT 9999 FEW020 TX31/1414Z TN21/1505Z"
    },
    {
      "icao": "LEBL",
      "alert": "OK",
      "vis_m": 9999,
      "fzfg": false,
      "metar_trigger": false,
      "taf_trigger": false,
      "metar": "METAR LEBL 141400Z 15007KT 100V190 9999 R06R///// SCT010 29/23 Q1016 NOSIG",
      "taf": "TAF LEBL 141100Z 1412/1512 14006KT 9999 FEW020 TX31/1412Z TN25/1506Z"
    },
    {
      "icao": "LECH",
      "alert": "OK",
      "vis_m": 9999,
      "fzfg": false,
      "metar_trigger": false,
      "taf_trigger": false,
      "metar": "METAR LECH 141400Z AUTO 12010KT 100V160 CAVOK 30/22 Q1017",
      "taf": "TAF LECH 141100Z 1412/1512 13009KT 9999 FEW010 TX34/1414Z TN22/1505Z"
    },
    {
      "icao": "LEMD",
      "alert": "OK",
      "vis_m": 9999,
      "fzfg": false,
      "metar_trigger": false,
      "taf_trigger": false,
      "metar": "METAR LEMD 141400Z 22011G28KT 150V290 CAVOK 35/06 Q1016 NOSIG",
      "taf": "TAF LEMD 141100Z 1412/1518 20010KT CAVOK TX37/1416Z TN20/1505Z"
    },
    {
      "icao": "LEMG",
      "alert": "OK",
      "vis_m": 9999,
      "fzfg": false,
      "metar_trigger": false,
      "taf_trigger": false,
      "metar": "METAR LEMG 141400Z 17008KT 120V210 CAVOK 37/13 Q1014 NOSIG",
      "taf": "TAF LEMG 141100Z 1412/1512 14010KT CAVOK TX35/1414Z TN22/1505Z"
    },
    {
      "icao": "LEVC",
      "alert": "OK",
      "vis_m": 9999,
      "fzfg": false,
      "metar_trigger": false,
      "taf_trigger": false,
      "metar": "METAR LEVC 141400Z 08010KT 040V120 CAVOK 32/23 Q1015 NOSIG",
      "taf": "TAF LEVC 141100Z 1412/1512 09010KT 9999 FEW020 TX33/1414Z TN24/1505Z"
    },
    {
      "icao": "LEXJ",
      "alert": "OK",
      "vis_m": 9999,
      "fzfg": false,
      "metar_trigger": false,
      "taf_trigger": false,
      "metar": "METAR LEXJ 141400Z 05005KT 9999 FEW030 26/22 Q1015",
      "taf": "TAF LEXJ 140800Z 1409/1509 VRB03KT 9999 FEW020 TX27/1412Z TN21/1503Z"
    },
    {
      "icao": "LEZG",
      "alert": "OK",
      "vis_m": 9999,
      "fzfg": false,
      "metar_trigger": false,
      "taf_trigger": false,
      "metar": "METAR LEZG 141400Z 10010KT 050V150 CAVOK 38/17 Q1013 NOSIG",
      "taf": "TAF LEZG 141100Z 1412/1512 VRB04KT CAVOK TX40/1415Z TN24/1505Z"
    },
    {
      "icao": "LEZL",
      "alert": "OK",
      "vis_m": 9999,
      "fzfg": false,
      "metar_trigger": false,
      "taf_trigger": false,
      "metar": "METAR LEZL 141400Z 22011KT 190V280 CAVOK 31/15 Q1016 NOSIG",
      "taf": "TAF LEZL 140800Z 1409/1509 VRB03KT CAVOK TX34/1415Z TN18/1505Z"
    },
    {
      "icao": "LFBD",
      "alert": "OK",
      "vis_m": 9999,
      "fzfg": false,
      "metar_trigger": false,
      "taf_trigger": false,
      "metar": "METAR LFBD 141400Z AUTO 05008KT 010V090 CAVOK 35/18 Q1014 NOSIG",
      "taf": "TAF LFBD 141100Z 1412/1518 06005KT CAVOK TX37/1415Z TN21/1502Z"
    },
    {
      "icao": "LFLL",
      "alert": "OK",
      "vis_m": 9999,
      "fzfg": false,
      "metar_trigger": false,
      "taf_trigger": false,
      "metar": "METAR LFLL 141400Z 27005KT 200V010 CAVOK 37/10 Q1015 NOSIG",
      "taf": "TAF LFLL 141100Z 1412/1518 34005KT CAVOK"
    },
    {
      "icao": "LFLS",
      "alert": "OK",
      "vis_m": 9999,
      "fzfg": false,
      "metar_trigger": false,
      "taf_trigger": false,
      "metar": "METAR LFLS 141400Z AUTO 25006KT 210V300 CAVOK 36/13 Q1016 NOSIG",
      "taf": "TAF LFLS 140800Z 1409/1509 20006KT CAVOK"
    },
    {
      "icao": "LFMN",
      "alert": "OK",
      "vis_m": 9999,
      "fzfg": false,
      "metar_trigger": false,
      "taf_trigger": false,
      "metar": "METAR LFMN 141400Z 17005KT 9999 FEW014 30/24 Q1015 NOSIG",
      "taf": "TAF LFMN 140800Z 1409/1515 10008KT 9999 FEW022"
    },
    {
      "icao": "LFOB",
      "alert": "OK",
      "vis_m": 9999,
      "fzfg": false,
      "metar_trigger": false,
      "taf_trigger": false,
      "metar": "METAR LFOB 141400Z AUTO 02008KT 330V050 CAVOK 32/16 Q1016 NOSIG",
      "taf": "TAF LFOB 141100Z 1412/1512 02008KT CAVOK"
    },
    {
      "icao": "LFPO",
      "alert": "OK",
      "vis_m": 9999,
      "fzfg": false,
      "metar_trigger": false,
      "taf_trigger": false,
      "metar": "METAR LFPO 141400Z 07006KT 350V130 CAVOK 34/14 Q1016 NOSIG",
      "taf": "TAF LFPO 141100Z 1412/1518 02007KT CAVOK"
    },
    {
      "icao": "LFSB",
      "alert": "OK",
      "vis_m": 9999,
      "fzfg": false,
      "metar_trigger": false,
      "taf_trigger": false,
      "metar": "METAR LFSB 141400Z AUTO 31009KT 280V360 9999 FEW001 SCT220 36/13 Q1015 TEMPO VRB15G35KT 4000 TSRA SCT080CB",
      "taf": "TAF LFSB 141100Z 1412/1512 32005KT CAVOK"
    },
    {
      "icao": "LGAV",
      "alert": "OK",
      "vis_m": 9999,
      "fzfg": false,
      "metar_trigger": false,
      "taf_trigger": false,
      "metar": "METAR LGAV 141350Z 02019KT 9999 FEW025 29/16 Q1015 NOSIG",
      "taf": "TAF LGAV 141100Z 1412/1512 04012KT 9999 FEW025"
    },
    {
      "icao": "LGTS",
      "alert": "OK",
      "vis_m": 9999,
      "fzfg": false,
      "metar_trigger": false,
      "taf_trigger": false,
      "metar": "METAR LGTS 141350Z 25013KT 9999 FEW025 33/15 Q1014 NOSIG",
      "taf": "TAF LGTS 141100Z 1412/1512 33015KT 9999 FEW030"
    },
    {
      "icao": "LHBP",
      "alert": "OK",
      "vis_m": 9999,
      "fzfg": false,
      "metar_trigger": false,
      "taf_trigger": false,
      "metar": "METAR LHBP 141400Z 20006KT 120V250 CAVOK 33/11 Q1015 NOSIG",
      "taf": "TAF LHBP 141115Z 1412/1512 20007KT CAVOK"
    },
    {
      "icao": "LHDC",
      "alert": "OK",
      "vis_m": 9999,
      "fzfg": false,
      "metar_trigger": false,
      "taf_trigger": false,
      "metar": "METAR LHDC 141345Z AUTO VRB06G18KT CAVOK 32/13 Q1015 NOSIG",
      "taf": "TAF LHDC 141115Z 1412/1421 33005KT CAVOK"
    },
    {
      "icao": "LIBD",
      "alert": "OK",
      "vis_m": 9999,
      "fzfg": false,
      "metar_trigger": false,
      "taf_trigger": false,
      "metar": "METAR LIBD 141350Z 04006KT 350V080 CAVOK 33/13 Q1017",
      "taf": "TAF LIBD 141100Z 1412/1512 02007KT CAVOK"
    },
    {
      "icao": "LIBG",
      "alert": "OK",
      "vis_m": 9999,
      "fzfg": false,
      "metar_trigger": false,
      "taf_trigger": false,
      "metar": "METAR LIBG 141350Z AUTO 02008KT 330V060 9999 FEW160/// 36/12 Q1016",
      "taf": "TAF LIBG 141100Z 1412/1512 03010KT 9999 FEW030"
    },
    {
      "icao": "LIBP",
      "alert": "OK",
      "vis_m": 9999,
      "fzfg": false,
      "metar_trigger": false,
      "taf_trigger": false,
      "metar": "METAR LIBP 141350Z AUTO 11010KT 070V140 9999 ///////// 36/17 Q1014",
      "taf": "TAF LIBP 141100Z 1412/1512 10013KT 9999 FEW050"
    },
    {
      "icao": "LIBR",
      "alert": "OK",
      "vis_m": 9999,
      "fzfg": false,
      "metar_trigger": false,
      "taf_trigger": false,
      "metar": "METAR LIBR 141350Z 02008KT CAVOK 29/20 Q1017",
      "taf": "TAF LIBR 141100Z 1412/1512 34012KT CAVOK"
    },
    {
      "icao": "LICA",
      "alert": "OK",
      "vis_m": 9999,
      "fzfg": false,
      "metar_trigger": false,
      "taf_trigger": false,
      "metar": "METAR LICA 141350Z AUTO 23011KT 9999 BKN015/// 30/26 Q1019",
      "taf": "TAF LICA 141100Z 1412/1512 27013KT 9999 FEW020"
    },
    {
      "icao": "LICC",
      "alert": "OK",
      "vis_m": 9999,
      "fzfg": false,
      "metar_trigger": false,
      "taf_trigger": false,
      "metar": "METAR LICC 141350Z 09011KT CAVOK 33/22 Q1017",
      "taf": "TAF LICC 141100Z 1412/1512 09012KT CAVOK"
    },
    {
      "icao": "LICJ",
      "alert": "OK",
      "vis_m": 9999,
      "fzfg": false,
      "metar_trigger": false,
      "taf_trigger": false,
      "metar": "METAR LICJ 141350Z 04016KT CAVOK 31/24 Q1018",
      "taf": "TAF LICJ 141100Z 1412/1512 04013KT CAVOK"
    },
    {
      "icao": "LIMC",
      "alert": "OK",
      "vis_m": 9999,
      "fzfg": false,
      "metar_trigger": false,
      "taf_trigger": false,
      "metar": "METAR LIMC 141350Z 24008KT 190V300 CAVOK 34/16 Q1015 NOSIG",
      "taf": ""
    },
    {
      "icao": "LIME",
      "alert": "OK",
      "vis_m": 9999,
      "fzfg": false,
      "metar_trigger": false,
      "taf_trigger": false,
      "metar": "METAR LIME 141350Z 20006KT 150V270 9999 FEW060 33/18 Q1014 NOSIG",
      "taf": "TAF LIME 141100Z 1412/1512 21010KT 9999 FEW060"
    },
    {
      "icao": "LIMF",
      "alert": "OK",
      "vis_m": 9999,
      "fzfg": false,
      "metar_trigger": false,
      "taf_trigger": false,
      "metar": "METAR LIMF 141350Z 12005KT 080V190 CAVOK 34/18 Q1015",
      "taf": "TAF LIMF 141100Z 1412/1512 VRB05KT 9999 SCT060"
    },
    {
      "icao": "LIMJ",
      "alert": "OK",
      "vis_m": 9999,
      "fzfg": false,
      "metar_trigger": false,
      "taf_trigger": false,
      "metar": "METAR LIMJ 141350Z 17005KT 9999 FEW018 28/25 Q1015",
      "taf": "TAF LIMJ 141100Z 1412/1512 15010KT 9999 FEW020"
    },
    {
      "icao": "LIPE",
      "alert": "OK",
      "vis_m": 9999,
      "fzfg": false,
      "metar_trigger": false,
      "taf_trigger": false,
      "metar": "METAR LIPE 141350Z 31004KT 250V040 CAVOK 36/18 Q1013",
      "taf": "TAF LIPE 141100Z 1412/1512 VRB06KT CAVOK"
    },
    {
      "icao": "LIPH",
      "alert": "OK",
      "vis_m": 9999,
      "fzfg": false,
      "metar_trigger": false,
      "taf_trigger": false,
      "metar": "METAR LIPH 141350Z 16007KT 130V200 CAVOK 32/19 Q1014",
      "taf": "TAF LIPH 141100Z 1412/1512 16010KT 9999 SCT030"
    },
    {
      "icao": "LIPQ",
      "alert": "OK",
      "vis_m": 9999,
      "fzfg": false,
      "metar_trigger": false,
      "taf_trigger": false,
      "metar": "METAR LIPQ 141350Z AUTO 24004KT 9999 BKN210/// 29/17 Q1015",
      "taf": "TAF LIPQ 141100Z 1412/1512 18010KT 9999 SCT040"
    },
    {
      "icao": "LIPR",
      "alert": "OK",
      "vis_m": 9999,
      "fzfg": false,
      "metar_trigger": false,
      "taf_trigger": false,
      "metar": "METAR LIPR 141350Z 09008KT CAVOK 30/22 Q1013",
      "taf": "TAF LIPR 141100Z 1412/1512 10010KT CAVOK"
    },
    {
      "icao": "LIPX",
      "alert": "OK",
      "vis_m": 9999,
      "fzfg": false,
      "metar_trigger": false,
      "taf_trigger": false,
      "metar": "METAR LIPX 141350Z 22006KT 160V320 CAVOK 34/18 Q1014",
      "taf": "TAF LIPX 141100Z 1412/1512 VRB05KT 9999 FEW060"
    },
    {
      "icao": "LIPY",
      "alert": "OK",
      "vis_m": 9999,
      "fzfg": false,
      "metar_trigger": false,
      "taf_trigger": false,
      "metar": "METAR LIPY 141350Z AUTO 13009KT 090V170 9999 NCD 36/16 Q1013",
      "taf": "TAF LIPY 141100Z 1412/1512 12013KT 9999 FEW050"
    },
    {
      "icao": "LIPZ",
      "alert": "OK",
      "vis_m": 9999,
      "fzfg": false,
      "metar_trigger": false,
      "taf_trigger": false,
      "metar": "METAR LIPZ 141350Z 17005KT 140V200 CAVOK 30/23 Q1014 NOSIG",
      "taf": "TAF LIPZ 141100Z 1412/1518 14011KT CAVOK"
    },
    {
      "icao": "LIRF",
      "alert": "OK",
      "vis_m": 9999,
      "fzfg": false,
      "metar_trigger": false,
      "taf_trigger": false,
      "metar": "METAR LIRF 141350Z 17008KT 140V200 CAVOK 33/20 Q1017 NOSIG",
      "taf": "TAF LIRF 141100Z 1412/1518 19012KT CAVOK"
    },
    {
      "icao": "LIRN",
      "alert": "OK",
      "vis_m": 9999,
      "fzfg": false,
      "metar_trigger": false,
      "taf_trigger": false,
      "metar": "METAR LIRN 141350Z 19009KT 160V220 CAVOK 32/21 Q1018 NOSIG",
      "taf": "TAF LIRN 141100Z 1412/1512 24010KT CAVOK"
    },
    {
      "icao": "LIRP",
      "alert": "OK",
      "vis_m": 9999,
      "fzfg": false,
      "metar_trigger": false,
      "taf_trigger": false,
      "metar": "METAR LIRP 141345Z 29009KT CAVOK 32/20 Q1015 NOSIG",
      "taf": "TAF LIRP 141100Z 1412/1512 27010KT CAVOK"
    },
    {
      "icao": "LIRZ",
      "alert": "OK",
      "vis_m": 9999,
      "fzfg": false,
      "metar_trigger": false,
      "taf_trigger": false,
      "metar": "METAR LIRZ 141350Z AUTO 20009KT 160V250 9999 NCD 36/15 Q1015",
      "taf": "TAF LIRZ 141100Z 1412/1512 22012KT CAVOK"
    },
    {
      "icao": "LJLJ",
      "alert": "OK",
      "vis_m": 9999,
      "fzfg": false,
      "metar_trigger": false,
      "taf_trigger": false,
      "metar": "METAR LJLJ 141400Z 24007KT 9999 VCSH FEW060CB SCT120 BKN160 28/16 Q1016 NOSIG",
      "taf": "TAF LJLJ 141100Z 1412/1512 VRB02KT 9999 SCT055"
    },
    {
      "icao": "LKMT",
      "alert": "OK",
      "vis_m": 9999,
      "fzfg": false,
      "metar_trigger": false,
      "taf_trigger": false,
      "metar": "METAR LKMT 141400Z 02011KT 340V060 CAVOK 30/17 Q1017 NOSIG",
      "taf": "TAF LKMT 141100Z 1412/1512 02008KT 9999 SCT040"
    },
    {
      "icao": "LKPR",
      "alert": "OK",
      "vis_m": 9999,
      "fzfg": false,
      "metar_trigger": false,
      "taf_trigger": false,
      "metar": "METAR LKPR 141400Z 35012KT 9999 FEW040CB 27/14 Q1017 TEMPO 5000 TSRA",
      "taf": "TAF LKPR 141100Z 1412/1518 01006KT CAVOK"
    },
    {
      "icao": "LLBG",
      "alert": "OK",
      "vis_m": 9999,
      "fzfg": false,
      "metar_trigger": false,
      "taf_trigger": false,
      "metar": "METAR LLBG 141350Z 29008KT CAVOK 30/20 Q1007 NOSIG",
      "taf": "TAF LLBG 141101Z 1412/1512 28010KT CAVOK TX31/1412Z TN23/1503Z"
    },
    {
      "icao": "LMML",
      "alert": "OK",
      "vis_m": 9999,
      "fzfg": false,
      "metar_trigger": false,
      "taf_trigger": false,
      "metar": "METAR LMML 141345Z 32006KT 230V360 CAVOK 35/16 Q1019 NOSIG",
      "taf": "TAF LMML 141100Z 1412/1512 29008KT 9999 FEW015"
    },
    {
      "icao": "LOWW",
      "alert": "OK",
      "vis_m": 9999,
      "fzfg": false,
      "metar_trigger": false,
      "taf_trigger": false,
      "metar": "METAR LOWW 141350Z 15006KT 110V200 CAVOK 31/13 Q1015 NOSIG",
      "taf": "TAF LOWW 141415Z 1415/1521 15010KT CAVOK TX31/1415Z TN19/1504Z"
    },
    {
      "icao": "LPFR",
      "alert": "OK",
      "vis_m": 9999,
      "fzfg": false,
      "metar_trigger": false,
      "taf_trigger": false,
      "metar": "METAR LPFR 141400Z 25015KT CAVOK 25/18 Q1017",
      "taf": "TAF LPFR 141100Z 1412/1512 24013KT CAVOK"
    },
    {
      "icao": "LPMA",
      "alert": "OK",
      "vis_m": 9999,
      "fzfg": false,
      "metar_trigger": false,
      "taf_trigger": false,
      "metar": "METAR LPMA 141400Z VRB08KT 9999 SCT015 BKN033 24/20 Q1018",
      "taf": "TAF LPMA 141100Z 1412/1512 19010KT 9999 SCT015"
    },
    {
      "icao": "LPPR",
      "alert": "OK",
      "vis_m": 9999,
      "fzfg": false,
      "metar_trigger": false,
      "taf_trigger": false,
      "metar": "METAR LPPR 141400Z 27006KT 230V340 9999 FEW014 23/17 Q1017",
      "taf": "TAF LPPR 141100Z 1412/1512 29010KT 9999 SCT020"
    },
    {
      "icao": "LPPS",
      "alert": "OK",
      "vis_m": 9999,
      "fzfg": false,
      "metar_trigger": false,
      "taf_trigger": false,
      "metar": "METAR LPPS 141400Z 17007KT 130V200 9999 FEW015 24/18 Q1018",
      "taf": "TAF LPPS 141100Z 1412/1518 18010KT 9999 SCT015"
    },
    {
      "icao": "LPPT",
      "alert": "OK",
      "vis_m": 9999,
      "fzfg": false,
      "metar_trigger": false,
      "taf_trigger": false,
      "metar": "METAR LPPT 141400Z 32008KT 270V350 9999 SCT042 27/16 Q1016 WS R20 NOSIG",
      "taf": "TAF LPPT 141100Z 1412/1518 VRB05KT 9999 FEW030"
    },
    {
      "icao": "LQBK",
      "alert": "OK",
      "vis_m": 9999,
      "fzfg": false,
      "metar_trigger": false,
      "taf_trigger": false,
      "metar": "METAR LQBK 141400Z 05007KT 360V090 9999 FEW047 34/14 Q1014 NOSIG",
      "taf": "TAF LQBK 141100Z 1412/1512 14005KT CAVOK TX34/1414Z TN18/1503Z"
    },
    {
      "icao": "LQSA",
      "alert": "OK",
      "vis_m": 9999,
      "fzfg": false,
      "metar_trigger": false,
      "taf_trigger": false,
      "metar": "METAR LQSA 141400Z 32005KT 260V020 CAVOK 31/12 Q1018 NOSIG",
      "taf": "TAF LQSA 141100Z 1412/1512 VRB02KT CAVOK TX32/1512Z TN15/1504Z"
    },
    {
      "icao": "LQTZ",
      "alert": "OK",
      "vis_m": 9999,
      "fzfg": false,
      "metar_trigger": false,
      "taf_trigger": false,
      "metar": "METAR LQTZ 141400Z VRB05KT CAVOK 31/13 Q1016",
      "taf": "TAF LQTZ 141100Z 1412/1512 VRB02KT CAVOK TX32/1414Z TN16/1503Z"
    },
    {
      "icao": "LRBC",
      "alert": "OK",
      "vis_m": 9999,
      "fzfg": false,
      "metar_trigger": false,
      "taf_trigger": false,
      "metar": "METAR LRBC 141400Z 30010KT 9999 FEW025CB 24/20 Q1015",
      "taf": "TAF LRBC 141100Z 1412/1421 34012KT 9999 BKN035"
    },
    {
      "icao": "LRBS",
      "alert": "OK",
      "vis_m": 9999,
      "fzfg": false,
      "metar_trigger": false,
      "taf_trigger": false,
      "metar": "METAR LRBS 141400Z VRB04KT CAVOK 30/14 Q1014 NOSIG",
      "taf": "TAF LRBS 141100Z 1412/1512 VRB04KT CAVOK"
    },
    {
      "icao": "LRBV",
      "alert": "OK",
      "vis_m": 9999,
      "fzfg": false,
      "metar_trigger": false,
      "taf_trigger": false,
      "metar": "METAR LRBV 141400Z 13010KT 090V160 9999 VCSH FEW007 SCT037 SCT047CB BKN057 19/15 Q1018",
      "taf": "TAF LRBV 141100Z 1412/1421 29010KT 9999 BKN045"
    },
    {
      "icao": "LRCL",
      "alert": "OK",
      "vis_m": 9999,
      "fzfg": false,
      "metar_trigger": false,
      "taf_trigger": false,
      "metar": "METAR LRCL 141400Z 34006KT 300V010 9999 -SHRA FEW045CB 27/17 Q1016",
      "taf": "TAF LRCL 141100Z 1412/1421 32008KT 9999 SCT040"
    },
    {
      "icao": "LRCV",
      "alert": "OK",
      "vis_m": 9999,
      "fzfg": false,
      "metar_trigger": false,
      "taf_trigger": false,
      "metar": "METAR LRCV 141400Z VRB03KT CAVOK 31/13 Q1015",
      "taf": "TAF LRCV 141100Z 1412/1421 29007KT CAVOK"
    },
    {
      "icao": "LRIA",
      "alert": "OK",
      "vis_m": 9999,
      "fzfg": false,
      "metar_trigger": false,
      "taf_trigger": false,
      "metar": "METAR LRIA 141400Z 31008KT 250V340 9999 FEW044 28/17 Q1013",
      "taf": "TAF LRIA 141100Z 1412/1421 33012KT 9999 SCT035"
    },
    {
      "icao": "LROP",
      "alert": "OK",
      "vis_m": 9999,
      "fzfg": false,
      "metar_trigger": false,
      "taf_trigger": false,
      "metar": "METAR LROP 141400Z 31007KT 260V020 CAVOK 30/14 Q1014 NOSIG",
      "taf": "TAF LROP 141100Z 1412/1512 VRB04KT CAVOK"
    },
    {
      "icao": "LRSB",
      "alert": "OK",
      "vis_m": 9999,
      "fzfg": false,
      "metar_trigger": false,
      "taf_trigger": false,
      "metar": "METAR LRSB 141400Z 28006KT 250V330 9999 FEW040CB 27/15 Q1017",
      "taf": "TAF LRSB 141100Z 1412/1512 VRB04KT 9999 SCT050"
    },
    {
      "icao": "LRSM",
      "alert": "OK",
      "vis_m": 9999,
      "fzfg": false,
      "metar_trigger": false,
      "taf_trigger": false,
      "metar": "METAR LRSM 141400Z 33007KT 290V350 9999 FEW045CB 30/15 Q1015",
      "taf": "TAF LRSM 141100Z 1412/1421 34006KT 9999 SCT045"
    },
    {
      "icao": "LRSV",
      "alert": "OK",
      "vis_m": 9999,
      "fzfg": false,
      "metar_trigger": false,
      "taf_trigger": false,
      "metar": "METAR LRSV 141400Z 31012KT CAVOK 22/16 Q1016",
      "taf": "TAF LRSV 141100Z 1412/1421 32014KT 9999 SCT040"
    },
    {
      "icao": "LRTM",
      "alert": "OK",
      "vis_m": 9999,
      "fzfg": false,
      "metar_trigger": false,
      "taf_trigger": false,
      "metar": "METAR LRTM 141400Z 28008KT 260V330 CAVOK 29/19 Q1016",
      "taf": "TAF LRTM 141100Z 1412/1421 30008KT 9999 SCT040"
    },
    {
      "icao": "LRTR",
      "alert": "OK",
      "vis_m": 9999,
      "fzfg": false,
      "metar_trigger": false,
      "taf_trigger": false,
      "metar": "METAR LRTR 141400Z 30008KT 250V330 CAVOK 31/14 Q1015",
      "taf": "TAF LRTR 141100Z 1412/1512 31006KT 9999 SCT045"
    },
    {
      "icao": "LTAC",
      "alert": "OK",
      "vis_m": 9999,
      "fzfg": false,
      "metar_trigger": false,
      "taf_trigger": false,
      "metar": "METAR LTAC 141350Z 30011KT 260V340 9999 SCT040 SCT100 28/09 Q1013 NOSIG RMK RWY21C 35010KT 290V030 RWY03L 33009KT 270V350 RWY21R 34009KT 290V020 RWY03R 29010KT 250V330 RWY21L 30010KT 250V350",
      "taf": "TAF LTAC 141040Z 1412/1512 VRB02KT 9999 SCT040 SCT100"
    },
    {
      "icao": "LTFM",
      "alert": "OK",
      "vis_m": 9999,
      "fzfg": false,
      "metar_trigger": false,
      "taf_trigger": false,
      "metar": "METAR LTFM 141350Z 36016KT 9999 SCT025 25/17 Q1016 NOSIG RMK RWY17L 35013KT 320V020 RWY34L 35016KT 320V020 RWY16R 36014KT RWY36 36016KT RWY18 36015KT",
      "taf": "TAF LTFM 141040Z 1412/1518 35015KT 9999 SCT025"
    },
    {
      "icao": "LUKK",
      "alert": "OK",
      "vis_m": 9999,
      "fzfg": false,
      "metar_trigger": false,
      "taf_trigger": false,
      "metar": "METAR LUKK 141400Z 34008KT 300V020 9999 FEW049CB 29/17 Q1012 TEMPO 35018G30KT 3000 TSRA BKN015 SCT030CB",
      "taf": "TAF LUKK 141054Z 1412/1512 33009KT 9999 SCT040"
    },
    {
      "icao": "LWOH",
      "alert": "OK",
      "vis_m": 9999,
      "fzfg": false,
      "metar_trigger": false,
      "taf_trigger": false,
      "metar": "METAR LWOH 141350Z 17006KT 140V200 9999 FEW040 27/18 Q1019",
      "taf": "TAF LWOH 141125Z 1412/1512 16008KT 9999 FEW040"
    },
    {
      "icao": "LWSK",
      "alert": "OK",
      "vis_m": null,
      "fzfg": false,
      "metar_trigger": false,
      "taf_trigger": false,
      "metar": "",
      "taf": "TAF LWSK 141125Z 1412/1512 26006KT 9999 SCT050"
    },
    {
      "icao": "LYBE",
      "alert": "OK",
      "vis_m": 9999,
      "fzfg": false,
      "metar_trigger": false,
      "taf_trigger": false,
      "metar": "METAR LYBE 141400Z VRB03KT CAVOK 31/15 Q1016 NOSIG",
      "taf": "TAF LYBE 141100Z 1412/1512 03006KT CAVOK TX31/1414Z TN21/1503Z"
    },
    {
      "icao": "LYNI",
      "alert": "OK",
      "vis_m": 9999,
      "fzfg": false,
      "metar_trigger": false,
      "taf_trigger": false,
      "metar": "METAR LYNI 141400Z 31009KT 260V350 9999 FEW040 31/13 Q1016 NOSIG",
      "taf": "TAF LYNI 141100Z 1412/1512 33012KT CAVOK TX32/1512Z TN15/1503Z"
    },
    {
      "icao": "LYPG",
      "alert": "OK",
      "vis_m": 9999,
      "fzfg": false,
      "metar_trigger": false,
      "taf_trigger": false,
      "metar": "METAR LYPG 141400Z 18007KT 140V230 CAVOK 35/14 Q1014 NOSIG",
      "taf": "TAF LYPG 141100Z 1412/1512 18010KT 9999 FEW050 TX35/1413Z TN23/1503Z"
    },
    {
      "icao": "LZIB",
      "alert": "OK",
      "vis_m": 9999,
      "fzfg": false,
      "metar_trigger": false,
      "taf_trigger": false,
      "metar": "METAR LZIB 141400Z VRB03KT CAVOK 31/13 Q1015 NOSIG",
      "taf": ""
    },
    {
      "icao": "LZKZ",
      "alert": "OK",
      "vis_m": 9999,
      "fzfg": false,
      "metar_trigger": false,
      "taf_trigger": false,
      "metar": "METAR LZKZ 141400Z 34009KT 310V010 9999 FEW040 29/16 Q1017 NOSIG",
      "taf": "TAF LZKZ 141115Z 1412/1512 01008KT CAVOK"
    },
    {
      "icao": "LZTT",
      "alert": "OK",
      "vis_m": 9999,
      "fzfg": false,
      "metar_trigger": false,
      "taf_trigger": false,
      "metar": "METAR LZTT 141400Z 07012KT 9999 VCTS FEW036CB SCT053 25/15 Q1019 NOSIG",
      "taf": "TAF LZTT 141115Z 1412/1512 VRB02KT 9999 FEW060"
    },
    {
      "icao": "OEJN",
      "alert": "OK",
      "vis_m": 9999,
      "fzfg": false,
      "metar_trigger": false,
      "taf_trigger": false,
      "metar": "METAR OEJN 141400Z 29010KT CAVOK 35/21 Q1003 NOSIG",
      "taf": "TAF OEJN 141100Z 1412/1518 30012KT 9999 FEW040"
    },
    {
      "icao": "OEMA",
      "alert": "OK",
      "vis_m": 9999,
      "fzfg": false,
      "metar_trigger": false,
      "taf_trigger": false,
      "metar": "METAR OEMA 141400Z 07005KT CAVOK 45/M06 Q1006 NOSIG",
      "taf": "TAF OEMA 141100Z 1412/1518 30010KT CAVOK"
    },
    {
      "icao": "OJAI",
      "alert": "OK",
      "vis_m": 5000,
      "fzfg": false,
      "metar_trigger": false,
      "taf_trigger": false,
      "metar": "METAR OJAI 141400Z 27013KT 5000 HZ NSC 33/11 Q1010 NOSIG",
      "taf": "TAF OJAI 140943Z 1412/1518 30008KT 5000 HZ NSC"
    },
    {
      "icao": "OMAA",
      "alert": "OK",
      "vis_m": 9999,
      "fzfg": false,
      "metar_trigger": false,
      "taf_trigger": false,
      "metar": "METAR OMAA 141400Z 33007KT CAVOK 39/22 Q0995 NOSIG",
      "taf": "TAF OMAA 141100Z 1412/1518 30010KT 8000 NSC"
    },
    {
      "icao": "OMDB",
      "alert": "OK",
      "vis_m": 8000,
      "fzfg": false,
      "metar_trigger": false,
      "taf_trigger": false,
      "metar": "METAR OMDB 141400Z 33009KT 8000 NSC 38/25 Q0995 NOSIG",
      "taf": "TAF OMDB 141100Z 1412/1518 34010KT 8000 NSC"
    },
    {
      "icao": "UAAA",
      "alert": "OK",
      "vis_m": 9999,
      "fzfg": false,
      "metar_trigger": false,
      "taf_trigger": false,
      "metar": "METAR UAAA 141400Z 13002MPS 9999 FEW050CB SCT100 BKN200 30/14 Q1009 NOSIG",
      "taf": "TAF UAAA 141102Z 1412/1512 15003MPS 9999 FEW050CB SCT100 TX35/1510Z TN20/1501Z"
    },
    {
      "icao": "UBBB",
      "alert": "OK",
      "vis_m": 9999,
      "fzfg": false,
      "metar_trigger": false,
      "taf_trigger": false,
      "metar": "METAR UBBB 141400Z 02008KT CAVOK 30/20 Q1005 NOSIG",
      "taf": "TAF UBBB 141048Z 1412/1512 02008KT CAVOK TX32/1412Z TN24/1501Z"
    },
    {
      "icao": "UDSG",
      "alert": "OK",
      "vis_m": 9999,
      "fzfg": false,
      "metar_trigger": false,
      "taf_trigger": false,
      "metar": "METAR UDSG 141400Z 06014KT 9999 FEW049 28/17 Q1012 NOSIG",
      "taf": "TAF UDSG 141058Z 1412/1512 36008KT 9999 FEW050"
    },
    {
      "icao": "UDYZ",
      "alert": "OK",
      "vis_m": 9999,
      "fzfg": false,
      "metar_trigger": false,
      "taf_trigger": false,
      "metar": "METAR UDYZ 141400Z 26003KT 190V300 9999 FEW046 37/12 Q1004 NOSIG",
      "taf": "TAF UDYZ 141100Z 1412/1512 22006KT 9999 FEW040"
    },
    {
      "icao": "UGKO",
      "alert": "OK",
      "vis_m": 9999,
      "fzfg": false,
      "metar_trigger": false,
      "taf_trigger": false,
      "metar": "METAR UGKO 141400Z 29005KT 260V320 9999 SCT023 OVC039 23/20 Q1009 NOSIG",
      "taf": "TAF UGKO 141100Z 1412/1512 25007KT 9999 SCT015 OVC030 TX26/1511Z TN20/1502Z"
    }
  ]
}