{
  "ts_utc": "2026-06-15T02:28:50Z",
  "threshold_m": 150,
  "source": "stations_override.txt (ICAO list) + aviationweather.gov (METAR/TAF raw)",
  "station_count": 159,
  "stations": [
    {
      "icao": "BIKF",
      "alert": "OK",
      "vis_m": 9999,
      "fzfg": false,
      "metar_trigger": false,
      "taf_trigger": false,
      "metar": "METAR BIKF 150200Z 14005KT 9999 BKN017 OVC044 11/08 Q1022",
      "taf": "TAF BIKF 150156Z 1503/1603 14005KT 9999 BKN018 TX13/1513Z TN08/1504Z"
    },
    {
      "icao": "BKPR",
      "alert": "OK",
      "vis_m": null,
      "fzfg": false,
      "metar_trigger": false,
      "taf_trigger": false,
      "metar": "",
      "taf": "TAF BKPR 142330Z 1500/1524 01007KT CAVOK"
    },
    {
      "icao": "EBCI",
      "alert": "OK",
      "vis_m": 9999,
      "fzfg": false,
      "metar_trigger": false,
      "taf_trigger": false,
      "metar": "METAR EBCI 150220Z 25003KT CAVOK 09/07 Q1018 NOSIG",
      "taf": "TAF EBCI 142315Z 1500/1606 30003KT 9999 SCT020"
    },
    {
      "icao": "EDDB",
      "alert": "OK",
      "vis_m": 9999,
      "fzfg": false,
      "metar_trigger": false,
      "taf_trigger": false,
      "metar": "METAR EDDB 150220Z AUTO 26011KT 9999 BKN021 BKN028 13/09 Q1009 NOSIG",
      "taf": "TAF EDDB 142300Z 1500/1524 26014KT 9999 SCT040"
    },
    {
      "icao": "EDDH",
      "alert": "OK",
      "vis_m": 9999,
      "fzfg": false,
      "metar_trigger": false,
      "taf_trigger": false,
      "metar": "METAR EDDH 150220Z AUTO 26007KT 230V300 9999 SCT011 BKN031 OVC037 12/11 Q1009 NOSIG",
      "taf": "TAF EDDH 142300Z 1500/1606 27010KT 9999 FEW008 BKN020"
    },
    {
      "icao": "EDDK",
      "alert": "OK",
      "vis_m": 9999,
      "fzfg": false,
      "metar_trigger": false,
      "taf_trigger": false,
      "metar": "METAR EDDK 150220Z AUTO 18003KT 130V260 CAVOK 08/07 Q1016 NOSIG",
      "taf": "TAF EDDK 142300Z 1500/1606 29008KT 9999 SCT035"
    },
    {
      "icao": "EDDN",
      "alert": "OK",
      "vis_m": 9999,
      "fzfg": false,
      "metar_trigger": false,
      "taf_trigger": false,
      "metar": "METAR EDDN 150220Z AUTO 25002KT CAVOK 09/06 Q1015",
      "taf": "TAF EDDN 142300Z 1500/1524 VRB03KT CAVOK"
    },
    {
      "icao": "EDDS",
      "alert": "OK",
      "vis_m": 9999,
      "fzfg": false,
      "metar_trigger": false,
      "taf_trigger": false,
      "metar": "METAR EDDS 150220Z AUTO 23002KT CAVOK 11/07 Q1015",
      "taf": "TAF EDDS 142300Z 1500/1524 VRB03KT CAVOK"
    },
    {
      "icao": "EDFH",
      "alert": "OK",
      "vis_m": 9999,
      "fzfg": false,
      "metar_trigger": false,
      "taf_trigger": false,
      "metar": "METAR EDFH 150220Z 29005KT CAVOK 08/07 Q1016",
      "taf": "TAF EDFH 142300Z 1500/1524 29005KT 9999 FEW030"
    },
    {
      "icao": "EDJA",
      "alert": "OK",
      "vis_m": 9999,
      "fzfg": false,
      "metar_trigger": false,
      "taf_trigger": false,
      "metar": "METAR EDJA 150220Z AUTO VRB02KT 9999 // FEW046/// SCT059/// 10/09 Q1016",
      "taf": "TAF EDJA 150200Z 1503/1512 VRB03KT CAVOK"
    },
    {
      "icao": "EDLW",
      "alert": "OK",
      "vis_m": 9999,
      "fzfg": false,
      "metar_trigger": false,
      "taf_trigger": false,
      "metar": "METAR EDLW 150220Z AUTO 24007KT 9999 // OVC040/// 11/08 Q1015",
      "taf": "TAF EDLW 141700Z 1418/1518 27007KT CAVOK"
    },
    {
      "icao": "EDNY",
      "alert": "OK",
      "vis_m": 9999,
      "fzfg": false,
      "metar_trigger": false,
      "taf_trigger": false,
      "metar": "METAR EDNY 150220Z AUTO 00000KT 9999 // BKN063/// 12/09 Q1016",
      "taf": "TAF EDNY 150200Z 1503/1512 VRB03KT 9999 SCT050"
    },
    {
      "icao": "EDSB",
      "alert": "OK",
      "vis_m": 9999,
      "fzfg": false,
      "metar_trigger": false,
      "taf_trigger": false,
      "metar": "METAR EDSB 150220Z AUTO VRB01KT 9999 // OVC055/// 13/09 Q1016",
      "taf": "TAF EDSB 142300Z 1500/1524 VRB03KT CAVOK"
    },
    {
      "icao": "EETN",
      "alert": "OK",
      "vis_m": 9999,
      "fzfg": false,
      "metar_trigger": false,
      "taf_trigger": false,
      "metar": "METAR EETN 150220Z 09005KT 9999 FEW032 12/11 Q0999",
      "taf": "TAF EETN 142330Z 1500/1524 VRB02KT 9999 SCT035"
    },
    {
      "icao": "EFTU",
      "alert": "OK",
      "vis_m": 9999,
      "fzfg": false,
      "metar_trigger": false,
      "taf_trigger": false,
      "metar": "METAR EFTU 150220Z AUTO 05003KT 020V080 CAVOK 11/10 Q1000",
      "taf": "TAF EFTU 142337Z 1500/1524 07004KT CAVOK"
    },
    {
      "icao": "EGBB",
      "alert": "OK",
      "vis_m": 9999,
      "fzfg": false,
      "metar_trigger": false,
      "taf_trigger": false,
      "metar": "METAR EGBB 150220Z 09007KT CAVOK 11/07 Q1018",
      "taf": "TAF EGBB 142254Z 1500/1524 11008KT 9999 FEW045"
    },
    {
      "icao": "EGGP",
      "alert": "OK",
      "vis_m": 9999,
      "fzfg": false,
      "metar_trigger": false,
      "taf_trigger": false,
      "metar": "METAR EGGP 150220Z AUTO 08005KT 060V120 9999 NCD 10/07 Q1018",
      "taf": "TAF EGGP 142259Z 1500/1524 10009KT 9999 FEW040"
    },
    {
      "icao": "EGGW",
      "alert": "OK",
      "vis_m": 9999,
      "fzfg": false,
      "metar_trigger": false,
      "taf_trigger": false,
      "metar": "METAR EGGW 150220Z AUTO 05006KT 9999 NCD 10/07 Q1018",
      "taf": "TAF EGGW 142257Z 1500/1524 06006KT 9999 FEW030"
    },
    {
      "icao": "EGKK",
      "alert": "OK",
      "vis_m": 9999,
      "fzfg": false,
      "metar_trigger": false,
      "taf_trigger": false,
      "metar": "METAR EGKK 150220Z 14003KT 070V190 9999 -RA NSC 13/12 Q1017",
      "taf": "TAF EGKK 142302Z 1500/1606 08003KT 9999 FEW030"
    },
    {
      "icao": "EGNM",
      "alert": "OK",
      "vis_m": 9999,
      "fzfg": false,
      "metar_trigger": false,
      "taf_trigger": false,
      "metar": "METAR EGNM 150220Z 04003KT 9999 SCT015 08/06 Q1019",
      "taf": "TAF EGNM 142259Z 1500/1524 03005KT 9999 FEW035"
    },
    {
      "icao": "EGPD",
      "alert": "OK",
      "vis_m": 9999,
      "fzfg": false,
      "metar_trigger": false,
      "taf_trigger": false,
      "metar": "METAR EGPD 150220Z AUTO 31008KT 9999 OVC019 09/06 Q1019",
      "taf": "TAF EGPD 142256Z 1500/1524 32007KT 9999 SCT025"
    },
    {
      "icao": "EGPF",
      "alert": "OK",
      "vis_m": 9999,
      "fzfg": false,
      "metar_trigger": false,
      "taf_trigger": false,
      "metar": "METAR EGPF 150220Z AUTO 07006KT 9999 BKN035 OVC049 11/07 Q1019",
      "taf": "TAF EGPF 142257Z 1500/1524 06009KT 9999 SCT045"
    },
    {
      "icao": "EHBK",
      "alert": "OK",
      "vis_m": 9999,
      "fzfg": false,
      "metar_trigger": false,
      "taf_trigger": false,
      "metar": "METAR EHBK 150225Z AUTO 24005KT 210V270 9999 FEW030 OVC036 10/08 Q1017",
      "taf": "TAF EHBK 142316Z 1500/1606 27005KT CAVOK"
    },
    {
      "icao": "EHEH",
      "alert": "OK",
      "vis_m": 9999,
      "fzfg": false,
      "metar_trigger": false,
      "taf_trigger": false,
      "metar": "METAR EHEH 150155Z AUTO 24003KT 9999 OVC034 10/09 Q1016 BLU",
      "taf": "TAF EHEH 142317Z 1500/1606 24003KT 9999 FEW028"
    },
    {
      "icao": "EKBI",
      "alert": "OK",
      "vis_m": 9999,
      "fzfg": false,
      "metar_trigger": false,
      "taf_trigger": false,
      "metar": "METAR EKBI 150220Z AUTO 28014KT 9999 OVC011/// 12/10 Q1005",
      "taf": "TAF EKBI 142327Z 1500/1524 28012KT 9999 BKN012"
    },
    {
      "icao": "EKCH",
      "alert": "OK",
      "vis_m": 9999,
      "fzfg": false,
      "metar_trigger": false,
      "taf_trigger": false,
      "metar": "METAR EKCH 150220Z AUTO 27013KT 9999 BKN011/// BKN073/// 12/11 Q1003 TEMPO SCT020CB",
      "taf": "TAF EKCH 142327Z 1500/1524 30014KT 9999 BKN030"
    },
    {
      "icao": "ENAL",
      "alert": "OK",
      "vis_m": 9999,
      "fzfg": false,
      "metar_trigger": false,
      "taf_trigger": false,
      "metar": "METAR ENAL 150220Z AUTO 02007KT 9999 FEW019/// SCT025/// BKN036/// 09/06 Q1013",
      "taf": "TAF ENAL 142300Z 1500/1509 03010KT 9999 FEW015 BKN025"
    },
    {
      "icao": "ENBR",
      "alert": "OK",
      "vis_m": 9999,
      "fzfg": false,
      "metar_trigger": false,
      "taf_trigger": false,
      "metar": "METAR ENBR 150220Z AUTO 33012KT 9999 NCD 09/06 Q1008 RMK WIND 1200FT 34021KT",
      "taf": "TAF ENBR 142300Z 1500/1524 34008KT CAVOK"
    },
    {
      "icao": "ENGM",
      "alert": "OK",
      "vis_m": 9999,
      "fzfg": false,
      "metar_trigger": false,
      "taf_trigger": false,
      "metar": "METAR ENGM 150220Z 01016KT 9999 SCT038 10/04 Q1004",
      "taf": "TAF ENGM 142300Z 1500/1524 36015KT 9999 BKN040"
    },
    {
      "icao": "ENHD",
      "alert": "OK",
      "vis_m": 9999,
      "fzfg": false,
      "metar_trigger": false,
      "taf_trigger": false,
      "metar": "METAR ENHD 150220Z AUTO 34023KT 9999 NCD 11/08 Q1007",
      "taf": ""
    },
    {
      "icao": "ENTC",
      "alert": "OK",
      "vis_m": 9999,
      "fzfg": false,
      "metar_trigger": false,
      "taf_trigger": false,
      "metar": "METAR ENTC 150220Z AUTO 32003KT 280V010 9999 NCD 11/02 Q1013 RMK WIND 2600FT 10008KT",
      "taf": "TAF ENTC 142300Z 1500/1524 03006KT CAVOK"
    },
    {
      "icao": "ENTO",
      "alert": "OK",
      "vis_m": 3000,
      "fzfg": false,
      "metar_trigger": false,
      "taf_trigger": false,
      "metar": "METAR ENTO 150220Z AUTO 36015KT 3000 // NCD 12/04 Q1003",
      "taf": "TAF ENTO 141700Z 1418/1518 34008KT 9999 SCT040"
    },
    {
      "icao": "ENVA",
      "alert": "OK",
      "vis_m": 9999,
      "fzfg": false,
      "metar_trigger": false,
      "taf_trigger": false,
      "metar": "METAR ENVA 150220Z AUTO 31008KT 9999 OVC030/// 10/06 Q1010 RMK WIND 670FT 32015KT",
      "taf": "TAF ENVA 142300Z 1500/1524 29012KT 9999 BKN018"
    },
    {
      "icao": "ENZV",
      "alert": "OK",
      "vis_m": 9999,
      "fzfg": false,
      "metar_trigger": false,
      "taf_trigger": false,
      "metar": "METAR ENZV 150220Z 35008KT 9999 SCT012 11/08 Q1007",
      "taf": "TAF ENZV 142300Z 1500/1524 34012KT 9999 FEW015"
    },
    {
      "icao": "EPGD",
      "alert": "OK",
      "vis_m": 9999,
      "fzfg": false,
      "metar_trigger": false,
      "taf_trigger": false,
      "metar": "METAR EPGD 150200Z 26010KT 9999 SCT014 12/10 Q1001",
      "taf": "TAF EPGD 142330Z 1500/1524 26015KT CAVOK"
    },
    {
      "icao": "EPKK",
      "alert": "OK",
      "vis_m": 9999,
      "fzfg": false,
      "metar_trigger": false,
      "taf_trigger": false,
      "metar": "METAR EPKK 150200Z 25007KT 9999 BKN043 11/09 Q1010",
      "taf": "TAF EPKK 142330Z 1500/1524 25010KT 9999 BKN050"
    },
    {
      "icao": "EPKT",
      "alert": "OK",
      "vis_m": 9999,
      "fzfg": false,
      "metar_trigger": false,
      "taf_trigger": false,
      "metar": "METAR EPKT 150200Z 26010KT 9999 FEW035 11/08 Q1009",
      "taf": "TAF EPKT 142330Z 1500/1524 26012KT 9999 SCT040"
    },
    {
      "icao": "EPLB",
      "alert": "OK",
      "vis_m": 9999,
      "fzfg": false,
      "metar_trigger": false,
      "taf_trigger": false,
      "metar": "METAR EPLB 150200Z 26010KT 9999 FEW014 SCT020 11/10 Q1006",
      "taf": "TAF EPLB 142330Z 1500/1524 24010KT CAVOK"
    },
    {
      "icao": "EPMO",
      "alert": "OK",
      "vis_m": 8000,
      "fzfg": false,
      "metar_trigger": false,
      "taf_trigger": false,
      "metar": "METAR EPMO 150200Z 23007KT 200V260 8000 -SHRA BKN008 BKN012CB 12/11 Q1004",
      "taf": "TAF EPMO 142330Z 1500/1524 24010KT 9999 SCT011 BKN034"
    },
    {
      "icao": "EPPO",
      "alert": "OK",
      "vis_m": 9999,
      "fzfg": false,
      "metar_trigger": false,
      "taf_trigger": false,
      "metar": "METAR EPPO 150200Z 26012KT 9999 BKN020 12/09 Q1006",
      "taf": "TAF EPPO 142330Z 1500/1524 27012KT 9999 SCT025"
    },
    {
      "icao": "EPRA",
      "alert": "OK",
      "vis_m": 9999,
      "fzfg": false,
      "metar_trigger": false,
      "taf_trigger": false,
      "metar": "METAR EPRA 150200Z 25010KT 9999 BKN016 12/09 Q1006",
      "taf": "TAF EPRA 142330Z 1500/1509 25010KT 9999 BKN020"
    },
    {
      "icao": "EPRZ",
      "alert": "OK",
      "vis_m": 9999,
      "fzfg": false,
      "metar_trigger": false,
      "taf_trigger": false,
      "metar": "METAR EPRZ 150200Z 26011KT 9999 SCT030 12/09 Q1009",
      "taf": "TAF EPRZ 142330Z 1500/1524 26010KT 9999 SCT040"
    },
    {
      "icao": "EPSC",
      "alert": "OK",
      "vis_m": 9999,
      "fzfg": false,
      "metar_trigger": false,
      "taf_trigger": false,
      "metar": "METAR EPSC 150200Z 26011KT 9999 OVC009 12/11 Q1005",
      "taf": "TAF EPSC 142330Z 1500/1524 26012KT 9999 BKN014"
    },
    {
      "icao": "EPSY",
      "alert": "OK",
      "vis_m": 9999,
      "fzfg": false,
      "metar_trigger": false,
      "taf_trigger": false,
      "metar": "METAR EPSY 150200Z 22006KT CAVOK 11/10 Q1002",
      "taf": "TAF EPSY 142330Z 1500/1509 23008KT CAVOK"
    },
    {
      "icao": "EPWA",
      "alert": "OK",
      "vis_m": 9999,
      "fzfg": false,
      "metar_trigger": false,
      "taf_trigger": false,
      "metar": "METAR EPWA 150200Z 24006KT 9999 BKN012 BKN024 12/11 Q1004 NOSIG",
      "taf": "TAF EPWA 142330Z 1500/1524 25010KT 9999 SCT012 BKN030"
    },
    {
      "icao": "EPWR",
      "alert": "OK",
      "vis_m": 9999,
      "fzfg": false,
      "metar_trigger": false,
      "taf_trigger": false,
      "metar": "METAR EPWR 150200Z 26009KT 9999 BKN041 11/09 Q1010",
      "taf": "TAF EPWR 142330Z 1500/1524 27013KT 9999 SCT040"
    },
    {
      "icao": "ESGG",
      "alert": "OK",
      "vis_m": 9999,
      "fzfg": false,
      "metar_trigger": false,
      "taf_trigger": false,
      "metar": "METAR ESGG 150220Z 31007KT 9999 SCT043 10/07 Q1000",
      "taf": "TAF ESGG 142330Z 1500/1524 30005KT 9999 FEW030 BKN045"
    },
    {
      "icao": "ESKN",
      "alert": "OK",
      "vis_m": 9999,
      "fzfg": false,
      "metar_trigger": false,
      "taf_trigger": false,
      "metar": "METAR ESKN 150220Z 03006KT 9999 SCT022 BKN035 10/10 Q0997",
      "taf": "TAF ESKN 142330Z 1500/1524 27008KT 9999 -RA FEW025 BKN040"
    },
    {
      "icao": "ESMS",
      "alert": "OK",
      "vis_m": 9999,
      "fzfg": false,
      "metar_trigger": false,
      "taf_trigger": false,
      "metar": "METAR ESMS 150220Z 26010KT 9999 BKN010 12/12 Q1002",
      "taf": "TAF ESMS 142327Z 1500/1524 31013KT 9999 BKN020"
    },
    {
      "icao": "ESSA",
      "alert": "OK",
      "vis_m": 9999,
      "fzfg": false,
      "metar_trigger": false,
      "taf_trigger": false,
      "metar": "METAR ESSA 150220Z 02009KT CAVOK 09/08 Q0999 TEMPO 4000 SHRA BKN008 BKN020CB",
      "taf": ""
    },
    {
      "icao": "EYKA",
      "alert": "OK",
      "vis_m": 9999,
      "fzfg": false,
      "metar_trigger": false,
      "taf_trigger": false,
      "metar": "METAR EYKA 150220Z 19006KT 9999 SCT020 BKN048 11/10 Q1000",
      "taf": "TAF EYKA 142314Z 1500/1524 VRB03KT 9000 BKN025"
    },
    {
      "icao": "EYPA",
      "alert": "OK",
      "vis_m": 9999,
      "fzfg": false,
      "metar_trigger": false,
      "taf_trigger": false,
      "metar": "METAR EYPA 150220Z VRB02KT 9999 FEW016 12/10 Q0998",
      "taf": "TAF EYPA 142308Z 1500/1524 VRB03KT 9000 BKN0105"
    },
    {
      "icao": "EYVI",
      "alert": "OK",
      "vis_m": 9000,
      "fzfg": false,
      "metar_trigger": false,
      "taf_trigger": false,
      "metar": "METAR EYVI 150220Z 22009KT 9000 -SHRA BKN005CB 10/10 Q1001 NOSIG",
      "taf": ""
    },
    {
      "icao": "GCFV",
      "alert": "OK",
      "vis_m": 9999,
      "fzfg": false,
      "metar_trigger": false,
      "taf_trigger": false,
      "metar": "METAR GCFV 150200Z AUTO 01012KT 9999 OVC021 21/15 Q1019",
      "taf": "TAF GCFV 150200Z 1503/1603 02014KT 9999 FEW020 TX24/1514Z TN19/1506Z"
    },
    {
      "icao": "GCLP",
      "alert": "OK",
      "vis_m": 9999,
      "fzfg": false,
      "metar_trigger": false,
      "taf_trigger": false,
      "metar": "METAR GCLP 150200Z 36020KT 9999 BKN025 20/14 Q1019 NOSIG",
      "taf": "TAF GCLP 150200Z 1503/1603 01023KT 9999 FEW030 TX24/1514Z TN18/1506Z"
    },
    {
      "icao": "GCTS",
      "alert": "OK",
      "vis_m": 9999,
      "fzfg": false,
      "metar_trigger": false,
      "taf_trigger": false,
      "metar": "METAR GCTS 150200Z 04006KT 9999 FEW025 20/13 Q1019 NOSIG",
      "taf": "TAF GCTS 150200Z 1503/1603 03008KT 9999 FEW020 TX25/1514Z TN18/1506Z"
    },
    {
      "icao": "GMAD",
      "alert": "OK",
      "vis_m": 8000,
      "fzfg": false,
      "metar_trigger": false,
      "taf_trigger": false,
      "metar": "METAR GMAD 150200Z 08004KT 8000 SCT010 17/15 Q1015 NOSIG",
      "taf": "TAF GMAD 142300Z 1500/1606 12005KT 8000 SCT016"
    },
    {
      "icao": "GMMN",
      "alert": "OK",
      "vis_m": 9999,
      "fzfg": false,
      "metar_trigger": false,
      "taf_trigger": false,
      "metar": "METAR GMMN 150200Z VRB02KT 9999 FEW016 18/16 Q1017 NOSIG",
      "taf": "TAF GMMN 142300Z 1500/1606 31006KT 9999 SCT016"
    },
    {
      "icao": "GMMX",
      "alert": "OK",
      "vis_m": 9999,
      "fzfg": false,
      "metar_trigger": false,
      "taf_trigger": false,
      "metar": "METAR GMMX 150200Z 24006KT 210V270 CAVOK 19/14 Q1017 NOSIG",
      "taf": "TAF GMMX 142300Z 1500/1606 24006KT CAVOK"
    },
    {
      "icao": "HEGN",
      "alert": "OK",
      "vis_m": 9999,
      "fzfg": false,
      "metar_trigger": false,
      "taf_trigger": false,
      "metar": "METAR HEGN 150200Z 28010KT CAVOK 28/16 Q1008 NOSIG",
      "taf": "TAF HEGN 142300Z 1500/1606 31014KT CAVOK"
    },
    {
      "icao": "HEMA",
      "alert": "OK",
      "vis_m": 9999,
      "fzfg": false,
      "metar_trigger": false,
      "taf_trigger": false,
      "metar": "METAR HEMA 150200Z 30010KT CAVOK 30/07 Q1007 NOSIG",
      "taf": "TAF HEMA 142300Z 1500/1606 30014KT CAVOK"
    },
    {
      "icao": "HESH",
      "alert": "OK",
      "vis_m": 9999,
      "fzfg": false,
      "metar_trigger": false,
      "taf_trigger": false,
      "metar": "METAR HESH 150200Z 35011KT CAVOK 27/18 Q1007 NOSIG",
      "taf": "TAF HESH 142300Z 1500/1606 18010KT CAVOK"
    },
    {
      "icao": "HESX",
      "alert": "OK",
      "vis_m": 6000,
      "fzfg": false,
      "metar_trigger": false,
      "taf_trigger": false,
      "metar": "METAR HESX 150200Z 02003KT 6000 NSC 19/16 Q1012 NOSIG",
      "taf": "TAF HESX 142300Z 1500/1606 35008KT CAVOK"
    },
    {
      "icao": "LATI",
      "alert": "OK",
      "vis_m": 9999,
      "fzfg": false,
      "metar_trigger": false,
      "taf_trigger": false,
      "metar": "METAR LATI 150220Z 18004KT CAVOK 17/12 Q1014 NOSIG",
      "taf": "TAF LATI 142300Z 1500/1524 VRB04KT CAVOK TX31/1512Z TN15/1504Z"
    },
    {
      "icao": "LBPD",
      "alert": "OK",
      "vis_m": 9999,
      "fzfg": false,
      "metar_trigger": false,
      "taf_trigger": false,
      "metar": "METAR LBPD 150200Z AUTO VRB01KT 9999 NCD 16/12 Q1012",
      "taf": "TAF LBPD 142300Z 1500/1524 VRB03KT CAVOK"
    },
    {
      "icao": "LBSF",
      "alert": "OK",
      "vis_m": 9999,
      "fzfg": false,
      "metar_trigger": false,
      "taf_trigger": false,
      "metar": "METAR LBSF 150200Z AUTO 08003KT 010V110 9999 NCD 13/11 Q1014 NOSIG",
      "taf": "TAF LBSF 142300Z 1500/1524 VRB03KT CAVOK"
    },
    {
      "icao": "LBWN",
      "alert": "OK",
      "vis_m": 9999,
      "fzfg": false,
      "metar_trigger": false,
      "taf_trigger": false,
      "metar": "METAR LBWN 150200Z AUTO VRB02KT 9999 NSC 15/15 Q1010 NOSIG",
      "taf": "TAF LBWN 142300Z 1500/1524 VRB03KT CAVOK"
    },
    {
      "icao": "LCLK",
      "alert": "OK",
      "vis_m": 8000,
      "fzfg": false,
      "metar_trigger": false,
      "taf_trigger": false,
      "metar": "METAR LCLK 150200Z 31003KT 8000 FEW008 20/20 Q1010 TEMPO 3000 BR BKN007",
      "taf": "TAF LCLK 142330Z 1500/1600 26005KT 9999 FEW020"
    },
    {
      "icao": "LCPH",
      "alert": "OK",
      "vis_m": 9999,
      "fzfg": false,
      "metar_trigger": false,
      "taf_trigger": false,
      "metar": "METAR LCPH 150200Z AUTO 01005KT 9999 NCD 21/17 Q1009 NOSIG",
      "taf": "TAF LCPH 142330Z 1500/1600 04005KT 9999 SCT017"
    },
    {
      "icao": "LEAL",
      "alert": "OK",
      "vis_m": 9999,
      "fzfg": false,
      "metar_trigger": false,
      "taf_trigger": false,
      "metar": "METAR LEAL 150200Z 27003KT 250V310 CAVOK 22/20 Q1012 NOSIG",
      "taf": "TAF LEAL 142300Z 1500/1524 VRB07KT CAVOK TX30/1512Z TN21/1506Z"
    },
    {
      "icao": "LEBB",
      "alert": "OK",
      "vis_m": 9999,
      "fzfg": false,
      "metar_trigger": false,
      "taf_trigger": false,
      "metar": "METAR LEBB 150200Z AUTO 13002KT CAVOK 18/15 Q1014",
      "taf": "TAF LEBB 142300Z 1500/1524 32009KT CAVOK TX25/1512Z TN18/1505Z"
    },
    {
      "icao": "LEBL",
      "alert": "OK",
      "vis_m": 9999,
      "fzfg": false,
      "metar_trigger": false,
      "taf_trigger": false,
      "metar": "METAR LEBL 150200Z 28006KT 9999 FEW045 24/13 Q1012 NOSIG",
      "taf": "TAF LEBL 142300Z 1500/1524 33005KT 9999 FEW025 TX29/1512Z TN21/1506Z"
    },
    {
      "icao": "LECH",
      "alert": "OK",
      "vis_m": 9999,
      "fzfg": false,
      "metar_trigger": false,
      "taf_trigger": false,
      "metar": "METAR LECH 150200Z AUTO 00000KT CAVOK 19/12 Q1014",
      "taf": "TAF LECH 142300Z 1500/1524 VRB04KT CAVOK TX32/1513Z TN16/1506Z"
    },
    {
      "icao": "LEMD",
      "alert": "OK",
      "vis_m": 9999,
      "fzfg": false,
      "metar_trigger": false,
      "taf_trigger": false,
      "metar": "METAR LEMD 150200Z 21007KT 170V240 CAVOK 19/14 Q1016 NOSIG",
      "taf": "TAF LEMD 142300Z 1500/1606 VRB04KT CAVOK TX32/1516Z TN16/1505Z"
    },
    {
      "icao": "LEMG",
      "alert": "OK",
      "vis_m": 9999,
      "fzfg": false,
      "metar_trigger": false,
      "taf_trigger": false,
      "metar": "METAR LEMG 150200Z 28013KT 240V300 CAVOK 23/15 Q1014 NOSIG",
      "taf": "TAF LEMG 142300Z 1500/1524 29009KT 9999 FEW040 TX35/1513Z TN21/1505Z"
    },
    {
      "icao": "LEVC",
      "alert": "OK",
      "vis_m": 9999,
      "fzfg": false,
      "metar_trigger": false,
      "taf_trigger": false,
      "metar": "METAR LEVC 150200Z 30003KT 270V330 CAVOK 21/12 Q1013 NOSIG",
      "taf": "TAF LEVC 142300Z 1500/1524 VRB04KT CAVOK TX32/1512Z TN19/1506Z"
    },
    {
      "icao": "LEXJ",
      "alert": "OK",
      "vis_m": 9999,
      "fzfg": false,
      "metar_trigger": false,
      "taf_trigger": false,
      "metar": "METAR LEXJ 150200Z 25005KT 9999 FEW040 19/16 Q1014",
      "taf": "TAF LEXJ 150200Z 1503/1603 28009KT 9999 SCT005 TX24/1512Z TN18/1601Z"
    },
    {
      "icao": "LEZG",
      "alert": "OK",
      "vis_m": 9999,
      "fzfg": false,
      "metar_trigger": false,
      "taf_trigger": false,
      "metar": "METAR LEZG 150200Z 11003KT 090V170 CAVOK 24/10 Q1013 NOSIG",
      "taf": "TAF LEZG 142300Z 1500/1524 09005KT CAVOK TX37/1515Z TN21/1506Z"
    },
    {
      "icao": "LEZL",
      "alert": "OK",
      "vis_m": 9999,
      "fzfg": false,
      "metar_trigger": false,
      "taf_trigger": false,
      "metar": "METAR LEZL 150200Z AUTO 19004KT CAVOK 20/18 Q1016",
      "taf": "TAF LEZL 150200Z 1503/1603 22008KT CAVOK TX35/1515Z TN18/1506Z"
    },
    {
      "icao": "LFBD",
      "alert": "OK",
      "vis_m": 9999,
      "fzfg": false,
      "metar_trigger": false,
      "taf_trigger": false,
      "metar": "METAR LFBD 150200Z AUTO 08006KT CAVOK 22/08 Q1013 NOSIG",
      "taf": "TAF LFBD 142300Z 1500/1606 06005KT CAVOK TX34/1514Z TN19/1522Z"
    },
    {
      "icao": "LFLL",
      "alert": "OK",
      "vis_m": 9999,
      "fzfg": false,
      "metar_trigger": false,
      "taf_trigger": false,
      "metar": "METAR LFLL 150200Z 00000KT CAVOK 16/10 Q1015 NOSIG",
      "taf": "TAF LFLL 142300Z 1500/1606 36010KT CAVOK"
    },
    {
      "icao": "LFLS",
      "alert": "OK",
      "vis_m": 9999,
      "fzfg": false,
      "metar_trigger": false,
      "taf_trigger": false,
      "metar": "METAR LFLS 150200Z AUTO 09006KT 040V110 CAVOK 11/09 Q1016",
      "taf": "TAF LFLS 150200Z 1503/1603 VRB03KT CAVOK"
    },
    {
      "icao": "LFMN",
      "alert": "OK",
      "vis_m": 9999,
      "fzfg": false,
      "metar_trigger": false,
      "taf_trigger": false,
      "metar": "METAR LFMN 150200Z COR 10007KT 9999 BKN016 21/18 Q1011 NOSIG",
      "taf": "TAF LFMN 150200Z 1503/1609 09010KT 9999 BKN020"
    },
    {
      "icao": "LFOB",
      "alert": "OK",
      "vis_m": 9999,
      "fzfg": false,
      "metar_trigger": false,
      "taf_trigger": false,
      "metar": "METAR LFOB 150200Z AUTO 00000KT CAVOK 12/10 Q1018 NOSIG",
      "taf": "TAF LFOB 142300Z 1500/1524 VRB04KT CAVOK"
    },
    {
      "icao": "LFPO",
      "alert": "OK",
      "vis_m": 9999,
      "fzfg": false,
      "metar_trigger": false,
      "taf_trigger": false,
      "metar": "METAR LFPO 150200Z AUTO 05006KT CAVOK 15/10 Q1017 NOSIG",
      "taf": "TAF LFPO 142300Z 1500/1606 04007KT CAVOK"
    },
    {
      "icao": "LFSB",
      "alert": "OK",
      "vis_m": 9999,
      "fzfg": false,
      "metar_trigger": false,
      "taf_trigger": false,
      "metar": "METAR LFSB 150200Z AUTO 25003KT CAVOK 11/08 Q1017 NOSIG",
      "taf": "TAF LFSB 142300Z 1500/1524 27004KT CAVOK"
    },
    {
      "icao": "LGAV",
      "alert": "OK",
      "vis_m": 9999,
      "fzfg": false,
      "metar_trigger": false,
      "taf_trigger": false,
      "metar": "METAR LGAV 150220Z 28004KT 9999 FEW025 15/12 Q1013 NOSIG",
      "taf": "TAF LGAV 142300Z 1500/1524 VRB05KT 9999 FEW020"
    },
    {
      "icao": "LGTS",
      "alert": "OK",
      "vis_m": 9999,
      "fzfg": false,
      "metar_trigger": false,
      "taf_trigger": false,
      "metar": "METAR LGTS 150220Z 13004KT CAVOK 18/13 Q1012 NOSIG",
      "taf": "TAF LGTS 142300Z 1500/1524 VRB03KT CAVOK"
    },
    {
      "icao": "LHBP",
      "alert": "OK",
      "vis_m": 9999,
      "fzfg": false,
      "metar_trigger": false,
      "taf_trigger": false,
      "metar": "METAR LHBP 150200Z 33002KT CAVOK 12/08 Q1012 NOSIG",
      "taf": "TAF LHBP 142315Z 1500/1524 27005KT CAVOK"
    },
    {
      "icao": "LHDC",
      "alert": "OK",
      "vis_m": 9999,
      "fzfg": false,
      "metar_trigger": false,
      "taf_trigger": false,
      "metar": "METAR LHDC 150145Z AUTO VRB02KT CAVOK 12/08 Q1011 NOSIG",
      "taf": ""
    },
    {
      "icao": "LIBD",
      "alert": "OK",
      "vis_m": 9999,
      "fzfg": false,
      "metar_trigger": false,
      "taf_trigger": false,
      "metar": "METAR LIBD 150220Z 22010KT CAVOK 22/08 Q1011",
      "taf": "TAF LIBD 142300Z 1500/1524 23008KT CAVOK"
    },
    {
      "icao": "LIBG",
      "alert": "OK",
      "vis_m": 9999,
      "fzfg": false,
      "metar_trigger": false,
      "taf_trigger": false,
      "metar": "METAR LIBG 150220Z AUTO VRB02KT 9999 NCD 17/15 Q1012",
      "taf": "TAF LIBG 142300Z 1500/1524 VRB05KT CAVOK"
    },
    {
      "icao": "LIBP",
      "alert": "OK",
      "vis_m": 9999,
      "fzfg": false,
      "metar_trigger": false,
      "taf_trigger": false,
      "metar": "METAR LIBP 150220Z AUTO 24005KT 9999 NCD 22/08 Q1010",
      "taf": "TAF LIBP 142300Z 1500/1524 23012KT CAVOK"
    },
    {
      "icao": "LIBR",
      "alert": "OK",
      "vis_m": 9999,
      "fzfg": false,
      "metar_trigger": false,
      "taf_trigger": false,
      "metar": "METAR LIBR 150220Z 22010KT CAVOK 23/17 Q1011",
      "taf": "TAF LIBR 142300Z 1500/1524 22010KT CAVOK"
    },
    {
      "icao": "LICA",
      "alert": "OK",
      "vis_m": 9999,
      "fzfg": false,
      "metar_trigger": false,
      "taf_trigger": false,
      "metar": "METAR LICA 150220Z AUTO 07002KT 9999 NCD 15/14 Q1014",
      "taf": "TAF LICA 142300Z 1500/1524 VRB05KT CAVOK"
    },
    {
      "icao": "LICC",
      "alert": "OK",
      "vis_m": 9999,
      "fzfg": false,
      "metar_trigger": false,
      "taf_trigger": false,
      "metar": "METAR LICC 150220Z 25010KT CAVOK 21/12 Q1013",
      "taf": "TAF LICC 142300Z 1500/1524 25006KT CAVOK"
    },
    {
      "icao": "LICJ",
      "alert": "OK",
      "vis_m": 9999,
      "fzfg": false,
      "metar_trigger": false,
      "taf_trigger": false,
      "metar": "METAR LICJ 150220Z VRB02KT CAVOK 20/15 Q1013",
      "taf": "TAF LICJ 142300Z 1500/1524 21008KT CAVOK"
    },
    {
      "icao": "LIMC",
      "alert": "OK",
      "vis_m": 9999,
      "fzfg": false,
      "metar_trigger": false,
      "taf_trigger": false,
      "metar": "METAR LIMC 150220Z VRB02KT CAVOK 15/14 Q1011 NOSIG",
      "taf": "TAF LIMC 142300Z 1500/1606 22010KT 9999 SCT040"
    },
    {
      "icao": "LIME",
      "alert": "OK",
      "vis_m": 9999,
      "fzfg": false,
      "metar_trigger": false,
      "taf_trigger": false,
      "metar": "METAR LIME 150220Z VRB02KT CAVOK 17/12 Q1010 NOSIG",
      "taf": "TAF LIME 142300Z 1500/1524 26008KT CAVOK"
    },
    {
      "icao": "LIMF",
      "alert": "OK",
      "vis_m": 9999,
      "fzfg": false,
      "metar_trigger": false,
      "taf_trigger": false,
      "metar": "METAR LIMF 150220Z 27005KT CAVOK 19/17 Q1011",
      "taf": "TAF LIMF 142300Z 1500/1524 VRB05KT CAVOK"
    },
    {
      "icao": "LIMJ",
      "alert": "OK",
      "vis_m": 9999,
      "fzfg": false,
      "metar_trigger": false,
      "taf_trigger": false,
      "metar": "METAR LIMJ 150220Z 05002KT 9999 FEW020 20/16 Q1011",
      "taf": "TAF LIMJ 142300Z 1500/1524 VRB05KT 9999 SCT040"
    },
    {
      "icao": "LIPE",
      "alert": "OK",
      "vis_m": 9999,
      "fzfg": false,
      "metar_trigger": false,
      "taf_trigger": false,
      "metar": "METAR LIPE 150220Z VRB02KT CAVOK 18/08 Q1009",
      "taf": "TAF LIPE 142300Z 1500/1524 VRB06KT CAVOK"
    },
    {
      "icao": "LIPH",
      "alert": "OK",
      "vis_m": 9999,
      "fzfg": false,
      "metar_trigger": false,
      "taf_trigger": false,
      "metar": "METAR LIPH 150220Z AUTO 36004KT 9999 NCD 20/18 Q1009",
      "taf": "TAF LIPH 142300Z 1500/1524 08008KT 9999 FEW030"
    },
    {
      "icao": "LIPQ",
      "alert": "OK",
      "vis_m": null,
      "fzfg": false,
      "metar_trigger": false,
      "taf_trigger": false,
      "metar": "METAR LIPQ 150220Z AUTO 09009KT //// // OVC064/// 21/14 Q1009",
      "taf": "TAF LIPQ 142300Z 1500/1524 06010KT 9999 FEW060"
    },
    {
      "icao": "LIPR",
      "alert": "OK",
      "vis_m": 9999,
      "fzfg": false,
      "metar_trigger": false,
      "taf_trigger": false,
      "metar": "METAR LIPR 150220Z AUTO 19006KT 9999 NCD 22/09 Q1009",
      "taf": "TAF LIPR 142300Z 1500/1524 24012KT CAVOK"
    },
    {
      "icao": "LIPX",
      "alert": "OK",
      "vis_m": 9999,
      "fzfg": false,
      "metar_trigger": false,
      "taf_trigger": false,
      "metar": "METAR LIPX 150220Z VRB02KT CAVOK 18/17 Q1009",
      "taf": "TAF LIPX 142300Z 1500/1524 VRB05KT CAVOK"
    },
    {
      "icao": "LIPY",
      "alert": "OK",
      "vis_m": 9999,
      "fzfg": false,
      "metar_trigger": false,
      "taf_trigger": false,
      "metar": "METAR LIPY 150220Z AUTO 22009KT 9999 NCD 23/05 Q1009",
      "taf": "TAF LIPY 142300Z 1500/1524 25013KT CAVOK"
    },
    {
      "icao": "LIPZ",
      "alert": "OK",
      "vis_m": 9999,
      "fzfg": false,
      "metar_trigger": false,
      "taf_trigger": false,
      "metar": "METAR LIPZ 150220Z 02008KT CAVOK 20/19 Q1008 NOSIG",
      "taf": "TAF LIPZ 142300Z 1500/1606 05008KT 9999 FEW020"
    },
    {
      "icao": "LIRF",
      "alert": "OK",
      "vis_m": 9999,
      "fzfg": false,
      "metar_trigger": false,
      "taf_trigger": false,
      "metar": "METAR LIRF 150220Z 08003KT CAVOK 16/14 Q1012 NOSIG",
      "taf": "TAF LIRF 142300Z 1500/1606 VRB05KT 9999 FEW020"
    },
    {
      "icao": "LIRN",
      "alert": "OK",
      "vis_m": 9999,
      "fzfg": false,
      "metar_trigger": false,
      "taf_trigger": false,
      "metar": "METAR LIRN 150220Z 04003KT CAVOK 19/16 Q1014 NOSIG",
      "taf": "TAF LIRN 142300Z 1500/1524 VRB05KT CAVOK"
    },
    {
      "icao": "LIRP",
      "alert": "OK",
      "vis_m": 9999,
      "fzfg": false,
      "metar_trigger": false,
      "taf_trigger": false,
      "metar": "METAR LIRP 150145Z 06002KT CAVOK 15/12 Q1012 NOSIG",
      "taf": "TAF LIRP 142300Z 1500/1524 16004KT CAVOK"
    },
    {
      "icao": "LIRZ",
      "alert": "OK",
      "vis_m": 9999,
      "fzfg": false,
      "metar_trigger": false,
      "taf_trigger": false,
      "metar": "METAR LIRZ 150220Z AUTO 36004KT 9999 NCD 14/09 Q1013",
      "taf": "TAF LIRZ 142300Z 1500/1524 VRB05KT CAVOK"
    },
    {
      "icao": "LJLJ",
      "alert": "OK",
      "vis_m": 9999,
      "fzfg": false,
      "metar_trigger": false,
      "taf_trigger": false,
      "metar": "METAR LJLJ 150200Z 10007KT 060V140 9999 FEW007 SCT033 OVC043 15/12 Q1014 NOSIG",
      "taf": "TAF LJLJ 141700Z 1418/1518 26005KT 9999 FEW050"
    },
    {
      "icao": "LKMT",
      "alert": "OK",
      "vis_m": 9999,
      "fzfg": false,
      "metar_trigger": false,
      "taf_trigger": false,
      "metar": "METAR LKMT 150200Z 22009KT CAVOK 11/08 Q1011 NOSIG",
      "taf": "TAF LKMT 142300Z 1500/1524 24008KT CAVOK"
    },
    {
      "icao": "LKPR",
      "alert": "OK",
      "vis_m": 9999,
      "fzfg": false,
      "metar_trigger": false,
      "taf_trigger": false,
      "metar": "METAR LKPR 150200Z 23008KT CAVOK 10/08 Q1012 NOSIG",
      "taf": "TAF LKPR 150200Z 1503/1609 27009KT CAVOK"
    },
    {
      "icao": "LLBG",
      "alert": "OK",
      "vis_m": 9999,
      "fzfg": false,
      "metar_trigger": false,
      "taf_trigger": false,
      "metar": "METAR LLBG 150220Z VRB03KT 9999 FEW040 22/18 Q1011 NOSIG",
      "taf": "TAF LLBG 142304Z 1500/1524 VRB03KT 9999 SCT030 TX29/1511Z TN21/1503Z"
    },
    {
      "icao": "LMML",
      "alert": "OK",
      "vis_m": 9999,
      "fzfg": false,
      "metar_trigger": false,
      "taf_trigger": false,
      "metar": "METAR LMML 150215Z 16001KT CAVOK 20/19 Q1014 NOSIG",
      "taf": "TAF LMML 142300Z 1500/1524 20007KT 9999 FEW015"
    },
    {
      "icao": "LOWW",
      "alert": "OK",
      "vis_m": 9999,
      "fzfg": false,
      "metar_trigger": false,
      "taf_trigger": false,
      "metar": "METAR LOWW 150220Z 32007KT CAVOK 15/07 Q1014 NOSIG",
      "taf": "TAF LOWW 150215Z 1503/1609 34008KT 9999 FEW050 TX22/1514Z TN12/1603Z"
    },
    {
      "icao": "LPFR",
      "alert": "OK",
      "vis_m": 9999,
      "fzfg": false,
      "metar_trigger": false,
      "taf_trigger": false,
      "metar": "METAR LPFR 150200Z VRB02KT 9999 BKN035 20/16 Q1016",
      "taf": "TAF LPFR 142300Z 1500/1524 VRB02KT CAVOK"
    },
    {
      "icao": "LPMA",
      "alert": "OK",
      "vis_m": 9999,
      "fzfg": false,
      "metar_trigger": false,
      "taf_trigger": false,
      "metar": "METAR LPMA 150200Z VRB06KT 9999 FEW015 21/14 Q1022",
      "taf": "TAF LPMA 142300Z 1500/1524 01010KT 9999 SCT015"
    },
    {
      "icao": "LPPR",
      "alert": "OK",
      "vis_m": 2100,
      "fzfg": false,
      "metar_trigger": false,
      "taf_trigger": false,
      "metar": "METAR LPPR 150200Z 33004KT 300V360 2100 BR OVC001 16/16 Q1016",
      "taf": "TAF LPPR 142300Z 1500/1524 VRB02KT 6000 SCT004 BKN008"
    },
    {
      "icao": "LPPS",
      "alert": "OK",
      "vis_m": 9999,
      "fzfg": false,
      "metar_trigger": false,
      "taf_trigger": false,
      "metar": "METAR LPPS 150200Z 35007KT 9999 FEW015 19/17 Q1022",
      "taf": "TAF LPPS 142300Z 1500/1606 35010KT 9999 FEW015 BKN030"
    },
    {
      "icao": "LPPT",
      "alert": "OK",
      "vis_m": 9999,
      "fzfg": false,
      "metar_trigger": false,
      "taf_trigger": false,
      "metar": "METAR LPPT 150200Z 31007KT 280V340 CAVOK 17/15 Q1016",
      "taf": "TAF LPPT 142300Z 1500/1606 32007KT 9999 SCT012"
    },
    {
      "icao": "LQBK",
      "alert": "OK",
      "vis_m": 9999,
      "fzfg": false,
      "metar_trigger": false,
      "taf_trigger": false,
      "metar": "METAR LQBK 150200Z 36003KT CAVOK 16/14 Q1014 NOSIG",
      "taf": "TAF LQBK 142300Z 1500/1524 05005KT 9999 SCT020 BKN040 TX21/1513Z TN15/1503Z"
    },
    {
      "icao": "LQSA",
      "alert": "OK",
      "vis_m": 9999,
      "fzfg": false,
      "metar_trigger": false,
      "taf_trigger": false,
      "metar": "METAR LQSA 150200Z VRB01KT CAVOK 14/10 Q1013",
      "taf": "TAF LQSA 142300Z 1500/1524 VRB02KT CAVOK TX26/1512Z TN13/1503Z"
    },
    {
      "icao": "LQTZ",
      "alert": "OK",
      "vis_m": 9999,
      "fzfg": false,
      "metar_trigger": false,
      "taf_trigger": false,
      "metar": "METAR LQTZ 150200Z VRB01KT CAVOK 14/14 Q1014",
      "taf": "TAF LQTZ 142300Z 1500/1524 03005KT 9999 SCT050 TX20/1513Z TN15/1503Z"
    },
    {
      "icao": "LRBC",
      "alert": "OK",
      "vis_m": 9999,
      "fzfg": false,
      "metar_trigger": false,
      "taf_trigger": false,
      "metar": "METAR LRBC 150200Z 35004KT 9999 FEW066 15/12 Q1010",
      "taf": ""
    },
    {
      "icao": "LRBS",
      "alert": "OK",
      "vis_m": 9999,
      "fzfg": false,
      "metar_trigger": false,
      "taf_trigger": false,
      "metar": "METAR LRBS 150200Z VRB02KT CAVOK 17/16 Q1010 NOSIG",
      "taf": "TAF LRBS 142300Z 1500/1524 27008KT CAVOK"
    },
    {
      "icao": "LRBV",
      "alert": "OK",
      "vis_m": 9999,
      "fzfg": false,
      "metar_trigger": false,
      "taf_trigger": false,
      "metar": "METAR LRBV 150200Z AUTO 26003KT 220V340 9999 BKN053/// BKN190/// 13/12 Q1011",
      "taf": ""
    },
    {
      "icao": "LRCL",
      "alert": "OK",
      "vis_m": 9999,
      "fzfg": false,
      "metar_trigger": false,
      "taf_trigger": false,
      "metar": "METAR LRCL 150200Z 26006KT 230V320 9999 FEW060 12/09 Q1011",
      "taf": ""
    },
    {
      "icao": "LRCV",
      "alert": "OK",
      "vis_m": 9999,
      "fzfg": false,
      "metar_trigger": false,
      "taf_trigger": false,
      "metar": "METAR LRCV 150200Z 26009KT CAVOK 16/16 Q1012",
      "taf": ""
    },
    {
      "icao": "LRIA",
      "alert": "OK",
      "vis_m": 9999,
      "fzfg": false,
      "metar_trigger": false,
      "taf_trigger": false,
      "metar": "METAR LRIA 150200Z 27002KT CAVOK 13/11 Q1010",
      "taf": ""
    },
    {
      "icao": "LROP",
      "alert": "OK",
      "vis_m": 9999,
      "fzfg": false,
      "metar_trigger": false,
      "taf_trigger": false,
      "metar": "METAR LROP 150200Z 28003KT 240V300 CAVOK 17/17 Q1010 NOSIG",
      "taf": "TAF LROP 142300Z 1500/1524 32010KT CAVOK"
    },
    {
      "icao": "LRSB",
      "alert": "OK",
      "vis_m": 9999,
      "fzfg": false,
      "metar_trigger": false,
      "taf_trigger": false,
      "metar": "METAR LRSB 150200Z 34005KT 9999 FEW050 15/14 Q1011",
      "taf": "TAF LRSB 142300Z 1500/1524 VRB04KT 9999 SCT045 SCT070"
    },
    {
      "icao": "LRSM",
      "alert": "OK",
      "vis_m": 9999,
      "fzfg": false,
      "metar_trigger": false,
      "taf_trigger": false,
      "metar": "METAR LRSM 150200Z AUTO 21003KT 9999 FEW075/// BKN220/// 12/10 Q1011",
      "taf": ""
    },
    {
      "icao": "LRSV",
      "alert": "OK",
      "vis_m": 9999,
      "fzfg": false,
      "metar_trigger": false,
      "taf_trigger": false,
      "metar": "METAR LRSV 150200Z 23003KT 190V340 9999 BKN047 12/09 Q1010",
      "taf": ""
    },
    {
      "icao": "LRTM",
      "alert": "OK",
      "vis_m": 9999,
      "fzfg": false,
      "metar_trigger": false,
      "taf_trigger": false,
      "metar": "METAR LRTM 150200Z VRB02KT CAVOK 15/14 Q1011",
      "taf": ""
    },
    {
      "icao": "LRTR",
      "alert": "OK",
      "vis_m": 9999,
      "fzfg": false,
      "metar_trigger": false,
      "taf_trigger": false,
      "metar": "METAR LRTR 150200Z 25006KT 9999 FEW048 16/16 Q1012",
      "taf": "TAF LRTR 142300Z 1500/1524 26007KT 5000 BR SCT010 SCT030"
    },
    {
      "icao": "LTAC",
      "alert": "OK",
      "vis_m": 9999,
      "fzfg": false,
      "metar_trigger": false,
      "taf_trigger": false,
      "metar": "METAR LTAC 150150Z 00000KT CAVOK 10/09 Q1016 NOSIG RMK RWY21C VRB02KT RWY03L 00000KT RWY21R 00000KT RWY03R VRB01KT RWY21L 00000KT",
      "taf": "TAF LTAC 142240Z 1500/1524 VRB02KT CAVOK"
    },
    {
      "icao": "LTFM",
      "alert": "OK",
      "vis_m": 9999,
      "fzfg": false,
      "metar_trigger": false,
      "taf_trigger": false,
      "metar": "METAR LTFM 150220Z 19008KT CAVOK 17/12 Q1012 NOSIG RMK RWY17L 19009KT RWY34L 20010KT RWY16R 20007KT RWY36 21008KT RWY18 21010KT",
      "taf": "TAF LTFM 142240Z 1500/1606 21005KT CAVOK"
    },
    {
      "icao": "LUKK",
      "alert": "OK",
      "vis_m": 9999,
      "fzfg": false,
      "metar_trigger": false,
      "taf_trigger": false,
      "metar": "METAR LUKK 150200Z 33007KT 290V360 CAVOK 16/13 Q1009 NOSIG",
      "taf": "TAF LUKK 142307Z 1500/1524 31009KT CAVOK"
    },
    {
      "icao": "LWOH",
      "alert": "OK",
      "vis_m": null,
      "fzfg": false,
      "metar_trigger": false,
      "taf_trigger": false,
      "metar": "",
      "taf": "TAF LWOH 150210Z 1503/1603 VRB02KT CAVOK"
    },
    {
      "icao": "LWSK",
      "alert": "OK",
      "vis_m": 9999,
      "fzfg": false,
      "metar_trigger": false,
      "taf_trigger": false,
      "metar": "METAR LWSK 150220Z VRB01KT CAVOK 13/10 Q1013 NOSIG",
      "taf": "TAF LWSK 150210Z 1503/1603 VRB02KT CAVOK"
    },
    {
      "icao": "LYBE",
      "alert": "OK",
      "vis_m": 9999,
      "fzfg": false,
      "metar_trigger": false,
      "taf_trigger": false,
      "metar": "METAR LYBE 150200Z 27003KT CAVOK 17/16 Q1014 NOSIG",
      "taf": "TAF LYBE 142300Z 1500/1524 26006KT 9999 SCT040 TX20/1513Z TN13/1524Z"
    },
    {
      "icao": "LYNI",
      "alert": "OK",
      "vis_m": 9999,
      "fzfg": false,
      "metar_trigger": false,
      "taf_trigger": false,
      "metar": "METAR LYNI 150200Z VRB02KT CAVOK 16/14 Q1013 NOSIG",
      "taf": "TAF LYNI 142300Z 1500/1524 34012KT 9999 SCT040 TX27/1514Z TN15/1504Z"
    },
    {
      "icao": "LYPG",
      "alert": "OK",
      "vis_m": 9999,
      "fzfg": false,
      "metar_trigger": false,
      "taf_trigger": false,
      "metar": "METAR LYPG 150200Z 31003KT 280V340 CAVOK 19/13 Q1013 NOSIG",
      "taf": "TAF LYPG 142300Z 1500/1524 36005KT CAVOK TX30/1514Z TN19/1503Z"
    },
    {
      "icao": "LZIB",
      "alert": "OK",
      "vis_m": 9999,
      "fzfg": false,
      "metar_trigger": false,
      "taf_trigger": false,
      "metar": "METAR LZIB 150200Z 28006KT CAVOK 14/08 Q1013 NOSIG",
      "taf": "TAF LZIB 142315Z 1500/1600 30007KT CAVOK"
    },
    {
      "icao": "LZKZ",
      "alert": "OK",
      "vis_m": 9999,
      "fzfg": false,
      "metar_trigger": false,
      "taf_trigger": false,
      "metar": "METAR LZKZ 150200Z 00000KT CAVOK 08/06 Q1011 NOSIG",
      "taf": "TAF LZKZ 142315Z 1500/1600 31006KT CAVOK"
    },
    {
      "icao": "LZTT",
      "alert": "OK",
      "vis_m": 9999,
      "fzfg": false,
      "metar_trigger": false,
      "taf_trigger": false,
      "metar": "METAR LZTT 150200Z 30007KT 9999 SCT056 09/05 Q1010",
      "taf": "TAF LZTT 142315Z 1500/1600 28008KT 9999 FEW060"
    },
    {
      "icao": "OEJN",
      "alert": "OK",
      "vis_m": 9999,
      "fzfg": false,
      "metar_trigger": false,
      "taf_trigger": false,
      "metar": "METAR OEJN 150200Z 26003KT CAVOK 29/20 Q1005 NOSIG",
      "taf": "TAF OEJN 142300Z 1500/1606 VRB03KT CAVOK"
    },
    {
      "icao": "OEMA",
      "alert": "OK",
      "vis_m": 9999,
      "fzfg": false,
      "metar_trigger": false,
      "taf_trigger": false,
      "metar": "METAR OEMA 150200Z VRB03KT CAVOK 32/M06 Q1011 NOSIG",
      "taf": "TAF OEMA 142300Z 1500/1606 VRB03KT CAVOK"
    },
    {
      "icao": "OJAI",
      "alert": "OK",
      "vis_m": 4000,
      "fzfg": false,
      "metar_trigger": false,
      "taf_trigger": false,
      "metar": "METAR OJAI 150200Z 31003KT 4000 BR NSC 15/13 Q1014 NOSIG",
      "taf": "TAF OJAI 142300Z 1500/1606 31012KT 5000 HZ NSC"
    },
    {
      "icao": "OMAA",
      "alert": "OK",
      "vis_m": 5000,
      "fzfg": false,
      "metar_trigger": false,
      "taf_trigger": false,
      "metar": "METAR OMAA 150200Z 20007KT 5000 HZ NSC 28/23 Q1001 NOSIG",
      "taf": "TAF OMAA 142300Z 1500/1606 VRB02KT 8000 NSC"
    },
    {
      "icao": "OMDB",
      "alert": "OK",
      "vis_m": 7000,
      "fzfg": false,
      "metar_trigger": false,
      "taf_trigger": false,
      "metar": "METAR OMDB 150200Z 18008KT 7000 NSC 30/22 Q1001 NOSIG",
      "taf": "TAF OMDB 142300Z 1500/1606 VRB02KT 7000 NSC"
    },
    {
      "icao": "UAAA",
      "alert": "OK",
      "vis_m": 9999,
      "fzfg": false,
      "metar_trigger": false,
      "taf_trigger": false,
      "metar": "METAR UAAA 150200Z VRB01MPS 9999 SCT100 BKN200 24/14 Q1008 NOSIG",
      "taf": "TAF UAAA 142302Z 1500/1524 02003G08MPS 9999 SCT050CB BKN100 TX35/1509Z TN21/1500Z"
    },
    {
      "icao": "UBBB",
      "alert": "OK",
      "vis_m": 9999,
      "fzfg": false,
      "metar_trigger": false,
      "taf_trigger": false,
      "metar": "METAR UBBB 150200Z 33012KT 9999 FEW060CB 22/18 Q1006 NOSIG",
      "taf": "TAF UBBB 142304Z 1500/1524 31012KT 9999 FEW050CB TX26/1510Z TN19/1500Z"
    },
    {
      "icao": "UDSG",
      "alert": "OK",
      "vis_m": 9999,
      "fzfg": false,
      "metar_trigger": false,
      "taf_trigger": false,
      "metar": "METAR UDSG 150200Z 10002KT 9999 FEW049 06/06 Q1016 NOSIG",
      "taf": "TAF UDSG 142300Z 1500/1524 24006KT 9999 SCT040"
    },
    {
      "icao": "UDYZ",
      "alert": "OK",
      "vis_m": 9999,
      "fzfg": false,
      "metar_trigger": false,
      "taf_trigger": false,
      "metar": "METAR UDYZ 150200Z 11002KT 9999 FEW043CB 15/11 Q1012 NOSIG",
      "taf": "TAF UDYZ 142300Z 1500/1524 04006KT 9999 SCT040"
    },
    {
      "icao": "UGKO",
      "alert": "OK",
      "vis_m": 9999,
      "fzfg": false,
      "metar_trigger": false,
      "taf_trigger": false,
      "metar": "METAR UGKO 150200Z COR VRB02KT 9999 FEW009 SCT016 BKN018 17/17 Q1012 NOSIG",
      "taf": "TAF UGKO 142300Z 1500/1524 26007KT 9999 BKN050 TX24/1511Z TN17/1501Z"
    }
  ]
}