{
  "ts_utc": "2025-12-31T12:26:39Z",
  "threshold_m": 150,
  "source": "stations_override.txt (ICAO list) + aviationweather.gov (METAR/TAF raw)",
  "station_count": 159,
  "stations": [
    {
      "icao": "BIKF",
      "alert": "OK",
      "vis_m": 9999,
      "fzfg": false,
      "metar_trigger": false,
      "taf_trigger": false,
      "metar": "METAR BIKF 311200Z 01009KT CAVOK 02/M01 Q1027",
      "taf": "TAF BIKF 311034Z 3112/0112 33015KT 9999 FEW020 BKN040 TX05/3112Z TNM04/0106Z"
    },
    {
      "icao": "BKPR",
      "alert": "OK",
      "vis_m": null,
      "fzfg": false,
      "metar_trigger": false,
      "taf_trigger": false,
      "metar": "",
      "taf": "TAF BKPR 311130Z 3112/0112 33008KT 9999 SCT040"
    },
    {
      "icao": "EBCI",
      "alert": "OK",
      "vis_m": 1700,
      "fzfg": false,
      "metar_trigger": false,
      "taf_trigger": false,
      "metar": "METAR EBCI 311220Z 25006KT 1700 BR BKN002 BKN023 02/01 Q1026 BECMG 3000 BR FEW002",
      "taf": "TAF EBCI 311100Z 3112/0118 26006KT 9999 SCT012 SCT030"
    },
    {
      "icao": "EDDB",
      "alert": "OK",
      "vis_m": 8000,
      "fzfg": false,
      "metar_trigger": false,
      "taf_trigger": false,
      "metar": "METAR EDDB 311220Z AUTO 27013KT 8000 -SHRA OVC005 FEW///TCU 01/01 Q1011 NOSIG",
      "taf": "TAF EDDB 311100Z 3112/0112 25010KT 9999 BKN006"
    },
    {
      "icao": "EDDH",
      "alert": "OK",
      "vis_m": 9999,
      "fzfg": false,
      "metar_trigger": false,
      "taf_trigger": false,
      "metar": "METAR EDDH 311220Z AUTO 29010KT 9999 VCSH BKN037 FEW///TCU 06/04 Q1013 TEMPO SHRA BKN014CB",
      "taf": "TAF EDDH 311100Z 3112/0118 28009KT 9999 SCT020 SCT035"
    },
    {
      "icao": "EDDK",
      "alert": "OK",
      "vis_m": 9999,
      "fzfg": false,
      "metar_trigger": false,
      "taf_trigger": false,
      "metar": "METAR EDDK 311220Z AUTO 26005KT 9999 -RA FEW012 BKN037 BKN045 03/02 Q1024 TEMPO 4500 -DZRA",
      "taf": "TAF EDDK 311100Z 3112/0118 26007KT 9999 BKN012"
    },
    {
      "icao": "EDDN",
      "alert": "OK",
      "vis_m": 9999,
      "fzfg": false,
      "metar_trigger": false,
      "taf_trigger": false,
      "metar": "METAR EDDN 311220Z AUTO 26011KT 9999 BKN012 M01/M04 Q1022 NOSIG",
      "taf": "TAF EDDN 311100Z 3112/0112 26012KT 9999 OVC012"
    },
    {
      "icao": "EDDS",
      "alert": "OK",
      "vis_m": 9999,
      "fzfg": false,
      "metar_trigger": false,
      "taf_trigger": false,
      "metar": "METAR EDDS 311220Z AUTO 22003KT 130V280 CAVOK 01/M07 Q1023 NOSIG",
      "taf": "TAF EDDS 311100Z 3112/0112 23004KT 9999 SCT030"
    },
    {
      "icao": "EDFH",
      "alert": "OK",
      "vis_m": 9999,
      "fzfg": false,
      "metar_trigger": false,
      "taf_trigger": false,
      "metar": "METAR EDFH 311220Z 28006KT 240V310 9999 -SN SCT001 BKN003 OVC013 M02/M02 Q1023",
      "taf": "TAF EDFH 311100Z 3112/0112 27009KT 4000 BR BKN003"
    },
    {
      "icao": "EDJA",
      "alert": "OK",
      "vis_m": 9999,
      "fzfg": false,
      "metar_trigger": false,
      "taf_trigger": false,
      "metar": "METAR EDJA 311220Z 21007KT CAVOK M02/M11 Q1022",
      "taf": "TAF EDJA 311100Z 3112/3121 24008KT CAVOK"
    },
    {
      "icao": "EDLW",
      "alert": "OK",
      "vis_m": 7000,
      "fzfg": false,
      "metar_trigger": false,
      "taf_trigger": false,
      "metar": "METAR EDLW 311220Z 24012KT 7000 SCT007 BKN009 OVC023 02/01 Q1022",
      "taf": "TAF EDLW 311100Z 3112/0112 24010KT 4500 BR BKN004"
    },
    {
      "icao": "EDNY",
      "alert": "OK",
      "vis_m": 9999,
      "fzfg": false,
      "metar_trigger": false,
      "taf_trigger": false,
      "metar": "METAR EDNY 311220Z VRB02KT CAVOK M00/M07 Q1024",
      "taf": "TAF EDNY 311100Z 3112/3121 VRB03KT CAVOK"
    },
    {
      "icao": "EDSB",
      "alert": "OK",
      "vis_m": 9999,
      "fzfg": false,
      "metar_trigger": false,
      "taf_trigger": false,
      "metar": "METAR EDSB 311220Z 19007KT CAVOK M00/M05 Q1026",
      "taf": "TAF EDSB 311100Z 3112/0112 20005KT 9999 BKN030"
    },
    {
      "icao": "EETN",
      "alert": "OK",
      "vis_m": 9999,
      "fzfg": false,
      "metar_trigger": false,
      "taf_trigger": false,
      "metar": "METAR EETN 311220Z 36008KT 320V020 9999 FEW028 M05/M11 Q1005 NOSIG",
      "taf": "TAF EETN 310530Z 3106/0106 36012KT CAVOK"
    },
    {
      "icao": "EFTU",
      "alert": "OK",
      "vis_m": 9999,
      "fzfg": false,
      "metar_trigger": false,
      "taf_trigger": false,
      "metar": "METAR EFTU 311220Z AUTO 29003KT CAVOK M09/M11 Q1007",
      "taf": "TAF EFTU 311125Z 3112/0112 VRB01KT CAVOK"
    },
    {
      "icao": "EGBB",
      "alert": "OK",
      "vis_m": 9999,
      "fzfg": false,
      "metar_trigger": false,
      "taf_trigger": false,
      "metar": "METAR EGBB 311220Z 30007KT CAVOK 04/M01 Q1028",
      "taf": "TAF EGBB 311057Z 3112/0112 27006KT 9999 FEW040"
    },
    {
      "icao": "EGGP",
      "alert": "OK",
      "vis_m": 9999,
      "fzfg": false,
      "metar_trigger": false,
      "taf_trigger": false,
      "metar": "METAR EGGP 311220Z 30010KT 270V330 9999 BKN030 06/M00 Q1028",
      "taf": "TAF EGGP 311102Z 3112/0112 27010KT 9999 SCT035"
    },
    {
      "icao": "EGGW",
      "alert": "OK",
      "vis_m": 9999,
      "fzfg": false,
      "metar_trigger": false,
      "taf_trigger": false,
      "metar": "METAR EGGW 311220Z AUTO 29010KT 9999 NCD 02/M01 Q1028",
      "taf": "TAF EGGW 311056Z 3112/0112 27009KT 9999 FEW025"
    },
    {
      "icao": "EGKK",
      "alert": "OK",
      "vis_m": 9999,
      "fzfg": false,
      "metar_trigger": false,
      "taf_trigger": false,
      "metar": "METAR EGKK 311220Z 30006KT CAVOK 03/01 Q1029",
      "taf": "TAF EGKK 311100Z 3112/0118 31005KT 5000 BR FEW020"
    },
    {
      "icao": "EGNM",
      "alert": "OK",
      "vis_m": 9999,
      "fzfg": false,
      "metar_trigger": false,
      "taf_trigger": false,
      "metar": "METAR EGNM 311220Z 29012KT 9999 FEW014 03/M00 Q1025",
      "taf": "TAF EGNM 311103Z 3112/0112 28018KT 9999 FEW040"
    },
    {
      "icao": "EGPD",
      "alert": "OK",
      "vis_m": 9999,
      "fzfg": false,
      "metar_trigger": false,
      "taf_trigger": false,
      "metar": "METAR EGPD 311220Z COR AUTO 29016KT 9999 SCT030 07/02 Q1019 NOSIG",
      "taf": "TAF EGPD 311053Z 3112/0112 27009KT 9999 SCT030"
    },
    {
      "icao": "EGPF",
      "alert": "OK",
      "vis_m": 9999,
      "fzfg": false,
      "metar_trigger": false,
      "taf_trigger": false,
      "metar": "METAR EGPF 311220Z AUTO 23009KT 9999 FEW016 SCT021 BKN032 05/04 Q1025",
      "taf": "TAF EGPF 311102Z 3112/0112 26005KT 9999 SCT025"
    },
    {
      "icao": "EHBK",
      "alert": "OK",
      "vis_m": 4700,
      "fzfg": false,
      "metar_trigger": false,
      "taf_trigger": false,
      "metar": "METAR EHBK 311155Z AUTO 21007KT 4700 BR FEW002/// SCT004/// BKN006/// 02/02 Q1025 BECMG 9999 NSW SCT040",
      "taf": "TAF EHBK 311118Z 3112/0118 24006KT 6000 SCT004 SCT040"
    },
    {
      "icao": "EHEH",
      "alert": "OK",
      "vis_m": 9999,
      "fzfg": false,
      "metar_trigger": false,
      "taf_trigger": false,
      "metar": "METAR EHEH 311155Z AUTO 24008KT 210V300 9999 -DZ FEW019 BKN031 BKN037 04/03 Q1025 BLU NOSIG RMK TREND REMOTE BY EHWX",
      "taf": "TAF EHEH 311125Z 3112/0118 24007KT 9999 BKN025"
    },
    {
      "icao": "EKBI",
      "alert": "OK",
      "vis_m": 9999,
      "fzfg": false,
      "metar_trigger": false,
      "taf_trigger": false,
      "metar": "METAR EKBI 311220Z AUTO 30008KT 9999 NCD 05/03 Q1012",
      "taf": "TAF EKBI 311127Z 3112/0112 29010KT 9999 BKN020"
    },
    {
      "icao": "EKCH",
      "alert": "OK",
      "vis_m": 9999,
      "fzfg": false,
      "metar_trigger": false,
      "taf_trigger": false,
      "metar": "METAR EKCH 311220Z 29007KT 250V310 9999 BKN008 04/02 Q1010 TEMPO SCT020",
      "taf": ""
    },
    {
      "icao": "ENAL",
      "alert": "OK",
      "vis_m": 9999,
      "fzfg": false,
      "metar_trigger": false,
      "taf_trigger": false,
      "metar": "METAR ENAL 311220Z 22012KT 9999 VCSH FEW010 SCT020 BKN030 04/02 Q1004",
      "taf": "TAF ENAL 311100Z 3112/3121 22015KT 9999 -SHRA SCT020 BKN030"
    },
    {
      "icao": "ENBR",
      "alert": "OK",
      "vis_m": 9999,
      "fzfg": false,
      "metar_trigger": false,
      "taf_trigger": false,
      "metar": "METAR ENBR 311220Z 13006KT 9999 -SHRA FEW002 SCT005 BKN012 02/02 Q1009 TEMPO 4000 SHRASN BKN008 SCT012CB RMK WIND 1200FT 17006KT",
      "taf": "TAF ENBR 311100Z 3112/0112 14007KT 9999 -SHRASN SCT015 BKN025"
    },
    {
      "icao": "ENGM",
      "alert": "OK",
      "vis_m": 9999,
      "fzfg": false,
      "metar_trigger": false,
      "taf_trigger": false,
      "metar": "METAR ENGM 311220Z 23003KT CAVOK M01/M05 Q1008 NOSIG",
      "taf": "TAF ENGM 311100Z 3112/0112 18008KT CAVOK"
    },
    {
      "icao": "ENHD",
      "alert": "OK",
      "vis_m": 9999,
      "fzfg": false,
      "metar_trigger": false,
      "taf_trigger": false,
      "metar": "METAR ENHD 311220Z VRB04KT 9999 VCSH FEW015 SCT025 BKN045 04/04 Q1011",
      "taf": "TAF ENHD 311100Z 3112/3118 VRB05KT 9999 -SHRA FEW015 BKN030"
    },
    {
      "icao": "ENTC",
      "alert": "OK",
      "vis_m": 9999,
      "fzfg": false,
      "metar_trigger": false,
      "taf_trigger": false,
      "metar": "METAR ENTC 311220Z 26008KT 220V280 9999 FEW013 M07/M10 Q1007 NOSIG RMK WIND 2600FT 05005KT",
      "taf": ""
    },
    {
      "icao": "ENTO",
      "alert": "OK",
      "vis_m": 9999,
      "fzfg": false,
      "metar_trigger": false,
      "taf_trigger": false,
      "metar": "METAR ENTO 311220Z 14003KT CAVOK M00/M06 Q1009 NOSIG",
      "taf": "TAF ENTO 311100Z 3112/0112 35005KT CAVOK"
    },
    {
      "icao": "ENVA",
      "alert": "OK",
      "vis_m": 2200,
      "fzfg": false,
      "metar_trigger": false,
      "taf_trigger": false,
      "metar": "METAR ENVA 311220Z 09007KT 2200 -SN VV016 M01/M01 Q1003 TEMPO 1500 SHSN VV012 RMK WIND 670FT 18014KT",
      "taf": "TAF ENVA 311100Z 3112/0112 10007KT 9999 -SHSN FEW020TCU BKN035"
    },
    {
      "icao": "ENZV",
      "alert": "OK",
      "vis_m": 9999,
      "fzfg": false,
      "metar_trigger": false,
      "taf_trigger": false,
      "metar": "METAR ENZV 311220Z 17005KT 9999 -SHRA FEW014 SCT020 BKN030 04/03 Q1012 TEMPO 4000 SHRA BKN010 SCT015CB",
      "taf": "TAF ENZV 311100Z 3112/0112 VRB05KT 9999 -SHRA FEW010 BKN020"
    },
    {
      "icao": "EPGD",
      "alert": "OK",
      "vis_m": 1200,
      "fzfg": false,
      "metar_trigger": false,
      "taf_trigger": false,
      "metar": "METAR EPGD 311200Z 29005KT 1200 R29/1300N SHSN FEW002 SCT012CB BKN017 M02/M02 Q1007",
      "taf": "TAF EPGD 311130Z 3112/0112 VRB05KT 9999 BKN020"
    },
    {
      "icao": "EPKK",
      "alert": "OK",
      "vis_m": 9999,
      "fzfg": false,
      "metar_trigger": false,
      "taf_trigger": false,
      "metar": "METAR EPKK 311200Z 28011KT 9999 -SHSN FEW016 SCT025CB M02/M06 Q1012",
      "taf": "TAF EPKK 311130Z 3112/0112 26009KT 9999 BKN020"
    },
    {
      "icao": "EPKT",
      "alert": "OK",
      "vis_m": 9999,
      "fzfg": false,
      "metar_trigger": false,
      "taf_trigger": false,
      "metar": "METAR EPKT 311200Z 26011KT 9999 SCT014 M03/M06 Q1012",
      "taf": "TAF EPKT 311130Z 3112/0112 30010KT 9999 BKN020"
    },
    {
      "icao": "EPLB",
      "alert": "OK",
      "vis_m": 9999,
      "fzfg": false,
      "metar_trigger": false,
      "taf_trigger": false,
      "metar": "METAR EPLB 311200Z 29012KT 9999 FEW021 M03/M07 Q1008",
      "taf": "TAF EPLB 311130Z 3112/0112 28012KT 9999 SCT022"
    },
    {
      "icao": "EPMO",
      "alert": "OK",
      "vis_m": 9999,
      "fzfg": false,
      "metar_trigger": false,
      "taf_trigger": false,
      "metar": "METAR EPMO 311200Z 25010KT 9999 BKN014 M04/M05 Q1009",
      "taf": "TAF EPMO 311130Z 3112/0112 26010KT 9999 BKN020"
    },
    {
      "icao": "EPPO",
      "alert": "OK",
      "vis_m": 9999,
      "fzfg": false,
      "metar_trigger": false,
      "taf_trigger": false,
      "metar": "METAR EPPO 311200Z 25009KT 9999 BKN010 M01/M05 Q1011",
      "taf": "TAF EPPO 311130Z 3112/0112 25010KT CAVOK"
    },
    {
      "icao": "EPRA",
      "alert": "OK",
      "vis_m": 9999,
      "fzfg": false,
      "metar_trigger": false,
      "taf_trigger": false,
      "metar": "METAR EPRA 311200Z 30011KT 9999 SCT021 M03/M08 Q1009",
      "taf": "TAF EPRA 311130Z 3112/3121 29010KT 9999 BKN025"
    },
    {
      "icao": "EPRZ",
      "alert": "OK",
      "vis_m": 9999,
      "fzfg": false,
      "metar_trigger": false,
      "taf_trigger": false,
      "metar": "METAR EPRZ 311200Z COR 28013KT 9999 BKN022 M03/M07 Q1010",
      "taf": "TAF EPRZ 311130Z 3112/0112 27010KT 9999 BKN020"
    },
    {
      "icao": "EPSC",
      "alert": "OK",
      "vis_m": 9999,
      "fzfg": false,
      "metar_trigger": false,
      "taf_trigger": false,
      "metar": "METAR EPSC 311200Z 21004KT 180V250 9999 BKN005 OVC007 M01/M02 Q1009",
      "taf": "TAF EPSC 311130Z 3112/0112 22005KT 9999 BKN012"
    },
    {
      "icao": "EPSY",
      "alert": "OK",
      "vis_m": 2400,
      "fzfg": false,
      "metar_trigger": false,
      "taf_trigger": false,
      "metar": "METAR EPSY 311200Z 25004KT 2400 -SHSN BKN017CB M04/M06 Q1008",
      "taf": "TAF EPSY 311130Z 3112/3121 25005KT 9999 BKN030"
    },
    {
      "icao": "EPWA",
      "alert": "OK",
      "vis_m": 9999,
      "fzfg": false,
      "metar_trigger": false,
      "taf_trigger": false,
      "metar": "METAR EPWA 311200Z 27009KT 9999 SCT022 M03/M06 Q1009 BECMG 3000 -SHSN",
      "taf": "TAF EPWA 311130Z 3112/0112 27010KT 9999 BKN020"
    },
    {
      "icao": "EPWR",
      "alert": "OK",
      "vis_m": 9999,
      "fzfg": false,
      "metar_trigger": false,
      "taf_trigger": false,
      "metar": "METAR EPWR 311200Z 25009KT 9999 FEW029 00/M06 Q1013",
      "taf": "TAF EPWR 311130Z 3112/0112 26010KT CAVOK"
    },
    {
      "icao": "ESGG",
      "alert": "OK",
      "vis_m": 9999,
      "fzfg": false,
      "metar_trigger": false,
      "taf_trigger": false,
      "metar": "METAR ESGG 311220Z 03004KT CAVOK M01/M03 Q1009",
      "taf": "TAF ESGG 311130Z 3112/0112 03005KT CAVOK"
    },
    {
      "icao": "ESKN",
      "alert": "OK",
      "vis_m": 9999,
      "fzfg": false,
      "metar_trigger": false,
      "taf_trigger": false,
      "metar": "METAR ESKN 311220Z 35004KT CAVOK M03/M05 Q1009",
      "taf": "TAF ESKN 311130Z 3112/0112 36005KT CAVOK"
    },
    {
      "icao": "ESMS",
      "alert": "OK",
      "vis_m": 9999,
      "fzfg": false,
      "metar_trigger": false,
      "taf_trigger": false,
      "metar": "METAR ESMS 311220Z 30007KT 9999 FEW008 02/02 Q1008",
      "taf": "TAF ESMS 311127Z 3112/0112 28005KT 9999 FEW040"
    },
    {
      "icao": "ESSA",
      "alert": "OK",
      "vis_m": 9999,
      "fzfg": false,
      "metar_trigger": false,
      "taf_trigger": false,
      "metar": "METAR ESSA 311220Z 28005KT CAVOK M06/M07 Q1008 NOSIG",
      "taf": "TAF ESSA 311130Z 3112/0112 31003KT CAVOK"
    },
    {
      "icao": "EYKA",
      "alert": "OK",
      "vis_m": 9999,
      "fzfg": false,
      "metar_trigger": false,
      "taf_trigger": false,
      "metar": "METAR EYKA 311220Z 31006KT 250V010 CAVOK M06/M14 Q1006",
      "taf": "TAF EYKA 311100Z 3112/0112 VRB04KT 8000 NSC"
    },
    {
      "icao": "EYPA",
      "alert": "OK",
      "vis_m": 9999,
      "fzfg": false,
      "metar_trigger": false,
      "taf_trigger": false,
      "metar": "METAR EYPA 311220Z AUTO VRB01KT 9999 NCD M04/M14 Q1008",
      "taf": "TAF EYPA 311100Z 3112/0112 VRB04KT 8000 NSC"
    },
    {
      "icao": "EYVI",
      "alert": "OK",
      "vis_m": 9999,
      "fzfg": false,
      "metar_trigger": false,
      "taf_trigger": false,
      "metar": "METAR EYVI 311220Z 32010KT 290V350 9999 BKN016 M07/M10 Q1003 NOSIG",
      "taf": "TAF EYVI 311100Z 3112/0112 32010KT 9000 BKN015"
    },
    {
      "icao": "GCFV",
      "alert": "OK",
      "vis_m": 9999,
      "fzfg": false,
      "metar_trigger": false,
      "taf_trigger": false,
      "metar": "METAR GCFV 311200Z 14009KT 9999 FEW025 20/15 Q1020",
      "taf": "TAF GCFV 310800Z 3109/0109 16008KT 9999 FEW025 TX21/3114Z TN14/0106Z"
    },
    {
      "icao": "GCLP",
      "alert": "OK",
      "vis_m": 9999,
      "fzfg": false,
      "metar_trigger": false,
      "taf_trigger": false,
      "metar": "METAR GCLP 311200Z 16009KT 9999 FEW017 20/15 Q1020 NOSIG",
      "taf": "TAF GCLP 310800Z 3109/0109 19014KT 9999 FEW030 TX22/3114Z TN15/0106Z"
    },
    {
      "icao": "GCTS",
      "alert": "OK",
      "vis_m": 9999,
      "fzfg": false,
      "metar_trigger": false,
      "taf_trigger": false,
      "metar": "METAR GCTS 311200Z 17005KT 140V250 CAVOK 20/13 Q1020 NOSIG",
      "taf": "TAF GCTS 310800Z 3109/0109 22010KT 9999 SCT030 TX24/3114Z TN17/0106Z"
    },
    {
      "icao": "GMAD",
      "alert": "OK",
      "vis_m": 9999,
      "fzfg": false,
      "metar_trigger": false,
      "taf_trigger": false,
      "metar": "METAR GMAD 311200Z 07006KT 9999 FEW040 19/10 Q1020 NOSIG",
      "taf": "TAF GMAD 311100Z 3112/0118 27010KT 8000 SCT030"
    },
    {
      "icao": "GMMN",
      "alert": "OK",
      "vis_m": 9999,
      "fzfg": false,
      "metar_trigger": false,
      "taf_trigger": false,
      "metar": "METAR GMMN 311200Z 22014KT 9999 BKN013 16/14 Q1019 NOSIG",
      "taf": "TAF GMMN 311100Z 3112/0118 21016KT 9999 BKN013"
    },
    {
      "icao": "GMMX",
      "alert": "OK",
      "vis_m": 9999,
      "fzfg": false,
      "metar_trigger": false,
      "taf_trigger": false,
      "metar": "METAR GMMX 311200Z 30005KT 250V350 9999 SCT026 18/12 Q1020 NOSIG",
      "taf": "TAF GMMX 311100Z 3112/0118 28006KT 8000 SCT026"
    },
    {
      "icao": "HEGN",
      "alert": "OK",
      "vis_m": 9999,
      "fzfg": false,
      "metar_trigger": false,
      "taf_trigger": false,
      "metar": "METAR HEGN 311200Z 07006KT CAVOK 23/09 Q1014 NOSIG",
      "taf": "TAF HEGN 311100Z 3112/0118 05010KT CAVOK"
    },
    {
      "icao": "HEMA",
      "alert": "OK",
      "vis_m": 9999,
      "fzfg": false,
      "metar_trigger": false,
      "taf_trigger": false,
      "metar": "METAR HEMA 311200Z 11010KT CAVOK 23/14 Q1013 NOSIG",
      "taf": "TAF HEMA 311100Z 3112/0118 19010KT CAVOK"
    },
    {
      "icao": "HESH",
      "alert": "OK",
      "vis_m": 9999,
      "fzfg": false,
      "metar_trigger": false,
      "taf_trigger": false,
      "metar": "METAR HESH 311200Z 17016KT 9999 SCT020 25/04 Q1012 NOSIG",
      "taf": "TAF HESH 311100Z 3112/0118 22010KT 9999 SCT025"
    },
    {
      "icao": "HESX",
      "alert": "OK",
      "vis_m": 9999,
      "fzfg": false,
      "metar_trigger": false,
      "taf_trigger": false,
      "metar": "METAR HESX 311200Z 21015KT CAVOK 20/03 Q1013 NOSIG",
      "taf": "TAF HESX 311100Z 3112/0118 25014KT CAVOK"
    },
    {
      "icao": "LATI",
      "alert": "OK",
      "vis_m": 9999,
      "fzfg": false,
      "metar_trigger": false,
      "taf_trigger": false,
      "metar": "METAR LATI 311220Z 03004KT 300V100 CAVOK 08/M15 Q1013 NOSIG",
      "taf": "TAF LATI 311100Z 3112/0112 34013KT CAVOK TX09/3113Z TNM05/0105Z"
    },
    {
      "icao": "LBPD",
      "alert": "OK",
      "vis_m": 9999,
      "fzfg": false,
      "metar_trigger": false,
      "taf_trigger": false,
      "metar": "METAR LBPD 311200Z AUTO 29019KT 9999 NCD 02/M12 Q1014 NOSIG",
      "taf": "TAF LBPD 311100Z 3112/0112 27016KT CAVOK"
    },
    {
      "icao": "LBSF",
      "alert": "OK",
      "vis_m": 9999,
      "fzfg": false,
      "metar_trigger": false,
      "taf_trigger": false,
      "metar": "METAR LBSF 311200Z 29017G27KT 9999 SCT043 M02/M12 Q1013 NOSIG",
      "taf": "TAF LBSF 311100Z 3112/0112 28016KT SCT030"
    },
    {
      "icao": "LBWN",
      "alert": "OK",
      "vis_m": 9999,
      "fzfg": false,
      "metar_trigger": false,
      "taf_trigger": false,
      "metar": "METAR LBWN 311200Z AUTO 29020KT 9999 FEW049/// 02/M09 Q1011 NOSIG",
      "taf": "TAF LBWN 311100Z 3112/0112 29015KT 9999 SCT045"
    },
    {
      "icao": "LCLK",
      "alert": "OK",
      "vis_m": 9999,
      "fzfg": false,
      "metar_trigger": false,
      "taf_trigger": false,
      "metar": "METAR LCLK 311130Z 27013KT 9999 FEW025 FEW030CB SCT050 18/14 Q1005 RERA NOSIG",
      "taf": "TAF LCLK 311130Z 3112/0112 25020KT 9999 FEW020 SCT040"
    },
    {
      "icao": "LCPH",
      "alert": "OK",
      "vis_m": 5000,
      "fzfg": false,
      "metar_trigger": false,
      "taf_trigger": false,
      "metar": "METAR LCPH 311130Z 26019KT 250V320 5000 R29/P2000 R11/1000 SHRA FEW025CB SCT035 BKN050 18/13 Q1005 TEMPO 3000 TSRA SCT025CB RMK CB TO N. SW",
      "taf": "TAF LCPH 311130Z 3112/0112 26020KT 9999 SCT020 BKN040"
    },
    {
      "icao": "LEAL",
      "alert": "OK",
      "vis_m": 9999,
      "fzfg": false,
      "metar_trigger": false,
      "taf_trigger": false,
      "metar": "METAR LEAL 311200Z 29009KT 260V330 CAVOK 16/06 Q1018 NOSIG",
      "taf": "TAF LEAL 311100Z 3112/0112 12008KT CAVOK TX16/3114Z TN07/0106Z"
    },
    {
      "icao": "LEBB",
      "alert": "OK",
      "vis_m": 9999,
      "fzfg": false,
      "metar_trigger": false,
      "taf_trigger": false,
      "metar": "METAR LEBB 311200Z VRB01KT 9999 SCT024 BKN032 09/04 Q1022 NOSIG",
      "taf": "TAF LEBB 311100Z 3112/0112 12006KT 9999 FEW020 BKN030 TX11/0112Z TN01/0100Z"
    },
    {
      "icao": "LEBL",
      "alert": "OK",
      "vis_m": 9999,
      "fzfg": false,
      "metar_trigger": false,
      "taf_trigger": false,
      "metar": "METAR LEBL 311200Z 33010KT 280V350 9999 FEW025 BKN045 11/06 Q1019 NOSIG",
      "taf": "TAF LEBL 311100Z 3112/0112 34008KT 9999 SCT030 TX15/3112Z TN04/0106Z"
    },
    {
      "icao": "LECH",
      "alert": "OK",
      "vis_m": 9000,
      "fzfg": false,
      "metar_trigger": false,
      "taf_trigger": false,
      "metar": "METAR LECH 311200Z AUTO 17001KT 9000 OVC045 11/01 Q1019",
      "taf": ""
    },
    {
      "icao": "LEMD",
      "alert": "OK",
      "vis_m": 9999,
      "fzfg": false,
      "metar_trigger": false,
      "taf_trigger": false,
      "metar": "METAR LEMD 311200Z VRB02KT CAVOK 07/01 Q1019 NOSIG",
      "taf": "TAF LEMD 311100Z 3112/0118 VRB03KT CAVOK TX08/3114Z TNM03/0108Z"
    },
    {
      "icao": "LEMG",
      "alert": "OK",
      "vis_m": 9999,
      "fzfg": false,
      "metar_trigger": false,
      "taf_trigger": false,
      "metar": "METAR LEMG 311200Z 29005KT 260V320 CAVOK 15/07 Q1018 NOSIG",
      "taf": "TAF LEMG 311100Z 3112/0112 14005KT CAVOK TX18/3114Z TN13/0107Z"
    },
    {
      "icao": "LEVC",
      "alert": "OK",
      "vis_m": 9999,
      "fzfg": false,
      "metar_trigger": false,
      "taf_trigger": false,
      "metar": "METAR LEVC 311200Z VRB02KT 9999 SCT045 12/03 Q1019 NOSIG",
      "taf": "TAF LEVC 311100Z 3112/0112 VRB04KT 9999 SCT040 TX15/3114Z TN05/0106Z"
    },
    {
      "icao": "LEXJ",
      "alert": "OK",
      "vis_m": 9999,
      "fzfg": false,
      "metar_trigger": false,
      "taf_trigger": false,
      "metar": "METAR LEXJ 311200Z 09003KT 050V140 9999 BKN023 OVC033 09/04 Q1022",
      "taf": "TAF LEXJ 310800Z 3109/0109 VRB03KT 9999 SCT020 BKN030 TX10/3115Z TN03/0103Z"
    },
    {
      "icao": "LEZG",
      "alert": "OK",
      "vis_m": 9999,
      "fzfg": false,
      "metar_trigger": false,
      "taf_trigger": false,
      "metar": "METAR LEZG 311200Z 30011KT 270V340 CAVOK 09/03 Q1020 NOSIG",
      "taf": "TAF LEZG 311100Z 3112/0112 29010KT CAVOK TX09/3114Z TNM00/0106Z"
    },
    {
      "icao": "LEZL",
      "alert": "OK",
      "vis_m": 8000,
      "fzfg": false,
      "metar_trigger": false,
      "taf_trigger": false,
      "metar": "METAR LEZL 311200Z 04008KT 8000 SCT004 10/09 Q1019 NOSIG",
      "taf": ""
    },
    {
      "icao": "LFBD",
      "alert": "OK",
      "vis_m": 9999,
      "fzfg": false,
      "metar_trigger": false,
      "taf_trigger": false,
      "metar": "METAR LFBD 311200Z AUTO 05007KT 360V090 CAVOK 03/M04 Q1023 NOSIG",
      "taf": "TAF LFBD 311100Z 3112/0118 05005KT CAVOK TX05/3114Z TNM05/0106Z"
    },
    {
      "icao": "LFLL",
      "alert": "OK",
      "vis_m": 9999,
      "fzfg": false,
      "metar_trigger": false,
      "taf_trigger": false,
      "metar": "METAR LFLL 311200Z 32005KT 280V360 9999 FEW021 M00/M05 Q1024 NOSIG",
      "taf": "TAF LFLL 311100Z 3112/0118 35006KT CAVOK"
    },
    {
      "icao": "LFLS",
      "alert": "OK",
      "vis_m": 9999,
      "fzfg": false,
      "metar_trigger": false,
      "taf_trigger": false,
      "metar": "METAR LFLS 311200Z AUTO 36009KT CAVOK M01/M04 Q1023 NOSIG",
      "taf": "TAF LFLS 310800Z 3109/0109 36005KT CAVOK"
    },
    {
      "icao": "LFMN",
      "alert": "OK",
      "vis_m": 9999,
      "fzfg": false,
      "metar_trigger": false,
      "taf_trigger": false,
      "metar": "METAR LFMN 311200Z 10011KT 9999 FEW043 13/01 Q1018 NOSIG",
      "taf": "TAF LFMN 310800Z 3109/0115 33008KT 9999 FEW043"
    },
    {
      "icao": "LFOB",
      "alert": "OK",
      "vis_m": 9999,
      "fzfg": false,
      "metar_trigger": false,
      "taf_trigger": false,
      "metar": "METAR LFOB 311200Z AUTO VRB02KT 9999 OVC036 03/02 Q1028 NOSIG",
      "taf": "TAF LFOB 311100Z 3112/0112 26005KT 9999 FEW020"
    },
    {
      "icao": "LFPO",
      "alert": "OK",
      "vis_m": 9000,
      "fzfg": false,
      "metar_trigger": false,
      "taf_trigger": false,
      "metar": "METAR LFPO 311200Z COR 35003KT 260V030 9000 FEW016 04/M01 Q1028 NOSIG",
      "taf": "TAF LFPO 311100Z 3112/0118 35003KT CAVOK"
    },
    {
      "icao": "LFSB",
      "alert": "OK",
      "vis_m": 9999,
      "fzfg": false,
      "metar_trigger": false,
      "taf_trigger": false,
      "metar": "METAR LFSB 311200Z AUTO VRB02KT CAVOK 00/M05 Q1025 NOSIG",
      "taf": "TAF LFSB 311100Z 3112/0112 VRB03KT CAVOK"
    },
    {
      "icao": "LGAV",
      "alert": "OK",
      "vis_m": 9999,
      "fzfg": false,
      "metar_trigger": false,
      "taf_trigger": false,
      "metar": "METAR LGAV 311220Z 02015KT 9999 SCT020 BKN070 07/02 Q1011 NOSIG",
      "taf": "TAF LGAV 311100Z 3112/0112 02016KT 9999 FEW016 SCT025"
    },
    {
      "icao": "LGTS",
      "alert": "OK",
      "vis_m": 9999,
      "fzfg": false,
      "metar_trigger": false,
      "taf_trigger": false,
      "metar": "METAR LGTS 311220Z 33017KT 9999 FEW025 05/M09 Q1015 NOSIG",
      "taf": "TAF LGTS 311100Z 3112/0112 34018KT 9999 SCT030"
    },
    {
      "icao": "LHBP",
      "alert": "OK",
      "vis_m": 9999,
      "fzfg": false,
      "metar_trigger": false,
      "taf_trigger": false,
      "metar": "METAR LHBP 311200Z 32018KT 9999 -SHSN SCT035 M00/M08 Q1016 NOSIG",
      "taf": "TAF LHBP 311115Z 3112/0112 31015G25KT 9999 SCT035 SCT160"
    },
    {
      "icao": "LHDC",
      "alert": "OK",
      "vis_m": 9999,
      "fzfg": false,
      "metar_trigger": false,
      "taf_trigger": false,
      "metar": "METAR LHDC 311145Z AUTO 32007KT 290V350 CAVOK M01/M08 Q1014 NOSIG",
      "taf": "TAF LHDC 311115Z 3112/3121 27008KT CAVOK"
    },
    {
      "icao": "LIBD",
      "alert": "OK",
      "vis_m": 9999,
      "fzfg": false,
      "metar_trigger": false,
      "taf_trigger": false,
      "metar": "METAR LIBD 311220Z 35010KT 300V020 9999 SCT030 07/M05 Q1017",
      "taf": "TAF LIBD 311100Z 3112/0112 36015KT 9999 FEW050"
    },
    {
      "icao": "LIBG",
      "alert": "OK",
      "vis_m": 9999,
      "fzfg": false,
      "metar_trigger": false,
      "taf_trigger": false,
      "metar": "METAR LIBG 311150Z 35020KT CAVOK 07/M04 Q1016",
      "taf": "TAF LIBG 311100Z 3112/3121 35014KT CAVOK"
    },
    {
      "icao": "LIBP",
      "alert": "OK",
      "vis_m": 9999,
      "fzfg": false,
      "metar_trigger": false,
      "taf_trigger": false,
      "metar": "METAR LIBP 311220Z AUTO 09006KT 040V110 9999 NCD 08/M04 Q1020",
      "taf": ""
    },
    {
      "icao": "LIBR",
      "alert": "OK",
      "vis_m": 9999,
      "fzfg": false,
      "metar_trigger": false,
      "taf_trigger": false,
      "metar": "METAR LIBR 311220Z 35015KT 9999 SCT030 07/M04 Q1015",
      "taf": ""
    },
    {
      "icao": "LICA",
      "alert": "OK",
      "vis_m": 9999,
      "fzfg": false,
      "metar_trigger": false,
      "taf_trigger": false,
      "metar": "METAR LICA 311220Z AUTO 02009KT 340V050 9999 NCD 13/M01 Q1013",
      "taf": "TAF LICA 311100Z 3112/0112 01007KT CAVOK"
    },
    {
      "icao": "LICC",
      "alert": "OK",
      "vis_m": 7000,
      "fzfg": false,
      "metar_trigger": false,
      "taf_trigger": false,
      "metar": "METAR LICC 311220Z 07007KT 030V090 7000 -RA BKN040 OVC060 12/09 Q1014",
      "taf": "TAF LICC 311100Z 3112/0112 08010KT 9999 BKN030"
    },
    {
      "icao": "LICJ",
      "alert": "OK",
      "vis_m": 9999,
      "fzfg": false,
      "metar_trigger": false,
      "taf_trigger": false,
      "metar": "METAR LICJ 311220Z 21006KT 9999 VCSH SCT060 15/08 Q1013",
      "taf": "TAF LICJ 311100Z 3112/0112 VRB06KT 9999 FEW030"
    },
    {
      "icao": "LIMC",
      "alert": "OK",
      "vis_m": 9999,
      "fzfg": false,
      "metar_trigger": false,
      "taf_trigger": false,
      "metar": "METAR LIMC 311220Z 25003KT 220V290 CAVOK 07/00 Q1019 NOSIG",
      "taf": "TAF LIMC 311100Z 3112/0118 VRB04KT 9999 SCT040"
    },
    {
      "icao": "LIME",
      "alert": "OK",
      "vis_m": 9999,
      "fzfg": false,
      "metar_trigger": false,
      "taf_trigger": false,
      "metar": "METAR LIME 311220Z 23004KT 170V290 9999 FEW040 06/M01 Q1019 NOSIG",
      "taf": "TAF LIME 311100Z 3112/0112 VRB04KT 9999 SCT040"
    },
    {
      "icao": "LIMF",
      "alert": "OK",
      "vis_m": 9999,
      "fzfg": false,
      "metar_trigger": false,
      "taf_trigger": false,
      "metar": "METAR LIMF 311220Z 10003KT 050V150 CAVOK 06/00 Q1019",
      "taf": "TAF LIMF 311100Z 3112/0112 VRB04KT 3000 BR SCT040"
    },
    {
      "icao": "LIMJ",
      "alert": "OK",
      "vis_m": 9999,
      "fzfg": false,
      "metar_trigger": false,
      "taf_trigger": false,
      "metar": "METAR LIMJ 311220Z 03011KT CAVOK 10/M01 Q1018",
      "taf": "TAF LIMJ 311100Z 3112/0112 03012KT 9999 SCT030"
    },
    {
      "icao": "LIPE",
      "alert": "OK",
      "vis_m": 8000,
      "fzfg": false,
      "metar_trigger": false,
      "taf_trigger": false,
      "metar": "METAR LIPE 311220Z 30004KT 270V350 8000 NSC 06/02 Q1020",
      "taf": "TAF LIPE 311100Z 3112/0112 VRB04KT 4000 BR BKN020"
    },
    {
      "icao": "LIPH",
      "alert": "OK",
      "vis_m": 9999,
      "fzfg": false,
      "metar_trigger": false,
      "taf_trigger": false,
      "metar": "METAR LIPH 311220Z 05004KT 9999 BKN050 05/M04 Q1020",
      "taf": "TAF LIPH 311100Z 3112/0112 VRB04KT 9999 SCT045"
    },
    {
      "icao": "LIPQ",
      "alert": "OK",
      "vis_m": 9999,
      "fzfg": false,
      "metar_trigger": false,
      "taf_trigger": false,
      "metar": "METAR LIPQ 311220Z AUTO 01004KT 330V050 9999 NCD 07/M07 Q1020",
      "taf": "TAF LIPQ 311100Z 3112/0112 VRB05KT 9999 SCT050"
    },
    {
      "icao": "LIPR",
      "alert": "OK",
      "vis_m": 9999,
      "fzfg": false,
      "metar_trigger": false,
      "taf_trigger": false,
      "metar": "METAR LIPR 311220Z 04003KT 360V080 CAVOK 07/M00 Q1019",
      "taf": "TAF LIPR 311100Z 3112/0112 17008KT 7000 FEW030"
    },
    {
      "icao": "LIPX",
      "alert": "OK",
      "vis_m": 9999,
      "fzfg": false,
      "metar_trigger": false,
      "taf_trigger": false,
      "metar": "METAR LIPX 311220Z 20005KT 160V230 CAVOK 07/M03 Q1019",
      "taf": "TAF LIPX 311100Z 3112/0112 VRB04KT 9999 FEW040"
    },
    {
      "icao": "LIPY",
      "alert": "OK",
      "vis_m": 9999,
      "fzfg": false,
      "metar_trigger": false,
      "taf_trigger": false,
      "metar": "METAR LIPY 311220Z AUTO 13004KT 090V160 9999 BKN049/// 08/M02 Q1019",
      "taf": "TAF LIPY 311100Z 3112/0112 13006KT 9999 SCT045"
    },
    {
      "icao": "LIPZ",
      "alert": "OK",
      "vis_m": 9999,
      "fzfg": false,
      "metar_trigger": false,
      "taf_trigger": false,
      "metar": "METAR LIPZ 311220Z 03006KT 9999 SCT060 06/M03 Q1020 NOSIG",
      "taf": "TAF LIPZ 311100Z 3112/0118 06006KT 9999 SCT040"
    },
    {
      "icao": "LIRF",
      "alert": "OK",
      "vis_m": 9999,
      "fzfg": false,
      "metar_trigger": false,
      "taf_trigger": false,
      "metar": "METAR LIRF 311220Z 05004KT 9999 SCT045 09/M03 Q1016 NOSIG",
      "taf": "TAF LIRF 311100Z 3112/0118 05010KT 9999 SCT035"
    },
    {
      "icao": "LIRN",
      "alert": "OK",
      "vis_m": 9999,
      "fzfg": false,
      "metar_trigger": false,
      "taf_trigger": false,
      "metar": "METAR LIRN 311220Z 06010KT 030V100 9999 FEW070 10/M07 Q1016 NOSIG",
      "taf": "TAF LIRN 311100Z 3112/0112 05010KT CAVOK"
    },
    {
      "icao": "LIRP",
      "alert": "OK",
      "vis_m": 9999,
      "fzfg": false,
      "metar_trigger": false,
      "taf_trigger": false,
      "metar": "METAR LIRP 311215Z 10013KT 9999 FEW070 09/M03 Q1018 NOSIG",
      "taf": "TAF LIRP 311100Z 3112/0112 12012KT 9999 FEW060"
    },
    {
      "icao": "LIRZ",
      "alert": "OK",
      "vis_m": 9999,
      "fzfg": false,
      "metar_trigger": false,
      "taf_trigger": false,
      "metar": "METAR LIRZ 311220Z AUTO 05011KT 9999 NCD 08/M07 Q1017",
      "taf": "TAF LIRZ 311100Z 3112/0112 05010KT CAVOK"
    },
    {
      "icao": "LJLJ",
      "alert": "OK",
      "vis_m": 9999,
      "fzfg": false,
      "metar_trigger": false,
      "taf_trigger": false,
      "metar": "METAR LJLJ 311200Z VRB02KT 9999 FEW040 M00/M04 Q1019 NOSIG",
      "taf": "TAF LJLJ 311100Z 3112/0112 VRB02KT 9999 FEW040"
    },
    {
      "icao": "LKMT",
      "alert": "OK",
      "vis_m": 9999,
      "fzfg": false,
      "metar_trigger": false,
      "taf_trigger": false,
      "metar": "METAR LKMT 311200Z 23010KT 9999 SCT040 M02/M06 Q1014 NOSIG",
      "taf": "TAF LKMT 311100Z 3112/0112 21012KT 9999 BKN030"
    },
    {
      "icao": "LKPR",
      "alert": "OK",
      "vis_m": 3500,
      "fzfg": false,
      "metar_trigger": false,
      "taf_trigger": false,
      "metar": "METAR LKPR 311200Z 21017KT 3500 -SN FEW003 SCT013 BKN030 M02/M03 Q1014 TEMPO 23020G30KT",
      "taf": "TAF LKPR 311100Z 3112/0118 23018KT 7000 -SN BKN023"
    },
    {
      "icao": "LLBG",
      "alert": "OK",
      "vis_m": 9999,
      "fzfg": false,
      "metar_trigger": false,
      "taf_trigger": false,
      "metar": "METAR LLBG 311220Z 22015KT 9999 SCT045 19/07 Q1011 NOSIG",
      "taf": "TAF LLBG 311109Z 3112/0112 22015KT 9999 FEW050"
    },
    {
      "icao": "LMML",
      "alert": "OK",
      "vis_m": 9999,
      "fzfg": false,
      "metar_trigger": false,
      "taf_trigger": false,
      "metar": "METAR LMML 311215Z 27008KT 9999 FEW020 15/11 Q1013 NOSIG",
      "taf": "TAF LMML 311100Z 3112/0112 29012KT 9999 SCT020"
    },
    {
      "icao": "LOWW",
      "alert": "OK",
      "vis_m": 9999,
      "fzfg": false,
      "metar_trigger": false,
      "taf_trigger": false,
      "metar": "METAR LOWW 311220Z 30021KT CAVOK 00/M09 Q1018 TEMPO FM1345 4900 -SN",
      "taf": "TAF LOWW 311115Z 3112/0118 30018KT 9999 BKN030 TX04/0111Z TNM01/3114Z"
    },
    {
      "icao": "LPFR",
      "alert": "OK",
      "vis_m": 9999,
      "fzfg": false,
      "metar_trigger": false,
      "taf_trigger": false,
      "metar": "METAR LPFR 311200Z 06009KT 9999 BKN030 14/08 Q1018",
      "taf": "TAF LPFR 311100Z 3112/0112 08012KT 9999 FEW015 BKN035"
    },
    {
      "icao": "LPMA",
      "alert": "OK",
      "vis_m": 9999,
      "fzfg": false,
      "metar_trigger": false,
      "taf_trigger": false,
      "metar": "METAR LPMA 311200Z 21013KT 9999 VCSH BKN015 FEW018CB 20/15 Q1016",
      "taf": "TAF LPMA 311100Z 3112/0112 21018KT 9999 SCT015"
    },
    {
      "icao": "LPPR",
      "alert": "OK",
      "vis_m": 9999,
      "fzfg": false,
      "metar_trigger": false,
      "taf_trigger": false,
      "metar": "METAR LPPR 311200Z 12006KT 050V140 CAVOK 12/06 Q1019",
      "taf": "TAF LPPR 311100Z 3112/0112 11010KT CAVOK"
    },
    {
      "icao": "LPPS",
      "alert": "OK",
      "vis_m": 9999,
      "fzfg": false,
      "metar_trigger": false,
      "taf_trigger": false,
      "metar": "METAR LPPS 311200Z 17012KT 9999 SCT010 20/17 Q1016",
      "taf": "TAF LPPS 311100Z 3112/0118 18012KT 9999 SCT010"
    },
    {
      "icao": "LPPT",
      "alert": "OK",
      "vis_m": 500,
      "fzfg": false,
      "metar_trigger": false,
      "taf_trigger": false,
      "metar": "METAR LPPT 311200Z 04005KT 320V080 0500 R02/2000U PRFG FEW000 SCT001 BKN002 07/07 Q1019",
      "taf": "TAF LPPT 311100Z 3112/0118 06005KT 0200 FG VV001"
    },
    {
      "icao": "LQBK",
      "alert": "OK",
      "vis_m": 9999,
      "fzfg": false,
      "metar_trigger": false,
      "taf_trigger": false,
      "metar": "METAR LQBK 311200Z VRB03KT CAVOK 02/M06 Q1021 NOSIG",
      "taf": "TAF LQBK 311100Z 3112/0112 32005KT CAVOK TX02/3113Z TNM05/0106Z"
    },
    {
      "icao": "LQSA",
      "alert": "OK",
      "vis_m": 9999,
      "fzfg": false,
      "metar_trigger": false,
      "taf_trigger": false,
      "metar": "METAR LQSA 311200Z 02004KT 310V070 9999 BKN050 M02/M12 Q1018 NOSIG",
      "taf": "TAF LQSA 311100Z 3112/0112 29005KT 9999 SCT045 TX02/0112Z TNM08/0104Z"
    },
    {
      "icao": "LQTZ",
      "alert": "OK",
      "vis_m": 9999,
      "fzfg": false,
      "metar_trigger": false,
      "taf_trigger": false,
      "metar": "METAR LQTZ 311200Z 31011KT 270V340 9999 SCT040 BKN050 M00/M09 Q1020",
      "taf": "TAF LQTZ 311100Z 3112/0112 27006KT 9999 SCT040 TX01/3113Z TNM06/0106Z"
    },
    {
      "icao": "LRBC",
      "alert": "OK",
      "vis_m": 9999,
      "fzfg": false,
      "metar_trigger": false,
      "taf_trigger": false,
      "metar": "METAR LRBC 311200Z 30015KT CAVOK 02/M14 Q1007",
      "taf": "TAF LRBC 311100Z 3112/3121 28014KT 9999 BKN055"
    },
    {
      "icao": "LRBS",
      "alert": "OK",
      "vis_m": 9999,
      "fzfg": false,
      "metar_trigger": false,
      "taf_trigger": false,
      "metar": "METAR LRBS 311200Z 27010KT 240V320 CAVOK 02/M11 Q1012 NOSIG",
      "taf": "TAF LRBS 311100Z 3112/0112 27010KT CAVOK"
    },
    {
      "icao": "LRBV",
      "alert": "OK",
      "vis_m": 9999,
      "fzfg": false,
      "metar_trigger": false,
      "taf_trigger": false,
      "metar": "METAR LRBV 311200Z 28010KT 230V310 9999 SCT033 BKN050 M04/M11 Q1010",
      "taf": "TAF LRBV 311100Z 3112/3121 28017KT 9999 SCT025 BKN040"
    },
    {
      "icao": "LRCL",
      "alert": "OK",
      "vis_m": 9999,
      "fzfg": false,
      "metar_trigger": false,
      "taf_trigger": false,
      "metar": "METAR LRCL 311200Z 30013KT 9999 FEW041 M02/M11 Q1011",
      "taf": "TAF LRCL 311100Z 3112/3121 30014KT 9999 BKN050"
    },
    {
      "icao": "LRCV",
      "alert": "OK",
      "vis_m": 9999,
      "fzfg": false,
      "metar_trigger": false,
      "taf_trigger": false,
      "metar": "METAR LRCV 311200Z 28017KT CAVOK 00/M08 Q1013",
      "taf": "TAF LRCV 311100Z 3112/3121 29016KT CAVOK"
    },
    {
      "icao": "LRIA",
      "alert": "OK",
      "vis_m": 9999,
      "fzfg": false,
      "metar_trigger": false,
      "taf_trigger": false,
      "metar": "METAR LRIA 311200Z 30014KT 260V330 9999 BKN040 M01/M08 Q1007",
      "taf": "TAF LRIA 311100Z 3112/3121 28012KT 9999 BKN035"
    },
    {
      "icao": "LROP",
      "alert": "OK",
      "vis_m": 9999,
      "fzfg": false,
      "metar_trigger": false,
      "taf_trigger": false,
      "metar": "METAR LROP 311200Z 28014KT CAVOK 03/M15 Q1011 NOSIG",
      "taf": "TAF LROP 311100Z 3112/0112 28010KT CAVOK"
    },
    {
      "icao": "LRSB",
      "alert": "OK",
      "vis_m": 9999,
      "fzfg": false,
      "metar_trigger": false,
      "taf_trigger": false,
      "metar": "METAR LRSB 311200Z 29011KT 9999 SCT062 SCT075 M03/M10 Q1011",
      "taf": "TAF LRSB 311100Z 3112/0112 29010KT 9999 BKN045"
    },
    {
      "icao": "LRSM",
      "alert": "OK",
      "vis_m": 9999,
      "fzfg": false,
      "metar_trigger": false,
      "taf_trigger": false,
      "metar": "METAR LRSM 311200Z 26013KT 9999 BKN038 M03/M07 Q1013",
      "taf": "TAF LRSM 311100Z 3112/3121 26014KT 9999 SCT030"
    },
    {
      "icao": "LRSV",
      "alert": "OK",
      "vis_m": 9999,
      "fzfg": false,
      "metar_trigger": false,
      "taf_trigger": false,
      "metar": "METAR LRSV 311200Z 32014KT 9999 DRSN FEW013 BKN046 M03/M08 Q1005",
      "taf": "TAF LRSV 311100Z 3112/3121 31016KT 9999 BKN035"
    },
    {
      "icao": "LRTM",
      "alert": "OK",
      "vis_m": 9999,
      "fzfg": false,
      "metar_trigger": false,
      "taf_trigger": false,
      "metar": "METAR LRTM 311200Z 28014KT 9999 FEW024 SCT038 M01/M11 Q1011",
      "taf": "TAF LRTM 311100Z 3112/3121 28014KT 9999 SCT025 BKN040"
    },
    {
      "icao": "LRTR",
      "alert": "OK",
      "vis_m": 9999,
      "fzfg": false,
      "metar_trigger": false,
      "taf_trigger": false,
      "metar": "METAR LRTR 311200Z 31010KT 9999 SCT030 M01/M07 Q1016",
      "taf": "TAF LRTR 311100Z 3112/0112 31013KT 9999 SCT025"
    },
    {
      "icao": "LTAC",
      "alert": "OK",
      "vis_m": 9999,
      "fzfg": false,
      "metar_trigger": false,
      "taf_trigger": false,
      "metar": "METAR LTAC 311150Z 35008KT 9999 SCT030 BKN080 01/M05 Q1004 NOSIG RMK RWY21C 32008KT RWY03L 34008KT RWY21R 32008KT 280V340 RWY03R 32006KT 270V340 RWY21L 33009KT",
      "taf": "TAF LTAC 311040Z 3112/0112 VRB02KT 9999 SCT035 BKN090"
    },
    {
      "icao": "LTFM",
      "alert": "OK",
      "vis_m": 9999,
      "fzfg": false,
      "metar_trigger": false,
      "taf_trigger": false,
      "metar": "METAR LTFM 311150Z 35012KT 9999 FEW040 SCT090 03/M09 Q1013 NOSIG RMK RWY17L 33010KT RWY34L 33011KT RWY16R 34009KT 310V010 RWY36 33012KT RWY18 34011KT",
      "taf": "TAF LTFM 311040Z 3112/0118 33015G25KT CAVOK"
    },
    {
      "icao": "LUKK",
      "alert": "OK",
      "vis_m": 9999,
      "fzfg": false,
      "metar_trigger": false,
      "taf_trigger": false,
      "metar": "METAR LUKK 311200Z 31019KT 9999 FEW041 SCT048 M00/M07 Q1005 TEMPO 30018G28KT",
      "taf": "TAF LUKK 311110Z 3112/0112 30014KT 9999 BKN025"
    },
    {
      "icao": "LWOH",
      "alert": "OK",
      "vis_m": 9999,
      "fzfg": false,
      "metar_trigger": false,
      "taf_trigger": false,
      "metar": "METAR LWOH 311220Z 36009KT 320V040 9999 FEW045 01/M14 Q1012",
      "taf": "TAF LWOH 311135Z 3112/0112 33010KT CAVOK"
    },
    {
      "icao": "LWSK",
      "alert": "OK",
      "vis_m": 9999,
      "fzfg": false,
      "metar_trigger": false,
      "taf_trigger": false,
      "metar": "METAR LWSK 311220Z 36009KT 310V020 9999 FEW060 01/M12 Q1016 NOSIG",
      "taf": "TAF LWSK 311135Z 3112/0112 36012KT CAVOK"
    },
    {
      "icao": "LYBE",
      "alert": "OK",
      "vis_m": 9999,
      "fzfg": false,
      "metar_trigger": false,
      "taf_trigger": false,
      "metar": "METAR LYBE 311200Z 29013KT 9999 BKN040 00/M08 Q1019 NOSIG",
      "taf": "TAF LYBE 311100Z 3112/0112 30016KT 9999 SCT040 TX05/0112Z TNM04/3123Z"
    },
    {
      "icao": "LYNI",
      "alert": "OK",
      "vis_m": 9999,
      "fzfg": false,
      "metar_trigger": false,
      "taf_trigger": false,
      "metar": "METAR LYNI 311200Z 29015KT 250V330 9999 BKN040 M00/M11 Q1017 NOSIG",
      "taf": "TAF LYNI 311100Z 3112/0112 31012KT 9999 SCT027 BKN040 TX02/0112Z TNM06/0106Z"
    },
    {
      "icao": "LYPG",
      "alert": "OK",
      "vis_m": 9999,
      "fzfg": false,
      "metar_trigger": false,
      "taf_trigger": false,
      "metar": "METAR LYPG 311200Z 35017G28KT CAVOK 05/M16 Q1017 NOSIG",
      "taf": "TAF LYPG 311100Z 3112/0112 36015G25KT CAVOK TX07/3112Z TNM05/0106Z"
    },
    {
      "icao": "LZIB",
      "alert": "OK",
      "vis_m": 9999,
      "fzfg": false,
      "metar_trigger": false,
      "taf_trigger": false,
      "metar": "METAR LZIB 311200Z 28015KT 9999 FEW040 01/M08 Q1018 NOSIG",
      "taf": "TAF LZIB 311115Z 3112/0112 29018KT 9999 FEW035"
    },
    {
      "icao": "LZKZ",
      "alert": "OK",
      "vis_m": 9999,
      "fzfg": false,
      "metar_trigger": false,
      "taf_trigger": false,
      "metar": "METAR LZKZ 311200Z 24006KT 200V290 CAVOK M01/M12 Q1012 NOSIG",
      "taf": "TAF LZKZ 311115Z 3112/0112 32006KT 9999 BKN025"
    },
    {
      "icao": "LZTT",
      "alert": "OK",
      "vis_m": 9999,
      "fzfg": false,
      "metar_trigger": false,
      "taf_trigger": false,
      "metar": "METAR LZTT 311200Z VRB07KT 9999 -SHSN FEW026 BKN050 M05/M10 Q1009 NOSIG",
      "taf": "TAF LZTT 311115Z 3112/0112 25006KT 9999 -SN SCT020 BKN040"
    },
    {
      "icao": "OEJN",
      "alert": "OK",
      "vis_m": 9999,
      "fzfg": false,
      "metar_trigger": false,
      "taf_trigger": false,
      "metar": "METAR OEJN 311200Z 29007KT CAVOK 29/02 Q1013 NOSIG",
      "taf": "TAF OEJN 311100Z 3112/0118 33010KT CAVOK"
    },
    {
      "icao": "OEMA",
      "alert": "OK",
      "vis_m": 9999,
      "fzfg": false,
      "metar_trigger": false,
      "taf_trigger": false,
      "metar": "METAR OEMA 311200Z 15004KT CAVOK 25/M05 Q1016 NOSIG",
      "taf": "TAF OEMA 311100Z 3112/0118 26008KT 7000 NSC"
    },
    {
      "icao": "OJAI",
      "alert": "OK",
      "vis_m": 7000,
      "fzfg": false,
      "metar_trigger": false,
      "taf_trigger": false,
      "metar": "METAR OJAI 311200Z 25020KT 7000 BKN025 13/06 Q1012 NOSIG",
      "taf": "TAF OJAI 311038Z 3112/0118 25014KT 5000 HZ SCT030"
    },
    {
      "icao": "OMAA",
      "alert": "OK",
      "vis_m": 9999,
      "fzfg": false,
      "metar_trigger": false,
      "taf_trigger": false,
      "metar": "METAR OMAA 311200Z 31014KT 9999 BKN045 20/09 Q1016 NOSIG",
      "taf": "TAF OMAA 311100Z 3112/0118 31014KT 8000 SCT040"
    },
    {
      "icao": "OMDB",
      "alert": "OK",
      "vis_m": 9999,
      "fzfg": false,
      "metar_trigger": false,
      "taf_trigger": false,
      "metar": "METAR OMDB 311200Z 31010KT 210V010 9999 BKN045 22/10 Q1016 NOSIG",
      "taf": "TAF OMDB 311100Z 3112/0118 30010KT 9999 BKN045"
    },
    {
      "icao": "UAAA",
      "alert": "OK",
      "vis_m": 4500,
      "fzfg": false,
      "metar_trigger": false,
      "taf_trigger": false,
      "metar": "METAR UAAA 311200Z 33003MPS 310V020 4500 FU SCT050 BKN100 05/01 Q1013 NOSIG",
      "taf": "TAF UAAA 311103Z 3112/0112 29003G08MPS 5000 BR FU BKN050CB OVC100 TX02/0109Z TNM01/0101Z"
    },
    {
      "icao": "UBBB",
      "alert": "OK",
      "vis_m": 9999,
      "fzfg": false,
      "metar_trigger": false,
      "taf_trigger": false,
      "metar": "METAR UBBB 311200Z 17024G34KT CAVOK 08/M03 Q1005 NOSIG",
      "taf": "TAF UBBB 311110Z 3112/0112 19022G32KT CAVOK TX10/3112Z TN04/0103Z"
    },
    {
      "icao": "UDSG",
      "alert": "OK",
      "vis_m": 4500,
      "fzfg": false,
      "metar_trigger": false,
      "taf_trigger": false,
      "metar": "METAR UDSG 311200Z 27004KT 4500 -SN BR OVC026 M07/M09 Q1008 NOSIG",
      "taf": "TAF UDSG 311058Z 3112/0112 VRB06KT 1500 BR OVC020"
    },
    {
      "icao": "UDYZ",
      "alert": "OK",
      "vis_m": 9999,
      "fzfg": false,
      "metar_trigger": false,
      "taf_trigger": false,
      "metar": "METAR UDYZ 311200Z 07004KT 040V130 9999 BKN046 M00/M08 Q1010 NOSIG",
      "taf": "TAF UDYZ 311100Z 3112/0112 VRB06KT 9999 SCT040"
    },
    {
      "icao": "UGKO",
      "alert": "OK",
      "vis_m": 9999,
      "fzfg": false,
      "metar_trigger": false,
      "taf_trigger": false,
      "metar": "METAR UGKO 311200Z 05010KT CAVOK 03/M00 Q1004 NOSIG",
      "taf": "TAF UGKO 311100Z 3112/0112 08007KT 9999 SCT020 OVC050 TX05/3112Z TNM00/0103Z"
    }
  ]
}