{
  "ts_utc": "2026-02-08T23:28:59Z",
  "threshold_m": 150,
  "source": "stations_override.txt (ICAO list) + aviationweather.gov (METAR/TAF raw)",
  "station_count": 159,
  "stations": [
    {
      "icao": "BIKF",
      "alert": "OK",
      "vis_m": 9999,
      "fzfg": false,
      "metar_trigger": false,
      "taf_trigger": false,
      "metar": "METAR BIKF 082300Z 04012KT CAVOK 01/M03 Q1009",
      "taf": "TAF BIKF 082300Z 0900/1000 07008KT 9999 FEW035 TX03/0915Z TNM01/0909Z"
    },
    {
      "icao": "BKPR",
      "alert": "OK",
      "vis_m": null,
      "fzfg": false,
      "metar_trigger": false,
      "taf_trigger": false,
      "metar": "",
      "taf": ""
    },
    {
      "icao": "EBCI",
      "alert": "OK",
      "vis_m": 9999,
      "fzfg": false,
      "metar_trigger": false,
      "taf_trigger": false,
      "metar": "METAR EBCI 082320Z 15006KT CAVOK 04/02 Q1007 NOSIG",
      "taf": "TAF EBCI 082316Z 0900/1006 16006KT 8000 FEW004"
    },
    {
      "icao": "EDDB",
      "alert": "OK",
      "vis_m": 5000,
      "fzfg": false,
      "metar_trigger": false,
      "taf_trigger": false,
      "metar": "METAR EDDB 082320Z AUTO 09008KT 5000 BR BKN007 M00/M01 Q1014 TEMPO 4000 -SN",
      "taf": "TAF EDDB 081700Z 0818/0918 07007KT 7000 BKN007"
    },
    {
      "icao": "EDDH",
      "alert": "OK",
      "vis_m": 9999,
      "fzfg": false,
      "metar_trigger": false,
      "taf_trigger": false,
      "metar": "METAR EDDH 082320Z AUTO 10005KT 9999 BKN012 OVC016 00/M01 Q1013 BECMG BKN009",
      "taf": "TAF EDDH 082300Z 0900/1006 11008KT 9999 BKN013"
    },
    {
      "icao": "EDDK",
      "alert": "OK",
      "vis_m": 9999,
      "fzfg": false,
      "metar_trigger": false,
      "taf_trigger": false,
      "metar": "METAR EDDK 082320Z AUTO 08006KT CAVOK 02/02 Q1009 NOSIG",
      "taf": "TAF EDDK 082300Z 0900/1006 11005KT 9999 FEW025"
    },
    {
      "icao": "EDDN",
      "alert": "OK",
      "vis_m": 9999,
      "fzfg": false,
      "metar_trigger": false,
      "taf_trigger": false,
      "metar": "METAR EDDN 082320Z AUTO VRB01KT 9999 BKN010 OVC032 02/01 Q1009",
      "taf": "TAF EDDN 082300Z 0900/0924 11004KT 9000 SCT010 BKN030"
    },
    {
      "icao": "EDDS",
      "alert": "OK",
      "vis_m": 9999,
      "fzfg": false,
      "metar_trigger": false,
      "taf_trigger": false,
      "metar": "METAR EDDS 082320Z AUTO 32002KT 9999 OVC025 03/02 Q1007",
      "taf": "TAF EDDS 082300Z 0900/0924 VRB03KT 9999 BKN020"
    },
    {
      "icao": "EDFH",
      "alert": "OK",
      "vis_m": 9999,
      "fzfg": false,
      "metar_trigger": false,
      "taf_trigger": false,
      "metar": "METAR EDFH 082320Z 14007KT 9999 BKN004 02/01 Q1008",
      "taf": "TAF EDFH 082300Z 0900/0924 13010KT 8000 BKN005"
    },
    {
      "icao": "EDJA",
      "alert": "OK",
      "vis_m": 9999,
      "fzfg": false,
      "metar_trigger": false,
      "taf_trigger": false,
      "metar": "METAR EDJA 082320Z AUTO 03004KT 9999 // OVC015/// 02/01 Q1007",
      "taf": ""
    },
    {
      "icao": "EDLW",
      "alert": "OK",
      "vis_m": 9999,
      "fzfg": false,
      "metar_trigger": false,
      "taf_trigger": false,
      "metar": "METAR EDLW 082320Z AUTO VRB02KT 9999 // NCD 00/M00 Q1009",
      "taf": "TAF EDLW 081700Z 0818/0918 07004KT CAVOK"
    },
    {
      "icao": "EDNY",
      "alert": "OK",
      "vis_m": 9999,
      "fzfg": false,
      "metar_trigger": false,
      "taf_trigger": false,
      "metar": "METAR EDNY 082320Z AUTO 05003KT 9999 // OVC023/// 05/03 Q1007",
      "taf": "TAF EDNY 081700Z 0818/0903 VRB03KT CAVOK"
    },
    {
      "icao": "EDSB",
      "alert": "OK",
      "vis_m": 2300,
      "fzfg": false,
      "metar_trigger": false,
      "taf_trigger": false,
      "metar": "METAR EDSB 082320Z AUTO VRB02KT 2300 FEW003/// OVC007/// 00/00 Q1009",
      "taf": "TAF EDSB 082300Z 0900/0924 VRB03KT 1200 BR FEW002 BKN005"
    },
    {
      "icao": "EETN",
      "alert": "OK",
      "vis_m": 9999,
      "fzfg": false,
      "metar_trigger": false,
      "taf_trigger": false,
      "metar": "METAR EETN 082320Z 21005KT 9999 OVC008 M10/M11 Q1022",
      "taf": "TAF EETN 081730Z 0818/0918 28004KT 9999 OVC004"
    },
    {
      "icao": "EFTU",
      "alert": "OK",
      "vis_m": 9999,
      "fzfg": false,
      "metar_trigger": false,
      "taf_trigger": false,
      "metar": "METAR EFTU 082320Z AUTO 24008KT 9999 OVC019 M06/M08 Q1020",
      "taf": "TAF EFTU 082036Z 0821/0921 24009KT 9999 BKN012"
    },
    {
      "icao": "EGBB",
      "alert": "OK",
      "vis_m": 9999,
      "fzfg": false,
      "metar_trigger": false,
      "taf_trigger": false,
      "metar": "METAR EGBB 082320Z 15009KT 9999 BKN007 07/06 Q1002",
      "taf": "TAF EGBB 082259Z 0900/0924 15008KT 9999 FEW010 SCT030"
    },
    {
      "icao": "EGGP",
      "alert": "OK",
      "vis_m": 9000,
      "fzfg": false,
      "metar_trigger": false,
      "taf_trigger": false,
      "metar": "METAR EGGP 082320Z 12007KT 9000 -RA FEW010 BKN020 06/05 Q1000",
      "taf": "TAF EGGP 082256Z 0900/0924 15008KT 9999 SCT025"
    },
    {
      "icao": "EGGW",
      "alert": "OK",
      "vis_m": 5000,
      "fzfg": false,
      "metar_trigger": false,
      "taf_trigger": false,
      "metar": "METAR EGGW 082320Z AUTO 17006KT 5000 -DZ OVC003 07/07 Q1003",
      "taf": ""
    },
    {
      "icao": "EGKK",
      "alert": "OK",
      "vis_m": 9999,
      "fzfg": false,
      "metar_trigger": false,
      "taf_trigger": false,
      "metar": "METAR EGKK 082320Z 13005KT CAVOK 08/08 Q1004",
      "taf": "TAF EGKK 082259Z 0900/1006 14006KT 9999 SCT015"
    },
    {
      "icao": "EGNM",
      "alert": "OK",
      "vis_m": 6000,
      "fzfg": false,
      "metar_trigger": false,
      "taf_trigger": false,
      "metar": "METAR EGNM 082250Z 14009KT 6000 -RADZ BKN002 OVC003 06/06 Q1001",
      "taf": "TAF EGNM 082255Z 0900/0924 16005KT 9999 SCT003"
    },
    {
      "icao": "EGPD",
      "alert": "OK",
      "vis_m": 5000,
      "fzfg": false,
      "metar_trigger": false,
      "taf_trigger": false,
      "metar": "METAR EGPD 082320Z AUTO 16014KT 5000 BR OVC003 07/07 Q1002 TEMPO 4000 BKN002",
      "taf": "TAF EGPD 082257Z 0900/0924 15009KT 9999 SCT002 BKN006"
    },
    {
      "icao": "EGPF",
      "alert": "OK",
      "vis_m": 9999,
      "fzfg": false,
      "metar_trigger": false,
      "taf_trigger": false,
      "metar": "METAR EGPF 082320Z AUTO 06005KT 9999 -RA OVC034 06/05 Q1000",
      "taf": "TAF EGPF 082259Z 0900/0924 07005KT 9999 SCT030"
    },
    {
      "icao": "EHBK",
      "alert": "OK",
      "vis_m": 9999,
      "fzfg": false,
      "metar_trigger": false,
      "taf_trigger": false,
      "metar": "METAR EHBK 082325Z AUTO 12003KT 9999 NSC 02/02 Q1008",
      "taf": "TAF EHBK 082317Z 0900/1006 11005KT CAVOK"
    },
    {
      "icao": "EHEH",
      "alert": "OK",
      "vis_m": 6000,
      "fzfg": false,
      "metar_trigger": false,
      "taf_trigger": false,
      "metar": "METAR EHEH 082325Z AUTO 09005KT 6000 BR OVC280 03/02 Q1008 WHT",
      "taf": "TAF EHEH 082323Z 0900/1006 08005KT 6000 NSC"
    },
    {
      "icao": "EKBI",
      "alert": "OK",
      "vis_m": 9999,
      "fzfg": false,
      "metar_trigger": false,
      "taf_trigger": false,
      "metar": "METAR EKBI 082320Z AUTO 09013KT 9999 OVC008/// M00/M02 Q1015",
      "taf": "TAF EKBI 082027Z 0821/0921 10011KT 9999 BKN008"
    },
    {
      "icao": "EKCH",
      "alert": "OK",
      "vis_m": 9999,
      "fzfg": false,
      "metar_trigger": false,
      "taf_trigger": false,
      "metar": "METAR EKCH 082320Z AUTO 09011KT 9999 OVC015/// M00/M03 Q1018 TEMPO BKN012",
      "taf": "TAF EKCH 082027Z 0821/0921 09013KT 9999 BKN016"
    },
    {
      "icao": "ENAL",
      "alert": "OK",
      "vis_m": 9999,
      "fzfg": false,
      "metar_trigger": false,
      "taf_trigger": false,
      "metar": "METAR ENAL 082320Z AUTO 14010KT 9999 NCD 02/M07 Q1014",
      "taf": "TAF ENAL 082000Z 0821/0906 15008KT CAVOK"
    },
    {
      "icao": "ENBR",
      "alert": "OK",
      "vis_m": 9999,
      "fzfg": false,
      "metar_trigger": false,
      "taf_trigger": false,
      "metar": "METAR ENBR 082320Z 09003KT CAVOK M01/M08 Q1015 RMK WIND 1200FT 15010KT",
      "taf": "TAF ENBR 081700Z 0818/0918 VRB03KT CAVOK"
    },
    {
      "icao": "ENGM",
      "alert": "OK",
      "vis_m": 9999,
      "fzfg": false,
      "metar_trigger": false,
      "taf_trigger": false,
      "metar": "METAR ENGM 082320Z 19001KT 9999 -SN OVC022 M09/M11 Q1020",
      "taf": ""
    },
    {
      "icao": "ENHD",
      "alert": "OK",
      "vis_m": 9999,
      "fzfg": false,
      "metar_trigger": false,
      "taf_trigger": false,
      "metar": "METAR ENHD 082220Z 11016KT CAVOK 00/M09 Q1015",
      "taf": "TAF ENHD 081400Z 0815/0823 12012KT CAVOK"
    },
    {
      "icao": "ENTC",
      "alert": "OK",
      "vis_m": 8000,
      "fzfg": false,
      "metar_trigger": false,
      "taf_trigger": false,
      "metar": "METAR ENTC 082320Z 19010KT 8000 -SN BKN023 M02/M05 Q1011 RMK WIND 2600FT 31012KT",
      "taf": "TAF ENTC 081700Z 0818/0918 20012KT 9999 FEW030 BKN035"
    },
    {
      "icao": "ENTO",
      "alert": "OK",
      "vis_m": 9999,
      "fzfg": false,
      "metar_trigger": false,
      "taf_trigger": false,
      "metar": "METAR ENTO 082320Z AUTO 01008KT 9999 OVC025/// M08/M10 Q1021",
      "taf": "TAF ENTO 081700Z 0818/0918 01010KT 9999 BKN020"
    },
    {
      "icao": "ENVA",
      "alert": "OK",
      "vis_m": 9999,
      "fzfg": false,
      "metar_trigger": false,
      "taf_trigger": false,
      "metar": "METAR ENVA 082320Z 10003KT CAVOK M09/M14 Q1016 RMK WIND 670FT 15008KT",
      "taf": "TAF ENVA 081700Z 0818/0918 10005KT CAVOK"
    },
    {
      "icao": "ENZV",
      "alert": "OK",
      "vis_m": 9999,
      "fzfg": false,
      "metar_trigger": false,
      "taf_trigger": false,
      "metar": "METAR ENZV 082320Z 12011KT CAVOK 00/M06 Q1015",
      "taf": "TAF ENZV 081700Z 0818/0918 14010KT CAVOK"
    },
    {
      "icao": "EPGD",
      "alert": "OK",
      "vis_m": 3200,
      "fzfg": false,
      "metar_trigger": false,
      "taf_trigger": false,
      "metar": "METAR EPGD 082300Z 10009KT 3200 BR OVC002 M09/M10 Q1019",
      "taf": "TAF EPGD 081730Z 0818/0918 09008KT 9999 OVC003"
    },
    {
      "icao": "EPKK",
      "alert": "OK",
      "vis_m": 9000,
      "fzfg": false,
      "metar_trigger": false,
      "taf_trigger": false,
      "metar": "METAR EPKK 082300Z 07011KT 9000 -SN OVC007 M02/M04 Q1013",
      "taf": "TAF EPKK 082030Z 0821/0921 06010KT 7000 BKN006"
    },
    {
      "icao": "EPKT",
      "alert": "OK",
      "vis_m": 6000,
      "fzfg": false,
      "metar_trigger": false,
      "taf_trigger": false,
      "metar": "METAR EPKT 082300Z 07009KT 6000 -SN OVC006 M02/M04 Q1012",
      "taf": ""
    },
    {
      "icao": "EPLB",
      "alert": "OK",
      "vis_m": 9999,
      "fzfg": false,
      "metar_trigger": false,
      "taf_trigger": false,
      "metar": "METAR EPLB 082300Z 08011KT 9999 OVC009 M04/M05 Q1017",
      "taf": "TAF EPLB 081730Z 0818/0918 06008KT 5000 -SN BR BKN025"
    },
    {
      "icao": "EPMO",
      "alert": "OK",
      "vis_m": 9999,
      "fzfg": false,
      "metar_trigger": false,
      "taf_trigger": false,
      "metar": "METAR EPMO 082300Z 07011KT 9999 BKN011 M03/M04 Q1017",
      "taf": "TAF EPMO 081730Z 0818/0918 06010KT 9999 BKN015"
    },
    {
      "icao": "EPPO",
      "alert": "OK",
      "vis_m": 9999,
      "fzfg": false,
      "metar_trigger": false,
      "taf_trigger": false,
      "metar": "METAR EPPO 082300Z 09011KT 9999 -SN BKN010 M02/M04 Q1015",
      "taf": ""
    },
    {
      "icao": "EPRA",
      "alert": "OK",
      "vis_m": 9999,
      "fzfg": false,
      "metar_trigger": false,
      "taf_trigger": false,
      "metar": "METAR EPRA 082300Z 12009KT 9999 OVC012 M03/M06 Q1016",
      "taf": "TAF EPRA 082030Z 0821/0906 08010KT 9999 BKN026"
    },
    {
      "icao": "EPRZ",
      "alert": "OK",
      "vis_m": 9000,
      "fzfg": false,
      "metar_trigger": false,
      "taf_trigger": false,
      "metar": "METAR EPRZ 082300Z 07012KT 9000 -SN OVC010 M03/M05 Q1015",
      "taf": "TAF EPRZ 081730Z 0818/0918 06010KT 7000 -SN SCT008 OVC016"
    },
    {
      "icao": "EPSC",
      "alert": "OK",
      "vis_m": 9999,
      "fzfg": false,
      "metar_trigger": false,
      "taf_trigger": false,
      "metar": "METAR EPSC 082300Z 10007KT 9999 -SN OVC013 M00/M03 Q1016",
      "taf": "TAF EPSC 081730Z 0818/0918 08008KT 9999 SCT017 BKN025"
    },
    {
      "icao": "EPSY",
      "alert": "OK",
      "vis_m": 9999,
      "fzfg": false,
      "metar_trigger": false,
      "taf_trigger": false,
      "metar": "METAR EPSY 082300Z VRB02KT CAVOK M13/M14 Q1019",
      "taf": "TAF EPSY 082030Z 0821/0906 04006KT CAVOK"
    },
    {
      "icao": "EPWA",
      "alert": "OK",
      "vis_m": 9999,
      "fzfg": false,
      "metar_trigger": false,
      "taf_trigger": false,
      "metar": "METAR EPWA 082300Z 10012KT 9999 OVC013 M03/M05 Q1017 NOSIG",
      "taf": "TAF EPWA 082030Z 0821/0921 08008KT 9999 BKN014"
    },
    {
      "icao": "EPWR",
      "alert": "OK",
      "vis_m": 5000,
      "fzfg": false,
      "metar_trigger": false,
      "taf_trigger": false,
      "metar": "METAR EPWR 082300Z 07006KT 5000 BR OVC007 00/M01 Q1013",
      "taf": ""
    },
    {
      "icao": "ESGG",
      "alert": "OK",
      "vis_m": 9999,
      "fzfg": false,
      "metar_trigger": false,
      "taf_trigger": false,
      "metar": "METAR ESGG 082320Z 12010KT CAVOK M07/M09 Q1018",
      "taf": "TAF ESGG 082030Z 0821/0921 11008KT CAVOK"
    },
    {
      "icao": "ESKN",
      "alert": "OK",
      "vis_m": 9999,
      "fzfg": false,
      "metar_trigger": false,
      "taf_trigger": false,
      "metar": "METAR ESKN 082320Z 30004KT 280V340 9999 OVC024 M10/M10 Q1022",
      "taf": "TAF ESKN 082030Z 0821/0921 02004KT 9999 BKN020"
    },
    {
      "icao": "ESMS",
      "alert": "OK",
      "vis_m": 9999,
      "fzfg": false,
      "metar_trigger": false,
      "taf_trigger": false,
      "metar": "METAR ESMS 082320Z 10015KT 9999 OVC016 M01/M04 Q1017",
      "taf": ""
    },
    {
      "icao": "ESSA",
      "alert": "OK",
      "vis_m": 200,
      "fzfg": false,
      "metar_trigger": false,
      "taf_trigger": false,
      "metar": "METAR ESSA 082320Z 26004KT 0200 R01L/1400N R19R/1200D R01R/1500D R19L/0800N OVC002 M10/M12 Q1022 TEMPO 0500 FEW002 OVC008",
      "taf": ""
    },
    {
      "icao": "EYKA",
      "alert": "OK",
      "vis_m": 9999,
      "fzfg": false,
      "metar_trigger": false,
      "taf_trigger": false,
      "metar": "METAR EYKA 082320Z AUTO 06002KT 9999 NCD M19/M21 Q1023",
      "taf": "TAF EYKA 082300Z 0900/0924 VRB04KT 9000 NSC"
    },
    {
      "icao": "EYPA",
      "alert": "OK",
      "vis_m": 9999,
      "fzfg": false,
      "metar_trigger": false,
      "taf_trigger": false,
      "metar": "METAR EYPA 082320Z AUTO 10003KT 9999 NCD M13/M15 Q1023",
      "taf": "TAF EYPA 082300Z 0900/0924 VRB04KT 9000 NSC"
    },
    {
      "icao": "EYVI",
      "alert": "OK",
      "vis_m": 9999,
      "fzfg": false,
      "metar_trigger": false,
      "taf_trigger": false,
      "metar": "METAR EYVI 082320Z VRB02KT 9999 BKN006 M14/M16 Q1021 NOSIG",
      "taf": "TAF EYVI 082300Z 0900/0924 VRB04KT 9000 BKN010"
    },
    {
      "icao": "GCFV",
      "alert": "OK",
      "vis_m": 9999,
      "fzfg": false,
      "metar_trigger": false,
      "taf_trigger": false,
      "metar": "METAR GCFV 082300Z 33009KT 9999 SCT040 18/13 Q1025",
      "taf": "TAF GCFV 082000Z 0821/0921 33005KT 9999 SCT030 TX22/0914Z TN16/0906Z"
    },
    {
      "icao": "GCLP",
      "alert": "OK",
      "vis_m": 9999,
      "fzfg": false,
      "metar_trigger": false,
      "taf_trigger": false,
      "metar": "METAR GCLP 082300Z 01005KT 330V060 9999 FEW030 17/11 Q1026 NOSIG",
      "taf": "TAF GCLP 082000Z 0821/0921 33008KT 9999 SCT035 TX22/0914Z TN16/0906Z"
    },
    {
      "icao": "GCTS",
      "alert": "OK",
      "vis_m": 9999,
      "fzfg": false,
      "metar_trigger": false,
      "taf_trigger": false,
      "metar": "METAR GCTS 082300Z 01006KT 9999 FEW035 16/11 Q1026 NOSIG",
      "taf": "TAF GCTS 082000Z 0821/0921 VRB05KT 9999 BKN030 TX22/0914Z TN14/0906Z"
    },
    {
      "icao": "GMAD",
      "alert": "OK",
      "vis_m": 8000,
      "fzfg": false,
      "metar_trigger": false,
      "taf_trigger": false,
      "metar": "METAR GMAD 082300Z 21005KT 8000 FEW020 15/13 Q1021 NOSIG",
      "taf": "TAF GMAD 082300Z 0900/1006 22004KT 6000 SCT016"
    },
    {
      "icao": "GMMN",
      "alert": "OK",
      "vis_m": 9999,
      "fzfg": false,
      "metar_trigger": false,
      "taf_trigger": false,
      "metar": "METAR GMMN 082300Z 22008KT 9999 BKN023 14/12 Q1022 NOSIG",
      "taf": "TAF GMMN 082300Z 0900/1006 22014KT 9999 BKN020"
    },
    {
      "icao": "GMMX",
      "alert": "OK",
      "vis_m": 9999,
      "fzfg": false,
      "metar_trigger": false,
      "taf_trigger": false,
      "metar": "METAR GMMX 082300Z 26004KT 230V290 9999 SCT030 SCT090 12/10 Q1023 NOSIG",
      "taf": "TAF GMMX 082300Z 0900/1006 22006KT 8000 SCT020 SCT080"
    },
    {
      "icao": "HEGN",
      "alert": "OK",
      "vis_m": 9999,
      "fzfg": false,
      "metar_trigger": false,
      "taf_trigger": false,
      "metar": "METAR HEGN 082300Z 00000KT CAVOK 18/04 Q1013 NOSIG",
      "taf": "TAF HEGN 082300Z 0900/1006 29008KT CAVOK"
    },
    {
      "icao": "HEMA",
      "alert": "OK",
      "vis_m": 9999,
      "fzfg": false,
      "metar_trigger": false,
      "taf_trigger": false,
      "metar": "METAR HEMA 082300Z 23009KT CAVOK 19/M00 Q1014 NOSIG",
      "taf": "TAF HEMA 082300Z 0900/1006 25008KT CAVOK"
    },
    {
      "icao": "HESH",
      "alert": "OK",
      "vis_m": 9999,
      "fzfg": false,
      "metar_trigger": false,
      "taf_trigger": false,
      "metar": "METAR HESH 082300Z 00000KT CAVOK 19/17 Q1015 NOSIG",
      "taf": "TAF HESH 082300Z 0900/1006 30008KT CAVOK"
    },
    {
      "icao": "HESX",
      "alert": "OK",
      "vis_m": 9999,
      "fzfg": false,
      "metar_trigger": false,
      "taf_trigger": false,
      "metar": "METAR HESX 082300Z 25011KT CAVOK 21/06 Q1010 NOSIG",
      "taf": "TAF HESX 082300Z 0900/1006 25009KT CAVOK"
    },
    {
      "icao": "LATI",
      "alert": "OK",
      "vis_m": 8000,
      "fzfg": false,
      "metar_trigger": false,
      "taf_trigger": false,
      "metar": "METAR LATI 082320Z 16004KT 8000 SCT076 08/06 Q1009 NOSIG",
      "taf": "TAF LATI 082300Z 0900/0924 VRB05KT 9999 FEW040 BKN100 TX13/0912Z TN08/0905Z"
    },
    {
      "icao": "LBPD",
      "alert": "OK",
      "vis_m": 9999,
      "fzfg": false,
      "metar_trigger": false,
      "taf_trigger": false,
      "metar": "METAR LBPD 082300Z AUTO 00000KT 9999 BKN086/// 06/05 Q1009",
      "taf": "TAF LBPD 082300Z 0900/0924 VRB03KT 5000 BR BKN015"
    },
    {
      "icao": "LBSF",
      "alert": "OK",
      "vis_m": 9999,
      "fzfg": false,
      "metar_trigger": false,
      "taf_trigger": false,
      "metar": "METAR LBSF 082300Z AUTO VRB02KT 9999 NCD 01/00 Q1009 NOSIG",
      "taf": "TAF LBSF 082300Z 0900/0924 VRB03KT 5000 BR BKN015"
    },
    {
      "icao": "LBWN",
      "alert": "OK",
      "vis_m": 1100,
      "fzfg": false,
      "metar_trigger": false,
      "taf_trigger": false,
      "metar": "METAR LBWN 082300Z AUTO 13004KT 1100 1000E R09/P2000N BR SCT002/// OVC004/// 06/06 Q1010 TEMPO 1200 BR OVC002",
      "taf": "TAF LBWN 082300Z 0900/0924 VRB03KT 3000 BR BKN002 OVC025"
    },
    {
      "icao": "LCLK",
      "alert": "OK",
      "vis_m": 9999,
      "fzfg": false,
      "metar_trigger": false,
      "taf_trigger": false,
      "metar": "METAR LCLK 082300Z 33006KT CAVOK 11/11 Q1007 NOSIG",
      "taf": "TAF LCLK 081730Z 0818/0918 29006KT CAVOK"
    },
    {
      "icao": "LCPH",
      "alert": "OK",
      "vis_m": 9999,
      "fzfg": false,
      "metar_trigger": false,
      "taf_trigger": false,
      "metar": "METAR LCPH 082300Z 01005KT 9999 BKN012 16/14 Q1008 NOSIG",
      "taf": "TAF LCPH 081730Z 0818/0918 01006KT 9999 FEW012"
    },
    {
      "icao": "LEAL",
      "alert": "OK",
      "vis_m": 9999,
      "fzfg": false,
      "metar_trigger": false,
      "taf_trigger": false,
      "metar": "METAR LEAL 082300Z 27009KT 9999 FEW013 11/03 Q1013 NOSIG",
      "taf": "TAF LEAL 082300Z 0900/0924 26005KT 9999 FEW040 TX21/0914Z TN06/0906Z"
    },
    {
      "icao": "LEBB",
      "alert": "OK",
      "vis_m": 9999,
      "fzfg": false,
      "metar_trigger": false,
      "taf_trigger": false,
      "metar": "METAR LEBB 082300Z AUTO 10007KT 070V130 CAVOK 09/06 Q1007",
      "taf": "TAF LEBB 082300Z 0900/0924 20008KT 9999 FEW040 SCT060 TX16/0913Z TN09/0900Z"
    },
    {
      "icao": "LEBL",
      "alert": "OK",
      "vis_m": 9999,
      "fzfg": false,
      "metar_trigger": false,
      "taf_trigger": false,
      "metar": "METAR LEBL 082300Z 07005KT 9999 FEW035 11/08 Q1008 NOSIG",
      "taf": "TAF LEBL 082300Z 0900/0924 34009KT 9999 FEW025 TX14/0913Z TN07/0906Z"
    },
    {
      "icao": "LECH",
      "alert": "OK",
      "vis_m": 9999,
      "fzfg": false,
      "metar_trigger": false,
      "taf_trigger": false,
      "metar": "METAR LECH 082300Z AUTO 22007KT 180V240 CAVOK 09/M01 Q1009",
      "taf": ""
    },
    {
      "icao": "LEMD",
      "alert": "OK",
      "vis_m": 9999,
      "fzfg": false,
      "metar_trigger": false,
      "taf_trigger": false,
      "metar": "METAR LEMD 082300Z 22010KT 180V260 9999 FEW025 BKN070 07/04 Q1011 NOSIG",
      "taf": ""
    },
    {
      "icao": "LEMG",
      "alert": "OK",
      "vis_m": 9999,
      "fzfg": false,
      "metar_trigger": false,
      "taf_trigger": false,
      "metar": "METAR LEMG 082300Z 00000KT 9999 FEW030 SCT050 BKN080 12/08 Q1016 TEMPO 3000 RA BKN008",
      "taf": "TAF LEMG 082300Z 0900/0924 VRB03KT 9999 FEW040 TX22/0914Z TN13/0907Z"
    },
    {
      "icao": "LEVC",
      "alert": "OK",
      "vis_m": 9999,
      "fzfg": false,
      "metar_trigger": false,
      "taf_trigger": false,
      "metar": "METAR LEVC 082300Z 26006KT CAVOK 12/02 Q1011 NOSIG",
      "taf": "TAF LEVC 082300Z 0900/0924 25006KT 9999 FEW040 TX20/0914Z TN07/0906Z"
    },
    {
      "icao": "LEXJ",
      "alert": "OK",
      "vis_m": 9999,
      "fzfg": false,
      "metar_trigger": false,
      "taf_trigger": false,
      "metar": "METAR LEXJ 082300Z AUTO 36002KT CAVOK 11/05 Q1006",
      "taf": "TAF LEXJ 082000Z 0821/0921 19009KT 9999 SCT060 TX15/0913Z TN09/0821Z"
    },
    {
      "icao": "LEZG",
      "alert": "OK",
      "vis_m": 9999,
      "fzfg": false,
      "metar_trigger": false,
      "taf_trigger": false,
      "metar": "METAR LEZG 082300Z 19001KT CAVOK 06/04 Q1009 NOSIG",
      "taf": "TAF LEZG 082300Z 0900/0924 23010KT 9999 FEW020 TX16/0915Z TN05/0906Z"
    },
    {
      "icao": "LEZL",
      "alert": "OK",
      "vis_m": 3000,
      "fzfg": false,
      "metar_trigger": false,
      "taf_trigger": false,
      "metar": "SPECI LEZL 082312Z VRB02KT 3000 +RA BKN003 13/13 Q1015 NOSIG",
      "taf": ""
    },
    {
      "icao": "LFBD",
      "alert": "OK",
      "vis_m": 9999,
      "fzfg": false,
      "metar_trigger": false,
      "taf_trigger": false,
      "metar": "METAR LFBD 082300Z AUTO 20004KT CAVOK 09/08 Q1007 TEMPO 4000 BR",
      "taf": "TAF LFBD 081700Z 0818/0924 27008KT 9999 BKN040 TX12/0917Z TN06/0902Z"
    },
    {
      "icao": "LFLL",
      "alert": "OK",
      "vis_m": 4400,
      "fzfg": false,
      "metar_trigger": false,
      "taf_trigger": false,
      "metar": "METAR LFLL 082300Z 14004KT 080V220 4400 0550N R35L/P2000 R17R/0650D R35R/P2000 R17L/P2000 BCFG BR NSC 04/04 Q1007 NOSIG",
      "taf": ""
    },
    {
      "icao": "LFLS",
      "alert": "OK",
      "vis_m": 9999,
      "fzfg": false,
      "metar_trigger": false,
      "taf_trigger": false,
      "metar": "METAR LFLS 082300Z AUTO 10005KT CAVOK 00/M00 Q1006",
      "taf": "TAF LFLS 081400Z 0815/0915 02008KT CAVOK"
    },
    {
      "icao": "LFMN",
      "alert": "OK",
      "vis_m": 9999,
      "fzfg": false,
      "metar_trigger": false,
      "taf_trigger": false,
      "metar": "METAR LFMN 082300Z 07014KT 9999 FEW025 BKN093 12/08 Q1005 NOSIG",
      "taf": "TAF LFMN 082000Z 0821/1003 07012KT 9999 BKN050"
    },
    {
      "icao": "LFOB",
      "alert": "OK",
      "vis_m": 7000,
      "fzfg": false,
      "metar_trigger": false,
      "taf_trigger": false,
      "metar": "METAR LFOB 082300Z AUTO 12002KT 7000 NSC 03/03 Q1006 TEMPO 0600 FG VV///",
      "taf": "TAF LFOB 081700Z 0818/0918 13005KT CAVOK"
    },
    {
      "icao": "LFPO",
      "alert": "OK",
      "vis_m": 9999,
      "fzfg": false,
      "metar_trigger": false,
      "taf_trigger": false,
      "metar": "METAR LFPO 082300Z 00000KT CAVOK 07/05 Q1006 NOSIG",
      "taf": "TAF LFPO 081700Z 0818/0924 08004KT CAVOK"
    },
    {
      "icao": "LFSB",
      "alert": "OK",
      "vis_m": 5000,
      "fzfg": false,
      "metar_trigger": false,
      "taf_trigger": false,
      "metar": "METAR LFSB 082300Z AUTO 32003KT 5000 1100 R15/P2000 R33/P2000 BR VV/// 02/02 Q1008 TEMPO 0300 FG",
      "taf": "TAF LFSB 081700Z 0818/0918 33005KT 3000 BR OVC003"
    },
    {
      "icao": "LGAV",
      "alert": "OK",
      "vis_m": 9999,
      "fzfg": false,
      "metar_trigger": false,
      "taf_trigger": false,
      "metar": "METAR LGAV 082320Z 29005KT 9999 FEW020 07/05 Q1009 NOSIG",
      "taf": "TAF LGAV 082300Z 0900/0924 27006KT 9999 FEW020"
    },
    {
      "icao": "LGTS",
      "alert": "OK",
      "vis_m": 9999,
      "fzfg": false,
      "metar_trigger": false,
      "taf_trigger": false,
      "metar": "METAR LGTS 082320Z VRB01KT 9999 FEW025 08/07 Q1009 NOSIG",
      "taf": "TAF LGTS 082300Z 0900/0924 VRB03KT 9999 FEW010 BKN025"
    },
    {
      "icao": "LHBP",
      "alert": "OK",
      "vis_m": 6000,
      "fzfg": false,
      "metar_trigger": false,
      "taf_trigger": false,
      "metar": "METAR LHBP 082300Z 06004KT 010V100 6000 OVC006 05/04 Q1010 TEMPO 4000 BR OVC004",
      "taf": "TAF LHBP 082315Z 0900/0924 03003KT 6000 SCT005 BKN025"
    },
    {
      "icao": "LHDC",
      "alert": "OK",
      "vis_m": 9999,
      "fzfg": false,
      "metar_trigger": false,
      "taf_trigger": false,
      "metar": "METAR LHDC 082245Z AUTO 03007KT 9999 -RA OVC019 04/03 Q1010",
      "taf": "TAF LHDC 081715Z 0818/0903 VRB03KT 4000 BR OVC030"
    },
    {
      "icao": "LIBD",
      "alert": "OK",
      "vis_m": 9999,
      "fzfg": false,
      "metar_trigger": false,
      "taf_trigger": false,
      "metar": "METAR LIBD 082320Z 17005KT 140V200 9999 -RA BKN045 10/09 Q1007",
      "taf": "TAF LIBD 082300Z 0900/0924 VRB05KT 9999 SCT040"
    },
    {
      "icao": "LIBG",
      "alert": "OK",
      "vis_m": null,
      "fzfg": false,
      "metar_trigger": false,
      "taf_trigger": false,
      "metar": "",
      "taf": "TAF LIBG 081700Z 0818/0903 VRB05KT 9999 SCT040"
    },
    {
      "icao": "LIBP",
      "alert": "OK",
      "vis_m": 5000,
      "fzfg": false,
      "metar_trigger": false,
      "taf_trigger": false,
      "metar": "METAR LIBP 082320Z AUTO VRB02KT 5000 -RA FEW014/// BKN031/// OVC040/// 10/10 Q1007",
      "taf": "TAF LIBP 082300Z 0900/0924 VRB05KT 8000 BKN020"
    },
    {
      "icao": "LIBR",
      "alert": "OK",
      "vis_m": 9999,
      "fzfg": false,
      "metar_trigger": false,
      "taf_trigger": false,
      "metar": "METAR LIBR 082320Z 19005KT CAVOK 13/10 Q1008",
      "taf": "TAF LIBR 082300Z 0900/0924 15010KT 9999 SCT040"
    },
    {
      "icao": "LICA",
      "alert": "OK",
      "vis_m": 9999,
      "fzfg": false,
      "metar_trigger": false,
      "taf_trigger": false,
      "metar": "METAR LICA 082320Z AUTO 08003KT 9999 OVC084/// 11/09 Q1008",
      "taf": "TAF LICA 082300Z 0900/0924 07006KT 9999 FEW020 SCT080"
    },
    {
      "icao": "LICC",
      "alert": "OK",
      "vis_m": 9999,
      "fzfg": false,
      "metar_trigger": false,
      "taf_trigger": false,
      "metar": "METAR LICC 082320Z 28005KT 260V320 9999 BKN070 12/08 Q1008",
      "taf": "TAF LICC 082300Z 0900/0924 VRB06KT 9999 SCT030 SCT080"
    },
    {
      "icao": "LICJ",
      "alert": "OK",
      "vis_m": 9999,
      "fzfg": false,
      "metar_trigger": false,
      "taf_trigger": false,
      "metar": "METAR LICJ 082320Z 18010KT 9999 -RA SCT030 SCT060 12/09 Q1006 RERA",
      "taf": "TAF LICJ 082300Z 0900/0924 20015KT 9999 FEW020 SCT040"
    },
    {
      "icao": "LIMC",
      "alert": "OK",
      "vis_m": 3000,
      "fzfg": false,
      "metar_trigger": false,
      "taf_trigger": false,
      "metar": "METAR LIMC 082320Z 03002KT 3000 R35R/1200U R17L/0750D R35L/P2000N BCFG BKN090 07/07 Q1007 NOSIG",
      "taf": "TAF LIMC 082300Z 0900/1006 VRB04KT 4000 BR BKN040"
    },
    {
      "icao": "LIME",
      "alert": "OK",
      "vis_m": 3500,
      "fzfg": false,
      "metar_trigger": false,
      "taf_trigger": false,
      "metar": "METAR LIME 082320Z 34003KT 3500 BR SCT070 07/07 Q1007 NOSIG",
      "taf": "TAF LIME 082300Z 0900/0924 VRB04KT 3000 BR BKN040"
    },
    {
      "icao": "LIMF",
      "alert": "OK",
      "vis_m": 5000,
      "fzfg": false,
      "metar_trigger": false,
      "taf_trigger": false,
      "metar": "METAR LIMF 082320Z VRB01KT 5000 -RA BR SCT020 BKN050 07/06 Q1007",
      "taf": "TAF LIMF 082300Z 0900/0924 VRB04KT 7000 BKN030"
    },
    {
      "icao": "LIMJ",
      "alert": "OK",
      "vis_m": 9999,
      "fzfg": false,
      "metar_trigger": false,
      "taf_trigger": false,
      "metar": "METAR LIMJ 082320Z AUTO 03006KT 9999 -RA BKN045/// BKN087/// 10/08 Q1006",
      "taf": "TAF LIMJ 082300Z 0900/0924 02008KT 9999 BKN030"
    },
    {
      "icao": "LIPE",
      "alert": "OK",
      "vis_m": 5000,
      "fzfg": false,
      "metar_trigger": false,
      "taf_trigger": false,
      "metar": "METAR LIPE 082320Z 04003KT 5000 BR BKN042 08/07 Q1007",
      "taf": "TAF LIPE 082300Z 0900/0924 VRB05KT 6000 SCT010"
    },
    {
      "icao": "LIPH",
      "alert": "OK",
      "vis_m": 8000,
      "fzfg": false,
      "metar_trigger": false,
      "taf_trigger": false,
      "metar": "METAR LIPH 082320Z AUTO VRB01KT 8000 BKN070/// 06/06 Q1007",
      "taf": "TAF LIPH 082300Z 0900/0924 VRB05KT 7000 SCT060"
    },
    {
      "icao": "LIPQ",
      "alert": "OK",
      "vis_m": 650,
      "fzfg": false,
      "metar_trigger": false,
      "taf_trigger": false,
      "metar": "METAR LIPQ 082320Z AUTO VRB01KT 0650 R09/1200U BCFG BKN069/// 06/05 Q1007",
      "taf": "TAF LIPQ 082300Z 0900/0924 VRB05KT 9999 BKN050"
    },
    {
      "icao": "LIPR",
      "alert": "OK",
      "vis_m": 1600,
      "fzfg": false,
      "metar_trigger": false,
      "taf_trigger": false,
      "metar": "METAR LIPR 082320Z AUTO 21002KT 1600 -RA BR OVC067/// 08/08 Q1007",
      "taf": "TAF LIPR 082300Z 0900/0924 VRB05KT 6000 SCT010 SCT040"
    },
    {
      "icao": "LIPX",
      "alert": "OK",
      "vis_m": 4000,
      "fzfg": false,
      "metar_trigger": false,
      "taf_trigger": false,
      "metar": "METAR LIPX 082320Z 34003KT 4000 BR BKN070 06/06 Q1007",
      "taf": "TAF LIPX 082300Z 0900/0924 VRB04KT 6000 BKN040"
    },
    {
      "icao": "LIPY",
      "alert": "OK",
      "vis_m": 9999,
      "fzfg": false,
      "metar_trigger": false,
      "taf_trigger": false,
      "metar": "METAR LIPY 082320Z AUTO VRB02KT 9999 -RA OVC053/// 09/08 Q1007",
      "taf": "TAF LIPY 082300Z 0900/0924 VRB05KT 7000 SCT060"
    },
    {
      "icao": "LIPZ",
      "alert": "OK",
      "vis_m": 9999,
      "fzfg": false,
      "metar_trigger": false,
      "taf_trigger": false,
      "metar": "METAR LIPZ 082320Z 36006KT 9999 SCT070 07/07 Q1007 NOSIG",
      "taf": "TAF LIPZ 082300Z 0900/1006 05006KT 9999 SCT060"
    },
    {
      "icao": "LIRF",
      "alert": "OK",
      "vis_m": 9999,
      "fzfg": false,
      "metar_trigger": false,
      "taf_trigger": false,
      "metar": "METAR LIRF 082320Z 07008KT 9999 FEW030 10/08 Q1005 NOSIG",
      "taf": "TAF LIRF 082300Z 0900/1006 08010KT 9999 SCT020 BKN040"
    },
    {
      "icao": "LIRN",
      "alert": "OK",
      "vis_m": 7000,
      "fzfg": false,
      "metar_trigger": false,
      "taf_trigger": false,
      "metar": "METAR LIRN 082320Z VRB02KT 7000 -RA SCT075 10/09 Q1007 NOSIG",
      "taf": "TAF LIRN 082300Z 0900/0924 VRB05KT 9999 BKN040"
    },
    {
      "icao": "LIRP",
      "alert": "OK",
      "vis_m": 9999,
      "fzfg": false,
      "metar_trigger": false,
      "taf_trigger": false,
      "metar": "METAR LIRP 082315Z 08005KT 9999 SCT030 BKN070 10/10 Q1006 NOSIG",
      "taf": "TAF LIRP 082300Z 0900/0924 06005KT 9999 SCT020 SCT050"
    },
    {
      "icao": "LIRZ",
      "alert": "OK",
      "vis_m": 9999,
      "fzfg": false,
      "metar_trigger": false,
      "taf_trigger": false,
      "metar": "METAR LIRZ 082320Z AUTO 03008KT 9999 OVC065/// 09/06 Q1006",
      "taf": "TAF LIRZ 082300Z 0900/0924 VRB05KT 9999 BKN030"
    },
    {
      "icao": "LJLJ",
      "alert": "OK",
      "vis_m": 4000,
      "fzfg": false,
      "metar_trigger": false,
      "taf_trigger": false,
      "metar": "METAR LJLJ 082300Z VRB01KT 4000 BR BKN015 04/04 Q1008 NOSIG",
      "taf": "TAF LJLJ 082300Z 0900/1000 VRB02KT 8000 SCT020 BKN040"
    },
    {
      "icao": "LKMT",
      "alert": "OK",
      "vis_m": 2500,
      "fzfg": false,
      "metar_trigger": false,
      "taf_trigger": false,
      "metar": "METAR LKMT 082300Z 03008KT 2500 -SN BR OVC005 M00/M00 Q1011 NOSIG",
      "taf": "TAF LKMT 082300Z 0900/0924 02005KT 3000 -SN BR OVC008"
    },
    {
      "icao": "LKPR",
      "alert": "OK",
      "vis_m": 7000,
      "fzfg": false,
      "metar_trigger": false,
      "taf_trigger": false,
      "metar": "METAR LKPR 082300Z 05002KT 7000 SCT003 BKN005 OVC013 00/M00 Q1010 NOSIG",
      "taf": "TAF LKPR 082300Z 0900/1006 VRB02KT 5000 BR BKN005"
    },
    {
      "icao": "LLBG",
      "alert": "OK",
      "vis_m": 9999,
      "fzfg": false,
      "metar_trigger": false,
      "taf_trigger": false,
      "metar": "METAR LLBG 082320Z 12006KT CAVOK 20/07 Q1010 NOSIG",
      "taf": "TAF LLBG 081706Z 0818/0918 16005KT CAVOK"
    },
    {
      "icao": "LMML",
      "alert": "OK",
      "vis_m": 9999,
      "fzfg": false,
      "metar_trigger": false,
      "taf_trigger": false,
      "metar": "METAR LMML 082315Z AUTO 19009KT CAVOK 14/11 Q1009 NOSIG",
      "taf": "TAF LMML 082300Z 0900/0924 22012KT 9999 FEW020"
    },
    {
      "icao": "LOWW",
      "alert": "OK",
      "vis_m": 9999,
      "fzfg": false,
      "metar_trigger": false,
      "taf_trigger": false,
      "metar": "METAR LOWW 082320Z 36005KT 9999 FEW030 03/02 Q1010 NOSIG",
      "taf": "TAF LOWW 082315Z 0900/1006 02005KT 9999 BKN030 TX04/0913Z TN02/0907Z"
    },
    {
      "icao": "LPFR",
      "alert": "OK",
      "vis_m": 8000,
      "fzfg": false,
      "metar_trigger": false,
      "taf_trigger": false,
      "metar": "METAR LPFR 082300Z 23013KT 8000 -DZRA SCT003 BKN005 15/15 Q1013",
      "taf": "TAF LPFR 082300Z 0900/0924 24010KT 8000 SCT006 BKN012"
    },
    {
      "icao": "LPMA",
      "alert": "OK",
      "vis_m": 9999,
      "fzfg": false,
      "metar_trigger": false,
      "taf_trigger": false,
      "metar": "METAR LPMA 082300Z 34006KT 9999 FEW015 18/12 Q1024",
      "taf": "TAF LPMA 082300Z 0900/0924 VRB05KT 9999 SCT015"
    },
    {
      "icao": "LPPR",
      "alert": "OK",
      "vis_m": 4500,
      "fzfg": false,
      "metar_trigger": false,
      "taf_trigger": false,
      "metar": "METAR LPPR 082300Z 19013KT 170V230 4500 -RADZ BR BKN004 BKN009 12/11 Q1007",
      "taf": "TAF LPPR 082300Z 0900/0924 18013KT 6000 -RA SCT006 BKN012"
    },
    {
      "icao": "LPPS",
      "alert": "OK",
      "vis_m": 9999,
      "fzfg": false,
      "metar_trigger": false,
      "taf_trigger": false,
      "metar": "METAR LPPS 082300Z 28015KT 9999 FEW011 17/15 Q1024",
      "taf": "TAF LPPS 082300Z 0900/1006 27015KT 9999 SCT012"
    },
    {
      "icao": "LPPT",
      "alert": "OK",
      "vis_m": 5000,
      "fzfg": false,
      "metar_trigger": false,
      "taf_trigger": false,
      "metar": "METAR LPPT 082300Z 26009KT 5000 -RADZ BR SCT004 BKN008 15/15 Q1011",
      "taf": "TAF LPPT 082300Z 0900/1006 26012KT 6000 -RADZ SCT003 SCT008"
    },
    {
      "icao": "LQBK",
      "alert": "OK",
      "vis_m": 7000,
      "fzfg": false,
      "metar_trigger": false,
      "taf_trigger": false,
      "metar": "METAR LQBK 082300Z VRB02KT 7000 SCT040 07/06 Q1009 NOSIG",
      "taf": "TAF LQBK 082300Z 0900/0924 06005KT 7000 SCT010 BKN030 TX09/0914Z TN05/0906Z"
    },
    {
      "icao": "LQSA",
      "alert": "OK",
      "vis_m": 7000,
      "fzfg": false,
      "metar_trigger": false,
      "taf_trigger": false,
      "metar": "METAR LQSA 082300Z 13003KT 7000 SCT010 BKN035 05/05 Q1008",
      "taf": "TAF LQSA 082300Z 0900/0924 VRB02KT 9999 FEW030 BKN045 TX08/0913Z TN02/0905Z"
    },
    {
      "icao": "LQTZ",
      "alert": "OK",
      "vis_m": 4500,
      "fzfg": false,
      "metar_trigger": false,
      "taf_trigger": false,
      "metar": "METAR LQTZ 082300Z 00000KT 4500 -DZ BR OVC025 07/07 Q1008",
      "taf": "TAF LQTZ 082300Z 0900/0924 04005KT 8000 SCT015 BKN035 TX10/0913Z TN03/0906Z"
    },
    {
      "icao": "LRBC",
      "alert": "OK",
      "vis_m": 9999,
      "fzfg": false,
      "metar_trigger": false,
      "taf_trigger": false,
      "metar": "METAR LRBC 082300Z COR 36009KT 9999 -SN OVC008 M01/M03 Q1014",
      "taf": "TAF LRBC 082000Z 0821/0906 36008KT 5000 -SN BR OVC005"
    },
    {
      "icao": "LRBS",
      "alert": "OK",
      "vis_m": 9999,
      "fzfg": false,
      "metar_trigger": false,
      "taf_trigger": false,
      "metar": "METAR LRBS 082300Z 07012KT 9999 SCT013 OVC027 03/00 Q1012 NOSIG",
      "taf": ""
    },
    {
      "icao": "LRBV",
      "alert": "OK",
      "vis_m": 9999,
      "fzfg": false,
      "metar_trigger": false,
      "taf_trigger": false,
      "metar": "METAR LRBV 082300Z AUTO VRB01KT 9999 -DZ BKN017/// OVC036/// 03/02 Q1009 RERA",
      "taf": "TAF LRBV 082000Z 0821/0906 VRB04KT 9999 BKN025"
    },
    {
      "icao": "LRCL",
      "alert": "OK",
      "vis_m": 6000,
      "fzfg": false,
      "metar_trigger": false,
      "taf_trigger": false,
      "metar": "METAR LRCL 082300Z 00000KT 6000 BKN015 OVC029 05/03 Q1009",
      "taf": "TAF LRCL 082000Z 0821/0906 VRB04KT 5000 BR BKN010 OVC030"
    },
    {
      "icao": "LRCV",
      "alert": "OK",
      "vis_m": 300,
      "fzfg": false,
      "metar_trigger": false,
      "taf_trigger": false,
      "metar": "METAR LRCV 082300Z 11011KT 0300 R26/0650N FG VV002 05/05 Q1010",
      "taf": "TAF LRCV 082000Z 0821/0906 09010KT 0600 FG OVC001"
    },
    {
      "icao": "LRIA",
      "alert": "OK",
      "vis_m": 9000,
      "fzfg": false,
      "metar_trigger": false,
      "taf_trigger": false,
      "metar": "METAR LRIA 082300Z 36010KT 9000 -SN SCT038 BKN042 M03/M06 Q1015",
      "taf": "TAF LRIA 082000Z 0821/0906 36010KT 9999 BKN010 OVC020"
    },
    {
      "icao": "LROP",
      "alert": "OK",
      "vis_m": 9999,
      "fzfg": false,
      "metar_trigger": false,
      "taf_trigger": false,
      "metar": "METAR LROP 082300Z 08012KT 9999 BKN012 OVC026 03/01 Q1012 NOSIG",
      "taf": ""
    },
    {
      "icao": "LRSB",
      "alert": "OK",
      "vis_m": 9999,
      "fzfg": false,
      "metar_trigger": false,
      "taf_trigger": false,
      "metar": "METAR LRSB 082300Z VRB01KT 9999 OVC058 04/03 Q1009",
      "taf": "TAF LRSB 081700Z 0818/0918 VRB04KT 9999 SCT020 BKN050"
    },
    {
      "icao": "LRSM",
      "alert": "OK",
      "vis_m": 5000,
      "fzfg": false,
      "metar_trigger": false,
      "taf_trigger": false,
      "metar": "METAR LRSM 082300Z AUTO 28003KT 5000 -SHRA OVC004/// 05/04 Q1010",
      "taf": "TAF LRSM 081400Z 0815/0824 VRB04KT 5000 BR OVC030"
    },
    {
      "icao": "LRSV",
      "alert": "OK",
      "vis_m": 6000,
      "fzfg": false,
      "metar_trigger": false,
      "taf_trigger": false,
      "metar": "METAR LRSV 082300Z 02008KT 6000 -SN SCT004 BKN041 M05/M05 Q1013",
      "taf": "TAF LRSV 082000Z 0821/0906 03008KT 5000 -SN BR BKN005 OVC040"
    },
    {
      "icao": "LRTM",
      "alert": "OK",
      "vis_m": 5000,
      "fzfg": false,
      "metar_trigger": false,
      "taf_trigger": false,
      "metar": "METAR LRTM 082300Z AUTO 22002KT 5000 BKN019/// BKN026/// 04/03 Q1009",
      "taf": "TAF LRTM 082000Z 0821/0906 VRB04KT 9999 BKN015 OVC030"
    },
    {
      "icao": "LRTR",
      "alert": "OK",
      "vis_m": 3000,
      "fzfg": false,
      "metar_trigger": false,
      "taf_trigger": false,
      "metar": "METAR LRTR 082300Z 05003KT 3000 BR OVC033 05/05 Q1009 NOSIG",
      "taf": "TAF LRTR 081700Z 0818/0918 VRB04KT CAVOK"
    },
    {
      "icao": "LTAC",
      "alert": "OK",
      "vis_m": 9999,
      "fzfg": false,
      "metar_trigger": false,
      "taf_trigger": false,
      "metar": "METAR LTAC 082320Z 30005KT 9999 FEW021 BKN035 BKN090 05/03 Q1007 NOSIG RMK RWY21C 26003KT RWY03L 29004KT RWY21R 00000KT RWY03R 29004KT RWY21L 27005KT",
      "taf": "TAF LTAC 082240Z 0900/0924 VRB02KT 9999 SCT035 BKN090"
    },
    {
      "icao": "LTFM",
      "alert": "OK",
      "vis_m": 700,
      "fzfg": false,
      "metar_trigger": false,
      "taf_trigger": false,
      "metar": "METAR LTFM 082320Z 05005KT 0700 R35R/1000U R17L/P1500U R34L/0800U R36/1200D BCFG VV002 08/07 Q1010 NOSIG RMK RWY17L VRB03KT RWY34L 04003KT 010V080 RWY16R 10003KT RWY36 04006KT 350V070 RWY18 11003KT 070V140",
      "taf": "TAF LTFM 082240Z 0900/1006 03004KT 1600 BCFG BKN004 BKN022"
    },
    {
      "icao": "LUKK",
      "alert": "OK",
      "vis_m": 6000,
      "fzfg": false,
      "metar_trigger": false,
      "taf_trigger": false,
      "metar": "METAR LUKK 082300Z 01007KT 6000 -SN FEW010 BKN026 BKN036 M05/M06 Q1014 TEMPO 2500 SN BKN006 BKN020",
      "taf": "TAF LUKK 082326Z 0900/0924 02008KT 9999 BKN012 BKN020"
    },
    {
      "icao": "LWOH",
      "alert": "OK",
      "vis_m": null,
      "fzfg": false,
      "metar_trigger": false,
      "taf_trigger": false,
      "metar": "",
      "taf": "TAF LWOH 082015Z 0821/0921 VRB02KT 9999 SCT020 BKN050"
    },
    {
      "icao": "LWSK",
      "alert": "OK",
      "vis_m": 9999,
      "fzfg": false,
      "metar_trigger": false,
      "taf_trigger": false,
      "metar": "METAR LWSK 082320Z VRB02KT 9999 FEW050 04/03 Q1010 NOSIG",
      "taf": "TAF LWSK 082015Z 0821/0921 VRB02KT 9999 BKN070"
    },
    {
      "icao": "LYBE",
      "alert": "OK",
      "vis_m": 800,
      "fzfg": false,
      "metar_trigger": false,
      "taf_trigger": false,
      "metar": "METAR LYBE 082300Z VRB02KT 0800 0400SE R12L/1900N R30R/1300U FG FEW005 04/04 Q1009 TEMPO 0400",
      "taf": "TAF LYBE 082300Z 0900/0924 05004KT 0500 FG NSC TX10/0913Z TN01/0924Z"
    },
    {
      "icao": "LYNI",
      "alert": "OK",
      "vis_m": 9999,
      "fzfg": false,
      "metar_trigger": false,
      "taf_trigger": false,
      "metar": "METAR LYNI 082300Z 00000KT CAVOK 04/04 Q1009 NOSIG",
      "taf": "TAF LYNI 082300Z 0900/0924 32004KT CAVOK TX08/0912Z TN01/0924Z"
    },
    {
      "icao": "LYPG",
      "alert": "OK",
      "vis_m": 8000,
      "fzfg": false,
      "metar_trigger": false,
      "taf_trigger": false,
      "metar": "METAR LYPG 082300Z VRB01KT 8000 FEW050 BKN080 09/08 Q1009 NOSIG",
      "taf": "TAF LYPG 082300Z 0900/0924 VRB02KT 9999 FEW030 SCT040 BKN070 TX11/0912Z TN08/0905Z"
    },
    {
      "icao": "LZIB",
      "alert": "OK",
      "vis_m": 9999,
      "fzfg": false,
      "metar_trigger": false,
      "taf_trigger": false,
      "metar": "METAR LZIB 082300Z 00000KT CAVOK 04/03 Q1009 NOSIG",
      "taf": "TAF LZIB 082315Z 0900/1000 VRB02KT 9999 FEW020"
    },
    {
      "icao": "LZKZ",
      "alert": "OK",
      "vis_m": 9999,
      "fzfg": false,
      "metar_trigger": false,
      "taf_trigger": false,
      "metar": "METAR LZKZ 082300Z 02013KT CAVOK 02/M01 Q1010 NOSIG",
      "taf": "TAF LZKZ 082315Z 0900/1000 01012KT 9999 BKN040"
    },
    {
      "icao": "LZTT",
      "alert": "OK",
      "vis_m": 9999,
      "fzfg": false,
      "metar_trigger": false,
      "taf_trigger": false,
      "metar": "METAR LZTT 082300Z 05005KT 9999 FEW002 OVC020 M01/M02 Q1009",
      "taf": "TAF LZTT 082315Z 0900/1000 08005KT 9999 FEW010 OVC020"
    },
    {
      "icao": "OEJN",
      "alert": "OK",
      "vis_m": 9999,
      "fzfg": false,
      "metar_trigger": false,
      "taf_trigger": false,
      "metar": "METAR OEJN 082300Z 36005KT CAVOK 22/11 Q1013 NOSIG",
      "taf": "TAF OEJN 082300Z 0900/1006 VRB03KT CAVOK"
    },
    {
      "icao": "OEMA",
      "alert": "OK",
      "vis_m": 9999,
      "fzfg": false,
      "metar_trigger": false,
      "taf_trigger": false,
      "metar": "METAR OEMA 082300Z 36004KT CAVOK 16/M07 Q1017 NOSIG",
      "taf": "TAF OEMA 082300Z 0900/1006 VRB03KT CAVOK"
    },
    {
      "icao": "OJAI",
      "alert": "OK",
      "vis_m": 5000,
      "fzfg": false,
      "metar_trigger": false,
      "taf_trigger": false,
      "metar": "METAR OJAI 082300Z 10003KT 5000 HZ NSC 11/06 Q1012 NOSIG",
      "taf": "TAF OJAI 082300Z 0900/1006 22012KT 5000 HZ NSC"
    },
    {
      "icao": "OMAA",
      "alert": "OK",
      "vis_m": 9999,
      "fzfg": false,
      "metar_trigger": false,
      "taf_trigger": false,
      "metar": "METAR OMAA 082300Z 10006KT CAVOK 20/13 Q1013 NOSIG",
      "taf": "TAF OMAA 082300Z 0900/1006 16005KT 8000 NSC"
    },
    {
      "icao": "OMDB",
      "alert": "OK",
      "vis_m": 9999,
      "fzfg": false,
      "metar_trigger": false,
      "taf_trigger": false,
      "metar": "METAR OMDB 082300Z VRB03KT CAVOK 23/12 Q1013 NOSIG",
      "taf": "TAF OMDB 082300Z 0900/1006 16005KT CAVOK"
    },
    {
      "icao": "UAAA",
      "alert": "OK",
      "vis_m": 2100,
      "fzfg": false,
      "metar_trigger": false,
      "taf_trigger": false,
      "metar": "SPECI UAAA 082320Z 08002MPS 050V120 2100 BR SCT010 BKN100 M05/M06 Q1006 NOSIG",
      "taf": "TAF UAAA 082302Z 0900/0924 02003G08MPS 3100 BR FU SCT011 BKN030 TX04/0909Z TNM05/0902Z"
    },
    {
      "icao": "UBBB",
      "alert": "OK",
      "vis_m": 9999,
      "fzfg": false,
      "metar_trigger": false,
      "taf_trigger": false,
      "metar": "METAR UBBB 082300Z 33008KT 9999 BKN012 06/04 Q1002 NOSIG",
      "taf": "TAF UBBB 082304Z 0900/0924 33010KT 9999 BKN010 BKN030 TX07/0910Z TN04/0901Z"
    },
    {
      "icao": "UDSG",
      "alert": "OK",
      "vis_m": 1800,
      "fzfg": false,
      "metar_trigger": false,
      "taf_trigger": false,
      "metar": "METAR UDSG 082300Z 07005KT 1800 BR OVC030 M00/M00 Q1006 NOSIG",
      "taf": "TAF UDSG 082258Z 0900/0924 VRB06KT 2000 BR BKN020"
    },
    {
      "icao": "UDYZ",
      "alert": "OK",
      "vis_m": 8000,
      "fzfg": false,
      "metar_trigger": false,
      "taf_trigger": false,
      "metar": "METAR UDYZ 082300Z 33002KT 8000 BKN046 04/03 Q1005 NOSIG",
      "taf": "TAF UDYZ 082300Z 0900/0924 VRB06KT 2300 BR BKN030"
    },
    {
      "icao": "UGKO",
      "alert": "OK",
      "vis_m": 5000,
      "fzfg": false,
      "metar_trigger": false,
      "taf_trigger": false,
      "metar": "METAR UGKO 082300Z VRB02KT 5000 RA BR SCT012 BKN025 OVC055 07/06 Q1005 NOSIG",
      "taf": "TAF UGKO 082300Z 0900/0924 25007KT 9999 SCT030 OVC050 TX09/0911Z TN05/0924Z"
    }
  ]
}