{
  "ts_utc": "2026-07-04T07:32:04Z",
  "threshold_m": 150,
  "source": "stations_override.txt (ICAO list) + aviationweather.gov (METAR/TAF raw)",
  "station_count": 159,
  "stations": [
    {
      "icao": "BIKF",
      "alert": "OK",
      "vis_m": 9999,
      "fzfg": false,
      "metar_trigger": false,
      "taf_trigger": false,
      "metar": "METAR BIKF 040700Z 34009KT 9999 SCT021 09/05 Q1012",
      "taf": "TAF BIKF 040448Z 0406/0506 33012KT 9999 FEW025 TX12/0415Z TN06/0504Z"
    },
    {
      "icao": "BKPR",
      "alert": "OK",
      "vis_m": 9999,
      "fzfg": false,
      "metar_trigger": false,
      "taf_trigger": false,
      "metar": "METAR BKPR 040730Z 36013KT 9999 FEW080 22/08 Q1021 NOSIG",
      "taf": "TAF BKPR 040530Z 0406/0506 01014KT 9999 FEW050"
    },
    {
      "icao": "EBCI",
      "alert": "OK",
      "vis_m": 9999,
      "fzfg": false,
      "metar_trigger": false,
      "taf_trigger": false,
      "metar": "METAR EBCI 040720Z 24009KT CAVOK 19/10 Q1028 NOSIG",
      "taf": "TAF EBCI 040500Z 0406/0512 22007KT CAVOK"
    },
    {
      "icao": "EDDB",
      "alert": "OK",
      "vis_m": 9999,
      "fzfg": false,
      "metar_trigger": false,
      "taf_trigger": false,
      "metar": "METAR EDDB 040720Z AUTO 28012KT 250V310 9999 FEW026 SCT038 16/09 Q1023 NOSIG",
      "taf": "TAF EDDB 040500Z 0406/0506 26008KT 9999 FEW030"
    },
    {
      "icao": "EDDH",
      "alert": "OK",
      "vis_m": 9999,
      "fzfg": false,
      "metar_trigger": false,
      "taf_trigger": false,
      "metar": "METAR EDDH 040720Z AUTO 25007KT 210V280 9999 SCT022 BKN040 16/13 Q1022 NOSIG",
      "taf": "TAF EDDH 040500Z 0406/0512 26007KT 9999 BKN030"
    },
    {
      "icao": "EDDK",
      "alert": "OK",
      "vis_m": 9999,
      "fzfg": false,
      "metar_trigger": false,
      "taf_trigger": false,
      "metar": "METAR EDDK 040720Z AUTO 20004KT 130V240 CAVOK 18/10 Q1027 NOSIG",
      "taf": "TAF EDDK 040500Z 0406/0512 VRB03KT CAVOK"
    },
    {
      "icao": "EDDN",
      "alert": "OK",
      "vis_m": 9999,
      "fzfg": false,
      "metar_trigger": false,
      "taf_trigger": false,
      "metar": "METAR EDDN 040720Z AUTO 29006KT 250V330 CAVOK 20/10 Q1026 NOSIG",
      "taf": "TAF EDDN 040500Z 0406/0506 10005KT CAVOK"
    },
    {
      "icao": "EDDS",
      "alert": "OK",
      "vis_m": 9999,
      "fzfg": false,
      "metar_trigger": false,
      "taf_trigger": false,
      "metar": "METAR EDDS 040720Z AUTO 16002KT CAVOK 21/08 Q1027 NOSIG",
      "taf": "TAF EDDS 040500Z 0406/0506 VRB03KT CAVOK"
    },
    {
      "icao": "EDFH",
      "alert": "OK",
      "vis_m": 9999,
      "fzfg": false,
      "metar_trigger": false,
      "taf_trigger": false,
      "metar": "METAR EDFH 040720Z 26006KT 230V300 CAVOK 16/09 Q1028",
      "taf": "TAF EDFH 040500Z 0406/0506 28004KT CAVOK"
    },
    {
      "icao": "EDJA",
      "alert": "OK",
      "vis_m": 9999,
      "fzfg": false,
      "metar_trigger": false,
      "taf_trigger": false,
      "metar": "METAR EDJA 040720Z 24004KT 180V290 CAVOK 19/08 Q1028",
      "taf": "TAF EDJA 040500Z 0406/0415 VRB03KT CAVOK"
    },
    {
      "icao": "EDLW",
      "alert": "OK",
      "vis_m": 9999,
      "fzfg": false,
      "metar_trigger": false,
      "taf_trigger": false,
      "metar": "METAR EDLW 040720Z 22008KT 180V260 CAVOK 17/09 Q1025",
      "taf": "TAF EDLW 040500Z 0406/0506 23007KT CAVOK"
    },
    {
      "icao": "EDNY",
      "alert": "OK",
      "vis_m": 9999,
      "fzfg": false,
      "metar_trigger": false,
      "taf_trigger": false,
      "metar": "METAR EDNY 040720Z VRB01KT CAVOK 21/11 Q1028",
      "taf": "TAF EDNY 040500Z 0406/0415 VRB03KT CAVOK"
    },
    {
      "icao": "EDSB",
      "alert": "OK",
      "vis_m": 9999,
      "fzfg": false,
      "metar_trigger": false,
      "taf_trigger": false,
      "metar": "METAR EDSB 040720Z VRB02KT CAVOK 20/11 Q1027",
      "taf": "TAF EDSB 040500Z 0406/0506 33003KT CAVOK"
    },
    {
      "icao": "EETN",
      "alert": "OK",
      "vis_m": 9999,
      "fzfg": false,
      "metar_trigger": false,
      "taf_trigger": false,
      "metar": "METAR EETN 040720Z 32003KT 9999 FEW013 FEW030CB 17/14 Q1003 NOSIG",
      "taf": "TAF EETN 040530Z 0406/0506 VRB02KT 9999 FEW030CB SCT040"
    },
    {
      "icao": "EFTU",
      "alert": "OK",
      "vis_m": 9999,
      "fzfg": false,
      "metar_trigger": false,
      "taf_trigger": false,
      "metar": "METAR EFTU 040720Z AUTO 34002KT 9999 SCT017 //////CB 18/13 Q1004",
      "taf": "TAF EFTU 040535Z 0406/0506 35003KT 9999 FEW020"
    },
    {
      "icao": "EGBB",
      "alert": "OK",
      "vis_m": 9999,
      "fzfg": false,
      "metar_trigger": false,
      "taf_trigger": false,
      "metar": "METAR EGBB 040720Z 25009KT 200V280 9999 SCT022 19/14 Q1026",
      "taf": "TAF EGBB 040458Z 0406/0506 21005KT CAVOK"
    },
    {
      "icao": "EGGP",
      "alert": "OK",
      "vis_m": 9999,
      "fzfg": false,
      "metar_trigger": false,
      "taf_trigger": false,
      "metar": "METAR EGGP 040720Z 27016KT 9999 BKN022 18/14 Q1025",
      "taf": "TAF EGGP 040503Z 0406/0506 27010KT 9999 FEW025"
    },
    {
      "icao": "EGGW",
      "alert": "OK",
      "vis_m": 9999,
      "fzfg": false,
      "metar_trigger": false,
      "taf_trigger": false,
      "metar": "METAR EGGW 040720Z AUTO 27013KT 9999 OVC036 17/14 Q1026",
      "taf": ""
    },
    {
      "icao": "EGKK",
      "alert": "OK",
      "vis_m": 9999,
      "fzfg": false,
      "metar_trigger": false,
      "taf_trigger": false,
      "metar": "METAR EGKK 040720Z 26007KT 220V290 9999 BKN011 18/14 Q1028",
      "taf": "TAF EGKK 040453Z 0406/0512 26007KT 9999 FEW030"
    },
    {
      "icao": "EGNM",
      "alert": "OK",
      "vis_m": 4000,
      "fzfg": false,
      "metar_trigger": false,
      "taf_trigger": false,
      "metar": "METAR EGNM 040720Z 26013KT 4000 -RA BR BKN007 15/14 Q1023",
      "taf": "TAF EGNM 040504Z 0406/0506 26014KT 9999 SCT020"
    },
    {
      "icao": "EGPD",
      "alert": "OK",
      "vis_m": 9999,
      "fzfg": false,
      "metar_trigger": false,
      "taf_trigger": false,
      "metar": "METAR EGPD 040720Z 23003KT 170V290 CAVOK 15/11 Q1017",
      "taf": "TAF EGPD 040457Z 0406/0506 VRB03KT 9999 FEW040"
    },
    {
      "icao": "EGPF",
      "alert": "OK",
      "vis_m": 8000,
      "fzfg": false,
      "metar_trigger": false,
      "taf_trigger": false,
      "metar": "METAR EGPF 040720Z AUTO 24012KT 8000 -RA FEW019 SCT023 BKN028 15/15 Q1019",
      "taf": "TAF EGPF 040454Z 0406/0506 25009KT 9999 SCT012"
    },
    {
      "icao": "EHBK",
      "alert": "OK",
      "vis_m": 9999,
      "fzfg": false,
      "metar_trigger": false,
      "taf_trigger": false,
      "metar": "METAR EHBK 040725Z AUTO 23011KT 200V270 9999 NCD 19/11 Q1027 NOSIG",
      "taf": "TAF EHBK 040458Z 0406/0512 21006KT CAVOK"
    },
    {
      "icao": "EHEH",
      "alert": "OK",
      "vis_m": 9999,
      "fzfg": false,
      "metar_trigger": false,
      "taf_trigger": false,
      "metar": "METAR EHEH 040725Z AUTO 23008KT 190V290 9999 NCD 20/12 Q1025 BLU NOSIG RMK TREND REMOTE BY EHWX",
      "taf": "TAF EHEH 040512Z 0406/0512 21008KT CAVOK"
    },
    {
      "icao": "EKBI",
      "alert": "OK",
      "vis_m": 9999,
      "fzfg": false,
      "metar_trigger": false,
      "taf_trigger": false,
      "metar": "METAR EKBI 040720Z AUTO 28015KT 9999 SCT020/// 16/11 Q1019",
      "taf": "TAF EKBI 040527Z 0406/0506 29012KT 9999 SCT025"
    },
    {
      "icao": "EKCH",
      "alert": "OK",
      "vis_m": 9999,
      "fzfg": false,
      "metar_trigger": false,
      "taf_trigger": false,
      "metar": "METAR EKCH 040720Z AUTO 29015KT 260V320 9999 BKN026/// 16/10 Q1018 NOSIG",
      "taf": "TAF EKCH 040527Z 0406/0506 28012KT 9999 BKN022"
    },
    {
      "icao": "ENAL",
      "alert": "OK",
      "vis_m": 9999,
      "fzfg": false,
      "metar_trigger": false,
      "taf_trigger": false,
      "metar": "METAR ENAL 040720Z 22009KT 9999 -RA FEW011 SCT021 BKN028 13/11 Q1013",
      "taf": "TAF ENAL 040500Z 0406/0415 21012KT 9999 BKN020"
    },
    {
      "icao": "ENBR",
      "alert": "OK",
      "vis_m": 9999,
      "fzfg": false,
      "metar_trigger": false,
      "taf_trigger": false,
      "metar": "METAR ENBR 040720Z 17008KT 9999 -SHRA FEW011 SCT021 BKN034 12/10 Q1017 NOSIG RMK WIND 1200FT 21009KT",
      "taf": "TAF ENBR 040500Z 0406/0506 19008KT 9999 SCT015 BKN025"
    },
    {
      "icao": "ENGM",
      "alert": "OK",
      "vis_m": 9999,
      "fzfg": false,
      "metar_trigger": false,
      "taf_trigger": false,
      "metar": "METAR ENGM 040720Z 30005KT 220V320 CAVOK 17/06 Q1014 NOSIG",
      "taf": "TAF ENGM 040500Z 0406/0506 20005KT CAVOK"
    },
    {
      "icao": "ENHD",
      "alert": "OK",
      "vis_m": 9999,
      "fzfg": false,
      "metar_trigger": false,
      "taf_trigger": false,
      "metar": "METAR ENHD 040720Z 18004KT 150V250 9999 BKN046 15/10 Q1018",
      "taf": "TAF ENHD 040500Z 0406/0415 22008KT 9999 SCT030 BKN045"
    },
    {
      "icao": "ENTC",
      "alert": "OK",
      "vis_m": 5000,
      "fzfg": false,
      "metar_trigger": false,
      "taf_trigger": false,
      "metar": "METAR ENTC 040720Z 28011KT 5000 RA FEW006 BKN011 10/09 Q1010 TEMPO 20007KT 4500 RA BKN009 RMK WIND 2600FT 24006KT",
      "taf": ""
    },
    {
      "icao": "ENTO",
      "alert": "OK",
      "vis_m": 9999,
      "fzfg": false,
      "metar_trigger": false,
      "taf_trigger": false,
      "metar": "METAR ENTO 040720Z 01005KT 330V040 CAVOK 17/08 Q1015 NOSIG",
      "taf": "TAF ENTO 040500Z 0406/0506 32006KT CAVOK"
    },
    {
      "icao": "ENVA",
      "alert": "OK",
      "vis_m": 9999,
      "fzfg": false,
      "metar_trigger": false,
      "taf_trigger": false,
      "metar": "METAR ENVA 040720Z 00000KT 9999 BKN038 14/09 Q1013 NOSIG RMK WIND 670FT 12004KT",
      "taf": "TAF ENVA 040500Z 0406/0506 10005KT 9999 BKN030"
    },
    {
      "icao": "ENZV",
      "alert": "OK",
      "vis_m": 9999,
      "fzfg": false,
      "metar_trigger": false,
      "taf_trigger": false,
      "metar": "METAR ENZV 040720Z 29003KT 230V350 9999 SCT023 BKN046 15/10 Q1018 NOSIG",
      "taf": "TAF ENZV 032300Z 0400/0424 32008KT 9999 FEW015 BKN040"
    },
    {
      "icao": "EPGD",
      "alert": "OK",
      "vis_m": 9999,
      "fzfg": false,
      "metar_trigger": false,
      "taf_trigger": false,
      "metar": "METAR EPGD 040700Z 27016KT 9999 -RA OVC007 13/12 Q1015",
      "taf": "TAF EPGD 040530Z 0406/0506 27015KT 9999 BKN015"
    },
    {
      "icao": "EPKK",
      "alert": "OK",
      "vis_m": 9999,
      "fzfg": false,
      "metar_trigger": false,
      "taf_trigger": false,
      "metar": "METAR EPKK 040700Z 28018KT 9999 SCT034 17/08 Q1020",
      "taf": "TAF EPKK 040530Z 0406/0506 27014KT CAVOK"
    },
    {
      "icao": "EPKT",
      "alert": "OK",
      "vis_m": 9999,
      "fzfg": false,
      "metar_trigger": false,
      "taf_trigger": false,
      "metar": "METAR EPKT 040700Z 28014KT 9999 SCT027 15/08 Q1021",
      "taf": "TAF EPKT 040530Z 0406/0506 29013KT 9999 BKN035"
    },
    {
      "icao": "EPLB",
      "alert": "OK",
      "vis_m": 9999,
      "fzfg": false,
      "metar_trigger": false,
      "taf_trigger": false,
      "metar": "METAR EPLB 040700Z 29014KT 9999 FEW036 18/09 Q1016",
      "taf": "TAF EPLB 040530Z 0406/0506 27012KT CAVOK"
    },
    {
      "icao": "EPMO",
      "alert": "OK",
      "vis_m": 9999,
      "fzfg": false,
      "metar_trigger": false,
      "taf_trigger": false,
      "metar": "METAR EPMO 040700Z 27015KT 9999 BKN026 16/10 Q1016",
      "taf": "TAF EPMO 040530Z 0406/0506 28015KT 9999 BKN030"
    },
    {
      "icao": "EPPO",
      "alert": "OK",
      "vis_m": 9999,
      "fzfg": false,
      "metar_trigger": false,
      "taf_trigger": false,
      "metar": "METAR EPPO 040700Z 28015KT 9999 OVC025 15/09 Q1020",
      "taf": "TAF EPPO 040530Z 0406/0506 28012KT 9999 SCT030"
    },
    {
      "icao": "EPRA",
      "alert": "OK",
      "vis_m": 9999,
      "fzfg": false,
      "metar_trigger": false,
      "taf_trigger": false,
      "metar": "METAR EPRA 040700Z 31013KT 270V330 9999 SCT034 17/08 Q1017",
      "taf": "TAF EPRA 040530Z 0406/0415 28012KT 9999 BKN040"
    },
    {
      "icao": "EPRZ",
      "alert": "OK",
      "vis_m": 9999,
      "fzfg": false,
      "metar_trigger": false,
      "taf_trigger": false,
      "metar": "METAR EPRZ 040700Z 27015KT 9999 BKN040 18/07 Q1018",
      "taf": "TAF EPRZ 040530Z 0406/0506 29015KT CAVOK"
    },
    {
      "icao": "EPSC",
      "alert": "OK",
      "vis_m": 9999,
      "fzfg": false,
      "metar_trigger": false,
      "taf_trigger": false,
      "metar": "METAR EPSC 040700Z 28015KT 9999 SCT026 BKN031 16/09 Q1019",
      "taf": "TAF EPSC 040530Z 0406/0506 29012KT 9999 BKN035"
    },
    {
      "icao": "EPSY",
      "alert": "OK",
      "vis_m": 9999,
      "fzfg": false,
      "metar_trigger": false,
      "taf_trigger": false,
      "metar": "METAR EPSY 040700Z 28010KT 240V310 9999 BKN012 15/12 Q1014",
      "taf": "TAF EPSY 040530Z 0406/0415 27014KT 9999 BKN020"
    },
    {
      "icao": "EPWA",
      "alert": "OK",
      "vis_m": 9999,
      "fzfg": false,
      "metar_trigger": false,
      "taf_trigger": false,
      "metar": "METAR EPWA 040700Z 28015KT 9999 BKN030 16/10 Q1016 NOSIG",
      "taf": "TAF EPWA 040530Z 0406/0506 26013KT 9999 BKN035"
    },
    {
      "icao": "EPWR",
      "alert": "OK",
      "vis_m": 9999,
      "fzfg": false,
      "metar_trigger": false,
      "taf_trigger": false,
      "metar": "METAR EPWR 040700Z 31018KT 9999 BKN031 17/09 Q1022",
      "taf": "TAF EPWR 040530Z 0406/0506 30011KT CAVOK"
    },
    {
      "icao": "ESGG",
      "alert": "OK",
      "vis_m": 9999,
      "fzfg": false,
      "metar_trigger": false,
      "taf_trigger": false,
      "metar": "METAR ESGG 040720Z 27008KT 250V310 CAVOK 18/13 Q1014",
      "taf": "TAF ESGG 040530Z 0406/0506 27005KT CAVOK"
    },
    {
      "icao": "ESKN",
      "alert": "OK",
      "vis_m": 9999,
      "fzfg": false,
      "metar_trigger": false,
      "taf_trigger": false,
      "metar": "METAR ESKN 040720Z 32011KT 270V360 9999 SCT021 17/12 Q1010",
      "taf": "TAF ESKN 040530Z 0406/0506 31009KT CAVOK"
    },
    {
      "icao": "ESMS",
      "alert": "OK",
      "vis_m": 9999,
      "fzfg": false,
      "metar_trigger": false,
      "taf_trigger": false,
      "metar": "METAR ESMS 040720Z 30017KT 9999 BKN023 16/11 Q1017",
      "taf": "TAF ESMS 040527Z 0406/0506 28015KT 9999 BKN025"
    },
    {
      "icao": "ESSA",
      "alert": "OK",
      "vis_m": 9999,
      "fzfg": false,
      "metar_trigger": false,
      "taf_trigger": false,
      "metar": "METAR ESSA 040720Z 33013KT 9999 BKN019 14/10 Q1009 NOSIG",
      "taf": "TAF ESSA 040530Z 0406/0506 32012KT 9999 SCT030"
    },
    {
      "icao": "EYKA",
      "alert": "OK",
      "vis_m": 9999,
      "fzfg": false,
      "metar_trigger": false,
      "taf_trigger": false,
      "metar": "METAR EYKA 040720Z 27012KT 9999 SCT009 BKN013CB BKN017 16/15 Q1007",
      "taf": "TAF EYKA 040502Z 0406/0506 23010KT 8000 BKN010"
    },
    {
      "icao": "EYPA",
      "alert": "OK",
      "vis_m": 9999,
      "fzfg": false,
      "metar_trigger": false,
      "taf_trigger": false,
      "metar": "METAR EYPA 040720Z 30008KT 250V360 9999 BKN017CB BKN024 OVC038 18/14 Q1008",
      "taf": "TAF EYPA 040500Z 0406/0506 30010KT 9000 SCT015 BKN030"
    },
    {
      "icao": "EYVI",
      "alert": "OK",
      "vis_m": 9999,
      "fzfg": false,
      "metar_trigger": false,
      "taf_trigger": false,
      "metar": "METAR EYVI 040720Z 24010KT 9999 BKN009 BKN015CB 15/14 Q1008 NOSIG",
      "taf": "TAF EYVI 040500Z 0406/0506 25012KT 9000 BKN010"
    },
    {
      "icao": "GCFV",
      "alert": "OK",
      "vis_m": 9999,
      "fzfg": false,
      "metar_trigger": false,
      "taf_trigger": false,
      "metar": "METAR GCFV 040700Z 30010G21KT 260V320 9999 FEW015 22/17 Q1016",
      "taf": "TAF GCFV 040200Z 0403/0503 29010KT 9999 FEW015 TX28/0414Z TN21/0406Z"
    },
    {
      "icao": "GCLP",
      "alert": "OK",
      "vis_m": 9999,
      "fzfg": false,
      "metar_trigger": false,
      "taf_trigger": false,
      "metar": "METAR GCLP 040700Z VRB02KT CAVOK 21/17 Q1017 NOSIG",
      "taf": "TAF GCLP 040200Z 0403/0503 34004KT 9999 BKN018 TX27/0414Z TN21/0406Z"
    },
    {
      "icao": "GCTS",
      "alert": "OK",
      "vis_m": 9999,
      "fzfg": false,
      "metar_trigger": false,
      "taf_trigger": false,
      "metar": "METAR GCTS 040700Z 27002KT 9999 FEW025 22/16 Q1017 NOSIG",
      "taf": "TAF GCTS 040200Z 0403/0503 VRB03KT 9999 SCT020 TX28/0414Z TN22/0406Z"
    },
    {
      "icao": "GMAD",
      "alert": "OK",
      "vis_m": 1200,
      "fzfg": false,
      "metar_trigger": false,
      "taf_trigger": false,
      "metar": "METAR GMAD 040700Z 24005KT 1200 R27/1000N BR OVC001 20/20 Q1015 NOSIG",
      "taf": "TAF GMAD 040500Z 0406/0512 24004KT 1200 BR OVC004"
    },
    {
      "icao": "GMMN",
      "alert": "OK",
      "vis_m": 9999,
      "fzfg": false,
      "metar_trigger": false,
      "taf_trigger": false,
      "metar": "METAR GMMN 040700Z VRB01KT CAVOK 28/12 Q1016 NOSIG",
      "taf": "TAF GMMN 040500Z 0406/0512 14006KT CAVOK"
    },
    {
      "icao": "GMMX",
      "alert": "OK",
      "vis_m": 8000,
      "fzfg": false,
      "metar_trigger": false,
      "taf_trigger": false,
      "metar": "METAR GMMX 040700Z VRB02KT 8000 NSC 32/13 Q1017 NOSIG",
      "taf": "TAF GMMX 040500Z 0406/0512 26006KT 8000 NSC"
    },
    {
      "icao": "HEGN",
      "alert": "OK",
      "vis_m": 9999,
      "fzfg": false,
      "metar_trigger": false,
      "taf_trigger": false,
      "metar": "METAR HEGN 040700Z 35013KT CAVOK 32/19 Q1008 NOSIG",
      "taf": "TAF HEGN 040500Z 0406/0512 32015KT CAVOK"
    },
    {
      "icao": "HEMA",
      "alert": "OK",
      "vis_m": 9999,
      "fzfg": false,
      "metar_trigger": false,
      "taf_trigger": false,
      "metar": "METAR HEMA 040700Z 34023KT CAVOK 34/16 Q1008 NOSIG",
      "taf": "TAF HEMA 040500Z 0406/0512 33010G20KT CAVOK"
    },
    {
      "icao": "HESH",
      "alert": "OK",
      "vis_m": 9999,
      "fzfg": false,
      "metar_trigger": false,
      "taf_trigger": false,
      "metar": "METAR HESH 040700Z 35015KT CAVOK 34/12 Q1008 NOSIG",
      "taf": "TAF HESH 040500Z 0406/0512 36015KT CAVOK"
    },
    {
      "icao": "HESX",
      "alert": "OK",
      "vis_m": 9999,
      "fzfg": false,
      "metar_trigger": false,
      "taf_trigger": false,
      "metar": "METAR HESX 040700Z 34004KT CAVOK 28/21 Q1011 NOSIG",
      "taf": "TAF HESX 040500Z 0406/0512 34010KT CAVOK"
    },
    {
      "icao": "LATI",
      "alert": "OK",
      "vis_m": 9999,
      "fzfg": false,
      "metar_trigger": false,
      "taf_trigger": false,
      "metar": "METAR LATI 040720Z 30007KT 270V330 CAVOK 30/15 Q1014 NOSIG",
      "taf": "TAF LATI 040500Z 0406/0506 VRB03KT CAVOK TX35/0412Z TN17/0504Z"
    },
    {
      "icao": "LBPD",
      "alert": "OK",
      "vis_m": 9999,
      "fzfg": false,
      "metar_trigger": false,
      "taf_trigger": false,
      "metar": "METAR LBPD 040730Z AUTO 28018KT 9999 SCT090/// 28/14 Q1014 NOSIG",
      "taf": "TAF LBPD 040500Z 0406/0506 29014KT 9999 SCT050"
    },
    {
      "icao": "LBSF",
      "alert": "OK",
      "vis_m": 9999,
      "fzfg": false,
      "metar_trigger": false,
      "taf_trigger": false,
      "metar": "METAR LBSF 040730Z 29013KT 9999 FEW089 22/12 Q1018 NOSIG",
      "taf": "TAF LBSF 040500Z 0406/0506 30012KT 9999 SCT050"
    },
    {
      "icao": "LBWN",
      "alert": "OK",
      "vis_m": 9999,
      "fzfg": false,
      "metar_trigger": false,
      "taf_trigger": false,
      "metar": "METAR LBWN 040730Z 27010KT 9999 FEW033 BKN045 20/17 Q1014 TEMPO 5000 SHRA FEW030CB",
      "taf": "TAF LBWN 040500Z 0406/0506 35012KT 9999 SCT045"
    },
    {
      "icao": "LCLK",
      "alert": "OK",
      "vis_m": 9999,
      "fzfg": false,
      "metar_trigger": false,
      "taf_trigger": false,
      "metar": "METAR LCLK 040700Z 11005KT 070V140 9999 FEW008 29/25 Q1006 NOSIG",
      "taf": "TAF LCLK 040530Z 0406/0506 09005KT 9999 FEW010"
    },
    {
      "icao": "LCPH",
      "alert": "OK",
      "vis_m": 8000,
      "fzfg": false,
      "metar_trigger": false,
      "taf_trigger": false,
      "metar": "METAR LCPH 040700Z 16008KT 8000 FEW020 26/22 Q1006 NOSIG",
      "taf": "TAF LCPH 040530Z 0406/0506 02006KT 9999 FEW015"
    },
    {
      "icao": "LEAL",
      "alert": "OK",
      "vis_m": 9999,
      "fzfg": false,
      "metar_trigger": false,
      "taf_trigger": false,
      "metar": "METAR LEAL 040700Z VRB01KT CAVOK 28/16 Q1024 NOSIG",
      "taf": "TAF LEAL 040500Z 0406/0506 VRB03KT CAVOK TX32/0412Z TN22/0406Z"
    },
    {
      "icao": "LEBB",
      "alert": "OK",
      "vis_m": 9999,
      "fzfg": false,
      "metar_trigger": false,
      "taf_trigger": false,
      "metar": "METAR LEBB 040700Z VRB02KT 9999 SCT029 23/20 Q1028 NOSIG",
      "taf": "TAF LEBB 040500Z 0406/0506 VRB03KT 9999 FEW015 SCT025 TX29/0412Z TN16/0505Z"
    },
    {
      "icao": "LEBL",
      "alert": "OK",
      "vis_m": 9999,
      "fzfg": false,
      "metar_trigger": false,
      "taf_trigger": false,
      "metar": "METAR LEBL 040700Z 33008KT 280V030 9999 FEW010 26/15 Q1023 NOSIG",
      "taf": "TAF LEBL 040500Z 0406/0506 33006KT CAVOK TX31/0413Z TN23/0406Z"
    },
    {
      "icao": "LECH",
      "alert": "OK",
      "vis_m": 9999,
      "fzfg": false,
      "metar_trigger": false,
      "taf_trigger": false,
      "metar": "METAR LECH 040700Z AUTO 22003KT 170V260 CAVOK 23/13 Q1025",
      "taf": "TAF LECH 040500Z 0406/0506 VRB04KT CAVOK TX33/0412Z TN18/0406Z"
    },
    {
      "icao": "LEMD",
      "alert": "OK",
      "vis_m": 9999,
      "fzfg": false,
      "metar_trigger": false,
      "taf_trigger": false,
      "metar": "METAR LEMD 040700Z 36003KT 300V040 CAVOK 24/10 Q1025 NOSIG",
      "taf": "TAF LEMD 040500Z 0406/0512 VRB04KT CAVOK TX39/0416Z TN22/0505Z"
    },
    {
      "icao": "LEMG",
      "alert": "OK",
      "vis_m": 9999,
      "fzfg": false,
      "metar_trigger": false,
      "taf_trigger": false,
      "metar": "METAR LEMG 040700Z 28006KT CAVOK 24/13 Q1023 NOSIG",
      "taf": "TAF LEMG 040500Z 0406/0506 29005KT CAVOK TX31/0414Z TN22/0505Z"
    },
    {
      "icao": "LEVC",
      "alert": "OK",
      "vis_m": 9999,
      "fzfg": false,
      "metar_trigger": false,
      "taf_trigger": false,
      "metar": "METAR LEVC 040700Z VRB02KT CAVOK 27/14 Q1024 NOSIG",
      "taf": "TAF LEVC 040500Z 0406/0506 30005KT CAVOK TX33/0412Z TN23/0406Z"
    },
    {
      "icao": "LEXJ",
      "alert": "OK",
      "vis_m": 9999,
      "fzfg": false,
      "metar_trigger": false,
      "taf_trigger": false,
      "metar": "METAR LEXJ 040700Z VRB01KT 9999 FEW033 22/18 Q1028",
      "taf": "TAF LEXJ 040200Z 0403/0503 VRB03KT 9999 FEW020 TX26/0412Z TN16/0405Z"
    },
    {
      "icao": "LEZG",
      "alert": "OK",
      "vis_m": 9999,
      "fzfg": false,
      "metar_trigger": false,
      "taf_trigger": false,
      "metar": "METAR LEZG 040700Z 29013KT CAVOK 23/15 Q1026 NOSIG",
      "taf": "TAF LEZG 040500Z 0406/0506 30015KT CAVOK TX36/0414Z TN20/0406Z"
    },
    {
      "icao": "LEZL",
      "alert": "OK",
      "vis_m": 9999,
      "fzfg": false,
      "metar_trigger": false,
      "taf_trigger": false,
      "metar": "METAR LEZL 040700Z 06009KT 040V100 CAVOK 29/12 Q1020 NOSIG",
      "taf": "TAF LEZL 040200Z 0403/0503 09010KT CAVOK TX42/0415Z TN25/0405Z"
    },
    {
      "icao": "LFBD",
      "alert": "OK",
      "vis_m": 9999,
      "fzfg": false,
      "metar_trigger": false,
      "taf_trigger": false,
      "metar": "METAR LFBD 040700Z AUTO 06006KT 020V100 CAVOK 24/13 Q1028 NOSIG",
      "taf": "TAF LFBD 040500Z 0406/0512 VRB03KT CAVOK TX36/0512Z TN18/0406Z"
    },
    {
      "icao": "LFLL",
      "alert": "OK",
      "vis_m": 9999,
      "fzfg": false,
      "metar_trigger": false,
      "taf_trigger": false,
      "metar": "METAR LFLL 040700Z 35007KT 310V010 CAVOK 21/09 Q1027 NOSIG",
      "taf": "TAF LFLL 040500Z 0406/0512 35005KT CAVOK"
    },
    {
      "icao": "LFLS",
      "alert": "OK",
      "vis_m": 9999,
      "fzfg": false,
      "metar_trigger": false,
      "taf_trigger": false,
      "metar": "METAR LFLS 040700Z AUTO VRB02KT CAVOK 21/09 Q1027 BECMG 35015KT",
      "taf": "TAF LFLS 040200Z 0403/0503 36005KT CAVOK"
    },
    {
      "icao": "LFMN",
      "alert": "OK",
      "vis_m": 9999,
      "fzfg": false,
      "metar_trigger": false,
      "taf_trigger": false,
      "metar": "METAR LFMN 040700Z 07004KT 9999 FEW110 28/16 Q1020 NOSIG",
      "taf": "TAF LFMN 040200Z 0403/0509 34010KT CAVOK"
    },
    {
      "icao": "LFOB",
      "alert": "OK",
      "vis_m": 9999,
      "fzfg": false,
      "metar_trigger": false,
      "taf_trigger": false,
      "metar": "METAR LFOB 040700Z AUTO VRB03KT CAVOK 18/11 Q1029 NOSIG",
      "taf": "TAF LFOB 040500Z 0406/0506 28007KT CAVOK"
    },
    {
      "icao": "LFPO",
      "alert": "OK",
      "vis_m": 9999,
      "fzfg": false,
      "metar_trigger": false,
      "taf_trigger": false,
      "metar": "METAR LFPO 040700Z 02003KT 320V120 CAVOK 20/10 Q1029 NOSIG",
      "taf": "TAF LFPO 040500Z 0406/0512 33005KT CAVOK"
    },
    {
      "icao": "LFSB",
      "alert": "OK",
      "vis_m": 9999,
      "fzfg": false,
      "metar_trigger": false,
      "taf_trigger": false,
      "metar": "METAR LFSB 040700Z AUTO VRB01KT CAVOK 22/09 Q1028 NOSIG",
      "taf": "TAF LFSB 040500Z 0406/0506 VRB02KT CAVOK"
    },
    {
      "icao": "LGAV",
      "alert": "OK",
      "vis_m": 9999,
      "fzfg": false,
      "metar_trigger": false,
      "taf_trigger": false,
      "metar": "METAR LGAV 040720Z 04012KT 9999 FEW030 31/15 Q1012 NOSIG",
      "taf": "TAF LGAV 040500Z 0406/0506 02012KT 9999 FEW025"
    },
    {
      "icao": "LGTS",
      "alert": "OK",
      "vis_m": 9999,
      "fzfg": false,
      "metar_trigger": false,
      "taf_trigger": false,
      "metar": "METAR LGTS 040720Z 32013KT 9999 FEW025 30/14 Q1014 NOSIG",
      "taf": "TAF LGTS 040500Z 0406/0506 33015KT 9999 FEW030"
    },
    {
      "icao": "LHBP",
      "alert": "OK",
      "vis_m": 9999,
      "fzfg": false,
      "metar_trigger": false,
      "taf_trigger": false,
      "metar": "METAR LHBP 040700Z 32012KT 280V350 CAVOK 22/07 Q1021 NOSIG",
      "taf": "TAF LHBP 040515Z 0406/0506 32008KT CAVOK"
    },
    {
      "icao": "LHDC",
      "alert": "OK",
      "vis_m": 9999,
      "fzfg": false,
      "metar_trigger": false,
      "taf_trigger": false,
      "metar": "METAR LHDC 040645Z AUTO 35007KT 300V070 CAVOK 22/07 Q1020 NOSIG",
      "taf": "TAF LHDC 040515Z 0406/0415 33005KT CAVOK"
    },
    {
      "icao": "LIBD",
      "alert": "OK",
      "vis_m": 9999,
      "fzfg": false,
      "metar_trigger": false,
      "taf_trigger": false,
      "metar": "METAR LIBD 040720Z 01007KT 330V040 CAVOK 28/18 Q1017",
      "taf": "TAF LIBD 040500Z 0406/0506 31010KT CAVOK"
    },
    {
      "icao": "LIBG",
      "alert": "OK",
      "vis_m": 9999,
      "fzfg": false,
      "metar_trigger": false,
      "taf_trigger": false,
      "metar": "METAR LIBG 040720Z AUTO 02012KT 9999 NCD 30/16 Q1016",
      "taf": "TAF LIBG 040500Z 0406/0506 33005KT CAVOK"
    },
    {
      "icao": "LIBP",
      "alert": "OK",
      "vis_m": 9999,
      "fzfg": false,
      "metar_trigger": false,
      "taf_trigger": false,
      "metar": "METAR LIBP 040720Z AUTO 33007KT 290V360 9999 NCD 28/17 Q1020",
      "taf": "TAF LIBP 040500Z 0406/0506 29008KT CAVOK"
    },
    {
      "icao": "LIBR",
      "alert": "OK",
      "vis_m": 9999,
      "fzfg": false,
      "metar_trigger": false,
      "taf_trigger": false,
      "metar": "METAR LIBR 040720Z 02016KT CAVOK 29/20 Q1015",
      "taf": "TAF LIBR 040500Z 0406/0506 03015KT CAVOK"
    },
    {
      "icao": "LICA",
      "alert": "OK",
      "vis_m": 9999,
      "fzfg": false,
      "metar_trigger": false,
      "taf_trigger": false,
      "metar": "METAR LICA 040720Z AUTO 25007KT 220V280 9999 FEW003/// 28/23 Q1016",
      "taf": "TAF LICA 040500Z 0406/0506 VRB05KT 9999 FEW030"
    },
    {
      "icao": "LICC",
      "alert": "OK",
      "vis_m": 9999,
      "fzfg": false,
      "metar_trigger": false,
      "taf_trigger": false,
      "metar": "METAR LICC 040720Z 23003KT 180V310 CAVOK 30/24 Q1015",
      "taf": "TAF LICC 040500Z 0406/0506 VRB05KT 9999 FEW040"
    },
    {
      "icao": "LICJ",
      "alert": "OK",
      "vis_m": 9999,
      "fzfg": false,
      "metar_trigger": false,
      "taf_trigger": false,
      "metar": "METAR LICJ 040720Z VRB02KT 9999 FEW020 28/23 Q1018",
      "taf": "TAF LICJ 040500Z 0406/0506 VRB05KT 9999 FEW030"
    },
    {
      "icao": "LIMC",
      "alert": "OK",
      "vis_m": 9999,
      "fzfg": false,
      "metar_trigger": false,
      "taf_trigger": false,
      "metar": "METAR LIMC 040720Z 03008KT CAVOK 28/10 Q1022 NOSIG",
      "taf": "TAF LIMC 040500Z 0406/0512 VRB05KT 9999 FEW070"
    },
    {
      "icao": "LIME",
      "alert": "OK",
      "vis_m": 9999,
      "fzfg": false,
      "metar_trigger": false,
      "taf_trigger": false,
      "metar": "METAR LIME 040720Z 19004KT 160V220 9999 FEW095 26/16 Q1022 NOSIG",
      "taf": "TAF LIME 040500Z 0406/0506 VRB05KT 9999 FEW070"
    },
    {
      "icao": "LIMF",
      "alert": "OK",
      "vis_m": 9999,
      "fzfg": false,
      "metar_trigger": false,
      "taf_trigger": false,
      "metar": "METAR LIMF 040720Z 03005KT 350V060 CAVOK 28/11 Q1022",
      "taf": "TAF LIMF 040500Z 0406/0506 VRB05KT 9999 FEW090"
    },
    {
      "icao": "LIMJ",
      "alert": "OK",
      "vis_m": 9999,
      "fzfg": false,
      "metar_trigger": false,
      "taf_trigger": false,
      "metar": "METAR LIMJ 040720Z 19002KT CAVOK 28/17 Q1020",
      "taf": "TAF LIMJ 040500Z 0406/0506 VRB05KT CAVOK"
    },
    {
      "icao": "LIPE",
      "alert": "OK",
      "vis_m": 9999,
      "fzfg": false,
      "metar_trigger": false,
      "taf_trigger": false,
      "metar": "METAR LIPE 040720Z 07003KT 030V120 CAVOK 27/17 Q1020",
      "taf": "TAF LIPE 040500Z 0406/0506 VRB05KT CAVOK"
    },
    {
      "icao": "LIPH",
      "alert": "OK",
      "vis_m": 9999,
      "fzfg": false,
      "metar_trigger": false,
      "taf_trigger": false,
      "metar": "METAR LIPH 040720Z 07007KT 9999 SCT080 27/15 Q1022",
      "taf": "TAF LIPH 040500Z 0406/0506 04010KT CAVOK"
    },
    {
      "icao": "LIPQ",
      "alert": "OK",
      "vis_m": 9999,
      "fzfg": false,
      "metar_trigger": false,
      "taf_trigger": false,
      "metar": "METAR LIPQ 040720Z AUTO 13003KT 050V210 9999 NCD 27/12 Q1022",
      "taf": "TAF LIPQ 040500Z 0406/0506 VRB05KT CAVOK"
    },
    {
      "icao": "LIPR",
      "alert": "OK",
      "vis_m": 9999,
      "fzfg": false,
      "metar_trigger": false,
      "taf_trigger": false,
      "metar": "METAR LIPR 040720Z 03005KT 360V070 CAVOK 27/19 Q1021",
      "taf": "TAF LIPR 040500Z 0406/0506 VRB05KT CAVOK"
    },
    {
      "icao": "LIPX",
      "alert": "OK",
      "vis_m": 9999,
      "fzfg": false,
      "metar_trigger": false,
      "taf_trigger": false,
      "metar": "METAR LIPX 040720Z 08009KT 050V110 9999 SCT080 27/16 Q1021",
      "taf": "TAF LIPX 040500Z 0406/0506 09010KT 9999 FEW080"
    },
    {
      "icao": "LIPY",
      "alert": "OK",
      "vis_m": 9999,
      "fzfg": false,
      "metar_trigger": false,
      "taf_trigger": false,
      "metar": "METAR LIPY 040720Z AUTO VRB02KT 9999 NCD 28/17 Q1021",
      "taf": "TAF LIPY 040500Z 0406/0506 VRB05KT CAVOK"
    },
    {
      "icao": "LIPZ",
      "alert": "OK",
      "vis_m": 9999,
      "fzfg": false,
      "metar_trigger": false,
      "taf_trigger": false,
      "metar": "METAR LIPZ 040720Z 06006KT 9999 SCT070 27/17 Q1022 NOSIG",
      "taf": "TAF LIPZ 040500Z 0406/0512 04010KT CAVOK"
    },
    {
      "icao": "LIRF",
      "alert": "OK",
      "vis_m": 9999,
      "fzfg": false,
      "metar_trigger": false,
      "taf_trigger": false,
      "metar": "METAR LIRF 040720Z 05007KT CAVOK 30/13 Q1018 NOSIG",
      "taf": "TAF LIRF 040500Z 0406/0512 04010KT CAVOK"
    },
    {
      "icao": "LIRN",
      "alert": "OK",
      "vis_m": 9999,
      "fzfg": false,
      "metar_trigger": false,
      "taf_trigger": false,
      "metar": "METAR LIRN 040720Z 06010KT 040V100 CAVOK 29/14 Q1018 NOSIG",
      "taf": "TAF LIRN 040500Z 0406/0506 VRB05KT 9999 FEW030"
    },
    {
      "icao": "LIRP",
      "alert": "OK",
      "vis_m": 9999,
      "fzfg": false,
      "metar_trigger": false,
      "taf_trigger": false,
      "metar": "METAR LIRP 040715Z 10005KT CAVOK 26/17 Q1020 NOSIG",
      "taf": "TAF LIRP 040500Z 0406/0506 VRB03KT CAVOK"
    },
    {
      "icao": "LIRZ",
      "alert": "OK",
      "vis_m": 9999,
      "fzfg": false,
      "metar_trigger": false,
      "taf_trigger": false,
      "metar": "METAR LIRZ 040720Z AUTO 07007KT 040V110 9999 NCD 27/12 Q1021",
      "taf": "TAF LIRZ 040500Z 0406/0506 VRB05KT CAVOK"
    },
    {
      "icao": "LJLJ",
      "alert": "OK",
      "vis_m": 9999,
      "fzfg": false,
      "metar_trigger": false,
      "taf_trigger": false,
      "metar": "METAR LJLJ 040700Z 05005KT 9999 FEW070 21/09 Q1024 NOSIG",
      "taf": "TAF LJLJ 040500Z 0406/0506 12004KT CAVOK"
    },
    {
      "icao": "LKMT",
      "alert": "OK",
      "vis_m": 9999,
      "fzfg": false,
      "metar_trigger": false,
      "taf_trigger": false,
      "metar": "METAR LKMT 040700Z 24005KT 150V310 9999 BKN046 19/09 Q1022 NOSIG",
      "taf": "TAF LKMT 040500Z 0406/0506 26005KT CAVOK"
    },
    {
      "icao": "LKPR",
      "alert": "OK",
      "vis_m": 9999,
      "fzfg": false,
      "metar_trigger": false,
      "taf_trigger": false,
      "metar": "METAR LKPR 040700Z 29008KT 250V340 9999 BKN031 17/10 Q1024 NOSIG",
      "taf": "TAF LKPR 040500Z 0406/0512 26006KT CAVOK"
    },
    {
      "icao": "LLBG",
      "alert": "OK",
      "vis_m": 9999,
      "fzfg": false,
      "metar_trigger": false,
      "taf_trigger": false,
      "metar": "METAR LLBG 040720Z 22008KT 9999 BKN030 29/20 Q1008 NOSIG",
      "taf": "TAF LLBG 040505Z 0406/0506 VRB04KT 9999 SCT025 TX30/0412Z TN24/0504Z"
    },
    {
      "icao": "LMML",
      "alert": "OK",
      "vis_m": 9999,
      "fzfg": false,
      "metar_trigger": false,
      "taf_trigger": false,
      "metar": "METAR LMML 040715Z 35010KT CAVOK 29/19 Q1017 NOSIG",
      "taf": "TAF LMML 040500Z 0406/0506 32009KT 9999 FEW040"
    },
    {
      "icao": "LOWW",
      "alert": "OK",
      "vis_m": 9999,
      "fzfg": false,
      "metar_trigger": false,
      "taf_trigger": false,
      "metar": "METAR LOWW 040720Z 33012KT CAVOK 22/08 Q1024 NOSIG",
      "taf": "TAF LOWW 040515Z 0406/0512 33012KT CAVOK TX27/0414Z TN16/0503Z"
    },
    {
      "icao": "LPFR",
      "alert": "OK",
      "vis_m": 9999,
      "fzfg": false,
      "metar_trigger": false,
      "taf_trigger": false,
      "metar": "METAR LPFR 040700Z 07008KT CAVOK 29/11 Q1019",
      "taf": "TAF LPFR 040500Z 0406/0506 04007KT CAVOK"
    },
    {
      "icao": "LPMA",
      "alert": "OK",
      "vis_m": 9999,
      "fzfg": false,
      "metar_trigger": false,
      "taf_trigger": false,
      "metar": "METAR LPMA 040700Z VRB02KT 9999 BKN011 21/19 Q1016",
      "taf": "TAF LPMA 040500Z 0406/0506 VRB05KT 9999 BKN012"
    },
    {
      "icao": "LPPR",
      "alert": "OK",
      "vis_m": 9999,
      "fzfg": false,
      "metar_trigger": false,
      "taf_trigger": false,
      "metar": "METAR LPPR 040700Z 09006KT 050V120 CAVOK 29/10 Q1020",
      "taf": "TAF LPPR 040500Z 0406/0506 09005KT CAVOK"
    },
    {
      "icao": "LPPS",
      "alert": "OK",
      "vis_m": 8000,
      "fzfg": false,
      "metar_trigger": false,
      "taf_trigger": false,
      "metar": "METAR LPPS 040700Z VRB02KT 8000 SCT005 BKN010 21/20 Q1016",
      "taf": "TAF LPPS 040500Z 0406/0512 VRB05KT 9999 BKN006"
    },
    {
      "icao": "LPPT",
      "alert": "OK",
      "vis_m": 9999,
      "fzfg": false,
      "metar_trigger": false,
      "taf_trigger": false,
      "metar": "METAR LPPT 040700Z VRB02KT CAVOK 28/14 Q1020 NOSIG",
      "taf": "TAF LPPT 040500Z 0406/0512 31008KT CAVOK"
    },
    {
      "icao": "LQBK",
      "alert": "OK",
      "vis_m": 9999,
      "fzfg": false,
      "metar_trigger": false,
      "taf_trigger": false,
      "metar": "METAR LQBK 040700Z 36004KT 320V030 CAVOK 23/10 Q1023 NOSIG",
      "taf": "TAF LQBK 040500Z 0406/0506 16005KT CAVOK TX28/0413Z TN12/0503Z"
    },
    {
      "icao": "LQSA",
      "alert": "OK",
      "vis_m": 9999,
      "fzfg": false,
      "metar_trigger": false,
      "taf_trigger": false,
      "metar": "METAR LQSA 040700Z 31005KT CAVOK 20/08 Q1024 NOSIG",
      "taf": "TAF LQSA 040500Z 0406/0506 33005KT CAVOK TX26/0413Z TN14/0503Z"
    },
    {
      "icao": "LQTZ",
      "alert": "OK",
      "vis_m": 9999,
      "fzfg": false,
      "metar_trigger": false,
      "taf_trigger": false,
      "metar": "METAR LQTZ 040700Z 32006KT 280V350 CAVOK 21/10 Q1023",
      "taf": "TAF LQTZ 040500Z 0406/0506 27005KT CAVOK TX27/0413Z TN11/0503Z"
    },
    {
      "icao": "LRBC",
      "alert": "OK",
      "vis_m": 9999,
      "fzfg": false,
      "metar_trigger": false,
      "taf_trigger": false,
      "metar": "METAR LRBC 040700Z 35014KT CAVOK 22/09 Q1016",
      "taf": "TAF LRBC 040500Z 0406/0415 35016KT CAVOK"
    },
    {
      "icao": "LRBS",
      "alert": "OK",
      "vis_m": 9999,
      "fzfg": false,
      "metar_trigger": false,
      "taf_trigger": false,
      "metar": "METAR LRBS 040700Z VRB01KT CAVOK 22/17 Q1016 NOSIG",
      "taf": "TAF LRBS 040500Z 0406/0506 VRB04KT CAVOK"
    },
    {
      "icao": "LRBV",
      "alert": "OK",
      "vis_m": 9999,
      "fzfg": false,
      "metar_trigger": false,
      "taf_trigger": false,
      "metar": "METAR LRBV 040700Z VRB10KT 9999 BKN021 BKN085 17/14 Q1018",
      "taf": "TAF LRBV 040500Z 0406/0415 30014KT 9999 BKN010 BKN035"
    },
    {
      "icao": "LRCL",
      "alert": "OK",
      "vis_m": 9999,
      "fzfg": false,
      "metar_trigger": false,
      "taf_trigger": false,
      "metar": "METAR LRCL 040700Z 30010KT 270V350 CAVOK 20/07 Q1019",
      "taf": "TAF LRCL 040500Z 0406/0415 31010KT CAVOK"
    },
    {
      "icao": "LRCV",
      "alert": "OK",
      "vis_m": 9999,
      "fzfg": false,
      "metar_trigger": false,
      "taf_trigger": false,
      "metar": "METAR LRCV 040700Z 16009KT 130V190 9999 SCT022 25/19 Q1016",
      "taf": "TAF LRCV 040500Z 0406/0415 VRB04KT CAVOK"
    },
    {
      "icao": "LRIA",
      "alert": "OK",
      "vis_m": 9999,
      "fzfg": false,
      "metar_trigger": false,
      "taf_trigger": false,
      "metar": "METAR LRIA 040700Z 33017KT CAVOK 21/10 Q1015",
      "taf": "TAF LRIA 040500Z 0406/0415 32015KT CAVOK"
    },
    {
      "icao": "LROP",
      "alert": "OK",
      "vis_m": 9999,
      "fzfg": false,
      "metar_trigger": false,
      "taf_trigger": false,
      "metar": "METAR LROP 040700Z 28006KT CAVOK 22/18 Q1016 NOSIG",
      "taf": "TAF LROP 040500Z 0406/0506 VRB04KT CAVOK"
    },
    {
      "icao": "LRSB",
      "alert": "OK",
      "vis_m": 9999,
      "fzfg": false,
      "metar_trigger": false,
      "taf_trigger": false,
      "metar": "METAR LRSB 040700Z 01006KT 9999 BKN065 19/11 Q1019 NOSIG",
      "taf": "TAF LRSB 040500Z 0406/0506 VRB04KT CAVOK"
    },
    {
      "icao": "LRSM",
      "alert": "OK",
      "vis_m": 9999,
      "fzfg": false,
      "metar_trigger": false,
      "taf_trigger": false,
      "metar": "METAR LRSM 040700Z AUTO 35007KT 310V020 9999 NCD 21/09 Q1019",
      "taf": ""
    },
    {
      "icao": "LRSV",
      "alert": "OK",
      "vis_m": 9999,
      "fzfg": false,
      "metar_trigger": false,
      "taf_trigger": false,
      "metar": "METAR LRSV 040700Z 30011KT 270V330 CAVOK 19/09 Q1017",
      "taf": "TAF LRSV 040500Z 0406/0415 32012KT 9999 SCT035"
    },
    {
      "icao": "LRTM",
      "alert": "OK",
      "vis_m": 9999,
      "fzfg": false,
      "metar_trigger": false,
      "taf_trigger": false,
      "metar": "METAR LRTM 040700Z 28008KT 250V320 CAVOK 20/14 Q1018",
      "taf": "TAF LRTM 040500Z 0406/0415 31012KT CAVOK"
    },
    {
      "icao": "LRTR",
      "alert": "OK",
      "vis_m": 9999,
      "fzfg": false,
      "metar_trigger": false,
      "taf_trigger": false,
      "metar": "METAR LRTR 040700Z 02012KT 340V050 CAVOK 23/06 Q1020",
      "taf": "TAF LRTR 040500Z 0406/0506 34010KT CAVOK"
    },
    {
      "icao": "LTAC",
      "alert": "OK",
      "vis_m": 9999,
      "fzfg": false,
      "metar_trigger": false,
      "taf_trigger": false,
      "metar": "METAR LTAC 040720Z VRB04KT CAVOK 24/10 Q1013 NOSIG",
      "taf": "TAF LTAC 040440Z 0406/0506 VRB02KT CAVOK"
    },
    {
      "icao": "LTFM",
      "alert": "OK",
      "vis_m": 9999,
      "fzfg": false,
      "metar_trigger": false,
      "taf_trigger": false,
      "metar": "METAR LTFM 040720Z 35022KT 9999 -SHRA SCT011 FEW018CB BKN025 23/20 Q1012 NOSIG",
      "taf": "TAF LTFM 040440Z 0406/0512 34015KT 9999 -SHRA SCT022 BKN080"
    },
    {
      "icao": "LUKK",
      "alert": "OK",
      "vis_m": 9999,
      "fzfg": false,
      "metar_trigger": false,
      "taf_trigger": false,
      "metar": "METAR LUKK 040700Z 34015KT 310V010 CAVOK 23/12 Q1013 TEMPO 32016G26KT",
      "taf": "TAF LUKK 040503Z 0406/0506 33014KT CAVOK"
    },
    {
      "icao": "LWOH",
      "alert": "OK",
      "vis_m": 9999,
      "fzfg": false,
      "metar_trigger": false,
      "taf_trigger": false,
      "metar": "METAR LWOH 040720Z 35009KT 310V040 9999 FEW040 24/13 Q1019",
      "taf": "TAF LWOH 040515Z 0406/0506 34005KT CAVOK"
    },
    {
      "icao": "LWSK",
      "alert": "OK",
      "vis_m": 9999,
      "fzfg": false,
      "metar_trigger": false,
      "taf_trigger": false,
      "metar": "METAR LWSK 040720Z 30007G17KT 260V010 CAVOK 26/09 Q1019 NOSIG",
      "taf": "TAF LWSK 040515Z 0406/0506 02008KT CAVOK"
    },
    {
      "icao": "LYBE",
      "alert": "OK",
      "vis_m": 9999,
      "fzfg": false,
      "metar_trigger": false,
      "taf_trigger": false,
      "metar": "METAR LYBE 040700Z 33010KT 310V010 CAVOK 22/09 Q1022 NOSIG",
      "taf": "TAF LYBE 040500Z 0406/0506 32011KT CAVOK TX27/0413Z TN13/0503Z"
    },
    {
      "icao": "LYNI",
      "alert": "OK",
      "vis_m": 9999,
      "fzfg": false,
      "metar_trigger": false,
      "taf_trigger": false,
      "metar": "METAR LYNI 040700Z 32009KT 280V010 9999 FEW050 22/11 Q1020 NOSIG",
      "taf": "TAF LYNI 040500Z 0406/0506 32018KT CAVOK TX26/0413Z TN11/0503Z"
    },
    {
      "icao": "LYPG",
      "alert": "OK",
      "vis_m": 9999,
      "fzfg": false,
      "metar_trigger": false,
      "taf_trigger": false,
      "metar": "METAR LYPG 040700Z 36022G32KT CAVOK 28/05 Q1017 NOSIG",
      "taf": "TAF LYPG 040500Z 0406/0506 36015KT CAVOK TX33/0413Z TN25/0503Z"
    },
    {
      "icao": "LZIB",
      "alert": "OK",
      "vis_m": 9999,
      "fzfg": false,
      "metar_trigger": false,
      "taf_trigger": false,
      "metar": "METAR LZIB 040700Z 33011KT 9999 FEW042 21/09 Q1023 NOSIG",
      "taf": "TAF LZIB 040515Z 0406/0506 33012KT CAVOK"
    },
    {
      "icao": "LZKZ",
      "alert": "OK",
      "vis_m": 9999,
      "fzfg": false,
      "metar_trigger": false,
      "taf_trigger": false,
      "metar": "METAR LZKZ 040700Z 33009KT 290V010 CAVOK 21/08 Q1020 NOSIG",
      "taf": "TAF LZKZ 040515Z 0406/0506 02004KT CAVOK"
    },
    {
      "icao": "LZTT",
      "alert": "OK",
      "vis_m": 9999,
      "fzfg": false,
      "metar_trigger": false,
      "taf_trigger": false,
      "metar": "METAR LZTT 040700Z 26016KT 9999 FEW033 17/08 Q1020 NOSIG",
      "taf": "TAF LZTT 040515Z 0406/0506 27007KT 9999 FEW060"
    },
    {
      "icao": "OEJN",
      "alert": "OK",
      "vis_m": 9999,
      "fzfg": false,
      "metar_trigger": false,
      "taf_trigger": false,
      "metar": "METAR OEJN 040700Z 30006KT CAVOK 34/24 Q1006 NOSIG",
      "taf": "TAF OEJN 040500Z 0406/0512 33014KT CAVOK"
    },
    {
      "icao": "OEMA",
      "alert": "OK",
      "vis_m": 9999,
      "fzfg": false,
      "metar_trigger": false,
      "taf_trigger": false,
      "metar": "METAR OEMA 040700Z VRB03KT CAVOK 40/M06 Q1010 NOSIG",
      "taf": "TAF OEMA 040500Z 0406/0512 30012KT CAVOK"
    },
    {
      "icao": "OJAI",
      "alert": "OK",
      "vis_m": 4000,
      "fzfg": false,
      "metar_trigger": false,
      "taf_trigger": false,
      "metar": "METAR OJAI 040700Z 27012KT 4000 HZ NSC 24/16 Q1013 NOSIG",
      "taf": "TAF OJAI 040508Z 0406/0512 28010KT 4000 DU NSC"
    },
    {
      "icao": "OMAA",
      "alert": "OK",
      "vis_m": 9999,
      "fzfg": false,
      "metar_trigger": false,
      "taf_trigger": false,
      "metar": "METAR OMAA 040730Z 29005KT 260V320 CAVOK 38/27 Q0999 NOSIG",
      "taf": "TAF OMAA 040500Z 0406/0512 VRB02KT 8000 NSC"
    },
    {
      "icao": "OMDB",
      "alert": "OK",
      "vis_m": 8000,
      "fzfg": false,
      "metar_trigger": false,
      "taf_trigger": false,
      "metar": "METAR OMDB 040730Z 34008KT 300V030 8000 NSC 40/28 Q0999 NOSIG",
      "taf": "TAF OMDB 040500Z 0406/0512 03005KT 8000 NSC"
    },
    {
      "icao": "UAAA",
      "alert": "OK",
      "vis_m": 9999,
      "fzfg": false,
      "metar_trigger": false,
      "taf_trigger": false,
      "metar": "METAR UAAA 040700Z 26005MPS 220V300 9999 SCT050CB BKN200 25/14 Q1007 NOSIG",
      "taf": "TAF UAAA 040504Z 0406/0506 17003G08MPS 9999 SCT050CB BKN100 TX26/0410Z TN14/0501Z"
    },
    {
      "icao": "UBBB",
      "alert": "OK",
      "vis_m": 9999,
      "fzfg": false,
      "metar_trigger": false,
      "taf_trigger": false,
      "metar": "METAR UBBB 040730Z 14012KT CAVOK 28/16 Q1005 NOSIG",
      "taf": "TAF UBBB 040504Z 0406/0506 15008KT 9999 SCT040 TX31/0410Z TN21/0501Z"
    },
    {
      "icao": "UDSG",
      "alert": "OK",
      "vis_m": 9999,
      "fzfg": false,
      "metar_trigger": false,
      "taf_trigger": false,
      "metar": "METAR UDSG 040700Z 29003KT 200V340 9999 FEW049 21/13 Q1014 NOSIG",
      "taf": "TAF UDSG 040500Z 0406/0506 35006KT 9999 SCT040"
    },
    {
      "icao": "UDYZ",
      "alert": "OK",
      "vis_m": 9999,
      "fzfg": false,
      "metar_trigger": false,
      "taf_trigger": false,
      "metar": "METAR UDYZ 040700Z 21004KT 160V250 9999 FEW043CB 26/14 Q1009 NOSIG",
      "taf": "TAF UDYZ 040500Z 0406/0506 24006KT 9999 SCT040"
    },
    {
      "icao": "UGKO",
      "alert": "OK",
      "vis_m": 9999,
      "fzfg": false,
      "metar_trigger": false,
      "taf_trigger": false,
      "metar": "METAR UGKO 040700Z 23005KT 200V260 9999 SCT020 BKN053 25/21 Q1008 NOSIG",
      "taf": "TAF UGKO 040500Z 0406/0506 26007KT 9999 SCT020 BKN055 TX28/0412Z TN19/0502Z"
    }
  ]
}