{
  "ts_utc": "2026-04-07T17:15:10Z",
  "threshold_m": 150,
  "source": "stations_override.txt (ICAO list) + aviationweather.gov (METAR/TAF raw)",
  "station_count": 159,
  "stations": [
    {
      "icao": "BIKF",
      "alert": "OK",
      "vis_m": 9999,
      "fzfg": false,
      "metar_trigger": false,
      "taf_trigger": false,
      "metar": "METAR BIKF 071700Z 20027KT 9999 -SHRA BKN013 BKN032 07/06 Q0988",
      "taf": "TAF BIKF 071620Z 0718/0818 19028G38KT 9999 -SHRA SCT015 BKN020 TX07/0718Z TN04/0803Z"
    },
    {
      "icao": "BKPR",
      "alert": "OK",
      "vis_m": 9999,
      "fzfg": false,
      "metar_trigger": false,
      "taf_trigger": false,
      "metar": "METAR BKPR 071700Z 34007KT 9999 BKN040 17/06 Q1016 NOSIG",
      "taf": ""
    },
    {
      "icao": "EBCI",
      "alert": "OK",
      "vis_m": 9999,
      "fzfg": false,
      "metar_trigger": false,
      "taf_trigger": false,
      "metar": "METAR EBCI 071650Z 06011KT CAVOK 17/07 Q1023 NOSIG",
      "taf": "TAF EBCI 071113Z 0712/0818 07008KT CAVOK"
    },
    {
      "icao": "EDDB",
      "alert": "OK",
      "vis_m": 9999,
      "fzfg": false,
      "metar_trigger": false,
      "taf_trigger": false,
      "metar": "METAR EDDB 071650Z AUTO 35010KT CAVOK 12/M03 Q1026 NOSIG",
      "taf": "TAF EDDB 071100Z 0712/0812 32012G22KT 9999 SCT025"
    },
    {
      "icao": "EDDH",
      "alert": "OK",
      "vis_m": 9999,
      "fzfg": false,
      "metar_trigger": false,
      "taf_trigger": false,
      "metar": "METAR EDDH 071650Z AUTO 04008KT 010V080 CAVOK 13/M00 Q1027 NOSIG",
      "taf": "TAF EDDH 071100Z 0712/0818 33007KT CAVOK"
    },
    {
      "icao": "EDDK",
      "alert": "OK",
      "vis_m": 9999,
      "fzfg": false,
      "metar_trigger": false,
      "taf_trigger": false,
      "metar": "METAR EDDK 071650Z AUTO 04004KT 010V110 CAVOK 19/M02 Q1024 NOSIG",
      "taf": "TAF EDDK 071100Z 0712/0818 02006KT CAVOK"
    },
    {
      "icao": "EDDN",
      "alert": "OK",
      "vis_m": 9999,
      "fzfg": false,
      "metar_trigger": false,
      "taf_trigger": false,
      "metar": "METAR EDDN 071650Z AUTO 36007KT CAVOK 16/M01 Q1023 NOSIG",
      "taf": "TAF EDDN 071100Z 0712/0812 35006KT CAVOK"
    },
    {
      "icao": "EDDS",
      "alert": "OK",
      "vis_m": 9999,
      "fzfg": false,
      "metar_trigger": false,
      "taf_trigger": false,
      "metar": "METAR EDDS 071650Z AUTO 35006KT 320V040 CAVOK 18/02 Q1022 NOSIG",
      "taf": "TAF EDDS 071100Z 0712/0812 04004KT CAVOK"
    },
    {
      "icao": "EDFH",
      "alert": "OK",
      "vis_m": 9999,
      "fzfg": false,
      "metar_trigger": false,
      "taf_trigger": false,
      "metar": "METAR EDFH 071650Z 05005KT 020V100 CAVOK 16/02 Q1024",
      "taf": "TAF EDFH 071100Z 0712/0812 10007KT CAVOK"
    },
    {
      "icao": "EDJA",
      "alert": "OK",
      "vis_m": 9999,
      "fzfg": false,
      "metar_trigger": false,
      "taf_trigger": false,
      "metar": "METAR EDJA 071650Z 01006KT 340V040 CAVOK 16/07 Q1022",
      "taf": "TAF EDJA 071400Z 0715/0724 35004KT CAVOK"
    },
    {
      "icao": "EDLW",
      "alert": "OK",
      "vis_m": 9999,
      "fzfg": false,
      "metar_trigger": false,
      "taf_trigger": false,
      "metar": "METAR EDLW 071650Z 07008KT 040V100 CAVOK 14/M03 Q1025",
      "taf": "TAF EDLW 071100Z 0712/0812 06007KT CAVOK"
    },
    {
      "icao": "EDNY",
      "alert": "OK",
      "vis_m": 9999,
      "fzfg": false,
      "metar_trigger": false,
      "taf_trigger": false,
      "metar": "METAR EDNY 071650Z 21004KT CAVOK 19/08 Q1022",
      "taf": "TAF EDNY 071400Z 0715/0724 25005KT CAVOK"
    },
    {
      "icao": "EDSB",
      "alert": "OK",
      "vis_m": 9999,
      "fzfg": false,
      "metar_trigger": false,
      "taf_trigger": false,
      "metar": "METAR EDSB 071650Z 02009KT CAVOK 19/03 Q1022",
      "taf": "TAF EDSB 071100Z 0712/0812 01010KT CAVOK"
    },
    {
      "icao": "EETN",
      "alert": "OK",
      "vis_m": 9999,
      "fzfg": false,
      "metar_trigger": false,
      "taf_trigger": false,
      "metar": "METAR EETN 071650Z 34006KT 9999 BKN028 05/03 Q1017 NOSIG",
      "taf": "TAF EETN 071130Z 0712/0812 36012KT 9999 BKN025 0712/0715 5000 SHRA BKN012 SCT020CB"
    },
    {
      "icao": "EFTU",
      "alert": "OK",
      "vis_m": 9999,
      "fzfg": false,
      "metar_trigger": false,
      "taf_trigger": false,
      "metar": "METAR EFTU 071650Z AUTO 01005KT 330V040 CAVOK 07/02 Q1020",
      "taf": "TAF EFTU 071427Z 0715/0815 01009KT 9999 FEW030 OVC045"
    },
    {
      "icao": "EGBB",
      "alert": "OK",
      "vis_m": 9999,
      "fzfg": false,
      "metar_trigger": false,
      "taf_trigger": false,
      "metar": "METAR EGBB 071650Z 11015KT CAVOK 19/05 Q1020",
      "taf": "TAF EGBB 071104Z 0712/0812 11013KT CAVOK"
    },
    {
      "icao": "EGGP",
      "alert": "OK",
      "vis_m": 9999,
      "fzfg": false,
      "metar_trigger": false,
      "taf_trigger": false,
      "metar": "METAR EGGP 071650Z 14011KT CAVOK 17/06 Q1019",
      "taf": "TAF EGGP 071654Z 0718/0818 14010KT CAVOK"
    },
    {
      "icao": "EGGW",
      "alert": "OK",
      "vis_m": 9999,
      "fzfg": false,
      "metar_trigger": false,
      "taf_trigger": false,
      "metar": "METAR EGGW 071650Z AUTO 12013KT 9999 NCD 16/05 Q1021",
      "taf": "TAF EGGW 071654Z 0718/0818 11010KT CAVOK"
    },
    {
      "icao": "EGKK",
      "alert": "OK",
      "vis_m": 9999,
      "fzfg": false,
      "metar_trigger": false,
      "taf_trigger": false,
      "metar": "METAR EGKK 071650Z 09009KT CAVOK 19/05 Q1021",
      "taf": "TAF EGKK 071655Z 0718/0824 09008KT CAVOK"
    },
    {
      "icao": "EGNM",
      "alert": "OK",
      "vis_m": 9999,
      "fzfg": false,
      "metar_trigger": false,
      "taf_trigger": false,
      "metar": "METAR EGNM 071650Z 14014KT CAVOK 16/03 Q1021",
      "taf": "TAF EGNM 071656Z 0718/0818 14010KT CAVOK"
    },
    {
      "icao": "EGPD",
      "alert": "OK",
      "vis_m": 9999,
      "fzfg": false,
      "metar_trigger": false,
      "taf_trigger": false,
      "metar": "METAR EGPD 071650Z COR AUTO 16012G22KT 130V190 9999 NCD 09/05 Q1021 NOSIG",
      "taf": "TAF EGPD 071659Z 0718/0818 15012KT CAVOK"
    },
    {
      "icao": "EGPF",
      "alert": "OK",
      "vis_m": 9999,
      "fzfg": false,
      "metar_trigger": false,
      "taf_trigger": false,
      "metar": "METAR EGPF 071650Z AUTO 12010KT 090V160 9999 NCD 19/04 Q1017",
      "taf": "TAF EGPF 071654Z 0718/0818 13010KT CAVOK"
    },
    {
      "icao": "EHBK",
      "alert": "OK",
      "vis_m": 9999,
      "fzfg": false,
      "metar_trigger": false,
      "taf_trigger": false,
      "metar": "METAR EHBK 071655Z AUTO 05010KT 020V080 9999 NCD 16/02 Q1024 NOSIG",
      "taf": "TAF EHBK 071102Z 0712/0818 07011KT CAVOK"
    },
    {
      "icao": "EHEH",
      "alert": "OK",
      "vis_m": 9999,
      "fzfg": false,
      "metar_trigger": false,
      "taf_trigger": false,
      "metar": "METAR EHEH 071655Z AUTO 09008KT 040V130 9999 NCD 16/M01 Q1024 BLU NOSIG RMK TREND REMOTE BY EHWX",
      "taf": "TAF EHEH 071101Z 0712/0818 10011KT CAVOK"
    },
    {
      "icao": "EKBI",
      "alert": "OK",
      "vis_m": 9999,
      "fzfg": false,
      "metar_trigger": false,
      "taf_trigger": false,
      "metar": "METAR EKBI 071650Z AUTO 35003KT 9999 NCD 13/M02 Q1028",
      "taf": "TAF EKBI 071427Z 0715/0815 33004KT CAVOK"
    },
    {
      "icao": "EKCH",
      "alert": "OK",
      "vis_m": 9999,
      "fzfg": false,
      "metar_trigger": false,
      "taf_trigger": false,
      "metar": "METAR EKCH 071650Z AUTO 35012KT 9999 NCD 09/M02 Q1028 NOSIG",
      "taf": "TAF EKCH 071427Z 0715/0815 35014KT CAVOK"
    },
    {
      "icao": "ENAL",
      "alert": "OK",
      "vis_m": 9999,
      "fzfg": false,
      "metar_trigger": false,
      "taf_trigger": false,
      "metar": "METAR ENAL 071650Z 06009KT CAVOK 07/03 Q1028",
      "taf": "TAF ENAL 071400Z 0715/0724 VRB04KT CAVOK"
    },
    {
      "icao": "ENBR",
      "alert": "OK",
      "vis_m": 9999,
      "fzfg": false,
      "metar_trigger": false,
      "taf_trigger": false,
      "metar": "METAR ENBR 071650Z 20005KT 160V220 CAVOK 10/M04 Q1028 NOSIG RMK WIND 1200FT 16010KT",
      "taf": "TAF ENBR 071100Z 0712/0812 24007KT CAVOK"
    },
    {
      "icao": "ENGM",
      "alert": "OK",
      "vis_m": 9999,
      "fzfg": false,
      "metar_trigger": false,
      "taf_trigger": false,
      "metar": "METAR ENGM 071650Z 02005KT CAVOK 10/M05 Q1028 NOSIG",
      "taf": "TAF ENGM 071100Z 0712/0812 01008KT CAVOK"
    },
    {
      "icao": "ENHD",
      "alert": "OK",
      "vis_m": 9999,
      "fzfg": false,
      "metar_trigger": false,
      "taf_trigger": false,
      "metar": "METAR ENHD 071650Z 26004KT CAVOK 08/01 Q1028",
      "taf": "TAF ENHD 071400Z 0715/0722 30007KT CAVOK"
    },
    {
      "icao": "ENTC",
      "alert": "OK",
      "vis_m": 9999,
      "fzfg": false,
      "metar_trigger": false,
      "taf_trigger": false,
      "metar": "METAR ENTC 071650Z 15004KT CAVOK 04/M06 Q1033 NOSIG RMK WIND 2600FT 16019KT",
      "taf": "TAF ENTC 071100Z 0712/0812 20006KT CAVOK"
    },
    {
      "icao": "ENTO",
      "alert": "OK",
      "vis_m": 9999,
      "fzfg": false,
      "metar_trigger": false,
      "taf_trigger": false,
      "metar": "METAR ENTO 071650Z 23008KT CAVOK 11/M04 Q1028 NOSIG",
      "taf": "TAF ENTO 071100Z 0712/0812 34007KT CAVOK"
    },
    {
      "icao": "ENVA",
      "alert": "OK",
      "vis_m": 9999,
      "fzfg": false,
      "metar_trigger": false,
      "taf_trigger": false,
      "metar": "METAR ENVA 071650Z VRB02KT 9999 FEW044 09/02 Q1030 NOSIG RMK WIND 670FT VRB02KT",
      "taf": "TAF ENVA 071100Z 0712/0812 VRB04KT 9999 FEW010 BKN020"
    },
    {
      "icao": "ENZV",
      "alert": "OK",
      "vis_m": 9999,
      "fzfg": false,
      "metar_trigger": false,
      "taf_trigger": false,
      "metar": "METAR ENZV 071650Z 29007KT CAVOK 09/02 Q1029 NOSIG",
      "taf": "TAF ENZV 071100Z 0712/0812 30010KT CAVOK"
    },
    {
      "icao": "EPGD",
      "alert": "OK",
      "vis_m": 9999,
      "fzfg": false,
      "metar_trigger": false,
      "taf_trigger": false,
      "metar": "METAR EPGD 071700Z 34014KT 9999 BKN023 05/M00 Q1023",
      "taf": "TAF EPGD 071130Z 0712/0812 33020KT 9999 BKN035"
    },
    {
      "icao": "EPKK",
      "alert": "OK",
      "vis_m": 9999,
      "fzfg": false,
      "metar_trigger": false,
      "taf_trigger": false,
      "metar": "METAR EPKK 071700Z 30012KT 9999 SCT051 08/M03 Q1020",
      "taf": "TAF EPKK 071430Z 0715/0815 29020G32KT CAVOK"
    },
    {
      "icao": "EPKT",
      "alert": "OK",
      "vis_m": 9999,
      "fzfg": false,
      "metar_trigger": false,
      "taf_trigger": false,
      "metar": "METAR EPKT 071700Z 30011KT 280V340 9999 FEW044 07/M02 Q1020",
      "taf": "TAF EPKT 071130Z 0712/0812 28018G28KT CAVOK"
    },
    {
      "icao": "EPLB",
      "alert": "OK",
      "vis_m": 9999,
      "fzfg": false,
      "metar_trigger": false,
      "taf_trigger": false,
      "metar": "METAR EPLB 071700Z 36013KT 320V030 9999 FEW031 SCT038TCU BKN045 05/00 Q1015",
      "taf": "TAF EPLB 071130Z 0712/0812 29020KT 9999 SCT030"
    },
    {
      "icao": "EPMO",
      "alert": "OK",
      "vis_m": 9999,
      "fzfg": false,
      "metar_trigger": false,
      "taf_trigger": false,
      "metar": "METAR EPMO 071700Z 32018G30KT 9999 BKN028 06/M01 Q1019",
      "taf": "TAF EPMO 071130Z 0712/0812 31020KT 9999 BKN035"
    },
    {
      "icao": "EPPO",
      "alert": "OK",
      "vis_m": 9999,
      "fzfg": false,
      "metar_trigger": false,
      "taf_trigger": false,
      "metar": "METAR EPPO 071700Z 35013KT CAVOK 10/M04 Q1024",
      "taf": "TAF EPPO 071130Z 0712/0812 30012KT 9999 BKN035"
    },
    {
      "icao": "EPRA",
      "alert": "OK",
      "vis_m": 9999,
      "fzfg": false,
      "metar_trigger": false,
      "taf_trigger": false,
      "metar": "METAR EPRA 071700Z 34014KT 9999 BKN040 07/M01 Q1017",
      "taf": "TAF EPRA 071430Z 0715/0724 32016KT 9999 BKN040"
    },
    {
      "icao": "EPRZ",
      "alert": "OK",
      "vis_m": 9999,
      "fzfg": false,
      "metar_trigger": false,
      "taf_trigger": false,
      "metar": "METAR EPRZ 071700Z 28011KT 9999 FEW050CB 06/01 Q1017",
      "taf": "TAF EPRZ 071130Z 0712/0812 28022G35KT CAVOK"
    },
    {
      "icao": "EPSC",
      "alert": "OK",
      "vis_m": 9999,
      "fzfg": false,
      "metar_trigger": false,
      "taf_trigger": false,
      "metar": "METAR EPSC 071700Z 33009KT CAVOK 09/M03 Q1026",
      "taf": "TAF EPSC 071130Z 0712/0812 32015KT CAVOK"
    },
    {
      "icao": "EPSY",
      "alert": "OK",
      "vis_m": 9999,
      "fzfg": false,
      "metar_trigger": false,
      "taf_trigger": false,
      "metar": "METAR EPSY 071700Z 32014KT 300V360 9999 -SHRA BKN013CB BKN026 04/01 Q1018",
      "taf": "TAF EPSY 071430Z 0715/0724 32012KT 9999 BKN035"
    },
    {
      "icao": "EPWA",
      "alert": "OK",
      "vis_m": 9999,
      "fzfg": false,
      "metar_trigger": false,
      "taf_trigger": false,
      "metar": "METAR EPWA 071700Z 34021G31KT 9999 SCT040 07/M02 Q1018 TEMPO 34011KT",
      "taf": "TAF EPWA 071430Z 0715/0815 33020KT 9999 SCT045"
    },
    {
      "icao": "EPWR",
      "alert": "OK",
      "vis_m": 9999,
      "fzfg": false,
      "metar_trigger": false,
      "taf_trigger": false,
      "metar": "METAR EPWR 071700Z 31014KT CAVOK 11/M04 Q1023",
      "taf": "TAF EPWR 071430Z 0715/0815 32014KT 9999 SCT045"
    },
    {
      "icao": "ESGG",
      "alert": "OK",
      "vis_m": 9999,
      "fzfg": false,
      "metar_trigger": false,
      "taf_trigger": false,
      "metar": "METAR ESGG 071650Z 02010KT CAVOK 10/M07 Q1027",
      "taf": "TAF ESGG 071430Z 0715/0815 36010KT CAVOK"
    },
    {
      "icao": "ESKN",
      "alert": "OK",
      "vis_m": 9999,
      "fzfg": false,
      "metar_trigger": false,
      "taf_trigger": false,
      "metar": "METAR ESKN 071650Z 35011G22KT 320V030 9999 SCT037 07/00 Q1026",
      "taf": ""
    },
    {
      "icao": "ESMS",
      "alert": "OK",
      "vis_m": 9999,
      "fzfg": false,
      "metar_trigger": false,
      "taf_trigger": false,
      "metar": "METAR ESMS 071650Z 31013KT CAVOK 09/M01 Q1026",
      "taf": "TAF ESMS 071427Z 0715/0815 33015KT CAVOK"
    },
    {
      "icao": "ESSA",
      "alert": "OK",
      "vis_m": 9999,
      "fzfg": false,
      "metar_trigger": false,
      "taf_trigger": false,
      "metar": "METAR ESSA 071650Z 01019KT 9999 BKN023 04/M00 Q1026 NOSIG",
      "taf": "TAF ESSA 071430Z 0715/0815 36020KT 9999 BKN025"
    },
    {
      "icao": "EYKA",
      "alert": "OK",
      "vis_m": 9999,
      "fzfg": false,
      "metar_trigger": false,
      "taf_trigger": false,
      "metar": "METAR EYKA 071650Z 35007KT 270V040 9999 SCT020 BKN024 BKN029 05/02 Q1012",
      "taf": "TAF EYKA 071705Z 0718/0818 34008KT 8000 SCT015 BKN020"
    },
    {
      "icao": "EYPA",
      "alert": "OK",
      "vis_m": 9999,
      "fzfg": false,
      "metar_trigger": false,
      "taf_trigger": false,
      "metar": "METAR EYPA 071650Z 01012KT 330V040 9999 BKN013 04/01 Q1018",
      "taf": "TAF EYPA 071700Z 0718/0818 35010KT 8000 BKN015"
    },
    {
      "icao": "EYVI",
      "alert": "OK",
      "vis_m": 7000,
      "fzfg": false,
      "metar_trigger": false,
      "taf_trigger": false,
      "metar": "METAR EYVI 071650Z 35016KT 7000 -RA SCT014 BKN021 BKN028 04/02 Q1010 NOSIG",
      "taf": "TAF EYVI 071700Z 0718/0818 34010KT 6000 SCT010 BKN015"
    },
    {
      "icao": "GCFV",
      "alert": "OK",
      "vis_m": 9999,
      "fzfg": false,
      "metar_trigger": false,
      "taf_trigger": false,
      "metar": "METAR GCFV 071700Z 33014KT 9999 FEW020 SCT035 22/12 Q1020",
      "taf": "TAF GCFV 071400Z 0715/0815 01015KT 9999 SCT030 TX20/0814Z TN16/0806Z"
    },
    {
      "icao": "GCLP",
      "alert": "OK",
      "vis_m": 9999,
      "fzfg": false,
      "metar_trigger": false,
      "taf_trigger": false,
      "metar": "METAR GCLP 071700Z 01019KT 9999 -RA FEW012 BKN020 18/15 Q1021 NOSIG",
      "taf": "TAF GCLP 071400Z 0715/0815 36019KT 9999 BKN030 TX20/0814Z TN14/0806Z"
    },
    {
      "icao": "GCTS",
      "alert": "OK",
      "vis_m": 9999,
      "fzfg": false,
      "metar_trigger": false,
      "taf_trigger": false,
      "metar": "METAR GCTS 071700Z 07018KT 9999 SCT030 BKN050 20/12 Q1021 NOSIG",
      "taf": "TAF GCTS 071400Z 0715/0815 05017KT 9999 SCT035 TX20/0814Z TN14/0806Z"
    },
    {
      "icao": "GMAD",
      "alert": "OK",
      "vis_m": 8000,
      "fzfg": false,
      "metar_trigger": false,
      "taf_trigger": false,
      "metar": "METAR GMAD 071700Z 26014KT 8000 FEW020 21/12 Q1017 NOSIG",
      "taf": "TAF GMAD 071100Z 0712/0818 26010KT 8000 SCT026 BKN080"
    },
    {
      "icao": "GMMN",
      "alert": "OK",
      "vis_m": 8000,
      "fzfg": false,
      "metar_trigger": false,
      "taf_trigger": false,
      "metar": "METAR GMMN 071700Z 27010KT 230V300 8000 BKN026 SCT030TCU FEW033CB 19/13 Q1017 NOSIG",
      "taf": "TAF GMMN 071100Z 0712/0818 24012KT 9999 BKN020"
    },
    {
      "icao": "GMMX",
      "alert": "OK",
      "vis_m": 8000,
      "fzfg": false,
      "metar_trigger": false,
      "taf_trigger": false,
      "metar": "METAR GMMX 071700Z 31012KT 270V350 8000 SCT023 BKN080 20/13 Q1017 NOSIG",
      "taf": "TAF GMMX 071100Z 0712/0818 06006KT 8000 SCT033"
    },
    {
      "icao": "HEGN",
      "alert": "OK",
      "vis_m": 9999,
      "fzfg": false,
      "metar_trigger": false,
      "taf_trigger": false,
      "metar": "METAR HEGN 071600Z 35013KT 9999 SCT020 26/07 Q1016 NOSIG",
      "taf": "TAF HEGN 071700Z 0718/0824 33012KT 9999 SCT025"
    },
    {
      "icao": "HEMA",
      "alert": "OK",
      "vis_m": 9999,
      "fzfg": false,
      "metar_trigger": false,
      "taf_trigger": false,
      "metar": "METAR HEMA 071600Z 33009KT CAVOK 25/07 Q1016 NOSIG",
      "taf": "TAF HEMA 071700Z 0718/0824 32012KT 9999 SCT025"
    },
    {
      "icao": "HESH",
      "alert": "OK",
      "vis_m": 9999,
      "fzfg": false,
      "metar_trigger": false,
      "taf_trigger": false,
      "metar": "METAR HESH 071600Z 28013KT CAVOK 29/02 Q1015 NOSIG",
      "taf": "TAF HESH 071700Z 0718/0824 35012KT CAVOK"
    },
    {
      "icao": "HESX",
      "alert": "OK",
      "vis_m": 9999,
      "fzfg": false,
      "metar_trigger": false,
      "taf_trigger": false,
      "metar": "METAR HESX 071600Z 34009KT 9999 SCT020 21/09 Q1019 NOSIG",
      "taf": "TAF HESX 071700Z 0718/0824 33013KT 9999 SCT025"
    },
    {
      "icao": "LATI",
      "alert": "OK",
      "vis_m": 9999,
      "fzfg": false,
      "metar_trigger": false,
      "taf_trigger": false,
      "metar": "METAR LATI 071650Z 35004KT CAVOK 18/07 Q1019 NOSIG",
      "taf": "TAF LATI 071700Z 0718/0818 VRB05KT CAVOK TX23/0812Z TN08/0804Z"
    },
    {
      "icao": "LBPD",
      "alert": "OK",
      "vis_m": 9999,
      "fzfg": false,
      "metar_trigger": false,
      "taf_trigger": false,
      "metar": "METAR LBPD 071700Z AUTO 28008KT 9999 SCT095/// 20/05 Q1013 TEMPO 30020G30KT",
      "taf": "TAF LBPD 071100Z 0712/0812 27022KT 9999 SCT080"
    },
    {
      "icao": "LBSF",
      "alert": "OK",
      "vis_m": 9999,
      "fzfg": false,
      "metar_trigger": false,
      "taf_trigger": false,
      "metar": "METAR LBSF 071700Z AUTO 30010KT 9999 FEW088/// 16/02 Q1015 NOSIG",
      "taf": "TAF LBSF 071100Z 0712/0812 28020KT 9999 SCT080"
    },
    {
      "icao": "LBWN",
      "alert": "OK",
      "vis_m": 9999,
      "fzfg": false,
      "metar_trigger": false,
      "taf_trigger": false,
      "metar": "METAR LBWN 071700Z AUTO 12005KT 9999 NSC 09/06 Q1014 NOSIG",
      "taf": "TAF LBWN 071100Z 0712/0812 27010KT 9999 BKN040"
    },
    {
      "icao": "LCLK",
      "alert": "OK",
      "vis_m": 9999,
      "fzfg": false,
      "metar_trigger": false,
      "taf_trigger": false,
      "metar": "METAR LCLK 071700Z 22006KT CAVOK 17/14 Q1016 NOSIG",
      "taf": "TAF LCLK 071130Z 0712/0812 22018KT 9999 FEW025"
    },
    {
      "icao": "LCPH",
      "alert": "OK",
      "vis_m": 9999,
      "fzfg": false,
      "metar_trigger": false,
      "taf_trigger": false,
      "metar": "METAR LCPH 071700Z 31007KT 9999 SCT016 BKN021 17/13 Q1017 NOSIG",
      "taf": "TAF LCPH 071130Z 0712/0812 29015KT 9999 FEW020"
    },
    {
      "icao": "LEAL",
      "alert": "OK",
      "vis_m": 9999,
      "fzfg": false,
      "metar_trigger": false,
      "taf_trigger": false,
      "metar": "METAR LEAL 071700Z 07010KT 040V100 9999 FEW045 19/11 Q1018 NOSIG",
      "taf": "TAF LEAL 071100Z 0712/0812 VRB04KT 9999 FEW015 TX21/0712Z TN12/0806Z"
    },
    {
      "icao": "LEBB",
      "alert": "OK",
      "vis_m": 9999,
      "fzfg": false,
      "metar_trigger": false,
      "taf_trigger": false,
      "metar": "METAR LEBB 071700Z 14008KT 100V170 CAVOK 27/09 Q1014 NOSIG",
      "taf": "TAF LEBB 071100Z 0712/0812 13009KT CAVOK TX27/0713Z TN14/0806Z"
    },
    {
      "icao": "LEBL",
      "alert": "OK",
      "vis_m": 9999,
      "fzfg": false,
      "metar_trigger": false,
      "taf_trigger": false,
      "metar": "METAR LEBL 071700Z 08007KT 050V110 CAVOK 18/11 Q1020 NOSIG",
      "taf": "TAF LEBL 071100Z 0712/0812 08010KT CAVOK TX20/0712Z TN11/0805Z"
    },
    {
      "icao": "LECH",
      "alert": "OK",
      "vis_m": 9999,
      "fzfg": false,
      "metar_trigger": false,
      "taf_trigger": false,
      "metar": "METAR LECH 071700Z AUTO 10007KT 060V140 CAVOK 18/05 Q1020",
      "taf": "TAF LECH 071100Z 0712/0812 09006KT CAVOK TX23/0714Z TN10/0806Z"
    },
    {
      "icao": "LEMD",
      "alert": "OK",
      "vis_m": 9999,
      "fzfg": false,
      "metar_trigger": false,
      "taf_trigger": false,
      "metar": "METAR LEMD 071700Z VRB02KT 9999 FEW075 21/07 Q1015 NOSIG",
      "taf": "TAF LEMD 071100Z 0712/0818 VRB05KT CAVOK TX23/0715Z TN10/0806Z"
    },
    {
      "icao": "LEMG",
      "alert": "OK",
      "vis_m": 9999,
      "fzfg": false,
      "metar_trigger": false,
      "taf_trigger": false,
      "metar": "METAR LEMG 071700Z 14007KT 100V160 CAVOK 19/11 Q1016 NOSIG",
      "taf": "TAF LEMG 071100Z 0712/0812 14008KT CAVOK TX22/0714Z TN14/0806Z"
    },
    {
      "icao": "LEVC",
      "alert": "OK",
      "vis_m": 9999,
      "fzfg": false,
      "metar_trigger": false,
      "taf_trigger": false,
      "metar": "METAR LEVC 071700Z 08006KT 040V140 CAVOK 19/08 Q1019 NOSIG",
      "taf": "TAF LEVC 071100Z 0712/0812 09010KT 9999 FEW010 TX22/0714Z TN11/0806Z"
    },
    {
      "icao": "LEXJ",
      "alert": "OK",
      "vis_m": 9999,
      "fzfg": false,
      "metar_trigger": false,
      "taf_trigger": false,
      "metar": "METAR LEXJ 071700Z 21007KT 170V240 CAVOK 25/10 Q1013",
      "taf": ""
    },
    {
      "icao": "LEZG",
      "alert": "OK",
      "vis_m": 9999,
      "fzfg": false,
      "metar_trigger": false,
      "taf_trigger": false,
      "metar": "METAR LEZG 071700Z 09008KT 060V120 CAVOK 24/04 Q1016 NOSIG",
      "taf": "TAF LEZG 071100Z 0712/0812 09010KT CAVOK TX28/0714Z TN12/0806Z"
    },
    {
      "icao": "LEZL",
      "alert": "OK",
      "vis_m": 7000,
      "fzfg": false,
      "metar_trigger": false,
      "taf_trigger": false,
      "metar": "METAR LEZL 071700Z 22009KT 190V250 7000 RA FEW030 BKN049 17/16 Q1016 NOSIG",
      "taf": "TAF LEZL 071400Z 0715/0815 22012KT 9999 FEW030 TX27/0715Z TN14/0806Z"
    },
    {
      "icao": "LFBD",
      "alert": "OK",
      "vis_m": 9999,
      "fzfg": false,
      "metar_trigger": false,
      "taf_trigger": false,
      "metar": "METAR LFBD 071700Z AUTO 12009KT CAVOK 26/09 Q1016 NOSIG",
      "taf": "TAF LFBD 071100Z 0712/0818 13010KT CAVOK TX27/0715Z TN13/0805Z"
    },
    {
      "icao": "LFLL",
      "alert": "OK",
      "vis_m": 9999,
      "fzfg": false,
      "metar_trigger": false,
      "taf_trigger": false,
      "metar": "METAR LFLL 071700Z 17006KT CAVOK 25/M02 Q1020 NOSIG",
      "taf": "TAF LFLL 071100Z 0712/0818 17012KT CAVOK"
    },
    {
      "icao": "LFLS",
      "alert": "OK",
      "vis_m": 9999,
      "fzfg": false,
      "metar_trigger": false,
      "taf_trigger": false,
      "metar": "METAR LFLS 071700Z AUTO 25007KT CAVOK 22/03 Q1021 NOSIG",
      "taf": "TAF LFLS 071400Z 0715/0815 22008KT CAVOK"
    },
    {
      "icao": "LFMN",
      "alert": "OK",
      "vis_m": 9999,
      "fzfg": false,
      "metar_trigger": false,
      "taf_trigger": false,
      "metar": "METAR LFMN 071700Z 15005KT CAVOK 17/11 Q1022 NOSIG",
      "taf": "TAF LFMN 071400Z 0715/0821 15005KT 9999 FEW018"
    },
    {
      "icao": "LFOB",
      "alert": "OK",
      "vis_m": 9999,
      "fzfg": false,
      "metar_trigger": false,
      "taf_trigger": false,
      "metar": "METAR LFOB 071700Z AUTO 07009KT CAVOK 21/09 Q1021 NOSIG",
      "taf": "TAF LFOB 071100Z 0712/0812 10009KT CAVOK"
    },
    {
      "icao": "LFPO",
      "alert": "OK",
      "vis_m": 9999,
      "fzfg": false,
      "metar_trigger": false,
      "taf_trigger": false,
      "metar": "METAR LFPO 071700Z 09010KT CAVOK 23/10 Q1020 NOSIG",
      "taf": "TAF LFPO 071100Z 0712/0818 09008KT CAVOK"
    },
    {
      "icao": "LFSB",
      "alert": "OK",
      "vis_m": 9999,
      "fzfg": false,
      "metar_trigger": false,
      "taf_trigger": false,
      "metar": "METAR LFSB 071700Z AUTO 35008KT CAVOK 20/07 Q1021 NOSIG",
      "taf": "TAF LFSB 071100Z 0712/0812 35005KT CAVOK"
    },
    {
      "icao": "LGAV",
      "alert": "OK",
      "vis_m": 9999,
      "fzfg": false,
      "metar_trigger": false,
      "taf_trigger": false,
      "metar": "METAR LGAV 071650Z 22012KT CAVOK 17/09 Q1017 NOSIG",
      "taf": "TAF LGAV 071700Z 0718/0818 24010KT 9999 FEW025"
    },
    {
      "icao": "LGTS",
      "alert": "OK",
      "vis_m": 9999,
      "fzfg": false,
      "metar_trigger": false,
      "taf_trigger": false,
      "metar": "METAR LGTS 071650Z 17006KT 9999 FEW030 21/10 Q1013 NOSIG",
      "taf": "TAF LGTS 071700Z 0718/0818 33006KT 9999 FEW025"
    },
    {
      "icao": "LHBP",
      "alert": "OK",
      "vis_m": 9999,
      "fzfg": false,
      "metar_trigger": false,
      "taf_trigger": false,
      "metar": "METAR LHBP 071700Z 31017KT CAVOK 14/M06 Q1017 NOSIG",
      "taf": "TAF LHBP 071115Z 0712/0812 30016G26KT CAVOK"
    },
    {
      "icao": "LHDC",
      "alert": "OK",
      "vis_m": 9999,
      "fzfg": false,
      "metar_trigger": false,
      "taf_trigger": false,
      "metar": "METAR LHDC 071645Z AUTO 27013KT CAVOK 14/M05 Q1014 NOSIG",
      "taf": ""
    },
    {
      "icao": "LIBD",
      "alert": "OK",
      "vis_m": 9999,
      "fzfg": false,
      "metar_trigger": false,
      "taf_trigger": false,
      "metar": "METAR LIBD 071650Z 06003KT CAVOK 19/11 Q1019",
      "taf": "TAF LIBD 071100Z 0712/0812 04010KT CAVOK"
    },
    {
      "icao": "LIBG",
      "alert": "OK",
      "vis_m": 9999,
      "fzfg": false,
      "metar_trigger": false,
      "taf_trigger": false,
      "metar": "METAR LIBG 071650Z 26004KT 220V290 CAVOK 20/10 Q1019",
      "taf": "TAF LIBG 071400Z 0715/0724 21007KT 9999 FEW030"
    },
    {
      "icao": "LIBP",
      "alert": "OK",
      "vis_m": 9999,
      "fzfg": false,
      "metar_trigger": false,
      "taf_trigger": false,
      "metar": "METAR LIBP 071650Z AUTO 11003KT 9999 NCD 21/07 Q1019",
      "taf": "TAF LIBP 071100Z 0712/0812 07011KT CAVOK"
    },
    {
      "icao": "LIBR",
      "alert": "OK",
      "vis_m": 9999,
      "fzfg": false,
      "metar_trigger": false,
      "taf_trigger": false,
      "metar": "METAR LIBR 071650Z 06003KT CAVOK 17/11 Q1019",
      "taf": "TAF LIBR 071100Z 0712/0812 01010KT CAVOK"
    },
    {
      "icao": "LICA",
      "alert": "OK",
      "vis_m": 9999,
      "fzfg": false,
      "metar_trigger": false,
      "taf_trigger": false,
      "metar": "METAR LICA 071650Z AUTO 24009KT 9999 BKN016/// 15/12 Q1023",
      "taf": "TAF LICA 071100Z 0712/0812 25008KT 9999 FEW020"
    },
    {
      "icao": "LICC",
      "alert": "OK",
      "vis_m": 9999,
      "fzfg": false,
      "metar_trigger": false,
      "taf_trigger": false,
      "metar": "METAR LICC 071650Z 08009KT CAVOK 18/14 Q1022",
      "taf": "TAF LICC 071100Z 0712/0812 08010KT CAVOK"
    },
    {
      "icao": "LICJ",
      "alert": "OK",
      "vis_m": 9999,
      "fzfg": false,
      "metar_trigger": false,
      "taf_trigger": false,
      "metar": "METAR LICJ 071650Z 05008KT CAVOK 20/08 Q1023",
      "taf": "TAF LICJ 071100Z 0712/0812 03009KT CAVOK"
    },
    {
      "icao": "LIMC",
      "alert": "OK",
      "vis_m": 9999,
      "fzfg": false,
      "metar_trigger": false,
      "taf_trigger": false,
      "metar": "METAR LIMC 071650Z 19006KT 160V220 CAVOK 24/11 Q1018 NOSIG",
      "taf": "TAF LIMC 071100Z 0712/0818 VRB05KT CAVOK"
    },
    {
      "icao": "LIME",
      "alert": "OK",
      "vis_m": 9999,
      "fzfg": false,
      "metar_trigger": false,
      "taf_trigger": false,
      "metar": "METAR LIME 071650Z 25007KT 220V280 CAVOK 24/09 Q1018 NOSIG",
      "taf": "TAF LIME 071100Z 0712/0812 23010KT CAVOK"
    },
    {
      "icao": "LIMF",
      "alert": "OK",
      "vis_m": 9999,
      "fzfg": false,
      "metar_trigger": false,
      "taf_trigger": false,
      "metar": "METAR LIMF 071650Z 07003KT CAVOK 24/12 Q1018",
      "taf": "TAF LIMF 071100Z 0712/0812 VRB05KT CAVOK"
    },
    {
      "icao": "LIMJ",
      "alert": "OK",
      "vis_m": 9999,
      "fzfg": false,
      "metar_trigger": false,
      "taf_trigger": false,
      "metar": "METAR LIMJ 071650Z 18004KT 9999 SCT010 OVC032 15/14 Q1022",
      "taf": "TAF LIMJ 071100Z 0712/0812 15010KT 9999 SCT015 BKN025"
    },
    {
      "icao": "LIPE",
      "alert": "OK",
      "vis_m": 9999,
      "fzfg": false,
      "metar_trigger": false,
      "taf_trigger": false,
      "metar": "METAR LIPE 071650Z 19010KT CAVOK 24/10 Q1017",
      "taf": "TAF LIPE 071100Z 0712/0812 VRB05KT CAVOK"
    },
    {
      "icao": "LIPH",
      "alert": "OK",
      "vis_m": 9999,
      "fzfg": false,
      "metar_trigger": false,
      "taf_trigger": false,
      "metar": "METAR LIPH 071650Z 14006KT CAVOK 21/10 Q1018",
      "taf": "TAF LIPH 071100Z 0712/0812 VRB05KT 9999 FEW040"
    },
    {
      "icao": "LIPQ",
      "alert": "OK",
      "vis_m": 9999,
      "fzfg": false,
      "metar_trigger": false,
      "taf_trigger": false,
      "metar": "METAR LIPQ 071650Z AUTO 15006KT 9999 NCD 18/10 Q1018",
      "taf": "TAF LIPQ 071100Z 0712/0812 19010KT CAVOK"
    },
    {
      "icao": "LIPR",
      "alert": "OK",
      "vis_m": 9999,
      "fzfg": false,
      "metar_trigger": false,
      "taf_trigger": false,
      "metar": "METAR LIPR 071650Z 12006KT CAVOK 18/11 Q1018",
      "taf": "TAF LIPR 071100Z 0712/0812 06010KT CAVOK"
    },
    {
      "icao": "LIPX",
      "alert": "OK",
      "vis_m": 9999,
      "fzfg": false,
      "metar_trigger": false,
      "taf_trigger": false,
      "metar": "METAR LIPX 071650Z 24007KT CAVOK 23/11 Q1017",
      "taf": "TAF LIPX 071100Z 0712/0812 VRB05KT CAVOK"
    },
    {
      "icao": "LIPY",
      "alert": "OK",
      "vis_m": 9999,
      "fzfg": false,
      "metar_trigger": false,
      "taf_trigger": false,
      "metar": "METAR LIPY 071650Z AUTO 03006KT 9999 NCD 18/10 Q1018",
      "taf": "TAF LIPY 071100Z 0712/0812 VRB05KT CAVOK"
    },
    {
      "icao": "LIPZ",
      "alert": "OK",
      "vis_m": 9999,
      "fzfg": false,
      "metar_trigger": false,
      "taf_trigger": false,
      "metar": "METAR LIPZ 071650Z 15007KT CAVOK 18/12 Q1018 NOSIG",
      "taf": "TAF LIPZ 071100Z 0712/0818 16010KT CAVOK"
    },
    {
      "icao": "LIRF",
      "alert": "OK",
      "vis_m": 9999,
      "fzfg": false,
      "metar_trigger": false,
      "taf_trigger": false,
      "metar": "METAR LIRF 071650Z 24007KT CAVOK 16/12 Q1022 NOSIG",
      "taf": "TAF LIRF 071100Z 0712/0818 22010KT CAVOK"
    },
    {
      "icao": "LIRN",
      "alert": "OK",
      "vis_m": 9999,
      "fzfg": false,
      "metar_trigger": false,
      "taf_trigger": false,
      "metar": "METAR LIRN 071650Z 19007KT CAVOK 15/12 Q1023 NOSIG",
      "taf": "TAF LIRN 071100Z 0712/0812 22010KT 8000 FEW016"
    },
    {
      "icao": "LIRP",
      "alert": "OK",
      "vis_m": 9999,
      "fzfg": false,
      "metar_trigger": false,
      "taf_trigger": false,
      "metar": "METAR LIRP 071645Z 25009KT CAVOK 17/08 Q1021 NOSIG",
      "taf": "TAF LIRP 071100Z 0712/0812 24005KT CAVOK"
    },
    {
      "icao": "LIRZ",
      "alert": "OK",
      "vis_m": 9999,
      "fzfg": false,
      "metar_trigger": false,
      "taf_trigger": false,
      "metar": "METAR LIRZ 071650Z AUTO 29006KT 9999 NCD 22/06 Q1020",
      "taf": "TAF LIRZ 071100Z 0712/0812 VRB04KT CAVOK"
    },
    {
      "icao": "LJLJ",
      "alert": "OK",
      "vis_m": 9999,
      "fzfg": false,
      "metar_trigger": false,
      "taf_trigger": false,
      "metar": "METAR LJLJ 071700Z VRB01KT 9999 FEW075 20/07 Q1017 NOSIG",
      "taf": "TAF LJLJ 071700Z 0718/0818 VRB02KT 9999 FEW075"
    },
    {
      "icao": "LKMT",
      "alert": "OK",
      "vis_m": 9999,
      "fzfg": false,
      "metar_trigger": false,
      "taf_trigger": false,
      "metar": "METAR LKMT 071700Z 35012KT CAVOK 08/M03 Q1022 NOSIG",
      "taf": "TAF LKMT 071100Z 0712/0812 35012KT CAVOK"
    },
    {
      "icao": "LKPR",
      "alert": "OK",
      "vis_m": 9999,
      "fzfg": false,
      "metar_trigger": false,
      "taf_trigger": false,
      "metar": "METAR LKPR 071700Z 35016KT CAVOK 11/M05 Q1024 NOSIG",
      "taf": "TAF LKPR 071400Z 0715/0821 34014KT CAVOK"
    },
    {
      "icao": "LLBG",
      "alert": "OK",
      "vis_m": 9999,
      "fzfg": false,
      "metar_trigger": false,
      "taf_trigger": false,
      "metar": "METAR LLBG 071650Z VRB03KT 9999 FEW028 17/12 Q1018 NOSIG",
      "taf": "TAF LLBG 071707Z 0718/0818 26005KT 9999 SCT035 TX20/0812Z TN12/0804Z"
    },
    {
      "icao": "LMML",
      "alert": "OK",
      "vis_m": 9999,
      "fzfg": false,
      "metar_trigger": false,
      "taf_trigger": false,
      "metar": "METAR LMML 071645Z 24007KT 9999 FEW015 17/13 Q1023 NOSIG",
      "taf": "TAF LMML 071700Z 0718/0818 26008KT 9999 FEW012"
    },
    {
      "icao": "LOWW",
      "alert": "OK",
      "vis_m": 9999,
      "fzfg": false,
      "metar_trigger": false,
      "taf_trigger": false,
      "metar": "METAR LOWW 071650Z 36013KT CAVOK 15/M03 Q1020 NOSIG",
      "taf": "TAF LOWW 071415Z 0715/0821 34012KT CAVOK TX17/0715Z TN05/0804Z"
    },
    {
      "icao": "LPFR",
      "alert": "OK",
      "vis_m": 9999,
      "fzfg": false,
      "metar_trigger": false,
      "taf_trigger": false,
      "metar": "METAR LPFR 071700Z 28013KT 9999 SCT012 FEW018TCU 13/10 Q1016",
      "taf": "TAF LPFR 071100Z 0712/0812 19012KT 9999 SCT015 BKN030"
    },
    {
      "icao": "LPMA",
      "alert": "OK",
      "vis_m": 9999,
      "fzfg": false,
      "metar_trigger": false,
      "taf_trigger": false,
      "metar": "METAR LPMA 071700Z VRB07KT 9999 SCT014 16/04 Q1023",
      "taf": "TAF LPMA 071100Z 0712/0812 34013KT 9999 SCT014 SCT030"
    },
    {
      "icao": "LPPR",
      "alert": "OK",
      "vis_m": 9999,
      "fzfg": false,
      "metar_trigger": false,
      "taf_trigger": false,
      "metar": "METAR LPPR 071700Z 19012G22KT 9999 VCSH SCT016 13/09 Q1013",
      "taf": "TAF LPPR 071100Z 0712/0812 22008KT 9999 SCT018 SCT035"
    },
    {
      "icao": "LPPS",
      "alert": "OK",
      "vis_m": 9999,
      "fzfg": false,
      "metar_trigger": false,
      "taf_trigger": false,
      "metar": "METAR LPPS 071700Z 33015KT 9999 SCT015 16/06 Q1023",
      "taf": "TAF LPPS 071100Z 0712/0818 33018KT 9999 SCT015 SCT030"
    },
    {
      "icao": "LPPT",
      "alert": "OK",
      "vis_m": 9999,
      "fzfg": false,
      "metar_trigger": false,
      "taf_trigger": false,
      "metar": "METAR LPPT 071700Z 17007KT 130V200 9999 FEW016 FEW018CB BKN022 12/08 Q1013",
      "taf": "TAF LPPT 071100Z 0712/0818 24010KT 9999 SCT025"
    },
    {
      "icao": "LQBK",
      "alert": "OK",
      "vis_m": 9999,
      "fzfg": false,
      "metar_trigger": false,
      "taf_trigger": false,
      "metar": "METAR LQBK 071700Z VRB01KT CAVOK 19/05 Q1017 NOSIG",
      "taf": "TAF LQBK 071700Z 0718/0818 06006KT CAVOK TX15/0813Z TN05/0805Z"
    },
    {
      "icao": "LQSA",
      "alert": "OK",
      "vis_m": 9999,
      "fzfg": false,
      "metar_trigger": false,
      "taf_trigger": false,
      "metar": "METAR LQSA 071700Z 32006KT 290V350 9999 FEW065 20/04 Q1017 NOSIG",
      "taf": ""
    },
    {
      "icao": "LQTZ",
      "alert": "OK",
      "vis_m": 9999,
      "fzfg": false,
      "metar_trigger": false,
      "taf_trigger": false,
      "metar": "METAR LQTZ 071700Z 32005KT 290V040 CAVOK 19/04 Q1017",
      "taf": "TAF LQTZ 071700Z 0718/0818 28005KT CAVOK TX15/0813Z TN05/0805Z"
    },
    {
      "icao": "LRBC",
      "alert": "OK",
      "vis_m": 9999,
      "fzfg": false,
      "metar_trigger": false,
      "taf_trigger": false,
      "metar": "METAR LRBC 071700Z 26006KT 210V330 9999 FEW040CB SCT055 12/M06 Q1012",
      "taf": "TAF LRBC 071400Z 0715/0724 35008KT 9999 BKN060"
    },
    {
      "icao": "LRBS",
      "alert": "OK",
      "vis_m": 9999,
      "fzfg": false,
      "metar_trigger": false,
      "taf_trigger": false,
      "metar": "METAR LRBS 071700Z 27004KT CAVOK 15/01 Q1012 NOSIG",
      "taf": "TAF LRBS 071100Z 0712/0812 25010KT CAVOK"
    },
    {
      "icao": "LRBV",
      "alert": "OK",
      "vis_m": 9999,
      "fzfg": false,
      "metar_trigger": false,
      "taf_trigger": false,
      "metar": "METAR LRBV 071700Z 35004KT 9999 FEW081 08/M03 Q1013",
      "taf": "TAF LRBV 071400Z 0715/0724 30012KT CAVOK"
    },
    {
      "icao": "LRCL",
      "alert": "OK",
      "vis_m": 9999,
      "fzfg": false,
      "metar_trigger": false,
      "taf_trigger": false,
      "metar": "METAR LRCL 071700Z 30007KT CAVOK 11/M06 Q1014",
      "taf": "TAF LRCL 071400Z 0715/0724 29012KT CAVOK"
    },
    {
      "icao": "LRCV",
      "alert": "OK",
      "vis_m": 9999,
      "fzfg": false,
      "metar_trigger": false,
      "taf_trigger": false,
      "metar": "METAR LRCV 071700Z 29014KT CAVOK 15/M00 Q1013",
      "taf": "TAF LRCV 071400Z 0715/0724 29022KT CAVOK"
    },
    {
      "icao": "LRIA",
      "alert": "OK",
      "vis_m": 9999,
      "fzfg": false,
      "metar_trigger": false,
      "taf_trigger": false,
      "metar": "METAR LRIA 071700Z 35004KT 330V040 CAVOK 10/M03 Q1012",
      "taf": "TAF LRIA 071400Z 0715/0724 30012KT CAVOK"
    },
    {
      "icao": "LROP",
      "alert": "OK",
      "vis_m": 9999,
      "fzfg": false,
      "metar_trigger": false,
      "taf_trigger": false,
      "metar": "METAR LROP 071700Z 02003KT 300V080 CAVOK 13/M01 Q1013 NOSIG",
      "taf": "TAF LROP 071100Z 0712/0812 26012KT CAVOK"
    },
    {
      "icao": "LRSB",
      "alert": "OK",
      "vis_m": 9999,
      "fzfg": false,
      "metar_trigger": false,
      "taf_trigger": false,
      "metar": "METAR LRSB 071700Z 30017KT CAVOK 12/M08 Q1014",
      "taf": "TAF LRSB 071100Z 0712/0812 32010KT CAVOK"
    },
    {
      "icao": "LRSM",
      "alert": "OK",
      "vis_m": 9999,
      "fzfg": false,
      "metar_trigger": false,
      "taf_trigger": false,
      "metar": "METAR LRSM 071700Z 28007KT CAVOK 11/M05 Q1013",
      "taf": "TAF LRSM 071400Z 0715/0724 32015KT CAVOK"
    },
    {
      "icao": "LRSV",
      "alert": "OK",
      "vis_m": 9999,
      "fzfg": false,
      "metar_trigger": false,
      "taf_trigger": false,
      "metar": "METAR LRSV 071700Z 25009KT 9999 SCT035CB 07/M02 Q1011",
      "taf": "TAF LRSV 071400Z 0715/0724 29012KT 9999 SCT045"
    },
    {
      "icao": "LRTM",
      "alert": "OK",
      "vis_m": 9999,
      "fzfg": false,
      "metar_trigger": false,
      "taf_trigger": false,
      "metar": "METAR LRTM 071700Z 31010KT CAVOK 12/M06 Q1013",
      "taf": "TAF LRTM 071400Z 0715/0724 32012KT CAVOK"
    },
    {
      "icao": "LRTR",
      "alert": "OK",
      "vis_m": 9999,
      "fzfg": false,
      "metar_trigger": false,
      "taf_trigger": false,
      "metar": "METAR LRTR 071700Z 30007KT CAVOK 14/M00 Q1016",
      "taf": "TAF LRTR 071100Z 0712/0812 30014KT CAVOK"
    },
    {
      "icao": "LTAC",
      "alert": "OK",
      "vis_m": 9999,
      "fzfg": false,
      "metar_trigger": false,
      "taf_trigger": false,
      "metar": "METAR LTAC 071650Z 33013KT 9999 SCT040 SCT100 11/M01 Q1015 NOSIG RMK RWY21C 31012KT RWY03L 32009KT RWY21R 30010KT RWY03R 31010KT 280V340 RWY21L 32015KT",
      "taf": "TAF LTAC 071640Z 0718/0818 VRB02KT 9999 SCT040 SCT100"
    },
    {
      "icao": "LTFM",
      "alert": "OK",
      "vis_m": 9999,
      "fzfg": false,
      "metar_trigger": false,
      "taf_trigger": false,
      "metar": "METAR LTFM 071650Z 08009KT 050V120 9999 SCT035 BKN100 11/07 Q1015 NOSIG RMK RWY17L 09008KT RWY34L 08008KT RWY16R 10010KT RWY36 09008KT 050V110 RWY18 10010KT",
      "taf": "TAF LTFM 071640Z 0718/0824 06008KT 9999 SCT035 BKN100"
    },
    {
      "icao": "LUKK",
      "alert": "OK",
      "vis_m": 9999,
      "fzfg": false,
      "metar_trigger": false,
      "taf_trigger": false,
      "metar": "METAR LUKK 071700Z 35004KT 320V020 9999 SCT046 08/M00 Q1012 TEMPO SCT045CB",
      "taf": ""
    },
    {
      "icao": "LWOH",
      "alert": "OK",
      "vis_m": 9999,
      "fzfg": false,
      "metar_trigger": false,
      "taf_trigger": false,
      "metar": "METAR LWOH 071650Z 21004KT 170V280 9999 FEW040 17/04 Q1018",
      "taf": "TAF LWOH 071710Z 0718/0818 24008KT 9999 SCT040"
    },
    {
      "icao": "LWSK",
      "alert": "OK",
      "vis_m": 9999,
      "fzfg": false,
      "metar_trigger": false,
      "taf_trigger": false,
      "metar": "METAR LWSK 071650Z 20003KT 170V230 9999 FEW055 23/09 Q1014 NOSIG",
      "taf": "TAF LWSK 071710Z 0718/0818 34008KT 9999 SCT050 BKN100"
    },
    {
      "icao": "LYBE",
      "alert": "OK",
      "vis_m": 9999,
      "fzfg": false,
      "metar_trigger": false,
      "taf_trigger": false,
      "metar": "METAR LYBE 071700Z 30009KT CAVOK 15/05 Q1017 NOSIG",
      "taf": "TAF LYBE 071100Z 0712/0812 30010KT CAVOK TX19/0713Z TN04/0804Z"
    },
    {
      "icao": "LYNI",
      "alert": "OK",
      "vis_m": 9999,
      "fzfg": false,
      "metar_trigger": false,
      "taf_trigger": false,
      "metar": "METAR LYNI 071700Z 31008KT CAVOK 17/04 Q1016 NOSIG",
      "taf": "TAF LYNI 071100Z 0712/0812 29007KT CAVOK TX21/0713Z TN07/0805Z"
    },
    {
      "icao": "LYPG",
      "alert": "OK",
      "vis_m": 9999,
      "fzfg": false,
      "metar_trigger": false,
      "taf_trigger": false,
      "metar": "METAR LYPG 071700Z 12010KT CAVOK 18/10 Q1018 NOSIG",
      "taf": "TAF LYPG 071100Z 0712/0812 16005KT CAVOK TX23/0713Z TN08/0804Z"
    },
    {
      "icao": "LZIB",
      "alert": "OK",
      "vis_m": 9999,
      "fzfg": false,
      "metar_trigger": false,
      "taf_trigger": false,
      "metar": "METAR LZIB 071700Z 34015KT CAVOK 15/M08 Q1019 NOSIG",
      "taf": "TAF LZIB 071715Z 0718/0818 36018KT CAVOK"
    },
    {
      "icao": "LZKZ",
      "alert": "OK",
      "vis_m": 9999,
      "fzfg": false,
      "metar_trigger": false,
      "taf_trigger": false,
      "metar": "METAR LZKZ 071700Z 34017KT CAVOK 12/M10 Q1015 NOSIG",
      "taf": "TAF LZKZ 071715Z 0718/0818 01014KT CAVOK"
    },
    {
      "icao": "LZTT",
      "alert": "OK",
      "vis_m": 9999,
      "fzfg": false,
      "metar_trigger": false,
      "taf_trigger": false,
      "metar": "METAR LZTT 071700Z 31017G29KT 290V350 9999 FEW033 SCT066 07/M09 Q1016 NOSIG",
      "taf": "TAF LZTT 071715Z 0718/0818 29012KT 9999 FEW040"
    },
    {
      "icao": "OEJN",
      "alert": "OK",
      "vis_m": 9999,
      "fzfg": false,
      "metar_trigger": false,
      "taf_trigger": false,
      "metar": "METAR OEJN 071700Z 34015KT 9999 SCT040 26/17 Q1013 NOSIG",
      "taf": "TAF OEJN 071100Z 0712/0818 32014KT 7000 FEW040"
    },
    {
      "icao": "OEMA",
      "alert": "OK",
      "vis_m": 9999,
      "fzfg": false,
      "metar_trigger": false,
      "taf_trigger": false,
      "metar": "METAR OEMA 071700Z 32009KT 9999 SCT045 27/M04 Q1017 NOSIG",
      "taf": "TAF OEMA 071100Z 0712/0818 28010KT 9999 FEW045"
    },
    {
      "icao": "OJAI",
      "alert": "OK",
      "vis_m": 5000,
      "fzfg": false,
      "metar_trigger": false,
      "taf_trigger": false,
      "metar": "METAR OJAI 071700Z 29007KT 5000 HZ SCT025 SCT030 11/08 Q1019 NOSIG",
      "taf": "TAF OJAI 071643Z 0718/0824 27012KT 4000 HZ FEW025TCU SCT030"
    },
    {
      "icao": "OMAA",
      "alert": "OK",
      "vis_m": null,
      "fzfg": false,
      "metar_trigger": false,
      "taf_trigger": false,
      "metar": "",
      "taf": ""
    },
    {
      "icao": "OMDB",
      "alert": "OK",
      "vis_m": null,
      "fzfg": false,
      "metar_trigger": false,
      "taf_trigger": false,
      "metar": "",
      "taf": ""
    },
    {
      "icao": "UAAA",
      "alert": "OK",
      "vis_m": 9999,
      "fzfg": false,
      "metar_trigger": false,
      "taf_trigger": false,
      "metar": "METAR UAAA 071700Z 28002MPS 230V330 9999 SCT100 16/09 Q1004 NOSIG",
      "taf": "TAF UAAA 071103Z 0712/0812 01002MPS 9999 SCT050CB BKN100 TX25/0810Z TN12/0801Z"
    },
    {
      "icao": "UBBB",
      "alert": "OK",
      "vis_m": 9999,
      "fzfg": false,
      "metar_trigger": false,
      "taf_trigger": false,
      "metar": "METAR UBBB 071700Z 18010KT CAVOK 12/09 Q1009 NOSIG",
      "taf": "TAF UBBB 071701Z 0718/0818 17014KT CAVOK TX15/0810Z TN09/0801Z"
    },
    {
      "icao": "UDSG",
      "alert": "OK",
      "vis_m": 9999,
      "fzfg": false,
      "metar_trigger": false,
      "taf_trigger": false,
      "metar": "METAR UDSG 071700Z 32003KT 280V350 9999 -SHRA BKN040CB 05/02 Q1013 NOSIG",
      "taf": "TAF UDSG 071100Z 0712/0812 22006KT 9999 SCT040"
    },
    {
      "icao": "UDYZ",
      "alert": "OK",
      "vis_m": 9999,
      "fzfg": false,
      "metar_trigger": false,
      "taf_trigger": false,
      "metar": "METAR UDYZ 071700Z 16005KT 9999 SCT043CB 13/04 Q1010 NOSIG",
      "taf": ""
    },
    {
      "icao": "UGKO",
      "alert": "OK",
      "vis_m": 9999,
      "fzfg": false,
      "metar_trigger": false,
      "taf_trigger": false,
      "metar": "METAR UGKO 071700Z 26008KT CAVOK 13/07 Q1010 NOSIG",
      "taf": "TAF UGKO 071700Z 0718/0818 25007KT 9999 SCT020 BKN050 TX12/0812Z TN07/0803Z"
    }
  ]
}