{
  "ts_utc": "2026-07-16T22:16:22Z",
  "threshold_m": 150,
  "source": "stations_override.txt (ICAO list) + aviationweather.gov (METAR/TAF raw)",
  "station_count": 159,
  "stations": [
    {
      "icao": "BIKF",
      "alert": "OK",
      "vis_m": 2000,
      "fzfg": false,
      "metar_trigger": false,
      "taf_trigger": false,
      "metar": "METAR BIKF 162200Z 24011KT 2000 -DZ BR OVC002 10/10 Q1026",
      "taf": ""
    },
    {
      "icao": "BKPR",
      "alert": "OK",
      "vis_m": 9999,
      "fzfg": false,
      "metar_trigger": false,
      "taf_trigger": false,
      "metar": "METAR BKPR 162200Z VRB02KT CAVOK 19/17 Q1021 NOSIG",
      "taf": "TAF BKPR 161730Z 1618/1718 33005KT 9999 SCT060"
    },
    {
      "icao": "EBCI",
      "alert": "OK",
      "vis_m": 9999,
      "fzfg": false,
      "metar_trigger": false,
      "taf_trigger": false,
      "metar": "METAR EBCI 162150Z AUTO 34005KT 300V010 CAVOK 22/15 Q1015",
      "taf": "TAF EBCI 161706Z 1618/1724 02008KT 9999 FEW045"
    },
    {
      "icao": "EDDB",
      "alert": "OK",
      "vis_m": 9999,
      "fzfg": false,
      "metar_trigger": false,
      "taf_trigger": false,
      "metar": "METAR EDDB 162150Z AUTO 08006KT CAVOK 20/15 Q1016 NOSIG",
      "taf": "TAF EDDB 161700Z 1618/1718 11004KT CAVOK"
    },
    {
      "icao": "EDDH",
      "alert": "OK",
      "vis_m": 9999,
      "fzfg": false,
      "metar_trigger": false,
      "taf_trigger": false,
      "metar": "METAR EDDH 162150Z AUTO 07005KT CAVOK 20/17 Q1016 NOSIG",
      "taf": ""
    },
    {
      "icao": "EDDK",
      "alert": "OK",
      "vis_m": 9999,
      "fzfg": false,
      "metar_trigger": false,
      "taf_trigger": false,
      "metar": "METAR EDDK 162150Z AUTO 06004KT CAVOK 19/15 Q1014 NOSIG",
      "taf": "TAF EDDK 161700Z 1618/1724 05005KT CAVOK"
    },
    {
      "icao": "EDDN",
      "alert": "OK",
      "vis_m": 9999,
      "fzfg": false,
      "metar_trigger": false,
      "taf_trigger": false,
      "metar": "METAR EDDN 162150Z AUTO 21016KT 170V240 9999 -RA NSC 20/15 Q1017",
      "taf": "TAF EDDN 161700Z 1618/1718 10004KT CAVOK"
    },
    {
      "icao": "EDDS",
      "alert": "OK",
      "vis_m": 9999,
      "fzfg": false,
      "metar_trigger": false,
      "taf_trigger": false,
      "metar": "METAR EDDS 162150Z AUTO 12003KT 060V190 CAVOK 18/16 Q1018",
      "taf": "TAF EDDS 161700Z 1618/1718 VRB03KT CAVOK"
    },
    {
      "icao": "EDFH",
      "alert": "OK",
      "vis_m": 9999,
      "fzfg": false,
      "metar_trigger": false,
      "taf_trigger": false,
      "metar": "METAR EDFH 162150Z VRB02KT CAVOK 20/14 Q1016",
      "taf": "TAF EDFH 161700Z 1618/1718 14007KT CAVOK"
    },
    {
      "icao": "EDJA",
      "alert": "OK",
      "vis_m": 9999,
      "fzfg": false,
      "metar_trigger": false,
      "taf_trigger": false,
      "metar": "METAR EDJA 162150Z AUTO 18005KT 9999 // BKN110/// BKN150/// 17/16 Q1017",
      "taf": "TAF EDJA 161700Z 1618/1703 VRB03KT CAVOK"
    },
    {
      "icao": "EDLW",
      "alert": "OK",
      "vis_m": 9999,
      "fzfg": false,
      "metar_trigger": false,
      "taf_trigger": false,
      "metar": "METAR EDLW 162150Z AUTO VRB02KT 9999 // FEW100/// 19/14 Q1015",
      "taf": "TAF EDLW 161700Z 1618/1718 06007KT CAVOK"
    },
    {
      "icao": "EDNY",
      "alert": "OK",
      "vis_m": 9999,
      "fzfg": false,
      "metar_trigger": false,
      "taf_trigger": false,
      "metar": "METAR EDNY 162150Z AUTO 04005KT 330V080 9999 // FEW130/// SCT180/// BKN240/// 19/17 Q1018",
      "taf": "TAF EDNY 161700Z 1618/1703 VRB03KT 9999 FEW050"
    },
    {
      "icao": "EDSB",
      "alert": "OK",
      "vis_m": 9000,
      "fzfg": false,
      "metar_trigger": false,
      "taf_trigger": false,
      "metar": "METAR EDSB 162150Z VRB01KT 9000 NSC 18/17 Q1015",
      "taf": "TAF EDSB 161700Z 1618/1718 21004KT CAVOK"
    },
    {
      "icao": "EETN",
      "alert": "OK",
      "vis_m": 9999,
      "fzfg": false,
      "metar_trigger": false,
      "taf_trigger": false,
      "metar": "METAR EETN 162150Z 09004KT CAVOK 15/11 Q1021 NOSIG",
      "taf": ""
    },
    {
      "icao": "EFTU",
      "alert": "OK",
      "vis_m": 9999,
      "fzfg": false,
      "metar_trigger": false,
      "taf_trigger": false,
      "metar": "METAR EFTU 162150Z AUTO 19003KT 130V220 CAVOK 15/12 Q1020",
      "taf": "TAF EFTU 162025Z 1621/1721 22010KT CAVOK"
    },
    {
      "icao": "EGBB",
      "alert": "OK",
      "vis_m": 9999,
      "fzfg": false,
      "metar_trigger": false,
      "taf_trigger": false,
      "metar": "METAR EGBB 162150Z 13004KT CAVOK 18/11 Q1019",
      "taf": "TAF EGBB 161659Z 1618/1718 09007KT CAVOK"
    },
    {
      "icao": "EGGP",
      "alert": "OK",
      "vis_m": 9999,
      "fzfg": false,
      "metar_trigger": false,
      "taf_trigger": false,
      "metar": "METAR EGGP 162150Z 31004KT CAVOK 20/11 Q1019",
      "taf": "TAF EGGP 161656Z 1618/1718 36006KT 9999 FEW045"
    },
    {
      "icao": "EGGW",
      "alert": "OK",
      "vis_m": 9999,
      "fzfg": false,
      "metar_trigger": false,
      "taf_trigger": false,
      "metar": "METAR EGGW 162150Z AUTO 03005G15KT 010V080 9999 NCD 18/12 Q1019",
      "taf": "TAF EGGW 161655Z 1618/1718 05010KT CAVOK"
    },
    {
      "icao": "EGKK",
      "alert": "OK",
      "vis_m": 9999,
      "fzfg": false,
      "metar_trigger": false,
      "taf_trigger": false,
      "metar": "METAR EGKK 162150Z 03005KT 350V060 CAVOK 20/11 Q1017",
      "taf": "TAF EGKK 161657Z 1618/1724 06012KT CAVOK"
    },
    {
      "icao": "EGNM",
      "alert": "OK",
      "vis_m": 9999,
      "fzfg": false,
      "metar_trigger": false,
      "taf_trigger": false,
      "metar": "METAR EGNM 162150Z 03006KT 350V060 CAVOK 15/12 Q1021",
      "taf": ""
    },
    {
      "icao": "EGPD",
      "alert": "OK",
      "vis_m": 8000,
      "fzfg": false,
      "metar_trigger": false,
      "taf_trigger": false,
      "metar": "METAR EGPD 162150Z 35005KT 8000 OVC011 13/11 Q1022",
      "taf": ""
    },
    {
      "icao": "EGPF",
      "alert": "OK",
      "vis_m": 9999,
      "fzfg": false,
      "metar_trigger": false,
      "taf_trigger": false,
      "metar": "METAR EGPF 162150Z AUTO 05007KT 9999 NCD 16/11 Q1021",
      "taf": "TAF EGPF 161653Z 1618/1718 05008KT CAVOK"
    },
    {
      "icao": "EHBK",
      "alert": "OK",
      "vis_m": 9999,
      "fzfg": false,
      "metar_trigger": false,
      "taf_trigger": false,
      "metar": "METAR EHBK 162155Z AUTO 02009KT 9999 NCD 22/13 Q1014",
      "taf": "TAF EHBK 161709Z 1618/1724 03007KT CAVOK"
    },
    {
      "icao": "EHEH",
      "alert": "OK",
      "vis_m": 9999,
      "fzfg": false,
      "metar_trigger": false,
      "taf_trigger": false,
      "metar": "METAR EHEH 162155Z AUTO 01004KT 340V040 9999 NCD 20/15 Q1015 BLU",
      "taf": "TAF EHEH 161746Z 1618/1724 03009KT CAVOK"
    },
    {
      "icao": "EKBI",
      "alert": "OK",
      "vis_m": 9999,
      "fzfg": false,
      "metar_trigger": false,
      "taf_trigger": false,
      "metar": "METAR EKBI 162150Z AUTO 10002KT 9999 FEW070/// FEW130/// BKN160/// 17/14 Q1018",
      "taf": "TAF EKBI 162027Z 1621/1721 11003KT 9999 SCT040"
    },
    {
      "icao": "EKCH",
      "alert": "OK",
      "vis_m": 9999,
      "fzfg": false,
      "metar_trigger": false,
      "taf_trigger": false,
      "metar": "METAR EKCH 162150Z AUTO 11002KT 9999 NCD 18/14 Q1018 NOSIG",
      "taf": "TAF EKCH 162027Z 1621/1721 22004KT 9999 FEW040"
    },
    {
      "icao": "ENAL",
      "alert": "OK",
      "vis_m": 9999,
      "fzfg": false,
      "metar_trigger": false,
      "taf_trigger": false,
      "metar": "METAR ENAL 162150Z AUTO 03004KT 9999 OVC010/// 12/10 Q1021",
      "taf": "TAF ENAL 162000Z 1621/1706 34005KT 9999 FEW009"
    },
    {
      "icao": "ENBR",
      "alert": "OK",
      "vis_m": 9999,
      "fzfg": false,
      "metar_trigger": false,
      "taf_trigger": false,
      "metar": "METAR ENBR 162150Z 32009KT CAVOK 12/11 Q1019 RMK WIND 1200FT 35012KT",
      "taf": "TAF ENBR 161700Z 1618/1718 33012KT CAVOK"
    },
    {
      "icao": "ENGM",
      "alert": "OK",
      "vis_m": 9999,
      "fzfg": false,
      "metar_trigger": false,
      "taf_trigger": false,
      "metar": "METAR ENGM 162150Z 20006KT CAVOK 21/10 Q1017",
      "taf": "TAF ENGM 161700Z 1618/1718 20007KT CAVOK"
    },
    {
      "icao": "ENHD",
      "alert": "OK",
      "vis_m": 9999,
      "fzfg": false,
      "metar_trigger": false,
      "taf_trigger": false,
      "metar": "METAR ENHD 162150Z AUTO 35010KT 9999 NCD 13/11 Q1018",
      "taf": "TAF ENHD 161400Z 1615/1622 35007KT 9999 SCT002"
    },
    {
      "icao": "ENTC",
      "alert": "OK",
      "vis_m": 8000,
      "fzfg": false,
      "metar_trigger": false,
      "taf_trigger": false,
      "metar": "METAR ENTC 162150Z 27006KT 8000 -RA FEW014 SCT020 BKN025 11/09 Q1011 RMK WIND 2600FT 25021KT",
      "taf": ""
    },
    {
      "icao": "ENTO",
      "alert": "OK",
      "vis_m": 7000,
      "fzfg": false,
      "metar_trigger": false,
      "taf_trigger": false,
      "metar": "METAR ENTO 162150Z AUTO 18005KT 7000 // NCD 21/12 Q1017",
      "taf": "TAF ENTO 161700Z 1618/1718 22007KT CAVOK"
    },
    {
      "icao": "ENVA",
      "alert": "OK",
      "vis_m": 9999,
      "fzfg": false,
      "metar_trigger": false,
      "taf_trigger": false,
      "metar": "METAR ENVA 162150Z 27012KT CAVOK 15/12 Q1020 RMK WIND 670FT 28014KT",
      "taf": "TAF ENVA 161700Z 1618/1718 26010KT CAVOK"
    },
    {
      "icao": "ENZV",
      "alert": "OK",
      "vis_m": 9999,
      "fzfg": false,
      "metar_trigger": false,
      "taf_trigger": false,
      "metar": "METAR ENZV 162150Z COR 28002KT CAVOK 15/13 Q1018",
      "taf": "TAF ENZV 161700Z 1618/1718 30005KT CAVOK"
    },
    {
      "icao": "EPGD",
      "alert": "OK",
      "vis_m": 9999,
      "fzfg": false,
      "metar_trigger": false,
      "taf_trigger": false,
      "metar": "METAR EPGD 162200Z 27003KT CAVOK 16/13 Q1020",
      "taf": "TAF EPGD 161730Z 1618/1718 05010KT CAVOK"
    },
    {
      "icao": "EPKK",
      "alert": "OK",
      "vis_m": 9999,
      "fzfg": false,
      "metar_trigger": false,
      "taf_trigger": false,
      "metar": "METAR EPKK 162200Z 26002KT CAVOK 19/16 Q1018",
      "taf": "TAF EPKK 162030Z 1621/1721 VRB03KT CAVOK"
    },
    {
      "icao": "EPKT",
      "alert": "OK",
      "vis_m": 9999,
      "fzfg": false,
      "metar_trigger": false,
      "taf_trigger": false,
      "metar": "METAR EPKT 162200Z 05003KT CAVOK 17/16 Q1018",
      "taf": "TAF EPKT 161730Z 1618/1718 VRB02KT CAVOK"
    },
    {
      "icao": "EPLB",
      "alert": "OK",
      "vis_m": 9999,
      "fzfg": false,
      "metar_trigger": false,
      "taf_trigger": false,
      "metar": "METAR EPLB 162200Z 30002KT CAVOK 19/14 Q1018",
      "taf": "TAF EPLB 161730Z 1618/1718 03005KT CAVOK"
    },
    {
      "icao": "EPMO",
      "alert": "OK",
      "vis_m": 9999,
      "fzfg": false,
      "metar_trigger": false,
      "taf_trigger": false,
      "metar": "METAR EPMO 162200Z 06003KT CAVOK 20/14 Q1018",
      "taf": "TAF EPMO 161730Z 1618/1718 VRB04KT CAVOK"
    },
    {
      "icao": "EPPO",
      "alert": "OK",
      "vis_m": 9999,
      "fzfg": false,
      "metar_trigger": false,
      "taf_trigger": false,
      "metar": "METAR EPPO 162200Z 05001KT CAVOK 19/17 Q1017",
      "taf": "TAF EPPO 161730Z 1618/1718 VRB02KT 9999 SCT045"
    },
    {
      "icao": "EPRA",
      "alert": "OK",
      "vis_m": 9999,
      "fzfg": false,
      "metar_trigger": false,
      "taf_trigger": false,
      "metar": "METAR EPRA 162200Z 10002KT CAVOK 22/13 Q1018",
      "taf": "TAF EPRA 162030Z 1621/1706 VRB02KT CAVOK"
    },
    {
      "icao": "EPRZ",
      "alert": "OK",
      "vis_m": 9999,
      "fzfg": false,
      "metar_trigger": false,
      "taf_trigger": false,
      "metar": "METAR EPRZ 162200Z 25003KT CAVOK 21/17 Q1018",
      "taf": "TAF EPRZ 161730Z 1618/1718 35004KT CAVOK"
    },
    {
      "icao": "EPSC",
      "alert": "OK",
      "vis_m": 9999,
      "fzfg": false,
      "metar_trigger": false,
      "taf_trigger": false,
      "metar": "METAR EPSC 162200Z VRB02KT CAVOK 20/15 Q1017",
      "taf": "TAF EPSC 161730Z 1618/1718 09005KT CAVOK"
    },
    {
      "icao": "EPSY",
      "alert": "OK",
      "vis_m": 9999,
      "fzfg": false,
      "metar_trigger": false,
      "taf_trigger": false,
      "metar": "METAR EPSY 162200Z 03002KT CAVOK 18/15 Q1019",
      "taf": "TAF EPSY 162030Z 1621/1706 VRB02KT CAVOK"
    },
    {
      "icao": "EPWA",
      "alert": "OK",
      "vis_m": 9999,
      "fzfg": false,
      "metar_trigger": false,
      "taf_trigger": false,
      "metar": "METAR EPWA 162200Z 09005KT CAVOK 23/13 Q1018 NOSIG",
      "taf": "TAF EPWA 162030Z 1621/1721 09005KT CAVOK"
    },
    {
      "icao": "EPWR",
      "alert": "OK",
      "vis_m": 9999,
      "fzfg": false,
      "metar_trigger": false,
      "taf_trigger": false,
      "metar": "METAR EPWR 162200Z VRB01KT CAVOK 20/17 Q1017",
      "taf": "TAF EPWR 162030Z 1621/1721 VRB02KT CAVOK"
    },
    {
      "icao": "ESGG",
      "alert": "OK",
      "vis_m": 9999,
      "fzfg": false,
      "metar_trigger": false,
      "taf_trigger": false,
      "metar": "METAR ESGG 162150Z 00000KT CAVOK 20/11 Q1018",
      "taf": "TAF ESGG 162030Z 1621/1721 22006KT CAVOK"
    },
    {
      "icao": "ESKN",
      "alert": "OK",
      "vis_m": 9999,
      "fzfg": false,
      "metar_trigger": false,
      "taf_trigger": false,
      "metar": "METAR ESKN 162150Z 08003KT CAVOK 16/16 Q1019",
      "taf": "TAF ESKN 162030Z 1621/1721 12006KT CAVOK"
    },
    {
      "icao": "ESMS",
      "alert": "OK",
      "vis_m": 9999,
      "fzfg": false,
      "metar_trigger": false,
      "taf_trigger": false,
      "metar": "METAR ESMS 162150Z 11002KT CAVOK 15/13 Q1018",
      "taf": "TAF ESMS 162027Z 1621/1721 13003KT CAVOK"
    },
    {
      "icao": "ESSA",
      "alert": "OK",
      "vis_m": 9999,
      "fzfg": false,
      "metar_trigger": false,
      "taf_trigger": false,
      "metar": "METAR ESSA 162150Z 15005KT CAVOK 18/11 Q1019 NOSIG",
      "taf": "TAF ESSA 162030Z 1621/1721 15006KT CAVOK"
    },
    {
      "icao": "EYKA",
      "alert": "OK",
      "vis_m": 9999,
      "fzfg": false,
      "metar_trigger": false,
      "taf_trigger": false,
      "metar": "METAR EYKA 162150Z 35001KT CAVOK 19/16 Q1019",
      "taf": "TAF EYKA 161700Z 1618/1718 VRB03KT 9000 NSC"
    },
    {
      "icao": "EYPA",
      "alert": "OK",
      "vis_m": 9999,
      "fzfg": false,
      "metar_trigger": false,
      "taf_trigger": false,
      "metar": "METAR EYPA 162150Z 05005KT CAVOK 18/14 Q1019",
      "taf": "TAF EYPA 161700Z 1618/1718 VRB03KT 9000 NSC"
    },
    {
      "icao": "EYVI",
      "alert": "OK",
      "vis_m": 9999,
      "fzfg": false,
      "metar_trigger": false,
      "taf_trigger": false,
      "metar": "METAR EYVI 162150Z 00000KT CAVOK 18/16 Q1019 NOSIG",
      "taf": "TAF EYVI 161700Z 1618/1718 VRB03KT 9000 SCT045"
    },
    {
      "icao": "GCFV",
      "alert": "OK",
      "vis_m": 9999,
      "fzfg": false,
      "metar_trigger": false,
      "taf_trigger": false,
      "metar": "METAR GCFV 162200Z 01013KT CAVOK 24/20 Q1018",
      "taf": "TAF GCFV 162000Z 1621/1721 36012KT 9999 FEW015 TX29/1714Z TN22/1706Z"
    },
    {
      "icao": "GCLP",
      "alert": "OK",
      "vis_m": 9999,
      "fzfg": false,
      "metar_trigger": false,
      "taf_trigger": false,
      "metar": "METAR GCLP 162200Z 01021KT 9999 FEW020 24/21 Q1018 NOSIG",
      "taf": "TAF GCLP 162000Z 1621/1721 36018KT 9999 SCT020 TX29/1714Z TN23/1706Z"
    },
    {
      "icao": "GCTS",
      "alert": "OK",
      "vis_m": 9999,
      "fzfg": false,
      "metar_trigger": false,
      "taf_trigger": false,
      "metar": "METAR GCTS 162200Z 06023KT CAVOK 25/19 Q1017 NOSIG",
      "taf": "TAF GCTS 162000Z 1621/1721 08017KT 9999 FEW020 TX30/1714Z TN23/1706Z"
    },
    {
      "icao": "GMAD",
      "alert": "OK",
      "vis_m": 7000,
      "fzfg": false,
      "metar_trigger": false,
      "taf_trigger": false,
      "metar": "METAR GMAD 162200Z 26005KT 7000 NSC 24/18 Q1014 NOSIG",
      "taf": "TAF GMAD 161700Z 1618/1724 12006KT 8000 NSC"
    },
    {
      "icao": "GMMN",
      "alert": "OK",
      "vis_m": 9999,
      "fzfg": false,
      "metar_trigger": false,
      "taf_trigger": false,
      "metar": "METAR GMMN 162200Z 35008KT 9999 FEW020 22/19 Q1020 NOSIG",
      "taf": "TAF GMMN 161700Z 1618/1724 36011KT CAVOK"
    },
    {
      "icao": "GMMX",
      "alert": "OK",
      "vis_m": 8000,
      "fzfg": false,
      "metar_trigger": false,
      "taf_trigger": false,
      "metar": "METAR GMMX 162200Z 09013KT 8000 BKN030 33/16 Q1017 NOSIG",
      "taf": "TAF GMMX 161700Z 1618/1724 06006KT 8000 SCT030"
    },
    {
      "icao": "HEGN",
      "alert": "OK",
      "vis_m": 9999,
      "fzfg": false,
      "metar_trigger": false,
      "taf_trigger": false,
      "metar": "METAR HEGN 162200Z 32008KT CAVOK 31/07 Q1006 NOSIG",
      "taf": "TAF HEGN 161700Z 1618/1724 28012KT CAVOK"
    },
    {
      "icao": "HEMA",
      "alert": "OK",
      "vis_m": 9999,
      "fzfg": false,
      "metar_trigger": false,
      "taf_trigger": false,
      "metar": "METAR HEMA 162200Z 27004KT CAVOK 29/12 Q1005 NOSIG",
      "taf": "TAF HEMA 161700Z 1618/1724 30012KT CAVOK"
    },
    {
      "icao": "HESH",
      "alert": "OK",
      "vis_m": 9999,
      "fzfg": false,
      "metar_trigger": false,
      "taf_trigger": false,
      "metar": "METAR HESH 162200Z 36007KT CAVOK 30/21 Q1003 NOSIG",
      "taf": "TAF HESH 161700Z 1618/1724 07010KT CAVOK"
    },
    {
      "icao": "HESX",
      "alert": "OK",
      "vis_m": 9999,
      "fzfg": false,
      "metar_trigger": false,
      "taf_trigger": false,
      "metar": "METAR HESX 162200Z 33005KT CAVOK 24/20 Q1008 NOSIG",
      "taf": "TAF HESX 161750Z 1618/1724 32010KT CAVOK"
    },
    {
      "icao": "LATI",
      "alert": "OK",
      "vis_m": null,
      "fzfg": false,
      "metar_trigger": false,
      "taf_trigger": false,
      "metar": "",
      "taf": "TAF LATI 161700Z 1618/1718 VRB04KT CAVOK TX37/1712Z TN19/1704Z"
    },
    {
      "icao": "LBPD",
      "alert": "OK",
      "vis_m": 9999,
      "fzfg": false,
      "metar_trigger": false,
      "taf_trigger": false,
      "metar": "METAR LBPD 162200Z AUTO 19004KT 150V210 9999 FEW082 //////CB 25/18 Q1016",
      "taf": "TAF LBPD 161700Z 1618/1718 VRB04KT CAVOK"
    },
    {
      "icao": "LBSF",
      "alert": "OK",
      "vis_m": 9999,
      "fzfg": false,
      "metar_trigger": false,
      "taf_trigger": false,
      "metar": "METAR LBSF 162200Z AUTO VRB02KT 9999 NSC 21/18 Q1019 NOSIG",
      "taf": "TAF LBSF 161700Z 1618/1718 34010KT 9999 SCT060"
    },
    {
      "icao": "LBWN",
      "alert": "OK",
      "vis_m": 9999,
      "fzfg": false,
      "metar_trigger": false,
      "taf_trigger": false,
      "metar": "METAR LBWN 162200Z AUTO VRB02KT 9999 NCD 21/17 Q1015 NOSIG",
      "taf": "TAF LBWN 161700Z 1618/1718 VRB04KT 9999 SCT045"
    },
    {
      "icao": "LCLK",
      "alert": "OK",
      "vis_m": 9999,
      "fzfg": false,
      "metar_trigger": false,
      "taf_trigger": false,
      "metar": "METAR LCLK 162200Z 33005KT 290V360 CAVOK 28/23 Q1004 NOSIG",
      "taf": "TAF LCLK 161730Z 1618/1718 21012KT 9999 FEW015"
    },
    {
      "icao": "LCPH",
      "alert": "OK",
      "vis_m": 9999,
      "fzfg": false,
      "metar_trigger": false,
      "taf_trigger": false,
      "metar": "METAR LCPH 162200Z 34004KT CAVOK 27/21 Q1005 NOSIG",
      "taf": "TAF LCPH 161730Z 1618/1718 29015KT 9999 SCT012"
    },
    {
      "icao": "LEAL",
      "alert": "OK",
      "vis_m": 9999,
      "fzfg": false,
      "metar_trigger": false,
      "taf_trigger": false,
      "metar": "METAR LEAL 162200Z VRB01KT CAVOK 28/24 Q1014 NOSIG",
      "taf": "TAF LEAL 161700Z 1618/1718 11007KT 9999 FEW040 TX40/1713Z TN25/1705Z"
    },
    {
      "icao": "LEBB",
      "alert": "OK",
      "vis_m": 9999,
      "fzfg": false,
      "metar_trigger": false,
      "taf_trigger": false,
      "metar": "METAR LEBB 162200Z 00000KT 9999 FEW025 22/18 Q1019 NOSIG",
      "taf": ""
    },
    {
      "icao": "LEBL",
      "alert": "OK",
      "vis_m": 9000,
      "fzfg": false,
      "metar_trigger": false,
      "taf_trigger": false,
      "metar": "METAR LEBL 162200Z 05002KT 9000 FEW020 27/26 Q1014 NOSIG",
      "taf": "TAF LEBL 161700Z 1618/1718 07010KT 9999 FEW020 TX31/1712Z TN25/1706Z"
    },
    {
      "icao": "LECH",
      "alert": "OK",
      "vis_m": 9999,
      "fzfg": false,
      "metar_trigger": false,
      "taf_trigger": false,
      "metar": "METAR LECH 162200Z AUTO 20002KT CAVOK 26/22 Q1016",
      "taf": "TAF LECH 161700Z 1618/1718 12007KT 9999 FEW040 TX35/1713Z TN20/1705Z"
    },
    {
      "icao": "LEMD",
      "alert": "OK",
      "vis_m": 9999,
      "fzfg": false,
      "metar_trigger": false,
      "taf_trigger": false,
      "metar": "METAR LEMD 162200Z 27003KT 240V310 CAVOK 29/05 Q1018 NOSIG",
      "taf": ""
    },
    {
      "icao": "LEMG",
      "alert": "OK",
      "vis_m": 9999,
      "fzfg": false,
      "metar_trigger": false,
      "taf_trigger": false,
      "metar": "METAR LEMG 162200Z 30005KT 260V330 CAVOK 26/17 Q1015 NOSIG",
      "taf": "TAF LEMG 161700Z 1618/1718 VRB03KT CAVOK TX39/1715Z TN24/1705Z"
    },
    {
      "icao": "LEVC",
      "alert": "OK",
      "vis_m": 9999,
      "fzfg": false,
      "metar_trigger": false,
      "taf_trigger": false,
      "metar": "METAR LEVC 162200Z VRB01KT CAVOK 28/25 Q1014 NOSIG",
      "taf": "TAF LEVC 161700Z 1618/1718 08007KT 9999 FEW030 TX34/1713Z TN24/1705Z"
    },
    {
      "icao": "LEXJ",
      "alert": "OK",
      "vis_m": 8000,
      "fzfg": false,
      "metar_trigger": false,
      "taf_trigger": false,
      "metar": "METAR LEXJ 162200Z 25004KT 8000 SCT022 20/19 Q1019",
      "taf": "TAF LEXJ 162000Z 1621/1721 25008KT 9999 SCT020 BKN030 TX25/1713Z TN19/1703Z"
    },
    {
      "icao": "LEZG",
      "alert": "OK",
      "vis_m": 9999,
      "fzfg": false,
      "metar_trigger": false,
      "taf_trigger": false,
      "metar": "METAR LEZG 162200Z 30016KT 260V330 CAVOK 28/17 Q1015 NOSIG",
      "taf": "TAF LEZG 161700Z 1618/1718 11007KT 9999 FEW060 TX36/1713Z TN21/1705Z"
    },
    {
      "icao": "LEZL",
      "alert": "OK",
      "vis_m": 9999,
      "fzfg": false,
      "metar_trigger": false,
      "taf_trigger": false,
      "metar": "METAR LEZL 162200Z 21006KT CAVOK 27/14 Q1016 NOSIG",
      "taf": "TAF LEZL 162000Z 1621/1721 VRB02KT CAVOK TX37/1715Z TN22/1705Z"
    },
    {
      "icao": "LFBD",
      "alert": "OK",
      "vis_m": 9999,
      "fzfg": false,
      "metar_trigger": false,
      "taf_trigger": false,
      "metar": "METAR LFBD 162200Z AUTO 33007KT 240V360 9999 FEW016/// SCT072/// BKN150/// ///CB 24/21 Q1018 TEMPO VRB15G25KT 4000 TSRA",
      "taf": ""
    },
    {
      "icao": "LFLL",
      "alert": "OK",
      "vis_m": 1600,
      "fzfg": false,
      "metar_trigger": false,
      "taf_trigger": false,
      "metar": "METAR LFLL 162200Z VRB05KT 1600 +TSRA FEW020 BKN043CB BKN093 19/18 Q1019 TEMPO VRB20G45KT",
      "taf": ""
    },
    {
      "icao": "LFLS",
      "alert": "OK",
      "vis_m": 9999,
      "fzfg": false,
      "metar_trigger": false,
      "taf_trigger": false,
      "metar": "METAR LFLS 162200Z AUTO VRB05G15KT 9999 -TSRA FEW015/// BKN052/// BKN064/// ///CB 19/17 Q1019",
      "taf": ""
    },
    {
      "icao": "LFMN",
      "alert": "OK",
      "vis_m": 9999,
      "fzfg": false,
      "metar_trigger": false,
      "taf_trigger": false,
      "metar": "METAR LFMN 162200Z 33005KT CAVOK 28/24 Q1014 NOSIG",
      "taf": "TAF LFMN 162000Z 1621/1803 33008KT CAVOK"
    },
    {
      "icao": "LFOB",
      "alert": "OK",
      "vis_m": 9999,
      "fzfg": false,
      "metar_trigger": false,
      "taf_trigger": false,
      "metar": "METAR LFOB 162200Z AUTO 01009KT CAVOK 21/12 Q1014 TEMPO VRB15G25KT 4000 -SHRA SCT070CB",
      "taf": ""
    },
    {
      "icao": "LFPO",
      "alert": "OK",
      "vis_m": 9999,
      "fzfg": false,
      "metar_trigger": false,
      "taf_trigger": false,
      "metar": "METAR LFPO 162200Z AUTO 03011KT 9999 FEW049/// SCT096/// BKN170/// ///CB 26/12 Q1013 TEMPO VRB15G25KT 3000 TSRA",
      "taf": ""
    },
    {
      "icao": "LFSB",
      "alert": "OK",
      "vis_m": 9999,
      "fzfg": false,
      "metar_trigger": false,
      "taf_trigger": false,
      "metar": "METAR LFSB 162200Z AUTO VRB03KT CAVOK 20/19 Q1015 TEMPO 34015G35KT 4000 TSRA SCT060CB",
      "taf": ""
    },
    {
      "icao": "LGAV",
      "alert": "OK",
      "vis_m": 9999,
      "fzfg": false,
      "metar_trigger": false,
      "taf_trigger": false,
      "metar": "METAR LGAV 162150Z 35007KT 330V030 CAVOK 28/10 Q1013 NOSIG",
      "taf": "TAF LGAV 161700Z 1618/1718 06014KT 9999 FEW025"
    },
    {
      "icao": "LGTS",
      "alert": "OK",
      "vis_m": 9999,
      "fzfg": false,
      "metar_trigger": false,
      "taf_trigger": false,
      "metar": "METAR LGTS 162150Z 33010KT 9999 FEW020TCU 27/21 Q1015 NOSIG",
      "taf": ""
    },
    {
      "icao": "LHBP",
      "alert": "OK",
      "vis_m": 9999,
      "fzfg": false,
      "metar_trigger": false,
      "taf_trigger": false,
      "metar": "METAR LHBP 162200Z 00000KT CAVOK 21/15 Q1018 NOSIG",
      "taf": "TAF LHBP 161715Z 1618/1718 35006KT CAVOK"
    },
    {
      "icao": "LHDC",
      "alert": "OK",
      "vis_m": 9999,
      "fzfg": false,
      "metar_trigger": false,
      "taf_trigger": false,
      "metar": "METAR LHDC 162145Z AUTO 08001KT CAVOK 23/16 Q1017",
      "taf": "TAF LHDC 161715Z 1618/1703 36005KT CAVOK"
    },
    {
      "icao": "LIBD",
      "alert": "OK",
      "vis_m": 9999,
      "fzfg": false,
      "metar_trigger": false,
      "taf_trigger": false,
      "metar": "METAR LIBD 162150Z 21003KT CAVOK 25/18 Q1016",
      "taf": "TAF LIBD 161700Z 1618/1718 VRB05KT CAVOK"
    },
    {
      "icao": "LIBG",
      "alert": "OK",
      "vis_m": null,
      "fzfg": false,
      "metar_trigger": false,
      "taf_trigger": false,
      "metar": "",
      "taf": "TAF LIBG 161700Z 1618/1718 02006KT CAVOK"
    },
    {
      "icao": "LIBP",
      "alert": "OK",
      "vis_m": 9999,
      "fzfg": false,
      "metar_trigger": false,
      "taf_trigger": false,
      "metar": "METAR LIBP 162150Z AUTO 21003KT 9999 NCD 25/21 Q1016",
      "taf": "TAF LIBP 161700Z 1618/1718 VRB05KT CAVOK"
    },
    {
      "icao": "LIBR",
      "alert": "OK",
      "vis_m": 9999,
      "fzfg": false,
      "metar_trigger": false,
      "taf_trigger": false,
      "metar": "METAR LIBR 162150Z 33007KT CAVOK 27/23 Q1016",
      "taf": "TAF LIBR 161700Z 1618/1718 33013KT CAVOK"
    },
    {
      "icao": "LICA",
      "alert": "OK",
      "vis_m": 9999,
      "fzfg": false,
      "metar_trigger": false,
      "taf_trigger": false,
      "metar": "METAR LICA 162150Z AUTO VRB01KT 9999 NCD 25/23 Q1017",
      "taf": "TAF LICA 161700Z 1618/1718 24010KT CAVOK"
    },
    {
      "icao": "LICC",
      "alert": "OK",
      "vis_m": 9999,
      "fzfg": false,
      "metar_trigger": false,
      "taf_trigger": false,
      "metar": "METAR LICC 162150Z 27003KT CAVOK 28/17 Q1016",
      "taf": "TAF LICC 161700Z 1618/1718 VRB06KT CAVOK"
    },
    {
      "icao": "LICJ",
      "alert": "OK",
      "vis_m": 9999,
      "fzfg": false,
      "metar_trigger": false,
      "taf_trigger": false,
      "metar": "METAR LICJ 162150Z 16003KT 120V190 CAVOK 28/25 Q1016",
      "taf": "TAF LICJ 161700Z 1618/1718 04010KT CAVOK"
    },
    {
      "icao": "LIMC",
      "alert": "OK",
      "vis_m": 9999,
      "fzfg": false,
      "metar_trigger": false,
      "taf_trigger": false,
      "metar": "METAR LIMC 162150Z 03007KT 9999 SCT050 26/19 Q1016 NOSIG",
      "taf": "TAF LIMC 161700Z 1618/1724 VRB05KT 9999 FEW040"
    },
    {
      "icao": "LIME",
      "alert": "OK",
      "vis_m": 9999,
      "fzfg": false,
      "metar_trigger": false,
      "taf_trigger": false,
      "metar": "METAR LIME 162150Z 02004KT CAVOK 26/21 Q1016 NOSIG",
      "taf": "TAF LIME 161700Z 1618/1718 VRB05KT 9999 SCT040"
    },
    {
      "icao": "LIMF",
      "alert": "OK",
      "vis_m": 9999,
      "fzfg": false,
      "metar_trigger": false,
      "taf_trigger": false,
      "metar": "METAR LIMF 162150Z 34005KT CAVOK 25/20 Q1016",
      "taf": "TAF LIMF 161700Z 1618/1718 VRB05KT 9999 FEW040"
    },
    {
      "icao": "LIMJ",
      "alert": "OK",
      "vis_m": 9999,
      "fzfg": false,
      "metar_trigger": false,
      "taf_trigger": false,
      "metar": "METAR LIMJ 162150Z 34003KT 300V040 CAVOK 28/24 Q1015",
      "taf": "TAF LIMJ 161700Z 1618/1718 VRB05KT 9999 SCT040"
    },
    {
      "icao": "LIPE",
      "alert": "OK",
      "vis_m": 9999,
      "fzfg": false,
      "metar_trigger": false,
      "taf_trigger": false,
      "metar": "METAR LIPE 162150Z AUTO 08005KT 9999 NCD 27/22 Q1014",
      "taf": "TAF LIPE 161700Z 1618/1718 10010KT CAVOK"
    },
    {
      "icao": "LIPH",
      "alert": "OK",
      "vis_m": 9999,
      "fzfg": false,
      "metar_trigger": false,
      "taf_trigger": false,
      "metar": "METAR LIPH 162050Z 08002KT CAVOK 27/20 Q1016",
      "taf": "TAF LIPH 161700Z 1618/1718 VRB05KT CAVOK"
    },
    {
      "icao": "LIPQ",
      "alert": "OK",
      "vis_m": 9999,
      "fzfg": false,
      "metar_trigger": false,
      "taf_trigger": false,
      "metar": "METAR LIPQ 162150Z AUTO 04004KT 9999 NCD 25/22 Q1016",
      "taf": "TAF LIPQ 161700Z 1618/1718 VRB05KT 9999 FEW050"
    },
    {
      "icao": "LIPR",
      "alert": "OK",
      "vis_m": 9999,
      "fzfg": false,
      "metar_trigger": false,
      "taf_trigger": false,
      "metar": "METAR LIPR 162150Z AUTO 13004KT 9999 NCD 27/21 Q1015",
      "taf": "TAF LIPR 161700Z 1618/1718 14010KT CAVOK"
    },
    {
      "icao": "LIPX",
      "alert": "OK",
      "vis_m": 9999,
      "fzfg": false,
      "metar_trigger": false,
      "taf_trigger": false,
      "metar": "METAR LIPX 162150Z 07004KT 020V120 9999 FEW070 26/21 Q1015",
      "taf": "TAF LIPX 161700Z 1618/1718 VRB05KT 9999 FEW050"
    },
    {
      "icao": "LIPY",
      "alert": "OK",
      "vis_m": 9999,
      "fzfg": false,
      "metar_trigger": false,
      "taf_trigger": false,
      "metar": "METAR LIPY 162150Z AUTO VRB02KT 9999 NCD 24/20 Q1016",
      "taf": "TAF LIPY 161700Z 1618/1718 VRB05KT CAVOK"
    },
    {
      "icao": "LIPZ",
      "alert": "OK",
      "vis_m": 9999,
      "fzfg": false,
      "metar_trigger": false,
      "taf_trigger": false,
      "metar": "METAR LIPZ 162150Z 12005KT CAVOK 27/24 Q1015 NOSIG",
      "taf": "TAF LIPZ 161700Z 1618/1724 VRB05KT CAVOK"
    },
    {
      "icao": "LIRF",
      "alert": "OK",
      "vis_m": 9999,
      "fzfg": false,
      "metar_trigger": false,
      "taf_trigger": false,
      "metar": "METAR LIRF 162150Z 30003KT CAVOK 28/25 Q1016 NOSIG",
      "taf": "TAF LIRF 161700Z 1618/1724 28007KT CAVOK"
    },
    {
      "icao": "LIRN",
      "alert": "OK",
      "vis_m": 9999,
      "fzfg": false,
      "metar_trigger": false,
      "taf_trigger": false,
      "metar": "METAR LIRN 162150Z VRB01KT CAVOK 28/24 Q1017 NOSIG",
      "taf": "TAF LIRN 161700Z 1618/1718 VRB03KT CAVOK"
    },
    {
      "icao": "LIRP",
      "alert": "OK",
      "vis_m": 9999,
      "fzfg": false,
      "metar_trigger": false,
      "taf_trigger": false,
      "metar": "METAR LIRP 162145Z 12003KT CAVOK 24/22 Q1015 NOSIG",
      "taf": "TAF LIRP 161700Z 1618/1718 30010KT CAVOK"
    },
    {
      "icao": "LIRZ",
      "alert": "OK",
      "vis_m": 9999,
      "fzfg": false,
      "metar_trigger": false,
      "taf_trigger": false,
      "metar": "METAR LIRZ 162150Z AUTO 01004KT 340V040 9999 NCD 26/18 Q1017",
      "taf": "TAF LIRZ 161700Z 1618/1718 VRB04KT CAVOK"
    },
    {
      "icao": "LJLJ",
      "alert": "OK",
      "vis_m": 9999,
      "fzfg": false,
      "metar_trigger": false,
      "taf_trigger": false,
      "metar": "METAR LJLJ 162200Z 27001KT CAVOK 21/19 Q1019 NOSIG",
      "taf": ""
    },
    {
      "icao": "LKMT",
      "alert": "OK",
      "vis_m": 9999,
      "fzfg": false,
      "metar_trigger": false,
      "taf_trigger": false,
      "metar": "METAR LKMT 162200Z 00000KT CAVOK 20/17 Q1018 NOSIG",
      "taf": "TAF LKMT 161700Z 1618/1718 VRB02KT CAVOK"
    },
    {
      "icao": "LKPR",
      "alert": "OK",
      "vis_m": 9999,
      "fzfg": false,
      "metar_trigger": false,
      "taf_trigger": false,
      "metar": "METAR LKPR 162200Z 09004KT CAVOK 22/16 Q1017 NOSIG",
      "taf": "TAF LKPR 162000Z 1621/1803 08005KT CAVOK"
    },
    {
      "icao": "LLBG",
      "alert": "OK",
      "vis_m": 9999,
      "fzfg": false,
      "metar_trigger": false,
      "taf_trigger": false,
      "metar": "METAR LLBG 162150Z VRB02KT CAVOK 25/21 Q1006 NOSIG",
      "taf": "TAF LLBG 161703Z 1618/1718 VRB04KT 9999 SCT020 TX32/1711Z TN24/1703Z"
    },
    {
      "icao": "LMML",
      "alert": "OK",
      "vis_m": 9999,
      "fzfg": false,
      "metar_trigger": false,
      "taf_trigger": false,
      "metar": "METAR LMML 162215Z 24005KT CAVOK 28/22 Q1016 NOSIG",
      "taf": "TAF LMML 161700Z 1618/1718 VRB05KT CAVOK"
    },
    {
      "icao": "LOWW",
      "alert": "OK",
      "vis_m": 9999,
      "fzfg": false,
      "metar_trigger": false,
      "taf_trigger": false,
      "metar": "METAR LOWW 162150Z 16004KT CAVOK 23/18 Q1017 NOSIG",
      "taf": "TAF LOWW 162015Z 1621/1803 15008KT CAVOK TX30/1713Z TN20/1803Z"
    },
    {
      "icao": "LPFR",
      "alert": "OK",
      "vis_m": 9999,
      "fzfg": false,
      "metar_trigger": false,
      "taf_trigger": false,
      "metar": "METAR LPFR 162200Z 33010KT CAVOK 26/17 Q1018",
      "taf": "TAF LPFR 161700Z 1618/1718 19008KT CAVOK"
    },
    {
      "icao": "LPMA",
      "alert": "OK",
      "vis_m": 9999,
      "fzfg": false,
      "metar_trigger": false,
      "taf_trigger": false,
      "metar": "METAR LPMA 162200Z 02009KT 340V050 9999 FEW016 24/19 Q1021",
      "taf": "TAF LPMA 161700Z 1618/1718 02012KT 9999 SCT015"
    },
    {
      "icao": "LPPR",
      "alert": "OK",
      "vis_m": 9999,
      "fzfg": false,
      "metar_trigger": false,
      "taf_trigger": false,
      "metar": "METAR LPPR 162200Z 32003KT 9999 FEW013 SCT040 20/18 Q1019",
      "taf": "TAF LPPR 161700Z 1618/1718 29008KT 9999 SCT015"
    },
    {
      "icao": "LPPS",
      "alert": "OK",
      "vis_m": 9999,
      "fzfg": false,
      "metar_trigger": false,
      "taf_trigger": false,
      "metar": "METAR LPPS 162200Z 01010KT 9999 SCT014 23/20 Q1022",
      "taf": "TAF LPPS 161700Z 1618/1724 VRB05KT 9999 SCT015 SCT030"
    },
    {
      "icao": "LPPT",
      "alert": "OK",
      "vis_m": 9999,
      "fzfg": false,
      "metar_trigger": false,
      "taf_trigger": false,
      "metar": "METAR LPPT 162200Z 30008KT 9999 FEW018 20/17 Q1020 NOSIG",
      "taf": "TAF LPPT 161700Z 1618/1724 30010KT CAVOK"
    },
    {
      "icao": "LQBK",
      "alert": "OK",
      "vis_m": 9999,
      "fzfg": false,
      "metar_trigger": false,
      "taf_trigger": false,
      "metar": "METAR LQBK 162200Z 29002KT CAVOK 22/19 Q1018 NOSIG",
      "taf": "TAF LQBK 161700Z 1618/1718 22005KT CAVOK TX34/1714Z TN17/1703Z"
    },
    {
      "icao": "LQSA",
      "alert": "OK",
      "vis_m": 9999,
      "fzfg": false,
      "metar_trigger": false,
      "taf_trigger": false,
      "metar": "METAR LQSA 162200Z 14004KT 100V180 CAVOK 20/18 Q1020 NOSIG",
      "taf": "TAF LQSA 161700Z 1618/1718 VRB02KT CAVOK TX33/1713Z TN18/1704Z"
    },
    {
      "icao": "LQTZ",
      "alert": "OK",
      "vis_m": 9999,
      "fzfg": false,
      "metar_trigger": false,
      "taf_trigger": false,
      "metar": "METAR LQTZ 162200Z 00000KT CAVOK 19/19 Q1019",
      "taf": "TAF LQTZ 161700Z 1618/1718 VRB02KT CAVOK TX28/1714Z TN17/1703Z"
    },
    {
      "icao": "LRBC",
      "alert": "OK",
      "vis_m": 9999,
      "fzfg": false,
      "metar_trigger": false,
      "taf_trigger": false,
      "metar": "METAR LRBC 162200Z 00000KT CAVOK 19/17 Q1017",
      "taf": "TAF LRBC 162000Z 1621/1706 VRB04KT CAVOK"
    },
    {
      "icao": "LRBS",
      "alert": "OK",
      "vis_m": 9999,
      "fzfg": false,
      "metar_trigger": false,
      "taf_trigger": false,
      "metar": "METAR LRBS 162200Z VRB01KT CAVOK 21/19 Q1016 NOSIG",
      "taf": "TAF LRBS 161700Z 1618/1718 33006KT CAVOK"
    },
    {
      "icao": "LRBV",
      "alert": "OK",
      "vis_m": 9999,
      "fzfg": false,
      "metar_trigger": false,
      "taf_trigger": false,
      "metar": "METAR LRBV 162200Z 22005KT CAVOK 17/15 Q1020",
      "taf": "TAF LRBV 162000Z 1621/1706 VRB04KT 5000 BR NSC"
    },
    {
      "icao": "LRCL",
      "alert": "OK",
      "vis_m": 9999,
      "fzfg": false,
      "metar_trigger": false,
      "taf_trigger": false,
      "metar": "METAR LRCL 162200Z 36001KT CAVOK 19/16 Q1018",
      "taf": "TAF LRCL 162000Z 1621/1706 VRB04KT 9999 SCT055"
    },
    {
      "icao": "LRCV",
      "alert": "OK",
      "vis_m": 9999,
      "fzfg": false,
      "metar_trigger": false,
      "taf_trigger": false,
      "metar": "METAR LRCV 162200Z 04004KT CAVOK 21/19 Q1017",
      "taf": "TAF LRCV 162000Z 1621/1706 09008KT CAVOK"
    },
    {
      "icao": "LRIA",
      "alert": "OK",
      "vis_m": 9999,
      "fzfg": false,
      "metar_trigger": false,
      "taf_trigger": false,
      "metar": "METAR LRIA 162200Z 24005KT CAVOK 21/14 Q1017",
      "taf": "TAF LRIA 162000Z 1621/1706 32006KT CAVOK"
    },
    {
      "icao": "LROP",
      "alert": "OK",
      "vis_m": 9999,
      "fzfg": false,
      "metar_trigger": false,
      "taf_trigger": false,
      "metar": "METAR LROP 162200Z VRB02KT CAVOK 20/20 Q1016 NOSIG",
      "taf": "TAF LROP 161700Z 1618/1718 33006KT CAVOK"
    },
    {
      "icao": "LRSB",
      "alert": "OK",
      "vis_m": 9999,
      "fzfg": false,
      "metar_trigger": false,
      "taf_trigger": false,
      "metar": "METAR LRSB 162200Z VRB01KT 9999 FEW077 19/16 Q1019",
      "taf": "TAF LRSB 161700Z 1618/1718 VRB04KT 9999 SCT045"
    },
    {
      "icao": "LRSM",
      "alert": "OK",
      "vis_m": 9999,
      "fzfg": false,
      "metar_trigger": false,
      "taf_trigger": false,
      "metar": "METAR LRSM 162200Z AUTO 15003KT 9999 NCD 21/16 Q1017",
      "taf": "TAF LRSM 162000Z 1621/1706 05005KT CAVOK"
    },
    {
      "icao": "LRSV",
      "alert": "OK",
      "vis_m": 9999,
      "fzfg": false,
      "metar_trigger": false,
      "taf_trigger": false,
      "metar": "METAR LRSV 162200Z 30007KT CAVOK 22/15 Q1018",
      "taf": "TAF LRSV 162000Z 1621/1706 30006KT CAVOK"
    },
    {
      "icao": "LRTM",
      "alert": "OK",
      "vis_m": 9999,
      "fzfg": false,
      "metar_trigger": false,
      "taf_trigger": false,
      "metar": "METAR LRTM 162200Z 08005KT CAVOK 18/17 Q1018",
      "taf": "TAF LRTM 162000Z 1621/1706 VRB04KT 5000 BR NSC"
    },
    {
      "icao": "LRTR",
      "alert": "OK",
      "vis_m": 9999,
      "fzfg": false,
      "metar_trigger": false,
      "taf_trigger": false,
      "metar": "METAR LRTR 162200Z VRB02KT CAVOK 22/14 Q1016",
      "taf": "TAF LRTR 161700Z 1618/1718 34010KT CAVOK"
    },
    {
      "icao": "LTAC",
      "alert": "OK",
      "vis_m": 9999,
      "fzfg": false,
      "metar_trigger": false,
      "taf_trigger": false,
      "metar": "METAR LTAC 162150Z 05011KT CAVOK 20/12 Q1017 NOSIG RMK RWY21C 05009KT RWY03L 04008KT RWY21R 03009KT RWY03R 02011KT RWY21L 03010KT",
      "taf": "TAF LTAC 161640Z 1618/1718 03011KT CAVOK"
    },
    {
      "icao": "LTFM",
      "alert": "OK",
      "vis_m": 9999,
      "fzfg": false,
      "metar_trigger": false,
      "taf_trigger": false,
      "metar": "METAR LTFM 162150Z 07006KT CAVOK 25/20 Q1015 NOSIG RMK RWY17L 08003KT RWY34L 07006KT RWY16R 06003KT RWY36 09003KT 030V100 RWY18 10003KT 080V140",
      "taf": "TAF LTFM 161640Z 1618/1724 VRB02KT CAVOK"
    },
    {
      "icao": "LUKK",
      "alert": "OK",
      "vis_m": 9999,
      "fzfg": false,
      "metar_trigger": false,
      "taf_trigger": false,
      "metar": "METAR LUKK 162200Z 00000KT CAVOK 24/19 Q1016 NOSIG",
      "taf": "TAF LUKK 161702Z 1618/1718 33008KT CAVOK"
    },
    {
      "icao": "LWOH",
      "alert": "OK",
      "vis_m": null,
      "fzfg": false,
      "metar_trigger": false,
      "taf_trigger": false,
      "metar": "",
      "taf": "TAF LWOH 162035Z 1621/1721 33006KT 9999 FEW060"
    },
    {
      "icao": "LWSK",
      "alert": "OK",
      "vis_m": 9999,
      "fzfg": false,
      "metar_trigger": false,
      "taf_trigger": false,
      "metar": "METAR LWSK 162150Z VRB01KT 9999 FEW090 22/17 Q1018 NOSIG",
      "taf": "TAF LWSK 162035Z 1621/1721 34008KT 9999 FEW050"
    },
    {
      "icao": "LYBE",
      "alert": "OK",
      "vis_m": 9999,
      "fzfg": false,
      "metar_trigger": false,
      "taf_trigger": false,
      "metar": "METAR LYBE 162200Z 18005KT CAVOK 22/19 Q1017 NOSIG",
      "taf": "TAF LYBE 161700Z 1618/1718 04005KT CAVOK TX35/1714Z TN19/1703Z"
    },
    {
      "icao": "LYNI",
      "alert": "OK",
      "vis_m": 9999,
      "fzfg": false,
      "metar_trigger": false,
      "taf_trigger": false,
      "metar": "METAR LYNI 162200Z VRB01KT CAVOK 25/18 Q1018 NOSIG",
      "taf": "TAF LYNI 161700Z 1618/1718 03004KT CAVOK TX35/1714Z TN17/1703Z"
    },
    {
      "icao": "LYPG",
      "alert": "OK",
      "vis_m": 9999,
      "fzfg": false,
      "metar_trigger": false,
      "taf_trigger": false,
      "metar": "METAR LYPG 162200Z 00000KT CAVOK 24/20 Q1016 NOSIG",
      "taf": "TAF LYPG 161700Z 1618/1718 36006KT 9999 FEW090 TX37/1713Z TN24/1703Z"
    },
    {
      "icao": "LZIB",
      "alert": "OK",
      "vis_m": 9999,
      "fzfg": false,
      "metar_trigger": false,
      "taf_trigger": false,
      "metar": "METAR LZIB 162200Z 01003KT CAVOK 23/18 Q1017 NOSIG",
      "taf": "TAF LZIB 161715Z 1618/1718 VRB02KT CAVOK"
    },
    {
      "icao": "LZKZ",
      "alert": "OK",
      "vis_m": 9999,
      "fzfg": false,
      "metar_trigger": false,
      "taf_trigger": false,
      "metar": "METAR LZKZ 162200Z VRB03KT CAVOK 22/16 Q1018 NOSIG",
      "taf": "TAF LZKZ 161715Z 1618/1718 01006KT CAVOK"
    },
    {
      "icao": "LZTT",
      "alert": "OK",
      "vis_m": 9999,
      "fzfg": false,
      "metar_trigger": false,
      "taf_trigger": false,
      "metar": "METAR LZTT 162200Z 29004KT CAVOK 16/14 Q1021",
      "taf": "TAF LZTT 161715Z 1618/1718 03005KT 9999 FEW050"
    },
    {
      "icao": "OEJN",
      "alert": "OK",
      "vis_m": 9999,
      "fzfg": false,
      "metar_trigger": false,
      "taf_trigger": false,
      "metar": "METAR OEJN 162200Z 31007KT CAVOK 35/14 Q1002 NOSIG",
      "taf": "TAF OEJN 161700Z 1618/1724 02006KT CAVOK"
    },
    {
      "icao": "OEMA",
      "alert": "OK",
      "vis_m": 9999,
      "fzfg": false,
      "metar_trigger": false,
      "taf_trigger": false,
      "metar": "METAR OEMA 162200Z 30010KT 9999 SCT045 39/03 Q1007 NOSIG",
      "taf": "TAF OEMA 161700Z 1618/1724 28010KT 9999 SCT045"
    },
    {
      "icao": "OJAI",
      "alert": "OK",
      "vis_m": 5000,
      "fzfg": false,
      "metar_trigger": false,
      "taf_trigger": false,
      "metar": "METAR OJAI 162200Z 30005KT 5000 HZ NSC 21/13 Q1010 NOSIG",
      "taf": "TAF OJAI 161700Z 1618/1724 29012KT 5000 HZ NSC"
    },
    {
      "icao": "OMAA",
      "alert": "OK",
      "vis_m": 9999,
      "fzfg": false,
      "metar_trigger": false,
      "taf_trigger": false,
      "metar": "METAR OMAA 162200Z 08004KT CAVOK 34/27 Q0996 NOSIG",
      "taf": "TAF OMAA 161700Z 1618/1800 03007KT 8000 NSC"
    },
    {
      "icao": "OMDB",
      "alert": "OK",
      "vis_m": 9999,
      "fzfg": false,
      "metar_trigger": false,
      "taf_trigger": false,
      "metar": "METAR OMDB 162200Z 07012G22KT 040V110 CAVOK 34/22 Q0997 NOSIG",
      "taf": "TAF OMDB 161700Z 1618/1800 11012KT CAVOK"
    },
    {
      "icao": "UAAA",
      "alert": "OK",
      "vis_m": 9999,
      "fzfg": false,
      "metar_trigger": false,
      "taf_trigger": false,
      "metar": "METAR UAAA 162200Z 18002MPS 130V250 9999 NSC 25/08 Q1008 NOSIG",
      "taf": "TAF UAAA 161700Z 1618/1718 16003MPS 9999 FEW100 TX41/1710Z TN20/1701Z"
    },
    {
      "icao": "UBBB",
      "alert": "OK",
      "vis_m": 9999,
      "fzfg": false,
      "metar_trigger": false,
      "taf_trigger": false,
      "metar": "METAR UBBB 162200Z 32008KT CAVOK 25/21 Q1008 NOSIG",
      "taf": "TAF UBBB 161715Z 1618/1718 32016G26KT 9999 FEW015 TX31/1710Z TN23/1701Z"
    },
    {
      "icao": "UDSG",
      "alert": "OK",
      "vis_m": 9999,
      "fzfg": false,
      "metar_trigger": false,
      "taf_trigger": false,
      "metar": "METAR UDSG 162200Z VRB01KT 9999 NSC 16/13 Q1017 NOSIG",
      "taf": "TAF UDSG 161700Z 1618/1718 06006KT 9999 FEW050"
    },
    {
      "icao": "UDYZ",
      "alert": "OK",
      "vis_m": 9999,
      "fzfg": false,
      "metar_trigger": false,
      "taf_trigger": false,
      "metar": "METAR UDYZ 162200Z 34010KT 9999 NSC 25/13 Q1010 NOSIG",
      "taf": "TAF UDYZ 161700Z 1618/1718 07006KT 9999 FEW040"
    },
    {
      "icao": "UGKO",
      "alert": "OK",
      "vis_m": 9999,
      "fzfg": false,
      "metar_trigger": false,
      "taf_trigger": false,
      "metar": "METAR UGKO 162200Z 09002KT 9999 BKN071 20/19 Q1013 NOSIG",
      "taf": "TAF UGKO 161700Z 1618/1718 25006KT 9999 SCT033 BKN080 TX29/1712Z TN18/1702Z"
    }
  ]
}