{
  "ts_utc": "2026-01-27T07:25:24Z",
  "threshold_m": 150,
  "source": "stations_override.txt (ICAO list) + aviationweather.gov (METAR/TAF raw)",
  "station_count": 159,
  "stations": [
    {
      "icao": "BIKF",
      "alert": "OK",
      "vis_m": 9999,
      "fzfg": false,
      "metar_trigger": false,
      "taf_trigger": false,
      "metar": "METAR BIKF 270700Z 06019KT CAVOK 04/M05 Q0996",
      "taf": "TAF BIKF 270449Z 2706/2806 08018KT 9999 FEW045 TX06/2715Z TN03/2709Z"
    },
    {
      "icao": "BKPR",
      "alert": "OK",
      "vis_m": null,
      "fzfg": false,
      "metar_trigger": false,
      "taf_trigger": false,
      "metar": "",
      "taf": "TAF BKPR 270530Z 2706/2806 35008KT 9999 SCT030 BKN060"
    },
    {
      "icao": "EBCI",
      "alert": "OK",
      "vis_m": 9999,
      "fzfg": false,
      "metar_trigger": false,
      "taf_trigger": false,
      "metar": "METAR EBCI 270650Z 12009KT CAVOK 04/01 Q0995 NOSIG",
      "taf": "TAF EBCI 270520Z 2706/2812 14010KT 6000 SCT008 BKN014"
    },
    {
      "icao": "EDDB",
      "alert": "OK",
      "vis_m": 7000,
      "fzfg": false,
      "metar_trigger": false,
      "taf_trigger": false,
      "metar": "METAR EDDB 270720Z AUTO 36006KT 7000 BKN009 BKN012 OVC020 M01/M02 Q1002 TEMPO BKN012",
      "taf": "TAF EDDB 270500Z 2706/2806 33004KT 4000 BR OVC006"
    },
    {
      "icao": "EDDH",
      "alert": "OK",
      "vis_m": 9999,
      "fzfg": false,
      "metar_trigger": false,
      "taf_trigger": false,
      "metar": "METAR EDDH 270720Z AUTO 07009KT 9999 BKN006 BKN047 M00/M01 Q1002 NOSIG",
      "taf": "TAF EDDH 270500Z 2706/2812 VRB03KT 9999 OVC008"
    },
    {
      "icao": "EDDK",
      "alert": "OK",
      "vis_m": 9999,
      "fzfg": false,
      "metar_trigger": false,
      "taf_trigger": false,
      "metar": "METAR EDDK 270720Z AUTO 10006KT 060V130 9999 OVC027 01/M01 Q0999 NOSIG",
      "taf": "TAF EDDK 270500Z 2706/2812 12005KT 9000 OVC030"
    },
    {
      "icao": "EDDN",
      "alert": "OK",
      "vis_m": 6000,
      "fzfg": false,
      "metar_trigger": false,
      "taf_trigger": false,
      "metar": "METAR EDDN 270720Z AUTO 12004KT 6000 BKN025 00/M01 Q1001 TEMPO 4000 BR",
      "taf": "TAF EDDN 270500Z 2706/2806 10004KT 9000 BKN020"
    },
    {
      "icao": "EDDS",
      "alert": "OK",
      "vis_m": 350,
      "fzfg": true,
      "metar_trigger": false,
      "taf_trigger": false,
      "metar": "METAR EDDS 270720Z AUTO VRB01KT 0350 0300 R07/0400N FZFG FEW002 M03/M04 Q0999 TEMPO 0600",
      "taf": ""
    },
    {
      "icao": "EDFH",
      "alert": "OK",
      "vis_m": 4800,
      "fzfg": false,
      "metar_trigger": false,
      "taf_trigger": false,
      "metar": "METAR EDFH 270650Z 13009KT 4800 BR BKN000 M00/M00 Q0998",
      "taf": "TAF EDFH 270500Z 2706/2806 14007KT 9999 OVC020"
    },
    {
      "icao": "EDJA",
      "alert": "OK",
      "vis_m": 9999,
      "fzfg": false,
      "metar_trigger": false,
      "taf_trigger": false,
      "metar": "METAR EDJA 270650Z COR VRB02KT 9999 R24/0700N FEW002 M05/M06 Q1000",
      "taf": "TAF EDJA 270500Z 2706/2715 VRB03KT CAVOK"
    },
    {
      "icao": "EDLW",
      "alert": "OK",
      "vis_m": 3900,
      "fzfg": false,
      "metar_trigger": false,
      "taf_trigger": false,
      "metar": "METAR EDLW 270650Z 04008KT 3900 BR SCT002 OVC020 M00/M01 Q1000",
      "taf": "TAF EDLW 270500Z 2706/2806 10004KT 3000 BR BKN008 OVC025"
    },
    {
      "icao": "EDNY",
      "alert": "OK",
      "vis_m": 9999,
      "fzfg": false,
      "metar_trigger": false,
      "taf_trigger": false,
      "metar": "METAR EDNY 270650Z 05003KT 020V080 CAVOK M04/M04 Q1001",
      "taf": "TAF EDNY 270500Z 2706/2715 VRB03KT CAVOK"
    },
    {
      "icao": "EDSB",
      "alert": "OK",
      "vis_m": 450,
      "fzfg": true,
      "metar_trigger": false,
      "taf_trigger": false,
      "metar": "METAR EDSB 270650Z 20004KT 0450 R21/0500D FZFG VV/// M03/M03 Q1000",
      "taf": "TAF EDSB 270500Z 2706/2806 VRB03KT 0300 FZFG OVC001"
    },
    {
      "icao": "EETN",
      "alert": "OK",
      "vis_m": 9999,
      "fzfg": false,
      "metar_trigger": false,
      "taf_trigger": false,
      "metar": "METAR EETN 270720Z 08006KT 9999 OVC011 M06/M08 Q1014 NOSIG",
      "taf": "TAF EETN 270530Z 2706/2806 09010KT 9999 OVC013"
    },
    {
      "icao": "EFTU",
      "alert": "OK",
      "vis_m": 9999,
      "fzfg": false,
      "metar_trigger": false,
      "taf_trigger": false,
      "metar": "METAR EFTU 270720Z AUTO VRB03KT 9999 OVC007 M08/M10 Q1015",
      "taf": "TAF EFTU 270528Z 2706/2806 06003KT 9999 OVC008"
    },
    {
      "icao": "EGBB",
      "alert": "OK",
      "vis_m": 6000,
      "fzfg": false,
      "metar_trigger": false,
      "taf_trigger": false,
      "metar": "METAR EGBB 270650Z 12023KT 6000 RA OVC008 06/04 Q0981",
      "taf": "TAF EGBB 270458Z 2706/2806 11020G35KT 9999 SCT008 BKN030"
    },
    {
      "icao": "EGGP",
      "alert": "OK",
      "vis_m": 9000,
      "fzfg": false,
      "metar_trigger": false,
      "taf_trigger": false,
      "metar": "METAR EGGP 270650Z 11023G35KT 9000 -RA BKN015 OVC024 05/02 Q0979",
      "taf": "TAF EGGP 270501Z 2706/2806 11016G28KT 9999 SCT015"
    },
    {
      "icao": "EGGW",
      "alert": "OK",
      "vis_m": 6000,
      "fzfg": false,
      "metar_trigger": false,
      "taf_trigger": false,
      "metar": "METAR EGGW 270650Z AUTO 13020KT 6000 -RA OVC006/// //////CB 05/04 Q0984",
      "taf": "TAF EGGW 270456Z 2706/2806 12020G32KT 6000 -RA OVC010"
    },
    {
      "icao": "EGKK",
      "alert": "OK",
      "vis_m": 7000,
      "fzfg": false,
      "metar_trigger": false,
      "taf_trigger": false,
      "metar": "METAR EGKK 270650Z 13013G23KT 7000 RA BKN008 BKN025 06/06 Q0985 RERA",
      "taf": "TAF EGKK 270453Z 2706/2812 11010KT 9999 SCT015"
    },
    {
      "icao": "EGNM",
      "alert": "OK",
      "vis_m": 3500,
      "fzfg": false,
      "metar_trigger": false,
      "taf_trigger": false,
      "metar": "METAR EGNM 270650Z 10021G35KT 3500 -RA SCT004 BKN006 02/02 Q0985",
      "taf": "TAF EGNM 270500Z 2706/2806 10015G26KT 6000 BKN006"
    },
    {
      "icao": "EGPD",
      "alert": "OK",
      "vis_m": 9999,
      "fzfg": false,
      "metar_trigger": false,
      "taf_trigger": false,
      "metar": "METAR EGPD 270650Z AUTO 12015G27KT 9999 -RA BKN012 OVC032 03/01 Q0995 RERA TEMPO RA",
      "taf": "TAF EGPD 270454Z 2706/2806 11015KT 9999 SCT010 BKN025"
    },
    {
      "icao": "EGPF",
      "alert": "OK",
      "vis_m": 9999,
      "fzfg": false,
      "metar_trigger": false,
      "taf_trigger": false,
      "metar": "METAR EGPF 270650Z AUTO 08025G35KT 9999 -RA BKN022/// BKN028/// //////TCU 04/01 Q0985",
      "taf": "TAF EGPF 270459Z 2706/2806 08017KT 9999 BKN018"
    },
    {
      "icao": "EHBK",
      "alert": "OK",
      "vis_m": 8000,
      "fzfg": false,
      "metar_trigger": false,
      "taf_trigger": false,
      "metar": "METAR EHBK 270655Z AUTO 09007KT 8000 NSC 01/M00 Q0998 NOSIG",
      "taf": "TAF EHBK 270514Z 2706/2812 11006KT 4000 BR BKN030"
    },
    {
      "icao": "EHEH",
      "alert": "OK",
      "vis_m": null,
      "fzfg": false,
      "metar_trigger": false,
      "taf_trigger": false,
      "metar": "",
      "taf": "TAF EHEH 270549Z 2706/2812 10006KT 5000 OVC030"
    },
    {
      "icao": "EKBI",
      "alert": "OK",
      "vis_m": 9999,
      "fzfg": false,
      "metar_trigger": false,
      "taf_trigger": false,
      "metar": "METAR EKBI 270720Z AUTO 06013KT 9999 OVC015/// M00/M03 Q1006",
      "taf": "TAF EKBI 270527Z 2706/2806 05012KT 9999 BKN018"
    },
    {
      "icao": "EKCH",
      "alert": "OK",
      "vis_m": 9999,
      "fzfg": false,
      "metar_trigger": false,
      "taf_trigger": false,
      "metar": "METAR EKCH 270720Z 05012KT 9999 BKN015 M01/M03 Q1007 TEMPO 4000 BKN014",
      "taf": "TAF EKCH 270527Z 2706/2806 05017KT 9999 BKN018"
    },
    {
      "icao": "ENAL",
      "alert": "OK",
      "vis_m": 9999,
      "fzfg": false,
      "metar_trigger": false,
      "taf_trigger": false,
      "metar": "METAR ENAL 270650Z 15006KT CAVOK M08/M09 Q1010",
      "taf": "TAF ENAL 270500Z 2706/2715 15005KT CAVOK"
    },
    {
      "icao": "ENBR",
      "alert": "OK",
      "vis_m": 9999,
      "fzfg": false,
      "metar_trigger": false,
      "taf_trigger": false,
      "metar": "METAR ENBR 270650Z VRB02KT CAVOK M06/M11 Q1010 NOSIG RMK WIND 1200FT VRB02KT",
      "taf": "TAF ENBR 270500Z 2706/2806 07004KT CAVOK"
    },
    {
      "icao": "ENGM",
      "alert": "OK",
      "vis_m": 9999,
      "fzfg": false,
      "metar_trigger": false,
      "taf_trigger": false,
      "metar": "METAR ENGM 270650Z 35003KT 9999 BKN013 M09/M10 Q1013 NOSIG",
      "taf": "TAF ENGM 270500Z 2706/2806 02005KT 9000 SCT005 BKN015"
    },
    {
      "icao": "ENHD",
      "alert": "OK",
      "vis_m": 9999,
      "fzfg": false,
      "metar_trigger": false,
      "taf_trigger": false,
      "metar": "METAR ENHD 270650Z /////KT CAVOK M07/M08 Q1010 RMK WIND RWY 31 13004KT",
      "taf": ""
    },
    {
      "icao": "ENTC",
      "alert": "OK",
      "vis_m": 9999,
      "fzfg": false,
      "metar_trigger": false,
      "taf_trigger": false,
      "metar": "METAR ENTC 270650Z 24005KT 220V280 9999 -SN FEW008 SCT014 M05/M06 Q1009 NOSIG RMK WIND 2600FT 24005KT",
      "taf": "TAF ENTC 270500Z 2706/2806 18005KT 9999 FEW012 SCT025 BKN035"
    },
    {
      "icao": "ENTO",
      "alert": "OK",
      "vis_m": 9999,
      "fzfg": false,
      "metar_trigger": false,
      "taf_trigger": false,
      "metar": "METAR ENTO 270650Z 01006KT 9999 -SHSN FEW009 BKN013 M07/M08 Q1014 NOSIG",
      "taf": "TAF ENTO 270500Z 2706/2806 02010KT 9999 BKN008"
    },
    {
      "icao": "ENVA",
      "alert": "OK",
      "vis_m": 9999,
      "fzfg": false,
      "metar_trigger": false,
      "taf_trigger": false,
      "metar": "METAR ENVA 270650Z 10006KT CAVOK M14/M16 Q1013 NOSIG RMK WIND 670FT 14008KT",
      "taf": "TAF ENVA 270500Z 2706/2806 10005KT CAVOK"
    },
    {
      "icao": "ENZV",
      "alert": "OK",
      "vis_m": 9999,
      "fzfg": false,
      "metar_trigger": false,
      "taf_trigger": false,
      "metar": "METAR ENZV 270650Z 11006KT 070V140 CAVOK M02/M10 Q1010 NOSIG",
      "taf": "TAF ENZV 270500Z 2706/2806 15005KT CAVOK"
    },
    {
      "icao": "EPGD",
      "alert": "OK",
      "vis_m": 1700,
      "fzfg": false,
      "metar_trigger": false,
      "taf_trigger": false,
      "metar": "METAR EPGD 270700Z 09006KT 1700 BR OVC002 M01/M01 Q1002",
      "taf": "TAF EPGD 270530Z 2706/2806 06006KT 3000 BR OVC003"
    },
    {
      "icao": "EPKK",
      "alert": "OK",
      "vis_m": 3000,
      "fzfg": false,
      "metar_trigger": false,
      "taf_trigger": false,
      "metar": "METAR EPKK 270700Z VRB01KT 3000 BR BKN035 M03/M03 Q1003",
      "taf": ""
    },
    {
      "icao": "EPKT",
      "alert": "OK",
      "vis_m": 6000,
      "fzfg": false,
      "metar_trigger": false,
      "taf_trigger": false,
      "metar": "METAR EPKT 270700Z VRB02KT 6000 BKN019 00/M01 Q1002",
      "taf": "TAF EPKT 270530Z 2706/2806 VRB02KT 6000 BKN020"
    },
    {
      "icao": "EPLB",
      "alert": "OK",
      "vis_m": 2500,
      "fzfg": false,
      "metar_trigger": false,
      "taf_trigger": false,
      "metar": "METAR EPLB 270700Z 28005KT 2500 BR SCT003 OVC007 01/01 Q1002",
      "taf": "TAF EPLB 270530Z 2706/2806 VRB03KT 2500 BR BKN006"
    },
    {
      "icao": "EPMO",
      "alert": "OK",
      "vis_m": 1100,
      "fzfg": true,
      "metar_trigger": false,
      "taf_trigger": false,
      "metar": "METAR EPMO 270700Z 09005KT 1100 R08/1000U BR OVC002 M01/M01 Q1002",
      "taf": "TAF EPMO 270530Z 2706/2806 VRB02KT 0400 FZFG OVC002"
    },
    {
      "icao": "EPPO",
      "alert": "OK",
      "vis_m": 1800,
      "fzfg": false,
      "metar_trigger": false,
      "taf_trigger": false,
      "metar": "METAR EPPO 270700Z 22006KT 1800 -SN BR OVC003 M01/M02 Q1002",
      "taf": "TAF EPPO 270530Z 2706/2806 24004KT 2000 -SN BR OVC003"
    },
    {
      "icao": "EPRA",
      "alert": "OK",
      "vis_m": 600,
      "fzfg": true,
      "metar_trigger": false,
      "taf_trigger": false,
      "metar": "METAR EPRA 270700Z VRB02KT 0600 R25/1000N FZFG NSC M02/M03 Q1002",
      "taf": ""
    },
    {
      "icao": "EPRZ",
      "alert": "OK",
      "vis_m": 1800,
      "fzfg": false,
      "metar_trigger": false,
      "taf_trigger": false,
      "metar": "METAR EPRZ 270700Z 23004KT 1800 BR OVC046 01/01 Q1003",
      "taf": "TAF EPRZ 270530Z 2706/2806 24004KT 1500 BR FEW003 OVC030"
    },
    {
      "icao": "EPSC",
      "alert": "OK",
      "vis_m": 250,
      "fzfg": true,
      "metar_trigger": false,
      "taf_trigger": false,
      "metar": "METAR EPSC 270700Z 35003KT 320V020 0250 R31/0650N -SN FZFG OVC001 M01/M01 Q1002",
      "taf": "TAF EPSC 270530Z 2706/2806 VRB04KT 2500 BR OVC003"
    },
    {
      "icao": "EPSY",
      "alert": "OK",
      "vis_m": 450,
      "fzfg": true,
      "metar_trigger": false,
      "taf_trigger": false,
      "metar": "METAR EPSY 270700Z 05003KT 0450 R01/0600N FZFG OVC001 M01/M01 Q1002",
      "taf": "TAF EPSY 270530Z 2706/2715 VRB02KT 0600 FZFG OVC002"
    },
    {
      "icao": "EPWA",
      "alert": "OK",
      "vis_m": 3300,
      "fzfg": false,
      "metar_trigger": false,
      "taf_trigger": false,
      "metar": "METAR EPWA 270700Z 11003KT 3300 BR BKN012 00/00 Q1002 NOSIG",
      "taf": ""
    },
    {
      "icao": "EPWR",
      "alert": "OK",
      "vis_m": 9999,
      "fzfg": false,
      "metar_trigger": false,
      "taf_trigger": false,
      "metar": "METAR EPWR 270700Z 14003KT 9999 BKN031 M00/M02 Q1003",
      "taf": "TAF EPWR 270530Z 2706/2806 VRB02KT 8000 BKN020"
    },
    {
      "icao": "ESGG",
      "alert": "OK",
      "vis_m": 9999,
      "fzfg": false,
      "metar_trigger": false,
      "taf_trigger": false,
      "metar": "METAR ESGG 270650Z 04009KT 9999 SCT028 M06/M07 Q1009",
      "taf": "TAF ESGG 270530Z 2706/2806 05010KT 9999 BKN030"
    },
    {
      "icao": "ESKN",
      "alert": "OK",
      "vis_m": 9999,
      "fzfg": false,
      "metar_trigger": false,
      "taf_trigger": false,
      "metar": "METAR ESKN 270650Z 03008KT 010V070 9999 BKN035 M06/M08 Q1013",
      "taf": "TAF ESKN 270530Z 2706/2806 02008KT 9999 BKN035"
    },
    {
      "icao": "ESMS",
      "alert": "OK",
      "vis_m": 1300,
      "fzfg": false,
      "metar_trigger": false,
      "taf_trigger": false,
      "metar": "METAR ESMS 270650Z 06010KT 1300 R17/P2000N R35/P2000N -SN VV009 M01/M01 Q1005",
      "taf": "TAF ESMS 270527Z 2706/2806 06012KT 1200 SN BKN008"
    },
    {
      "icao": "ESSA",
      "alert": "OK",
      "vis_m": 9999,
      "fzfg": false,
      "metar_trigger": false,
      "taf_trigger": false,
      "metar": "METAR ESSA 270650Z 10004KT 9999 FEW013 M07/M09 Q1013 TEMPO BKN014",
      "taf": "TAF ESSA 270530Z 2706/2806 03003KT 9999 BKN020"
    },
    {
      "icao": "EYKA",
      "alert": "OK",
      "vis_m": 2000,
      "fzfg": false,
      "metar_trigger": false,
      "taf_trigger": false,
      "metar": "METAR EYKA 270720Z 03004KT 010V070 2000 SN BR OVC005 M03/M04 Q1005",
      "taf": "TAF EYKA 270519Z 2706/2806 06008KT 5000 FZDZ BR OVC005"
    },
    {
      "icao": "EYPA",
      "alert": "OK",
      "vis_m": 5000,
      "fzfg": false,
      "metar_trigger": false,
      "taf_trigger": false,
      "metar": "METAR EYPA 270720Z 07010KT 040V100 5000 -SN BR OVC039 M07/M09 Q1007",
      "taf": ""
    },
    {
      "icao": "EYVI",
      "alert": "OK",
      "vis_m": 4900,
      "fzfg": false,
      "metar_trigger": false,
      "taf_trigger": false,
      "metar": "METAR EYVI 270720Z 10006KT 4900 -FZRA BR OVC003 M03/M03 Q1004 TEMPO 3000 -FZRA",
      "taf": "TAF EYVI 270503Z 2706/2806 09010KT 5000 FZDZ BR OVC005"
    },
    {
      "icao": "GCFV",
      "alert": "OK",
      "vis_m": 9999,
      "fzfg": false,
      "metar_trigger": false,
      "taf_trigger": false,
      "metar": "METAR GCFV 270700Z 24003KT 210V280 9999 BKN030 13/09 Q1023",
      "taf": "TAF GCFV 270200Z 2703/2803 28005KT 9999 SCT035 TX22/2714Z TN12/2706Z"
    },
    {
      "icao": "GCLP",
      "alert": "OK",
      "vis_m": 9999,
      "fzfg": false,
      "metar_trigger": false,
      "taf_trigger": false,
      "metar": "METAR GCLP 270700Z 27007KT 250V310 9999 SCT030 14/10 Q1023 NOSIG",
      "taf": "TAF GCLP 270200Z 2703/2803 30005KT 9999 FEW035 TX22/2714Z TN12/2706Z"
    },
    {
      "icao": "GCTS",
      "alert": "OK",
      "vis_m": 9999,
      "fzfg": false,
      "metar_trigger": false,
      "taf_trigger": false,
      "metar": "METAR GCTS 270700Z 01007KT 9999 SCT030 14/09 Q1023 NOSIG",
      "taf": "TAF GCTS 270200Z 2703/2803 35005KT 9999 FEW035 TX22/2714Z TN14/2706Z"
    },
    {
      "icao": "GMAD",
      "alert": "OK",
      "vis_m": 8000,
      "fzfg": false,
      "metar_trigger": false,
      "taf_trigger": false,
      "metar": "METAR GMAD 270700Z 04004KT 8000 NSC 08/08 Q1022 NOSIG",
      "taf": "TAF GMAD 270500Z 2706/2812 22004KT 8000 NSC"
    },
    {
      "icao": "GMMN",
      "alert": "OK",
      "vis_m": 9999,
      "fzfg": false,
      "metar_trigger": false,
      "taf_trigger": false,
      "metar": "METAR GMMN 270700Z 20017KT 9999 BKN030 12/10 Q1016 NOSIG",
      "taf": "TAF GMMN 270500Z 2706/2812 20015KT 9999 BKN026"
    },
    {
      "icao": "GMMX",
      "alert": "OK",
      "vis_m": 8000,
      "fzfg": false,
      "metar_trigger": false,
      "taf_trigger": false,
      "metar": "METAR GMMX 270700Z 02005KT 350V060 8000 BKN020 11/09 Q1019 NOSIG",
      "taf": "TAF GMMX 270500Z 2706/2812 26006KT 8000 BKN015"
    },
    {
      "icao": "HEGN",
      "alert": "OK",
      "vis_m": 9999,
      "fzfg": false,
      "metar_trigger": false,
      "taf_trigger": false,
      "metar": "METAR HEGN 270700Z 29006KT CAVOK 19/02 Q1016 NOSIG",
      "taf": "TAF HEGN 270500Z 2706/2812 34018KT 6000 NSC"
    },
    {
      "icao": "HEMA",
      "alert": "OK",
      "vis_m": 9999,
      "fzfg": false,
      "metar_trigger": false,
      "taf_trigger": false,
      "metar": "METAR HEMA 270700Z 00000KT CAVOK 22/05 Q1016 NOSIG",
      "taf": "TAF HEMA 270500Z 2706/2812 36018KT 6000 NSC"
    },
    {
      "icao": "HESH",
      "alert": "OK",
      "vis_m": 9999,
      "fzfg": false,
      "metar_trigger": false,
      "taf_trigger": false,
      "metar": "METAR HESH 270700Z 34005KT CAVOK 22/12 Q1016 NOSIG",
      "taf": "TAF HESH 270500Z 2706/2812 30008KT CAVOK"
    },
    {
      "icao": "HESX",
      "alert": "OK",
      "vis_m": 9999,
      "fzfg": false,
      "metar_trigger": false,
      "taf_trigger": false,
      "metar": "METAR HESX 270700Z 23010KT CAVOK 10/M02 Q1017 NOSIG",
      "taf": "TAF HESX 270500Z 2706/2812 23009KT 6000 NSC"
    },
    {
      "icao": "LATI",
      "alert": "OK",
      "vis_m": 3600,
      "fzfg": false,
      "metar_trigger": false,
      "taf_trigger": false,
      "metar": "METAR LATI 270720Z 14002KT 3600 0900S R17/P2000N R35/1200N BCFG NSC 06/04 Q1004 BECMG TL0800 6000 NSW",
      "taf": "TAF LATI 270500Z 2706/2806 VRB04KT 6000 NSC TX14/2713Z TN04/2805Z"
    },
    {
      "icao": "LBPD",
      "alert": "OK",
      "vis_m": 1200,
      "fzfg": false,
      "metar_trigger": false,
      "taf_trigger": false,
      "metar": "METAR LBPD 270700Z AUTO 27003KT 1200 1000NE R30/1300U -SHRA BR SCT005/// OVC010/// 07/07 Q0999 TEMPO 0500 FG OVC004",
      "taf": "TAF LBPD 270500Z 2706/2806 VRB03KT 5000 BR BKN003 OVC005"
    },
    {
      "icao": "LBSF",
      "alert": "OK",
      "vis_m": 8000,
      "fzfg": false,
      "metar_trigger": false,
      "taf_trigger": false,
      "metar": "METAR LBSF 270700Z 28014KT 8000 -RA SCT010 BKN018 OVC024 03/01 Q1000 TEMPO 5000 RA BKN015",
      "taf": "TAF LBSF 270500Z 2706/2806 28014KT 9999 -RA SCT010 BKN020 OVC030"
    },
    {
      "icao": "LBWN",
      "alert": "OK",
      "vis_m": 9999,
      "fzfg": false,
      "metar_trigger": false,
      "taf_trigger": false,
      "metar": "METAR LBWN 270700Z 00000KT 9999 FEW033 SCT045 08/08 Q1000 TEMPO 3000 BR",
      "taf": "TAF LBWN 270500Z 2706/2806 VRB03KT 9999 SCT010 BKN030"
    },
    {
      "icao": "LCLK",
      "alert": "OK",
      "vis_m": 9999,
      "fzfg": false,
      "metar_trigger": false,
      "taf_trigger": false,
      "metar": "METAR LCLK 270700Z 00000KT 9999 FEW040 18/13 Q1013 NOSIG",
      "taf": ""
    },
    {
      "icao": "LCPH",
      "alert": "OK",
      "vis_m": 5000,
      "fzfg": false,
      "metar_trigger": false,
      "taf_trigger": false,
      "metar": "METAR LCPH 270700Z 02003KT 010V080 5000 SHRA FEW025 BKN035 BKN080 14/11 Q1012 TEMPO 3000 SHRA",
      "taf": ""
    },
    {
      "icao": "LEAL",
      "alert": "OK",
      "vis_m": 9999,
      "fzfg": false,
      "metar_trigger": false,
      "taf_trigger": false,
      "metar": "METAR LEAL 270700Z 26004KT CAVOK 11/09 Q1004 NOSIG",
      "taf": ""
    },
    {
      "icao": "LEBB",
      "alert": "OK",
      "vis_m": 9999,
      "fzfg": false,
      "metar_trigger": false,
      "taf_trigger": false,
      "metar": "METAR LEBB 270700Z 22019G32KT 190V260 9999 SCT058 17/07 Q0991 NOSIG",
      "taf": "TAF LEBB 270500Z 2706/2806 20009KT 9999 SCT040 TX14/2706Z TN06/2805Z"
    },
    {
      "icao": "LEBL",
      "alert": "OK",
      "vis_m": 9999,
      "fzfg": false,
      "metar_trigger": false,
      "taf_trigger": false,
      "metar": "METAR LEBL 270700Z 33004KT 290V060 9999 FEW040 08/07 Q1000 NOSIG",
      "taf": "TAF LEBL 270500Z 2706/2806 VRB04KT 9999 FEW055 TX16/2712Z TN08/2706Z"
    },
    {
      "icao": "LECH",
      "alert": "OK",
      "vis_m": 9000,
      "fzfg": false,
      "metar_trigger": false,
      "taf_trigger": false,
      "metar": "METAR LECH 270700Z AUTO 22007KT 190V270 9000 FEW055 12/08 Q1001",
      "taf": ""
    },
    {
      "icao": "LEMD",
      "alert": "OK",
      "vis_m": 9999,
      "fzfg": false,
      "metar_trigger": false,
      "taf_trigger": false,
      "metar": "METAR LEMD 270700Z 15012KT 9999 FEW012 BKN030 BKN056 08/08 Q0998 NOSIG",
      "taf": ""
    },
    {
      "icao": "LEMG",
      "alert": "OK",
      "vis_m": 9999,
      "fzfg": false,
      "metar_trigger": false,
      "taf_trigger": false,
      "metar": "METAR LEMG 270700Z 24003KT 9999 -RA SCT050 BKN065 14/09 Q1009 NOSIG",
      "taf": "TAF LEMG 270500Z 2706/2806 21014KT 9999 FEW010 SCT030 TX19/2714Z TN10/2707Z"
    },
    {
      "icao": "LEVC",
      "alert": "OK",
      "vis_m": 9999,
      "fzfg": false,
      "metar_trigger": false,
      "taf_trigger": false,
      "metar": "METAR LEVC 270700Z 24015KT 9999 SCT040 16/08 Q1002 NOSIG",
      "taf": "TAF LEVC 270500Z 2706/2806 24012KT 9999 FEW040 TX20/2712Z TN09/2806Z"
    },
    {
      "icao": "LEXJ",
      "alert": "OK",
      "vis_m": 1400,
      "fzfg": false,
      "metar_trigger": false,
      "taf_trigger": false,
      "metar": "SPECI LEXJ 270714Z 30009KT 260V360 1400 R29/P2000 R11/P2000 +RA BR SCT009 BKN015 OVC020 11/09 Q0993",
      "taf": ""
    },
    {
      "icao": "LEZG",
      "alert": "OK",
      "vis_m": 9999,
      "fzfg": false,
      "metar_trigger": false,
      "taf_trigger": false,
      "metar": "METAR LEZG 270700Z 04005KT 350V070 9999 SCT060 BKN075 08/08 Q0999 NOSIG",
      "taf": "TAF LEZG 270500Z 2706/2806 11008KT 9999 FEW040 TX15/2714Z TN03/2806Z"
    },
    {
      "icao": "LEZL",
      "alert": "OK",
      "vis_m": 6000,
      "fzfg": false,
      "metar_trigger": false,
      "taf_trigger": false,
      "metar": "METAR LEZL 270700Z 21019G35KT 160V240 6000 RA BKN010 BKN025 15/15 Q1005 NOSIG",
      "taf": "TAF LEZL 270200Z 2703/2803 24010KT 9999 FEW015 SCT030 TX17/2715Z TN11/2707Z"
    },
    {
      "icao": "LFBD",
      "alert": "OK",
      "vis_m": 9999,
      "fzfg": false,
      "metar_trigger": false,
      "taf_trigger": false,
      "metar": "METAR LFBD 270700Z AUTO 18007KT 9999 FEW036 SCT044 OVC050 09/08 Q0992 TEMPO 18015G25KT 1500 RA BKN005",
      "taf": "TAF LFBD 270500Z 2706/2812 17010KT 9999 BKN045 TX11/2713Z TN04/2807Z"
    },
    {
      "icao": "LFLL",
      "alert": "OK",
      "vis_m": 9999,
      "fzfg": false,
      "metar_trigger": false,
      "taf_trigger": false,
      "metar": "METAR LFLL 270700Z 13009KT CAVOK 06/M01 Q0999 NOSIG",
      "taf": "TAF LFLL 270500Z 2706/2812 15012KT CAVOK"
    },
    {
      "icao": "LFLS",
      "alert": "OK",
      "vis_m": 9999,
      "fzfg": false,
      "metar_trigger": false,
      "taf_trigger": false,
      "metar": "METAR LFLS 270700Z AUTO 08003KT CAVOK M00/M01 Q1000 NOSIG",
      "taf": "TAF LFLS 270200Z 2703/2803 09005KT CAVOK"
    },
    {
      "icao": "LFMN",
      "alert": "OK",
      "vis_m": 9999,
      "fzfg": false,
      "metar_trigger": false,
      "taf_trigger": false,
      "metar": "METAR LFMN 270700Z 33013KT CAVOK 06/M01 Q1005 NOSIG",
      "taf": "TAF LFMN 270200Z 2703/2809 34010KT CAVOK"
    },
    {
      "icao": "LFOB",
      "alert": "OK",
      "vis_m": 9000,
      "fzfg": false,
      "metar_trigger": false,
      "taf_trigger": false,
      "metar": "METAR LFOB 270700Z AUTO 13012KT 9000 BKN008/// BKN012/// OVC018/// ///CB 04/04 Q0991 TEMPO 3500 RA BKN007 OVC012",
      "taf": "TAF LFOB 270500Z 2706/2806 14010G20KT 7000 -RA SCT045 OVC080"
    },
    {
      "icao": "LFPO",
      "alert": "OK",
      "vis_m": 9999,
      "fzfg": false,
      "metar_trigger": false,
      "taf_trigger": false,
      "metar": "METAR LFPO 270700Z 16007KT 9999 -RA OVC022 05/04 Q0991 NOSIG",
      "taf": "TAF LFPO 270500Z 2706/2812 16009KT 9999 BKN030"
    },
    {
      "icao": "LFSB",
      "alert": "OK",
      "vis_m": 9999,
      "fzfg": false,
      "metar_trigger": false,
      "taf_trigger": false,
      "metar": "METAR LFSB 270700Z AUTO 17006KT CAVOK M01/M03 Q0999 NOSIG",
      "taf": "TAF LFSB 270500Z 2706/2806 VRB03KT CAVOK"
    },
    {
      "icao": "LGAV",
      "alert": "OK",
      "vis_m": 9999,
      "fzfg": false,
      "metar_trigger": false,
      "taf_trigger": false,
      "metar": "METAR LGAV 270650Z VRB02KT 9999 FEW020 08/05 Q1001 NOSIG",
      "taf": "TAF LGAV 270500Z 2706/2806 VRB05KT 9999 FEW020 SCT070"
    },
    {
      "icao": "LGTS",
      "alert": "OK",
      "vis_m": 9999,
      "fzfg": false,
      "metar_trigger": false,
      "taf_trigger": false,
      "metar": "METAR LGTS 270650Z 33010G20KT 9999 -DZ FEW010 BKN030 10/06 Q1000 NOSIG",
      "taf": ""
    },
    {
      "icao": "LHBP",
      "alert": "OK",
      "vis_m": 4600,
      "fzfg": false,
      "metar_trigger": false,
      "taf_trigger": false,
      "metar": "METAR LHBP 270700Z VRB01KT 4600 0350SE R31L/P2000N R31R/0800U BCFG BR NSC M04/M04 Q1005 NOSIG",
      "taf": "TAF LHBP 270515Z 2706/2806 31005KT 5000 BCFG BR NSC"
    },
    {
      "icao": "LHDC",
      "alert": "OK",
      "vis_m": 1400,
      "fzfg": false,
      "metar_trigger": false,
      "taf_trigger": false,
      "metar": "METAR LHDC 270645Z AUTO 28003KT 1400 R04/1800D BR OVC002 02/02 Q1003 TEMPO 1500 BR",
      "taf": "TAF LHDC 270515Z 2706/2715 25005KT 3000 BR SCT005 BKN025"
    },
    {
      "icao": "LIBD",
      "alert": "OK",
      "vis_m": 9999,
      "fzfg": false,
      "metar_trigger": false,
      "taf_trigger": false,
      "metar": "METAR LIBD 270650Z 27010KT CAVOK 07/05 Q1006",
      "taf": "TAF LIBD 270500Z 2706/2806 28013KT 9999 SCT025"
    },
    {
      "icao": "LIBG",
      "alert": "OK",
      "vis_m": 9999,
      "fzfg": false,
      "metar_trigger": false,
      "taf_trigger": false,
      "metar": "SPECI LIBG 270653Z 23004KT 200V270 CAVOK 07/05 Q1006",
      "taf": "TAF LIBG 270716Z 2707/2715 28007KT CAVOK"
    },
    {
      "icao": "LIBP",
      "alert": "OK",
      "vis_m": 9000,
      "fzfg": false,
      "metar_trigger": false,
      "taf_trigger": false,
      "metar": "METAR LIBP 270650Z AUTO 23004KT 9000 NCD 00/00 Q1008",
      "taf": "TAF LIBP 270500Z 2706/2806 VRB05KT CAVOK"
    },
    {
      "icao": "LIBR",
      "alert": "OK",
      "vis_m": 9999,
      "fzfg": false,
      "metar_trigger": false,
      "taf_trigger": false,
      "metar": "METAR LIBR 270650Z 32017KT CAVOK 10/08 Q1004",
      "taf": "TAF LIBR 270500Z 2706/2806 31016KT 9999 FEW020"
    },
    {
      "icao": "LICA",
      "alert": "OK",
      "vis_m": 9999,
      "fzfg": false,
      "metar_trigger": false,
      "taf_trigger": false,
      "metar": "METAR LICA 270650Z AUTO 05003KT 020V080 9999 FEW018/// 07/06 Q1007",
      "taf": "TAF LICA 270500Z 2706/2806 VRB05KT 9999 SCT040"
    },
    {
      "icao": "LICC",
      "alert": "OK",
      "vis_m": 9999,
      "fzfg": false,
      "metar_trigger": false,
      "taf_trigger": false,
      "metar": "METAR LICC 270650Z 27004KT 9999 FEW030 06/03 Q1008",
      "taf": "TAF LICC 270500Z 2706/2806 26010KT 9999 FEW050"
    },
    {
      "icao": "LICJ",
      "alert": "OK",
      "vis_m": 9999,
      "fzfg": false,
      "metar_trigger": false,
      "taf_trigger": false,
      "metar": "METAR LICJ 270650Z 33010KT 9999 SCT035 14/09 Q1009",
      "taf": "TAF LICJ 270500Z 2706/2806 34012KT 9999 SCT030"
    },
    {
      "icao": "LIMC",
      "alert": "OK",
      "vis_m": 9999,
      "fzfg": false,
      "metar_trigger": false,
      "taf_trigger": false,
      "metar": "METAR LIMC 270650Z 01005KT CAVOK M01/M01 Q1005 NOSIG",
      "taf": "TAF LIMC 270500Z 2706/2812 VRB04KT 6000 SCT025"
    },
    {
      "icao": "LIME",
      "alert": "OK",
      "vis_m": 9999,
      "fzfg": false,
      "metar_trigger": false,
      "taf_trigger": false,
      "metar": "METAR LIME 270650Z 02005KT CAVOK 01/M01 Q1005 NOSIG",
      "taf": "TAF LIME 270500Z 2706/2806 VRB05KT 7000 FEW020"
    },
    {
      "icao": "LIMF",
      "alert": "OK",
      "vis_m": 9999,
      "fzfg": false,
      "metar_trigger": false,
      "taf_trigger": false,
      "metar": "METAR LIMF 270650Z 36004KT CAVOK 01/M03 Q1005",
      "taf": "TAF LIMF 270500Z 2706/2806 VRB04KT 6000 SCT020"
    },
    {
      "icao": "LIMJ",
      "alert": "OK",
      "vis_m": 9999,
      "fzfg": false,
      "metar_trigger": false,
      "taf_trigger": false,
      "metar": "METAR LIMJ 270650Z 18013KT 9999 BKN028 13/06 Q1005",
      "taf": "TAF LIMJ 270500Z 2706/2806 17010KT 9999 SCT040"
    },
    {
      "icao": "LIPE",
      "alert": "OK",
      "vis_m": 9999,
      "fzfg": false,
      "metar_trigger": false,
      "taf_trigger": false,
      "metar": "METAR LIPE 270650Z 19007KT CAVOK 01/M01 Q1006",
      "taf": "TAF LIPE 270500Z 2706/2806 VRB05KT 8000 SCT020"
    },
    {
      "icao": "LIPH",
      "alert": "OK",
      "vis_m": 9999,
      "fzfg": false,
      "metar_trigger": false,
      "taf_trigger": false,
      "metar": "METAR LIPH 270650Z VRB01KT CAVOK M00/M00 Q1006",
      "taf": "TAF LIPH 270500Z 2706/2806 VRB05KT 1200 BCFG BKN004"
    },
    {
      "icao": "LIPQ",
      "alert": "OK",
      "vis_m": 9999,
      "fzfg": false,
      "metar_trigger": false,
      "taf_trigger": false,
      "metar": "METAR LIPQ 270650Z AUTO 05003KT 9999 NCD 00/00 Q1006",
      "taf": "TAF LIPQ 270500Z 2706/2806 VRB04KT 9999 SCT020"
    },
    {
      "icao": "LIPR",
      "alert": "OK",
      "vis_m": 9999,
      "fzfg": false,
      "metar_trigger": false,
      "taf_trigger": false,
      "metar": "METAR LIPR 270650Z VRB01KT CAVOK M01/M02 Q1006",
      "taf": "TAF LIPR 270500Z 2706/2806 23005KT 9999 SCT015"
    },
    {
      "icao": "LIPX",
      "alert": "OK",
      "vis_m": 9999,
      "fzfg": false,
      "metar_trigger": false,
      "taf_trigger": false,
      "metar": "METAR LIPX 270650Z VRB02KT CAVOK M01/M01 Q1006",
      "taf": "TAF LIPX 270500Z 2706/2806 VRB04KT 4000 BR SCT020"
    },
    {
      "icao": "LIPY",
      "alert": "OK",
      "vis_m": 9999,
      "fzfg": false,
      "metar_trigger": false,
      "taf_trigger": false,
      "metar": "METAR LIPY 270650Z AUTO 18003KT 9999 NCD 01/01 Q1007",
      "taf": "TAF LIPY 270500Z 2706/2806 VRB05KT 9999 SCT015"
    },
    {
      "icao": "LIPZ",
      "alert": "OK",
      "vis_m": 500,
      "fzfg": true,
      "metar_trigger": false,
      "taf_trigger": false,
      "metar": "METAR LIPZ 270650Z VRB01KT 0500 R04R/0500D FZFG NSC M00/M00 Q1006 NOSIG",
      "taf": "TAF LIPZ 270500Z 2706/2812 VRB04KT 1200 BCFG BKN002"
    },
    {
      "icao": "LIRF",
      "alert": "OK",
      "vis_m": 9999,
      "fzfg": false,
      "metar_trigger": false,
      "taf_trigger": false,
      "metar": "METAR LIRF 270650Z 07005KT CAVOK 01/01 Q1008 NOSIG",
      "taf": "TAF LIRF 270500Z 2706/2812 05005KT 9999 FEW030"
    },
    {
      "icao": "LIRN",
      "alert": "OK",
      "vis_m": 9999,
      "fzfg": false,
      "metar_trigger": false,
      "taf_trigger": false,
      "metar": "METAR LIRN 270650Z 33003KT CAVOK 03/02 Q1007 NOSIG",
      "taf": "TAF LIRN 270500Z 2706/2806 VRB05KT 9999 FEW040"
    },
    {
      "icao": "LIRP",
      "alert": "OK",
      "vis_m": 9999,
      "fzfg": false,
      "metar_trigger": false,
      "taf_trigger": false,
      "metar": "METAR LIRP 270645Z 13004KT 9999 SCT035 02/02 Q1008 NOSIG",
      "taf": "TAF LIRP 270500Z 2706/2806 09003KT 7000 FEW020"
    },
    {
      "icao": "LIRZ",
      "alert": "OK",
      "vis_m": 4100,
      "fzfg": false,
      "metar_trigger": false,
      "taf_trigger": false,
      "metar": "METAR LIRZ 270650Z AUTO 35003KT 4100 BR VV002 M02/M02 Q1009",
      "taf": "TAF LIRZ 270500Z 2706/2806 VRB04KT 9999 SCT020"
    },
    {
      "icao": "LJLJ",
      "alert": "OK",
      "vis_m": 800,
      "fzfg": true,
      "metar_trigger": false,
      "taf_trigger": false,
      "metar": "METAR LJLJ 270700Z VRB02KT 0800 R30/1700D FZFG VV002 M01/M01 Q1006 NOSIG",
      "taf": "TAF LJLJ 270500Z 2706/2806 30003KT 5000 BR OVC003"
    },
    {
      "icao": "LKMT",
      "alert": "OK",
      "vis_m": 9999,
      "fzfg": false,
      "metar_trigger": false,
      "taf_trigger": false,
      "metar": "METAR LKMT 270700Z 20007KT 9999 BKN033 02/00 Q1003 NOSIG",
      "taf": "TAF LKMT 270500Z 2706/2806 23008KT CAVOK"
    },
    {
      "icao": "LKPR",
      "alert": "OK",
      "vis_m": 9999,
      "fzfg": false,
      "metar_trigger": false,
      "taf_trigger": false,
      "metar": "METAR LKPR 270700Z 22009KT 9999 FEW028 BKN038 M00/M02 Q1002 NOSIG",
      "taf": "TAF LKPR 270500Z 2706/2812 20006KT 9999 SCT030"
    },
    {
      "icao": "LLBG",
      "alert": "OK",
      "vis_m": 4000,
      "fzfg": false,
      "metar_trigger": false,
      "taf_trigger": false,
      "metar": "METAR LLBG 270720Z 18009KT 4000 DU FEW030 16/12 Q1016 BECMG 8000",
      "taf": "TAF LLBG 270501Z 2706/2806 18006KT 9999 SCT025"
    },
    {
      "icao": "LMML",
      "alert": "OK",
      "vis_m": 9999,
      "fzfg": false,
      "metar_trigger": false,
      "taf_trigger": false,
      "metar": "METAR LMML 270715Z 30013KT 9999 FEW020 13/09 Q1010 NOSIG",
      "taf": "TAF LMML 270500Z 2706/2806 30018G28KT 9999 FEW020"
    },
    {
      "icao": "LOWW",
      "alert": "OK",
      "vis_m": 9999,
      "fzfg": false,
      "metar_trigger": false,
      "taf_trigger": false,
      "metar": "METAR LOWW 270650Z 23005KT 160V290 CAVOK 01/M02 Q1004 BECMG 15007KT",
      "taf": "TAF LOWW 270515Z 2706/2812 20004KT CAVOK TX02/2710Z TNM01/2801Z"
    },
    {
      "icao": "LPFR",
      "alert": "OK",
      "vis_m": 6000,
      "fzfg": false,
      "metar_trigger": false,
      "taf_trigger": false,
      "metar": "METAR LPFR 270700Z 25021KT 6000 -RA SCT004 SCT015 FEW020CB 15/15 Q1004 RERA",
      "taf": "TAF LPFR 270500Z 2706/2806 21020G30KT 5000 RA SCT006 BKN012"
    },
    {
      "icao": "LPMA",
      "alert": "OK",
      "vis_m": 9999,
      "fzfg": false,
      "metar_trigger": false,
      "taf_trigger": false,
      "metar": "METAR LPMA 270700Z 03011KT 010V070 9999 SCT015 18/14 Q1014",
      "taf": "TAF LPMA 270500Z 2706/2806 VRB05KT 9999 SCT015"
    },
    {
      "icao": "LPPR",
      "alert": "OK",
      "vis_m": 9999,
      "fzfg": false,
      "metar_trigger": false,
      "taf_trigger": false,
      "metar": "METAR LPPR 270700Z 22006KT 9999 FEW022 11/06 Q0996",
      "taf": "TAF LPPR 270500Z 2706/2806 24010KT 9999 SCT020"
    },
    {
      "icao": "LPPS",
      "alert": "OK",
      "vis_m": 9000,
      "fzfg": false,
      "metar_trigger": false,
      "taf_trigger": false,
      "metar": "METAR LPPS 270700Z 27012KT 250V310 9000 SHRA SCT014 17/15 Q1015",
      "taf": "TAF LPPS 270500Z 2706/2812 27018KT 9999 SCT015 SCT030"
    },
    {
      "icao": "LPPT",
      "alert": "OK",
      "vis_m": 9999,
      "fzfg": false,
      "metar_trigger": false,
      "taf_trigger": false,
      "metar": "METAR LPPT 270700Z 23012KT 9999 -SHRA FEW022 12/11 Q1000",
      "taf": "TAF LPPT 270500Z 2706/2812 26012KT 9999 SCT020"
    },
    {
      "icao": "LQBK",
      "alert": "OK",
      "vis_m": 200,
      "fzfg": false,
      "metar_trigger": false,
      "taf_trigger": false,
      "metar": "METAR LQBK 270700Z 13004KT 100V180 0200 R16/0325N FG VV002 03/03 Q1007 NOSIG",
      "taf": "TAF LQBK 270500Z 2706/2806 16005KT 8000 SCT040 TX08/2714Z TN01/2801Z"
    },
    {
      "icao": "LQSA",
      "alert": "OK",
      "vis_m": 9999,
      "fzfg": false,
      "metar_trigger": false,
      "taf_trigger": false,
      "metar": "METAR LQSA 270700Z VRB02KT 9999 FEW065 03/03 Q1006 NOSIG",
      "taf": "TAF LQSA 270500Z 2706/2806 VRB02KT CAVOK TX10/2714Z TNM02/2801Z"
    },
    {
      "icao": "LQTZ",
      "alert": "OK",
      "vis_m": 500,
      "fzfg": false,
      "metar_trigger": false,
      "taf_trigger": false,
      "metar": "METAR LQTZ 270700Z 03004KT 0500 R09/0300N FG SCT002 BKN070 02/02 Q1007",
      "taf": "TAF LQTZ 270500Z 2706/2806 12005KT 9999 SCT050 TX10/2713Z TN01/2800Z"
    },
    {
      "icao": "LRBC",
      "alert": "OK",
      "vis_m": 3000,
      "fzfg": false,
      "metar_trigger": false,
      "taf_trigger": false,
      "metar": "METAR LRBC 270700Z 16004KT 3000 -RA BR OVC003 02/02 Q1003",
      "taf": "TAF LRBC 270500Z 2706/2715 17007KT 3000 -RA BR BKN005 OVC015"
    },
    {
      "icao": "LRBS",
      "alert": "OK",
      "vis_m": 1000,
      "fzfg": false,
      "metar_trigger": false,
      "taf_trigger": false,
      "metar": "METAR LRBS 270700Z 05012KT 010V080 1000 R07/1200N -DZ BR OVC003 03/03 Q1002 NOSIG",
      "taf": "TAF LRBS 270500Z 2706/2806 07014KT 3000 BR OVC003"
    },
    {
      "icao": "LRBV",
      "alert": "OK",
      "vis_m": 9999,
      "fzfg": false,
      "metar_trigger": false,
      "taf_trigger": false,
      "metar": "METAR LRBV 270700Z 20003KT 9999 -RA FEW025 SCT059 BKN087 03/02 Q1001",
      "taf": "TAF LRBV 270500Z 2706/2715 VRB04KT 9999 BKN045"
    },
    {
      "icao": "LRCL",
      "alert": "OK",
      "vis_m": 9999,
      "fzfg": false,
      "metar_trigger": false,
      "taf_trigger": false,
      "metar": "METAR LRCL 270700Z 27006KT 9999 FEW015 BKN031 04/03 Q1002",
      "taf": "TAF LRCL 270500Z 2706/2715 VRB04KT 3000 -RA BR BKN010 OVC035"
    },
    {
      "icao": "LRCV",
      "alert": "OK",
      "vis_m": 3000,
      "fzfg": false,
      "metar_trigger": false,
      "taf_trigger": false,
      "metar": "METAR LRCV 270700Z 33003KT 290V050 3000 -RADZ BR OVC005 05/05 Q1001",
      "taf": "TAF LRCV 270500Z 2706/2715 09010KT 7000 -RA BKN005 OVC010"
    },
    {
      "icao": "LRIA",
      "alert": "OK",
      "vis_m": 8000,
      "fzfg": false,
      "metar_trigger": false,
      "taf_trigger": false,
      "metar": "METAR LRIA 270700Z 10009KT 8000 -RA FEW008 OVC013 01/M00 Q1004",
      "taf": "TAF LRIA 270500Z 2706/2715 10007KT 9999 -RA OVC015"
    },
    {
      "icao": "LROP",
      "alert": "OK",
      "vis_m": 2000,
      "fzfg": false,
      "metar_trigger": false,
      "taf_trigger": false,
      "metar": "METAR LROP 270700Z 06015KT 2000 -DZ BR OVC003 03/03 Q1002 NOSIG",
      "taf": "TAF LROP 270500Z 2706/2806 07014KT 3000 BR OVC003"
    },
    {
      "icao": "LRSB",
      "alert": "OK",
      "vis_m": 550,
      "fzfg": false,
      "metar_trigger": false,
      "taf_trigger": false,
      "metar": "METAR LRSB 270700Z VRB01KT 0550 R27/0900N -DZ FG FEW001 OVC003 04/04 Q1001 NOSIG",
      "taf": "TAF LRSB 270500Z 2706/2806 35006KT 3000 -DZ BR BKN005 BKN050"
    },
    {
      "icao": "LRSM",
      "alert": "OK",
      "vis_m": 300,
      "fzfg": false,
      "metar_trigger": false,
      "taf_trigger": false,
      "metar": "METAR LRSM 270700Z 22004KT 0300 R19/0800D -RA FG VV001 04/03 Q1002",
      "taf": ""
    },
    {
      "icao": "LRSV",
      "alert": "OK",
      "vis_m": 200,
      "fzfg": false,
      "metar_trigger": false,
      "taf_trigger": false,
      "metar": "METAR LRSV 270700Z COR 14009KT 0200 R34/0400N -RA FG VV002 01/01 Q1002 REDZ",
      "taf": "TAF LRSV 270500Z 2706/2715 14012KT 0300 FG VV001"
    },
    {
      "icao": "LRTM",
      "alert": "OK",
      "vis_m": 1600,
      "fzfg": false,
      "metar_trigger": false,
      "taf_trigger": false,
      "metar": "METAR LRTM 270700Z 23005KT 1600 BR SCT005 BKN040 01/01 Q1001",
      "taf": "TAF LRTM 270500Z 2706/2715 25005KT 3000 BR SCT010 BKN040"
    },
    {
      "icao": "LRTR",
      "alert": "OK",
      "vis_m": 2500,
      "fzfg": false,
      "metar_trigger": false,
      "taf_trigger": false,
      "metar": "METAR LRTR 270700Z 29010KT 2500 BR SCT002 BKN004 OVC005 03/03 Q1004",
      "taf": "TAF LRTR 270500Z 2706/2806 31006KT 5000 BR BKN005 OVC020"
    },
    {
      "icao": "LTAC",
      "alert": "OK",
      "vis_m": 9999,
      "fzfg": false,
      "metar_trigger": false,
      "taf_trigger": false,
      "metar": "METAR LTAC 270650Z 11003KT 050V150 9999 SCT040 BKN100 05/01 Q1009 NOSIG",
      "taf": "TAF LTAC 270440Z 2706/2806 19009KT 9999 SCT040 BKN100"
    },
    {
      "icao": "LTFM",
      "alert": "OK",
      "vis_m": 9999,
      "fzfg": false,
      "metar_trigger": false,
      "taf_trigger": false,
      "metar": "METAR LTFM 270650Z 19014KT 9999 SCT040 BKN100 12/05 Q1002 NOSIG",
      "taf": "TAF LTFM 270440Z 2706/2812 19014KT 9999 SCT040 BKN100"
    },
    {
      "icao": "LUKK",
      "alert": "OK",
      "vis_m": 9999,
      "fzfg": false,
      "metar_trigger": false,
      "taf_trigger": false,
      "metar": "METAR LUKK 270700Z 08008KT 9999 OVC005 M02/M02 Q1006 NOSIG",
      "taf": "TAF LUKK 270519Z 2706/2806 08010KT 5000 -FZRA BR OVC004"
    },
    {
      "icao": "LWOH",
      "alert": "OK",
      "vis_m": 9999,
      "fzfg": false,
      "metar_trigger": false,
      "taf_trigger": false,
      "metar": "METAR LWOH 270720Z VRB02KT 9999 FEW015 SCT040 OVC090 05/04 Q1002",
      "taf": ""
    },
    {
      "icao": "LWSK",
      "alert": "OK",
      "vis_m": 9999,
      "fzfg": false,
      "metar_trigger": false,
      "taf_trigger": false,
      "metar": "METAR LWSK 270720Z 03005KT 9999 -DZ SCT026 OVC040 07/04 Q1003 NOSIG",
      "taf": ""
    },
    {
      "icao": "LYBE",
      "alert": "OK",
      "vis_m": 8000,
      "fzfg": false,
      "metar_trigger": false,
      "taf_trigger": false,
      "metar": "METAR LYBE 270700Z 26010KT 8000 OVC004 01/01 Q1006 TEMPO 5000 BR OVC002",
      "taf": "TAF LYBE 270500Z 2706/2806 27010KT 8000 OVC004 TX10/2712Z TN03/2706Z"
    },
    {
      "icao": "LYNI",
      "alert": "OK",
      "vis_m": 9999,
      "fzfg": false,
      "metar_trigger": false,
      "taf_trigger": false,
      "metar": "METAR LYNI 270700Z 31012KT 9999 RA BKN010 OVC023 04/03 Q1004 NOSIG",
      "taf": "TAF LYNI 270500Z 2706/2806 35013KT 9999 RA BKN008 OVC027 TX07/2713Z TNM01/2806Z"
    },
    {
      "icao": "LYPG",
      "alert": "OK",
      "vis_m": 9999,
      "fzfg": false,
      "metar_trigger": false,
      "taf_trigger": false,
      "metar": "METAR LYPG 270700Z 33006KT 9999 FEW010 09/01 Q1004 NOSIG",
      "taf": "TAF LYPG 270500Z 2706/2806 34006KT 9999 FEW030 TX14/2713Z TN04/2723Z"
    },
    {
      "icao": "LZIB",
      "alert": "OK",
      "vis_m": 200,
      "fzfg": true,
      "metar_trigger": false,
      "taf_trigger": false,
      "metar": "METAR LZIB 270700Z VRB02KT 0200 R31/0400N R22/0400N FZFG VV001 M04/M04 Q1005 NOSIG",
      "taf": ""
    },
    {
      "icao": "LZKZ",
      "alert": "OK",
      "vis_m": 2000,
      "fzfg": false,
      "metar_trigger": false,
      "taf_trigger": false,
      "metar": "METAR LZKZ 270700Z 12004KT 2000 0500SE R01/0650U PRFG FEW001 SCT047 01/00 Q1002 TEMPO 0400 FG",
      "taf": "TAF LZKZ 270515Z 2706/2806 VRB02KT 9999 FEW007 BKN027"
    },
    {
      "icao": "LZTT",
      "alert": "OK",
      "vis_m": 9999,
      "fzfg": false,
      "metar_trigger": false,
      "taf_trigger": false,
      "metar": "METAR LZTT 270700Z 28007KT 9999 FEW008 M00/M02 Q1002 NOSIG",
      "taf": "TAF LZTT 270515Z 2706/2806 28008KT 9999 FEW010 BKN025"
    },
    {
      "icao": "OEJN",
      "alert": "OK",
      "vis_m": 8000,
      "fzfg": false,
      "metar_trigger": false,
      "taf_trigger": false,
      "metar": "METAR OEJN 270700Z 17003KT 8000 NSC 28/16 Q1014 NOSIG",
      "taf": "TAF OEJN 270500Z 2706/2812 22010KT 7000 NSC"
    },
    {
      "icao": "OEMA",
      "alert": "OK",
      "vis_m": 6000,
      "fzfg": false,
      "metar_trigger": false,
      "taf_trigger": false,
      "metar": "METAR OEMA 270700Z VRB03KT 6000 NSC 18/M01 Q1020 NOSIG",
      "taf": "TAF OEMA 270500Z 2706/2812 07006KT CAVOK"
    },
    {
      "icao": "OJAI",
      "alert": "OK",
      "vis_m": 4000,
      "fzfg": false,
      "metar_trigger": false,
      "taf_trigger": false,
      "metar": "METAR OJAI 270700Z 00000KT 4000 HZ NSC 11/00 Q1017 NOSIG",
      "taf": "TAF OJAI 270500Z 2706/2812 24012KT 5000 HZ NSC"
    },
    {
      "icao": "OMAA",
      "alert": "OK",
      "vis_m": 9999,
      "fzfg": false,
      "metar_trigger": false,
      "taf_trigger": false,
      "metar": "METAR OMAA 270700Z 05007KT 360V120 CAVOK 22/10 Q1022 NOSIG",
      "taf": "TAF OMAA 270500Z 2706/2812 06006KT 8000 NSC"
    },
    {
      "icao": "OMDB",
      "alert": "OK",
      "vis_m": 9999,
      "fzfg": false,
      "metar_trigger": false,
      "taf_trigger": false,
      "metar": "METAR OMDB 270700Z 08005KT 030V120 CAVOK 23/09 Q1023 NOSIG",
      "taf": "TAF OMDB 270500Z 2706/2812 08005KT 8000 NSC"
    },
    {
      "icao": "UAAA",
      "alert": "OK",
      "vis_m": 5000,
      "fzfg": false,
      "metar_trigger": false,
      "taf_trigger": false,
      "metar": "METAR UAAA 270700Z 02002MPS 360V070 5000 FU SCT100 BKN200 00/M07 Q1020 NOSIG",
      "taf": "TAF UAAA 270507Z 2706/2806 34003MPS 6000 SCT050 BKN100 TX03/2708Z TNM06/2802Z"
    },
    {
      "icao": "UBBB",
      "alert": "OK",
      "vis_m": 9999,
      "fzfg": false,
      "metar_trigger": false,
      "taf_trigger": false,
      "metar": "METAR UBBB 270700Z 01012KT 9999 OVC019 03/M01 Q1027 NOSIG",
      "taf": "TAF UBBB 270459Z 2706/2806 04012KT 9999 BKN012 BKN020 TX05/2710Z TN01/2800Z"
    },
    {
      "icao": "UDSG",
      "alert": "OK",
      "vis_m": 250,
      "fzfg": true,
      "metar_trigger": false,
      "taf_trigger": false,
      "metar": "METAR UDSG 270700Z 11003KT 0250 R02/0375D FZFG VV001 M12/M13 Q1022 NOSIG",
      "taf": "TAF UDSG 270458Z 2706/2806 VRB06KT 1500 BR BKN020"
    },
    {
      "icao": "UDYZ",
      "alert": "OK",
      "vis_m": 3500,
      "fzfg": false,
      "metar_trigger": false,
      "taf_trigger": false,
      "metar": "METAR UDYZ 270700Z VRB01KT 3500 BR BKN007 M05/M06 Q1025 NOSIG",
      "taf": "TAF UDYZ 270500Z 2706/2806 VRB04KT 2300 BR BKN010"
    },
    {
      "icao": "UGKO",
      "alert": "OK",
      "vis_m": 9999,
      "fzfg": false,
      "metar_trigger": false,
      "taf_trigger": false,
      "metar": "METAR UGKO 270700Z 08030G47KT CAVOK 10/00 Q1013 NOSIG",
      "taf": "TAF UGKO 270500Z 2706/2806 08027G41KT CAVOK TX13/2711Z TN06/2802Z"
    }
  ]
}