{
  "ts_utc": "2026-05-09T06:07:20Z",
  "threshold_m": 150,
  "source": "stations_override.txt (ICAO list) + aviationweather.gov (METAR/TAF raw)",
  "station_count": 159,
  "stations": [
    {
      "icao": "BIKF",
      "alert": "OK",
      "vis_m": 9999,
      "fzfg": false,
      "metar_trigger": false,
      "taf_trigger": false,
      "metar": "METAR BIKF 090600Z 27007KT 9999 SCT014 BKN030 05/04 Q1025",
      "taf": "TAF BIKF 090452Z 0906/1006 27012KT 9999 SCT013 BKN023 TX06/0915Z TN05/0906Z"
    },
    {
      "icao": "BKPR",
      "alert": "OK",
      "vis_m": 6000,
      "fzfg": false,
      "metar_trigger": false,
      "taf_trigger": false,
      "metar": "METAR BKPR 090600Z 36004KT 6000 -RA SCT007 BKN020 12/12 Q1016 NOSIG",
      "taf": "TAF BKPR 090530Z 0906/1006 VRB03KT 9999 SCT015 BKN030"
    },
    {
      "icao": "EBCI",
      "alert": "OK",
      "vis_m": 9999,
      "fzfg": false,
      "metar_trigger": false,
      "taf_trigger": false,
      "metar": "METAR EBCI 090550Z 07006KT CAVOK 11/06 Q1018 NOSIG",
      "taf": "TAF EBCI 090501Z 0906/1012 09003KT CAVOK"
    },
    {
      "icao": "EDDB",
      "alert": "OK",
      "vis_m": 9999,
      "fzfg": false,
      "metar_trigger": false,
      "taf_trigger": false,
      "metar": "METAR EDDB 090550Z AUTO VRB02KT 9999 OVC049 10/06 Q1021 NOSIG",
      "taf": "TAF EDDB 090500Z 0906/1006 06005KT 9999 SCT045"
    },
    {
      "icao": "EDDH",
      "alert": "OK",
      "vis_m": 9999,
      "fzfg": false,
      "metar_trigger": false,
      "taf_trigger": false,
      "metar": "METAR EDDH 090550Z AUTO 09006KT 060V130 CAVOK 09/04 Q1022 NOSIG",
      "taf": "TAF EDDH 090500Z 0906/1012 06005KT 9999 SCT040"
    },
    {
      "icao": "EDDK",
      "alert": "OK",
      "vis_m": 9999,
      "fzfg": false,
      "metar_trigger": false,
      "taf_trigger": false,
      "metar": "METAR EDDK 090550Z AUTO 11003KT 060V140 CAVOK 10/07 Q1019 NOSIG",
      "taf": "TAF EDDK 090500Z 0906/1012 05003KT CAVOK"
    },
    {
      "icao": "EDDN",
      "alert": "OK",
      "vis_m": 9999,
      "fzfg": false,
      "metar_trigger": false,
      "taf_trigger": false,
      "metar": "METAR EDDN 090550Z AUTO VRB02KT CAVOK 10/07 Q1019 NOSIG",
      "taf": "TAF EDDN 090500Z 0906/1006 VRB02KT CAVOK"
    },
    {
      "icao": "EDDS",
      "alert": "OK",
      "vis_m": 9999,
      "fzfg": false,
      "metar_trigger": false,
      "taf_trigger": false,
      "metar": "METAR EDDS 090550Z AUTO 13002KT CAVOK 10/08 Q1017 NOSIG",
      "taf": "TAF EDDS 090500Z 0906/1006 VRB02KT CAVOK"
    },
    {
      "icao": "EDFH",
      "alert": "OK",
      "vis_m": 9999,
      "fzfg": false,
      "metar_trigger": false,
      "taf_trigger": false,
      "metar": "METAR EDFH 090550Z 13008KT CAVOK 08/06 Q1018",
      "taf": "TAF EDFH 090500Z 0906/1006 11006KT CAVOK"
    },
    {
      "icao": "EDJA",
      "alert": "OK",
      "vis_m": 9999,
      "fzfg": false,
      "metar_trigger": false,
      "taf_trigger": false,
      "metar": "METAR EDJA 090550Z COR 19003KT 150V220 CAVOK 12/09 Q1017",
      "taf": "TAF EDJA 090500Z 0906/0915 05004KT 9999 SCT020"
    },
    {
      "icao": "EDLW",
      "alert": "OK",
      "vis_m": 9999,
      "fzfg": false,
      "metar_trigger": false,
      "taf_trigger": false,
      "metar": "METAR EDLW 090550Z 16006KT CAVOK 09/07 Q1018",
      "taf": "TAF EDLW 090500Z 0906/1006 08004KT CAVOK"
    },
    {
      "icao": "EDNY",
      "alert": "OK",
      "vis_m": 9999,
      "fzfg": false,
      "metar_trigger": false,
      "taf_trigger": false,
      "metar": "METAR EDNY 090550Z VRB01KT CAVOK 11/08 Q1017",
      "taf": "TAF EDNY 090500Z 0906/0915 04004KT 9999 FEW010 SCT045"
    },
    {
      "icao": "EDSB",
      "alert": "OK",
      "vis_m": 9999,
      "fzfg": false,
      "metar_trigger": false,
      "taf_trigger": false,
      "metar": "METAR EDSB 090550Z 01006KT 340V050 CAVOK 11/08 Q1017",
      "taf": "TAF EDSB 090500Z 0906/1006 01006KT CAVOK"
    },
    {
      "icao": "EETN",
      "alert": "OK",
      "vis_m": 9999,
      "fzfg": false,
      "metar_trigger": false,
      "taf_trigger": false,
      "metar": "METAR EETN 090550Z 09008KT CAVOK 08/M00 Q1028 NOSIG",
      "taf": "TAF EETN 090530Z 0906/1006 08007KT CAVOK"
    },
    {
      "icao": "EFTU",
      "alert": "OK",
      "vis_m": 9999,
      "fzfg": false,
      "metar_trigger": false,
      "taf_trigger": false,
      "metar": "METAR EFTU 090550Z AUTO 14004KT CAVOK 10/M02 Q1028",
      "taf": "TAF EFTU 090524Z 0906/1006 14004KT CAVOK"
    },
    {
      "icao": "EGBB",
      "alert": "OK",
      "vis_m": 9999,
      "fzfg": false,
      "metar_trigger": false,
      "taf_trigger": false,
      "metar": "METAR EGBB 090550Z 11003KT 070V140 CAVOK 11/07 Q1019",
      "taf": "TAF EGBB 090456Z 0906/1006 13003KT 9999 FEW045"
    },
    {
      "icao": "EGGP",
      "alert": "OK",
      "vis_m": 7000,
      "fzfg": false,
      "metar_trigger": false,
      "taf_trigger": false,
      "metar": "METAR EGGP 090550Z VRB02KT 7000 SCT044 10/09 Q1019",
      "taf": "TAF EGGP 090458Z 0906/1006 VRB04KT 9999 FEW045"
    },
    {
      "icao": "EGGW",
      "alert": "OK",
      "vis_m": 9999,
      "fzfg": false,
      "metar_trigger": false,
      "taf_trigger": false,
      "metar": "METAR EGGW 090550Z AUTO 04007KT 360V060 9999 NCD 09/06 Q1018",
      "taf": ""
    },
    {
      "icao": "EGKK",
      "alert": "OK",
      "vis_m": 8000,
      "fzfg": false,
      "metar_trigger": false,
      "taf_trigger": false,
      "metar": "METAR EGKK 090550Z 08003KT 8000 NSC 09/07 Q1017",
      "taf": "TAF EGKK 090459Z 0906/1012 05003KT CAVOK"
    },
    {
      "icao": "EGNM",
      "alert": "OK",
      "vis_m": 7000,
      "fzfg": false,
      "metar_trigger": false,
      "taf_trigger": false,
      "metar": "METAR EGNM 090550Z 02003KT 7000 -RA FEW043 09/08 Q1019",
      "taf": "TAF EGNM 090459Z 0906/1006 03003KT 9999 FEW040"
    },
    {
      "icao": "EGPD",
      "alert": "OK",
      "vis_m": 9999,
      "fzfg": false,
      "metar_trigger": false,
      "taf_trigger": false,
      "metar": "METAR EGPD 090550Z COR AUTO 33004KT 9999 NCD 05/03 Q1023 NOSIG",
      "taf": "TAF EGPD 090455Z 0906/1006 34007KT 9999 FEW020 SCT025"
    },
    {
      "icao": "EGPF",
      "alert": "OK",
      "vis_m": 9999,
      "fzfg": false,
      "metar_trigger": false,
      "taf_trigger": false,
      "metar": "METAR EGPF 090550Z AUTO 20001KT 9999 BKN025 BKN039 06/04 Q1023",
      "taf": "TAF EGPF 090501Z 0906/1006 23004KT 9999 SCT030"
    },
    {
      "icao": "EHBK",
      "alert": "OK",
      "vis_m": 9999,
      "fzfg": false,
      "metar_trigger": false,
      "taf_trigger": false,
      "metar": "METAR EHBK 090555Z AUTO 08003KT 050V110 9999 NCD 11/07 Q1018 NOSIG",
      "taf": "TAF EHBK 090448Z 0906/1012 06005KT CAVOK"
    },
    {
      "icao": "EHEH",
      "alert": "OK",
      "vis_m": 9000,
      "fzfg": false,
      "metar_trigger": false,
      "taf_trigger": false,
      "metar": "METAR EHEH 090555Z AUTO 04005KT 9000 BR NCD 09/08 Q1019 BLU NOSIG RMK TREND REMOTE BY EHWX",
      "taf": "TAF EHEH 090507Z 0906/1012 04003KT 8000 BR NSC"
    },
    {
      "icao": "EKBI",
      "alert": "OK",
      "vis_m": 9999,
      "fzfg": false,
      "metar_trigger": false,
      "taf_trigger": false,
      "metar": "METAR EKBI 090550Z AUTO 10006KT 070V130 9999 NCD 09/05 Q1023",
      "taf": "TAF EKBI 090527Z 0906/1006 09008KT CAVOK"
    },
    {
      "icao": "EKCH",
      "alert": "OK",
      "vis_m": 9999,
      "fzfg": false,
      "metar_trigger": false,
      "taf_trigger": false,
      "metar": "METAR EKCH 090550Z AUTO 05005KT 9999 NCD 08/00 Q1024 NOSIG",
      "taf": "TAF EKCH 090527Z 0906/1006 05005KT CAVOK"
    },
    {
      "icao": "ENAL",
      "alert": "OK",
      "vis_m": 9999,
      "fzfg": false,
      "metar_trigger": false,
      "taf_trigger": false,
      "metar": "METAR ENAL 090550Z 21014KT 9999 SCT035 BKN042 09/03 Q1017",
      "taf": "TAF ENAL 090500Z 0906/0915 20015KT 9999 -RA FEW020 BKN040"
    },
    {
      "icao": "ENBR",
      "alert": "OK",
      "vis_m": 9999,
      "fzfg": false,
      "metar_trigger": false,
      "taf_trigger": false,
      "metar": "METAR ENBR 090550Z 22008KT 9999 -RA SCT007 SCT011 BKN023 07/05 Q1020 TEMPO 25010KT 4000 RA BKN008 RMK WIND 1200FT 24013KT",
      "taf": "TAF ENBR 090500Z 0906/1006 16010KT 9999 SCT008 BKN018"
    },
    {
      "icao": "ENGM",
      "alert": "OK",
      "vis_m": 9999,
      "fzfg": false,
      "metar_trigger": false,
      "taf_trigger": false,
      "metar": "METAR ENGM 090550Z 15004KT CAVOK 08/01 Q1022 NOSIG",
      "taf": "TAF ENGM 090500Z 0906/1006 VRB03KT CAVOK"
    },
    {
      "icao": "ENHD",
      "alert": "OK",
      "vis_m": 9999,
      "fzfg": false,
      "metar_trigger": false,
      "taf_trigger": false,
      "metar": "METAR ENHD 090550Z AUTO 19013KT 9999 OVC007/// 09/07 Q1021",
      "taf": "TAF ENHD 090500Z 0906/0915 17012KT 9999 FEW008 BKN050"
    },
    {
      "icao": "ENTC",
      "alert": "OK",
      "vis_m": 9999,
      "fzfg": false,
      "metar_trigger": false,
      "taf_trigger": false,
      "metar": "METAR ENTC 090550Z 22003KT 200V280 CAVOK 04/M00 Q1020 NOSIG RMK WIND 2600FT 15020KT",
      "taf": "TAF ENTC 090500Z 0906/1006 20006KT CAVOK"
    },
    {
      "icao": "ENTO",
      "alert": "OK",
      "vis_m": 9999,
      "fzfg": false,
      "metar_trigger": false,
      "taf_trigger": false,
      "metar": "METAR ENTO 090550Z 18005KT CAVOK 10/08 Q1023 NOSIG",
      "taf": "TAF ENTO 090500Z 0906/1006 VRB03KT CAVOK"
    },
    {
      "icao": "ENVA",
      "alert": "OK",
      "vis_m": 9999,
      "fzfg": false,
      "metar_trigger": false,
      "taf_trigger": false,
      "metar": "METAR ENVA 090550Z 05003KT 020V080 CAVOK 12/00 Q1017 NOSIG RMK WIND 670FT 19010KT",
      "taf": "TAF ENVA 090500Z 0906/1006 18008KT CAVOK"
    },
    {
      "icao": "ENZV",
      "alert": "OK",
      "vis_m": 9999,
      "fzfg": false,
      "metar_trigger": false,
      "taf_trigger": false,
      "metar": "METAR ENZV 090550Z 18009KT CAVOK 10/06 Q1021 NOSIG",
      "taf": "TAF ENZV 090500Z 0906/1006 17008KT CAVOK"
    },
    {
      "icao": "EPGD",
      "alert": "OK",
      "vis_m": 9999,
      "fzfg": false,
      "metar_trigger": false,
      "taf_trigger": false,
      "metar": "METAR EPGD 090600Z 28004KT 250V310 CAVOK 10/03 Q1021",
      "taf": "TAF EPGD 090530Z 0906/1006 32005KT CAVOK"
    },
    {
      "icao": "EPKK",
      "alert": "OK",
      "vis_m": 9999,
      "fzfg": false,
      "metar_trigger": false,
      "taf_trigger": false,
      "metar": "METAR EPKK 090600Z 31003KT 9999 OVC040 11/06 Q1019",
      "taf": "TAF EPKK 090530Z 0906/1006 34006KT 9999 BKN040"
    },
    {
      "icao": "EPKT",
      "alert": "OK",
      "vis_m": 9999,
      "fzfg": false,
      "metar_trigger": false,
      "taf_trigger": false,
      "metar": "METAR EPKT 090600Z 31003KT 240V350 9999 FEW013 SCT027 BKN045 10/07 Q1019",
      "taf": "TAF EPKT 090530Z 0906/1006 31003KT 9999 BKN040"
    },
    {
      "icao": "EPLB",
      "alert": "OK",
      "vis_m": 9999,
      "fzfg": false,
      "metar_trigger": false,
      "taf_trigger": false,
      "metar": "METAR EPLB 090600Z 29007KT 9999 SCT012 BKN014 10/08 Q1018",
      "taf": "TAF EPLB 090530Z 0906/1006 30006KT 9999 BKN030"
    },
    {
      "icao": "EPMO",
      "alert": "OK",
      "vis_m": 9999,
      "fzfg": false,
      "metar_trigger": false,
      "taf_trigger": false,
      "metar": "METAR EPMO 090600Z 34008KT 320V020 9999 SCT012 BKN024 09/07 Q1019",
      "taf": "TAF EPMO 090530Z 0906/1006 34005KT 9999 BKN025"
    },
    {
      "icao": "EPPO",
      "alert": "OK",
      "vis_m": 9999,
      "fzfg": false,
      "metar_trigger": false,
      "taf_trigger": false,
      "metar": "METAR EPPO 090600Z 05006KT CAVOK 10/05 Q1021",
      "taf": "TAF EPPO 090530Z 0906/1006 32002KT CAVOK"
    },
    {
      "icao": "EPRA",
      "alert": "OK",
      "vis_m": 9999,
      "fzfg": false,
      "metar_trigger": false,
      "taf_trigger": false,
      "metar": "METAR EPRA 090600Z 32005KT 300V360 9999 BKN012 10/07 Q1019",
      "taf": "TAF EPRA 090530Z 0906/0915 30008KT 9999 OVC009"
    },
    {
      "icao": "EPRZ",
      "alert": "OK",
      "vis_m": 9999,
      "fzfg": false,
      "metar_trigger": false,
      "taf_trigger": false,
      "metar": "METAR EPRZ 090600Z 31004KT 9999 OVC040 11/07 Q1019",
      "taf": "TAF EPRZ 090530Z 0906/1006 30003KT 9999 BKN040"
    },
    {
      "icao": "EPSC",
      "alert": "OK",
      "vis_m": 9999,
      "fzfg": false,
      "metar_trigger": false,
      "taf_trigger": false,
      "metar": "METAR EPSC 090600Z VRB01KT CAVOK 10/04 Q1022",
      "taf": "TAF EPSC 090530Z 0906/1006 04004KT CAVOK"
    },
    {
      "icao": "EPSY",
      "alert": "OK",
      "vis_m": 9999,
      "fzfg": false,
      "metar_trigger": false,
      "taf_trigger": false,
      "metar": "METAR EPSY 090600Z 35006KT 310V040 9999 SCT016 BKN038 08/05 Q1020",
      "taf": "TAF EPSY 090530Z 0906/0915 02008KT 9999 BKN035"
    },
    {
      "icao": "EPWA",
      "alert": "OK",
      "vis_m": 9999,
      "fzfg": false,
      "metar_trigger": false,
      "taf_trigger": false,
      "metar": "METAR EPWA 090600Z 36008KT 330V030 9999 BKN013 09/06 Q1019 BECMG BKN016",
      "taf": "TAF EPWA 090530Z 0906/1006 34005KT 9999 BKN025"
    },
    {
      "icao": "EPWR",
      "alert": "OK",
      "vis_m": 9999,
      "fzfg": false,
      "metar_trigger": false,
      "taf_trigger": false,
      "metar": "METAR EPWR 090600Z 28002KT CAVOK 09/08 Q1020",
      "taf": "TAF EPWR 090530Z 0906/1006 30002KT 8000 NSC"
    },
    {
      "icao": "ESGG",
      "alert": "OK",
      "vis_m": 9999,
      "fzfg": false,
      "metar_trigger": false,
      "taf_trigger": false,
      "metar": "METAR ESGG 090550Z 13006KT CAVOK 08/01 Q1024",
      "taf": "TAF ESGG 090530Z 0906/1006 14008KT CAVOK"
    },
    {
      "icao": "ESKN",
      "alert": "OK",
      "vis_m": 9999,
      "fzfg": false,
      "metar_trigger": false,
      "taf_trigger": false,
      "metar": "METAR ESKN 090550Z 11007KT CAVOK 09/M00 Q1026",
      "taf": "TAF ESKN 090530Z 0906/1006 VRB02KT CAVOK"
    },
    {
      "icao": "ESMS",
      "alert": "OK",
      "vis_m": 9999,
      "fzfg": false,
      "metar_trigger": false,
      "taf_trigger": false,
      "metar": "METAR ESMS 090550Z 09006KT CAVOK 08/M02 Q1023",
      "taf": "TAF ESMS 090527Z 0906/1006 06005KT CAVOK"
    },
    {
      "icao": "ESSA",
      "alert": "OK",
      "vis_m": 9999,
      "fzfg": false,
      "metar_trigger": false,
      "taf_trigger": false,
      "metar": "METAR ESSA 090550Z 12005KT CAVOK 06/M06 Q1026 NOSIG",
      "taf": "TAF ESSA 090530Z 0906/1006 VRB02KT CAVOK"
    },
    {
      "icao": "EYKA",
      "alert": "OK",
      "vis_m": 9999,
      "fzfg": false,
      "metar_trigger": false,
      "taf_trigger": false,
      "metar": "METAR EYKA 090550Z 02011G21KT 9999 -RA SCT015 BKN022 OVC027 07/04 Q1018",
      "taf": "TAF EYKA 090500Z 0906/1006 02008KT 5000 RA BR SCT010 BKN015"
    },
    {
      "icao": "EYPA",
      "alert": "OK",
      "vis_m": 9999,
      "fzfg": false,
      "metar_trigger": false,
      "taf_trigger": false,
      "metar": "METAR EYPA 090550Z 09009KT 060V120 CAVOK 11/M02 Q1022",
      "taf": "TAF EYPA 090500Z 0906/1006 08008KT 9000 NSC"
    },
    {
      "icao": "EYVI",
      "alert": "OK",
      "vis_m": 6000,
      "fzfg": false,
      "metar_trigger": false,
      "taf_trigger": false,
      "metar": "METAR EYVI 090550Z 03017KT 6000 -RA FEW009 BKN012 OVC017 06/04 Q1015 NOSIG",
      "taf": "TAF EYVI 090500Z 0906/1006 03012KT 5000 RA BR OVC010"
    },
    {
      "icao": "GCFV",
      "alert": "OK",
      "vis_m": 9999,
      "fzfg": false,
      "metar_trigger": false,
      "taf_trigger": false,
      "metar": "METAR GCFV 090600Z 31011KT 9999 FEW025 SCT045 19/14 Q1014",
      "taf": "TAF GCFV 090200Z 0903/1003 27005KT 9999 SCT030 TX24/0914Z TN17/0906Z"
    },
    {
      "icao": "GCLP",
      "alert": "OK",
      "vis_m": 9999,
      "fzfg": false,
      "metar_trigger": false,
      "taf_trigger": false,
      "metar": "METAR GCLP 090600Z VRB02KT 9999 BKN020 18/14 Q1014 NOSIG",
      "taf": "TAF GCLP 090200Z 0903/1003 VRB05KT 9999 BKN030 TX22/0914Z TN16/0906Z"
    },
    {
      "icao": "GCTS",
      "alert": "OK",
      "vis_m": 9999,
      "fzfg": false,
      "metar_trigger": false,
      "taf_trigger": false,
      "metar": "METAR GCTS 090600Z 01007KT 9999 SCT030 18/12 Q1014 NOSIG",
      "taf": "TAF GCTS 090200Z 0903/1003 30005KT 9999 SCT025 TX24/0914Z TN16/0906Z"
    },
    {
      "icao": "GMAD",
      "alert": "OK",
      "vis_m": 9999,
      "fzfg": false,
      "metar_trigger": false,
      "taf_trigger": false,
      "metar": "METAR GMAD 090600Z 06004KT 9999 BKN033 14/13 Q1014 NOSIG",
      "taf": "TAF GMAD 090500Z 0906/1012 06005KT 8000 BKN016"
    },
    {
      "icao": "GMMN",
      "alert": "OK",
      "vis_m": 9999,
      "fzfg": false,
      "metar_trigger": false,
      "taf_trigger": false,
      "metar": "METAR GMMN 090600Z 20010KT 9999 SCT020 14/10 Q1011 NOSIG",
      "taf": "TAF GMMN 090500Z 0906/1012 19009KT 9999 FEW020"
    },
    {
      "icao": "GMMX",
      "alert": "OK",
      "vis_m": 9999,
      "fzfg": false,
      "metar_trigger": false,
      "taf_trigger": false,
      "metar": "METAR GMMX 090600Z VRB05KT 9999 SCT080 14/07 Q1013 NOSIG",
      "taf": "TAF GMMX 090500Z 0906/1012 26006KT 9999 SCT080"
    },
    {
      "icao": "HEGN",
      "alert": "OK",
      "vis_m": 9999,
      "fzfg": false,
      "metar_trigger": false,
      "taf_trigger": false,
      "metar": "METAR HEGN 090500Z 32014KT CAVOK 23/07 Q1012 NOSIG",
      "taf": "TAF HEGN 090500Z 0906/1012 32010G20KT CAVOK"
    },
    {
      "icao": "HEMA",
      "alert": "OK",
      "vis_m": 9999,
      "fzfg": false,
      "metar_trigger": false,
      "taf_trigger": false,
      "metar": "METAR HEMA 090500Z 34011KT CAVOK 25/09 Q1011 NOSIG",
      "taf": "TAF HEMA 090500Z 0906/1012 33010G20KT CAVOK"
    },
    {
      "icao": "HESH",
      "alert": "OK",
      "vis_m": 9999,
      "fzfg": false,
      "metar_trigger": false,
      "taf_trigger": false,
      "metar": "METAR HESH 090500Z 34012KT CAVOK 24/17 Q1011 NOSIG",
      "taf": "TAF HESH 090500Z 0906/1012 36010G20KT CAVOK"
    },
    {
      "icao": "HESX",
      "alert": "OK",
      "vis_m": 2000,
      "fzfg": false,
      "metar_trigger": false,
      "taf_trigger": false,
      "metar": "METAR HESX 090500Z 04004KT 2000 BR NSC 17/15 Q1017 NOSIG",
      "taf": "TAF HESX 090500Z 0906/1012 05006KT 6000 NSC"
    },
    {
      "icao": "LATI",
      "alert": "OK",
      "vis_m": 9999,
      "fzfg": false,
      "metar_trigger": false,
      "taf_trigger": false,
      "metar": "METAR LATI 090550Z VRB02KT 9999 SCT009 BKN013 OVC045 16/14 Q1015 NOSIG",
      "taf": "TAF LATI 090500Z 0906/1006 VRB05KT 9999 BKN015 OVC030 TX22/0911Z TN12/1004Z"
    },
    {
      "icao": "LBPD",
      "alert": "OK",
      "vis_m": 9999,
      "fzfg": false,
      "metar_trigger": false,
      "taf_trigger": false,
      "metar": "METAR LBPD 090600Z AUTO VRB02KT 9999 FEW007/// OVC048/// 15/15 Q1014 NOSIG",
      "taf": "TAF LBPD 090500Z 0906/1006 VRB03KT 9999 BKN070"
    },
    {
      "icao": "LBSF",
      "alert": "OK",
      "vis_m": 9999,
      "fzfg": false,
      "metar_trigger": false,
      "taf_trigger": false,
      "metar": "METAR LBSF 090600Z 28005KT 9999 SCT047 OVC059 13/11 Q1015 NOSIG",
      "taf": "TAF LBSF 090500Z 0906/1006 VRB03KT 9999 SCT025 BKN050"
    },
    {
      "icao": "LBWN",
      "alert": "OK",
      "vis_m": 9999,
      "fzfg": false,
      "metar_trigger": false,
      "taf_trigger": false,
      "metar": "METAR LBWN 090600Z 10008KT 9999 FEW013 BKN049 16/14 Q1014 NOSIG",
      "taf": "TAF LBWN 090500Z 0906/1006 VRB04KT 9999 SCT020 OVC045"
    },
    {
      "icao": "LCLK",
      "alert": "OK",
      "vis_m": 9999,
      "fzfg": false,
      "metar_trigger": false,
      "taf_trigger": false,
      "metar": "METAR LCLK 090600Z 04004KT 340V060 CAVOK 29/08 Q1016 NOSIG",
      "taf": "TAF LCLK 090530Z 0906/1006 32007KT CAVOK"
    },
    {
      "icao": "LCPH",
      "alert": "OK",
      "vis_m": 9999,
      "fzfg": false,
      "metar_trigger": false,
      "taf_trigger": false,
      "metar": "METAR LCPH 090600Z AUTO 31009KT 9999 NCD 22/16 Q1017 NOSIG",
      "taf": "TAF LCPH 090530Z 0906/1006 04007KT CAVOK"
    },
    {
      "icao": "LEAL",
      "alert": "OK",
      "vis_m": 9000,
      "fzfg": false,
      "metar_trigger": false,
      "taf_trigger": false,
      "metar": "METAR LEAL 090600Z COR 29004KT 250V330 9000 +TSRA FEW022CB 16/14 Q1010 RERA",
      "taf": "TAF LEAL 090500Z 0906/1006 VRB05KT 9999 FEW035 TX24/0912Z TN14/1005Z"
    },
    {
      "icao": "LEBB",
      "alert": "OK",
      "vis_m": 9999,
      "fzfg": false,
      "metar_trigger": false,
      "taf_trigger": false,
      "metar": "METAR LEBB 090600Z VRB08KT CAVOK 17/12 Q1009 NOSIG",
      "taf": "TAF LEBB 090500Z 0906/1006 13009KT 9999 FEW055 TX23/0912Z TN13/1003Z"
    },
    {
      "icao": "LEBL",
      "alert": "OK",
      "vis_m": 9999,
      "fzfg": false,
      "metar_trigger": false,
      "taf_trigger": false,
      "metar": "METAR LEBL 090600Z 06007KT 030V090 9999 BKN018 16/14 Q1013 NOSIG",
      "taf": "TAF LEBL 090500Z 0906/1006 08006KT 9999 FEW020 TX19/0913Z TN14/1005Z"
    },
    {
      "icao": "LECH",
      "alert": "OK",
      "vis_m": 9000,
      "fzfg": false,
      "metar_trigger": false,
      "taf_trigger": false,
      "metar": "METAR LECH 090600Z AUTO 02003KT 340V080 9000 SCT021 BKN048 13/12 Q1013",
      "taf": "TAF LECH 090500Z 0906/1006 VRB04KT 9999 FEW020 TX19/0914Z TN11/1005Z"
    },
    {
      "icao": "LEMD",
      "alert": "OK",
      "vis_m": 9999,
      "fzfg": false,
      "metar_trigger": false,
      "taf_trigger": false,
      "metar": "METAR LEMD 090600Z 17007KT 130V200 9999 FEW025 13/09 Q1010 NOSIG",
      "taf": "TAF LEMD 090500Z 0906/1012 18007KT 9999 FEW045 TX17/0913Z TN08/1005Z"
    },
    {
      "icao": "LEMG",
      "alert": "OK",
      "vis_m": 9999,
      "fzfg": false,
      "metar_trigger": false,
      "taf_trigger": false,
      "metar": "METAR LEMG 090600Z 12004KT 090V160 9999 -RA SCT014 BKN060 16/15 Q1010 NOSIG",
      "taf": "TAF LEMG 090500Z 0906/1006 17008KT 9999 SCT015 TX20/0914Z TN16/0906Z"
    },
    {
      "icao": "LEVC",
      "alert": "OK",
      "vis_m": 9000,
      "fzfg": false,
      "metar_trigger": false,
      "taf_trigger": false,
      "metar": "METAR LEVC 090600Z 33004KT 260V020 9000 FEW016 BKN058 16/13 Q1012 NOSIG",
      "taf": "TAF LEVC 090500Z 0906/1006 02005KT 9999 BKN020 TX20/0912Z TN14/1005Z"
    },
    {
      "icao": "LEXJ",
      "alert": "OK",
      "vis_m": 9999,
      "fzfg": false,
      "metar_trigger": false,
      "taf_trigger": false,
      "metar": "METAR LEXJ 090600Z VRB02KT CAVOK 11/10 Q1008",
      "taf": ""
    },
    {
      "icao": "LEZG",
      "alert": "OK",
      "vis_m": 9999,
      "fzfg": false,
      "metar_trigger": false,
      "taf_trigger": false,
      "metar": "METAR LEZG 090600Z 13008KT 9999 OVC020 14/11 Q1012 NOSIG",
      "taf": "TAF LEZG 090500Z 0906/1006 12010KT 9999 FEW020 TX20/0914Z TN13/1005Z"
    },
    {
      "icao": "LEZL",
      "alert": "OK",
      "vis_m": 9999,
      "fzfg": false,
      "metar_trigger": false,
      "taf_trigger": false,
      "metar": "METAR LEZL 090600Z 17005KT 110V200 9999 -RA FEW030 16/14 Q1008 NOSIG",
      "taf": "TAF LEZL 090200Z 0903/1003 20009KT CAVOK TX22/0914Z TN15/0906Z"
    },
    {
      "icao": "LFBD",
      "alert": "OK",
      "vis_m": 9999,
      "fzfg": false,
      "metar_trigger": false,
      "taf_trigger": false,
      "metar": "METAR LFBD 090600Z AUTO 14008KT CAVOK 15/12 Q1011 NOSIG",
      "taf": "TAF LFBD 090500Z 0906/1012 12010KT CAVOK TX24/0914Z TN14/0906Z"
    },
    {
      "icao": "LFLL",
      "alert": "OK",
      "vis_m": 9999,
      "fzfg": false,
      "metar_trigger": false,
      "taf_trigger": false,
      "metar": "METAR LFLL 090600Z 12006KT CAVOK 15/08 Q1016 NOSIG",
      "taf": "TAF LFLL 090500Z 0906/1012 16008KT CAVOK"
    },
    {
      "icao": "LFLS",
      "alert": "OK",
      "vis_m": 9999,
      "fzfg": false,
      "metar_trigger": false,
      "taf_trigger": false,
      "metar": "METAR LFLS 090600Z AUTO 08004KT CAVOK 13/11 Q1016 NOSIG",
      "taf": "TAF LFLS 090200Z 0903/1003 09005KT CAVOK"
    },
    {
      "icao": "LFMN",
      "alert": "OK",
      "vis_m": 9999,
      "fzfg": false,
      "metar_trigger": false,
      "taf_trigger": false,
      "metar": "METAR LFMN 090600Z 34008KT CAVOK 17/09 Q1016 NOSIG",
      "taf": "TAF LFMN 090200Z 0903/1009 33010KT CAVOK"
    },
    {
      "icao": "LFOB",
      "alert": "OK",
      "vis_m": 9999,
      "fzfg": false,
      "metar_trigger": false,
      "taf_trigger": false,
      "metar": "METAR LFOB 090600Z AUTO 03002KT CAVOK 10/09 Q1016 NOSIG",
      "taf": "TAF LFOB 090500Z 0906/1006 VRB03KT CAVOK"
    },
    {
      "icao": "LFPO",
      "alert": "OK",
      "vis_m": 9999,
      "fzfg": false,
      "metar_trigger": false,
      "taf_trigger": false,
      "metar": "METAR LFPO 090600Z 05006KT CAVOK 13/09 Q1015 NOSIG",
      "taf": "TAF LFPO 090500Z 0906/1012 04006KT CAVOK"
    },
    {
      "icao": "LFSB",
      "alert": "OK",
      "vis_m": 9999,
      "fzfg": false,
      "metar_trigger": false,
      "taf_trigger": false,
      "metar": "METAR LFSB 090600Z AUTO 00000KT CAVOK 12/10 Q1017 NOSIG",
      "taf": "TAF LFSB 090500Z 0906/1006 VRB03KT CAVOK"
    },
    {
      "icao": "LGAV",
      "alert": "OK",
      "vis_m": 9999,
      "fzfg": false,
      "metar_trigger": false,
      "taf_trigger": false,
      "metar": "METAR LGAV 090550Z 17004KT 9999 FEW025 18/12 Q1016 NOSIG",
      "taf": "TAF LGAV 090500Z 0906/1006 19010KT 9999 SCT025"
    },
    {
      "icao": "LGTS",
      "alert": "OK",
      "vis_m": 5000,
      "fzfg": false,
      "metar_trigger": false,
      "taf_trigger": false,
      "metar": "METAR LGTS 090550Z 11002KT 5000 BR SCT006 SCT020 16/16 Q1015 NOSIG",
      "taf": "TAF LGTS 090500Z 0906/1006 VRB03KT 9999 SCT025"
    },
    {
      "icao": "LHBP",
      "alert": "OK",
      "vis_m": 9999,
      "fzfg": false,
      "metar_trigger": false,
      "taf_trigger": false,
      "metar": "METAR LHBP 090600Z VRB02KT CAVOK 16/12 Q1017 NOSIG",
      "taf": "TAF LHBP 090515Z 0906/1006 33007KT CAVOK"
    },
    {
      "icao": "LHDC",
      "alert": "OK",
      "vis_m": 9999,
      "fzfg": false,
      "metar_trigger": false,
      "taf_trigger": false,
      "metar": "METAR LHDC 090545Z AUTO 03009KT 360V070 CAVOK 14/11 Q1016 NOSIG",
      "taf": "TAF LHDC 090515Z 0906/0915 02008KT CAVOK"
    },
    {
      "icao": "LIBD",
      "alert": "OK",
      "vis_m": 9999,
      "fzfg": false,
      "metar_trigger": false,
      "taf_trigger": false,
      "metar": "METAR LIBD 090550Z 23004KT CAVOK 16/14 Q1016",
      "taf": "TAF LIBD 090500Z 0906/1006 28008KT CAVOK"
    },
    {
      "icao": "LIBG",
      "alert": "OK",
      "vis_m": null,
      "fzfg": false,
      "metar_trigger": false,
      "taf_trigger": false,
      "metar": "",
      "taf": ""
    },
    {
      "icao": "LIBP",
      "alert": "OK",
      "vis_m": 9999,
      "fzfg": false,
      "metar_trigger": false,
      "taf_trigger": false,
      "metar": "METAR LIBP 090550Z AUTO 21003KT 9999 NCD 17/11 Q1017",
      "taf": "TAF LIBP 090500Z 0906/1006 VRB05KT CAVOK"
    },
    {
      "icao": "LIBR",
      "alert": "OK",
      "vis_m": 9999,
      "fzfg": false,
      "metar_trigger": false,
      "taf_trigger": false,
      "metar": "METAR LIBR 090550Z 31007KT CAVOK 16/15 Q1016",
      "taf": "TAF LIBR 090500Z 0906/1006 02010KT 9999 FEW020"
    },
    {
      "icao": "LICA",
      "alert": "OK",
      "vis_m": 9999,
      "fzfg": false,
      "metar_trigger": false,
      "taf_trigger": false,
      "metar": "METAR LICA 090550Z AUTO 21005KT 9999 BKN048/// BKN073/// 19/17 Q1017",
      "taf": ""
    },
    {
      "icao": "LICC",
      "alert": "OK",
      "vis_m": 9999,
      "fzfg": false,
      "metar_trigger": false,
      "taf_trigger": false,
      "metar": "METAR LICC 090550Z 20005KT CAVOK 17/14 Q1016",
      "taf": ""
    },
    {
      "icao": "LICJ",
      "alert": "OK",
      "vis_m": 9999,
      "fzfg": false,
      "metar_trigger": false,
      "taf_trigger": false,
      "metar": "METAR LICJ 090550Z 03007KT CAVOK 18/15 Q1016",
      "taf": ""
    },
    {
      "icao": "LIMC",
      "alert": "OK",
      "vis_m": 9999,
      "fzfg": false,
      "metar_trigger": false,
      "taf_trigger": false,
      "metar": "METAR LIMC 090550Z 36004KT CAVOK 13/11 Q1018 NOSIG",
      "taf": ""
    },
    {
      "icao": "LIME",
      "alert": "OK",
      "vis_m": 9999,
      "fzfg": false,
      "metar_trigger": false,
      "taf_trigger": false,
      "metar": "METAR LIME 090550Z VRB01KT CAVOK 15/10 Q1017 NOSIG",
      "taf": ""
    },
    {
      "icao": "LIMF",
      "alert": "OK",
      "vis_m": 9999,
      "fzfg": false,
      "metar_trigger": false,
      "taf_trigger": false,
      "metar": "METAR LIMF 090550Z VRB02KT CAVOK 13/09 Q1018",
      "taf": ""
    },
    {
      "icao": "LIMJ",
      "alert": "OK",
      "vis_m": 9999,
      "fzfg": false,
      "metar_trigger": false,
      "taf_trigger": false,
      "metar": "METAR LIMJ 090550Z 03005KT 360V070 CAVOK 18/11 Q1016",
      "taf": ""
    },
    {
      "icao": "LIPE",
      "alert": "OK",
      "vis_m": 9999,
      "fzfg": false,
      "metar_trigger": false,
      "taf_trigger": false,
      "metar": "METAR LIPE 090550Z 20006KT CAVOK 14/09 Q1017",
      "taf": "TAF LIPE 090500Z 0906/1006 VRB05KT CAVOK"
    },
    {
      "icao": "LIPH",
      "alert": "OK",
      "vis_m": 9999,
      "fzfg": false,
      "metar_trigger": false,
      "taf_trigger": false,
      "metar": "METAR LIPH 090550Z VRB02KT CAVOK 16/12 Q1017",
      "taf": "TAF LIPH 090500Z 0906/1006 VRB05KT CAVOK"
    },
    {
      "icao": "LIPQ",
      "alert": "OK",
      "vis_m": 9999,
      "fzfg": false,
      "metar_trigger": false,
      "taf_trigger": false,
      "metar": "METAR LIPQ 090550Z AUTO VRB02KT 9999 NCD 16/11 Q1017",
      "taf": "TAF LIPQ 090500Z 0906/1006 VRB05KT CAVOK"
    },
    {
      "icao": "LIPR",
      "alert": "OK",
      "vis_m": 9999,
      "fzfg": false,
      "metar_trigger": false,
      "taf_trigger": false,
      "metar": "METAR LIPR 090550Z VRB02KT CAVOK 16/13 Q1017",
      "taf": "TAF LIPR 090500Z 0906/1006 VRB05KT CAVOK"
    },
    {
      "icao": "LIPX",
      "alert": "OK",
      "vis_m": 9999,
      "fzfg": false,
      "metar_trigger": false,
      "taf_trigger": false,
      "metar": "METAR LIPX 090550Z 25002KT CAVOK 14/12 Q1017",
      "taf": ""
    },
    {
      "icao": "LIPY",
      "alert": "OK",
      "vis_m": 9999,
      "fzfg": false,
      "metar_trigger": false,
      "taf_trigger": false,
      "metar": "METAR LIPY 090550Z AUTO 21005KT 9999 NCD 15/13 Q1017",
      "taf": "TAF LIPY 090500Z 0906/1006 VRB05KT CAVOK"
    },
    {
      "icao": "LIPZ",
      "alert": "OK",
      "vis_m": 9999,
      "fzfg": false,
      "metar_trigger": false,
      "taf_trigger": false,
      "metar": "METAR LIPZ 090550Z 02003KT CAVOK 16/12 Q1017 NOSIG",
      "taf": "TAF LIPZ 090500Z 0906/1012 VRB05KT CAVOK"
    },
    {
      "icao": "LIRF",
      "alert": "OK",
      "vis_m": 9999,
      "fzfg": false,
      "metar_trigger": false,
      "taf_trigger": false,
      "metar": "METAR LIRF 090550Z 05004KT CAVOK 16/15 Q1017 NOSIG",
      "taf": ""
    },
    {
      "icao": "LIRN",
      "alert": "OK",
      "vis_m": 9999,
      "fzfg": false,
      "metar_trigger": false,
      "taf_trigger": false,
      "metar": "METAR LIRN 090550Z 02005KT CAVOK 17/10 Q1017 NOSIG",
      "taf": ""
    },
    {
      "icao": "LIRP",
      "alert": "OK",
      "vis_m": 9999,
      "fzfg": false,
      "metar_trigger": false,
      "taf_trigger": false,
      "metar": "METAR LIRP 090545Z 13004KT CAVOK 13/12 Q1017 NOSIG",
      "taf": "TAF LIRP 090500Z 0906/1006 09005KT CAVOK"
    },
    {
      "icao": "LIRZ",
      "alert": "OK",
      "vis_m": 4100,
      "fzfg": false,
      "metar_trigger": false,
      "taf_trigger": false,
      "metar": "METAR LIRZ 090550Z AUTO 01003KT 330V030 4100 BR BKN002/// 12/12 Q1018",
      "taf": ""
    },
    {
      "icao": "LJLJ",
      "alert": "OK",
      "vis_m": 9999,
      "fzfg": false,
      "metar_trigger": false,
      "taf_trigger": false,
      "metar": "METAR LJLJ 090600Z 26003KT 220V310 9999 FEW050 13/09 Q1018 NOSIG",
      "taf": "TAF LJLJ 090500Z 0906/1006 VRB02KT CAVOK"
    },
    {
      "icao": "LKMT",
      "alert": "OK",
      "vis_m": 9999,
      "fzfg": false,
      "metar_trigger": false,
      "taf_trigger": false,
      "metar": "METAR LKMT 090600Z 03008KT 9999 FEW043 11/07 Q1019 NOSIG",
      "taf": "TAF LKMT 090500Z 0906/1006 02008KT 9999 SCT030"
    },
    {
      "icao": "LKPR",
      "alert": "OK",
      "vis_m": 9999,
      "fzfg": false,
      "metar_trigger": false,
      "taf_trigger": false,
      "metar": "METAR LKPR 090600Z 03004KT 360V080 CAVOK 09/08 Q1020 NOSIG",
      "taf": "TAF LKPR 090500Z 0906/1012 35005KT 6000 NSC"
    },
    {
      "icao": "LLBG",
      "alert": "OK",
      "vis_m": 9999,
      "fzfg": false,
      "metar_trigger": false,
      "taf_trigger": false,
      "metar": "METAR LLBG 090550Z VRB01KT 9999 SCT018 21/16 Q1016 NOSIG",
      "taf": "TAF LLBG 090507Z 0906/1006 VRB04KT 9999 SCT018 TX28/0911Z TN15/1003Z"
    },
    {
      "icao": "LMML",
      "alert": "OK",
      "vis_m": 9999,
      "fzfg": false,
      "metar_trigger": false,
      "taf_trigger": false,
      "metar": "METAR LMML 090545Z 33006G16KT 280V360 CAVOK 19/16 Q1016 NOSIG",
      "taf": "TAF LMML 090500Z 0906/1006 33010KT 9999 FEW011"
    },
    {
      "icao": "LOWW",
      "alert": "OK",
      "vis_m": 9999,
      "fzfg": false,
      "metar_trigger": false,
      "taf_trigger": false,
      "metar": "METAR LOWW 090550Z 32006KT CAVOK 11/08 Q1019 NOSIG",
      "taf": "TAF LOWW 090515Z 0906/1012 36008KT CAVOK TX22/1012Z TN08/1004Z"
    },
    {
      "icao": "LPFR",
      "alert": "OK",
      "vis_m": 9999,
      "fzfg": false,
      "metar_trigger": false,
      "taf_trigger": false,
      "metar": "METAR LPFR 090600Z 17014KT 9999 FEW014 FEW020CB SCT040 17/14 Q1005",
      "taf": "TAF LPFR 090500Z 0906/1006 19015KT 9999 SCT020"
    },
    {
      "icao": "LPMA",
      "alert": "OK",
      "vis_m": 9999,
      "fzfg": false,
      "metar_trigger": false,
      "taf_trigger": false,
      "metar": "METAR LPMA 090600Z VRB02KT 9999 FEW015TCU 15/11 Q1010",
      "taf": "TAF LPMA 090500Z 0906/1006 VRB05KT 9999 SCT015"
    },
    {
      "icao": "LPPR",
      "alert": "OK",
      "vis_m": 9999,
      "fzfg": false,
      "metar_trigger": false,
      "taf_trigger": false,
      "metar": "METAR LPPR 090600Z 11006KT 080V140 9999 FEW018 14/10 Q1003",
      "taf": "TAF LPPR 090500Z 0906/1006 13007KT 9999 SCT020"
    },
    {
      "icao": "LPPS",
      "alert": "OK",
      "vis_m": 9999,
      "fzfg": false,
      "metar_trigger": false,
      "taf_trigger": false,
      "metar": "METAR LPPS 090600Z 28013KT 9999 SCT014 SCT030 16/13 Q1010",
      "taf": "TAF LPPS 090500Z 0906/1012 28015KT 9999 SCT015 SCT030"
    },
    {
      "icao": "LPPT",
      "alert": "OK",
      "vis_m": 9999,
      "fzfg": false,
      "metar_trigger": false,
      "taf_trigger": false,
      "metar": "METAR LPPT 090600Z 23004KT 190V260 9999 -RA FEW014 FEW020TCU 12/11 Q1003",
      "taf": "TAF LPPT 090500Z 0906/1012 16012KT 9999 SCT020"
    },
    {
      "icao": "LQBK",
      "alert": "OK",
      "vis_m": 9999,
      "fzfg": false,
      "metar_trigger": false,
      "taf_trigger": false,
      "metar": "METAR LQBK 090600Z 15004KT 120V200 CAVOK 17/12 Q1017 NOSIG",
      "taf": "TAF LQBK 090500Z 0906/1006 15005KT CAVOK TX23/0913Z TN11/1004Z"
    },
    {
      "icao": "LQSA",
      "alert": "OK",
      "vis_m": 9999,
      "fzfg": false,
      "metar_trigger": false,
      "taf_trigger": false,
      "metar": "METAR LQSA 090600Z 34005KT 300V360 9999 FEW040 BKN050 13/11 Q1018 NOSIG",
      "taf": "TAF LQSA 090500Z 0906/1006 VRB02KT 9999 BKN040 TX20/0913Z TN09/1004Z"
    },
    {
      "icao": "LQTZ",
      "alert": "OK",
      "vis_m": 5000,
      "fzfg": false,
      "metar_trigger": false,
      "taf_trigger": false,
      "metar": "METAR LQTZ 090600Z 00000KT 5000 -RA BR SCT003 BKN012 OVC072 14/14 Q1017",
      "taf": "TAF LQTZ 090500Z 0906/1006 27005KT 9999 SCT045 TX21/0913Z TN10/1004Z"
    },
    {
      "icao": "LRBC",
      "alert": "OK",
      "vis_m": 4000,
      "fzfg": false,
      "metar_trigger": false,
      "taf_trigger": false,
      "metar": "METAR LRBC 090600Z 33009KT 4000 RA FEW005 OVC020 14/14 Q1016",
      "taf": "TAF LRBC 090500Z 0906/0915 34008KT 5000 SHRA SCT015 SCT040CB OVC050"
    },
    {
      "icao": "LRBS",
      "alert": "OK",
      "vis_m": 8000,
      "fzfg": false,
      "metar_trigger": false,
      "taf_trigger": false,
      "metar": "METAR LRBS 090600Z 06009KT 8000 FEW005 BKN008 14/13 Q1014 TEMPO 5000 -RA BR BKN005 BKN030",
      "taf": "TAF LRBS 090500Z 0906/1006 06010KT 9999 SCT035"
    },
    {
      "icao": "LRBV",
      "alert": "OK",
      "vis_m": 9999,
      "fzfg": false,
      "metar_trigger": false,
      "taf_trigger": false,
      "metar": "METAR LRBV 090600Z VRB03KT 9999 -RA FEW006 BKN021 BKN031 14/13 Q1015",
      "taf": "TAF LRBV 090500Z 0906/0915 VRB04KT 9999 -RA BKN010 OVC045"
    },
    {
      "icao": "LRCL",
      "alert": "OK",
      "vis_m": 9999,
      "fzfg": false,
      "metar_trigger": false,
      "taf_trigger": false,
      "metar": "METAR LRCL 090600Z 26001KT CAVOK 15/12 Q1015",
      "taf": "TAF LRCL 090500Z 0906/0915 VRB04KT 9999 SCT045"
    },
    {
      "icao": "LRCV",
      "alert": "OK",
      "vis_m": 5000,
      "fzfg": false,
      "metar_trigger": false,
      "taf_trigger": false,
      "metar": "METAR LRCV 090600Z 02006KT 5000 RA BKN004 OVC042 15/15 Q1014",
      "taf": "TAF LRCV 090500Z 0906/0915 01007KT 7000 -RA BKN015 OVC040"
    },
    {
      "icao": "LRIA",
      "alert": "OK",
      "vis_m": 6000,
      "fzfg": false,
      "metar_trigger": false,
      "taf_trigger": false,
      "metar": "METAR LRIA 090600Z 31004KT 290V350 6000 -RA BKN002 14/13 Q1017",
      "taf": "TAF LRIA 090500Z 0906/0915 VRB04KT 3000 BR BKN002"
    },
    {
      "icao": "LROP",
      "alert": "OK",
      "vis_m": 4000,
      "fzfg": false,
      "metar_trigger": false,
      "taf_trigger": false,
      "metar": "METAR LROP 090600Z 09009KT 4000 BR BKN006 BKN033 14/13 Q1014 TEMPO BKN010 BKN030",
      "taf": "TAF LROP 090500Z 0906/1006 08010KT 9999 SCT035"
    },
    {
      "icao": "LRSB",
      "alert": "OK",
      "vis_m": 9999,
      "fzfg": false,
      "metar_trigger": false,
      "taf_trigger": false,
      "metar": "METAR LRSB 090600Z 16002KT 9999 -RA FEW005 SCT038 BKN048 14/13 Q1015",
      "taf": "TAF LRSB 090500Z 0906/1006 VRB04KT 9999 BKN050"
    },
    {
      "icao": "LRSM",
      "alert": "OK",
      "vis_m": 7000,
      "fzfg": false,
      "metar_trigger": false,
      "taf_trigger": false,
      "metar": "METAR LRSM 090600Z 00000KT 7000 SCT002 12/11 Q1016",
      "taf": "TAF LRSM 090500Z 0906/0915 31005KT 5000 BR BKN002"
    },
    {
      "icao": "LRSV",
      "alert": "OK",
      "vis_m": 9999,
      "fzfg": false,
      "metar_trigger": false,
      "taf_trigger": false,
      "metar": "METAR LRSV 090600Z 02008KT 9999 FEW011 OVC042 13/11 Q1017",
      "taf": "TAF LRSV 090500Z 0906/0915 01008KT 9999 BKN040"
    },
    {
      "icao": "LRTM",
      "alert": "OK",
      "vis_m": 9999,
      "fzfg": false,
      "metar_trigger": false,
      "taf_trigger": false,
      "metar": "METAR LRTM 090600Z VRB02KT CAVOK 15/12 Q1015",
      "taf": "TAF LRTM 090500Z 0906/0915 VRB04KT 9999 SCT045"
    },
    {
      "icao": "LRTR",
      "alert": "OK",
      "vis_m": 9999,
      "fzfg": false,
      "metar_trigger": false,
      "taf_trigger": false,
      "metar": "METAR LRTR 090600Z VRB02KT CAVOK 16/13 Q1015",
      "taf": "TAF LRTR 090500Z 0906/1006 VRB04KT CAVOK"
    },
    {
      "icao": "LTAC",
      "alert": "OK",
      "vis_m": 9999,
      "fzfg": false,
      "metar_trigger": false,
      "taf_trigger": false,
      "metar": "METAR LTAC 090550Z 24004KT 180V270 9999 SCT040 BKN100 13/08 Q1020 NOSIG RMK RWY21C VRB02KT RWY03L 26003KT 220V280 RWY21R VRB02KT RWY03R 22003KT RWY21L VRB02KT",
      "taf": "TAF LTAC 090440Z 0906/1006 VRB02KT 9999 SCT040 BKN100"
    },
    {
      "icao": "LTFM",
      "alert": "OK",
      "vis_m": 9999,
      "fzfg": false,
      "metar_trigger": false,
      "taf_trigger": false,
      "metar": "METAR LTFM 090550Z 18011KT 9999 -SHRA BKN032 BKN080 18/12 Q1015 NOSIG RMK RWY17L 18011KT RWY34L 18011KT RWY16R 18010KT RWY36 19011KT RWY18 19013KT",
      "taf": "TAF LTFM 090440Z 0906/1012 20014KT 9999 SCT035 BKN080"
    },
    {
      "icao": "LUKK",
      "alert": "OK",
      "vis_m": 9999,
      "fzfg": false,
      "metar_trigger": false,
      "taf_trigger": false,
      "metar": "METAR LUKK 090600Z VRB02KT 9999 BKN011 14/12 Q1017 NOSIG",
      "taf": "TAF LUKK 090517Z 0906/1006 11008KT CAVOK"
    },
    {
      "icao": "LWOH",
      "alert": "OK",
      "vis_m": 9999,
      "fzfg": false,
      "metar_trigger": false,
      "taf_trigger": false,
      "metar": "METAR LWOH 090550Z VRB02KT 9999 SCT010 OVC020 11/11 Q1016",
      "taf": "TAF LWOH 090525Z 0906/1006 VRB02KT 9999 SCT010 OVC020"
    },
    {
      "icao": "LWSK",
      "alert": "OK",
      "vis_m": 9999,
      "fzfg": false,
      "metar_trigger": false,
      "taf_trigger": false,
      "metar": "METAR LWSK 090550Z VRB01KT 9999 -DZ FEW005 BKN012 OVC070 14/13 Q1016 NOSIG",
      "taf": "TAF LWSK 090525Z 0906/1006 VRB02KT 9999 SCT020 OVC080"
    },
    {
      "icao": "LYBE",
      "alert": "OK",
      "vis_m": 9999,
      "fzfg": false,
      "metar_trigger": false,
      "taf_trigger": false,
      "metar": "METAR LYBE 090600Z 25008KT 9999 -RA SCT040 15/14 Q1016 NOSIG",
      "taf": "TAF LYBE 090500Z 0906/1006 29007KT 9999 SCT040 TX22/0913Z TN11/1003Z"
    },
    {
      "icao": "LYNI",
      "alert": "OK",
      "vis_m": 6000,
      "fzfg": false,
      "metar_trigger": false,
      "taf_trigger": false,
      "metar": "METAR LYNI 090600Z VRB01KT 6000 -RA FEW010 BKN017 BKN023 14/14 Q1016 TEMPO 4000 RA BKN010 BKN023",
      "taf": "TAF LYNI 090500Z 0906/1006 16004KT 9999 SCT050 BKN070 TX18/0914Z TN09/1003Z"
    },
    {
      "icao": "LYPG",
      "alert": "OK",
      "vis_m": 9999,
      "fzfg": false,
      "metar_trigger": false,
      "taf_trigger": false,
      "metar": "METAR LYPG 090600Z 00000KT 9999 FEW030 SCT060 OVC076 16/15 Q1015 NOSIG",
      "taf": "TAF LYPG 090500Z 0906/1006 16005KT 9999 FEW040 SCT080 TX24/0914Z TN13/1005Z"
    },
    {
      "icao": "LZIB",
      "alert": "OK",
      "vis_m": 9999,
      "fzfg": false,
      "metar_trigger": false,
      "taf_trigger": false,
      "metar": "METAR LZIB 090600Z 03006KT 350V060 CAVOK 14/07 Q1018 NOSIG",
      "taf": "TAF LZIB 090515Z 0906/1006 VRB04KT CAVOK"
    },
    {
      "icao": "LZKZ",
      "alert": "OK",
      "vis_m": 9999,
      "fzfg": false,
      "metar_trigger": false,
      "taf_trigger": false,
      "metar": "METAR LZKZ 090600Z 36016KT CAVOK 13/08 Q1017 NOSIG",
      "taf": "TAF LZKZ 090515Z 0906/1006 02012KT CAVOK"
    },
    {
      "icao": "LZTT",
      "alert": "OK",
      "vis_m": 4000,
      "fzfg": false,
      "metar_trigger": false,
      "taf_trigger": false,
      "metar": "METAR LZTT 090600Z 06007KT 4000 BR FEW004 OVC006 08/07 Q1018 TEMPO 2000 BR OVC002",
      "taf": "TAF LZTT 090515Z 0906/1006 04005KT 5000 BR SCT004 OVC016"
    },
    {
      "icao": "OEJN",
      "alert": "OK",
      "vis_m": 9999,
      "fzfg": false,
      "metar_trigger": false,
      "taf_trigger": false,
      "metar": "METAR OEJN 090600Z 34012KT CAVOK 30/20 Q1007 NOSIG",
      "taf": "TAF OEJN 090500Z 0906/1012 32016KT 7000 NSC"
    },
    {
      "icao": "OEMA",
      "alert": "OK",
      "vis_m": 9000,
      "fzfg": false,
      "metar_trigger": false,
      "taf_trigger": false,
      "metar": "METAR OEMA 090600Z 07007KT 9000 NSC 30/09 Q1016 NOSIG",
      "taf": "TAF OEMA 090500Z 0906/1012 14014KT 6000 FEW045"
    },
    {
      "icao": "OJAI",
      "alert": "OK",
      "vis_m": 5000,
      "fzfg": false,
      "metar_trigger": false,
      "taf_trigger": false,
      "metar": "METAR OJAI 090500Z 03002KT 5000 HZ NSC 18/08 Q1018 NOSIG",
      "taf": "TAF OJAI 090435Z 0906/1012 VRB02KT 5000 HZ NSC"
    },
    {
      "icao": "OMAA",
      "alert": "OK",
      "vis_m": 9999,
      "fzfg": false,
      "metar_trigger": false,
      "taf_trigger": false,
      "metar": "METAR OMAA 090600Z 29012KT CAVOK 35/16 Q1009 NOSIG",
      "taf": "TAF OMAA 090500Z 0906/1012 32015KT 8000 NSC"
    },
    {
      "icao": "OMDB",
      "alert": "OK",
      "vis_m": 9999,
      "fzfg": false,
      "metar_trigger": false,
      "taf_trigger": false,
      "metar": "METAR OMDB 090600Z 22005KT 190V260 CAVOK 34/21 Q1008 BECMG 29012KT",
      "taf": "TAF OMDB 090500Z 0906/1012 22008KT 8000 NSC"
    },
    {
      "icao": "UAAA",
      "alert": "OK",
      "vis_m": 9999,
      "fzfg": false,
      "metar_trigger": false,
      "taf_trigger": false,
      "metar": "METAR UAAA 090600Z 26003MPS 200V290 9999 SCT050CB BKN100 27/10 Q1016 NOSIG",
      "taf": "TAF UAAA 090505Z 0906/1006 32002G07MPS 9999 SCT050CB BKN100 TX30/0910Z TN17/1000Z"
    },
    {
      "icao": "UBBB",
      "alert": "OK",
      "vis_m": 9999,
      "fzfg": false,
      "metar_trigger": false,
      "taf_trigger": false,
      "metar": "METAR UBBB 090600Z VRB02KT CAVOK 22/11 Q1018 NOSIG",
      "taf": "TAF UBBB 090503Z 0906/1006 VRB04KT CAVOK TX24/0910Z TN13/1001Z"
    },
    {
      "icao": "UDSG",
      "alert": "OK",
      "vis_m": 9999,
      "fzfg": false,
      "metar_trigger": false,
      "taf_trigger": false,
      "metar": "METAR UDSG 090600Z 20001KT 9999 NSC 11/04 Q1024 NOSIG",
      "taf": "TAF UDSG 090500Z 0906/1006 22006KT 9999 FEW050"
    },
    {
      "icao": "UDYZ",
      "alert": "OK",
      "vis_m": 9999,
      "fzfg": false,
      "metar_trigger": false,
      "taf_trigger": false,
      "metar": "METAR UDYZ 090600Z VRB02KT 9999 NSC 17/04 Q1021 NOSIG",
      "taf": "TAF UDYZ 090500Z 0906/1006 24006KT 9999 FEW040"
    },
    {
      "icao": "UGKO",
      "alert": "OK",
      "vis_m": 9999,
      "fzfg": false,
      "metar_trigger": false,
      "taf_trigger": false,
      "metar": "METAR UGKO 090600Z 10010KT CAVOK 19/10 Q1018 NOSIG",
      "taf": "TAF UGKO 090500Z 0906/1006 09007KT CAVOK TX26/0912Z TN12/0920Z"
    }
  ]
}