{
  "ts_utc": "2026-02-13T13:15:23Z",
  "threshold_m": 150,
  "source": "stations_override.txt (ICAO list) + aviationweather.gov (METAR/TAF raw)",
  "station_count": 159,
  "stations": [
    {
      "icao": "BIKF",
      "alert": "OK",
      "vis_m": 9999,
      "fzfg": false,
      "metar_trigger": false,
      "taf_trigger": false,
      "metar": "METAR BIKF 131300Z 36013KT 9999 FEW025 SCT210 M03/M07 Q1009",
      "taf": "TAF BIKF 131032Z 1312/1412 36010KT 9999 FEW025 SCT040 TXM02/1412Z TNM10/1324Z"
    },
    {
      "icao": "BKPR",
      "alert": "OK",
      "vis_m": 9999,
      "fzfg": false,
      "metar_trigger": false,
      "taf_trigger": false,
      "metar": "METAR BKPR 131300Z 01008KT 9999 FEW020 BKN060 10/06 Q0992 NOSIG",
      "taf": "TAF BKPR 131130Z 1312/1412 01008KT 9999 BKN040"
    },
    {
      "icao": "EBCI",
      "alert": "OK",
      "vis_m": 7000,
      "fzfg": false,
      "metar_trigger": false,
      "taf_trigger": false,
      "metar": "METAR EBCI 131250Z VRB01KT 7000 SCT008 BKN014 08/06 Q0991 TEMPO 4500 -SHRA",
      "taf": "TAF EBCI 131123Z 1312/1418 04007KT 7000 SCT004 BKN009"
    },
    {
      "icao": "EDDB",
      "alert": "OK",
      "vis_m": 9999,
      "fzfg": false,
      "metar_trigger": false,
      "taf_trigger": false,
      "metar": "METAR EDDB 131250Z AUTO 34006KT 9999 -SN OVC014 02/M00 Q0992 TEMPO 4500 -RASN BKN008",
      "taf": "TAF EDDB 131100Z 1312/1412 01007KT 9999 BKN010"
    },
    {
      "icao": "EDDH",
      "alert": "OK",
      "vis_m": 3900,
      "fzfg": false,
      "metar_trigger": false,
      "taf_trigger": false,
      "metar": "METAR EDDH 131250Z AUTO 02008KT 350V050 3900 -SN BR SCT009 BKN035 BKN043 M00/M02 Q0995 RESN TEMPO 5000 BKN008",
      "taf": "TAF EDDH 131100Z 1312/1418 03007KT 9999 SCT010 BKN015"
    },
    {
      "icao": "EDDK",
      "alert": "OK",
      "vis_m": 9000,
      "fzfg": false,
      "metar_trigger": false,
      "taf_trigger": false,
      "metar": "METAR EDDK 131250Z AUTO VRB01KT 9000 -SHRA BKN012 BKN016 FEW///TCU 07/05 Q0992 TEMPO 30005KT RADZ SCT013",
      "taf": "TAF EDDK 131100Z 1312/1418 30005KT 9999 SCT015 OVC020"
    },
    {
      "icao": "EDDN",
      "alert": "OK",
      "vis_m": 9999,
      "fzfg": false,
      "metar_trigger": false,
      "taf_trigger": false,
      "metar": "METAR EDDN 131250Z AUTO 27008KT 9999 BKN034 OVC041 08/02 Q0993 NOSIG",
      "taf": "TAF EDDN 131100Z 1312/1412 25010KT 9999 BKN025"
    },
    {
      "icao": "EDDS",
      "alert": "OK",
      "vis_m": 9999,
      "fzfg": false,
      "metar_trigger": false,
      "taf_trigger": false,
      "metar": "METAR EDDS 131250Z AUTO 23005KT 140V300 9999 FEW021 BKN031 BKN040 08/04 Q0992 NOSIG",
      "taf": "TAF EDDS 131100Z 1312/1412 22006KT 9999 BKN030"
    },
    {
      "icao": "EDFH",
      "alert": "OK",
      "vis_m": 9999,
      "fzfg": false,
      "metar_trigger": false,
      "taf_trigger": false,
      "metar": "METAR EDFH 131250Z 25009KT 9999 FEW009 BKN026 06/04 Q0991",
      "taf": "TAF EDFH 131100Z 1312/1412 25007KT 9999 BKN005"
    },
    {
      "icao": "EDJA",
      "alert": "OK",
      "vis_m": 9999,
      "fzfg": false,
      "metar_trigger": false,
      "taf_trigger": false,
      "metar": "METAR EDJA 131250Z 26008KT 210V290 9999 BKN028 08/01 Q0994",
      "taf": "TAF EDJA 131100Z 1312/1321 24012KT 9999 FEW025"
    },
    {
      "icao": "EDLW",
      "alert": "OK",
      "vis_m": 9999,
      "fzfg": false,
      "metar_trigger": false,
      "taf_trigger": false,
      "metar": "METAR EDLW 131250Z 30004KT 260V360 9999 OVC016 04/01 Q0992",
      "taf": "TAF EDLW 131100Z 1312/1412 30008KT 9999 SCT010 BKN015"
    },
    {
      "icao": "EDNY",
      "alert": "OK",
      "vis_m": 9999,
      "fzfg": false,
      "metar_trigger": false,
      "taf_trigger": false,
      "metar": "METAR EDNY 131250Z 24006KT 200V270 9999 FEW028 09/02 Q0994",
      "taf": "TAF EDNY 131100Z 1312/1321 24007KT 9999 FEW045"
    },
    {
      "icao": "EDSB",
      "alert": "OK",
      "vis_m": 9999,
      "fzfg": false,
      "metar_trigger": false,
      "taf_trigger": false,
      "metar": "METAR EDSB 131250Z 22007KT 190V250 9999 FEW049 10/05 Q0993",
      "taf": "TAF EDSB 131100Z 1312/1412 21010KT 9999 BKN030"
    },
    {
      "icao": "EETN",
      "alert": "OK",
      "vis_m": 9999,
      "fzfg": false,
      "metar_trigger": false,
      "taf_trigger": false,
      "metar": "METAR EETN 131250Z 06011KT CAVOK M09/M14 Q1001 NOSIG",
      "taf": "TAF EETN 131130Z 1312/1412 06014KT CAVOK"
    },
    {
      "icao": "EFTU",
      "alert": "OK",
      "vis_m": 9999,
      "fzfg": false,
      "metar_trigger": false,
      "taf_trigger": false,
      "metar": "METAR EFTU 131250Z AUTO 06006KT 030V090 CAVOK M10/M15 Q1003",
      "taf": "TAF EFTU 131123Z 1312/1412 07005KT CAVOK"
    },
    {
      "icao": "EGBB",
      "alert": "OK",
      "vis_m": 7000,
      "fzfg": false,
      "metar_trigger": false,
      "taf_trigger": false,
      "metar": "METAR EGBB 131250Z 05011KT 7000 -RA BKN007 04/02 Q0993",
      "taf": "TAF EGBB 131057Z 1312/1412 07008KT 9999 BKN014"
    },
    {
      "icao": "EGGP",
      "alert": "OK",
      "vis_m": 9999,
      "fzfg": false,
      "metar_trigger": false,
      "taf_trigger": false,
      "metar": "METAR EGGP 131250Z 04015KT 9999 -RA BKN018 BKN025 03/00 Q0996",
      "taf": "TAF EGGP 131056Z 1312/1412 04012KT 9999 BKN025"
    },
    {
      "icao": "EGGW",
      "alert": "OK",
      "vis_m": 5000,
      "fzfg": false,
      "metar_trigger": false,
      "taf_trigger": false,
      "metar": "METAR EGGW 131250Z AUTO 07008KT 5000 BR OVC003 05/05 Q0991",
      "taf": "TAF EGGW 131108Z 1312/1412 07008KT 4000 BR BKN003"
    },
    {
      "icao": "EGKK",
      "alert": "OK",
      "vis_m": 9999,
      "fzfg": false,
      "metar_trigger": false,
      "taf_trigger": false,
      "metar": "METAR EGKK 131250Z 06009KT 9999 SCT012 09/07 Q0990",
      "taf": "TAF EGKK 131059Z 1312/1418 09006KT 9999 SCT030"
    },
    {
      "icao": "EGNM",
      "alert": "OK",
      "vis_m": 1700,
      "fzfg": false,
      "metar_trigger": false,
      "taf_trigger": false,
      "metar": "METAR EGNM 131250Z 03010KT 1700 -RASN BR OVC003 00/00 Q0996",
      "taf": "TAF EGNM 131055Z 1312/1412 06010KT 9999 BKN005"
    },
    {
      "icao": "EGPD",
      "alert": "OK",
      "vis_m": 9999,
      "fzfg": false,
      "metar_trigger": false,
      "taf_trigger": false,
      "metar": "METAR EGPD 131250Z COR AUTO 31014KT 9999 FEW014 BKN035 BKN045 03/M00 Q1002 NOSIG",
      "taf": "TAF EGPD 131055Z 1312/1412 32005KT 9999 FEW015"
    },
    {
      "icao": "EGPF",
      "alert": "OK",
      "vis_m": 9999,
      "fzfg": false,
      "metar_trigger": false,
      "taf_trigger": false,
      "metar": "METAR EGPF 131250Z AUTO 04011KT 9999 NCD 05/M05 Q1003",
      "taf": "TAF EGPF 131058Z 1312/1412 03010KT 9999 FEW045"
    },
    {
      "icao": "EHBK",
      "alert": "OK",
      "vis_m": 7000,
      "fzfg": false,
      "metar_trigger": false,
      "taf_trigger": false,
      "metar": "METAR EHBK 131255Z AUTO 05009KT 7000 FEW003 BKN005 OVC006 05/05 Q0992 TEMPO 4000 -DZ",
      "taf": "TAF EHBK 131116Z 1312/1418 05003KT 9999 SCT008 BKN016"
    },
    {
      "icao": "EHEH",
      "alert": "OK",
      "vis_m": 9999,
      "fzfg": false,
      "metar_trigger": false,
      "taf_trigger": false,
      "metar": "METAR EHEH 131255Z AUTO 02007KT 350V070 9999 FEW028 OVC040 05/02 Q0993 BLU NOSIG RMK TREND REMOTE BY EHWX",
      "taf": ""
    },
    {
      "icao": "EKBI",
      "alert": "OK",
      "vis_m": 9999,
      "fzfg": false,
      "metar_trigger": false,
      "taf_trigger": false,
      "metar": "METAR EKBI 131250Z AUTO 02011KT 9999 FEW210/// M03/M08 Q0998",
      "taf": "TAF EKBI 131127Z 1312/1412 03010KT 9999 BKN040"
    },
    {
      "icao": "EKCH",
      "alert": "OK",
      "vis_m": 9999,
      "fzfg": false,
      "metar_trigger": false,
      "taf_trigger": false,
      "metar": "METAR EKCH 131250Z AUTO 02010KT 9999 FEW019/// OVC044/// M02/M06 Q0996 NOSIG",
      "taf": "TAF EKCH 131127Z 1312/1412 02015KT 9999 FEW018 BKN035"
    },
    {
      "icao": "ENAL",
      "alert": "OK",
      "vis_m": 9999,
      "fzfg": false,
      "metar_trigger": false,
      "taf_trigger": false,
      "metar": "METAR ENAL 131250Z 17007KT 9999 FEW025CB 01/M07 Q0999",
      "taf": "TAF ENAL 131100Z 1312/1321 14008KT 9999 FEW025"
    },
    {
      "icao": "ENBR",
      "alert": "OK",
      "vis_m": 6000,
      "fzfg": false,
      "metar_trigger": false,
      "taf_trigger": false,
      "metar": "METAR ENBR 131250Z 13011KT 6000 -SHSN FEW003 BKN014 M01/M05 Q0998 TEMPO 1500 -SHSN RMK WIND 1200FT 14022KT",
      "taf": "TAF ENBR 131100Z 1312/1412 14010KT 9999 SCT025 BKN050"
    },
    {
      "icao": "ENGM",
      "alert": "OK",
      "vis_m": 9999,
      "fzfg": false,
      "metar_trigger": false,
      "taf_trigger": false,
      "metar": "METAR ENGM 131250Z 06003KT 010V150 9999 VCSH SCT026 BKN033 M07/M14 Q1002 NOSIG",
      "taf": "TAF ENGM 131100Z 1312/1412 01003KT 9999 FEW020 BKN040"
    },
    {
      "icao": "ENHD",
      "alert": "OK",
      "vis_m": 1000,
      "fzfg": false,
      "metar_trigger": false,
      "taf_trigger": false,
      "metar": "METAR ENHD 131250Z 16012KT 1000 SHSN VV015 M02/M06 Q1000",
      "taf": "TAF ENHD 131100Z 1312/1321 14014KT 9999 FEW008 SCT020CB BKN030"
    },
    {
      "icao": "ENTC",
      "alert": "OK",
      "vis_m": 9999,
      "fzfg": false,
      "metar_trigger": false,
      "taf_trigger": false,
      "metar": "METAR ENTC 131250Z 19014KT 9999 VCSH SCT009 BKN016 M06/M07 Q0995 TEMPO 1200 SHSN VV008 RMK WIND 2600FT 24008KT",
      "taf": ""
    },
    {
      "icao": "ENTO",
      "alert": "OK",
      "vis_m": 9999,
      "fzfg": false,
      "metar_trigger": false,
      "taf_trigger": false,
      "metar": "METAR ENTO 131250Z 01006KT 9999 OVC038 M06/M11 Q1002 NOSIG",
      "taf": ""
    },
    {
      "icao": "ENVA",
      "alert": "OK",
      "vis_m": 9999,
      "fzfg": false,
      "metar_trigger": false,
      "taf_trigger": false,
      "metar": "METAR ENVA 131250Z 09004KT 9999 SCT049 M07/M14 Q1001 NOSIG RMK WIND 670FT 12004KT",
      "taf": "TAF ENVA 131100Z 1312/1412 10008KT CAVOK"
    },
    {
      "icao": "ENZV",
      "alert": "OK",
      "vis_m": 9999,
      "fzfg": false,
      "metar_trigger": false,
      "taf_trigger": false,
      "metar": "METAR ENZV 131250Z 15011KT 9999 BKN031 M01/M10 Q1000 NOSIG",
      "taf": "TAF ENZV 131100Z 1312/1412 16010KT 9999 BKN030"
    },
    {
      "icao": "EPGD",
      "alert": "OK",
      "vis_m": 2400,
      "fzfg": false,
      "metar_trigger": false,
      "taf_trigger": false,
      "metar": "METAR EPGD 131300Z 36010KT 2400 -SN BR BKN005 M01/M02 Q0987",
      "taf": "TAF EPGD 131130Z 1312/1412 01012KT 4000 -SN BR OVC002"
    },
    {
      "icao": "EPKK",
      "alert": "OK",
      "vis_m": 9999,
      "fzfg": false,
      "metar_trigger": false,
      "taf_trigger": false,
      "metar": "METAR EPKK 131300Z 25015KT 9999 FEW024 09/03 Q0990",
      "taf": "TAF EPKK 131130Z 1312/1412 24012KT 9999 BKN030"
    },
    {
      "icao": "EPKT",
      "alert": "OK",
      "vis_m": 9999,
      "fzfg": false,
      "metar_trigger": false,
      "taf_trigger": false,
      "metar": "METAR EPKT 131300Z 23012KT 9999 FEW020TCU BKN030 08/03 Q0990",
      "taf": "TAF EPKT 131130Z 1312/1412 24012KT 9999 BKN030"
    },
    {
      "icao": "EPLB",
      "alert": "OK",
      "vis_m": 9999,
      "fzfg": false,
      "metar_trigger": false,
      "taf_trigger": false,
      "metar": "METAR EPLB 131300Z 23009KT 9999 BKN042 07/03 Q0988",
      "taf": "TAF EPLB 131130Z 1312/1412 25010KT 9999 BKN020"
    },
    {
      "icao": "EPMO",
      "alert": "OK",
      "vis_m": 9999,
      "fzfg": false,
      "metar_trigger": false,
      "taf_trigger": false,
      "metar": "METAR EPMO 131300Z 24014KT 9999 BKN009 03/02 Q0986",
      "taf": "TAF EPMO 131130Z 1312/1412 24011KT 9999 BKN007"
    },
    {
      "icao": "EPPO",
      "alert": "OK",
      "vis_m": 9999,
      "fzfg": false,
      "metar_trigger": false,
      "taf_trigger": false,
      "metar": "METAR EPPO 131300Z 30011KT 9999 OVC007 01/00 Q0989",
      "taf": "TAF EPPO 131130Z 1312/1412 26012KT 9999 OVC007"
    },
    {
      "icao": "EPRA",
      "alert": "OK",
      "vis_m": 9999,
      "fzfg": false,
      "metar_trigger": false,
      "taf_trigger": false,
      "metar": "METAR EPRA 131300Z 26009KT 9999 BKN026 08/03 Q0988",
      "taf": "TAF EPRA 131130Z 1312/1321 23012KT 9999 BKN020"
    },
    {
      "icao": "EPRZ",
      "alert": "OK",
      "vis_m": 9999,
      "fzfg": false,
      "metar_trigger": false,
      "taf_trigger": false,
      "metar": "METAR EPRZ 131300Z 25010KT 9999 FEW036 10/02 Q0990",
      "taf": "TAF EPRZ 131130Z 1312/1412 28014KT 9999 BKN030"
    },
    {
      "icao": "EPSC",
      "alert": "OK",
      "vis_m": 9999,
      "fzfg": false,
      "metar_trigger": false,
      "taf_trigger": false,
      "metar": "METAR EPSC 131300Z 34008KT 9999 SCT004 OVC006 01/00 Q0991",
      "taf": "TAF EPSC 131130Z 1312/1412 35010KT 9999 BKN006"
    },
    {
      "icao": "EPSY",
      "alert": "OK",
      "vis_m": 4000,
      "fzfg": false,
      "metar_trigger": false,
      "taf_trigger": false,
      "metar": "METAR EPSY 131300Z 24009KT 4000 -RA BR OVC002 02/01 Q0984",
      "taf": ""
    },
    {
      "icao": "EPWA",
      "alert": "OK",
      "vis_m": 9999,
      "fzfg": false,
      "metar_trigger": false,
      "taf_trigger": false,
      "metar": "METAR EPWA 131300Z 25011KT 9999 BKN017 BKN028 05/03 Q0987 NOSIG",
      "taf": "TAF EPWA 131130Z 1312/1412 24010KT 9999 BKN011"
    },
    {
      "icao": "EPWR",
      "alert": "OK",
      "vis_m": 9999,
      "fzfg": false,
      "metar_trigger": false,
      "taf_trigger": false,
      "metar": "METAR EPWR 131300Z 27013KT 9999 FEW017 BKN037 08/05 Q0990",
      "taf": "TAF EPWR 131130Z 1312/1412 25010KT 9999 BKN030"
    },
    {
      "icao": "ESGG",
      "alert": "OK",
      "vis_m": 9999,
      "fzfg": false,
      "metar_trigger": false,
      "taf_trigger": false,
      "metar": "METAR ESGG 131250Z 03012KT 9999 -SN BKN038 OVC046 M07/M10 Q0998",
      "taf": "TAF ESGG 131130Z 1312/1412 03010KT 9999 -SN SCT020 BKN040"
    },
    {
      "icao": "ESKN",
      "alert": "OK",
      "vis_m": 9999,
      "fzfg": false,
      "metar_trigger": false,
      "taf_trigger": false,
      "metar": "METAR ESKN 131250Z 02010KT 9999 -SN BKN033 M05/M08 Q1000",
      "taf": "TAF ESKN 131130Z 1312/1412 02010KT 9000 -SN BKN030"
    },
    {
      "icao": "ESMS",
      "alert": "OK",
      "vis_m": 9999,
      "fzfg": false,
      "metar_trigger": false,
      "taf_trigger": false,
      "metar": "METAR ESMS 131250Z 03009KT CAVOK M02/M06 Q0995",
      "taf": "TAF ESMS 131127Z 1312/1412 02010KT 9999 FEW018 BKN045"
    },
    {
      "icao": "ESSA",
      "alert": "OK",
      "vis_m": 9999,
      "fzfg": false,
      "metar_trigger": false,
      "taf_trigger": false,
      "metar": "METAR ESSA 131250Z 08011KT 9999 BKN020 M06/M11 Q1002 TEMPO BKN011",
      "taf": ""
    },
    {
      "icao": "EYKA",
      "alert": "OK",
      "vis_m": 1600,
      "fzfg": false,
      "metar_trigger": false,
      "taf_trigger": false,
      "metar": "METAR EYKA 131250Z VRB02KT 1600 0650E -RA BCFG BR OVC002 02/02 Q0984",
      "taf": "TAF EYKA 131121Z 1312/1412 VRB03KT 3000 -RA BR OVC002"
    },
    {
      "icao": "EYPA",
      "alert": "OK",
      "vis_m": 9999,
      "fzfg": false,
      "metar_trigger": false,
      "taf_trigger": false,
      "metar": "METAR EYPA 131250Z 06015KT 030V090 9999 DRSN FEW015 M03/M07 Q0988",
      "taf": "TAF EYPA 131110Z 1312/1412 05013KT 9000 SCT010 BKN030"
    },
    {
      "icao": "EYVI",
      "alert": "OK",
      "vis_m": 2300,
      "fzfg": false,
      "metar_trigger": false,
      "taf_trigger": false,
      "metar": "METAR EYVI 131250Z 18005KT 140V200 2300 -RA BR OVC001 02/02 Q0984 TEMPO 0800 -DZ FG",
      "taf": ""
    },
    {
      "icao": "GCFV",
      "alert": "OK",
      "vis_m": 9999,
      "fzfg": false,
      "metar_trigger": false,
      "taf_trigger": false,
      "metar": "METAR GCFV 131300Z 34016KT 310V020 9999 BKN040 22/12 Q1024",
      "taf": "TAF GCFV 130800Z 1309/1409 36015KT 9999 BKN030 TX22/1314Z TN16/1406Z"
    },
    {
      "icao": "GCLP",
      "alert": "OK",
      "vis_m": 9999,
      "fzfg": false,
      "metar_trigger": false,
      "taf_trigger": false,
      "metar": "METAR GCLP 131300Z 36021G31KT 9999 SCT030 22/14 Q1024 NOSIG",
      "taf": "TAF GCLP 130800Z 1309/1409 36015KT 9999 SCT025 TX23/1314Z TN17/1406Z"
    },
    {
      "icao": "GCTS",
      "alert": "OK",
      "vis_m": 9999,
      "fzfg": false,
      "metar_trigger": false,
      "taf_trigger": false,
      "metar": "METAR GCTS 131300Z 24015KT 9999 BKN025 21/14 Q1024 NOSIG",
      "taf": "TAF GCTS 130800Z 1309/1409 20007KT 9999 SCT025 TX25/1314Z TN15/1406Z"
    },
    {
      "icao": "GMAD",
      "alert": "OK",
      "vis_m": 8000,
      "fzfg": false,
      "metar_trigger": false,
      "taf_trigger": false,
      "metar": "METAR GMAD 131300Z 25021KT 8000 SCT033 20/14 Q1019 NOSIG",
      "taf": "TAF GMAD 131100Z 1312/1418 28008KT 8000 BKN020"
    },
    {
      "icao": "GMMN",
      "alert": "OK",
      "vis_m": 9999,
      "fzfg": false,
      "metar_trigger": false,
      "taf_trigger": false,
      "metar": "METAR GMMN 131300Z 28022KT 9999 BKN020 17/12 Q1018 NOSIG",
      "taf": "TAF GMMN 131100Z 1312/1418 24016KT 9999 SCT010 BKN020"
    },
    {
      "icao": "GMMX",
      "alert": "OK",
      "vis_m": 9999,
      "fzfg": false,
      "metar_trigger": false,
      "taf_trigger": false,
      "metar": "METAR GMMX 131300Z 24009KT 200V280 9999 BKN023 SCT200 18/12 Q1020 NOSIG",
      "taf": "TAF GMMX 131100Z 1312/1418 24008KT 8000 BKN026"
    },
    {
      "icao": "HEGN",
      "alert": "OK",
      "vis_m": 9999,
      "fzfg": false,
      "metar_trigger": false,
      "taf_trigger": false,
      "metar": "METAR HEGN 131200Z 13010KT CAVOK 26/13 Q1011 NOSIG",
      "taf": "TAF HEGN 131100Z 1312/1418 26010G20KT 6000 FEW025"
    },
    {
      "icao": "HEMA",
      "alert": "OK",
      "vis_m": 9999,
      "fzfg": false,
      "metar_trigger": false,
      "taf_trigger": false,
      "metar": "METAR HEMA 131200Z 12008KT CAVOK 26/02 Q1013 NOSIG",
      "taf": "TAF HEMA 131100Z 1312/1418 25010G20KT 6000 FEW025"
    },
    {
      "icao": "HESH",
      "alert": "OK",
      "vis_m": 9999,
      "fzfg": false,
      "metar_trigger": false,
      "taf_trigger": false,
      "metar": "METAR HESH 131200Z 16013KT CAVOK 25/16 Q1012 NOSIG",
      "taf": "TAF HESH 131100Z 1312/1418 23010G20KT 6000 FEW025"
    },
    {
      "icao": "HESX",
      "alert": "OK",
      "vis_m": 400,
      "fzfg": false,
      "metar_trigger": false,
      "taf_trigger": false,
      "metar": "METAR HESX 131200Z 27022KT 0400 R34 1500 SS NSC 26/04 Q1005 NOSIG",
      "taf": "TAF HESX 131100Z 1312/1418 25015G25KT 6000 NSC"
    },
    {
      "icao": "LATI",
      "alert": "OK",
      "vis_m": 9999,
      "fzfg": false,
      "metar_trigger": false,
      "taf_trigger": false,
      "metar": "METAR LATI 131250Z 34010KT 9999 FEW030 SCT060 BKN080 16/09 Q0991 NOSIG",
      "taf": "TAF LATI 131100Z 1312/1412 33008KT 9999 SCT030 TX17/1313Z TN08/1405Z"
    },
    {
      "icao": "LBPD",
      "alert": "OK",
      "vis_m": 9999,
      "fzfg": false,
      "metar_trigger": false,
      "taf_trigger": false,
      "metar": "METAR LBPD 131300Z AUTO 29006KT 9999 -RA BKN036/// OVC045/// 08/08 Q0990 BECMG 2500 RA",
      "taf": "TAF LBPD 131100Z 1312/1412 29008KT 5000 RA BKN012 OVC020"
    },
    {
      "icao": "LBSF",
      "alert": "OK",
      "vis_m": 9999,
      "fzfg": false,
      "metar_trigger": false,
      "taf_trigger": false,
      "metar": "METAR LBSF 131300Z 05009KT 9999 FEW028 BKN032 OVC050 08/04 Q0991 TEMPO 4000 BR",
      "taf": "TAF LBSF 131100Z 1312/1412 VRB04KT 7000 SCT012 BKN030"
    },
    {
      "icao": "LBWN",
      "alert": "OK",
      "vis_m": 8000,
      "fzfg": false,
      "metar_trigger": false,
      "taf_trigger": false,
      "metar": "METAR LBWN 131300Z 32005KT 260V030 8000 -RA BKN011 BKN016 OVC024 09/09 Q0989 RERA TEMPO 1500 RA BR",
      "taf": "TAF LBWN 131100Z 1312/1412 VRB04KT 3000 RA BR BKN005 OVC025"
    },
    {
      "icao": "LCLK",
      "alert": "OK",
      "vis_m": 7000,
      "fzfg": false,
      "metar_trigger": false,
      "taf_trigger": false,
      "metar": "METAR LCLK 131300Z 21014KT 7000 -RA FEW012 BKN040 14/14 Q1001 NOSIG",
      "taf": "TAF LCLK 131130Z 1312/1412 22022KT 9999 FEW020 SCT035"
    },
    {
      "icao": "LCPH",
      "alert": "OK",
      "vis_m": 9999,
      "fzfg": false,
      "metar_trigger": false,
      "taf_trigger": false,
      "metar": "METAR LCPH 131300Z 23012KT 170V240 9999 FEW025 FEW030CB BKN040 17/13 Q1001 TEMPO 2000 TSRA SCT025CB",
      "taf": "TAF LCPH 131130Z 1312/1412 22022KT 9999 FEW020 SCT035"
    },
    {
      "icao": "LEAL",
      "alert": "OK",
      "vis_m": 9999,
      "fzfg": false,
      "metar_trigger": false,
      "taf_trigger": false,
      "metar": "METAR LEAL 131300Z 26023G37KT 230V290 9999 SCT066 20/05 Q0995 NOSIG",
      "taf": "TAF LEAL 131100Z 1312/1412 27015KT 9999 FEW030 TX20/1313Z TN10/1406Z"
    },
    {
      "icao": "LEBB",
      "alert": "OK",
      "vis_m": 9999,
      "fzfg": false,
      "metar_trigger": false,
      "taf_trigger": false,
      "metar": "METAR LEBB 131300Z 29007KT 260V320 9999 -RA FEW028 BKN045 BKN060 12/10 Q0989 NOSIG",
      "taf": "TAF LEBB 131100Z 1312/1412 30019KT 9999 SCT020 BKN030 TX11/1312Z TN08/1407Z"
    },
    {
      "icao": "LEBL",
      "alert": "OK",
      "vis_m": 3000,
      "fzfg": false,
      "metar_trigger": false,
      "taf_trigger": false,
      "metar": "SPECI LEBL 131308Z 06005KT 3000 SHRA BR FEW005 FEW010TCU SCT015 BKN025 11/11 Q0988 BECMG NSW",
      "taf": "TAF LEBL 131100Z 1312/1412 18008KT 9999 BKN040 TX17/1312Z TN09/1406Z"
    },
    {
      "icao": "LECH",
      "alert": "OK",
      "vis_m": 9000,
      "fzfg": false,
      "metar_trigger": false,
      "taf_trigger": false,
      "metar": "METAR LECH 131300Z AUTO 25020G32KT 220V290 9000 NSC 16/05 Q0988",
      "taf": ""
    },
    {
      "icao": "LEMD",
      "alert": "OK",
      "vis_m": 9999,
      "fzfg": false,
      "metar_trigger": false,
      "taf_trigger": false,
      "metar": "METAR LEMD 131300Z 26019G31KT 220V280 9999 FEW042 SCT050 11/04 Q0994 NOSIG",
      "taf": "TAF LEMD 131100Z 1312/1418 27015KT 9999 SCT035 TX12/1315Z TN04/1405Z"
    },
    {
      "icao": "LEMG",
      "alert": "OK",
      "vis_m": 9999,
      "fzfg": false,
      "metar_trigger": false,
      "taf_trigger": false,
      "metar": "METAR LEMG 131300Z 28018KT 210V320 9999 SCT068 18/06 Q1006 NOSIG",
      "taf": "TAF LEMG 131100Z 1312/1412 30018KT 9999 SCT035 TX22/1314Z TN12/1406Z"
    },
    {
      "icao": "LEVC",
      "alert": "OK",
      "vis_m": 9999,
      "fzfg": false,
      "metar_trigger": false,
      "taf_trigger": false,
      "metar": "METAR LEVC 131300Z 27021G33KT 240V310 9999 BKN051 18/06 Q0991 NOSIG",
      "taf": "TAF LEVC 131100Z 1312/1412 26015KT 9999 FEW040 TX19/1314Z TN11/1406Z"
    },
    {
      "icao": "LEXJ",
      "alert": "OK",
      "vis_m": 9000,
      "fzfg": false,
      "metar_trigger": false,
      "taf_trigger": false,
      "metar": "METAR LEXJ 131300Z 28023G35KT 250V320 9000 BKN032TCU OVC050 13/07 Q0989",
      "taf": ""
    },
    {
      "icao": "LEZG",
      "alert": "OK",
      "vis_m": 9999,
      "fzfg": false,
      "metar_trigger": false,
      "taf_trigger": false,
      "metar": "METAR LEZG 131300Z 08005KT 050V110 9999 BKN009 BKN050 10/09 Q0989 NOSIG",
      "taf": "TAF LEZG 131100Z 1312/1412 11010KT 9999 FEW020 TX13/1312Z TN06/1406Z"
    },
    {
      "icao": "LEZL",
      "alert": "OK",
      "vis_m": 9999,
      "fzfg": false,
      "metar_trigger": false,
      "taf_trigger": false,
      "metar": "METAR LEZL 131300Z 28016KT 9999 FEW045 16/10 Q1007 NOSIG",
      "taf": "TAF LEZL 130800Z 1309/1409 27016KT 9999 FEW025 TX20/1315Z TN14/1407Z"
    },
    {
      "icao": "LFBD",
      "alert": "OK",
      "vis_m": 9999,
      "fzfg": false,
      "metar_trigger": false,
      "taf_trigger": false,
      "metar": "METAR LFBD 131300Z AUTO 13006KT 9999 -RA BKN047 OVC056 10/08 Q0988 TEMPO 4000 -RA BKN010",
      "taf": "TAF LFBD 131100Z 1312/1418 16010KT CAVOK TX12/1314Z TN06/1418Z"
    },
    {
      "icao": "LFLL",
      "alert": "OK",
      "vis_m": 9999,
      "fzfg": false,
      "metar_trigger": false,
      "taf_trigger": false,
      "metar": "METAR LFLL 131300Z 17009KT 140V200 CAVOK 12/03 Q0991 NOSIG",
      "taf": "TAF LFLL 131100Z 1312/1418 18010KT CAVOK"
    },
    {
      "icao": "LFLS",
      "alert": "OK",
      "vis_m": 9999,
      "fzfg": false,
      "metar_trigger": false,
      "taf_trigger": false,
      "metar": "METAR LFLS 131300Z AUTO 22005KT CAVOK 10/03 Q0992 NOSIG",
      "taf": "TAF LFLS 130800Z 1309/1409 VRB03KT CAVOK"
    },
    {
      "icao": "LFMN",
      "alert": "OK",
      "vis_m": 9999,
      "fzfg": false,
      "metar_trigger": false,
      "taf_trigger": false,
      "metar": "METAR LFMN 131300Z VRB02KT CAVOK 15/05 Q0994 NOSIG",
      "taf": "TAF LFMN 130800Z 1309/1415 35005KT CAVOK"
    },
    {
      "icao": "LFOB",
      "alert": "OK",
      "vis_m": 9999,
      "fzfg": false,
      "metar_trigger": false,
      "taf_trigger": false,
      "metar": "METAR LFOB 131300Z AUTO 11006KT 9999 BKN010 OVC016 09/08 Q0990 TEMPO 3000 RA BKN006 BKN012TCU",
      "taf": "TAF LFOB 131100Z 1312/1412 13007KT 9999 BKN020"
    },
    {
      "icao": "LFPO",
      "alert": "OK",
      "vis_m": 7000,
      "fzfg": false,
      "metar_trigger": false,
      "taf_trigger": false,
      "metar": "METAR LFPO 131300Z 17004KT 7000 -RA BKN007 BKN020 09/08 Q0990 NOSIG",
      "taf": "TAF LFPO 131100Z 1312/1418 15005KT 6000 BKN008"
    },
    {
      "icao": "LFSB",
      "alert": "OK",
      "vis_m": 9999,
      "fzfg": false,
      "metar_trigger": false,
      "taf_trigger": false,
      "metar": "METAR LFSB 131300Z AUTO VRB02KT CAVOK 12/02 Q0992 NOSIG",
      "taf": "TAF LFSB 131100Z 1312/1412 09004KT 9999 FEW030 BKN100"
    },
    {
      "icao": "LGAV",
      "alert": "OK",
      "vis_m": 9999,
      "fzfg": false,
      "metar_trigger": false,
      "taf_trigger": false,
      "metar": "METAR LGAV 131220Z 26013KT 230V300 9999 SCT020 SCT060 17/08 Q0988 NOSIG",
      "taf": "TAF LGAV 131100Z 1312/1412 28012KT 9999 SCT025 SCT070"
    },
    {
      "icao": "LGTS",
      "alert": "OK",
      "vis_m": 9999,
      "fzfg": false,
      "metar_trigger": false,
      "taf_trigger": false,
      "metar": "METAR LGTS 131250Z VRB02KT 9999 FEW008 SCT030 15/10 Q0988 NOSIG",
      "taf": "TAF LGTS 131100Z 1312/1412 VRB03KT 9999 SCT025"
    },
    {
      "icao": "LHBP",
      "alert": "OK",
      "vis_m": 9999,
      "fzfg": false,
      "metar_trigger": false,
      "taf_trigger": false,
      "metar": "METAR LHBP 131300Z 30014KT 9999 BKN046 12/04 Q0993 NOSIG",
      "taf": "TAF LHBP 131115Z 1312/1412 31011G21KT 9999 SCT035"
    },
    {
      "icao": "LHDC",
      "alert": "OK",
      "vis_m": 9999,
      "fzfg": false,
      "metar_trigger": false,
      "taf_trigger": false,
      "metar": "METAR LHDC 131245Z AUTO 28005KT 230V350 9999 FEW028 12/06 Q0992 NOSIG",
      "taf": "TAF LHDC 131115Z 1312/1321 28005KT 9999 BKN018"
    },
    {
      "icao": "LIBD",
      "alert": "OK",
      "vis_m": 9999,
      "fzfg": false,
      "metar_trigger": false,
      "taf_trigger": false,
      "metar": "METAR LIBD 131250Z 28012KT 9999 -DZ VCSH FEW010 BKN025 13/11 Q0994",
      "taf": "TAF LIBD 131100Z 1312/1412 29016KT 9999 SCT030"
    },
    {
      "icao": "LIBG",
      "alert": "OK",
      "vis_m": 9999,
      "fzfg": false,
      "metar_trigger": false,
      "taf_trigger": false,
      "metar": "METAR LIBG 131250Z 31012KT 9999 SCT020 15/08 Q0993",
      "taf": "TAF LIBG 131100Z 1312/1321 30011KT 9999 BKN025"
    },
    {
      "icao": "LIBP",
      "alert": "OK",
      "vis_m": 9999,
      "fzfg": false,
      "metar_trigger": false,
      "taf_trigger": false,
      "metar": "METAR LIBP 131250Z AUTO VRB02KT 9999 NCD 19/05 Q0995",
      "taf": "TAF LIBP 131100Z 1312/1412 VRB05KT 9999 SCT050"
    },
    {
      "icao": "LIBR",
      "alert": "OK",
      "vis_m": 5000,
      "fzfg": false,
      "metar_trigger": false,
      "taf_trigger": false,
      "metar": "METAR LIBR 131250Z 32024KT 5000 -RA BR SCT015 13/11 Q0993",
      "taf": "TAF LIBR 131100Z 1312/1412 30020KT 9999 FEW020"
    },
    {
      "icao": "LICA",
      "alert": "OK",
      "vis_m": 9999,
      "fzfg": false,
      "metar_trigger": false,
      "taf_trigger": false,
      "metar": "METAR LICA 131250Z AUTO 26022KT 9999 BKN024/// 16/12 Q0997",
      "taf": "TAF LICA 131100Z 1312/1412 17020G30KT 9999 SCT020 SCT060"
    },
    {
      "icao": "LICC",
      "alert": "OK",
      "vis_m": 9999,
      "fzfg": false,
      "metar_trigger": false,
      "taf_trigger": false,
      "metar": "METAR LICC 131250Z 28018KT 9999 FEW030 19/14 Q0999",
      "taf": "TAF LICC 131100Z 1312/1412 28025G35KT 9999 FEW030"
    },
    {
      "icao": "LICJ",
      "alert": "OK",
      "vis_m": 9999,
      "fzfg": false,
      "metar_trigger": false,
      "taf_trigger": false,
      "metar": "METAR LICJ 131250Z 25014KT CAVOK 16/11 Q1001",
      "taf": "TAF LICJ 131100Z 1312/1412 25025G35KT 9999 FEW030"
    },
    {
      "icao": "LIMC",
      "alert": "OK",
      "vis_m": 9999,
      "fzfg": false,
      "metar_trigger": false,
      "taf_trigger": false,
      "metar": "METAR LIMC 131250Z 11003KT 020V160 CAVOK 16/M05 Q0993 NOSIG",
      "taf": "TAF LIMC 131100Z 1312/1418 VRB05KT CAVOK"
    },
    {
      "icao": "LIME",
      "alert": "OK",
      "vis_m": 9999,
      "fzfg": false,
      "metar_trigger": false,
      "taf_trigger": false,
      "metar": "METAR LIME 131250Z 11005KT 070V150 CAVOK 15/01 Q0994 NOSIG",
      "taf": "TAF LIME 131100Z 1312/1412 VRB06KT CAVOK"
    },
    {
      "icao": "LIMF",
      "alert": "OK",
      "vis_m": 9999,
      "fzfg": false,
      "metar_trigger": false,
      "taf_trigger": false,
      "metar": "METAR LIMF 131250Z 07005KT CAVOK 15/01 Q0993",
      "taf": "TAF LIMF 131100Z 1312/1412 07006KT CAVOK"
    },
    {
      "icao": "LIMJ",
      "alert": "OK",
      "vis_m": 9999,
      "fzfg": false,
      "metar_trigger": false,
      "taf_trigger": false,
      "metar": "METAR LIMJ 131250Z 12017KT CAVOK 15/09 Q0995",
      "taf": "TAF LIMJ 131100Z 1312/1412 13018KT 9999 SCT025"
    },
    {
      "icao": "LIPE",
      "alert": "OK",
      "vis_m": 9999,
      "fzfg": false,
      "metar_trigger": false,
      "taf_trigger": false,
      "metar": "METAR LIPE 131250Z 05004KT 010V100 CAVOK 15/07 Q0994",
      "taf": "TAF LIPE 131100Z 1312/1412 VRB05KT CAVOK"
    },
    {
      "icao": "LIPH",
      "alert": "OK",
      "vis_m": 9999,
      "fzfg": false,
      "metar_trigger": false,
      "taf_trigger": false,
      "metar": "METAR LIPH 131250Z 15007KT 130V190 9999 FEW030 11/09 Q0995",
      "taf": "TAF LIPH 131100Z 1312/1412 VRB05KT 6000 FEW020"
    },
    {
      "icao": "LIPQ",
      "alert": "OK",
      "vis_m": 9999,
      "fzfg": false,
      "metar_trigger": false,
      "taf_trigger": false,
      "metar": "METAR LIPQ 131250Z AUTO VRB03KT 9999 OVC004/// 10/10 Q0994",
      "taf": "TAF LIPQ 131100Z 1312/1412 VRB05KT 7000 BKN010"
    },
    {
      "icao": "LIPR",
      "alert": "OK",
      "vis_m": 9999,
      "fzfg": false,
      "metar_trigger": false,
      "taf_trigger": false,
      "metar": "METAR LIPR 131250Z 08006KT 030V120 CAVOK 11/07 Q0995",
      "taf": "TAF LIPR 131100Z 1312/1412 VRB05KT CAVOK"
    },
    {
      "icao": "LIPX",
      "alert": "OK",
      "vis_m": 8000,
      "fzfg": false,
      "metar_trigger": false,
      "taf_trigger": false,
      "metar": "METAR LIPX 131250Z 13004KT 090V220 8000 NSC 11/08 Q0994",
      "taf": "TAF LIPX 131100Z 1312/1412 VRB05KT 9999 FEW010"
    },
    {
      "icao": "LIPY",
      "alert": "OK",
      "vis_m": 9999,
      "fzfg": false,
      "metar_trigger": false,
      "taf_trigger": false,
      "metar": "METAR LIPY 131250Z AUTO 04007KT 9999 NCD 13/08 Q0995",
      "taf": "TAF LIPY 131100Z 1312/1412 VRB05KT 9999 FEW040"
    },
    {
      "icao": "LIPZ",
      "alert": "OK",
      "vis_m": 200,
      "fzfg": false,
      "metar_trigger": false,
      "taf_trigger": false,
      "metar": "METAR LIPZ 131250Z VRB02KT 0200 R04R/0550N FG VV001 07/07 Q0995 BECMG 0500 FG",
      "taf": ""
    },
    {
      "icao": "LIRF",
      "alert": "OK",
      "vis_m": 9999,
      "fzfg": false,
      "metar_trigger": false,
      "taf_trigger": false,
      "metar": "METAR LIRF 131250Z 28008KT 250V310 CAVOK 16/11 Q0996 NOSIG",
      "taf": "TAF LIRF 131100Z 1312/1418 27010KT CAVOK"
    },
    {
      "icao": "LIRN",
      "alert": "OK",
      "vis_m": 9999,
      "fzfg": false,
      "metar_trigger": false,
      "taf_trigger": false,
      "metar": "METAR LIRN 131250Z 21004KT 130V270 CAVOK 17/08 Q0996 NOSIG",
      "taf": "TAF LIRN 131100Z 1312/1412 VRB05KT CAVOK"
    },
    {
      "icao": "LIRP",
      "alert": "OK",
      "vis_m": 9999,
      "fzfg": false,
      "metar_trigger": false,
      "taf_trigger": false,
      "metar": "METAR LIRP 131245Z 28011KT 9999 SCT025 15/09 Q0996 NOSIG",
      "taf": "TAF LIRP 131100Z 1312/1412 30008KT 9999 SCT025"
    },
    {
      "icao": "LIRZ",
      "alert": "OK",
      "vis_m": 9999,
      "fzfg": false,
      "metar_trigger": false,
      "taf_trigger": false,
      "metar": "METAR LIRZ 131250Z AUTO VRB02KT 9999 NCD 14/09 Q0996",
      "taf": "TAF LIRZ 131100Z 1312/1412 VRB05KT 9999 FEW030"
    },
    {
      "icao": "LJLJ",
      "alert": "OK",
      "vis_m": 9999,
      "fzfg": false,
      "metar_trigger": false,
      "taf_trigger": false,
      "metar": "METAR LJLJ 131300Z 08004KT 060V120 9999 FEW030 SCT250 10/06 Q0994 NOSIG",
      "taf": "TAF LJLJ 131100Z 1312/1412 VRB02KT 9999 SCT010"
    },
    {
      "icao": "LKMT",
      "alert": "OK",
      "vis_m": 9999,
      "fzfg": false,
      "metar_trigger": false,
      "taf_trigger": false,
      "metar": "METAR LKMT 131300Z 22014KT 9999 FEW020 08/05 Q0991 NOSIG",
      "taf": "TAF LKMT 131100Z 1312/1412 23013KT 9999 SCT035 BKN040"
    },
    {
      "icao": "LKPR",
      "alert": "OK",
      "vis_m": 9999,
      "fzfg": false,
      "metar_trigger": false,
      "taf_trigger": false,
      "metar": "METAR LKPR 131300Z 23017KT 9999 FEW017 SCT031 07/04 Q0991 NOSIG",
      "taf": "TAF LKPR 131100Z 1312/1418 21016KT 9999 SCT023"
    },
    {
      "icao": "LLBG",
      "alert": "OK",
      "vis_m": 8000,
      "fzfg": false,
      "metar_trigger": false,
      "taf_trigger": false,
      "metar": "METAR LLBG 131250Z 20018KT 8000 NSC 28/03 Q1004 TEMPO 21025G35KT 4000 DU",
      "taf": "TAF LLBG 131108Z 1312/1412 19018KT 7000 NSC"
    },
    {
      "icao": "LMML",
      "alert": "OK",
      "vis_m": 9999,
      "fzfg": false,
      "metar_trigger": false,
      "taf_trigger": false,
      "metar": "METAR LMML 131245Z 26024G34KT 9999 FEW026 17/10 Q1003 NOSIG",
      "taf": "TAF LMML 131100Z 1312/1412 28025G35KT 9999 FEW020"
    },
    {
      "icao": "LOWW",
      "alert": "OK",
      "vis_m": 9999,
      "fzfg": false,
      "metar_trigger": false,
      "taf_trigger": false,
      "metar": "METAR LOWW 131250Z 30016KT CAVOK 13/01 Q0994 NOSIG",
      "taf": "TAF LOWW 131115Z 1312/1418 27013KT 9999 FEW050 TX11/1314Z TN02/1404Z"
    },
    {
      "icao": "LPFR",
      "alert": "OK",
      "vis_m": 9999,
      "fzfg": false,
      "metar_trigger": false,
      "taf_trigger": false,
      "metar": "METAR LPFR 131300Z 27023KT 9999 FEW018 FEW020TCU 15/09 Q1009",
      "taf": "TAF LPFR 131100Z 1312/1412 28020KT 9999 SCT020"
    },
    {
      "icao": "LPMA",
      "alert": "OK",
      "vis_m": 9999,
      "fzfg": false,
      "metar_trigger": false,
      "taf_trigger": false,
      "metar": "METAR LPMA 131300Z 36016G26KT 310V040 9999 SCT016 19/09 Q1026",
      "taf": "TAF LPMA 131100Z 1312/1412 34012KT 9999 SCT015"
    },
    {
      "icao": "LPPR",
      "alert": "OK",
      "vis_m": 9999,
      "fzfg": false,
      "metar_trigger": false,
      "taf_trigger": false,
      "metar": "METAR LPPR 131300Z 31017KT 9999 VCSH FEW020CB BKN027 14/08 Q1003",
      "taf": "TAF LPPR 131100Z 1312/1412 31015G25KT 9999 SCT020"
    },
    {
      "icao": "LPPS",
      "alert": "OK",
      "vis_m": 9999,
      "fzfg": false,
      "metar_trigger": false,
      "taf_trigger": false,
      "metar": "METAR LPPS 131300Z 33021KT 9999 FEW015 18/10 Q1026",
      "taf": "TAF LPPS 131100Z 1312/1418 32018KT 9999 SCT015"
    },
    {
      "icao": "LPPT",
      "alert": "OK",
      "vis_m": 9999,
      "fzfg": false,
      "metar_trigger": false,
      "taf_trigger": false,
      "metar": "METAR LPPT 131300Z 28010G20KT 250V330 9999 FEW014 SCT020 13/10 Q1008",
      "taf": "TAF LPPT 131100Z 1312/1418 29018G30KT 9999 SCT025"
    },
    {
      "icao": "LQBK",
      "alert": "OK",
      "vis_m": 9999,
      "fzfg": false,
      "metar_trigger": false,
      "taf_trigger": false,
      "metar": "METAR LQBK 131300Z VRB04KT 9999 SCT040 15/05 Q0995 NOSIG",
      "taf": "TAF LQBK 131100Z 1312/1412 18005KT 9999 FEW030 TX15/1313Z TN01/1405Z"
    },
    {
      "icao": "LQSA",
      "alert": "OK",
      "vis_m": 9999,
      "fzfg": false,
      "metar_trigger": false,
      "taf_trigger": false,
      "metar": "METAR LQSA 131300Z 29008KT 9999 -RA FEW025 BKN040 08/06 Q0996 NOSIG",
      "taf": "TAF LQSA 131100Z 1312/1412 33005KT 9999 SCT025 BKN035 TX12/1412Z TN01/1404Z"
    },
    {
      "icao": "LQTZ",
      "alert": "OK",
      "vis_m": 9999,
      "fzfg": false,
      "metar_trigger": false,
      "taf_trigger": false,
      "metar": "METAR LQTZ 131300Z 26004KT 220V290 9999 SCT020 BKN040 11/06 Q0995",
      "taf": "TAF LQTZ 131100Z 1312/1412 30005KT 9999 SCT030 BKN040 TX12/1412Z TN02/1405Z"
    },
    {
      "icao": "LRBC",
      "alert": "OK",
      "vis_m": 9999,
      "fzfg": false,
      "metar_trigger": false,
      "taf_trigger": false,
      "metar": "METAR LRBC 131300Z 21004KT 170V230 9999 FEW003 07/07 Q0991",
      "taf": "TAF LRBC 131100Z 1312/1321 17006KT 5000 BR OVC002"
    },
    {
      "icao": "LRBS",
      "alert": "OK",
      "vis_m": 9000,
      "fzfg": false,
      "metar_trigger": false,
      "taf_trigger": false,
      "metar": "METAR LRBS 131300Z VRB02KT 9000 FEW007 BKN010 OVC016 07/07 Q0992 NOSIG",
      "taf": "TAF LRBS 131100Z 1312/1412 VRB04KT 7000 BKN005"
    },
    {
      "icao": "LRBV",
      "alert": "OK",
      "vis_m": 9999,
      "fzfg": false,
      "metar_trigger": false,
      "taf_trigger": false,
      "metar": "METAR LRBV 131300Z 31006KT CAVOK 10/03 Q0991",
      "taf": "TAF LRBV 131100Z 1312/1321 VRB04KT CAVOK"
    },
    {
      "icao": "LRCL",
      "alert": "OK",
      "vis_m": 9999,
      "fzfg": false,
      "metar_trigger": false,
      "taf_trigger": false,
      "metar": "METAR LRCL 131300Z 05004KT 010V090 9999 SCT048 BKN060 13/04 Q0991",
      "taf": "TAF LRCL 131100Z 1312/1321 VRB04KT 9999 BKN060"
    },
    {
      "icao": "LRCV",
      "alert": "OK",
      "vis_m": 2000,
      "fzfg": false,
      "metar_trigger": false,
      "taf_trigger": false,
      "metar": "METAR LRCV 131300Z 24006KT 2000 BR BKN003 OVC012 06/06 Q0992",
      "taf": "TAF LRCV 131100Z 1312/1321 28006KT 0800 FG BKN002 OVC010"
    },
    {
      "icao": "LRIA",
      "alert": "OK",
      "vis_m": 400,
      "fzfg": false,
      "metar_trigger": false,
      "taf_trigger": false,
      "metar": "METAR LRIA 131300Z 06003KT 0400 R14/1000U FG BKN001 05/05 Q0992",
      "taf": "TAF LRIA 131100Z 1312/1321 11006KT 0150 FG VV001"
    },
    {
      "icao": "LROP",
      "alert": "OK",
      "vis_m": 9999,
      "fzfg": false,
      "metar_trigger": false,
      "taf_trigger": false,
      "metar": "METAR LROP 131300Z 27003KT 240V310 9999 SCT006 OVC017 07/07 Q0992 NOSIG",
      "taf": "TAF LROP 131100Z 1312/1412 VRB04KT 7000 BKN005"
    },
    {
      "icao": "LRSB",
      "alert": "OK",
      "vis_m": 9999,
      "fzfg": false,
      "metar_trigger": false,
      "taf_trigger": false,
      "metar": "METAR LRSB 131300Z 33007KT 300V360 9999 SCT062 12/03 Q0991",
      "taf": "TAF LRSB 131100Z 1312/1412 32008KT 9999 SCT055"
    },
    {
      "icao": "LRSM",
      "alert": "OK",
      "vis_m": 9999,
      "fzfg": false,
      "metar_trigger": false,
      "taf_trigger": false,
      "metar": "METAR LRSM 131300Z 26009KT 9999 OVC025 11/07 Q0991",
      "taf": "TAF LRSM 131100Z 1312/1321 23006KT 9999 BKN030"
    },
    {
      "icao": "LRSV",
      "alert": "OK",
      "vis_m": 9999,
      "fzfg": false,
      "metar_trigger": false,
      "taf_trigger": false,
      "metar": "METAR LRSV 131300Z 06006KT CAVOK 05/04 Q0990",
      "taf": "TAF LRSV 131100Z 1312/1321 VRB04KT CAVOK"
    },
    {
      "icao": "LRTM",
      "alert": "OK",
      "vis_m": 9999,
      "fzfg": false,
      "metar_trigger": false,
      "taf_trigger": false,
      "metar": "METAR LRTM 131300Z COR 16003KT 090V220 CAVOK 12/04 Q0991",
      "taf": "TAF LRTM 131100Z 1312/1321 VRB04KT CAVOK"
    },
    {
      "icao": "LRTR",
      "alert": "OK",
      "vis_m": 9999,
      "fzfg": false,
      "metar_trigger": false,
      "taf_trigger": false,
      "metar": "METAR LRTR 131300Z 31006KT 270V350 9999 FEW025 12/07 Q0993 NOSIG",
      "taf": "TAF LRTR 131100Z 1312/1412 30006KT 9999 SCT030"
    },
    {
      "icao": "LTAC",
      "alert": "OK",
      "vis_m": 9999,
      "fzfg": false,
      "metar_trigger": false,
      "taf_trigger": false,
      "metar": "METAR LTAC 131250Z 23013KT 9999 -SHRA FEW015 BKN030 BKN080 09/07 Q0992 RESHRA NOSIG RMK RWY21C 23015KT RWY03L 23011KT RWY21R 22014KT RWY03R 21011KT RWY21L 23016KT",
      "taf": "TAF LTAC 131040Z 1312/1412 21015KT 9999 SCT040 BKN100"
    },
    {
      "icao": "LTFM",
      "alert": "OK",
      "vis_m": 9999,
      "fzfg": false,
      "metar_trigger": false,
      "taf_trigger": false,
      "metar": "METAR LTFM 131250Z 18010KT 9999 SCT035 BKN080 14/09 Q0988 NOSIG RMK RWY17L 18011KT RWY34L 17008KT RWY16R 18007KT RWY36 18009KT RWY18 18008KT",
      "taf": "TAF LTFM 131040Z 1312/1418 14008KT 9999 SCT032 BKN080"
    },
    {
      "icao": "LUKK",
      "alert": "OK",
      "vis_m": 9999,
      "fzfg": false,
      "metar_trigger": false,
      "taf_trigger": false,
      "metar": "METAR LUKK 131300Z 09005KT 9999 OVC003 04/04 Q0992 TEMPO 1000 BR",
      "taf": "TAF LUKK 131123Z 1312/1412 VRB05KT 4000 BR OVC002"
    },
    {
      "icao": "LWOH",
      "alert": "OK",
      "vis_m": 9999,
      "fzfg": false,
      "metar_trigger": false,
      "taf_trigger": false,
      "metar": "METAR LWOH 131250Z 12005KT 9999 FEW015 BKN040 09/07 Q0990",
      "taf": "TAF LWOH 131120Z 1312/1412 15008KT 9999 FEW015 SCT040"
    },
    {
      "icao": "LWSK",
      "alert": "OK",
      "vis_m": 9999,
      "fzfg": false,
      "metar_trigger": false,
      "taf_trigger": false,
      "metar": "METAR LWSK 131250Z 34011KT 290V360 9999 FEW045 BKN075 15/06 Q0990 NOSIG",
      "taf": "TAF LWSK 131120Z 1312/1412 36010KT 9999 SCT045 BKN080"
    },
    {
      "icao": "LYBE",
      "alert": "OK",
      "vis_m": 9999,
      "fzfg": false,
      "metar_trigger": false,
      "taf_trigger": false,
      "metar": "METAR LYBE 131300Z VRB02KT CAVOK 11/06 Q0994 NOSIG",
      "taf": "TAF LYBE 131100Z 1312/1412 33008KT 9999 SCT045 TX14/1412Z TN03/1406Z"
    },
    {
      "icao": "LYNI",
      "alert": "OK",
      "vis_m": 9999,
      "fzfg": false,
      "metar_trigger": false,
      "taf_trigger": false,
      "metar": "METAR LYNI 131300Z 33011KT 9999 FEW040 BKN073 11/05 Q0992 NOSIG",
      "taf": "TAF LYNI 131100Z 1312/1412 35010KT 9999 BKN070 TX13/1412Z TN02/1406Z"
    },
    {
      "icao": "LYPG",
      "alert": "OK",
      "vis_m": 9999,
      "fzfg": false,
      "metar_trigger": false,
      "taf_trigger": false,
      "metar": "METAR LYPG 131300Z 13003KT 100V160 9999 FEW040 SCT090 15/10 Q0991 NOSIG",
      "taf": ""
    },
    {
      "icao": "LZIB",
      "alert": "OK",
      "vis_m": 9999,
      "fzfg": false,
      "metar_trigger": false,
      "taf_trigger": false,
      "metar": "METAR LZIB 131300Z 28023KT 9999 FEW038 12/02 Q0993 NOSIG",
      "taf": "TAF LZIB 131115Z 1312/1412 28015KT 9999 FEW030"
    },
    {
      "icao": "LZKZ",
      "alert": "OK",
      "vis_m": 9999,
      "fzfg": false,
      "metar_trigger": false,
      "taf_trigger": false,
      "metar": "METAR LZKZ 131300Z VRB01KT 9999 BKN046 11/06 Q0991 NOSIG",
      "taf": "TAF LZKZ 131115Z 1312/1412 20005KT 9999 SCT010 SCT040"
    },
    {
      "icao": "LZTT",
      "alert": "OK",
      "vis_m": 9999,
      "fzfg": false,
      "metar_trigger": false,
      "taf_trigger": false,
      "metar": "METAR LZTT 131300Z 27017KT 9999 FEW026 08/01 Q0990 NOSIG",
      "taf": "TAF LZTT 131115Z 1312/1412 28017KT 9999 FEW020 SCT045"
    },
    {
      "icao": "OEJN",
      "alert": "OK",
      "vis_m": 9999,
      "fzfg": false,
      "metar_trigger": false,
      "taf_trigger": false,
      "metar": "METAR OEJN 131300Z 27009KT CAVOK 29/17 Q1011 NOSIG",
      "taf": "TAF OEJN 131100Z 1312/1418 30010KT CAVOK"
    },
    {
      "icao": "OEMA",
      "alert": "OK",
      "vis_m": 9999,
      "fzfg": false,
      "metar_trigger": false,
      "taf_trigger": false,
      "metar": "METAR OEMA 131300Z 25007KT CAVOK 31/05 Q1013 NOSIG",
      "taf": "TAF OEMA 131100Z 1312/1418 25010KT CAVOK"
    },
    {
      "icao": "OJAI",
      "alert": "OK",
      "vis_m": 4500,
      "fzfg": false,
      "metar_trigger": false,
      "taf_trigger": false,
      "metar": "METAR OJAI 131300Z 21015KT 4500 BLDU NSC 21/03 Q1009 NOSIG",
      "taf": "TAF OJAI 131050Z 1312/1418 26014KT 3000 HZ FEW035"
    },
    {
      "icao": "OMAA",
      "alert": "OK",
      "vis_m": 9999,
      "fzfg": false,
      "metar_trigger": false,
      "taf_trigger": false,
      "metar": "METAR OMAA 131300Z 32012KT CAVOK 29/09 Q1015 NOSIG",
      "taf": "TAF OMAA 131100Z 1312/1418 33010KT 8000 NSC"
    },
    {
      "icao": "OMDB",
      "alert": "OK",
      "vis_m": 9999,
      "fzfg": false,
      "metar_trigger": false,
      "taf_trigger": false,
      "metar": "METAR OMDB 131300Z 32010KT 280V350 CAVOK 27/17 Q1015 NOSIG",
      "taf": "TAF OMDB 131100Z 1312/1418 32010KT CAVOK"
    },
    {
      "icao": "UAAA",
      "alert": "OK",
      "vis_m": 9999,
      "fzfg": false,
      "metar_trigger": false,
      "taf_trigger": false,
      "metar": "METAR UAAA 131300Z 04003MPS 010V070 9999 BKN050CB OVC100 M05/M07 Q1021 NOSIG",
      "taf": "TAF UAAA 131104Z 1312/1412 22003MPS 1200 BR FU BKN011CB OVC020 TX00/1409Z TNM07/1403Z"
    },
    {
      "icao": "UBBB",
      "alert": "OK",
      "vis_m": 9999,
      "fzfg": false,
      "metar_trigger": false,
      "taf_trigger": false,
      "metar": "METAR UBBB 131300Z 20016KT CAVOK 13/05 Q1005 NOSIG",
      "taf": "TAF UBBB 131053Z 1312/1412 18020G30KT 9999 SCT030 TX10/1312Z TN06/1401Z"
    },
    {
      "icao": "UDSG",
      "alert": "OK",
      "vis_m": 9999,
      "fzfg": false,
      "metar_trigger": false,
      "taf_trigger": false,
      "metar": "METAR UDSG 131300Z 25009KT 9999 BKN036 04/00 Q1013 NOSIG",
      "taf": "TAF UDSG 131100Z 1312/1412 VRB06KT 5000 BR BKN040"
    },
    {
      "icao": "UDYZ",
      "alert": "OK",
      "vis_m": 5000,
      "fzfg": false,
      "metar_trigger": false,
      "taf_trigger": false,
      "metar": "METAR UDYZ 131300Z 30003KT 5000 BR SCT046 08/06 Q1012 NOSIG",
      "taf": "TAF UDYZ 131100Z 1312/1412 VRB06KT 5000 BR SCT040"
    },
    {
      "icao": "UGKO",
      "alert": "OK",
      "vis_m": 9999,
      "fzfg": false,
      "metar_trigger": false,
      "taf_trigger": false,
      "metar": "METAR UGKO 131300Z 08014KT CAVOK 19/04 Q1002 NOSIG",
      "taf": "TAF UGKO 131100Z 1312/1412 08020KT 9999 BKN080 TX18/1312Z TN13/1405Z"
    }
  ]
}