{
  "ts_utc": "2026-05-14T07:42:32Z",
  "threshold_m": 150,
  "source": "stations_override.txt (ICAO list) + aviationweather.gov (METAR/TAF raw)",
  "station_count": 159,
  "stations": [
    {
      "icao": "BIKF",
      "alert": "OK",
      "vis_m": 9999,
      "fzfg": false,
      "metar_trigger": false,
      "taf_trigger": false,
      "metar": "METAR BIKF 140730Z 17005KT 9999 -DZ FEW014 BKN020 BKN031 06/05 Q1014",
      "taf": "TAF BIKF 140437Z 1406/1506 16005KT 9999 FEW012 BKN018 OVC025 TX09/1413Z TN05/1406Z"
    },
    {
      "icao": "BKPR",
      "alert": "OK",
      "vis_m": 9999,
      "fzfg": false,
      "metar_trigger": false,
      "taf_trigger": false,
      "metar": "METAR BKPR 140730Z VRB01KT CAVOK 12/06 Q1008 NOSIG",
      "taf": "TAF BKPR 140530Z 1406/1506 VRB05KT 9999 SCT060"
    },
    {
      "icao": "EBCI",
      "alert": "OK",
      "vis_m": 9999,
      "fzfg": false,
      "metar_trigger": false,
      "taf_trigger": false,
      "metar": "METAR EBCI 140720Z 24011KT 9999 FEW013 BKN016 08/05 Q0999 NOSIG",
      "taf": "TAF EBCI 140506Z 1406/1512 24010KT 9999 SCT025"
    },
    {
      "icao": "EDDB",
      "alert": "OK",
      "vis_m": 9999,
      "fzfg": false,
      "metar_trigger": false,
      "taf_trigger": false,
      "metar": "METAR EDDB 140720Z AUTO 23014KT 9999 VCSH SCT013 SCT021 BKN046 FEW///TCU 09/07 Q0997 TEMPO BKN012",
      "taf": "TAF EDDB 140500Z 1406/1506 21009KT 9999 BKN030"
    },
    {
      "icao": "EDDH",
      "alert": "OK",
      "vis_m": 9999,
      "fzfg": false,
      "metar_trigger": false,
      "taf_trigger": false,
      "metar": "METAR EDDH 140720Z AUTO 36002KT 9999 FEW024 BKN042 10/04 Q0995 TEMPO SHRA BKN025CB",
      "taf": "TAF EDDH 140500Z 1406/1512 VRB03KT 9999 BKN030"
    },
    {
      "icao": "EDDK",
      "alert": "OK",
      "vis_m": 9999,
      "fzfg": false,
      "metar_trigger": false,
      "taf_trigger": false,
      "metar": "METAR EDDK 140720Z AUTO 23010KT 9999 VCSH BKN021 BKN038 BKN047 FEW///CB 08/05 Q0998 NOSIG",
      "taf": "TAF EDDK 140500Z 1406/1512 23007KT 9999 BKN025"
    },
    {
      "icao": "EDDN",
      "alert": "OK",
      "vis_m": 9999,
      "fzfg": false,
      "metar_trigger": false,
      "taf_trigger": false,
      "metar": "METAR EDDN 140720Z AUTO 25008KT 210V280 9999 BKN022 BKN030 09/05 Q1001 NOSIG",
      "taf": "TAF EDDN 140500Z 1406/1506 24010KT 9999 SCT015 BKN040"
    },
    {
      "icao": "EDDS",
      "alert": "OK",
      "vis_m": 9999,
      "fzfg": false,
      "metar_trigger": false,
      "taf_trigger": false,
      "metar": "METAR EDDS 140720Z AUTO 21006KT 130V290 9999 FEW020 10/05 Q1001 NOSIG",
      "taf": "TAF EDDS 140500Z 1406/1506 22007KT 9999 SCT035"
    },
    {
      "icao": "EDFH",
      "alert": "OK",
      "vis_m": 9999,
      "fzfg": false,
      "metar_trigger": false,
      "taf_trigger": false,
      "metar": "METAR EDFH 140720Z 24012KT 200V270 9999 -RA SCT008 BKN011 05/04 Q0999",
      "taf": "TAF EDFH 140500Z 1406/1506 25009KT 9999 BKN007"
    },
    {
      "icao": "EDJA",
      "alert": "OK",
      "vis_m": 9999,
      "fzfg": false,
      "metar_trigger": false,
      "taf_trigger": false,
      "metar": "METAR EDJA 140720Z COR 23012KT 9999 FEW014 07/04 Q1003",
      "taf": "TAF EDJA 140500Z 1406/1415 23015G25KT 9999 SCT020 BKN040"
    },
    {
      "icao": "EDLW",
      "alert": "OK",
      "vis_m": 9999,
      "fzfg": false,
      "metar_trigger": false,
      "taf_trigger": false,
      "metar": "METAR EDLW 140720Z 23012KT 9999 BKN015 OVC019 08/05 Q0997",
      "taf": "TAF EDLW 140500Z 1406/1506 24008KT 9999 SCT015 BKN025"
    },
    {
      "icao": "EDNY",
      "alert": "OK",
      "vis_m": 9999,
      "fzfg": false,
      "metar_trigger": false,
      "taf_trigger": false,
      "metar": "METAR EDNY 140720Z 25009KT 9999 -RA FEW021 BKN036 OVC059 08/05 Q1004",
      "taf": "TAF EDNY 140500Z 1406/1415 24009KT 9999 BKN020 BKN040"
    },
    {
      "icao": "EDSB",
      "alert": "OK",
      "vis_m": 9999,
      "fzfg": false,
      "metar_trigger": false,
      "taf_trigger": false,
      "metar": "METAR EDSB 140720Z 21016KT 9999 FEW024 SCT031 11/07 Q1002",
      "taf": "TAF EDSB 140500Z 1406/1506 20007KT 9999 SCT035"
    },
    {
      "icao": "EETN",
      "alert": "OK",
      "vis_m": 9999,
      "fzfg": false,
      "metar_trigger": false,
      "taf_trigger": false,
      "metar": "METAR EETN 140720Z 19013KT 9999 BKN028 10/05 Q1001 NOSIG",
      "taf": "TAF EETN 140530Z 1406/1506 19010KT 9999 BKN025"
    },
    {
      "icao": "EFTU",
      "alert": "OK",
      "vis_m": 9999,
      "fzfg": false,
      "metar_trigger": false,
      "taf_trigger": false,
      "metar": "METAR EFTU 140720Z AUTO 19009KT 160V230 9999 -RA OVC007 07/06 Q0997",
      "taf": ""
    },
    {
      "icao": "EGBB",
      "alert": "OK",
      "vis_m": 9999,
      "fzfg": false,
      "metar_trigger": false,
      "taf_trigger": false,
      "metar": "METAR EGBB 140720Z 33009KT 9999 SCT020 08/04 Q1003",
      "taf": "TAF EGBB 140457Z 1406/1506 34008KT 9999 FEW030"
    },
    {
      "icao": "EGGP",
      "alert": "OK",
      "vis_m": 9999,
      "fzfg": false,
      "metar_trigger": false,
      "taf_trigger": false,
      "metar": "METAR EGGP 140720Z 33007KT 290V010 9999 VCSH SCT040CB 09/03 Q1003",
      "taf": "TAF EGGP 140455Z 1406/1506 33009KT 9999 SCT040"
    },
    {
      "icao": "EGGW",
      "alert": "OK",
      "vis_m": 9999,
      "fzfg": false,
      "metar_trigger": false,
      "taf_trigger": false,
      "metar": "METAR EGGW 140720Z COR 31012KT 9999 SCT013 BKN018 08/05 Q1001",
      "taf": ""
    },
    {
      "icao": "EGKK",
      "alert": "OK",
      "vis_m": 9999,
      "fzfg": false,
      "metar_trigger": false,
      "taf_trigger": false,
      "metar": "METAR EGKK 140720Z 33010KT 9999 SCT013 SCT017 09/05 Q1001",
      "taf": "TAF EGKK 140500Z 1406/1512 33010KT 9999 FEW015"
    },
    {
      "icao": "EGNM",
      "alert": "OK",
      "vis_m": 9999,
      "fzfg": false,
      "metar_trigger": false,
      "taf_trigger": false,
      "metar": "METAR EGNM 140720Z 32010KT 290V010 9999 FEW020 07/03 Q1002",
      "taf": "TAF EGNM 140456Z 1406/1506 33007KT 9999 FEW040"
    },
    {
      "icao": "EGPD",
      "alert": "OK",
      "vis_m": 9999,
      "fzfg": false,
      "metar_trigger": false,
      "taf_trigger": false,
      "metar": "METAR EGPD 140720Z 32018KT 9999 VCSH SCT013 BKN021 07/05 Q1001 TEMPO SHRA BKN013",
      "taf": "TAF EGPD 140458Z 1406/1506 33009KT 9999 SCT025"
    },
    {
      "icao": "EGPF",
      "alert": "OK",
      "vis_m": 9999,
      "fzfg": false,
      "metar_trigger": false,
      "taf_trigger": false,
      "metar": "METAR EGPF 140720Z AUTO 30008KT 9999 NCD 08/05 Q1004",
      "taf": "TAF EGPF 140456Z 1406/1506 29012KT 9999 SCT025"
    },
    {
      "icao": "EHBK",
      "alert": "OK",
      "vis_m": 9999,
      "fzfg": false,
      "metar_trigger": false,
      "taf_trigger": false,
      "metar": "METAR EHBK 140725Z AUTO 23012KT 200V260 9999 BKN012/// OVC015/// 08/05 Q0998 BECMG BKN015 TEMPO -SHRA FEW020CB",
      "taf": "TAF EHBK 140512Z 1406/1512 24010KT 9999 FEW012 BKN015"
    },
    {
      "icao": "EHEH",
      "alert": "OK",
      "vis_m": 9999,
      "fzfg": false,
      "metar_trigger": false,
      "taf_trigger": false,
      "metar": "METAR EHEH 140725Z AUTO 23009KT 190V270 9999 FEW007 SCT008 BKN014 08/07 Q0997 GRN TEMPO 26007G17KT 4000 SHRA SCT010 SCT020CB RMK TREND REMOTE BY EHWX",
      "taf": "TAF EHEH 140505Z 1406/1512 24008KT 9999 FEW020 SCT030"
    },
    {
      "icao": "EKBI",
      "alert": "OK",
      "vis_m": 9999,
      "fzfg": false,
      "metar_trigger": false,
      "taf_trigger": false,
      "metar": "METAR EKBI 140720Z AUTO 26011KT 9999 SCT018/// BKN045/// 08/05 Q0992",
      "taf": "TAF EKBI 140527Z 1406/1506 25012KT 9999 BKN020"
    },
    {
      "icao": "EKCH",
      "alert": "OK",
      "vis_m": 9999,
      "fzfg": false,
      "metar_trigger": false,
      "taf_trigger": false,
      "metar": "METAR EKCH 140720Z AUTO 23011KT 9999 NCD 10/05 Q0993 NOSIG",
      "taf": "TAF EKCH 140527Z 1406/1506 23010KT 9999 BKN025"
    },
    {
      "icao": "ENAL",
      "alert": "OK",
      "vis_m": 9999,
      "fzfg": false,
      "metar_trigger": false,
      "taf_trigger": false,
      "metar": "METAR ENAL 140720Z 02019KT 9999 -RA SCT014 BKN021 08/05 Q0994",
      "taf": "TAF ENAL 140500Z 1406/1415 04015KT 9999 BKN018"
    },
    {
      "icao": "ENBR",
      "alert": "OK",
      "vis_m": 9999,
      "fzfg": false,
      "metar_trigger": false,
      "taf_trigger": false,
      "metar": "METAR ENBR 140720Z 32010KT CAVOK 08/03 Q0989 NOSIG RMK WIND 1200FT 34023KT",
      "taf": "TAF ENBR 140500Z 1406/1506 34008KT 9999 FEW030"
    },
    {
      "icao": "ENGM",
      "alert": "OK",
      "vis_m": 9999,
      "fzfg": false,
      "metar_trigger": false,
      "taf_trigger": false,
      "metar": "METAR ENGM 140720Z 03009KT 9999 -RA SCT007 BKN009 03/02 Q0986 TEMPO BKN014",
      "taf": "TAF ENGM 140500Z 1406/1506 02010KT 9999 -RA BKN015"
    },
    {
      "icao": "ENHD",
      "alert": "OK",
      "vis_m": 9999,
      "fzfg": false,
      "metar_trigger": false,
      "taf_trigger": false,
      "metar": "METAR ENHD 140720Z 33015KT 9999 FEW011 09/06 Q0989",
      "taf": "TAF ENHD 140500Z 1406/1415 34012KT 9999 BKN007"
    },
    {
      "icao": "ENTC",
      "alert": "OK",
      "vis_m": 9999,
      "fzfg": false,
      "metar_trigger": false,
      "taf_trigger": false,
      "metar": "METAR ENTC 140720Z 05012KT CAVOK 08/01 Q1008 NOSIG RMK WIND 2600FT 10017KT",
      "taf": "TAF ENTC 140500Z 1406/1506 05012KT CAVOK"
    },
    {
      "icao": "ENTO",
      "alert": "OK",
      "vis_m": 9999,
      "fzfg": false,
      "metar_trigger": false,
      "taf_trigger": false,
      "metar": "METAR ENTO 140720Z 05006KT 020V080 9999 -RA FEW007 BKN010 04/04 Q0986 TEMPO BKN008",
      "taf": "TAF ENTO 140500Z 1406/1506 35008KT 9999 -RA BKN020"
    },
    {
      "icao": "ENVA",
      "alert": "OK",
      "vis_m": 9999,
      "fzfg": false,
      "metar_trigger": false,
      "taf_trigger": false,
      "metar": "METAR ENVA 140720Z 24007KT 9999 -RA SCT011 BKN015 07/06 Q0991 TEMPO RA BKN014 RMK WIND 670FT 33004KT",
      "taf": "TAF ENVA 140500Z 1406/1506 03008KT 9999 -RA FEW012 BKN025"
    },
    {
      "icao": "ENZV",
      "alert": "OK",
      "vis_m": 9999,
      "fzfg": false,
      "metar_trigger": false,
      "taf_trigger": false,
      "metar": "METAR ENZV 140720Z 32013KT 9999 OVC011 09/06 Q0989 TEMPO BKN012",
      "taf": "TAF ENZV 140500Z 1406/1506 32010KT 9999 SCT008 BKN030"
    },
    {
      "icao": "EPGD",
      "alert": "OK",
      "vis_m": 9999,
      "fzfg": false,
      "metar_trigger": false,
      "taf_trigger": false,
      "metar": "METAR EPGD 140730Z 17010KT 9999 FEW025TCU 09/06 Q0998",
      "taf": "TAF EPGD 140530Z 1406/1506 18007KT 9999 SCT030"
    },
    {
      "icao": "EPKK",
      "alert": "OK",
      "vis_m": 9999,
      "fzfg": false,
      "metar_trigger": false,
      "taf_trigger": false,
      "metar": "METAR EPKK 140730Z 22009KT 190V250 CAVOK 14/02 Q1004",
      "taf": "TAF EPKK 140530Z 1406/1506 VRB02KT CAVOK"
    },
    {
      "icao": "EPKT",
      "alert": "OK",
      "vis_m": 9999,
      "fzfg": false,
      "metar_trigger": false,
      "taf_trigger": false,
      "metar": "METAR EPKT 140730Z 21015KT CAVOK 12/03 Q1003",
      "taf": "TAF EPKT 140530Z 1406/1506 15008KT CAVOK"
    },
    {
      "icao": "EPLB",
      "alert": "OK",
      "vis_m": 9999,
      "fzfg": false,
      "metar_trigger": false,
      "taf_trigger": false,
      "metar": "METAR EPLB 140730Z 18009KT 150V210 CAVOK 16/05 Q1004",
      "taf": "TAF EPLB 140530Z 1406/1506 VRB02KT CAVOK"
    },
    {
      "icao": "EPMO",
      "alert": "OK",
      "vis_m": 9999,
      "fzfg": false,
      "metar_trigger": false,
      "taf_trigger": false,
      "metar": "METAR EPMO 140730Z 18009KT 140V210 CAVOK 13/05 Q1001",
      "taf": "TAF EPMO 140530Z 1406/1506 17008KT CAVOK"
    },
    {
      "icao": "EPPO",
      "alert": "OK",
      "vis_m": 9999,
      "fzfg": false,
      "metar_trigger": false,
      "taf_trigger": false,
      "metar": "METAR EPPO 140730Z 22010KT CAVOK 12/06 Q0998",
      "taf": "TAF EPPO 140530Z 1406/1506 17007KT CAVOK"
    },
    {
      "icao": "EPRA",
      "alert": "OK",
      "vis_m": 9999,
      "fzfg": false,
      "metar_trigger": false,
      "taf_trigger": false,
      "metar": "METAR EPRA 140730Z 18011KT CAVOK 15/04 Q1003",
      "taf": "TAF EPRA 140530Z 1406/1415 17010KT CAVOK"
    },
    {
      "icao": "EPRZ",
      "alert": "OK",
      "vis_m": 9999,
      "fzfg": false,
      "metar_trigger": false,
      "taf_trigger": false,
      "metar": "METAR EPRZ 140730Z 18008KT 160V220 CAVOK 14/04 Q1005",
      "taf": "TAF EPRZ 140530Z 1406/1506 VRB02KT CAVOK"
    },
    {
      "icao": "EPSC",
      "alert": "OK",
      "vis_m": 9999,
      "fzfg": false,
      "metar_trigger": false,
      "taf_trigger": false,
      "metar": "METAR EPSC 140730Z 17009KT 9999 BKN007 09/07 Q0996",
      "taf": "TAF EPSC 140530Z 1406/1506 17010KT 9999 BKN025"
    },
    {
      "icao": "EPSY",
      "alert": "OK",
      "vis_m": 9999,
      "fzfg": false,
      "metar_trigger": false,
      "taf_trigger": false,
      "metar": "METAR EPSY 140730Z 16009KT 120V200 CAVOK 14/06 Q1001",
      "taf": "TAF EPSY 140530Z 1406/1415 16010KT CAVOK"
    },
    {
      "icao": "EPWA",
      "alert": "OK",
      "vis_m": 9999,
      "fzfg": false,
      "metar_trigger": false,
      "taf_trigger": false,
      "metar": "METAR EPWA 140730Z 18009KT 140V210 CAVOK 15/04 Q1002 NOSIG",
      "taf": "TAF EPWA 140530Z 1406/1506 17008KT CAVOK"
    },
    {
      "icao": "EPWR",
      "alert": "OK",
      "vis_m": 9999,
      "fzfg": false,
      "metar_trigger": false,
      "taf_trigger": false,
      "metar": "METAR EPWR 140730Z 20012KT 9999 SCT047 12/05 Q1000",
      "taf": "TAF EPWR 140530Z 1406/1506 16007KT CAVOK"
    },
    {
      "icao": "ESGG",
      "alert": "OK",
      "vis_m": 9999,
      "fzfg": false,
      "metar_trigger": false,
      "taf_trigger": false,
      "metar": "METAR ESGG 140720Z 22011KT 9999 -RA SCT006 BKN010 BKN015 06/05 Q0988",
      "taf": "TAF ESGG 140530Z 1406/1506 22010KT 9999 SCT010 BKN030"
    },
    {
      "icao": "ESKN",
      "alert": "OK",
      "vis_m": 9999,
      "fzfg": false,
      "metar_trigger": false,
      "taf_trigger": false,
      "metar": "METAR ESKN 140720Z 17013KT 9999 SCT020 BKN030 08/04 Q0992",
      "taf": "TAF ESKN 140530Z 1406/1506 17012KT 9999 SCT015 BKN025"
    },
    {
      "icao": "ESMS",
      "alert": "OK",
      "vis_m": 9999,
      "fzfg": false,
      "metar_trigger": false,
      "taf_trigger": false,
      "metar": "METAR ESMS 140720Z 23010KT 9999 SCT018 10/03 Q0993",
      "taf": "TAF ESMS 140527Z 1406/1506 20006KT 9999 FEW012 BKN025"
    },
    {
      "icao": "ESSA",
      "alert": "OK",
      "vis_m": 9999,
      "fzfg": false,
      "metar_trigger": false,
      "taf_trigger": false,
      "metar": "METAR ESSA 140720Z 17013KT 9999 SCT024 BKN031 09/04 Q0992 TEMPO BKN014",
      "taf": "TAF ESSA 140530Z 1406/1506 18012KT 9999 BKN015"
    },
    {
      "icao": "EYKA",
      "alert": "OK",
      "vis_m": 9999,
      "fzfg": false,
      "metar_trigger": false,
      "taf_trigger": false,
      "metar": "METAR EYKA 140720Z 19005KT 150V270 CAVOK 13/07 Q1003",
      "taf": "TAF EYKA 140500Z 1406/1506 18010KT 9000 SCT045"
    },
    {
      "icao": "EYPA",
      "alert": "OK",
      "vis_m": 9999,
      "fzfg": false,
      "metar_trigger": false,
      "taf_trigger": false,
      "metar": "METAR EYPA 140720Z 19011KT CAVOK 12/06 Q0999",
      "taf": "TAF EYPA 140500Z 1406/1506 18010KT 9000 SCT030"
    },
    {
      "icao": "EYVI",
      "alert": "OK",
      "vis_m": 9999,
      "fzfg": false,
      "metar_trigger": false,
      "taf_trigger": false,
      "metar": "METAR EYVI 140720Z 18007KT 140V210 CAVOK 11/07 Q1004 NOSIG",
      "taf": "TAF EYVI 140500Z 1406/1506 18010KT 9000 SCT035"
    },
    {
      "icao": "GCFV",
      "alert": "OK",
      "vis_m": 9999,
      "fzfg": false,
      "metar_trigger": false,
      "taf_trigger": false,
      "metar": "METAR GCFV 140730Z 35014KT 9999 FEW025 20/13 Q1017",
      "taf": "TAF GCFV 140200Z 1403/1503 36012KT 9999 FEW030 TX24/1414Z TN18/1406Z"
    },
    {
      "icao": "GCLP",
      "alert": "OK",
      "vis_m": 9999,
      "fzfg": false,
      "metar_trigger": false,
      "taf_trigger": false,
      "metar": "METAR GCLP 140730Z 35013KT 9999 SCT025 20/13 Q1018 NOSIG",
      "taf": "TAF GCLP 140200Z 1403/1503 36015KT 9999 SCT030 TX23/1414Z TN17/1406Z"
    },
    {
      "icao": "GCTS",
      "alert": "OK",
      "vis_m": 9999,
      "fzfg": false,
      "metar_trigger": false,
      "taf_trigger": false,
      "metar": "METAR GCTS 140730Z VRB02KT 9999 FEW025 19/11 Q1019 NOSIG",
      "taf": "TAF GCTS 140200Z 1403/1503 36005KT 9999 SCT040 TX23/1414Z TN16/1406Z"
    },
    {
      "icao": "GMAD",
      "alert": "OK",
      "vis_m": 8000,
      "fzfg": false,
      "metar_trigger": false,
      "taf_trigger": false,
      "metar": "METAR GMAD 140730Z 19004KT 160V220 8000 FEW020 BKN100 18/14 Q1013 NOSIG",
      "taf": "TAF GMAD 140500Z 1406/1512 12005KT 8000 SCT020"
    },
    {
      "icao": "GMMN",
      "alert": "OK",
      "vis_m": 9999,
      "fzfg": false,
      "metar_trigger": false,
      "taf_trigger": false,
      "metar": "METAR GMMN 140730Z 07007KT 040V100 9999 BKN016 16/13 Q1015 NOSIG",
      "taf": "TAF GMMN 140500Z 1406/1512 06006KT 9999 BKN014"
    },
    {
      "icao": "GMMX",
      "alert": "OK",
      "vis_m": 9999,
      "fzfg": false,
      "metar_trigger": false,
      "taf_trigger": false,
      "metar": "METAR GMMX 140730Z 29007KT 260V320 9999 SCT090 BKN200 16/12 Q1014 NOSIG",
      "taf": "TAF GMMX 140500Z 1406/1512 26006KT 9999 SCT090 SCT200"
    },
    {
      "icao": "HEGN",
      "alert": "OK",
      "vis_m": 9999,
      "fzfg": false,
      "metar_trigger": false,
      "taf_trigger": false,
      "metar": "METAR HEGN 140700Z 34007KT CAVOK 32/02 Q1011 NOSIG",
      "taf": "TAF HEGN 140500Z 1406/1512 01014KT CAVOK"
    },
    {
      "icao": "HEMA",
      "alert": "OK",
      "vis_m": 9999,
      "fzfg": false,
      "metar_trigger": false,
      "taf_trigger": false,
      "metar": "METAR HEMA 140700Z 34022KT CAVOK 34/00 Q1010 NOSIG",
      "taf": "TAF HEMA 140500Z 1406/1512 35015KT CAVOK"
    },
    {
      "icao": "HESH",
      "alert": "OK",
      "vis_m": 9999,
      "fzfg": false,
      "metar_trigger": false,
      "taf_trigger": false,
      "metar": "METAR HESH 140700Z 3010KT CAVOK 32/12 Q1010 NOSIG",
      "taf": "TAF HESH 140500Z 1406/1512 02014KT CAVOK"
    },
    {
      "icao": "HESX",
      "alert": "OK",
      "vis_m": 9999,
      "fzfg": false,
      "metar_trigger": false,
      "taf_trigger": false,
      "metar": "METAR HESX 140700Z 19008KT CAVOK 29/12 Q1011 NOSIG",
      "taf": "TAF HESX 140500Z 1406/1512 25010KT CAVOK"
    },
    {
      "icao": "LATI",
      "alert": "OK",
      "vis_m": 9999,
      "fzfg": false,
      "metar_trigger": false,
      "taf_trigger": false,
      "metar": "METAR LATI 140720Z VRB02KT 9999 FEW026 18/10 Q1007 NOSIG",
      "taf": "TAF LATI 140500Z 1406/1506 VRB05KT 9999 FEW040 BKN070 TX23/1412Z TN12/1504Z"
    },
    {
      "icao": "LBPD",
      "alert": "OK",
      "vis_m": 9999,
      "fzfg": false,
      "metar_trigger": false,
      "taf_trigger": false,
      "metar": "METAR LBPD 140730Z AUTO VRB02KT 9999 NCD 16/06 Q1007 NOSIG",
      "taf": "TAF LBPD 140500Z 1406/1506 30008KT 9999 SCT070"
    },
    {
      "icao": "LBSF",
      "alert": "OK",
      "vis_m": 9999,
      "fzfg": false,
      "metar_trigger": false,
      "taf_trigger": false,
      "metar": "METAR LBSF 140730Z VRB03KT CAVOK 11/02 Q1008 NOSIG",
      "taf": "TAF LBSF 140500Z 1406/1506 VRB03KT 9999 SCT070"
    },
    {
      "icao": "LBWN",
      "alert": "OK",
      "vis_m": 9999,
      "fzfg": false,
      "metar_trigger": false,
      "taf_trigger": false,
      "metar": "METAR LBWN 140730Z 01005KT 330V070 9999 SCT040 15/07 Q1007 NOSIG",
      "taf": "TAF LBWN 140500Z 1406/1506 33008KT 9999 SCT040"
    },
    {
      "icao": "LCLK",
      "alert": "OK",
      "vis_m": 9999,
      "fzfg": false,
      "metar_trigger": false,
      "taf_trigger": false,
      "metar": "METAR LCLK 140730Z 22020KT 9999 FEW030 24/17 Q1008 NOSIG",
      "taf": "TAF LCLK 140530Z 1406/1506 24008KT 9999 FEW030"
    },
    {
      "icao": "LCPH",
      "alert": "OK",
      "vis_m": 8000,
      "fzfg": false,
      "metar_trigger": false,
      "taf_trigger": false,
      "metar": "METAR LCPH 140730Z 15009KT 8000 NSC 23/17 Q1008 NOSIG",
      "taf": "TAF LCPH 140530Z 1406/1506 10007KT CAVOK"
    },
    {
      "icao": "LEAL",
      "alert": "OK",
      "vis_m": 9999,
      "fzfg": false,
      "metar_trigger": false,
      "taf_trigger": false,
      "metar": "METAR LEAL 140730Z 28010KT 250V310 9999 FEW068 22/09 Q1011 NOSIG",
      "taf": "TAF LEAL 140500Z 1406/1506 VRB03KT 9999 FEW020 TX26/1412Z TN16/1406Z"
    },
    {
      "icao": "LEBB",
      "alert": "OK",
      "vis_m": 9999,
      "fzfg": false,
      "metar_trigger": false,
      "taf_trigger": false,
      "metar": "METAR LEBB 140730Z 28014KT 240V330 9999 SCT030 BKN045 14/09 Q1014 TEMPO 3000 RA BKN010",
      "taf": "TAF LEBB 140500Z 1406/1506 30009KT 9999 SCT030 TX16/1413Z TN11/1409Z"
    },
    {
      "icao": "LEBL",
      "alert": "OK",
      "vis_m": 9999,
      "fzfg": false,
      "metar_trigger": false,
      "taf_trigger": false,
      "metar": "METAR LEBL 140730Z 31009G19KT 270V350 9999 FEW044 17/06 Q1010 NOSIG",
      "taf": "TAF LEBL 140500Z 1406/1506 VRB04KT 9999 FEW020 TX24/1412Z TN12/1505Z"
    },
    {
      "icao": "LECH",
      "alert": "OK",
      "vis_m": 9999,
      "fzfg": false,
      "metar_trigger": false,
      "taf_trigger": false,
      "metar": "METAR LECH 140730Z AUTO 23003KT 180V270 CAVOK 15/07 Q1012",
      "taf": "TAF LECH 140500Z 1406/1506 32008KT 9999 FEW040 TX22/1414Z TN09/1406Z"
    },
    {
      "icao": "LEMD",
      "alert": "OK",
      "vis_m": 9999,
      "fzfg": false,
      "metar_trigger": false,
      "taf_trigger": false,
      "metar": "METAR LEMD 140730Z 02002KT CAVOK 14/08 Q1013 NOSIG",
      "taf": "TAF LEMD 140500Z 1406/1512 VRB04KT CAVOK TX22/1416Z TN07/1505Z"
    },
    {
      "icao": "LEMG",
      "alert": "OK",
      "vis_m": 9999,
      "fzfg": false,
      "metar_trigger": false,
      "taf_trigger": false,
      "metar": "METAR LEMG 140730Z 28011KT 250V310 CAVOK 20/09 Q1012 NOSIG",
      "taf": "TAF LEMG 140500Z 1406/1506 28010KT CAVOK TX28/1414Z TN15/1406Z"
    },
    {
      "icao": "LEVC",
      "alert": "OK",
      "vis_m": 9999,
      "fzfg": false,
      "metar_trigger": false,
      "taf_trigger": false,
      "metar": "METAR LEVC 140730Z 29003KT 240V030 CAVOK 19/09 Q1011 NOSIG",
      "taf": "TAF LEVC 140500Z 1406/1506 VRB03KT CAVOK TX28/1412Z TN14/1406Z"
    },
    {
      "icao": "LEXJ",
      "alert": "OK",
      "vis_m": 9000,
      "fzfg": false,
      "metar_trigger": false,
      "taf_trigger": false,
      "metar": "METAR LEXJ 140730Z 29016KT 260V330 9000 SCT030 BKN036 BKN047 13/08 Q1015",
      "taf": ""
    },
    {
      "icao": "LEZG",
      "alert": "OK",
      "vis_m": 9999,
      "fzfg": false,
      "metar_trigger": false,
      "taf_trigger": false,
      "metar": "METAR LEZG 140730Z 30009KT 260V330 9999 OVC040 13/07 Q1013 NOSIG",
      "taf": "TAF LEZG 140500Z 1406/1506 30010KT 9999 FEW050 TX21/1418Z TN10/1505Z"
    },
    {
      "icao": "LEZL",
      "alert": "OK",
      "vis_m": 9999,
      "fzfg": false,
      "metar_trigger": false,
      "taf_trigger": false,
      "metar": "METAR LEZL 140730Z 07001KT CAVOK 18/14 Q1014 NOSIG",
      "taf": "TAF LEZL 140200Z 1403/1503 VRB03KT CAVOK TX27/1415Z TN12/1406Z"
    },
    {
      "icao": "LFBD",
      "alert": "OK",
      "vis_m": 7000,
      "fzfg": false,
      "metar_trigger": false,
      "taf_trigger": false,
      "metar": "METAR LFBD 140730Z AUTO 28009KT 250V330 7000 RA FEW015/// SCT037/// BKN046/// ///TCU 11/09 Q1009 TEMPO 30020G35KT 4000 SHRA",
      "taf": "TAF LFBD 140500Z 1406/1512 27010KT 9999 BKN040 TX14/1412Z TN06/1506Z"
    },
    {
      "icao": "LFLL",
      "alert": "OK",
      "vis_m": 9999,
      "fzfg": false,
      "metar_trigger": false,
      "taf_trigger": false,
      "metar": "METAR LFLL 140730Z 14003KT 090V210 9999 FEW013 FEW026TCU SCT050 BKN120 11/07 Q1006 NOSIG",
      "taf": "TAF LFLL 140500Z 1406/1512 15005KT 9999 BKN045"
    },
    {
      "icao": "LFLS",
      "alert": "OK",
      "vis_m": 9999,
      "fzfg": false,
      "metar_trigger": false,
      "taf_trigger": false,
      "metar": "METAR LFLS 140730Z AUTO VRB02KT 9999 -RA BKN033 OVC040 09/07 Q1006 TEMPO 21012KT 4000 SHRA SCT015 SCT040TCU",
      "taf": "TAF LFLS 140200Z 1403/1503 VRB03KT 9999 SCT040 BKN060"
    },
    {
      "icao": "LFMN",
      "alert": "OK",
      "vis_m": 9999,
      "fzfg": false,
      "metar_trigger": false,
      "taf_trigger": false,
      "metar": "METAR LFMN 140730Z 25021KT CAVOK 18/05 Q1002 BECMG 24020KT",
      "taf": ""
    },
    {
      "icao": "LFOB",
      "alert": "OK",
      "vis_m": 9999,
      "fzfg": false,
      "metar_trigger": false,
      "taf_trigger": false,
      "metar": "METAR LFOB 140730Z AUTO 25008KT 9999 BKN009/// ///TCU 09/08 Q1001 TEMPO VRB15G25KT 1200 TSRAGS BKN009 BKN014CB",
      "taf": ""
    },
    {
      "icao": "LFPO",
      "alert": "OK",
      "vis_m": 9999,
      "fzfg": false,
      "metar_trigger": false,
      "taf_trigger": false,
      "metar": "METAR LFPO 140730Z 24007KT 9999 -RA FEW011 BKN038 BKN046 08/07 Q1002 TEMPO 4000 SHRA BKN030",
      "taf": "TAF LFPO 140500Z 1406/1512 24010KT 9999 SCT040"
    },
    {
      "icao": "LFSB",
      "alert": "OK",
      "vis_m": 9999,
      "fzfg": false,
      "metar_trigger": false,
      "taf_trigger": false,
      "metar": "METAR LFSB 140730Z AUTO 26009KT 230V300 9999 SCT021/// BKN027/// BKN034/// ///TCU 09/06 Q1004 TEMPO SHRA FEW025CB",
      "taf": "TAF LFSB 140500Z 1406/1506 26007KT 9999 FEW020 BKN040"
    },
    {
      "icao": "LGAV",
      "alert": "OK",
      "vis_m": 9999,
      "fzfg": false,
      "metar_trigger": false,
      "taf_trigger": false,
      "metar": "METAR LGAV 140720Z 29004KT 260V360 9999 FEW020 SCT025 22/08 Q1005 NOSIG",
      "taf": ""
    },
    {
      "icao": "LGTS",
      "alert": "OK",
      "vis_m": 9999,
      "fzfg": false,
      "metar_trigger": false,
      "taf_trigger": false,
      "metar": "METAR LGTS 140720Z 30007KT 9999 FEW020 SCT030 18/12 Q1006 NOSIG",
      "taf": "TAF LGTS 140500Z 1406/1506 33013KT 9999 SCT030"
    },
    {
      "icao": "LHBP",
      "alert": "OK",
      "vis_m": 9999,
      "fzfg": false,
      "metar_trigger": false,
      "taf_trigger": false,
      "metar": "METAR LHBP 140730Z 16006KT 120V200 CAVOK 15/01 Q1006 NOSIG",
      "taf": "TAF LHBP 140515Z 1406/1506 VRB03KT CAVOK"
    },
    {
      "icao": "LHDC",
      "alert": "OK",
      "vis_m": 9999,
      "fzfg": false,
      "metar_trigger": false,
      "taf_trigger": false,
      "metar": "METAR LHDC 140715Z AUTO 16005KT 120V240 CAVOK 13/06 Q1007 NOSIG",
      "taf": "TAF LHDC 140515Z 1406/1415 17005KT CAVOK"
    },
    {
      "icao": "LIBD",
      "alert": "OK",
      "vis_m": 9999,
      "fzfg": false,
      "metar_trigger": false,
      "taf_trigger": false,
      "metar": "METAR LIBD 140720Z VRB02KT CAVOK 18/12 Q1007",
      "taf": "TAF LIBD 140500Z 1406/1506 25006KT 9999 SCT020"
    },
    {
      "icao": "LIBG",
      "alert": "OK",
      "vis_m": 9999,
      "fzfg": false,
      "metar_trigger": false,
      "taf_trigger": false,
      "metar": "METAR LIBG 140650Z VRB02KT CAVOK 18/18 Q1007",
      "taf": "TAF LIBG 140609Z 1407/1415 VRB05KT 9999 FEW040"
    },
    {
      "icao": "LIBP",
      "alert": "OK",
      "vis_m": 9999,
      "fzfg": false,
      "metar_trigger": false,
      "taf_trigger": false,
      "metar": "METAR LIBP 140720Z AUTO 16005KT 120V190 9999 NCD 20/09 Q1005",
      "taf": "TAF LIBP 140500Z 1406/1506 VRB05KT 9999 SCT070"
    },
    {
      "icao": "LIBR",
      "alert": "OK",
      "vis_m": 9999,
      "fzfg": false,
      "metar_trigger": false,
      "taf_trigger": false,
      "metar": "METAR LIBR 140720Z 33007KT 290V010 9999 FEW025 17/13 Q1007",
      "taf": "TAF LIBR 140500Z 1406/1506 VRB06KT 9999 SCT040"
    },
    {
      "icao": "LICA",
      "alert": "OK",
      "vis_m": 9999,
      "fzfg": false,
      "metar_trigger": false,
      "taf_trigger": false,
      "metar": "METAR LICA 140720Z AUTO 24011KT 9999 -DZRA BKN016/// 18/16 Q1009",
      "taf": "TAF LICA 140500Z 1406/1506 27013KT 9999 SCT013"
    },
    {
      "icao": "LICC",
      "alert": "OK",
      "vis_m": 9999,
      "fzfg": false,
      "metar_trigger": false,
      "taf_trigger": false,
      "metar": "METAR LICC 140720Z 25016KT CAVOK 22/15 Q1010",
      "taf": "TAF LICC 140500Z 1406/1506 26012KT CAVOK"
    },
    {
      "icao": "LICJ",
      "alert": "OK",
      "vis_m": 9999,
      "fzfg": false,
      "metar_trigger": false,
      "taf_trigger": false,
      "metar": "METAR LICJ 140720Z 26018KT 9999 SCT040 18/13 Q1012",
      "taf": "TAF LICJ 140500Z 1406/1506 26016KT CAVOK"
    },
    {
      "icao": "LIMC",
      "alert": "OK",
      "vis_m": 9999,
      "fzfg": false,
      "metar_trigger": false,
      "taf_trigger": false,
      "metar": "METAR LIMC 140720Z 14004KT 120V200 9999 SCT020 BKN040 14/11 Q1002 NOSIG",
      "taf": "TAF LIMC 140500Z 1406/1512 VRB05KT 9999 BKN020"
    },
    {
      "icao": "LIME",
      "alert": "OK",
      "vis_m": 9999,
      "fzfg": false,
      "metar_trigger": false,
      "taf_trigger": false,
      "metar": "METAR LIME 140720Z 15004KT 110V200 9999 BKN040 14/09 Q1002 NOSIG",
      "taf": "TAF LIME 140500Z 1406/1506 VRB05KT 9999 BKN050"
    },
    {
      "icao": "LIMF",
      "alert": "OK",
      "vis_m": 9999,
      "fzfg": false,
      "metar_trigger": false,
      "taf_trigger": false,
      "metar": "METAR LIMF 140720Z VRB02KT CAVOK 15/09 Q1002",
      "taf": "TAF LIMF 140500Z 1406/1506 VRB05KT 9999 FEW040"
    },
    {
      "icao": "LIMJ",
      "alert": "OK",
      "vis_m": 9999,
      "fzfg": false,
      "metar_trigger": false,
      "taf_trigger": false,
      "metar": "METAR LIMJ 140720Z VRB02KT 9999 FEW023 18/11 Q1001",
      "taf": "TAF LIMJ 140500Z 1406/1506 VRB05KT 9999 FEW020"
    },
    {
      "icao": "LIPE",
      "alert": "OK",
      "vis_m": 9999,
      "fzfg": false,
      "metar_trigger": false,
      "taf_trigger": false,
      "metar": "METAR LIPE 140720Z 21009KT CAVOK 19/08 Q1001",
      "taf": "TAF LIPE 140500Z 1406/1506 VRB05KT 9999 SCT060"
    },
    {
      "icao": "LIPH",
      "alert": "OK",
      "vis_m": 9999,
      "fzfg": false,
      "metar_trigger": false,
      "taf_trigger": false,
      "metar": "METAR LIPH 140720Z 05006KT 9999 -RA FEW030 BKN050 14/08 Q1004",
      "taf": "TAF LIPH 140500Z 1406/1506 VRB05KT 9999 SCT040"
    },
    {
      "icao": "LIPQ",
      "alert": "OK",
      "vis_m": 9999,
      "fzfg": false,
      "metar_trigger": false,
      "taf_trigger": false,
      "metar": "METAR LIPQ 140720Z AUTO 11004KT 070V140 9999 BKN084/// 14/04 Q1004",
      "taf": "TAF LIPQ 140500Z 1406/1506 07006KT 9999 SCT060"
    },
    {
      "icao": "LIPR",
      "alert": "OK",
      "vis_m": 9999,
      "fzfg": false,
      "metar_trigger": false,
      "taf_trigger": false,
      "metar": "METAR LIPR 140720Z AUTO 21012KT 9999 NCD 19/09 Q1003",
      "taf": "TAF LIPR 140500Z 1406/1506 VRB05KT 9999 FEW060"
    },
    {
      "icao": "LIPX",
      "alert": "OK",
      "vis_m": 9999,
      "fzfg": false,
      "metar_trigger": false,
      "taf_trigger": false,
      "metar": "METAR LIPX 140720Z 08011KT 050V110 9999 BKN050 14/08 Q1002",
      "taf": "TAF LIPX 140500Z 1406/1506 07012KT 9999 BKN050"
    },
    {
      "icao": "LIPY",
      "alert": "OK",
      "vis_m": 9999,
      "fzfg": false,
      "metar_trigger": false,
      "taf_trigger": false,
      "metar": "METAR LIPY 140720Z AUTO 20004KT 140V250 9999 NCD 19/11 Q1004",
      "taf": "TAF LIPY 140500Z 1406/1506 VRB05KT 9999 FEW060"
    },
    {
      "icao": "LIPZ",
      "alert": "OK",
      "vis_m": 9000,
      "fzfg": false,
      "metar_trigger": false,
      "taf_trigger": false,
      "metar": "METAR LIPZ 140720Z 03008KT 360V060 9000 -RA BKN040 13/10 Q1004 TEMPO SHRA",
      "taf": "TAF LIPZ 140500Z 1406/1512 VRB05KT 9999 SCT060"
    },
    {
      "icao": "LIRF",
      "alert": "OK",
      "vis_m": 9999,
      "fzfg": false,
      "metar_trigger": false,
      "taf_trigger": false,
      "metar": "METAR LIRF 140720Z 14009KT 9999 SCT020 18/14 Q1006 NOSIG",
      "taf": "TAF LIRF 140500Z 1406/1512 08007KT 9999 FEW030"
    },
    {
      "icao": "LIRN",
      "alert": "OK",
      "vis_m": 9999,
      "fzfg": false,
      "metar_trigger": false,
      "taf_trigger": false,
      "metar": "METAR LIRN 140720Z 21006KT 160V230 9999 SCT040 17/12 Q1008 NOSIG",
      "taf": "TAF LIRN 140500Z 1406/1506 VRB05KT CAVOK"
    },
    {
      "icao": "LIRP",
      "alert": "OK",
      "vis_m": 9999,
      "fzfg": false,
      "metar_trigger": false,
      "taf_trigger": false,
      "metar": "METAR LIRP 140715Z 23018KT 9999 FEW035 17/09 Q1004 TEMPO 22015G25KT",
      "taf": "TAF LIRP 140500Z 1406/1506 22015KT 9999 FEW020 SCT040"
    },
    {
      "icao": "LIRZ",
      "alert": "OK",
      "vis_m": 9999,
      "fzfg": false,
      "metar_trigger": false,
      "taf_trigger": false,
      "metar": "METAR LIRZ 140720Z AUTO 24003KT 170V290 9999 BKN047/// 13/12 Q1006",
      "taf": "TAF LIRZ 140500Z 1406/1506 VRB05KT 9999 SCT030"
    },
    {
      "icao": "LJLJ",
      "alert": "OK",
      "vis_m": 9999,
      "fzfg": false,
      "metar_trigger": false,
      "taf_trigger": false,
      "metar": "METAR LJLJ 140730Z 06003KT 340V090 9999 SCT042 SCT090 11/06 Q1005 NOSIG",
      "taf": "TAF LJLJ 140500Z 1406/1506 VRB02KT 9999 SCT060"
    },
    {
      "icao": "LKMT",
      "alert": "OK",
      "vis_m": 9999,
      "fzfg": false,
      "metar_trigger": false,
      "taf_trigger": false,
      "metar": "METAR LKMT 140730Z 20019KT 9999 -RA FEW022 SCT043 10/06 Q1004 NOSIG",
      "taf": "TAF LKMT 140500Z 1406/1506 21015KT CAVOK"
    },
    {
      "icao": "LKPR",
      "alert": "OK",
      "vis_m": 9999,
      "fzfg": false,
      "metar_trigger": false,
      "taf_trigger": false,
      "metar": "METAR LKPR 140730Z 21016KT 9999 FEW013 SCT027 10/04 Q1000 NOSIG",
      "taf": "TAF LKPR 140500Z 1406/1512 22010KT 9999 SCT040"
    },
    {
      "icao": "LLBG",
      "alert": "OK",
      "vis_m": 9999,
      "fzfg": false,
      "metar_trigger": false,
      "taf_trigger": false,
      "metar": "METAR LLBG 140720Z 21007KT CAVOK 31/06 Q1010 NOSIG",
      "taf": "TAF LLBG 140504Z 1406/1506 VRB03KT CAVOK TX34/1412Z TN20/1504Z"
    },
    {
      "icao": "LMML",
      "alert": "OK",
      "vis_m": 9999,
      "fzfg": false,
      "metar_trigger": false,
      "taf_trigger": false,
      "metar": "METAR LMML 140715Z 27018KT 240V300 9999 FEW022 20/12 Q1014 NOSIG",
      "taf": "TAF LMML 140500Z 1406/1506 29017KT 9999 FEW015"
    },
    {
      "icao": "LOWW",
      "alert": "OK",
      "vis_m": 9999,
      "fzfg": false,
      "metar_trigger": false,
      "taf_trigger": false,
      "metar": "METAR LOWW 140720Z 12003KT 050V170 CAVOK 14/06 Q1004 NOSIG",
      "taf": "TAF LOWW 140515Z 1406/1512 VRB04KT 9999 SCT050 TX15/1412Z TN08/1501Z"
    },
    {
      "icao": "LPFR",
      "alert": "OK",
      "vis_m": 9999,
      "fzfg": false,
      "metar_trigger": false,
      "taf_trigger": false,
      "metar": "METAR LPFR 140730Z 26003KT 220V290 CAVOK 17/12 Q1015",
      "taf": "TAF LPFR 140500Z 1406/1506 28005KT CAVOK"
    },
    {
      "icao": "LPMA",
      "alert": "OK",
      "vis_m": 9999,
      "fzfg": false,
      "metar_trigger": false,
      "taf_trigger": false,
      "metar": "METAR LPMA 140730Z VRB02KT 9999 FEW015 17/09 Q1020",
      "taf": "TAF LPMA 140500Z 1406/1506 35008KT 9999 SCT015"
    },
    {
      "icao": "LPPR",
      "alert": "OK",
      "vis_m": 9999,
      "fzfg": false,
      "metar_trigger": false,
      "taf_trigger": false,
      "metar": "METAR LPPR 140730Z 01011KT CAVOK 13/09 Q1017",
      "taf": "TAF LPPR 140500Z 1406/1506 01005KT 9999 FEW015"
    },
    {
      "icao": "LPPS",
      "alert": "OK",
      "vis_m": 9999,
      "fzfg": false,
      "metar_trigger": false,
      "taf_trigger": false,
      "metar": "METAR LPPS 140730Z 31010KT 9999 SCT013 FEW018TCU 16/14 Q1020",
      "taf": "TAF LPPS 140500Z 1406/1512 33012KT 9999 SCT015"
    },
    {
      "icao": "LPPT",
      "alert": "OK",
      "vis_m": 9999,
      "fzfg": false,
      "metar_trigger": false,
      "taf_trigger": false,
      "metar": "METAR LPPT 140730Z 34012KT 9999 SCT016 15/11 Q1016",
      "taf": "TAF LPPT 140500Z 1406/1512 33010KT 9999 FEW020"
    },
    {
      "icao": "LQBK",
      "alert": "OK",
      "vis_m": 9999,
      "fzfg": false,
      "metar_trigger": false,
      "taf_trigger": false,
      "metar": "METAR LQBK 140730Z VRB02KT CAVOK 14/05 Q1005 NOSIG",
      "taf": "TAF LQBK 140500Z 1406/1506 15005KT CAVOK TX21/1413Z TN08/1504Z"
    },
    {
      "icao": "LQSA",
      "alert": "OK",
      "vis_m": 9999,
      "fzfg": false,
      "metar_trigger": false,
      "taf_trigger": false,
      "metar": "METAR LQSA 140730Z VRB02KT CAVOK 11/02 Q1006 NOSIG",
      "taf": "TAF LQSA 140500Z 1406/1506 VRB02KT CAVOK TX22/1413Z TN08/1504Z"
    },
    {
      "icao": "LQTZ",
      "alert": "OK",
      "vis_m": 9999,
      "fzfg": false,
      "metar_trigger": false,
      "taf_trigger": false,
      "metar": "METAR LQTZ 140730Z VRB02KT CAVOK 13/07 Q1006",
      "taf": "TAF LQTZ 140500Z 1406/1506 VRB02KT CAVOK TX21/1413Z TN08/1504Z"
    },
    {
      "icao": "LRBC",
      "alert": "OK",
      "vis_m": 9999,
      "fzfg": false,
      "metar_trigger": false,
      "taf_trigger": false,
      "metar": "METAR LRBC 140730Z 35008KT 9999 FEW035 14/06 Q1008",
      "taf": "TAF LRBC 140500Z 1406/1415 VRB04KT CAVOK"
    },
    {
      "icao": "LRBS",
      "alert": "OK",
      "vis_m": 9999,
      "fzfg": false,
      "metar_trigger": false,
      "taf_trigger": false,
      "metar": "METAR LRBS 140730Z 02006KT 330V070 9999 FEW032 14/05 Q1008 NOSIG",
      "taf": "TAF LRBS 140500Z 1406/1506 VRB04KT CAVOK"
    },
    {
      "icao": "LRBV",
      "alert": "OK",
      "vis_m": 9999,
      "fzfg": false,
      "metar_trigger": false,
      "taf_trigger": false,
      "metar": "METAR LRBV 140730Z 35001KT 9999 FEW025 11/03 Q1008",
      "taf": "TAF LRBV 140500Z 1406/1415 22006KT 9999 SCT035"
    },
    {
      "icao": "LRCL",
      "alert": "OK",
      "vis_m": 9999,
      "fzfg": false,
      "metar_trigger": false,
      "taf_trigger": false,
      "metar": "METAR LRCL 140730Z 05005KT 020V080 9999 FEW033 11/07 Q1008",
      "taf": "TAF LRCL 140500Z 1406/1415 09004KT 3000 BR NSC"
    },
    {
      "icao": "LRCV",
      "alert": "OK",
      "vis_m": 9999,
      "fzfg": false,
      "metar_trigger": false,
      "taf_trigger": false,
      "metar": "METAR LRCV 140730Z 11009KT 9999 FEW023 13/08 Q1008",
      "taf": "TAF LRCV 140500Z 1406/1415 06007KT CAVOK"
    },
    {
      "icao": "LRIA",
      "alert": "OK",
      "vis_m": 9999,
      "fzfg": false,
      "metar_trigger": false,
      "taf_trigger": false,
      "metar": "METAR LRIA 140730Z 34012KT CAVOK 14/03 Q1007",
      "taf": "TAF LRIA 140500Z 1406/1415 30006KT CAVOK"
    },
    {
      "icao": "LROP",
      "alert": "OK",
      "vis_m": 9999,
      "fzfg": false,
      "metar_trigger": false,
      "taf_trigger": false,
      "metar": "METAR LROP 140730Z 10004KT 020V190 9999 FEW030TCU SCT034 16/06 Q1008 NOSIG",
      "taf": "TAF LROP 140500Z 1406/1506 VRB04KT CAVOK"
    },
    {
      "icao": "LRSB",
      "alert": "OK",
      "vis_m": 9999,
      "fzfg": false,
      "metar_trigger": false,
      "taf_trigger": false,
      "metar": "METAR LRSB 140730Z 11005KT 050V170 CAVOK 13/03 Q1007",
      "taf": "TAF LRSB 140500Z 1406/1506 VRB04KT CAVOK"
    },
    {
      "icao": "LRSM",
      "alert": "OK",
      "vis_m": 9999,
      "fzfg": false,
      "metar_trigger": false,
      "taf_trigger": false,
      "metar": "METAR LRSM 140730Z AUTO 20004KT 140V280 9999 NCD 15/04 Q1008",
      "taf": "TAF LRSM 140500Z 1406/1415 VRB04KT CAVOK"
    },
    {
      "icao": "LRSV",
      "alert": "OK",
      "vis_m": 9999,
      "fzfg": false,
      "metar_trigger": false,
      "taf_trigger": false,
      "metar": "METAR LRSV 140730Z 31004KT 270V010 9999 FEW039 11/03 Q1007",
      "taf": "TAF LRSV 140500Z 1406/1415 33006KT CAVOK"
    },
    {
      "icao": "LRTM",
      "alert": "OK",
      "vis_m": 9999,
      "fzfg": false,
      "metar_trigger": false,
      "taf_trigger": false,
      "metar": "METAR LRTM 140730Z VRB02KT 9999 SCT004 08/08 Q1009",
      "taf": "TAF LRTM 140500Z 1406/1415 10005KT 0350 FG BKN001"
    },
    {
      "icao": "LRTR",
      "alert": "OK",
      "vis_m": 9999,
      "fzfg": false,
      "metar_trigger": false,
      "taf_trigger": false,
      "metar": "METAR LRTR 140730Z 11003KT 060V160 9999 FEW025 13/05 Q1008 NOSIG",
      "taf": "TAF LRTR 140500Z 1406/1506 10005KT CAVOK"
    },
    {
      "icao": "LTAC",
      "alert": "OK",
      "vis_m": 9999,
      "fzfg": false,
      "metar_trigger": false,
      "taf_trigger": false,
      "metar": "METAR LTAC 140720Z VRB04KT 9999 SCT040 SCT100 18/11 Q1005 NOSIG RMK RWY21C VRB02KT RWY03L 19003KT 140V250 RWY21R VRB03KT RWY03R VRB02KT RWY21L VRB02KT",
      "taf": "TAF LTAC 140440Z 1406/1506 VRB02KT 9999 SCT040 SCT100"
    },
    {
      "icao": "LTFM",
      "alert": "OK",
      "vis_m": 9999,
      "fzfg": false,
      "metar_trigger": false,
      "taf_trigger": false,
      "metar": "METAR LTFM 140720Z 01016KT 9999 -SHRA BKN032 BKN090 12/08 Q1006 NOSIG RMK RWY17L 36012KT RWY34L 36015KT RWY16R 36013KT RWY36 01017KT RWY18 01014KT",
      "taf": "TAF LTFM 140440Z 1406/1512 36012KT 9999 SCT035 BKN090"
    },
    {
      "icao": "LUKK",
      "alert": "OK",
      "vis_m": 9999,
      "fzfg": false,
      "metar_trigger": false,
      "taf_trigger": false,
      "metar": "METAR LUKK 140730Z 35013KT 310V030 CAVOK 15/03 Q1005 NOSIG",
      "taf": "TAF LUKK 140509Z 1406/1506 33014KT CAVOK"
    },
    {
      "icao": "LWOH",
      "alert": "OK",
      "vis_m": 9999,
      "fzfg": false,
      "metar_trigger": false,
      "taf_trigger": false,
      "metar": "METAR LWOH 140720Z 15006KT 9999 FEW030 14/09 Q1008",
      "taf": "TAF LWOH 140520Z 1406/1506 VRB02KT 9999 SCT040"
    },
    {
      "icao": "LWSK",
      "alert": "OK",
      "vis_m": 9999,
      "fzfg": false,
      "metar_trigger": false,
      "taf_trigger": false,
      "metar": "METAR LWSK 140720Z VRB03KT 9999 FEW040 15/06 Q1007 NOSIG",
      "taf": "TAF LWSK 140520Z 1406/1506 VRB02KT 9999 SCT060"
    },
    {
      "icao": "LYBE",
      "alert": "OK",
      "vis_m": 9999,
      "fzfg": false,
      "metar_trigger": false,
      "taf_trigger": false,
      "metar": "METAR LYBE 140730Z 12010KT 090V150 CAVOK 15/03 Q1007 NOSIG",
      "taf": "TAF LYBE 140500Z 1406/1506 13008KT CAVOK TX21/1413Z TN11/1504Z"
    },
    {
      "icao": "LYNI",
      "alert": "OK",
      "vis_m": 9999,
      "fzfg": false,
      "metar_trigger": false,
      "taf_trigger": false,
      "metar": "METAR LYNI 140730Z VRB02KT CAVOK 12/06 Q1008 NOSIG",
      "taf": "TAF LYNI 140500Z 1406/1506 07005KT CAVOK TX21/1413Z TN07/1503Z"
    },
    {
      "icao": "LYPG",
      "alert": "OK",
      "vis_m": 9999,
      "fzfg": false,
      "metar_trigger": false,
      "taf_trigger": false,
      "metar": "METAR LYPG 140730Z VRB03KT 9999 FEW020 SCT040 19/10 Q1007 NOSIG",
      "taf": "TAF LYPG 140500Z 1406/1506 16005KT 9999 FEW040 TX23/1413Z TN14/1504Z"
    },
    {
      "icao": "LZIB",
      "alert": "OK",
      "vis_m": 9999,
      "fzfg": false,
      "metar_trigger": false,
      "taf_trigger": false,
      "metar": "METAR LZIB 140730Z 10003KT 350V160 CAVOK 12/04 Q1005 NOSIG",
      "taf": "TAF LZIB 140515Z 1406/1506 21005KT 9999 FEW040"
    },
    {
      "icao": "LZKZ",
      "alert": "OK",
      "vis_m": 9999,
      "fzfg": false,
      "metar_trigger": false,
      "taf_trigger": false,
      "metar": "METAR LZKZ 140730Z 17004KT 110V210 CAVOK 13/06 Q1006 NOSIG",
      "taf": "TAF LZKZ 140515Z 1406/1506 VRB02KT CAVOK"
    },
    {
      "icao": "LZTT",
      "alert": "OK",
      "vis_m": 9999,
      "fzfg": false,
      "metar_trigger": false,
      "taf_trigger": false,
      "metar": "METAR LZTT 140730Z 28010KT 9999 FEW056 12/02 Q1005 NOSIG",
      "taf": "TAF LZTT 140515Z 1406/1506 25007KT 9999 FEW050"
    },
    {
      "icao": "OEJN",
      "alert": "OK",
      "vis_m": 9999,
      "fzfg": false,
      "metar_trigger": false,
      "taf_trigger": false,
      "metar": "METAR OEJN 140700Z 34008KT CAVOK 35/16 Q1007 NOSIG",
      "taf": "TAF OEJN 140500Z 1406/1512 33014KT CAVOK"
    },
    {
      "icao": "OEMA",
      "alert": "OK",
      "vis_m": 9999,
      "fzfg": false,
      "metar_trigger": false,
      "taf_trigger": false,
      "metar": "METAR OEMA 140700Z 33004KT CAVOK 35/M01 Q1013 NOSIG",
      "taf": "TAF OEMA 140500Z 1406/1512 29014KT CAVOK"
    },
    {
      "icao": "OJAI",
      "alert": "OK",
      "vis_m": 4000,
      "fzfg": false,
      "metar_trigger": false,
      "taf_trigger": false,
      "metar": "METAR OJAI 140700Z 26008KT 4000 HZ NSC 27/04 Q1015 NOSIG",
      "taf": "TAF OJAI 140500Z 1406/1512 28012KT 5000 HZ NSC"
    },
    {
      "icao": "OMAA",
      "alert": "OK",
      "vis_m": 9999,
      "fzfg": false,
      "metar_trigger": false,
      "taf_trigger": false,
      "metar": "METAR OMAA 140730Z 28014KT CAVOK 37/07 Q1004 NOSIG",
      "taf": "TAF OMAA 140500Z 1406/1512 29012KT 8000 NSC"
    },
    {
      "icao": "OMDB",
      "alert": "OK",
      "vis_m": 9999,
      "fzfg": false,
      "metar_trigger": false,
      "taf_trigger": false,
      "metar": "METAR OMDB 140730Z 26012KT 220V300 CAVOK 35/13 Q1003 NOSIG",
      "taf": "TAF OMDB 140500Z 1406/1512 20008KT 8000 NSC"
    },
    {
      "icao": "UAAA",
      "alert": "OK",
      "vis_m": 9999,
      "fzfg": false,
      "metar_trigger": false,
      "taf_trigger": false,
      "metar": "METAR UAAA 140730Z 33003MPS 230V020 9999 FEW050 SCT200 20/00 Q1015 NOSIG",
      "taf": "TAF UAAA 140501Z 1406/1506 03002G07MPS 9999 FEW050CB SCT100 TX21/1406Z TN07/1501Z"
    },
    {
      "icao": "UBBB",
      "alert": "OK",
      "vis_m": 9999,
      "fzfg": false,
      "metar_trigger": false,
      "taf_trigger": false,
      "metar": "METAR UBBB 140730Z 33016KT CAVOK 25/15 Q1004 NOSIG",
      "taf": "TAF UBBB 140459Z 1406/1506 32014KT CAVOK TX24/1407Z TN16/1423Z"
    },
    {
      "icao": "UDSG",
      "alert": "OK",
      "vis_m": 9999,
      "fzfg": false,
      "metar_trigger": false,
      "taf_trigger": false,
      "metar": "METAR UDSG 140730Z 23005KT 9999 FEW049 15/07 Q1012 NOSIG",
      "taf": "TAF UDSG 140458Z 1406/1506 22006KT 9999 FEW040"
    },
    {
      "icao": "UDYZ",
      "alert": "OK",
      "vis_m": 9999,
      "fzfg": false,
      "metar_trigger": false,
      "taf_trigger": false,
      "metar": "METAR UDYZ 140730Z VRB03KT 9999 NSC 20/07 Q1009 NOSIG",
      "taf": "TAF UDYZ 140500Z 1406/1506 22006KT 9999 FEW040"
    },
    {
      "icao": "UGKO",
      "alert": "OK",
      "vis_m": 9999,
      "fzfg": false,
      "metar_trigger": false,
      "taf_trigger": false,
      "metar": "METAR UGKO 140730Z 10005KT 040V150 CAVOK 23/14 Q1004 NOSIG",
      "taf": "TAF UGKO 140500Z 1406/1506 09007KT CAVOK TX29/1411Z TN13/1502Z"
    }
  ]
}