{
  "ts_utc": "2026-06-04T10:28:44Z",
  "threshold_m": 150,
  "source": "stations_override.txt (ICAO list) + aviationweather.gov (METAR/TAF raw)",
  "station_count": 159,
  "stations": [
    {
      "icao": "BIKF",
      "alert": "OK",
      "vis_m": 9999,
      "fzfg": false,
      "metar_trigger": false,
      "taf_trigger": false,
      "metar": "METAR BIKF 041000Z 36006KT 9999 BKN010 BKN078 10/08 Q0989",
      "taf": "TAF BIKF 040746Z 0409/0509 36005KT 9999 SCT015 BKN025 TX13/0414Z TN09/0502Z"
    },
    {
      "icao": "BKPR",
      "alert": "OK",
      "vis_m": null,
      "fzfg": false,
      "metar_trigger": false,
      "taf_trigger": false,
      "metar": "",
      "taf": "TAF BKPR 040530Z 0406/0506 VRB05KT 9999 BKN040"
    },
    {
      "icao": "EBCI",
      "alert": "OK",
      "vis_m": 5000,
      "fzfg": false,
      "metar_trigger": false,
      "taf_trigger": false,
      "metar": "METAR EBCI 041020Z 25016G28KT 220V280 5000 TSRA SCT013CB BKN020 13/11 Q1002 RESHRA TEMPO 21015G35KT 3000 SHRA BKN013",
      "taf": "TAF EBCI 040502Z 0406/0512 23012KT 9999 SCT020"
    },
    {
      "icao": "EDDB",
      "alert": "OK",
      "vis_m": 9999,
      "fzfg": false,
      "metar_trigger": false,
      "taf_trigger": false,
      "metar": "METAR EDDB 041020Z AUTO 22009KT 190V250 9999 BKN040 BKN047 22/13 Q1005 NOSIG",
      "taf": "TAF EDDB 040500Z 0406/0506 20010KT CAVOK"
    },
    {
      "icao": "EDDH",
      "alert": "OK",
      "vis_m": 9999,
      "fzfg": false,
      "metar_trigger": false,
      "taf_trigger": false,
      "metar": "METAR EDDH 041020Z AUTO 18011KT 150V210 9999 FEW028 19/12 Q1001 NOSIG",
      "taf": "TAF EDDH 040500Z 0406/0512 19011KT 9999 BKN030"
    },
    {
      "icao": "EDDK",
      "alert": "OK",
      "vis_m": 9999,
      "fzfg": false,
      "metar_trigger": false,
      "taf_trigger": false,
      "metar": "METAR EDDK 041020Z AUTO 19009KT 9999 BKN035 BKN042 17/12 Q1003 TEMPO 20015G25KT SHRA BKN025CB",
      "taf": "TAF EDDK 040500Z 0406/0512 13005KT 9999 BKN030"
    },
    {
      "icao": "EDDN",
      "alert": "OK",
      "vis_m": 9999,
      "fzfg": false,
      "metar_trigger": false,
      "taf_trigger": false,
      "metar": "METAR EDDN 041020Z AUTO 19011KT 9999 FEW044 22/12 Q1008 NOSIG",
      "taf": "TAF EDDN 040500Z 0406/0506 16005KT 9999 SCT030"
    },
    {
      "icao": "EDDS",
      "alert": "OK",
      "vis_m": 9999,
      "fzfg": false,
      "metar_trigger": false,
      "taf_trigger": false,
      "metar": "METAR EDDS 041020Z AUTO VRB07KT 9999 FEW037 SCT048 21/12 Q1008 NOSIG",
      "taf": "TAF EDDS 040500Z 0406/0506 VRB03KT 9999 BKN030"
    },
    {
      "icao": "EDFH",
      "alert": "OK",
      "vis_m": 9999,
      "fzfg": false,
      "metar_trigger": false,
      "taf_trigger": false,
      "metar": "METAR EDFH 041020Z 23011KT 190V270 9999 SCT019 BKN024 15/11 Q1006",
      "taf": "TAF EDFH 040500Z 0406/0506 23015G25KT 9999 BKN020"
    },
    {
      "icao": "EDJA",
      "alert": "OK",
      "vis_m": 9999,
      "fzfg": false,
      "metar_trigger": false,
      "taf_trigger": false,
      "metar": "METAR EDJA 041020Z 23011KT 9999 FEW034 19/11 Q1009",
      "taf": "TAF EDJA 040800Z 0409/0418 22009KT CAVOK"
    },
    {
      "icao": "EDLW",
      "alert": "OK",
      "vis_m": 9999,
      "fzfg": false,
      "metar_trigger": false,
      "taf_trigger": false,
      "metar": "METAR EDLW 041020Z 20013KT 9999 FEW030 17/12 Q1002",
      "taf": "TAF EDLW 040500Z 0406/0506 20010KT 9999 BKN030"
    },
    {
      "icao": "EDNY",
      "alert": "OK",
      "vis_m": 9999,
      "fzfg": false,
      "metar_trigger": false,
      "taf_trigger": false,
      "metar": "METAR EDNY 041020Z VRB03KT CAVOK 20/10 Q1010",
      "taf": "TAF EDNY 040800Z 0409/0418 24006KT CAVOK"
    },
    {
      "icao": "EDSB",
      "alert": "OK",
      "vis_m": 9999,
      "fzfg": false,
      "metar_trigger": false,
      "taf_trigger": false,
      "metar": "METAR EDSB 041020Z 22012KT 9999 SCT046 20/12 Q1007",
      "taf": "TAF EDSB 040500Z 0406/0506 21011KT 9999 BKN035"
    },
    {
      "icao": "EETN",
      "alert": "OK",
      "vis_m": 9999,
      "fzfg": false,
      "metar_trigger": false,
      "taf_trigger": false,
      "metar": "METAR EETN 041020Z 19009KT CAVOK 24/08 Q1012 NOSIG",
      "taf": "TAF EETN 040530Z 0406/0506 16008KT CAVOK"
    },
    {
      "icao": "EFTU",
      "alert": "OK",
      "vis_m": 9999,
      "fzfg": false,
      "metar_trigger": false,
      "taf_trigger": false,
      "metar": "METAR EFTU 041020Z AUTO 20013KT 150V230 CAVOK 25/08 Q1010",
      "taf": "TAF EFTU 040833Z 0409/0509 16013KT CAVOK"
    },
    {
      "icao": "EGBB",
      "alert": "OK",
      "vis_m": 9999,
      "fzfg": false,
      "metar_trigger": false,
      "taf_trigger": false,
      "metar": "METAR EGBB 041020Z 26009KT 220V280 9999 FEW020 BKN025 15/10 Q0994",
      "taf": "TAF EGBB 040501Z 0406/0506 21009KT 9999 FEW015 SCT030"
    },
    {
      "icao": "EGGP",
      "alert": "OK",
      "vis_m": 9999,
      "fzfg": false,
      "metar_trigger": false,
      "taf_trigger": false,
      "metar": "METAR EGGP 041020Z 26020KT 9999 -SHRA SCT027 BKN031 14/08 Q0992",
      "taf": "TAF EGGP 040458Z 0406/0506 20014KT 9999 FEW015 SCT025"
    },
    {
      "icao": "EGGW",
      "alert": "OK",
      "vis_m": 9999,
      "fzfg": false,
      "metar_trigger": false,
      "taf_trigger": false,
      "metar": "METAR EGGW 041020Z AUTO 24020KT 9999 -RA SCT032/// //////CB 13/10 Q0995",
      "taf": "TAF EGGW 040458Z 0406/0506 21012KT 9999 SCT020"
    },
    {
      "icao": "EGKK",
      "alert": "OK",
      "vis_m": 9999,
      "fzfg": false,
      "metar_trigger": false,
      "taf_trigger": false,
      "metar": "METAR EGKK 041020Z 22014KT 9999 SCT021CB 15/12 Q0997",
      "taf": "TAF EGKK 040457Z 0406/0512 22014KT 9999 SCT025"
    },
    {
      "icao": "EGNM",
      "alert": "OK",
      "vis_m": 9999,
      "fzfg": false,
      "metar_trigger": false,
      "taf_trigger": false,
      "metar": "METAR EGNM 041020Z 25015G29KT 210V280 9999 -SHRA SCT011 SCT020 12/10 Q0989",
      "taf": "TAF EGNM 040456Z 0406/0506 21013KT 9999 FEW015 SCT025"
    },
    {
      "icao": "EGPD",
      "alert": "OK",
      "vis_m": 9999,
      "fzfg": false,
      "metar_trigger": false,
      "taf_trigger": false,
      "metar": "METAR EGPD 041020Z 11006KT 070V150 9999 FEW024TCU 15/11 Q0983 TEMPO SHRA",
      "taf": "TAF EGPD 040453Z 0406/0506 17004KT 9999 FEW025"
    },
    {
      "icao": "EGPF",
      "alert": "OK",
      "vis_m": 9999,
      "fzfg": false,
      "metar_trigger": false,
      "taf_trigger": false,
      "metar": "METAR EGPF 041020Z AUTO 29012KT 9999 BKN024/// BKN034/// BKN043/// //////CB 16/11 Q0985",
      "taf": "TAF EGPF 040508Z 0406/0506 22005KT 9999 BKN025"
    },
    {
      "icao": "EHBK",
      "alert": "OK",
      "vis_m": 9999,
      "fzfg": false,
      "metar_trigger": false,
      "taf_trigger": false,
      "metar": "METAR EHBK 041025Z AUTO 21018KT 180V240 9999 FEW026 BKN029 BKN033 17/12 Q1001 TEMPO 7000 SHRA FEW020CB",
      "taf": "TAF EHBK 040453Z 0406/0512 23012KT 9999 BKN025"
    },
    {
      "icao": "EHEH",
      "alert": "OK",
      "vis_m": 9999,
      "fzfg": false,
      "metar_trigger": false,
      "taf_trigger": false,
      "metar": "METAR EHEH 040955Z AUTO 21015KT 180V250 9999 -RA FEW015CB SCT027 BKN066 16/14 Q1000 RERA REDZ BLU TEMPO 23010G25KT 4000 SHRA FEW012 SCT015CB",
      "taf": "TAF EHEH 040527Z 0406/0512 19008KT 9999 BKN040"
    },
    {
      "icao": "EKBI",
      "alert": "OK",
      "vis_m": 9999,
      "fzfg": false,
      "metar_trigger": false,
      "taf_trigger": false,
      "metar": "METAR EKBI 041020Z 20011KT 170V230 9999 -SHRA SCT015 FEW020TCU BKN072 16/13 Q0998",
      "taf": "TAF EKBI 040827Z 0409/0509 19009KT 9999 SCT025"
    },
    {
      "icao": "EKCH",
      "alert": "OK",
      "vis_m": 9999,
      "fzfg": false,
      "metar_trigger": false,
      "taf_trigger": false,
      "metar": "METAR EKCH 041020Z 16011KT 9999 -SHRA BKN017 SCT030CB 16/14 Q1002 TEMPO 4000 SHRA BKN012",
      "taf": ""
    },
    {
      "icao": "ENAL",
      "alert": "OK",
      "vis_m": 9999,
      "fzfg": false,
      "metar_trigger": false,
      "taf_trigger": false,
      "metar": "METAR ENAL 041020Z 06008KT CAVOK 16/12 Q0992",
      "taf": "TAF ENAL 040800Z 0409/0418 06012KT 9999 FEW050"
    },
    {
      "icao": "ENBR",
      "alert": "OK",
      "vis_m": 9999,
      "fzfg": false,
      "metar_trigger": false,
      "taf_trigger": false,
      "metar": "METAR ENBR 041020Z 12010KT 9999 VCSH FEW018TCU BKN030 13/10 Q0992 NOSIG RMK WIND 1200FT 14019KT",
      "taf": "TAF ENBR 040500Z 0406/0506 13008KT 9999 -SHRA FEW010 BKN040"
    },
    {
      "icao": "ENGM",
      "alert": "OK",
      "vis_m": 9999,
      "fzfg": false,
      "metar_trigger": false,
      "taf_trigger": false,
      "metar": "METAR ENGM 041020Z 13014KT 100V160 9999 VCSH SCT017 BKN023 17/12 Q0999 TEMPO 4000 TSRA BKN016 FEW020CB",
      "taf": ""
    },
    {
      "icao": "ENHD",
      "alert": "OK",
      "vis_m": 9999,
      "fzfg": false,
      "metar_trigger": false,
      "taf_trigger": false,
      "metar": "METAR ENHD 041020Z 16015KT 9999 FEW010CB SCT012 BKN020 14/12 Q0991",
      "taf": "TAF ENHD 040800Z 0409/0418 15012KT 9999 -SHRA FEW006 BKN018"
    },
    {
      "icao": "ENTC",
      "alert": "OK",
      "vis_m": 9999,
      "fzfg": false,
      "metar_trigger": false,
      "taf_trigger": false,
      "metar": "METAR ENTC 041020Z 27003KT 220V300 CAVOK 20/09 Q1004 NOSIG RMK WIND 2600FT 18012KT",
      "taf": ""
    },
    {
      "icao": "ENTO",
      "alert": "OK",
      "vis_m": 9999,
      "fzfg": false,
      "metar_trigger": false,
      "taf_trigger": false,
      "metar": "METAR ENTO 041020Z 16016KT 9999 BKN005 14/14 Q0998 TEMPO BKN012",
      "taf": "TAF ENTO 040500Z 0406/0506 18010KT 3000 BR BKN003"
    },
    {
      "icao": "ENVA",
      "alert": "OK",
      "vis_m": 9999,
      "fzfg": false,
      "metar_trigger": false,
      "taf_trigger": false,
      "metar": "METAR ENVA 041020Z 15017KT 120V180 CAVOK 21/10 Q0996 NOSIG RMK WIND 670FT 16024G38KT",
      "taf": "TAF ENVA 040500Z 0406/0506 12008KT CAVOK"
    },
    {
      "icao": "ENZV",
      "alert": "OK",
      "vis_m": 9999,
      "fzfg": false,
      "metar_trigger": false,
      "taf_trigger": false,
      "metar": "METAR ENZV 041020Z 18018KT 9999 -SHRA BKN014 BKN024 14/12 Q0992 NOSIG",
      "taf": "TAF ENZV 040500Z 0406/0506 14012KT 9999 -SHRA SCT018 BKN028"
    },
    {
      "icao": "EPGD",
      "alert": "OK",
      "vis_m": 9999,
      "fzfg": false,
      "metar_trigger": false,
      "taf_trigger": false,
      "metar": "METAR EPGD 041000Z 22008G18KT 170V270 9999 SCT030 20/12 Q1007",
      "taf": "TAF EPGD 040530Z 0406/0506 26005KT 9999 BKN030"
    },
    {
      "icao": "EPKK",
      "alert": "OK",
      "vis_m": 9999,
      "fzfg": false,
      "metar_trigger": false,
      "taf_trigger": false,
      "metar": "METAR EPKK 041000Z VRB02KT 9999 SCT016 BKN046 17/13 Q1012",
      "taf": "TAF EPKK 040830Z 0409/0509 VRB02KT 9999 BKN023"
    },
    {
      "icao": "EPKT",
      "alert": "OK",
      "vis_m": 9999,
      "fzfg": false,
      "metar_trigger": false,
      "taf_trigger": false,
      "metar": "METAR EPKT 041000Z VRB04KT 9999 FEW016 BKN024 18/11 Q1011",
      "taf": "TAF EPKT 040530Z 0406/0506 20007KT 3000 -RA BR BKN003"
    },
    {
      "icao": "EPLB",
      "alert": "OK",
      "vis_m": 6000,
      "fzfg": false,
      "metar_trigger": false,
      "taf_trigger": false,
      "metar": "METAR EPLB 041000Z 11004KT 6000 BKN007 OVC010 17/16 Q1011",
      "taf": ""
    },
    {
      "icao": "EPMO",
      "alert": "OK",
      "vis_m": 9999,
      "fzfg": false,
      "metar_trigger": false,
      "taf_trigger": false,
      "metar": "METAR EPMO 041000Z 19004KT 170V230 9999 -SHRA FEW010 BKN040CB 16/15 Q1010",
      "taf": ""
    },
    {
      "icao": "EPPO",
      "alert": "OK",
      "vis_m": 9999,
      "fzfg": false,
      "metar_trigger": false,
      "taf_trigger": false,
      "metar": "METAR EPPO 041000Z 23010G24KT 170V240 9999 SCT041 22/10 Q1008",
      "taf": "TAF EPPO 040530Z 0406/0506 VRB02KT CAVOK"
    },
    {
      "icao": "EPRA",
      "alert": "OK",
      "vis_m": 9999,
      "fzfg": false,
      "metar_trigger": false,
      "taf_trigger": false,
      "metar": "METAR EPRA 041000Z 27006KT 9999 BKN011 17/14 Q1011",
      "taf": "TAF EPRA 040830Z 0409/0418 28007KT 9999 BKN014"
    },
    {
      "icao": "EPRZ",
      "alert": "OK",
      "vis_m": 9999,
      "fzfg": false,
      "metar_trigger": false,
      "taf_trigger": false,
      "metar": "METAR EPRZ 041000Z 26006KT 9999 SCT013 BKN026 19/15 Q1011",
      "taf": "TAF EPRZ 040530Z 0406/0506 25005KT 9999 BKN007"
    },
    {
      "icao": "EPSC",
      "alert": "OK",
      "vis_m": 9999,
      "fzfg": false,
      "metar_trigger": false,
      "taf_trigger": false,
      "metar": "METAR EPSC 041000Z 17012KT 140V210 9999 SCT037 21/12 Q1005",
      "taf": "TAF EPSC 040530Z 0406/0506 17010KT CAVOK"
    },
    {
      "icao": "EPSY",
      "alert": "OK",
      "vis_m": 4000,
      "fzfg": false,
      "metar_trigger": false,
      "taf_trigger": false,
      "metar": "METAR EPSY 041000Z 17005KT 140V210 4000 -RA BR FEW002 OVC007 15/14 Q1010",
      "taf": ""
    },
    {
      "icao": "EPWA",
      "alert": "OK",
      "vis_m": 9000,
      "fzfg": false,
      "metar_trigger": false,
      "taf_trigger": false,
      "metar": "METAR EPWA 041000Z 25005KT 9000 -RA BKN016 16/15 Q1011 NOSIG",
      "taf": "TAF EPWA 040830Z 0409/0509 VRB02KT 9999 BKN020"
    },
    {
      "icao": "EPWR",
      "alert": "OK",
      "vis_m": 9999,
      "fzfg": false,
      "metar_trigger": false,
      "taf_trigger": false,
      "metar": "METAR EPWR 041000Z 18008KT 150V220 CAVOK 23/08 Q1009",
      "taf": "TAF EPWR 040830Z 0409/0509 20008KT 9999 FEW035"
    },
    {
      "icao": "ESGG",
      "alert": "OK",
      "vis_m": 9999,
      "fzfg": false,
      "metar_trigger": false,
      "taf_trigger": false,
      "metar": "METAR ESGG 041020Z 16014KT 9999 SCT021 BKN045 17/12 Q1000",
      "taf": "TAF ESGG 040830Z 0409/0509 15010KT 9999 SCT012"
    },
    {
      "icao": "ESKN",
      "alert": "OK",
      "vis_m": 9999,
      "fzfg": false,
      "metar_trigger": false,
      "taf_trigger": false,
      "metar": "METAR ESKN 041020Z 13009KT 9999 -RA BKN003 14/14 Q1005",
      "taf": ""
    },
    {
      "icao": "ESMS",
      "alert": "OK",
      "vis_m": 9999,
      "fzfg": false,
      "metar_trigger": false,
      "taf_trigger": false,
      "metar": "METAR ESMS 041020Z 16011KT 9999 SCT022 BKN031 17/13 Q1002",
      "taf": "TAF ESMS 040827Z 0409/0509 16008KT 9999 SCT025"
    },
    {
      "icao": "ESSA",
      "alert": "OK",
      "vis_m": 9999,
      "fzfg": false,
      "metar_trigger": false,
      "taf_trigger": false,
      "metar": "METAR ESSA 041020Z 17015KT 9999 FEW034 BKN046 19/11 Q1005 NOSIG",
      "taf": "TAF ESSA 040830Z 0409/0509 16014KT CAVOK"
    },
    {
      "icao": "EYKA",
      "alert": "OK",
      "vis_m": 9999,
      "fzfg": false,
      "metar_trigger": false,
      "taf_trigger": false,
      "metar": "METAR EYKA 041020Z 14013KT 110V170 9999 FEW034 BKN044 19/12 Q1012",
      "taf": "TAF EYKA 040501Z 0406/0506 15013KT 9000 BKN040"
    },
    {
      "icao": "EYPA",
      "alert": "OK",
      "vis_m": 9999,
      "fzfg": false,
      "metar_trigger": false,
      "taf_trigger": false,
      "metar": "METAR EYPA 041020Z 15013KT 120V190 9999 BKN040 21/11 Q1008",
      "taf": "TAF EYPA 040501Z 0406/0506 16012KT 9000 SCT035"
    },
    {
      "icao": "EYVI",
      "alert": "OK",
      "vis_m": 9999,
      "fzfg": false,
      "metar_trigger": false,
      "taf_trigger": false,
      "metar": "METAR EYVI 041020Z 14010KT 110V170 9999 FEW040 OVC048 19/11 Q1013 NOSIG",
      "taf": "TAF EYVI 040500Z 0406/0506 14010KT 9000 NSC"
    },
    {
      "icao": "GCFV",
      "alert": "OK",
      "vis_m": 9999,
      "fzfg": false,
      "metar_trigger": false,
      "taf_trigger": false,
      "metar": "METAR GCFV 041000Z 04015KT 9999 FEW020 23/18 Q1019",
      "taf": "TAF GCFV 040800Z 0409/0509 03016KT 9999 SCT025 TX26/0414Z TN19/0506Z"
    },
    {
      "icao": "GCLP",
      "alert": "OK",
      "vis_m": 9999,
      "fzfg": false,
      "metar_trigger": false,
      "taf_trigger": false,
      "metar": "METAR GCLP 041000Z 01026KT 9999 FEW020 24/16 Q1020 NOSIG",
      "taf": "TAF GCLP 040800Z 0409/0509 36025KT 9999 SCT025 TX26/0414Z TN18/0506Z"
    },
    {
      "icao": "GCTS",
      "alert": "OK",
      "vis_m": 9999,
      "fzfg": false,
      "metar_trigger": false,
      "taf_trigger": false,
      "metar": "METAR GCTS 041000Z 23011KT 9999 FEW018 23/17 Q1020 WS R07 BECMG 08021KT",
      "taf": "TAF GCTS 040800Z 0409/0509 09015KT 9999 FEW020 TX28/0414Z TN18/0506Z"
    },
    {
      "icao": "GMAD",
      "alert": "OK",
      "vis_m": 6000,
      "fzfg": false,
      "metar_trigger": false,
      "taf_trigger": false,
      "metar": "METAR GMAD 041000Z 31003KT 220V350 6000 BKN006 SCT011 20/17 Q1014 NOSIG",
      "taf": "TAF GMAD 040500Z 0406/0512 07004KT 8000 BKN010"
    },
    {
      "icao": "GMMN",
      "alert": "OK",
      "vis_m": 9999,
      "fzfg": false,
      "metar_trigger": false,
      "taf_trigger": false,
      "metar": "METAR GMMN 041000Z 36010KT 320V040 9999 FEW020 26/19 Q1017 NOSIG",
      "taf": "TAF GMMN 040500Z 0406/0512 14004KT 8000 FEW020"
    },
    {
      "icao": "GMMX",
      "alert": "OK",
      "vis_m": 9999,
      "fzfg": false,
      "metar_trigger": false,
      "taf_trigger": false,
      "metar": "METAR GMMX 041000Z 34004KT 260V060 CAVOK 26/16 Q1017 NOSIG",
      "taf": "TAF GMMX 040500Z 0406/0512 04006KT 8000 NSC"
    },
    {
      "icao": "HEGN",
      "alert": "OK",
      "vis_m": 9999,
      "fzfg": false,
      "metar_trigger": false,
      "taf_trigger": false,
      "metar": "METAR HEGN 041000Z 01012KT CAVOK 38/09 Q1010 NOSIG",
      "taf": "TAF HEGN 040500Z 0406/0512 32012KT CAVOK"
    },
    {
      "icao": "HEMA",
      "alert": "OK",
      "vis_m": 9999,
      "fzfg": false,
      "metar_trigger": false,
      "taf_trigger": false,
      "metar": "METAR HEMA 041000Z 33022KT CAVOK 37/10 Q1010 NOSIG",
      "taf": "TAF HEMA 040500Z 0406/0512 33010G20KT CAVOK"
    },
    {
      "icao": "HESH",
      "alert": "OK",
      "vis_m": 9999,
      "fzfg": false,
      "metar_trigger": false,
      "taf_trigger": false,
      "metar": "METAR HESH 041000Z 36010KT CAVOK 37/11 Q1011 NOSIG",
      "taf": "TAF HESH 040500Z 0406/0512 36015KT CAVOK"
    },
    {
      "icao": "HESX",
      "alert": "OK",
      "vis_m": 9999,
      "fzfg": false,
      "metar_trigger": false,
      "taf_trigger": false,
      "metar": "METAR HESX 041000Z 06010KT CAVOK 33/10 Q1013 NOSIG",
      "taf": "TAF HESX 040500Z 0406/0512 03010KT CAVOK"
    },
    {
      "icao": "LATI",
      "alert": "OK",
      "vis_m": 9999,
      "fzfg": false,
      "metar_trigger": false,
      "taf_trigger": false,
      "metar": "METAR LATI 041020Z 33007KT 280V030 9999 SCT035 23/16 Q1012 NOSIG",
      "taf": "TAF LATI 040500Z 0406/0506 VRB05KT CAVOK TX27/0412Z TN14/0504Z"
    },
    {
      "icao": "LBPD",
      "alert": "OK",
      "vis_m": 9999,
      "fzfg": false,
      "metar_trigger": false,
      "taf_trigger": false,
      "metar": "METAR LBPD 041000Z AUTO 26004KT 9999 FEW030 SCT050 BKN088 //////CB 21/17 Q1010 TEMPO 5000 TSRA SCT030CB",
      "taf": "TAF LBPD 040500Z 0406/0506 VRB04KT 9999 BKN050"
    },
    {
      "icao": "LBSF",
      "alert": "OK",
      "vis_m": 3200,
      "fzfg": false,
      "metar_trigger": false,
      "taf_trigger": false,
      "metar": "METAR LBSF 041000Z 17009KT 3200 RA FEW024 SCT037 OVC048 16/14 Q1013 TEMPO 3000 SHRA FEW030CB",
      "taf": "TAF LBSF 040500Z 0406/0506 VRB04KT 9999 BKN050"
    },
    {
      "icao": "LBWN",
      "alert": "OK",
      "vis_m": 9999,
      "fzfg": false,
      "metar_trigger": false,
      "taf_trigger": false,
      "metar": "METAR LBWN 041000Z 13008KT 9999 FEW026 SCT042 25/20 Q1009 NOSIG",
      "taf": "TAF LBWN 040500Z 0406/0506 VRB04KT 9999 SCT040"
    },
    {
      "icao": "LCLK",
      "alert": "OK",
      "vis_m": 9999,
      "fzfg": false,
      "metar_trigger": false,
      "taf_trigger": false,
      "metar": "METAR LCLK 041000Z 18013KT 9999 FEW025 28/19 Q1013 NOSIG",
      "taf": "TAF LCLK 040530Z 0406/0506 14006KT 9999 FEW020"
    },
    {
      "icao": "LCPH",
      "alert": "OK",
      "vis_m": 9999,
      "fzfg": false,
      "metar_trigger": false,
      "taf_trigger": false,
      "metar": "METAR LCPH 041000Z AUTO 31011KT 260V320 9999 NCD 26/20 Q1015 NOSIG",
      "taf": "TAF LCPH 040530Z 0406/0506 18007KT 9999 FEW020"
    },
    {
      "icao": "LEAL",
      "alert": "OK",
      "vis_m": 9999,
      "fzfg": false,
      "metar_trigger": false,
      "taf_trigger": false,
      "metar": "METAR LEAL 041000Z 21006KT 150V260 9999 FEW022 28/19 Q1012 NOSIG",
      "taf": "TAF LEAL 040500Z 0406/0506 VRB04KT 9999 FEW020 TX29/0412Z TN20/0406Z"
    },
    {
      "icao": "LEBB",
      "alert": "OK",
      "vis_m": 9999,
      "fzfg": false,
      "metar_trigger": false,
      "taf_trigger": false,
      "metar": "METAR LEBB 041000Z VRB02KT 9999 -RA FEW010 SCT027 BKN070 17/16 Q1016 RERA TEMPO 3000 RA",
      "taf": ""
    },
    {
      "icao": "LEBL",
      "alert": "OK",
      "vis_m": 9999,
      "fzfg": false,
      "metar_trigger": false,
      "taf_trigger": false,
      "metar": "METAR LEBL 041000Z 20012KT 9999 BKN030 23/20 Q1012 NOSIG",
      "taf": ""
    },
    {
      "icao": "LECH",
      "alert": "OK",
      "vis_m": 9000,
      "fzfg": false,
      "metar_trigger": false,
      "taf_trigger": false,
      "metar": "METAR LECH 041000Z AUTO 12008KT 060V160 9000 FEW020 24/18 Q1012",
      "taf": "TAF LECH 040500Z 0406/0506 VRB04KT CAVOK TX30/0413Z TN15/0406Z"
    },
    {
      "icao": "LEMD",
      "alert": "OK",
      "vis_m": 9999,
      "fzfg": false,
      "metar_trigger": false,
      "taf_trigger": false,
      "metar": "METAR LEMD 041000Z 22011KT CAVOK 25/07 Q1013 NOSIG",
      "taf": ""
    },
    {
      "icao": "LEMG",
      "alert": "OK",
      "vis_m": 9999,
      "fzfg": false,
      "metar_trigger": false,
      "taf_trigger": false,
      "metar": "METAR LEMG 041000Z 13007KT 100V160 CAVOK 23/17 Q1014 NOSIG",
      "taf": "TAF LEMG 040500Z 0406/0506 28005KT 9999 FEW030 TX34/0414Z TN19/0406Z"
    },
    {
      "icao": "LEVC",
      "alert": "OK",
      "vis_m": 9999,
      "fzfg": false,
      "metar_trigger": false,
      "taf_trigger": false,
      "metar": "METAR LEVC 041000Z 13008KT 090V160 CAVOK 29/19 Q1010 NOSIG",
      "taf": "TAF LEVC 040500Z 0406/0506 VRB04KT 9999 FEW020 TX34/0412Z TN18/0406Z"
    },
    {
      "icao": "LEXJ",
      "alert": "OK",
      "vis_m": 9000,
      "fzfg": false,
      "metar_trigger": false,
      "taf_trigger": false,
      "metar": "METAR LEXJ 041000Z 31007KT 280V340 9000 SCT022 BKN037 BKN047 17/14 Q1016",
      "taf": "TAF LEXJ 040800Z 0409/0509 28009KT 9000 FEW020 BKN040 TX18/0414Z TN12/0505Z"
    },
    {
      "icao": "LEZG",
      "alert": "OK",
      "vis_m": 9999,
      "fzfg": false,
      "metar_trigger": false,
      "taf_trigger": false,
      "metar": "METAR LEZG 041000Z 31009KT 270V350 9999 FEW075 25/14 Q1012 NOSIG",
      "taf": "TAF LEZG 040500Z 0406/0506 30009KT CAVOK TX29/0415Z TN15/0406Z"
    },
    {
      "icao": "LEZL",
      "alert": "OK",
      "vis_m": 9999,
      "fzfg": false,
      "metar_trigger": false,
      "taf_trigger": false,
      "metar": "METAR LEZL 041000Z 22003KT CAVOK 27/14 Q1015 NOSIG",
      "taf": "TAF LEZL 040800Z 0409/0509 29009KT CAVOK TX35/0415Z TN17/0506Z"
    },
    {
      "icao": "LFBD",
      "alert": "OK",
      "vis_m": 9999,
      "fzfg": false,
      "metar_trigger": false,
      "taf_trigger": false,
      "metar": "METAR LFBD 041000Z AUTO 29014KT 9999 FEW032 SCT066 BKN120 19/12 Q1013 TEMPO 27015G25KT 3000 SHRA BKN030TCU",
      "taf": "TAF LFBD 040500Z 0406/0512 24010KT 9999 BKN020 TX20/0414Z TN11/0505Z"
    },
    {
      "icao": "LFLL",
      "alert": "OK",
      "vis_m": 8000,
      "fzfg": false,
      "metar_trigger": false,
      "taf_trigger": false,
      "metar": "METAR LFLL 041000Z 27006KT 8000 -RA FEW026 SCT093 BKN130 16/14 Q1013 NOSIG",
      "taf": ""
    },
    {
      "icao": "LFLS",
      "alert": "OK",
      "vis_m": 9999,
      "fzfg": false,
      "metar_trigger": false,
      "taf_trigger": false,
      "metar": "METAR LFLS 041000Z AUTO 27012KT 9999 -RA FEW036/// SCT049/// BKN064/// ///CB 17/14 Q1013 BECMG 4000 -RA NSC",
      "taf": "TAF LFLS 040800Z 0409/0509 26008KT CAVOK"
    },
    {
      "icao": "LFMN",
      "alert": "OK",
      "vis_m": 9999,
      "fzfg": false,
      "metar_trigger": false,
      "taf_trigger": false,
      "metar": "METAR LFMN 041000Z 10014KT 9999 FEW013 BKN260 23/18 Q1011 NOSIG",
      "taf": "TAF LFMN 040800Z 0409/0515 09010KT CAVOK"
    },
    {
      "icao": "LFOB",
      "alert": "OK",
      "vis_m": 9999,
      "fzfg": false,
      "metar_trigger": false,
      "taf_trigger": false,
      "metar": "METAR LFOB 041000Z AUTO 25016KT 210V270 9999 FEW014/// BKN033/// BKN043/// ///CB 18/11 Q1002 TEMPO 24020G30KT 1200 SHRA BKN009 BKN012CB BKN020",
      "taf": "TAF LFOB 040500Z 0406/0506 20012KT 9999 BKN020"
    },
    {
      "icao": "LFPO",
      "alert": "OK",
      "vis_m": 9999,
      "fzfg": false,
      "metar_trigger": false,
      "taf_trigger": false,
      "metar": "METAR LFPO 041000Z 25015KT 9999 SCT025 BKN150 18/12 Q1005 NOSIG",
      "taf": "TAF LFPO 040500Z 0406/0512 22012KT 9999 BKN020"
    },
    {
      "icao": "LFSB",
      "alert": "OK",
      "vis_m": 9999,
      "fzfg": false,
      "metar_trigger": false,
      "taf_trigger": false,
      "metar": "METAR LFSB 041000Z AUTO 28009KT 240V310 9999 FEW039 BKN066 BKN150 21/14 Q1009 TEMPO 28015G28KT 4000 SHRA SCT030TCU",
      "taf": "TAF LFSB 040500Z 0406/0506 17005KT 9999 BKN040"
    },
    {
      "icao": "LGAV",
      "alert": "OK",
      "vis_m": 9999,
      "fzfg": false,
      "metar_trigger": false,
      "taf_trigger": false,
      "metar": "METAR LGAV 041020Z 20012KT 9999 SCT020 28/11 Q1011 NOSIG",
      "taf": "TAF LGAV 040500Z 0406/0506 VRB05KT 9999 FEW025 SCT060"
    },
    {
      "icao": "LGTS",
      "alert": "OK",
      "vis_m": 9999,
      "fzfg": false,
      "metar_trigger": false,
      "taf_trigger": false,
      "metar": "METAR LGTS 041020Z VRB03KT 9999 FEW020 26/14 Q1009 NOSIG",
      "taf": "TAF LGTS 040500Z 0406/0506 VRB03KT 9999 SCT030"
    },
    {
      "icao": "LHBP",
      "alert": "OK",
      "vis_m": 9999,
      "fzfg": false,
      "metar_trigger": false,
      "taf_trigger": false,
      "metar": "METAR LHBP 041000Z VRB02KT 9999 FEW019 BKN030 22/16 Q1010 NOSIG",
      "taf": ""
    },
    {
      "icao": "LHDC",
      "alert": "OK",
      "vis_m": 9999,
      "fzfg": false,
      "metar_trigger": false,
      "taf_trigger": false,
      "metar": "METAR LHDC 040945Z AUTO 20008KT 140V250 9999 FEW029 25/15 Q1010 TEMPO FEW025CB",
      "taf": "TAF LHDC 040815Z 0409/0418 21009KT 9999 SCT025"
    },
    {
      "icao": "LIBD",
      "alert": "OK",
      "vis_m": 9999,
      "fzfg": false,
      "metar_trigger": false,
      "taf_trigger": false,
      "metar": "METAR LIBD 041020Z 35010KT 300V030 9999 FEW015 22/16 Q1012",
      "taf": "TAF LIBD 040500Z 0406/0506 28009KT 9999 SCT020"
    },
    {
      "icao": "LIBG",
      "alert": "OK",
      "vis_m": 9999,
      "fzfg": false,
      "metar_trigger": false,
      "taf_trigger": false,
      "metar": "METAR LIBG 041020Z AUTO 35010KT 320V020 9999 FEW047/// 26/12 Q1011",
      "taf": "TAF LIBG 040500Z 0406/0506 VRB05KT 9999 FEW050"
    },
    {
      "icao": "LIBP",
      "alert": "OK",
      "vis_m": 9999,
      "fzfg": false,
      "metar_trigger": false,
      "taf_trigger": false,
      "metar": "METAR LIBP 041020Z AUTO 09007KT 9999 NCD 24/14 Q1013",
      "taf": "TAF LIBP 040500Z 0406/0506 VRB05KT CAVOK"
    },
    {
      "icao": "LIBR",
      "alert": "OK",
      "vis_m": 9999,
      "fzfg": false,
      "metar_trigger": false,
      "taf_trigger": false,
      "metar": "METAR LIBR 041020Z 35011KT 310V010 9999 FEW020 23/18 Q1012",
      "taf": "TAF LIBR 040500Z 0406/0506 34013KT 9999 SCT015"
    },
    {
      "icao": "LICA",
      "alert": "OK",
      "vis_m": 9999,
      "fzfg": false,
      "metar_trigger": false,
      "taf_trigger": false,
      "metar": "METAR LICA 041020Z AUTO 25014KT 9999 NCD 25/18 Q1013",
      "taf": "TAF LICA 040500Z 0406/0506 27012KT 9999 FEW020"
    },
    {
      "icao": "LICC",
      "alert": "OK",
      "vis_m": 9999,
      "fzfg": false,
      "metar_trigger": false,
      "taf_trigger": false,
      "metar": "METAR LICC 041020Z 07009KT 040V100 CAVOK 26/16 Q1013",
      "taf": "TAF LICC 040500Z 0406/0506 VRB05KT 9999 SCT040"
    },
    {
      "icao": "LICJ",
      "alert": "OK",
      "vis_m": 9999,
      "fzfg": false,
      "metar_trigger": false,
      "taf_trigger": false,
      "metar": "METAR LICJ 041020Z 03012KT CAVOK 24/20 Q1013",
      "taf": "TAF LICJ 040500Z 0406/0506 VRB05KT CAVOK"
    },
    {
      "icao": "LIMC",
      "alert": "OK",
      "vis_m": 9999,
      "fzfg": false,
      "metar_trigger": false,
      "taf_trigger": false,
      "metar": "METAR LIMC 041020Z 13003KT 040V210 9999 BKN080 23/12 Q1012 NOSIG",
      "taf": "TAF LIMC 040500Z 0406/0512 VRB05KT 9999 FEW020"
    },
    {
      "icao": "LIME",
      "alert": "OK",
      "vis_m": 9999,
      "fzfg": false,
      "metar_trigger": false,
      "taf_trigger": false,
      "metar": "METAR LIME 041020Z 15004KT 080V210 9999 SCT090 23/11 Q1012 NOSIG",
      "taf": "TAF LIME 040500Z 0406/0506 12008KT 9999 FEW030"
    },
    {
      "icao": "LIMF",
      "alert": "OK",
      "vis_m": 9999,
      "fzfg": false,
      "metar_trigger": false,
      "taf_trigger": false,
      "metar": "METAR LIMF 041020Z 04006KT 350V100 9999 SCT030 SCT080 21/14 Q1012",
      "taf": "TAF LIMF 040500Z 0406/0506 VRB05KT 9999 FEW030"
    },
    {
      "icao": "LIMJ",
      "alert": "OK",
      "vis_m": 9999,
      "fzfg": false,
      "metar_trigger": false,
      "taf_trigger": false,
      "metar": "METAR LIMJ 041020Z 14010KT 9999 FEW015 SCT020 22/18 Q1012",
      "taf": "TAF LIMJ 040500Z 0406/0506 VRB05KT 9999 FEW040"
    },
    {
      "icao": "LIPE",
      "alert": "OK",
      "vis_m": 9999,
      "fzfg": false,
      "metar_trigger": false,
      "taf_trigger": false,
      "metar": "METAR LIPE 041020Z 12005KT 070V230 CAVOK 26/16 Q1011",
      "taf": "TAF LIPE 040500Z 0406/0506 VRB04KT CAVOK"
    },
    {
      "icao": "LIPH",
      "alert": "OK",
      "vis_m": 9999,
      "fzfg": false,
      "metar_trigger": false,
      "taf_trigger": false,
      "metar": "METAR LIPH 041020Z 17003KT 090V240 9999 FEW030 24/16 Q1012",
      "taf": "TAF LIPH 040500Z 0406/0506 VRB05KT 9999 FEW020 SCT060"
    },
    {
      "icao": "LIPQ",
      "alert": "OK",
      "vis_m": 9999,
      "fzfg": false,
      "metar_trigger": false,
      "taf_trigger": false,
      "metar": "METAR LIPQ 041020Z AUTO VRB02KT 9999 FEW064/// SCT073/// 24/14 Q1012",
      "taf": "TAF LIPQ 040500Z 0406/0506 VRB05KT 9999 SCT060"
    },
    {
      "icao": "LIPR",
      "alert": "OK",
      "vis_m": 9999,
      "fzfg": false,
      "metar_trigger": false,
      "taf_trigger": false,
      "metar": "METAR LIPR 041020Z 10013KT CAVOK 23/15 Q1011",
      "taf": "TAF LIPR 040500Z 0406/0506 VRB05KT CAVOK"
    },
    {
      "icao": "LIPX",
      "alert": "OK",
      "vis_m": 9999,
      "fzfg": false,
      "metar_trigger": false,
      "taf_trigger": false,
      "metar": "METAR LIPX 041020Z 09007KT 050V130 9999 FEW050 23/14 Q1012",
      "taf": "TAF LIPX 040500Z 0406/0506 VRB05KT 9999 FEW040"
    },
    {
      "icao": "LIPY",
      "alert": "OK",
      "vis_m": 9999,
      "fzfg": false,
      "metar_trigger": false,
      "taf_trigger": false,
      "metar": "METAR LIPY 041020Z AUTO 07009KT 9999 NCD 24/16 Q1012",
      "taf": "TAF LIPY 040500Z 0406/0506 VRB05KT CAVOK"
    },
    {
      "icao": "LIPZ",
      "alert": "OK",
      "vis_m": 9999,
      "fzfg": false,
      "metar_trigger": false,
      "taf_trigger": false,
      "metar": "METAR LIPZ 041020Z 14005KT 080V180 9999 FEW035 22/16 Q1012 NOSIG",
      "taf": "TAF LIPZ 040500Z 0406/0512 VRB05KT 9999 FEW020 SCT060"
    },
    {
      "icao": "LIRF",
      "alert": "OK",
      "vis_m": 9999,
      "fzfg": false,
      "metar_trigger": false,
      "taf_trigger": false,
      "metar": "METAR LIRF 041020Z 20009KT 150V220 CAVOK 26/18 Q1013 NOSIG",
      "taf": "TAF LIRF 040500Z 0406/0512 VRB05KT 9999 SCT040"
    },
    {
      "icao": "LIRN",
      "alert": "OK",
      "vis_m": 9999,
      "fzfg": false,
      "metar_trigger": false,
      "taf_trigger": false,
      "metar": "METAR LIRN 041020Z 18008KT 130V210 9999 SCT030 25/17 Q1014 NOSIG",
      "taf": "TAF LIRN 040500Z 0406/0506 VRB05KT 9999 SCT040"
    },
    {
      "icao": "LIRP",
      "alert": "OK",
      "vis_m": 9999,
      "fzfg": false,
      "metar_trigger": false,
      "taf_trigger": false,
      "metar": "METAR LIRP 041015Z 30008KT 9999 FEW030 25/17 Q1012 NOSIG",
      "taf": "TAF LIRP 040500Z 0406/0506 VRB03KT CAVOK"
    },
    {
      "icao": "LIRZ",
      "alert": "OK",
      "vis_m": 9999,
      "fzfg": false,
      "metar_trigger": false,
      "taf_trigger": false,
      "metar": "METAR LIRZ 041020Z AUTO VRB04KT 9999 NCD 26/14 Q1013",
      "taf": "TAF LIRZ 040500Z 0406/0506 VRB05KT 9999 SCT030"
    },
    {
      "icao": "LJLJ",
      "alert": "OK",
      "vis_m": 9999,
      "fzfg": false,
      "metar_trigger": false,
      "taf_trigger": false,
      "metar": "METAR LJLJ 041000Z 08004KT 040V150 9999 FEW050 20/14 Q1013 NOSIG",
      "taf": "TAF LJLJ 040500Z 0406/0506 30003KT 9999 FEW033"
    },
    {
      "icao": "LKMT",
      "alert": "OK",
      "vis_m": 9999,
      "fzfg": false,
      "metar_trigger": false,
      "taf_trigger": false,
      "metar": "METAR LKMT 041000Z VRB02KT 9999 FEW034 19/12 Q1011 NOSIG",
      "taf": "TAF LKMT 040500Z 0406/0506 22006KT CAVOK"
    },
    {
      "icao": "LKPR",
      "alert": "OK",
      "vis_m": 9999,
      "fzfg": false,
      "metar_trigger": false,
      "taf_trigger": false,
      "metar": "METAR LKPR 041000Z 22010KT 9999 FEW044 21/11 Q1009 NOSIG",
      "taf": "TAF LKPR 040800Z 0409/0515 24008KT CAVOK"
    },
    {
      "icao": "LLBG",
      "alert": "OK",
      "vis_m": 9999,
      "fzfg": false,
      "metar_trigger": false,
      "taf_trigger": false,
      "metar": "METAR LLBG 041020Z 32011KT 290V360 CAVOK 32/05 Q1013 NOSIG",
      "taf": "TAF LLBG 040502Z 0406/0506 VRB04KT CAVOK TX33/0411Z TN19/0504Z"
    },
    {
      "icao": "LMML",
      "alert": "OK",
      "vis_m": 9999,
      "fzfg": false,
      "metar_trigger": false,
      "taf_trigger": false,
      "metar": "METAR LMML 041015Z 35005KT 270V030 CAVOK 28/18 Q1013 NOSIG",
      "taf": ""
    },
    {
      "icao": "LOWW",
      "alert": "OK",
      "vis_m": 9999,
      "fzfg": false,
      "metar_trigger": false,
      "taf_trigger": false,
      "metar": "METAR LOWW 041020Z 34005KT 270V070 9999 FEW050 22/09 Q1011 BECMG FM1200 14007KT",
      "taf": "TAF LOWW 040815Z 0409/0515 VRB03KT CAVOK TX25/0414Z TN15/0510Z"
    },
    {
      "icao": "LPFR",
      "alert": "OK",
      "vis_m": 9999,
      "fzfg": false,
      "metar_trigger": false,
      "taf_trigger": false,
      "metar": "METAR LPFR 041000Z 36010KT 290V030 CAVOK 24/13 Q1017",
      "taf": "TAF LPFR 040500Z 0406/0506 31010KT 9999 SCT018"
    },
    {
      "icao": "LPMA",
      "alert": "OK",
      "vis_m": 9999,
      "fzfg": false,
      "metar_trigger": false,
      "taf_trigger": false,
      "metar": "METAR LPMA 041000Z 36011G21KT 290V030 9999 FEW013 25/15 Q1023",
      "taf": "TAF LPMA 040500Z 0406/0506 36013KT 9999 SCT015"
    },
    {
      "icao": "LPPR",
      "alert": "OK",
      "vis_m": 9999,
      "fzfg": false,
      "metar_trigger": false,
      "taf_trigger": false,
      "metar": "METAR LPPR 041000Z 31012KT 280V340 9999 -DZ FEW007 BKN013 17/14 Q1019",
      "taf": "TAF LPPR 040500Z 0406/0506 33007KT 9999 SCT018 BKN035"
    },
    {
      "icao": "LPPS",
      "alert": "OK",
      "vis_m": 9999,
      "fzfg": false,
      "metar_trigger": false,
      "taf_trigger": false,
      "metar": "METAR LPPS 041000Z 35019KT 9999 BKN012 21/17 Q1024",
      "taf": "TAF LPPS 040500Z 0406/0512 01015KT 9999 SCT012 SCT030"
    },
    {
      "icao": "LPPT",
      "alert": "OK",
      "vis_m": 9999,
      "fzfg": false,
      "metar_trigger": false,
      "taf_trigger": false,
      "metar": "METAR LPPT 041000Z 34015KT 9999 FEW030 BKN035 20/12 Q1019",
      "taf": "TAF LPPT 040500Z 0406/0512 31008KT 9999 SCT020"
    },
    {
      "icao": "LQBK",
      "alert": "OK",
      "vis_m": 9999,
      "fzfg": false,
      "metar_trigger": false,
      "taf_trigger": false,
      "metar": "METAR LQBK 041000Z 26005KT 150V320 9999 FEW045 22/11 Q1013 NOSIG",
      "taf": "TAF LQBK 040500Z 0406/0506 32005KT CAVOK TX25/0414Z TN12/0504Z"
    },
    {
      "icao": "LQSA",
      "alert": "OK",
      "vis_m": 9999,
      "fzfg": false,
      "metar_trigger": false,
      "taf_trigger": false,
      "metar": "METAR LQSA 041000Z VRB02KT 9999 FEW025 BKN040 16/11 Q1014 NOSIG",
      "taf": "TAF LQSA 040500Z 0406/0506 VRB02KT 9999 FEW014 BKN035 TX22/0413Z TN10/0504Z"
    },
    {
      "icao": "LQTZ",
      "alert": "OK",
      "vis_m": 9999,
      "fzfg": false,
      "metar_trigger": false,
      "taf_trigger": false,
      "metar": "METAR LQTZ 041000Z 31004KT 240V030 9999 FEW028 BKN035 19/13 Q1013",
      "taf": "TAF LQTZ 040500Z 0406/0506 32005KT 9999 SCT020 BKN035 TX24/0414Z TN11/0504Z"
    },
    {
      "icao": "LRBC",
      "alert": "OK",
      "vis_m": 9999,
      "fzfg": false,
      "metar_trigger": false,
      "taf_trigger": false,
      "metar": "METAR LRBC 041000Z 16008KT 9999 BKN022 23/18 Q1012",
      "taf": "TAF LRBC 040800Z 0409/0418 15010KT 9999 BKN010"
    },
    {
      "icao": "LRBS",
      "alert": "OK",
      "vis_m": 9999,
      "fzfg": false,
      "metar_trigger": false,
      "taf_trigger": false,
      "metar": "METAR LRBS 041000Z 03008KT 310V070 9999 FEW022 FEW050CB 24/18 Q1010 NOSIG",
      "taf": ""
    },
    {
      "icao": "LRBV",
      "alert": "OK",
      "vis_m": 9999,
      "fzfg": false,
      "metar_trigger": false,
      "taf_trigger": false,
      "metar": "METAR LRBV 041000Z 21010KT 9999 VCSH FEW040 FEW045CB SCT082 23/13 Q1011",
      "taf": "TAF LRBV 040800Z 0409/0418 VRB04KT 9999 BKN040"
    },
    {
      "icao": "LRCL",
      "alert": "OK",
      "vis_m": 9999,
      "fzfg": false,
      "metar_trigger": false,
      "taf_trigger": false,
      "metar": "METAR LRCL 041000Z VRB02KT 9999 FEW036 FEW045TCU 24/15 Q1010",
      "taf": "TAF LRCL 040800Z 0409/0418 VRB04KT CAVOK"
    },
    {
      "icao": "LRCV",
      "alert": "OK",
      "vis_m": 9999,
      "fzfg": false,
      "metar_trigger": false,
      "taf_trigger": false,
      "metar": "METAR LRCV 041000Z 11004KT 060V160 9999 BKN016 FEW030CB 22/18 Q1011",
      "taf": "TAF LRCV 040800Z 0409/0418 VRB04KT 9999 BKN030"
    },
    {
      "icao": "LRIA",
      "alert": "OK",
      "vis_m": 9999,
      "fzfg": false,
      "metar_trigger": false,
      "taf_trigger": false,
      "metar": "METAR LRIA 041000Z 14007KT 110V180 9999 BKN012 20/15 Q1013",
      "taf": "TAF LRIA 040800Z 0409/0418 11010KT 9999 OVC010"
    },
    {
      "icao": "LROP",
      "alert": "OK",
      "vis_m": 9999,
      "fzfg": false,
      "metar_trigger": false,
      "taf_trigger": false,
      "metar": "METAR LROP 041000Z 03010KT 9999 FEW050CB 23/19 Q1010 NOSIG",
      "taf": ""
    },
    {
      "icao": "LRSB",
      "alert": "OK",
      "vis_m": 9999,
      "fzfg": false,
      "metar_trigger": false,
      "taf_trigger": false,
      "metar": "METAR LRSB 041000Z 26003KT 190V310 9999 FEW050TCU SCT070 23/15 Q1011",
      "taf": "TAF LRSB 040500Z 0406/0506 VRB04KT CAVOK"
    },
    {
      "icao": "LRSM",
      "alert": "OK",
      "vis_m": 9999,
      "fzfg": false,
      "metar_trigger": false,
      "taf_trigger": false,
      "metar": "METAR LRSM 041000Z 27005KT 230V330 9999 SCT037 26/15 Q1010",
      "taf": "TAF LRSM 040800Z 0409/0418 VRB04KT 9999 SCT035"
    },
    {
      "icao": "LRSV",
      "alert": "OK",
      "vis_m": 9999,
      "fzfg": false,
      "metar_trigger": false,
      "taf_trigger": false,
      "metar": "METAR LRSV 041000Z 10008KT 9999 FEW008 BKN020 19/16 Q1012",
      "taf": "TAF LRSV 040800Z 0409/0418 13010KT 9999 BKN005"
    },
    {
      "icao": "LRTM",
      "alert": "OK",
      "vis_m": 9999,
      "fzfg": false,
      "metar_trigger": false,
      "taf_trigger": false,
      "metar": "METAR LRTM 041000Z 26005KT 210V300 CAVOK 25/17 Q1010",
      "taf": "TAF LRTM 040800Z 0409/0418 VRB04KT CAVOK"
    },
    {
      "icao": "LRTR",
      "alert": "OK",
      "vis_m": 9999,
      "fzfg": false,
      "metar_trigger": false,
      "taf_trigger": false,
      "metar": "METAR LRTR 041000Z 22008KT 9999 BKN006 OVC020 17/16 Q1011 NOSIG",
      "taf": ""
    },
    {
      "icao": "LTAC",
      "alert": "OK",
      "vis_m": 9999,
      "fzfg": false,
      "metar_trigger": false,
      "taf_trigger": false,
      "metar": "METAR LTAC 041020Z 27007KT 220V290 9999 SCT040 26/09 Q1015 NOSIG RMK RWY21C 28010KT 230V310 RWY03L 26008KT 220V290 RWY21R 25008KT 190V320 RWY03R 25007KT 170V300 RWY21L 26010KT 220V300",
      "taf": "TAF LTAC 040440Z 0406/0506 VRB02KT CAVOK"
    },
    {
      "icao": "LTFM",
      "alert": "OK",
      "vis_m": 9999,
      "fzfg": false,
      "metar_trigger": false,
      "taf_trigger": false,
      "metar": "METAR LTFM 041020Z 20013KT CAVOK 30/12 Q1010 NOSIG RMK RWY17L 23014KT 180V250 RWY34L 22012KT RWY16R 20012KT RWY36 22014KT RWY18 21015KT 170V240",
      "taf": "TAF LTFM 040440Z 0406/0512 21013KT CAVOK"
    },
    {
      "icao": "LUKK",
      "alert": "OK",
      "vis_m": 9999,
      "fzfg": false,
      "metar_trigger": false,
      "taf_trigger": false,
      "metar": "METAR LUKK 041000Z 13006KT 050V180 9999 SCT019 BKN024 20/16 Q1013 NOSIG",
      "taf": "TAF LUKK 040448Z 0406/0506 15008KT 5000 BR BKN012"
    },
    {
      "icao": "LWOH",
      "alert": "OK",
      "vis_m": 9999,
      "fzfg": false,
      "metar_trigger": false,
      "taf_trigger": false,
      "metar": "METAR LWOH 041020Z 17005KT 130V250 9999 FEW020 SCT040 20/13 Q1013",
      "taf": "TAF LWOH 040820Z 0409/0509 17010KT 9999 FEW020 SCT040"
    },
    {
      "icao": "LWSK",
      "alert": "OK",
      "vis_m": 9999,
      "fzfg": false,
      "metar_trigger": false,
      "taf_trigger": false,
      "metar": "METAR LWSK 041020Z VRB06KT 9999 FEW035 SCT085 23/15 Q1011 NOSIG",
      "taf": "TAF LWSK 040820Z 0409/0509 35010KT 9999 SCT040"
    },
    {
      "icao": "LYBE",
      "alert": "OK",
      "vis_m": 9999,
      "fzfg": false,
      "metar_trigger": false,
      "taf_trigger": false,
      "metar": "METAR LYBE 041000Z 28006KT 240V320 9999 SCT017 BKN026 18/14 Q1012 NOSIG",
      "taf": "TAF LYBE 040500Z 0406/0506 27010KT 9999 BKN008 BKN025 TX24/0413Z TN13/0503Z"
    },
    {
      "icao": "LYNI",
      "alert": "OK",
      "vis_m": 9999,
      "fzfg": false,
      "metar_trigger": false,
      "taf_trigger": false,
      "metar": "METAR LYNI 041000Z 32010KT 9999 FEW030 SCT047 BKN080 20/14 Q1012 NOSIG",
      "taf": "TAF LYNI 040500Z 0406/0506 32010KT 9999 BKN045 TX22/0413Z TN13/0505Z"
    },
    {
      "icao": "LYPG",
      "alert": "OK",
      "vis_m": 9999,
      "fzfg": false,
      "metar_trigger": false,
      "taf_trigger": false,
      "metar": "METAR LYPG 041000Z VRB01KT 9999 FEW030 23/13 Q1011 NOSIG",
      "taf": "TAF LYPG 040500Z 0406/0506 16005KT 9999 SCT030 TX26/0413Z TN14/0504Z"
    },
    {
      "icao": "LZIB",
      "alert": "OK",
      "vis_m": 9999,
      "fzfg": false,
      "metar_trigger": false,
      "taf_trigger": false,
      "metar": "METAR LZIB 041000Z 31009KT CAVOK 22/09 Q1011 NOSIG",
      "taf": "TAF LZIB 040515Z 0406/0506 31008KT CAVOK"
    },
    {
      "icao": "LZKZ",
      "alert": "OK",
      "vis_m": 9999,
      "fzfg": false,
      "metar_trigger": false,
      "taf_trigger": false,
      "metar": "METAR LZKZ 041000Z 07006KT 020V150 9999 SCT040 25/15 Q1009 NOSIG",
      "taf": "TAF LZKZ 040515Z 0406/0506 02006KT CAVOK"
    },
    {
      "icao": "LZTT",
      "alert": "OK",
      "vis_m": 9999,
      "fzfg": false,
      "metar_trigger": false,
      "taf_trigger": false,
      "metar": "METAR LZTT 041000Z 09003KT 020V160 9999 SCT018 SCT063 BKN080 18/14 Q1011 NOSIG",
      "taf": ""
    },
    {
      "icao": "OEJN",
      "alert": "OK",
      "vis_m": 9999,
      "fzfg": false,
      "metar_trigger": false,
      "taf_trigger": false,
      "metar": "METAR OEJN 041000Z 20010KT CAVOK 37/19 Q1008 NOSIG",
      "taf": "TAF OEJN 040500Z 0406/0512 24014KT 7000 NSC"
    },
    {
      "icao": "OEMA",
      "alert": "OK",
      "vis_m": 9999,
      "fzfg": false,
      "metar_trigger": false,
      "taf_trigger": false,
      "metar": "METAR OEMA 041000Z 11010KT CAVOK 43/M04 Q1013 NOSIG",
      "taf": "TAF OEMA 040500Z 0406/0512 09014KT 7000 NSC"
    },
    {
      "icao": "OJAI",
      "alert": "OK",
      "vis_m": 5000,
      "fzfg": false,
      "metar_trigger": false,
      "taf_trigger": false,
      "metar": "METAR OJAI 041000Z 25010KT 5000 HZ NSC 30/07 Q1017 NOSIG",
      "taf": "TAF OJAI 040500Z 0406/0512 30012KT 5000 HZ NSC"
    },
    {
      "icao": "OMAA",
      "alert": "OK",
      "vis_m": 9999,
      "fzfg": false,
      "metar_trigger": false,
      "taf_trigger": false,
      "metar": "METAR OMAA 041000Z 30015KT CAVOK 38/20 Q1001 NOSIG",
      "taf": "TAF OMAA 040500Z 0406/0512 29012KT 8000 NSC"
    },
    {
      "icao": "OMDB",
      "alert": "OK",
      "vis_m": 9999,
      "fzfg": false,
      "metar_trigger": false,
      "taf_trigger": false,
      "metar": "METAR OMDB 041000Z 30008KT 270V340 CAVOK 42/21 Q1000 NOSIG",
      "taf": "TAF OMDB 040500Z 0406/0512 22008KT 8000 NSC"
    },
    {
      "icao": "UAAA",
      "alert": "OK",
      "vis_m": 9999,
      "fzfg": false,
      "metar_trigger": false,
      "taf_trigger": false,
      "metar": "METAR UAAA 041000Z 08003MPS 030V120 9999 SCT050CB BKN100 31/07 Q1012 NOSIG",
      "taf": "TAF UAAA 040507Z 0406/0506 01002G07MPS 9999 SCT050CB BKN100 TX30/0409Z TN18/0501Z"
    },
    {
      "icao": "UBBB",
      "alert": "OK",
      "vis_m": 9999,
      "fzfg": false,
      "metar_trigger": false,
      "taf_trigger": false,
      "metar": "METAR UBBB 041000Z 15014KT CAVOK 25/08 Q1014 NOSIG",
      "taf": "TAF UBBB 040458Z 0406/0506 15012KT CAVOK TX24/0410Z TN15/0500Z"
    },
    {
      "icao": "UDSG",
      "alert": "OK",
      "vis_m": 9999,
      "fzfg": false,
      "metar_trigger": false,
      "taf_trigger": false,
      "metar": "METAR UDSG 041000Z 27004KT 9999 BKN046CB 21/06 Q1018 NOSIG",
      "taf": "TAF UDSG 040458Z 0406/0506 24006KT 9999 SCT050"
    },
    {
      "icao": "UDYZ",
      "alert": "OK",
      "vis_m": 9999,
      "fzfg": false,
      "metar_trigger": false,
      "taf_trigger": false,
      "metar": "METAR UDYZ 041000Z VRB04G14KT 9999 FEW043CB 27/08 Q1014 NOSIG",
      "taf": "TAF UDYZ 040500Z 0406/0506 16006KT 9999 FEW040"
    },
    {
      "icao": "UGKO",
      "alert": "OK",
      "vis_m": 9999,
      "fzfg": false,
      "metar_trigger": false,
      "taf_trigger": false,
      "metar": "METAR UGKO 041000Z VRB04KT CAVOK 28/14 Q1012 NOSIG",
      "taf": "TAF UGKO 040500Z 0406/0506 09007KT CAVOK TX29/0411Z TN13/0502Z"
    }
  ]
}