{
  "ts_utc": "2026-04-02T11:09:08Z",
  "threshold_m": 150,
  "source": "stations_override.txt (ICAO list) + aviationweather.gov (METAR/TAF raw)",
  "station_count": 159,
  "stations": [
    {
      "icao": "BIKF",
      "alert": "OK",
      "vis_m": 9999,
      "fzfg": false,
      "metar_trigger": false,
      "taf_trigger": false,
      "metar": "METAR BIKF 021100Z 32005KT 270V360 9999 -RASN SCT012 OVC030 01/M02 Q0995",
      "taf": "TAF BIKF 021038Z 0212/0312 19010KT 9999 -SHSN FEW010CB BKN025 TX02/0215Z TNM03/0306Z"
    },
    {
      "icao": "BKPR",
      "alert": "OK",
      "vis_m": 8000,
      "fzfg": false,
      "metar_trigger": false,
      "taf_trigger": false,
      "metar": "METAR BKPR 021100Z 01018KT 8000 -RA SCT010 BKN020 07/06 Q0998 NOSIG",
      "taf": "TAF BKPR 020530Z 0206/0306 01018KT 9999 SCT015 BKN030"
    },
    {
      "icao": "EBCI",
      "alert": "OK",
      "vis_m": 5000,
      "fzfg": false,
      "metar_trigger": false,
      "taf_trigger": false,
      "metar": "METAR EBCI 021050Z 25006KT 5000 BR SCT007 SCT010 BKN015 09/06 Q1018 TEMPO 3500 -RADZ BR BKN004",
      "taf": "TAF EBCI 020503Z 0206/0312 26005KT 8000 SCT007 BKN025 BKN040"
    },
    {
      "icao": "EDDB",
      "alert": "OK",
      "vis_m": 9999,
      "fzfg": true,
      "metar_trigger": false,
      "taf_trigger": false,
      "metar": "METAR EDDB 021050Z AUTO 26007KT 170V330 9999 SCT037 12/03 Q1016 NOSIG",
      "taf": "TAF EDDB 020500Z 0206/0306 23004KT 0300 FZFG BKN001"
    },
    {
      "icao": "EDDH",
      "alert": "OK",
      "vis_m": 9999,
      "fzfg": false,
      "metar_trigger": false,
      "taf_trigger": false,
      "metar": "METAR EDDH 021050Z AUTO 27007KT 210V310 9999 BKN044 13/03 Q1014 NOSIG",
      "taf": "TAF EDDH 020500Z 0206/0312 18004KT CAVOK"
    },
    {
      "icao": "EDDK",
      "alert": "OK",
      "vis_m": 9999,
      "fzfg": false,
      "metar_trigger": false,
      "taf_trigger": false,
      "metar": "METAR EDDK 021050Z AUTO 30013KT 9999 BKN033 BKN046 11/05 Q1017 TEMPO BKN014",
      "taf": "TAF EDDK 020500Z 0206/0312 12004KT CAVOK"
    },
    {
      "icao": "EDDN",
      "alert": "OK",
      "vis_m": 9999,
      "fzfg": false,
      "metar_trigger": false,
      "taf_trigger": false,
      "metar": "METAR EDDN 021050Z AUTO 31006KT 240V010 CAVOK 09/01 Q1016 NOSIG",
      "taf": "TAF EDDN 020500Z 0206/0306 VRB02KT CAVOK"
    },
    {
      "icao": "EDDS",
      "alert": "OK",
      "vis_m": 9999,
      "fzfg": false,
      "metar_trigger": false,
      "taf_trigger": false,
      "metar": "METAR EDDS 021050Z AUTO VRB03KT CAVOK 10/01 Q1016 NOSIG",
      "taf": "TAF EDDS 020500Z 0206/0306 VRB01KT CAVOK"
    },
    {
      "icao": "EDFH",
      "alert": "OK",
      "vis_m": 9999,
      "fzfg": false,
      "metar_trigger": false,
      "taf_trigger": false,
      "metar": "METAR EDFH 021050Z 29005KT 240V030 CAVOK 09/01 Q1017",
      "taf": "TAF EDFH 020500Z 0206/0306 17004KT CAVOK"
    },
    {
      "icao": "EDJA",
      "alert": "OK",
      "vis_m": 9999,
      "fzfg": false,
      "metar_trigger": false,
      "taf_trigger": false,
      "metar": "METAR EDJA 021050Z 03007KT 9999 FEW034 07/M01 Q1015",
      "taf": "TAF EDJA 020800Z 0209/0218 05005KT 9999 FEW030"
    },
    {
      "icao": "EDLW",
      "alert": "OK",
      "vis_m": 9999,
      "fzfg": false,
      "metar_trigger": false,
      "taf_trigger": false,
      "metar": "METAR EDLW 021050Z 25007KT 9999 SCT046 11/05 Q1016",
      "taf": "TAF EDLW 020500Z 0206/0306 18008KT CAVOK"
    },
    {
      "icao": "EDNY",
      "alert": "OK",
      "vis_m": 9999,
      "fzfg": false,
      "metar_trigger": false,
      "taf_trigger": false,
      "metar": "METAR EDNY 021050Z 22010KT 9999 FEW046 05/01 Q1016",
      "taf": "TAF EDNY 020800Z 0209/0218 04006KT CAVOK"
    },
    {
      "icao": "EDSB",
      "alert": "OK",
      "vis_m": 9999,
      "fzfg": false,
      "metar_trigger": false,
      "taf_trigger": false,
      "metar": "METAR EDSB 021050Z 01006KT 300V060 9999 11/01 Q1017",
      "taf": "TAF EDSB 020500Z 0206/0306 VRB02KT CAVOK"
    },
    {
      "icao": "EETN",
      "alert": "OK",
      "vis_m": 9999,
      "fzfg": false,
      "metar_trigger": false,
      "taf_trigger": false,
      "metar": "METAR EETN 021050Z 23010KT CAVOK 10/02 Q1012 NOSIG",
      "taf": "TAF EETN 020530Z 0206/0306 19010KT 9999 SCT003"
    },
    {
      "icao": "EFTU",
      "alert": "OK",
      "vis_m": 9999,
      "fzfg": false,
      "metar_trigger": false,
      "taf_trigger": false,
      "metar": "METAR EFTU 021050Z AUTO 23009KT 200V260 9999 OVC015 08/04 Q1010",
      "taf": "TAF EFTU 020838Z 0209/0309 22005KT 9999 BKN011"
    },
    {
      "icao": "EGBB",
      "alert": "OK",
      "vis_m": 9999,
      "fzfg": false,
      "metar_trigger": false,
      "taf_trigger": false,
      "metar": "METAR EGBB 021050Z VRB02KT 9999 BKN028 09/02 Q1022",
      "taf": "TAF EGBB 020457Z 0206/0306 33010KT 9999 SCT025"
    },
    {
      "icao": "EGGP",
      "alert": "OK",
      "vis_m": 9999,
      "fzfg": false,
      "metar_trigger": false,
      "taf_trigger": false,
      "metar": "METAR EGGP 021050Z VRB03KT 9999 SCT023 09/02 Q1022",
      "taf": "TAF EGGP 020504Z 0206/0306 VRB03KT 9999 FEW015 SCT030"
    },
    {
      "icao": "EGGW",
      "alert": "OK",
      "vis_m": 9999,
      "fzfg": false,
      "metar_trigger": false,
      "taf_trigger": false,
      "metar": "METAR EGGW 021050Z AUTO 36008KT 330V030 9999 OVC026 07/01 Q1022",
      "taf": "TAF EGGW 020458Z 0206/0306 33008KT 9999 SCT025"
    },
    {
      "icao": "EGKK",
      "alert": "OK",
      "vis_m": 9999,
      "fzfg": false,
      "metar_trigger": false,
      "taf_trigger": false,
      "metar": "METAR EGKK 021050Z 36010KT 320V050 9999 BKN030 10/02 Q1022",
      "taf": "TAF EGKK 020455Z 0206/0312 34009KT 9999 FEW030"
    },
    {
      "icao": "EGNM",
      "alert": "OK",
      "vis_m": 9999,
      "fzfg": false,
      "metar_trigger": false,
      "taf_trigger": false,
      "metar": "METAR EGNM 021050Z 09005KT 030V140 9999 FEW028 07/M01 Q1021",
      "taf": "TAF EGNM 020503Z 0206/0306 34004KT 9999 FEW015 SCT030"
    },
    {
      "icao": "EGPD",
      "alert": "OK",
      "vis_m": 9999,
      "fzfg": false,
      "metar_trigger": false,
      "taf_trigger": false,
      "metar": "METAR EGPD 021050Z COR AUTO 33005KT 9999 BKN029 07/00 Q1019 NOSIG",
      "taf": "TAF EGPD 020456Z 0206/0306 28007KT 9999 FEW040"
    },
    {
      "icao": "EGPF",
      "alert": "OK",
      "vis_m": 9999,
      "fzfg": false,
      "metar_trigger": false,
      "taf_trigger": false,
      "metar": "METAR EGPF 021050Z AUTO 19008KT 160V240 9999 NCD 08/M00 Q1020",
      "taf": "TAF EGPF 020449Z 0206/0306 VRB02KT 9999 FEW040"
    },
    {
      "icao": "EHBK",
      "alert": "OK",
      "vis_m": 9999,
      "fzfg": false,
      "metar_trigger": false,
      "taf_trigger": false,
      "metar": "METAR EHBK 021055Z AUTO 23009KT 190V270 9999 BKN009 OVC010 09/06 Q1017 TEMPO 7000 -DZ BKN012",
      "taf": "TAF EHBK 020514Z 0206/0312 20007KT CAVOK"
    },
    {
      "icao": "EHEH",
      "alert": "OK",
      "vis_m": 9999,
      "fzfg": false,
      "metar_trigger": false,
      "taf_trigger": false,
      "metar": "METAR EHEH 021055Z AUTO 26004KT 230V310 9999 FEW014 SCT016 BKN043 11/08 Q1017 BLU TEMPO BKN012",
      "taf": "TAF EHEH 020513Z 0206/0312 19004KT 9999 SCT008"
    },
    {
      "icao": "EKBI",
      "alert": "OK",
      "vis_m": 9000,
      "fzfg": false,
      "metar_trigger": false,
      "taf_trigger": false,
      "metar": "METAR EKBI 021050Z AUTO 22009KT 190V250 9000 OVC008/// 09/07 Q1012",
      "taf": "TAF EKBI 020827Z 0209/0309 20006KT 9999 BKN006"
    },
    {
      "icao": "EKCH",
      "alert": "OK",
      "vis_m": 9999,
      "fzfg": false,
      "metar_trigger": false,
      "taf_trigger": false,
      "metar": "METAR EKCH 021050Z AUTO 18010KT 9999 NCD 09/04 Q1014 NOSIG",
      "taf": "TAF EKCH 020827Z 0209/0309 20008KT 9999 SCT040"
    },
    {
      "icao": "ENAL",
      "alert": "OK",
      "vis_m": 4900,
      "fzfg": false,
      "metar_trigger": false,
      "taf_trigger": false,
      "metar": "METAR ENAL 021050Z 17004KT 4900 -SNRA VV006 02/M00 Q1016",
      "taf": ""
    },
    {
      "icao": "ENBR",
      "alert": "OK",
      "vis_m": 9999,
      "fzfg": false,
      "metar_trigger": false,
      "taf_trigger": false,
      "metar": "METAR ENBR 021050Z 35014KT 9999 FEW040 05/M03 Q1011 NOSIG RMK WIND 1200FT 36019KT",
      "taf": "TAF ENBR 020500Z 0206/0306 34012KT CAVOK"
    },
    {
      "icao": "ENGM",
      "alert": "OK",
      "vis_m": 9999,
      "fzfg": false,
      "metar_trigger": false,
      "taf_trigger": false,
      "metar": "METAR ENGM 021050Z 01016KT 9999 -RA SCT011 BKN031 02/00 Q1009 TEMPO BKN011",
      "taf": ""
    },
    {
      "icao": "ENHD",
      "alert": "OK",
      "vis_m": 9999,
      "fzfg": false,
      "metar_trigger": false,
      "taf_trigger": false,
      "metar": "METAR ENHD 021050Z 34027KT CAVOK 06/M02 Q1010",
      "taf": "TAF ENHD 020800Z 0209/0218 35030KT 9999 FEW020 SCT040"
    },
    {
      "icao": "ENTC",
      "alert": "OK",
      "vis_m": 9999,
      "fzfg": false,
      "metar_trigger": false,
      "taf_trigger": false,
      "metar": "METAR ENTC 021050Z 21028G38KT 9999 -SHRA FEW030 BKN043 BKN051 03/M01 Q0996 TEMPO 21028KT 3000 -SHSNRA BKN012 SCT020CB RMK WIND 2600FT 20033KT",
      "taf": ""
    },
    {
      "icao": "ENTO",
      "alert": "OK",
      "vis_m": 1100,
      "fzfg": false,
      "metar_trigger": false,
      "taf_trigger": false,
      "metar": "METAR ENTO 021050Z 19008KT 1100 R18/1500U R36/1500N -DZRA BR VV003 06/06 Q1008 TEMPO 01015KT 4000 BKN004",
      "taf": ""
    },
    {
      "icao": "ENVA",
      "alert": "OK",
      "vis_m": 9999,
      "fzfg": false,
      "metar_trigger": false,
      "taf_trigger": false,
      "metar": "METAR ENVA 021050Z 27009KT 9999 SCT030TCU 05/M02 Q1014 NOSIG RMK WIND 670FT 28010KT",
      "taf": "TAF ENVA 020500Z 0206/0306 24005KT 8000 -RASN SCT007 BKN016"
    },
    {
      "icao": "ENZV",
      "alert": "OK",
      "vis_m": 9999,
      "fzfg": false,
      "metar_trigger": false,
      "taf_trigger": false,
      "metar": "METAR ENZV 021050Z 34018KT CAVOK 05/M02 Q1010 NOSIG",
      "taf": "TAF ENZV 020500Z 0206/0306 33012KT 9999 BKN020"
    },
    {
      "icao": "EPGD",
      "alert": "OK",
      "vis_m": 9999,
      "fzfg": false,
      "metar_trigger": false,
      "taf_trigger": false,
      "metar": "METAR EPGD 021100Z 27005KT 220V300 CAVOK 11/M04 Q1015",
      "taf": "TAF EPGD 020530Z 0206/0306 VRB04KT CAVOK"
    },
    {
      "icao": "EPKK",
      "alert": "OK",
      "vis_m": 9999,
      "fzfg": false,
      "metar_trigger": false,
      "taf_trigger": false,
      "metar": "METAR EPKK 021100Z 01004G14KT 310V030 9999 FEW060 11/01 Q1012",
      "taf": "TAF EPKK 020830Z 0209/0309 VRB02KT 9999 BKN044"
    },
    {
      "icao": "EPKT",
      "alert": "OK",
      "vis_m": 9999,
      "fzfg": false,
      "metar_trigger": false,
      "taf_trigger": false,
      "metar": "METAR EPKT 021100Z 01012KT 340V040 CAVOK 11/M00 Q1013",
      "taf": "TAF EPKT 020530Z 0206/0306 02004KT CAVOK"
    },
    {
      "icao": "EPLB",
      "alert": "OK",
      "vis_m": 9999,
      "fzfg": false,
      "metar_trigger": false,
      "taf_trigger": false,
      "metar": "METAR EPLB 021100Z 03009KT 350V060 9999 FEW042 14/04 Q1011",
      "taf": "TAF EPLB 020530Z 0206/0306 36006KT 9999 FEW030"
    },
    {
      "icao": "EPMO",
      "alert": "OK",
      "vis_m": 9999,
      "fzfg": false,
      "metar_trigger": false,
      "taf_trigger": false,
      "metar": "METAR EPMO 021100Z 36009KT 300V050 CAVOK 13/M04 Q1014",
      "taf": "TAF EPMO 020530Z 0206/0306 01006KT CAVOK"
    },
    {
      "icao": "EPPO",
      "alert": "OK",
      "vis_m": 9999,
      "fzfg": false,
      "metar_trigger": false,
      "taf_trigger": false,
      "metar": "METAR EPPO 021100Z 26005KT 190V340 CAVOK 13/M02 Q1015",
      "taf": "TAF EPPO 020530Z 0206/0306 34003KT CAVOK"
    },
    {
      "icao": "EPRA",
      "alert": "OK",
      "vis_m": 9999,
      "fzfg": false,
      "metar_trigger": false,
      "taf_trigger": false,
      "metar": "METAR EPRA 021100Z 35007KT 320V030 CAVOK 10/M00 Q1013",
      "taf": "TAF EPRA 020830Z 0209/0218 35008KT CAVOK"
    },
    {
      "icao": "EPRZ",
      "alert": "OK",
      "vis_m": 9999,
      "fzfg": false,
      "metar_trigger": false,
      "taf_trigger": false,
      "metar": "METAR EPRZ 021100Z 34008KT 320V040 9999 FEW043 14/06 Q1011",
      "taf": "TAF EPRZ 020530Z 0206/0306 32005KT 9999 BKN043"
    },
    {
      "icao": "EPSC",
      "alert": "OK",
      "vis_m": 9999,
      "fzfg": false,
      "metar_trigger": false,
      "taf_trigger": false,
      "metar": "METAR EPSC 021100Z 18007KT 140V220 9999 SCT040 11/01 Q1015",
      "taf": "TAF EPSC 020530Z 0206/0306 VRB02KT CAVOK"
    },
    {
      "icao": "EPSY",
      "alert": "OK",
      "vis_m": 9999,
      "fzfg": false,
      "metar_trigger": false,
      "taf_trigger": false,
      "metar": "METAR EPSY 021100Z 02005KT 320V130 CAVOK 12/M05 Q1014",
      "taf": "TAF EPSY 020830Z 0209/0218 VRB02KT CAVOK"
    },
    {
      "icao": "EPWA",
      "alert": "OK",
      "vis_m": 9999,
      "fzfg": false,
      "metar_trigger": false,
      "taf_trigger": false,
      "metar": "METAR EPWA 021100Z 36006KT 320V050 CAVOK 13/M01 Q1014 NOSIG",
      "taf": "TAF EPWA 020830Z 0209/0309 01008KT CAVOK"
    },
    {
      "icao": "EPWR",
      "alert": "OK",
      "vis_m": 9999,
      "fzfg": false,
      "metar_trigger": false,
      "taf_trigger": false,
      "metar": "METAR EPWR 021100Z 02007KT 300V090 CAVOK 12/M03 Q1015",
      "taf": "TAF EPWR 020830Z 0209/0309 30005KT CAVOK"
    },
    {
      "icao": "ESGG",
      "alert": "OK",
      "vis_m": 5000,
      "fzfg": false,
      "metar_trigger": false,
      "taf_trigger": false,
      "metar": "METAR ESGG 021050Z 19010KT 5000 DZ BKN005 05/04 Q1011",
      "taf": "TAF ESGG 020830Z 0209/0309 18009KT 9999 BKN008"
    },
    {
      "icao": "ESKN",
      "alert": "OK",
      "vis_m": 9999,
      "fzfg": false,
      "metar_trigger": false,
      "taf_trigger": false,
      "metar": "METAR ESKN 021050Z 20005KT 180V240 9999 SCT017 BKN073 10/06 Q1011",
      "taf": "TAF ESKN 020830Z 0209/0309 23008KT CAVOK"
    },
    {
      "icao": "ESMS",
      "alert": "OK",
      "vis_m": 9999,
      "fzfg": false,
      "metar_trigger": false,
      "taf_trigger": false,
      "metar": "METAR ESMS 021050Z 21012KT 9999 FEW045 10/01 Q1014",
      "taf": "TAF ESMS 020827Z 0209/0309 20007KT CAVOK"
    },
    {
      "icao": "ESSA",
      "alert": "OK",
      "vis_m": 9999,
      "fzfg": false,
      "metar_trigger": false,
      "taf_trigger": false,
      "metar": "METAR ESSA 021050Z 26010KT 9999 BKN015 08/05 Q1010 TEMPO BKN015",
      "taf": "TAF ESSA 020830Z 0209/0309 23008KT 9999 BKN012"
    },
    {
      "icao": "EYKA",
      "alert": "OK",
      "vis_m": 9999,
      "fzfg": false,
      "metar_trigger": false,
      "taf_trigger": false,
      "metar": "METAR EYKA 021050Z 32005KT 280V360 CAVOK 12/M02 Q1014",
      "taf": "TAF EYKA 021100Z 0212/0312 VRB04KT 9000 NSC"
    },
    {
      "icao": "EYPA",
      "alert": "OK",
      "vis_m": 9999,
      "fzfg": false,
      "metar_trigger": false,
      "taf_trigger": false,
      "metar": "METAR EYPA 021050Z VRB05KT CAVOK 06/02 Q1016",
      "taf": "TAF EYPA 021100Z 0212/0312 VRB04KT 9000 NSC"
    },
    {
      "icao": "EYVI",
      "alert": "OK",
      "vis_m": 9999,
      "fzfg": false,
      "metar_trigger": false,
      "taf_trigger": false,
      "metar": "METAR EYVI 021050Z VRB04KT CAVOK 13/M03 Q1013 NOSIG",
      "taf": "TAF EYVI 021100Z 0212/0312 VRB04KT 9000 NSC"
    },
    {
      "icao": "GCFV",
      "alert": "OK",
      "vis_m": 9999,
      "fzfg": false,
      "metar_trigger": false,
      "taf_trigger": false,
      "metar": "METAR GCFV 021100Z 02012KT CAVOK 22/11 Q1020",
      "taf": "TAF GCFV 020800Z 0209/0309 04013KT CAVOK TX24/0214Z TN16/0306Z"
    },
    {
      "icao": "GCLP",
      "alert": "OK",
      "vis_m": 9999,
      "fzfg": false,
      "metar_trigger": false,
      "taf_trigger": false,
      "metar": "METAR GCLP 021100Z 03018KT 9999 FEW025 21/15 Q1020 NOSIG",
      "taf": "TAF GCLP 020800Z 0209/0309 02018KT CAVOK TX24/0214Z TN17/0306Z"
    },
    {
      "icao": "GCTS",
      "alert": "OK",
      "vis_m": 9999,
      "fzfg": false,
      "metar_trigger": false,
      "taf_trigger": false,
      "metar": "METAR GCTS 021100Z 07018KT CAVOK 24/07 Q1020 NOSIG",
      "taf": "TAF GCTS 020800Z 0209/0309 07018KT CAVOK TX25/0214Z TN16/0306Z"
    },
    {
      "icao": "GMAD",
      "alert": "OK",
      "vis_m": 9999,
      "fzfg": false,
      "metar_trigger": false,
      "taf_trigger": false,
      "metar": "METAR GMAD 021100Z 24006KT 200V280 CAVOK 23/12 Q1016 NOSIG",
      "taf": "TAF GMAD 020500Z 0206/0312 07004KT 6000 SCT010"
    },
    {
      "icao": "GMMN",
      "alert": "OK",
      "vis_m": 9999,
      "fzfg": false,
      "metar_trigger": false,
      "taf_trigger": false,
      "metar": "METAR GMMN 021100Z 03006KT 340V090 9999 FEW008 19/15 Q1020 BECMG CAVOK",
      "taf": "TAF GMMN 020500Z 0206/0312 15004KT 8000 BKN006"
    },
    {
      "icao": "GMMX",
      "alert": "OK",
      "vis_m": 9999,
      "fzfg": false,
      "metar_trigger": false,
      "taf_trigger": false,
      "metar": "METAR GMMX 021100Z VRB03KT CAVOK 22/09 Q1018 NOSIG",
      "taf": "TAF GMMX 020500Z 0206/0312 06006KT CAVOK"
    },
    {
      "icao": "HEGN",
      "alert": "OK",
      "vis_m": 9999,
      "fzfg": false,
      "metar_trigger": false,
      "taf_trigger": false,
      "metar": "METAR HEGN 021000Z 11010KT 9999 SCT020 BKN025 29/15 Q1007 NOSIG",
      "taf": "TAF HEGN 021100Z 0212/0318 12006G16KT 6000 BKN020"
    },
    {
      "icao": "HEMA",
      "alert": "OK",
      "vis_m": 9999,
      "fzfg": false,
      "metar_trigger": false,
      "taf_trigger": false,
      "metar": "METAR HEMA 021000Z 36008KT CAVOK 29/09 Q1008 NOSIG",
      "taf": "TAF HEMA 021100Z 0212/0318 35008G22KT 6000 BKN020"
    },
    {
      "icao": "HESH",
      "alert": "OK",
      "vis_m": 6000,
      "fzfg": false,
      "metar_trigger": false,
      "taf_trigger": false,
      "metar": "METAR HESH 021000Z 36010KT 6000 NSC 31/15 Q1008 NOSIG",
      "taf": "TAF HESH 021100Z 0212/0318 36008G18KT 6000 BKN020"
    },
    {
      "icao": "HESX",
      "alert": "OK",
      "vis_m": 800,
      "fzfg": false,
      "metar_trigger": false,
      "taf_trigger": false,
      "metar": "METAR HESX 021000Z 31008KT 0800 R34/0900 HZ NSC 19/11 Q1010 NOSIG",
      "taf": "TAF HESX 021100Z 0212/0318 27009G20KT 4000 SA SCT025 BKN070"
    },
    {
      "icao": "LATI",
      "alert": "OK",
      "vis_m": 9999,
      "fzfg": false,
      "metar_trigger": false,
      "taf_trigger": false,
      "metar": "METAR LATI 021050Z 30004KT 250V350 9999 -RA FEW020 OVC070 14/09 Q0994 NOSIG",
      "taf": "TAF LATI 021100Z 0212/0312 32010KT 9999 -RA FEW030 BKN070 TX19/0312Z TN09/0304Z"
    },
    {
      "icao": "LBPD",
      "alert": "OK",
      "vis_m": 2100,
      "fzfg": false,
      "metar_trigger": false,
      "taf_trigger": false,
      "metar": "METAR LBPD 021100Z AUTO VRB02KT 2100 -RA SCT006/// BKN009/// OVC012/// 09/09 Q0997 NOSIG",
      "taf": "TAF LBPD 020500Z 0206/0306 11010KT 6000 -RA SCT015 BKN020 OVC030"
    },
    {
      "icao": "LBSF",
      "alert": "OK",
      "vis_m": 9999,
      "fzfg": false,
      "metar_trigger": false,
      "taf_trigger": false,
      "metar": "METAR LBSF 021100Z 05007KT 020V080 9999 FEW021 OVC024 08/03 Q0998 NOSIG",
      "taf": "TAF LBSF 020500Z 0206/0306 09010KT 6000 -RA SCT015 BKN025 OVC040"
    },
    {
      "icao": "LBWN",
      "alert": "OK",
      "vis_m": 9999,
      "fzfg": false,
      "metar_trigger": false,
      "taf_trigger": false,
      "metar": "METAR LBWN 021100Z 06015KT 9999 FEW008 OVC015 10/10 Q1000 NOSIG",
      "taf": "TAF LBWN 020500Z 0206/0306 05014KT 9999 BKN013 BKN040"
    },
    {
      "icao": "LCLK",
      "alert": "OK",
      "vis_m": 7000,
      "fzfg": false,
      "metar_trigger": false,
      "taf_trigger": false,
      "metar": "METAR LCLK 021100Z 12006KT 7000 SCT020 SCT025 22/19 Q1006 NOSIG",
      "taf": ""
    },
    {
      "icao": "LCPH",
      "alert": "OK",
      "vis_m": 4000,
      "fzfg": false,
      "metar_trigger": false,
      "taf_trigger": false,
      "metar": "METAR LCPH 021100Z 31017KT 4000 DU SCT012 BKN017 BKN023 19/15 Q1007 TEMPO 5000 DU",
      "taf": ""
    },
    {
      "icao": "LEAL",
      "alert": "OK",
      "vis_m": 9999,
      "fzfg": false,
      "metar_trigger": false,
      "taf_trigger": false,
      "metar": "METAR LEAL 021100Z 34009KT 270V030 9999 FEW040 20/02 Q1016 NOSIG",
      "taf": ""
    },
    {
      "icao": "LEBB",
      "alert": "OK",
      "vis_m": 9999,
      "fzfg": false,
      "metar_trigger": false,
      "taf_trigger": false,
      "metar": "METAR LEBB 021100Z 30014KT 9999 FEW015 BKN050 12/10 Q1026 TEMPO 3000 RA",
      "taf": "TAF LEBB 020500Z 0206/0306 32009KT 9999 FEW020 BKN030 TX13/0214Z TN08/0306Z"
    },
    {
      "icao": "LEBL",
      "alert": "OK",
      "vis_m": 9999,
      "fzfg": false,
      "metar_trigger": false,
      "taf_trigger": false,
      "metar": "METAR LEBL 021100Z 21014KT 180V240 9999 SCT030 15/07 Q1013 NOSIG",
      "taf": "TAF LEBL 020500Z 0206/0306 32006KT 9999 FEW020 SCT030 TX21/0213Z TN09/0206Z"
    },
    {
      "icao": "LECH",
      "alert": "OK",
      "vis_m": 9999,
      "fzfg": false,
      "metar_trigger": false,
      "taf_trigger": false,
      "metar": "METAR LECH 021100Z AUTO 35019G35KT 320V050 CAVOK 14/01 Q1015",
      "taf": "TAF LECH 020500Z 0206/0306 34020KT CAVOK TX19/0213Z TN11/0305Z"
    },
    {
      "icao": "LEMD",
      "alert": "OK",
      "vis_m": 9999,
      "fzfg": false,
      "metar_trigger": false,
      "taf_trigger": false,
      "metar": "METAR LEMD 021100Z 36015KT 320V020 CAVOK 14/01 Q1020 NOSIG",
      "taf": ""
    },
    {
      "icao": "LEMG",
      "alert": "OK",
      "vis_m": 9999,
      "fzfg": false,
      "metar_trigger": false,
      "taf_trigger": false,
      "metar": "METAR LEMG 021100Z 30013KT 260V330 CAVOK 23/M01 Q1017 NOSIG",
      "taf": "TAF LEMG 020500Z 0206/0306 30010KT CAVOK TX24/0213Z TN09/0305Z"
    },
    {
      "icao": "LEVC",
      "alert": "OK",
      "vis_m": 9999,
      "fzfg": false,
      "metar_trigger": false,
      "taf_trigger": false,
      "metar": "METAR LEVC 021100Z 30009KT 260V350 CAVOK 18/02 Q1016 NOSIG",
      "taf": "TAF LEVC 020500Z 0206/0306 31015KT CAVOK TX23/0214Z TN15/0305Z"
    },
    {
      "icao": "LEXJ",
      "alert": "OK",
      "vis_m": 9000,
      "fzfg": false,
      "metar_trigger": false,
      "taf_trigger": false,
      "metar": "METAR LEXJ 021100Z 32012KT 280V350 9000 SCT022 BKN060 14/08 Q1027",
      "taf": "TAF LEXJ 020800Z 0209/0309 32009KT 9999 SCT010 BKN030 TX14/0212Z TN09/0303Z"
    },
    {
      "icao": "LEZG",
      "alert": "OK",
      "vis_m": 9999,
      "fzfg": false,
      "metar_trigger": false,
      "taf_trigger": false,
      "metar": "METAR LEZG 021100Z 29020G30KT 260V330 9999 FEW030 BKN045 14/05 Q1019 NOSIG",
      "taf": "TAF LEZG 020500Z 0206/0306 29020KT 9999 SCT050 TX17/0214Z TN10/0305Z"
    },
    {
      "icao": "LEZL",
      "alert": "OK",
      "vis_m": 9999,
      "fzfg": false,
      "metar_trigger": false,
      "taf_trigger": false,
      "metar": "METAR LEZL 021100Z 08007KT 050V130 CAVOK 22/05 Q1020 NOSIG",
      "taf": "TAF LEZL 020800Z 0209/0309 05008KT CAVOK TX26/0215Z TN10/0307Z"
    },
    {
      "icao": "LFBD",
      "alert": "OK",
      "vis_m": 9999,
      "fzfg": false,
      "metar_trigger": false,
      "taf_trigger": false,
      "metar": "METAR LFBD 021100Z AUTO 32012KT 9999 BKN031 BKN052 OVC066 13/05 Q1023 TEMPO 4000 -SHRA BKN015TCU",
      "taf": "TAF LFBD 020500Z 0206/0312 33005KT CAVOK TX16/0312Z TN07/0305Z"
    },
    {
      "icao": "LFLL",
      "alert": "OK",
      "vis_m": 9999,
      "fzfg": false,
      "metar_trigger": false,
      "taf_trigger": false,
      "metar": "METAR LFLL 021100Z COR 36015KT 330V030 9999 SCT041 10/00 Q1016 NOSIG",
      "taf": "TAF LFLL 020500Z 0206/0312 36009KT CAVOK"
    },
    {
      "icao": "LFLS",
      "alert": "OK",
      "vis_m": 9999,
      "fzfg": false,
      "metar_trigger": false,
      "taf_trigger": false,
      "metar": "METAR LFLS 021100Z AUTO 36008KT 310V040 9999 SCT034 BKN044 08/01 Q1015 BECMG 36017G27KT",
      "taf": "TAF LFLS 020800Z 0209/0309 36010KT CAVOK"
    },
    {
      "icao": "LFMN",
      "alert": "OK",
      "vis_m": 9999,
      "fzfg": false,
      "metar_trigger": false,
      "taf_trigger": false,
      "metar": "METAR LFMN 021100Z 18007KT CAVOK 16/03 Q1006 NOSIG",
      "taf": "TAF LFMN 020800Z 0209/0315 33006KT CAVOK"
    },
    {
      "icao": "LFOB",
      "alert": "OK",
      "vis_m": 9999,
      "fzfg": false,
      "metar_trigger": false,
      "taf_trigger": false,
      "metar": "METAR LFOB 021100Z AUTO 32009KT 290V350 9999 BKN022 BKN029 BKN039 12/09 Q1020 TEMPO 4000 -RADZ BKN012 OVC035",
      "taf": "TAF LFOB 020500Z 0206/0306 VRB04KT 9999 FEW020 BKN035"
    },
    {
      "icao": "LFPO",
      "alert": "OK",
      "vis_m": 9999,
      "fzfg": false,
      "metar_trigger": false,
      "taf_trigger": false,
      "metar": "METAR LFPO 021100Z 34006KT 300V030 9999 SCT015 BKN038 11/09 Q1020 NOSIG",
      "taf": ""
    },
    {
      "icao": "LFSB",
      "alert": "OK",
      "vis_m": 9999,
      "fzfg": false,
      "metar_trigger": false,
      "taf_trigger": false,
      "metar": "METAR LFSB 021100Z AUTO 36004KT 260V060 CAVOK 11/01 Q1017 NOSIG",
      "taf": "TAF LFSB 020500Z 0206/0306 35005KT 9999 SCT050"
    },
    {
      "icao": "LGAV",
      "alert": "OK",
      "vis_m": 8000,
      "fzfg": false,
      "metar_trigger": false,
      "taf_trigger": false,
      "metar": "METAR LGAV 021050Z 21021KT 8000 -DZ SCT018 BKN030 BKN060 15/11 Q0997 NOSIG",
      "taf": "TAF LGAV 020500Z 0206/0306 22014KT 9999 FEW015 BKN025 BKN070"
    },
    {
      "icao": "LGTS",
      "alert": "OK",
      "vis_m": 6000,
      "fzfg": false,
      "metar_trigger": false,
      "taf_trigger": false,
      "metar": "METAR LGTS 021050Z 25015KT 6000 -RA SCT006 BKN018 11/11 Q0995 NOSIG",
      "taf": ""
    },
    {
      "icao": "LHBP",
      "alert": "OK",
      "vis_m": 9999,
      "fzfg": false,
      "metar_trigger": false,
      "taf_trigger": false,
      "metar": "METAR LHBP 021100Z 02008KT 340V060 9999 BKN045 15/05 Q1006 NOSIG",
      "taf": "TAF LHBP 020515Z 0206/0306 34008KT 9999 BKN035"
    },
    {
      "icao": "LHDC",
      "alert": "OK",
      "vis_m": 9999,
      "fzfg": false,
      "metar_trigger": false,
      "taf_trigger": false,
      "metar": "METAR LHDC 021045Z AUTO 04015KT 010V070 CAVOK 17/07 Q1005 NOSIG",
      "taf": "TAF LHDC 020815Z 0209/0218 04011KT CAVOK"
    },
    {
      "icao": "LIBD",
      "alert": "OK",
      "vis_m": 5000,
      "fzfg": false,
      "metar_trigger": false,
      "taf_trigger": false,
      "metar": "METAR LIBD 021050Z 04004KT 350V080 5000 RA VCSH BKN015 11/11 Q0995",
      "taf": "TAF LIBD 020500Z 0206/0306 04012KT 7000 RA BKN040"
    },
    {
      "icao": "LIBG",
      "alert": "OK",
      "vis_m": 7000,
      "fzfg": false,
      "metar_trigger": false,
      "taf_trigger": false,
      "metar": "METAR LIBG 021050Z 08010KT 7000 RA SCT010 BKN040 12/12 Q0994",
      "taf": "TAF LIBG 020800Z 0209/0218 04012KT 7000 RA OVC030"
    },
    {
      "icao": "LIBP",
      "alert": "OK",
      "vis_m": 6000,
      "fzfg": false,
      "metar_trigger": false,
      "taf_trigger": false,
      "metar": "METAR LIBP 021050Z AUTO 35013KT 6000 -RA OVC027/// 10/09 Q1002",
      "taf": "TAF LIBP 020500Z 0206/0306 36015KT 7000 RA OVC030"
    },
    {
      "icao": "LIBR",
      "alert": "OK",
      "vis_m": 6000,
      "fzfg": false,
      "metar_trigger": false,
      "taf_trigger": false,
      "metar": "METAR LIBR 021050Z 09010KT 6000 -RA FEW015 SCT048 13/10 Q0994",
      "taf": "TAF LIBR 020500Z 0206/0306 05015KT 7000 RA OVC040"
    },
    {
      "icao": "LICA",
      "alert": "OK",
      "vis_m": 9999,
      "fzfg": false,
      "metar_trigger": false,
      "taf_trigger": false,
      "metar": "METAR LICA 021050Z AUTO 28014KT 9999 -RA OVC058/// 12/10 Q0993",
      "taf": "TAF LICA 020500Z 0206/0306 VRB05KT 9999 BKN040"
    },
    {
      "icao": "LICC",
      "alert": "OK",
      "vis_m": 9999,
      "fzfg": false,
      "metar_trigger": false,
      "taf_trigger": false,
      "metar": "METAR LICC 021050Z 26009KT 9999 SCT030 SCT100 17/15 Q0993",
      "taf": "TAF LICC 020500Z 0206/0306 26006KT 9999 SCT030"
    },
    {
      "icao": "LICJ",
      "alert": "OK",
      "vis_m": 8000,
      "fzfg": false,
      "metar_trigger": false,
      "taf_trigger": false,
      "metar": "METAR LICJ 021050Z 35024KT 8000 VCSH BKN016 13/11 Q0996",
      "taf": "TAF LICJ 020500Z 0206/0306 35013KT 9999 SCT020"
    },
    {
      "icao": "LIMC",
      "alert": "OK",
      "vis_m": 9999,
      "fzfg": false,
      "metar_trigger": false,
      "taf_trigger": false,
      "metar": "METAR LIMC 021050Z VRB05KT CAVOK 15/M03 Q1008 NOSIG",
      "taf": "TAF LIMC 020500Z 0206/0312 VRB05KT CAVOK"
    },
    {
      "icao": "LIME",
      "alert": "OK",
      "vis_m": 9999,
      "fzfg": false,
      "metar_trigger": false,
      "taf_trigger": false,
      "metar": "METAR LIME 021050Z 22005KT 160V280 CAVOK 14/00 Q1007 NOSIG",
      "taf": "TAF LIME 020500Z 0206/0306 01005KT CAVOK"
    },
    {
      "icao": "LIMF",
      "alert": "OK",
      "vis_m": 9999,
      "fzfg": false,
      "metar_trigger": false,
      "taf_trigger": false,
      "metar": "METAR LIMF 021050Z 11005KT 050V180 CAVOK 14/M04 Q1008",
      "taf": "TAF LIMF 020500Z 0206/0306 VRB05KT CAVOK"
    },
    {
      "icao": "LIMJ",
      "alert": "OK",
      "vis_m": 9999,
      "fzfg": false,
      "metar_trigger": false,
      "taf_trigger": false,
      "metar": "METAR LIMJ 021050Z 36008G22KT 290V050 CAVOK 19/M03 Q1005",
      "taf": "TAF LIMJ 020500Z 0206/0306 02010KT CAVOK"
    },
    {
      "icao": "LIPE",
      "alert": "OK",
      "vis_m": 9999,
      "fzfg": false,
      "metar_trigger": false,
      "taf_trigger": false,
      "metar": "METAR LIPE 021050Z 06007KT 020V080 9999 SCT070 14/00 Q1007",
      "taf": "TAF LIPE 020500Z 0206/0306 VRB05KT 9999 SCT060"
    },
    {
      "icao": "LIPH",
      "alert": "OK",
      "vis_m": 9999,
      "fzfg": false,
      "metar_trigger": false,
      "taf_trigger": false,
      "metar": "METAR LIPH 021050Z 11004KT 010V140 CAVOK 16/00 Q1006",
      "taf": "TAF LIPH 020500Z 0206/0306 VRB05KT 9999 SCT060"
    },
    {
      "icao": "LIPQ",
      "alert": "OK",
      "vis_m": 9999,
      "fzfg": false,
      "metar_trigger": false,
      "taf_trigger": false,
      "metar": "METAR LIPQ 021050Z AUTO 06014KT 9999 FEW240/// 17/00 Q1006",
      "taf": "TAF LIPQ 020500Z 0206/0306 VRB05KT CAVOK"
    },
    {
      "icao": "LIPR",
      "alert": "OK",
      "vis_m": 9999,
      "fzfg": false,
      "metar_trigger": false,
      "taf_trigger": false,
      "metar": "METAR LIPR 021050Z 04007KT 9999 SCT045 12/05 Q1006",
      "taf": "TAF LIPR 020500Z 0206/0306 04015KT 9999 SCT050"
    },
    {
      "icao": "LIPX",
      "alert": "OK",
      "vis_m": 9999,
      "fzfg": false,
      "metar_trigger": false,
      "taf_trigger": false,
      "metar": "METAR LIPX 021050Z 22006KT 140V270 CAVOK 16/M03 Q1007",
      "taf": "TAF LIPX 020500Z 0206/0306 VRB05KT CAVOK"
    },
    {
      "icao": "LIPY",
      "alert": "OK",
      "vis_m": 9999,
      "fzfg": false,
      "metar_trigger": false,
      "taf_trigger": false,
      "metar": "METAR LIPY 021050Z AUTO 03013KT 9999 OVC072/// 12/07 Q1004",
      "taf": "TAF LIPY 020500Z 0206/0306 03015KT 9999 BKN050"
    },
    {
      "icao": "LIPZ",
      "alert": "OK",
      "vis_m": 9999,
      "fzfg": false,
      "metar_trigger": false,
      "taf_trigger": false,
      "metar": "METAR LIPZ 021050Z 04004KT 350V110 CAVOK 14/02 Q1007 NOSIG",
      "taf": "TAF LIPZ 020500Z 0206/0312 VRB06KT CAVOK"
    },
    {
      "icao": "LIRF",
      "alert": "OK",
      "vis_m": 9999,
      "fzfg": false,
      "metar_trigger": false,
      "taf_trigger": false,
      "metar": "METAR LIRF 021050Z 02017KT CAVOK 14/05 Q0999 NOSIG",
      "taf": "TAF LIRF 020500Z 0206/0312 02016KT CAVOK"
    },
    {
      "icao": "LIRN",
      "alert": "OK",
      "vis_m": 9999,
      "fzfg": false,
      "metar_trigger": false,
      "taf_trigger": false,
      "metar": "METAR LIRN 021050Z 02010KT 290V050 9999 FEW030 BKN060 14/07 Q0996 NOSIG",
      "taf": "TAF LIRN 020500Z 0206/0306 03014KT 9999 SCT050"
    },
    {
      "icao": "LIRP",
      "alert": "OK",
      "vis_m": 9999,
      "fzfg": false,
      "metar_trigger": false,
      "taf_trigger": false,
      "metar": "METAR LIRP 021045Z 35005KT 280V040 9999 SCT060 17/01 Q1005 NOSIG",
      "taf": "TAF LIRP 020500Z 0206/0306 03005KT 9999 SCT080"
    },
    {
      "icao": "LIRZ",
      "alert": "OK",
      "vis_m": 9999,
      "fzfg": false,
      "metar_trigger": false,
      "taf_trigger": false,
      "metar": "METAR LIRZ 021050Z AUTO 36009KT 9999 R01/1400N BKN038/// 10/05 Q1002",
      "taf": "TAF LIRZ 020500Z 0206/0306 03013KT 9999 BKN040"
    },
    {
      "icao": "LJLJ",
      "alert": "OK",
      "vis_m": 9999,
      "fzfg": false,
      "metar_trigger": false,
      "taf_trigger": false,
      "metar": "METAR LJLJ 021100Z 26004KT 210V310 9999 BKN055 SCT220 12/M01 Q1007 NOSIG",
      "taf": "TAF LJLJ 021100Z 0212/0312 12004KT 9999 BKN055"
    },
    {
      "icao": "LKMT",
      "alert": "OK",
      "vis_m": 9999,
      "fzfg": false,
      "metar_trigger": false,
      "taf_trigger": false,
      "metar": "METAR LKMT 021100Z 36011KT 330V030 CAVOK 10/02 Q1013 NOSIG",
      "taf": "TAF LKMT 020500Z 0206/0306 04008KT CAVOK"
    },
    {
      "icao": "LKPR",
      "alert": "OK",
      "vis_m": 9999,
      "fzfg": false,
      "metar_trigger": false,
      "taf_trigger": false,
      "metar": "METAR LKPR 021100Z 31008KT 290V360 9999 FEW040 10/00 Q1015 NOSIG",
      "taf": "TAF LKPR 020800Z 0209/0315 34006KT CAVOK"
    },
    {
      "icao": "LLBG",
      "alert": "OK",
      "vis_m": 8000,
      "fzfg": false,
      "metar_trigger": false,
      "taf_trigger": false,
      "metar": "METAR LLBG 021050Z 27012KT 8000 BKN035 22/17 Q1010 BECMG 5000 DU",
      "taf": "TAF LLBG 021102Z 0212/0312 28012KT 8000 SCT040 TX22/0212Z TN16/0303Z"
    },
    {
      "icao": "LMML",
      "alert": "OK",
      "vis_m": 9000,
      "fzfg": false,
      "metar_trigger": false,
      "taf_trigger": false,
      "metar": "METAR LMML 021045Z 28023KT 9000 -RA FEW017 BKN045 13/10 Q0997 BECMG 9999 NSW",
      "taf": "TAF LMML 021100Z 0212/0312 28024G35KT 9999 FEW020"
    },
    {
      "icao": "LOWW",
      "alert": "OK",
      "vis_m": 9999,
      "fzfg": false,
      "metar_trigger": false,
      "taf_trigger": false,
      "metar": "METAR LOWW 021050Z 32018KT 9999 FEW050 09/02 Q1011 NOSIG",
      "taf": "TAF LOWW 020815Z 0209/0315 33015G25KT 9999 BKN040 TX15/0313Z TN06/0304Z"
    },
    {
      "icao": "LPFR",
      "alert": "OK",
      "vis_m": 9999,
      "fzfg": false,
      "metar_trigger": false,
      "taf_trigger": false,
      "metar": "METAR LPFR 021100Z 22005KT 180V240 CAVOK 20/10 Q1020",
      "taf": "TAF LPFR 020500Z 0206/0306 02008KT CAVOK"
    },
    {
      "icao": "LPMA",
      "alert": "OK",
      "vis_m": 9999,
      "fzfg": false,
      "metar_trigger": false,
      "taf_trigger": false,
      "metar": "METAR LPMA 021100Z 36013KT 330V040 9999 FEW015 23/03 Q1023",
      "taf": "TAF LPMA 020500Z 0206/0306 01015KT 9999 SCT015"
    },
    {
      "icao": "LPPR",
      "alert": "OK",
      "vis_m": 9999,
      "fzfg": false,
      "metar_trigger": false,
      "taf_trigger": false,
      "metar": "METAR LPPR 021100Z 30007KT 260V350 CAVOK 18/09 Q1023",
      "taf": "TAF LPPR 020500Z 0206/0306 VRB02KT CAVOK"
    },
    {
      "icao": "LPPS",
      "alert": "OK",
      "vis_m": 9999,
      "fzfg": false,
      "metar_trigger": false,
      "taf_trigger": false,
      "metar": "METAR LPPS 021100Z 02015KT 9999 FEW014 18/14 Q1024",
      "taf": "TAF LPPS 020500Z 0206/0312 03010KT 9999 SCT012"
    },
    {
      "icao": "LPPT",
      "alert": "OK",
      "vis_m": 9999,
      "fzfg": false,
      "metar_trigger": false,
      "taf_trigger": false,
      "metar": "METAR LPPT 021100Z 34007KT 290V010 CAVOK 20/10 Q1022",
      "taf": "TAF LPPT 020500Z 0206/0312 33012KT CAVOK"
    },
    {
      "icao": "LQBK",
      "alert": "OK",
      "vis_m": 9999,
      "fzfg": false,
      "metar_trigger": false,
      "taf_trigger": false,
      "metar": "METAR LQBK 021100Z 28007KT 9999 FEW030 BKN047 10/04 Q1006 NOSIG",
      "taf": "TAF LQBK 021100Z 0212/0312 29007KT 9999 SCT030 BKN045 TX11/0213Z TN06/0305Z"
    },
    {
      "icao": "LQSA",
      "alert": "OK",
      "vis_m": 9999,
      "fzfg": false,
      "metar_trigger": false,
      "taf_trigger": false,
      "metar": "METAR LQSA 021100Z 29009KT 9999 -RA SCT018 OVC025 04/03 Q1002 NOSIG",
      "taf": "TAF LQSA 021100Z 0212/0312 28008KT 9999 SCT017 BKN030 TX07/0312Z TN03/0305Z"
    },
    {
      "icao": "LQTZ",
      "alert": "OK",
      "vis_m": 9999,
      "fzfg": false,
      "metar_trigger": false,
      "taf_trigger": false,
      "metar": "METAR LQTZ 021100Z 28006KT 9999 OVC015 04/04 Q1005",
      "taf": "TAF LQTZ 021100Z 0212/0312 30005KT 7000 BKN014 OVC030 TX07/0213Z TN03/0305Z"
    },
    {
      "icao": "LRBC",
      "alert": "OK",
      "vis_m": 7000,
      "fzfg": false,
      "metar_trigger": false,
      "taf_trigger": false,
      "metar": "METAR LRBC 021100Z 34012KT 7000 OVC009 08/06 Q1006",
      "taf": "TAF LRBC 020800Z 0209/0218 35012KT 9999 BKN005"
    },
    {
      "icao": "LRBS",
      "alert": "OK",
      "vis_m": 5000,
      "fzfg": false,
      "metar_trigger": false,
      "taf_trigger": false,
      "metar": "METAR LRBS 021100Z 05015KT 010V080 5000 -RA BR FEW005 OVC006 09/08 Q1002 RERA NOSIG",
      "taf": "TAF LRBS 020500Z 0206/0306 06018KT 9999 BKN010 OVC020"
    },
    {
      "icao": "LRBV",
      "alert": "OK",
      "vis_m": 9999,
      "fzfg": false,
      "metar_trigger": false,
      "taf_trigger": false,
      "metar": "METAR LRBV 021100Z VRB05KT 9999 BKN012 OVC033 08/06 Q1004",
      "taf": "TAF LRBV 020800Z 0209/0218 VRB04KT 9999 BKN010"
    },
    {
      "icao": "LRCL",
      "alert": "OK",
      "vis_m": 9999,
      "fzfg": false,
      "metar_trigger": false,
      "taf_trigger": false,
      "metar": "METAR LRCL 021100Z 27006KT 240V300 9999 BKN054 10/05 Q1005",
      "taf": "TAF LRCL 020800Z 0209/0218 VRB04KT 9999 BKN060"
    },
    {
      "icao": "LRCV",
      "alert": "OK",
      "vis_m": 4500,
      "fzfg": false,
      "metar_trigger": false,
      "taf_trigger": false,
      "metar": "METAR LRCV 021100Z 07009KT 4500 RA BR BKN008 OVC018 09/09 Q1002",
      "taf": "TAF LRCV 020800Z 0209/0218 08014KT 5000 -RA BR OVC010"
    },
    {
      "icao": "LRIA",
      "alert": "OK",
      "vis_m": 8000,
      "fzfg": false,
      "metar_trigger": false,
      "taf_trigger": false,
      "metar": "METAR LRIA 021100Z 31007KT 280V340 8000 OVC005 09/07 Q1007",
      "taf": "TAF LRIA 020800Z 0209/0218 31008KT 3000 BR OVC002"
    },
    {
      "icao": "LROP",
      "alert": "OK",
      "vis_m": 5000,
      "fzfg": false,
      "metar_trigger": false,
      "taf_trigger": false,
      "metar": "METAR LROP 021100Z 06018KT 5000 RA BR OVC007 09/08 Q1002 NOSIG",
      "taf": "TAF LROP 020500Z 0206/0306 06018KT 9999 BKN010 OVC020"
    },
    {
      "icao": "LRSB",
      "alert": "OK",
      "vis_m": 9999,
      "fzfg": false,
      "metar_trigger": false,
      "taf_trigger": false,
      "metar": "METAR LRSB 021100Z 30005KT 9999 FEW008 BKN020 BKN025 08/05 Q1004",
      "taf": "TAF LRSB 020500Z 0206/0306 VRB04KT 9999 BKN040"
    },
    {
      "icao": "LRSM",
      "alert": "OK",
      "vis_m": 9999,
      "fzfg": false,
      "metar_trigger": false,
      "taf_trigger": false,
      "metar": "METAR LRSM 021100Z 01006KT 320V050 CAVOK 17/08 Q1005",
      "taf": "TAF LRSM 020800Z 0209/0218 VRB04KT CAVOK"
    },
    {
      "icao": "LRSV",
      "alert": "OK",
      "vis_m": 9000,
      "fzfg": false,
      "metar_trigger": false,
      "taf_trigger": false,
      "metar": "METAR LRSV 021100Z 32014KT 9000 FEW026 SCT035 BKN044 09/07 Q1006",
      "taf": "TAF LRSV 020800Z 0209/0218 32010KT 9999 BKN035"
    },
    {
      "icao": "LRTM",
      "alert": "OK",
      "vis_m": 9999,
      "fzfg": false,
      "metar_trigger": false,
      "taf_trigger": false,
      "metar": "METAR LRTM 021100Z VRB02KT 9999 SCT047 10/07 Q1005",
      "taf": "TAF LRTM 020800Z 0209/0218 VRB04KT 5000 BR SCT045"
    },
    {
      "icao": "LRTR",
      "alert": "OK",
      "vis_m": 9999,
      "fzfg": false,
      "metar_trigger": false,
      "taf_trigger": false,
      "metar": "METAR LRTR 021100Z 02009KT 360V060 9999 SCT046 16/07 Q1002 NOSIG",
      "taf": "TAF LRTR 020500Z 0206/0306 01010KT CAVOK"
    },
    {
      "icao": "LTAC",
      "alert": "OK",
      "vis_m": 9999,
      "fzfg": false,
      "metar_trigger": false,
      "taf_trigger": false,
      "metar": "METAR LTAC 021050Z VRB03KT 9999 SCT040 BKN100 13/10 Q1004 RESHRA NOSIG RMK RWY21C 19004KT 140V240 RWY03L 15003KT 070V200 RWY21R 16004KT 110V210 RWY03R VRB02KT RWY21L VRB02KT",
      "taf": "TAF LTAC 021040Z 0212/0312 VRB02KT 9999 SCT040 SCT100"
    },
    {
      "icao": "LTFM",
      "alert": "OK",
      "vis_m": 9999,
      "fzfg": false,
      "metar_trigger": false,
      "taf_trigger": false,
      "metar": "METAR LTFM 021050Z 34003KT 280V030 9999 -SHRA FEW007 BKN035 12/11 Q1000 NOSIG RMK RWY17L 06004G14KT 010V120 RWY34L 02003KT 330V050 RWY16R VRB02KT RWY36 35004KT 320V040 RWY18 VRB03KT",
      "taf": "TAF LTFM 021040Z 0212/0318 22013KT 9999 SCT035 BKN100"
    },
    {
      "icao": "LUKK",
      "alert": "OK",
      "vis_m": 9999,
      "fzfg": false,
      "metar_trigger": false,
      "taf_trigger": false,
      "metar": "METAR LUKK 021100Z 09006KT 040V140 9999 BKN014 13/10 Q1005 NOSIG",
      "taf": "TAF LUKK 021102Z 0212/0312 VRB06KT 9999 SCT013 BKN020"
    },
    {
      "icao": "LWOH",
      "alert": "OK",
      "vis_m": 9999,
      "fzfg": false,
      "metar_trigger": false,
      "taf_trigger": false,
      "metar": "METAR LWOH 021050Z 25004KT 220V280 9999 RA OVC033 07/06 Q0995",
      "taf": "TAF LWOH 020810Z 0209/0309 34008KT 9999 RA SCT025 OVC035"
    },
    {
      "icao": "LWSK",
      "alert": "OK",
      "vis_m": 9999,
      "fzfg": false,
      "metar_trigger": false,
      "taf_trigger": false,
      "metar": "METAR LWSK 021050Z 32007KT 270V360 9999 -RA BKN035 OVC070 09/07 Q0997 NOSIG",
      "taf": "TAF LWSK 020810Z 0209/0309 VRB02KT 9999 -RA FEW020 BKN035 OVC070"
    },
    {
      "icao": "LYBE",
      "alert": "OK",
      "vis_m": 9999,
      "fzfg": false,
      "metar_trigger": false,
      "taf_trigger": false,
      "metar": "METAR LYBE 021100Z 33007KT 300V010 9999 BKN017 09/06 Q1004 NOSIG",
      "taf": "TAF LYBE 020500Z 0206/0306 35008KT 9999 SCT010 BKN045 TX11/0213Z TN05/0206Z"
    },
    {
      "icao": "LYNI",
      "alert": "OK",
      "vis_m": 9999,
      "fzfg": false,
      "metar_trigger": false,
      "taf_trigger": false,
      "metar": "METAR LYNI 021100Z 01010KT 340V060 9999 -RA FEW017 BKN050 09/05 Q0999 NOSIG",
      "taf": "TAF LYNI 020500Z 0206/0306 04014KT 9999 SCT040 BKN080 TX11/0213Z TN07/0305Z"
    },
    {
      "icao": "LYPG",
      "alert": "OK",
      "vis_m": 9999,
      "fzfg": false,
      "metar_trigger": false,
      "taf_trigger": false,
      "metar": "METAR LYPG 021100Z 02012KT 340V050 9999 FEW040 OVC080 15/03 Q0995 TEMPO 01022KT",
      "taf": "TAF LYPG 020500Z 0206/0306 36015KT 9999 FEW050 OVC090 TX16/0212Z TN10/0304Z"
    },
    {
      "icao": "LZIB",
      "alert": "OK",
      "vis_m": 9999,
      "fzfg": false,
      "metar_trigger": false,
      "taf_trigger": false,
      "metar": "METAR LZIB 021100Z 31013KT CAVOK 12/02 Q1010 NOSIG",
      "taf": ""
    },
    {
      "icao": "LZKZ",
      "alert": "OK",
      "vis_m": 9999,
      "fzfg": false,
      "metar_trigger": false,
      "taf_trigger": false,
      "metar": "METAR LZKZ 021100Z 36021KT CAVOK 13/04 Q1008 NOSIG",
      "taf": ""
    },
    {
      "icao": "LZTT",
      "alert": "OK",
      "vis_m": 9999,
      "fzfg": false,
      "metar_trigger": false,
      "taf_trigger": false,
      "metar": "METAR LZTT 021100Z 18005KT 150V240 9999 FEW010 SCT040 BKN056 05/03 Q1010 NOSIG",
      "taf": ""
    },
    {
      "icao": "OEJN",
      "alert": "OK",
      "vis_m": 8000,
      "fzfg": false,
      "metar_trigger": false,
      "taf_trigger": false,
      "metar": "METAR OEJN 021100Z 23011KT 8000 NSC 35/15 Q1007 NOSIG",
      "taf": "TAF OEJN 020500Z 0206/0312 20010KT 7000 NSC"
    },
    {
      "icao": "OEMA",
      "alert": "OK",
      "vis_m": 9999,
      "fzfg": false,
      "metar_trigger": false,
      "taf_trigger": false,
      "metar": "METAR OEMA 021100Z 21007KT CAVOK 39/M01 Q1012 NOSIG",
      "taf": "TAF OEMA 020500Z 0206/0312 15015KT 7000 FEW040"
    },
    {
      "icao": "OJAI",
      "alert": "OK",
      "vis_m": 4000,
      "fzfg": false,
      "metar_trigger": false,
      "taf_trigger": false,
      "metar": "METAR OJAI 021100Z 18014KT 4000 HZ NSC 21/14 Q1012 NOSIG",
      "taf": "TAF OJAI 020500Z 0206/0312 12014KT 4000 BR FEW025TCU SCT030"
    },
    {
      "icao": "OMAA",
      "alert": "OK",
      "vis_m": null,
      "fzfg": false,
      "metar_trigger": false,
      "taf_trigger": false,
      "metar": "",
      "taf": ""
    },
    {
      "icao": "OMDB",
      "alert": "OK",
      "vis_m": null,
      "fzfg": false,
      "metar_trigger": false,
      "taf_trigger": false,
      "metar": "",
      "taf": ""
    },
    {
      "icao": "UAAA",
      "alert": "OK",
      "vis_m": 9999,
      "fzfg": false,
      "metar_trigger": false,
      "taf_trigger": false,
      "metar": "METAR UAAA 021100Z 04003MPS 360V080 9999 SCT200 25/05 Q1011 NOSIG",
      "taf": "TAF UAAA 020500Z 0206/0306 03003G08MPS 9999 FEW050 SCT100 TX26/0210Z TN09/0301Z"
    },
    {
      "icao": "UBBB",
      "alert": "OK",
      "vis_m": 9999,
      "fzfg": false,
      "metar_trigger": false,
      "taf_trigger": false,
      "metar": "METAR UBBB 021100Z 16020KT CAVOK 17/10 Q1012 NOSIG",
      "taf": "TAF UBBB 021054Z 0212/0312 16016G26KT 9999 SCT020 TX17/0212Z TN09/0301Z"
    },
    {
      "icao": "UDSG",
      "alert": "OK",
      "vis_m": 9999,
      "fzfg": false,
      "metar_trigger": false,
      "taf_trigger": false,
      "metar": "METAR UDSG 021100Z 19010KT 9999 SCT043CB 12/M01 Q1014 NOSIG",
      "taf": "TAF UDSG 020458Z 0206/0306 24006KT 9999 SCT050"
    },
    {
      "icao": "UDYZ",
      "alert": "OK",
      "vis_m": 9999,
      "fzfg": false,
      "metar_trigger": false,
      "taf_trigger": false,
      "metar": "METAR UDYZ 021100Z 18005KT 9999 FEW046 18/00 Q1012 NOSIG",
      "taf": "TAF UDYZ 020500Z 0206/0306 22006KT 9999 FEW040"
    },
    {
      "icao": "UGKO",
      "alert": "OK",
      "vis_m": 9999,
      "fzfg": false,
      "metar_trigger": false,
      "taf_trigger": false,
      "metar": "METAR UGKO 021100Z 07021KT CAVOK 25/05 Q1004 NOSIG",
      "taf": "TAF UGKO 021100Z 0212/0312 08010KT 9999 TX25/0212Z TN13/0303Z"
    }
  ]
}