{
  "ts_utc": "2026-06-22T07:04:54Z",
  "threshold_m": 150,
  "source": "stations_override.txt (ICAO list) + aviationweather.gov (METAR/TAF raw)",
  "station_count": 159,
  "stations": [
    {
      "icao": "BIKF",
      "alert": "OK",
      "vis_m": 9999,
      "fzfg": false,
      "metar_trigger": false,
      "taf_trigger": false,
      "metar": "METAR BIKF 220700Z 20006KT 9999 FEW017TCU BKN090 09/07 Q1019",
      "taf": "TAF BIKF 220418Z 2206/2306 21008KT 9999 FEW020 BKN030 TX13/2215Z TN08/2303Z"
    },
    {
      "icao": "BKPR",
      "alert": "OK",
      "vis_m": 9999,
      "fzfg": false,
      "metar_trigger": false,
      "taf_trigger": false,
      "metar": "METAR BKPR 220700Z VRB01KT CAVOK 24/16 Q1023 NOSIG",
      "taf": "TAF BKPR 220530Z 2206/2306 36008KT 9999 SCT060"
    },
    {
      "icao": "EBCI",
      "alert": "OK",
      "vis_m": 9999,
      "fzfg": false,
      "metar_trigger": false,
      "taf_trigger": false,
      "metar": "METAR EBCI 220650Z 05006KT 020V080 CAVOK 23/20 Q1026 NOSIG",
      "taf": "TAF EBCI 220510Z 2206/2312 04007KT 9999 FEW035"
    },
    {
      "icao": "EDDB",
      "alert": "OK",
      "vis_m": 9999,
      "fzfg": false,
      "metar_trigger": false,
      "taf_trigger": false,
      "metar": "METAR EDDB 220650Z AUTO 03007KT 350V100 9999 SCT033 21/12 Q1027 NOSIG",
      "taf": "TAF EDDB 220500Z 2206/2306 04006KT 9999 FEW035"
    },
    {
      "icao": "EDDH",
      "alert": "OK",
      "vis_m": 9999,
      "fzfg": false,
      "metar_trigger": false,
      "taf_trigger": false,
      "metar": "METAR EDDH 220650Z AUTO 06005KT 030V090 CAVOK 21/13 Q1028 NOSIG",
      "taf": ""
    },
    {
      "icao": "EDDK",
      "alert": "OK",
      "vis_m": 9999,
      "fzfg": false,
      "metar_trigger": false,
      "taf_trigger": false,
      "metar": "METAR EDDK 220650Z AUTO VRB02KT CAVOK 25/19 Q1025 NOSIG",
      "taf": "TAF EDDK 220500Z 2206/2312 VRB03KT CAVOK"
    },
    {
      "icao": "EDDN",
      "alert": "OK",
      "vis_m": 9999,
      "fzfg": false,
      "metar_trigger": false,
      "taf_trigger": false,
      "metar": "METAR EDDN 220650Z AUTO 02006KT 350V070 9999 +TSRA BKN///CB 21/18 Q1026 TEMPO 36012KT 3000 TSRA",
      "taf": ""
    },
    {
      "icao": "EDDS",
      "alert": "OK",
      "vis_m": 9999,
      "fzfg": false,
      "metar_trigger": false,
      "taf_trigger": false,
      "metar": "METAR EDDS 220650Z AUTO VRB02KT CAVOK 25/17 Q1025 NOSIG",
      "taf": "TAF EDDS 220500Z 2206/2306 VRB03KT CAVOK"
    },
    {
      "icao": "EDFH",
      "alert": "OK",
      "vis_m": 9999,
      "fzfg": false,
      "metar_trigger": false,
      "taf_trigger": false,
      "metar": "METAR EDFH 220650Z 02005KT 340V070 CAVOK 24/19 Q1026",
      "taf": "TAF EDFH 220500Z 2206/2306 08005KT CAVOK"
    },
    {
      "icao": "EDJA",
      "alert": "OK",
      "vis_m": 9999,
      "fzfg": false,
      "metar_trigger": false,
      "taf_trigger": false,
      "metar": "METAR EDJA 220650Z 22004KT 180V250 CAVOK 24/17 Q1026",
      "taf": "TAF EDJA 220500Z 2206/2215 VRB03KT CAVOK"
    },
    {
      "icao": "EDLW",
      "alert": "OK",
      "vis_m": 9999,
      "fzfg": false,
      "metar_trigger": false,
      "taf_trigger": false,
      "metar": "METAR EDLW 220650Z 05004KT 360V110 CAVOK 22/18 Q1026",
      "taf": "TAF EDLW 220500Z 2206/2306 03006KT CAVOK"
    },
    {
      "icao": "EDNY",
      "alert": "OK",
      "vis_m": 9999,
      "fzfg": false,
      "metar_trigger": false,
      "taf_trigger": false,
      "metar": "METAR EDNY 220650Z 11003KT CAVOK 24/18 Q1025",
      "taf": "TAF EDNY 220500Z 2206/2215 05003KT CAVOK"
    },
    {
      "icao": "EDSB",
      "alert": "OK",
      "vis_m": 9999,
      "fzfg": false,
      "metar_trigger": false,
      "taf_trigger": false,
      "metar": "METAR EDSB 220650Z 32003KT 270V350 CAVOK 25/20 Q1024",
      "taf": "TAF EDSB 220500Z 2206/2306 VRB03KT CAVOK"
    },
    {
      "icao": "EETN",
      "alert": "OK",
      "vis_m": 9999,
      "fzfg": false,
      "metar_trigger": false,
      "taf_trigger": false,
      "metar": "METAR EETN 220650Z 04007KT 360V080 CAVOK 19/10 Q1020 NOSIG",
      "taf": "TAF EETN 220530Z 2206/2306 03007KT CAVOK"
    },
    {
      "icao": "EFTU",
      "alert": "OK",
      "vis_m": 9999,
      "fzfg": false,
      "metar_trigger": false,
      "taf_trigger": false,
      "metar": "METAR EFTU 220650Z AUTO 03004KT 360V080 9999 -SHRA NSC 16/07 Q1021",
      "taf": "TAF EFTU 220537Z 2206/2306 03008KT CAVOK"
    },
    {
      "icao": "EGBB",
      "alert": "OK",
      "vis_m": 9999,
      "fzfg": false,
      "metar_trigger": false,
      "taf_trigger": false,
      "metar": "METAR EGBB 220650Z 10006KT CAVOK 18/14 Q1028",
      "taf": "TAF EGBB 220456Z 2206/2306 07005KT 9999 FEW045"
    },
    {
      "icao": "EGGP",
      "alert": "OK",
      "vis_m": 9999,
      "fzfg": false,
      "metar_trigger": false,
      "taf_trigger": false,
      "metar": "METAR EGGP 220650Z 13008KT 9999 SCT039 19/14 Q1027",
      "taf": "TAF EGGP 220456Z 2206/2306 12006KT 9999 SCT040"
    },
    {
      "icao": "EGGW",
      "alert": "OK",
      "vis_m": 9999,
      "fzfg": false,
      "metar_trigger": false,
      "taf_trigger": false,
      "metar": "METAR EGGW 220650Z AUTO 08006KT 9999 NCD 18/15 Q1027",
      "taf": "TAF EGGW 220453Z 2206/2306 04006KT 9999 FEW045"
    },
    {
      "icao": "EGKK",
      "alert": "OK",
      "vis_m": 9999,
      "fzfg": false,
      "metar_trigger": false,
      "taf_trigger": false,
      "metar": "METAR EGKK 220650Z 06008KT 9999 BKN007 19/18 Q1026",
      "taf": ""
    },
    {
      "icao": "EGNM",
      "alert": "OK",
      "vis_m": 9999,
      "fzfg": false,
      "metar_trigger": false,
      "taf_trigger": false,
      "metar": "METAR EGNM 220650Z 08005KT 050V110 9999 FEW007 15/13 Q1029",
      "taf": "TAF EGNM 220457Z 2206/2306 10006KT 9999 FEW020"
    },
    {
      "icao": "EGPD",
      "alert": "OK",
      "vis_m": 9999,
      "fzfg": false,
      "metar_trigger": false,
      "taf_trigger": false,
      "metar": "METAR EGPD 220650Z 16007KT 9999 BKN008 14/12 Q1029",
      "taf": ""
    },
    {
      "icao": "EGPF",
      "alert": "OK",
      "vis_m": 9999,
      "fzfg": false,
      "metar_trigger": false,
      "taf_trigger": false,
      "metar": "METAR EGPF 220650Z AUTO 07007KT 9999 BKN014 BKN024 15/13 Q1028",
      "taf": "TAF EGPF 220459Z 2206/2306 06005KT 9999 BKN020"
    },
    {
      "icao": "EHBK",
      "alert": "OK",
      "vis_m": 9999,
      "fzfg": false,
      "metar_trigger": false,
      "taf_trigger": false,
      "metar": "METAR EHBK 220655Z AUTO 06006KT 040V100 9999 NSC 22/19 Q1025 NOSIG",
      "taf": "TAF EHBK 220456Z 2206/2312 03008KT CAVOK"
    },
    {
      "icao": "EHEH",
      "alert": "OK",
      "vis_m": 9999,
      "fzfg": false,
      "metar_trigger": false,
      "taf_trigger": false,
      "metar": "METAR EHEH 220655Z AUTO 04005KT 020V090 9999 NCD 21/16 Q1026 BLU NOSIG RMK TREND REMOTE BY EHWX",
      "taf": "TAF EHEH 220502Z 2206/2312 04007KT CAVOK"
    },
    {
      "icao": "EKBI",
      "alert": "OK",
      "vis_m": 9999,
      "fzfg": false,
      "metar_trigger": false,
      "taf_trigger": false,
      "metar": "METAR EKBI 220650Z AUTO 30010KT 9999 NCD 15/08 Q1029",
      "taf": "TAF EKBI 220527Z 2206/2306 29005KT CAVOK"
    },
    {
      "icao": "EKCH",
      "alert": "OK",
      "vis_m": 9999,
      "fzfg": false,
      "metar_trigger": false,
      "taf_trigger": false,
      "metar": "METAR EKCH 220650Z AUTO 28006KT 230V320 9999 NCD 18/10 Q1027 NOSIG",
      "taf": "TAF EKCH 220527Z 2206/2306 26005KT CAVOK"
    },
    {
      "icao": "ENAL",
      "alert": "OK",
      "vis_m": 9999,
      "fzfg": false,
      "metar_trigger": false,
      "taf_trigger": false,
      "metar": "METAR ENAL 220650Z 24012KT 9999 FEW015 SCT030 12/08 Q1028",
      "taf": "TAF ENAL 220500Z 2206/2215 24015KT 9999 SCT012 BKN020"
    },
    {
      "icao": "ENBR",
      "alert": "OK",
      "vis_m": 9999,
      "fzfg": false,
      "metar_trigger": false,
      "taf_trigger": false,
      "metar": "METAR ENBR 220650Z VRB02KT 9999 VCSH SCT013 BKN025 11/10 Q1030 NOSIG RMK WIND 1200FT 31009KT",
      "taf": "TAF ENBR 220500Z 2206/2306 13005KT 9999 SCT020"
    },
    {
      "icao": "ENGM",
      "alert": "OK",
      "vis_m": 9999,
      "fzfg": false,
      "metar_trigger": false,
      "taf_trigger": false,
      "metar": "METAR ENGM 220650Z 01010KT CAVOK 15/03 Q1026 NOSIG",
      "taf": "TAF ENGM 220500Z 2206/2306 35005KT CAVOK"
    },
    {
      "icao": "ENHD",
      "alert": "OK",
      "vis_m": 9999,
      "fzfg": false,
      "metar_trigger": false,
      "taf_trigger": false,
      "metar": "METAR ENHD 220650Z 31007KT 9999 SCT011 13/10 Q1030",
      "taf": "TAF ENHD 220500Z 2206/2215 31008KT 9999 SCT015"
    },
    {
      "icao": "ENTC",
      "alert": "OK",
      "vis_m": 9999,
      "fzfg": false,
      "metar_trigger": false,
      "taf_trigger": false,
      "metar": "METAR ENTC 220650Z 20009KT 9999 FEW038 BKN066 10/06 Q1009 NOSIG RMK WIND 2600FT 18013KT",
      "taf": "TAF ENTC 220500Z 2206/2306 20008KT 9999 -SHRA FEW020 BKN040"
    },
    {
      "icao": "ENTO",
      "alert": "OK",
      "vis_m": 9999,
      "fzfg": false,
      "metar_trigger": false,
      "taf_trigger": false,
      "metar": "METAR ENTO 220650Z 02008KT CAVOK 16/05 Q1026 NOSIG",
      "taf": "TAF ENTO 220500Z 2206/2306 33007KT CAVOK"
    },
    {
      "icao": "ENVA",
      "alert": "OK",
      "vis_m": 9999,
      "fzfg": false,
      "metar_trigger": false,
      "taf_trigger": false,
      "metar": "METAR ENVA 220650Z 28016KT 9999 -SHRA FEW015 BKN033CB 10/08 Q1026 RERA NOSIG RMK WIND 670FT 29017KT",
      "taf": ""
    },
    {
      "icao": "ENZV",
      "alert": "OK",
      "vis_m": 9999,
      "fzfg": false,
      "metar_trigger": false,
      "taf_trigger": false,
      "metar": "METAR ENZV 220650Z 34010KT 9999 FEW013 13/10 Q1030 NOSIG",
      "taf": "TAF ENZV 220500Z 2206/2306 34010KT 9999 FEW010 SCT015"
    },
    {
      "icao": "EPGD",
      "alert": "OK",
      "vis_m": 9999,
      "fzfg": false,
      "metar_trigger": false,
      "taf_trigger": false,
      "metar": "METAR EPGD 220700Z 28012KT CAVOK 20/14 Q1024",
      "taf": "TAF EPGD 220530Z 2206/2306 32010KT CAVOK"
    },
    {
      "icao": "EPKK",
      "alert": "OK",
      "vis_m": 9999,
      "fzfg": false,
      "metar_trigger": false,
      "taf_trigger": false,
      "metar": "METAR EPKK 220700Z 21008KT 9999 FEW011 23/20 Q1024",
      "taf": "TAF EPKK 220530Z 2206/2306 25004KT 9999 SCT030"
    },
    {
      "icao": "EPKT",
      "alert": "OK",
      "vis_m": 9999,
      "fzfg": false,
      "metar_trigger": false,
      "taf_trigger": false,
      "metar": "METAR EPKT 220700Z 31006KT 280V340 9999 SCT008 FEW030TCU 21/19 Q1025",
      "taf": ""
    },
    {
      "icao": "EPLB",
      "alert": "OK",
      "vis_m": 9999,
      "fzfg": false,
      "metar_trigger": false,
      "taf_trigger": false,
      "metar": "METAR EPLB 220700Z 30003KT 270V340 CAVOK 25/20 Q1022",
      "taf": "TAF EPLB 220530Z 2206/2306 31006KT CAVOK"
    },
    {
      "icao": "EPMO",
      "alert": "OK",
      "vis_m": 9999,
      "fzfg": false,
      "metar_trigger": false,
      "taf_trigger": false,
      "metar": "METAR EPMO 220700Z 32007KT CAVOK 21/19 Q1023",
      "taf": "TAF EPMO 220530Z 2206/2306 33008KT CAVOK"
    },
    {
      "icao": "EPPO",
      "alert": "OK",
      "vis_m": 9999,
      "fzfg": false,
      "metar_trigger": false,
      "taf_trigger": false,
      "metar": "METAR EPPO 220700Z 31005KT 280V350 CAVOK 20/13 Q1026",
      "taf": "TAF EPPO 220530Z 2206/2306 35006KT CAVOK"
    },
    {
      "icao": "EPRA",
      "alert": "OK",
      "vis_m": 9999,
      "fzfg": false,
      "metar_trigger": false,
      "taf_trigger": false,
      "metar": "METAR EPRA 220700Z 34005KT 310V020 CAVOK 23/20 Q1023",
      "taf": "TAF EPRA 220530Z 2206/2215 34008KT CAVOK"
    },
    {
      "icao": "EPRZ",
      "alert": "OK",
      "vis_m": 9999,
      "fzfg": false,
      "metar_trigger": false,
      "taf_trigger": false,
      "metar": "METAR EPRZ 220700Z 27003KT 9999 FEW013 FEW040CB 22/19 Q1022",
      "taf": "TAF EPRZ 220530Z 2206/2306 25008KT CAVOK"
    },
    {
      "icao": "EPSC",
      "alert": "OK",
      "vis_m": 9999,
      "fzfg": false,
      "metar_trigger": false,
      "taf_trigger": false,
      "metar": "METAR EPSC 220700Z 34008KT CAVOK 19/10 Q1027",
      "taf": "TAF EPSC 220530Z 2206/2306 34010KT CAVOK"
    },
    {
      "icao": "EPSY",
      "alert": "OK",
      "vis_m": 9999,
      "fzfg": false,
      "metar_trigger": false,
      "taf_trigger": false,
      "metar": "METAR EPSY 220700Z 33006KT 310V010 CAVOK 21/13 Q1023",
      "taf": "TAF EPSY 220530Z 2206/2215 31007KT CAVOK"
    },
    {
      "icao": "EPWA",
      "alert": "OK",
      "vis_m": 9999,
      "fzfg": false,
      "metar_trigger": false,
      "taf_trigger": false,
      "metar": "METAR EPWA 220700Z 32007KT 290V350 9999 FEW018 23/19 Q1023 NOSIG",
      "taf": "TAF EPWA 220530Z 2206/2306 33007KT CAVOK"
    },
    {
      "icao": "EPWR",
      "alert": "OK",
      "vis_m": 8000,
      "fzfg": false,
      "metar_trigger": false,
      "taf_trigger": false,
      "metar": "METAR EPWR 220700Z 30007KT 8000 SCT003 BKN005 21/20 Q1025",
      "taf": ""
    },
    {
      "icao": "ESGG",
      "alert": "OK",
      "vis_m": 9999,
      "fzfg": false,
      "metar_trigger": false,
      "taf_trigger": false,
      "metar": "METAR ESGG 220650Z 35003KT 300V060 CAVOK 17/11 Q1025",
      "taf": "TAF ESGG 220530Z 2206/2306 25006KT CAVOK"
    },
    {
      "icao": "ESKN",
      "alert": "OK",
      "vis_m": 9999,
      "fzfg": false,
      "metar_trigger": false,
      "taf_trigger": false,
      "metar": "METAR ESKN 220650Z 26005KT 230V290 CAVOK 19/13 Q1022",
      "taf": "TAF ESKN 220530Z 2206/2306 28007KT CAVOK"
    },
    {
      "icao": "ESMS",
      "alert": "OK",
      "vis_m": 9999,
      "fzfg": false,
      "metar_trigger": false,
      "taf_trigger": false,
      "metar": "METAR ESMS 220650Z 30006KT 270V350 9999 FEW018 17/12 Q1027",
      "taf": "TAF ESMS 220527Z 2206/2306 32005KT CAVOK"
    },
    {
      "icao": "ESSA",
      "alert": "OK",
      "vis_m": 9999,
      "fzfg": false,
      "metar_trigger": false,
      "taf_trigger": false,
      "metar": "METAR ESSA 220650Z 07010KT CAVOK 16/08 Q1022 NOSIG",
      "taf": "TAF ESSA 220530Z 2206/2306 02006KT CAVOK"
    },
    {
      "icao": "EYKA",
      "alert": "OK",
      "vis_m": 9999,
      "fzfg": false,
      "metar_trigger": false,
      "taf_trigger": false,
      "metar": "METAR EYKA 220650Z 36005KT 300V070 9999 FEW027 21/17 Q1021",
      "taf": "TAF EYKA 220500Z 2206/2306 VRB03KT 9000 NSC"
    },
    {
      "icao": "EYPA",
      "alert": "OK",
      "vis_m": 9999,
      "fzfg": false,
      "metar_trigger": false,
      "taf_trigger": false,
      "metar": "METAR EYPA 220650Z 32003KT 270V040 CAVOK 21/17 Q1022",
      "taf": "TAF EYPA 220500Z 2206/2306 VRB03KT 5000 BR BKN002"
    },
    {
      "icao": "EYVI",
      "alert": "OK",
      "vis_m": 9999,
      "fzfg": false,
      "metar_trigger": false,
      "taf_trigger": false,
      "metar": "METAR EYVI 220650Z 31008KT 280V350 CAVOK 23/18 Q1020 NOSIG",
      "taf": "TAF EYVI 220500Z 2206/2306 VRB03KT 9000 BKN030"
    },
    {
      "icao": "GCFV",
      "alert": "OK",
      "vis_m": 9999,
      "fzfg": false,
      "metar_trigger": false,
      "taf_trigger": false,
      "metar": "METAR GCFV 220630Z 01009KT 9999 FEW020 20/15 Q1018",
      "taf": "TAF GCFV 220200Z 2203/2303 01010KT 9999 FEW020 TX26/2214Z TN20/2206Z"
    },
    {
      "icao": "GCLP",
      "alert": "OK",
      "vis_m": 9999,
      "fzfg": false,
      "metar_trigger": false,
      "taf_trigger": false,
      "metar": "METAR GCLP 220630Z 36018KT 9999 FEW020 20/16 Q1019 NOSIG",
      "taf": "TAF GCLP 220200Z 2203/2303 01017KT 9999 FEW025 TX27/2214Z TN20/2206Z"
    },
    {
      "icao": "GCTS",
      "alert": "OK",
      "vis_m": 9999,
      "fzfg": false,
      "metar_trigger": false,
      "taf_trigger": false,
      "metar": "METAR GCTS 220630Z VRB02KT 9999 FEW018 19/15 Q1019 NOSIG",
      "taf": "TAF GCTS 220200Z 2203/2303 04005KT 9999 FEW025 TX27/2214Z TN19/2206Z"
    },
    {
      "icao": "GMAD",
      "alert": "OK",
      "vis_m": 8000,
      "fzfg": false,
      "metar_trigger": false,
      "taf_trigger": false,
      "metar": "METAR GMAD 220700Z 21003KT 180V250 8000 SCT006 BKN013 19/17 Q1017 NOSIG",
      "taf": "TAF GMAD 220500Z 2206/2312 20004KT 6000 SCT010 SCT016"
    },
    {
      "icao": "GMMN",
      "alert": "OK",
      "vis_m": 9999,
      "fzfg": false,
      "metar_trigger": false,
      "taf_trigger": false,
      "metar": "METAR GMMN 220700Z 31004KT 240V360 9999 BKN006 19/17 Q1018 NOSIG",
      "taf": "TAF GMMN 220500Z 2206/2312 25004KT 9999 BKN006"
    },
    {
      "icao": "GMMX",
      "alert": "OK",
      "vis_m": 9999,
      "fzfg": false,
      "metar_trigger": false,
      "taf_trigger": false,
      "metar": "METAR GMMX 220700Z 27003KT 230V330 CAVOK 21/17 Q1018 NOSIG",
      "taf": "TAF GMMX 220500Z 2206/2312 26006KT 8000 NSC"
    },
    {
      "icao": "HEGN",
      "alert": "OK",
      "vis_m": 9999,
      "fzfg": false,
      "metar_trigger": false,
      "taf_trigger": false,
      "metar": "METAR HEGN 220600Z 34014KT CAVOK 29/13 Q1008 NOSIG",
      "taf": "TAF HEGN 220500Z 2206/2312 34018KT CAVOK"
    },
    {
      "icao": "HEMA",
      "alert": "OK",
      "vis_m": 9999,
      "fzfg": false,
      "metar_trigger": false,
      "taf_trigger": false,
      "metar": "METAR HEMA 220600Z 35018KT CAVOK 31/16 Q1007 NOSIG",
      "taf": "TAF HEMA 220500Z 2206/2312 36018KT CAVOK"
    },
    {
      "icao": "HESH",
      "alert": "OK",
      "vis_m": 9999,
      "fzfg": false,
      "metar_trigger": false,
      "taf_trigger": false,
      "metar": "METAR HESH 220600Z 36013KT CAVOK 29/18 Q1007 NOSIG",
      "taf": "TAF HESH 220500Z 2206/2312 03015KT CAVOK"
    },
    {
      "icao": "HESX",
      "alert": "OK",
      "vis_m": 9999,
      "fzfg": false,
      "metar_trigger": false,
      "taf_trigger": false,
      "metar": "METAR HESX 220600Z 31011KT 9999 SCT025 23/17 Q1012 NOSIG",
      "taf": "TAF HESX 220500Z 2206/2312 35009KT FEW025"
    },
    {
      "icao": "LATI",
      "alert": "OK",
      "vis_m": 9999,
      "fzfg": false,
      "metar_trigger": false,
      "taf_trigger": false,
      "metar": "METAR LATI 220650Z VRB02KT CAVOK 28/14 Q1019 NOSIG",
      "taf": "TAF LATI 220500Z 2206/2306 VRB05KT CAVOK TX34/2212Z TN19/2304Z"
    },
    {
      "icao": "LBPD",
      "alert": "OK",
      "vis_m": 9999,
      "fzfg": false,
      "metar_trigger": false,
      "taf_trigger": false,
      "metar": "METAR LBPD 220700Z AUTO VRB03KT 9999 NCD 26/16 Q1021 NOSIG",
      "taf": "TAF LBPD 220500Z 2206/2306 VRB04KT 9999 SCT070"
    },
    {
      "icao": "LBSF",
      "alert": "OK",
      "vis_m": 9999,
      "fzfg": false,
      "metar_trigger": false,
      "taf_trigger": false,
      "metar": "METAR LBSF 220700Z 31003KT 250V020 CAVOK 24/15 Q1023 NOSIG",
      "taf": "TAF LBSF 220500Z 2206/2306 VRB04KT 9999 SCT070"
    },
    {
      "icao": "LBWN",
      "alert": "OK",
      "vis_m": 9999,
      "fzfg": false,
      "metar_trigger": false,
      "taf_trigger": false,
      "metar": "METAR LBWN 220700Z 03011KT 360V060 CAVOK 27/17 Q1020 NOSIG",
      "taf": "TAF LBWN 220500Z 2206/2306 VRB04KT CAVOK"
    },
    {
      "icao": "LCLK",
      "alert": "OK",
      "vis_m": 9999,
      "fzfg": false,
      "metar_trigger": false,
      "taf_trigger": false,
      "metar": "METAR LCLK 220700Z 11006KT 090V150 9999 FEW030 30/21 Q1008 NOSIG",
      "taf": "TAF LCLK 220530Z 2206/2306 19007KT CAVOK"
    },
    {
      "icao": "LCPH",
      "alert": "OK",
      "vis_m": 9999,
      "fzfg": false,
      "metar_trigger": false,
      "taf_trigger": false,
      "metar": "METAR LCPH 220700Z AUTO 31011KT 250V320 9999 NCD 26/23 Q1009 NOSIG",
      "taf": "TAF LCPH 220530Z 2206/2306 02006KT 9999 FEW015"
    },
    {
      "icao": "LEAL",
      "alert": "OK",
      "vis_m": 9999,
      "fzfg": false,
      "metar_trigger": false,
      "taf_trigger": false,
      "metar": "METAR LEAL 220630Z 04004KT 010V080 CAVOK 31/08 Q1020 NOSIG",
      "taf": "TAF LEAL 220500Z 2206/2306 03005KT CAVOK TX33/2212Z TN24/2206Z"
    },
    {
      "icao": "LEBB",
      "alert": "OK",
      "vis_m": 9999,
      "fzfg": false,
      "metar_trigger": false,
      "taf_trigger": false,
      "metar": "METAR LEBB 220630Z VRB02KT CAVOK 25/20 Q1018 NOSIG",
      "taf": "TAF LEBB 220500Z 2206/2306 16009KT CAVOK TX43/2214Z TN23/2206Z"
    },
    {
      "icao": "LEBL",
      "alert": "OK",
      "vis_m": 9999,
      "fzfg": false,
      "metar_trigger": false,
      "taf_trigger": false,
      "metar": "METAR LEBL 220630Z 29004KT 240V020 CAVOK 26/14 Q1020 NOSIG",
      "taf": "TAF LEBL 220500Z 2206/2306 34007KT CAVOK TX33/2212Z TN23/2206Z"
    },
    {
      "icao": "LECH",
      "alert": "OK",
      "vis_m": 9999,
      "fzfg": false,
      "metar_trigger": false,
      "taf_trigger": false,
      "metar": "METAR LECH 220630Z AUTO VRB02KT CAVOK 22/09 Q1023",
      "taf": "TAF LECH 220500Z 2206/2306 VRB03KT CAVOK TX37/2212Z TN20/2206Z"
    },
    {
      "icao": "LEMD",
      "alert": "OK",
      "vis_m": 9999,
      "fzfg": false,
      "metar_trigger": false,
      "taf_trigger": false,
      "metar": "METAR LEMD 220630Z 34005KT CAVOK 24/09 Q1023 NOSIG",
      "taf": "TAF LEMD 220500Z 2206/2312 VRB04KT CAVOK TX41/2215Z TN22/2305Z"
    },
    {
      "icao": "LEMG",
      "alert": "OK",
      "vis_m": 9999,
      "fzfg": false,
      "metar_trigger": false,
      "taf_trigger": false,
      "metar": "METAR LEMG 220630Z 00000KT CAVOK 25/17 Q1017 NOSIG",
      "taf": "TAF LEMG 220500Z 2206/2306 29004KT CAVOK TX33/2214Z TN24/2206Z"
    },
    {
      "icao": "LEVC",
      "alert": "OK",
      "vis_m": 9999,
      "fzfg": false,
      "metar_trigger": false,
      "taf_trigger": false,
      "metar": "METAR LEVC 220630Z 30003KT 270V330 CAVOK 24/13 Q1021 NOSIG",
      "taf": "TAF LEVC 220500Z 2206/2306 VRB04KT CAVOK TX36/2212Z TN22/2206Z"
    },
    {
      "icao": "LEXJ",
      "alert": "OK",
      "vis_m": 9999,
      "fzfg": false,
      "metar_trigger": false,
      "taf_trigger": false,
      "metar": "METAR LEXJ 220630Z VRB01KT CAVOK 24/21 Q1017",
      "taf": "TAF LEXJ 220200Z 2203/2303 VRB03KT CAVOK TX36/2214Z TN23/2205Z"
    },
    {
      "icao": "LEZG",
      "alert": "OK",
      "vis_m": 9999,
      "fzfg": false,
      "metar_trigger": false,
      "taf_trigger": false,
      "metar": "METAR LEZG 220630Z 11004KT 080V140 CAVOK 25/08 Q1022 NOSIG",
      "taf": "TAF LEZG 220500Z 2206/2306 11005KT CAVOK TX42/2215Z TN23/2206Z"
    },
    {
      "icao": "LEZL",
      "alert": "OK",
      "vis_m": 9999,
      "fzfg": false,
      "metar_trigger": false,
      "taf_trigger": false,
      "metar": "METAR LEZL 220630Z 27005KT 240V300 CAVOK 26/20 Q1017 NOSIG",
      "taf": "TAF LEZL 220200Z 2203/2303 23008KT CAVOK TX38/2215Z TN23/2206Z"
    },
    {
      "icao": "LFBD",
      "alert": "OK",
      "vis_m": 9999,
      "fzfg": false,
      "metar_trigger": false,
      "taf_trigger": false,
      "metar": "METAR LFBD 220700Z AUTO 13011KT CAVOK 28/17 Q1019 NOSIG",
      "taf": "TAF LFBD 220500Z 2206/2312 12005KT CAVOK TX42/2215Z TN26/2305Z"
    },
    {
      "icao": "LFLL",
      "alert": "OK",
      "vis_m": 9999,
      "fzfg": false,
      "metar_trigger": false,
      "taf_trigger": false,
      "metar": "METAR LFLL 220700Z VRB02KT CAVOK 27/14 Q1023 NOSIG",
      "taf": "TAF LFLL 220500Z 2206/2312 17006KT CAVOK"
    },
    {
      "icao": "LFLS",
      "alert": "OK",
      "vis_m": 9999,
      "fzfg": false,
      "metar_trigger": false,
      "taf_trigger": false,
      "metar": "METAR LFLS 220700Z AUTO 09008KT CAVOK 27/15 Q1024 NOSIG",
      "taf": "TAF LFLS 220200Z 2203/2303 09008KT CAVOK"
    },
    {
      "icao": "LFMN",
      "alert": "OK",
      "vis_m": 9999,
      "fzfg": false,
      "metar_trigger": false,
      "taf_trigger": false,
      "metar": "METAR LFMN 220700Z 08004KT CAVOK 28/19 Q1022 NOSIG",
      "taf": ""
    },
    {
      "icao": "LFOB",
      "alert": "OK",
      "vis_m": 9999,
      "fzfg": false,
      "metar_trigger": false,
      "taf_trigger": false,
      "metar": "METAR LFOB 220700Z AUTO 05005KT 010V100 9999 FEW006 26/22 Q1024 NOSIG",
      "taf": "TAF LFOB 220500Z 2206/2306 04007KT CAVOK"
    },
    {
      "icao": "LFPO",
      "alert": "OK",
      "vis_m": 9999,
      "fzfg": false,
      "metar_trigger": false,
      "taf_trigger": false,
      "metar": "METAR LFPO 220700Z 05005KT 010V080 CAVOK 28/21 Q1023 NOSIG",
      "taf": "TAF LFPO 220500Z 2206/2312 03005KT CAVOK"
    },
    {
      "icao": "LFSB",
      "alert": "OK",
      "vis_m": 9999,
      "fzfg": false,
      "metar_trigger": false,
      "taf_trigger": false,
      "metar": "METAR LFSB 220700Z AUTO VRB03KT CAVOK 27/16 Q1024 NOSIG",
      "taf": ""
    },
    {
      "icao": "LGAV",
      "alert": "OK",
      "vis_m": 9999,
      "fzfg": false,
      "metar_trigger": false,
      "taf_trigger": false,
      "metar": "METAR LGAV 220650Z 03019KT CAVOK 29/09 Q1017 NOSIG",
      "taf": "TAF LGAV 220500Z 2206/2306 02015KT 9999 FEW025"
    },
    {
      "icao": "LGTS",
      "alert": "OK",
      "vis_m": 9999,
      "fzfg": false,
      "metar_trigger": false,
      "taf_trigger": false,
      "metar": "METAR LGTS 220650Z 30005KT 9999 FEW020 26/17 Q1020 NOSIG",
      "taf": "TAF LGTS 220500Z 2206/2306 VRB03KT 9999 FEW030"
    },
    {
      "icao": "LHBP",
      "alert": "OK",
      "vis_m": 9999,
      "fzfg": false,
      "metar_trigger": false,
      "taf_trigger": false,
      "metar": "METAR LHBP 220700Z VRB02KT CAVOK 27/18 Q1021 NOSIG",
      "taf": "TAF LHBP 220515Z 2206/2306 02006KT CAVOK"
    },
    {
      "icao": "LHDC",
      "alert": "OK",
      "vis_m": 9999,
      "fzfg": false,
      "metar_trigger": false,
      "taf_trigger": false,
      "metar": "METAR LHDC 220645Z AUTO 21004KT 170V250 9999 -SHRA FEW030 BKN068 24/21 Q1021 NOSIG",
      "taf": "TAF LHDC 220515Z 2206/2215 02005KT CAVOK"
    },
    {
      "icao": "LIBD",
      "alert": "OK",
      "vis_m": 9999,
      "fzfg": false,
      "metar_trigger": false,
      "taf_trigger": false,
      "metar": "METAR LIBD 220650Z 32005KT 280V360 CAVOK 30/14 Q1019",
      "taf": "TAF LIBD 220500Z 2206/2306 VRB04KT CAVOK"
    },
    {
      "icao": "LIBG",
      "alert": "OK",
      "vis_m": 9999,
      "fzfg": false,
      "metar_trigger": false,
      "taf_trigger": false,
      "metar": "METAR LIBG 220650Z AUTO 24004KT 210V280 9999 NCD 30/15 Q1019",
      "taf": "TAF LIBG 220500Z 2206/2306 VRB04KT 9999 FEW030"
    },
    {
      "icao": "LIBP",
      "alert": "OK",
      "vis_m": 9999,
      "fzfg": false,
      "metar_trigger": false,
      "taf_trigger": false,
      "metar": "METAR LIBP 220650Z AUTO 24004KT 200V270 9999 NCD 30/20 Q1020",
      "taf": "TAF LIBP 220500Z 2206/2306 VRB04KT CAVOK"
    },
    {
      "icao": "LIBR",
      "alert": "OK",
      "vis_m": 9999,
      "fzfg": false,
      "metar_trigger": false,
      "taf_trigger": false,
      "metar": "METAR LIBR 220650Z 33011KT CAVOK 27/19 Q1019",
      "taf": "TAF LIBR 220500Z 2206/2306 VRB05KT CAVOK"
    },
    {
      "icao": "LICA",
      "alert": "OK",
      "vis_m": 9999,
      "fzfg": false,
      "metar_trigger": false,
      "taf_trigger": false,
      "metar": "METAR LICA 220650Z AUTO 24006KT 220V280 9999 FEW016/// 27/23 Q1020",
      "taf": "TAF LICA 220500Z 2206/2306 VRB05KT 9999 FEW020"
    },
    {
      "icao": "LICC",
      "alert": "OK",
      "vis_m": 9999,
      "fzfg": false,
      "metar_trigger": false,
      "taf_trigger": false,
      "metar": "METAR LICC 220650Z 25008KT CAVOK 29/19 Q1019",
      "taf": "TAF LICC 220500Z 2206/2306 VRB05KT CAVOK"
    },
    {
      "icao": "LICJ",
      "alert": "OK",
      "vis_m": 9999,
      "fzfg": false,
      "metar_trigger": false,
      "taf_trigger": false,
      "metar": "METAR LICJ 220650Z 26005KT CAVOK 25/23 Q1020",
      "taf": "TAF LICJ 220500Z 2206/2306 VRB05KT CAVOK"
    },
    {
      "icao": "LIMC",
      "alert": "OK",
      "vis_m": 9999,
      "fzfg": false,
      "metar_trigger": false,
      "taf_trigger": false,
      "metar": "METAR LIMC 220650Z 07004KT 040V100 CAVOK 28/19 Q1024 NOSIG",
      "taf": "TAF LIMC 220500Z 2206/2312 VRB05KT 9999 FEW050"
    },
    {
      "icao": "LIME",
      "alert": "OK",
      "vis_m": 9999,
      "fzfg": false,
      "metar_trigger": false,
      "taf_trigger": false,
      "metar": "METAR LIME 220650Z 01003KT CAVOK 27/16 Q1024 NOSIG",
      "taf": "TAF LIME 220500Z 2206/2306 VRB05KT 9999 FEW060"
    },
    {
      "icao": "LIMF",
      "alert": "OK",
      "vis_m": 9999,
      "fzfg": false,
      "metar_trigger": false,
      "taf_trigger": false,
      "metar": "METAR LIMF 220650Z 06004KT 030V100 CAVOK 27/17 Q1024",
      "taf": "TAF LIMF 220500Z 2206/2306 VRB05KT 9999 FEW060"
    },
    {
      "icao": "LIMJ",
      "alert": "OK",
      "vis_m": 9999,
      "fzfg": false,
      "metar_trigger": false,
      "taf_trigger": false,
      "metar": "METAR LIMJ 220650Z 12006KT CAVOK 26/24 Q1022",
      "taf": "TAF LIMJ 220500Z 2206/2306 VRB05KT 9999 FEW040"
    },
    {
      "icao": "LIPE",
      "alert": "OK",
      "vis_m": 9999,
      "fzfg": false,
      "metar_trigger": false,
      "taf_trigger": false,
      "metar": "METAR LIPE 220650Z VRB02KT CAVOK 27/19 Q1022",
      "taf": "TAF LIPE 220500Z 2206/2306 VRB05KT CAVOK"
    },
    {
      "icao": "LIPH",
      "alert": "OK",
      "vis_m": 9999,
      "fzfg": false,
      "metar_trigger": false,
      "taf_trigger": false,
      "metar": "METAR LIPH 220650Z VRB02KT CAVOK 30/19 Q1021",
      "taf": "TAF LIPH 220500Z 2206/2306 VRB05KT 9999 SCT030"
    },
    {
      "icao": "LIPQ",
      "alert": "OK",
      "vis_m": 9999,
      "fzfg": false,
      "metar_trigger": false,
      "taf_trigger": false,
      "metar": "METAR LIPQ 220650Z AUTO VRB01KT 9999 NCD 28/19 Q1021",
      "taf": "TAF LIPQ 220500Z 2206/2306 34008KT 9999 SCT030"
    },
    {
      "icao": "LIPR",
      "alert": "OK",
      "vis_m": 9999,
      "fzfg": false,
      "metar_trigger": false,
      "taf_trigger": false,
      "metar": "METAR LIPR 220650Z 34007KT 310V010 CAVOK 30/19 Q1021",
      "taf": "TAF LIPR 220500Z 2206/2306 VRB04KT 9999 FEW030"
    },
    {
      "icao": "LIPX",
      "alert": "OK",
      "vis_m": 9999,
      "fzfg": false,
      "metar_trigger": false,
      "taf_trigger": false,
      "metar": "METAR LIPX 220650Z 30007KT CAVOK 31/17 Q1022",
      "taf": "TAF LIPX 220500Z 2206/2306 VRB05KT 9999 FEW060"
    },
    {
      "icao": "LIPY",
      "alert": "OK",
      "vis_m": 9999,
      "fzfg": false,
      "metar_trigger": false,
      "taf_trigger": false,
      "metar": "METAR LIPY 220650Z AUTO 33011KT 300V360 9999 NCD 29/20 Q1021",
      "taf": "TAF LIPY 220500Z 2206/2306 VRB04KT CAVOK"
    },
    {
      "icao": "LIPZ",
      "alert": "OK",
      "vis_m": 9999,
      "fzfg": false,
      "metar_trigger": false,
      "taf_trigger": false,
      "metar": "METAR LIPZ 220650Z 36005KT CAVOK 29/19 Q1021 NOSIG",
      "taf": "TAF LIPZ 220500Z 2206/2312 VRB05KT 9999 FEW030"
    },
    {
      "icao": "LIRF",
      "alert": "OK",
      "vis_m": 9999,
      "fzfg": false,
      "metar_trigger": false,
      "taf_trigger": false,
      "metar": "METAR LIRF 220650Z 06005KT 020V090 CAVOK 29/19 Q1019 NOSIG",
      "taf": "TAF LIRF 220500Z 2206/2312 VRB06KT CAVOK"
    },
    {
      "icao": "LIRN",
      "alert": "OK",
      "vis_m": 9999,
      "fzfg": false,
      "metar_trigger": false,
      "taf_trigger": false,
      "metar": "METAR LIRN 220650Z VRB02KT CAVOK 28/21 Q1020 NOSIG",
      "taf": "TAF LIRN 220500Z 2206/2306 VRB05KT CAVOK"
    },
    {
      "icao": "LIRP",
      "alert": "OK",
      "vis_m": 9999,
      "fzfg": false,
      "metar_trigger": false,
      "taf_trigger": false,
      "metar": "METAR LIRP 220645Z 03001KT CAVOK 24/19 Q1022 NOSIG",
      "taf": "TAF LIRP 220500Z 2206/2306 VRB03KT CAVOK"
    },
    {
      "icao": "LIRZ",
      "alert": "OK",
      "vis_m": 9999,
      "fzfg": false,
      "metar_trigger": false,
      "taf_trigger": false,
      "metar": "METAR LIRZ 220650Z AUTO VRB02KT 9999 NCD 27/18 Q1022",
      "taf": "TAF LIRZ 220500Z 2206/2306 VRB06KT CAVOK"
    },
    {
      "icao": "LJLJ",
      "alert": "OK",
      "vis_m": 9999,
      "fzfg": false,
      "metar_trigger": false,
      "taf_trigger": false,
      "metar": "METAR LJLJ 220630Z 07003KT 030V150 9999 SCT005 20/19 Q1024 NOSIG",
      "taf": "TAF LJLJ 220500Z 2206/2306 08005KT 9999 FEW060"
    },
    {
      "icao": "LKMT",
      "alert": "OK",
      "vis_m": 9999,
      "fzfg": false,
      "metar_trigger": false,
      "taf_trigger": false,
      "metar": "METAR LKMT 220700Z 06002KT 9999 FEW035 20/18 Q1025 NOSIG",
      "taf": "TAF LKMT 220500Z 2206/2306 01008KT CAVOK"
    },
    {
      "icao": "LKPR",
      "alert": "OK",
      "vis_m": 9999,
      "fzfg": false,
      "metar_trigger": false,
      "taf_trigger": false,
      "metar": "METAR LKPR 220700Z 02007KT 340V050 CAVOK 23/18 Q1026 NOSIG",
      "taf": "TAF LKPR 220500Z 2206/2312 29004KT CAVOK"
    },
    {
      "icao": "LLBG",
      "alert": "OK",
      "vis_m": 9999,
      "fzfg": false,
      "metar_trigger": false,
      "taf_trigger": false,
      "metar": "METAR LLBG 220650Z 27006KT 230V300 9999 FEW030 SCT045 27/18 Q1010 NOSIG",
      "taf": "TAF LLBG 220503Z 2206/2306 20006KT 9999 SCT023 TX29/2211Z TN21/2303Z"
    },
    {
      "icao": "LMML",
      "alert": "OK",
      "vis_m": 9999,
      "fzfg": false,
      "metar_trigger": false,
      "taf_trigger": false,
      "metar": "METAR LMML 220645Z VRB02KT CAVOK 29/15 Q1020 NOSIG",
      "taf": "TAF LMML 220500Z 2206/2306 29009KT CAVOK"
    },
    {
      "icao": "LOWW",
      "alert": "OK",
      "vis_m": 9999,
      "fzfg": false,
      "metar_trigger": false,
      "taf_trigger": false,
      "metar": "METAR LOWW 220650Z 36010KT CAVOK 27/18 Q1024 NOSIG",
      "taf": "TAF LOWW 220515Z 2206/2312 34008KT CAVOK TX31/2212Z TN19/2303Z"
    },
    {
      "icao": "LPFR",
      "alert": "OK",
      "vis_m": 9999,
      "fzfg": false,
      "metar_trigger": false,
      "taf_trigger": false,
      "metar": "METAR LPFR 220630Z 11003KT 060V150 9999 BKN004 BKN007 21/20 Q1017",
      "taf": "TAF LPFR 220500Z 2206/2306 VRB02KT 9999 SCT008"
    },
    {
      "icao": "LPMA",
      "alert": "OK",
      "vis_m": 9999,
      "fzfg": false,
      "metar_trigger": false,
      "taf_trigger": false,
      "metar": "METAR LPMA 220630Z 00000KT 9999 FEW005 BKN012 22/19 Q1019",
      "taf": "TAF LPMA 220500Z 2206/2306 VRB05KT 9999 SCT015 BKN030"
    },
    {
      "icao": "LPPR",
      "alert": "OK",
      "vis_m": 1300,
      "fzfg": false,
      "metar_trigger": false,
      "taf_trigger": false,
      "metar": "METAR LPPR 220630Z 21007KT 180V250 1300 0600W R17/1700U -DZ BCFG BKN002 17/17 Q1017",
      "taf": "TAF LPPR 220500Z 2206/2306 VRB02KT 5000 BR SCT003"
    },
    {
      "icao": "LPPS",
      "alert": "OK",
      "vis_m": 4000,
      "fzfg": false,
      "metar_trigger": false,
      "taf_trigger": false,
      "metar": "METAR LPPS 220630Z 25005KT 4000 -RADZ BR SCT005 BKN010 21/20 Q1020",
      "taf": "TAF LPPS 220500Z 2206/2312 19007KT 9999 SCT012 BKN030"
    },
    {
      "icao": "LPPT",
      "alert": "OK",
      "vis_m": 9999,
      "fzfg": false,
      "metar_trigger": false,
      "taf_trigger": false,
      "metar": "METAR LPPT 220630Z 32004KT 280V360 CAVOK 21/16 Q1017",
      "taf": "TAF LPPT 220500Z 2206/2312 35008KT CAVOK"
    },
    {
      "icao": "LQBK",
      "alert": "OK",
      "vis_m": 9999,
      "fzfg": false,
      "metar_trigger": false,
      "taf_trigger": false,
      "metar": "METAR LQBK 220700Z VRB03KT CAVOK 28/20 Q1022 NOSIG",
      "taf": "TAF LQBK 220500Z 2206/2306 28005KT CAVOK TX33/2214Z TN19/2303Z"
    },
    {
      "icao": "LQSA",
      "alert": "OK",
      "vis_m": 9999,
      "fzfg": false,
      "metar_trigger": false,
      "taf_trigger": false,
      "metar": "METAR LQSA 220700Z 00000KT 9999 FEW050 22/16 Q1024 NOSIG",
      "taf": "TAF LQSA 220500Z 2206/2306 VRB02KT CAVOK TX30/2215Z TN16/2304Z"
    },
    {
      "icao": "LQTZ",
      "alert": "OK",
      "vis_m": 9999,
      "fzfg": false,
      "metar_trigger": false,
      "taf_trigger": false,
      "metar": "METAR LQTZ 220700Z VRB02KT CAVOK 25/19 Q1022",
      "taf": "TAF LQTZ 220500Z 2206/2306 28005KT CAVOK TX31/2214Z TN17/2303Z"
    },
    {
      "icao": "LRBC",
      "alert": "OK",
      "vis_m": 9999,
      "fzfg": false,
      "metar_trigger": false,
      "taf_trigger": false,
      "metar": "METAR LRBC 220630Z VRB01KT CAVOK 24/17 Q1022",
      "taf": "TAF LRBC 220500Z 2206/2215 VRB04KT CAVOK"
    },
    {
      "icao": "LRBS",
      "alert": "OK",
      "vis_m": 9999,
      "fzfg": false,
      "metar_trigger": false,
      "taf_trigger": false,
      "metar": "METAR LRBS 220630Z 04006KT 010V070 CAVOK 23/17 Q1022 NOSIG",
      "taf": "TAF LRBS 220500Z 2206/2306 06008KT CAVOK"
    },
    {
      "icao": "LRBV",
      "alert": "OK",
      "vis_m": 9999,
      "fzfg": false,
      "metar_trigger": false,
      "taf_trigger": false,
      "metar": "METAR LRBV 220630Z VRB02KT 9999 FEW060 22/18 Q1023",
      "taf": "TAF LRBV 220500Z 2206/2215 VRB04KT CAVOK"
    },
    {
      "icao": "LRCL",
      "alert": "OK",
      "vis_m": 9999,
      "fzfg": false,
      "metar_trigger": false,
      "taf_trigger": false,
      "metar": "METAR LRCL 220630Z 08003KT 040V140 9999 FEW050 24/17 Q1022",
      "taf": "TAF LRCL 220500Z 2206/2215 VRB04KT CAVOK"
    },
    {
      "icao": "LRCV",
      "alert": "OK",
      "vis_m": 9999,
      "fzfg": false,
      "metar_trigger": false,
      "taf_trigger": false,
      "metar": "METAR LRCV 220630Z 10009KT CAVOK 27/17 Q1021",
      "taf": "TAF LRCV 220500Z 2206/2215 08010KT CAVOK"
    },
    {
      "icao": "LRIA",
      "alert": "OK",
      "vis_m": 9999,
      "fzfg": false,
      "metar_trigger": false,
      "taf_trigger": false,
      "metar": "METAR LRIA 220630Z 28003KT 210V310 CAVOK 24/14 Q1022",
      "taf": "TAF LRIA 220500Z 2206/2215 VRB04KT CAVOK"
    },
    {
      "icao": "LROP",
      "alert": "OK",
      "vis_m": 9999,
      "fzfg": false,
      "metar_trigger": false,
      "taf_trigger": false,
      "metar": "METAR LROP 220630Z 07005KT CAVOK 23/17 Q1022 NOSIG",
      "taf": "TAF LROP 220500Z 2206/2306 06008KT CAVOK"
    },
    {
      "icao": "LRSB",
      "alert": "OK",
      "vis_m": 9999,
      "fzfg": false,
      "metar_trigger": false,
      "taf_trigger": false,
      "metar": "METAR LRSB 220630Z VRB01KT CAVOK 26/18 Q1022",
      "taf": "TAF LRSB 220500Z 2206/2306 VRB04KT CAVOK"
    },
    {
      "icao": "LRSM",
      "alert": "OK",
      "vis_m": 9999,
      "fzfg": false,
      "metar_trigger": false,
      "taf_trigger": false,
      "metar": "METAR LRSM 220630Z VRB02KT CAVOK 26/19 Q1021",
      "taf": "TAF LRSM 220500Z 2206/2215 VRB04KT CAVOK"
    },
    {
      "icao": "LRSV",
      "alert": "OK",
      "vis_m": 9999,
      "fzfg": false,
      "metar_trigger": false,
      "taf_trigger": false,
      "metar": "METAR LRSV 220630Z 15004KT 100V190 CAVOK 24/14 Q1023",
      "taf": "TAF LRSV 220500Z 2206/2215 VRB04KT CAVOK"
    },
    {
      "icao": "LRTM",
      "alert": "OK",
      "vis_m": 9999,
      "fzfg": false,
      "metar_trigger": false,
      "taf_trigger": false,
      "metar": "METAR LRTM 220630Z VRB02KT CAVOK 24/19 Q1022",
      "taf": "TAF LRTM 220500Z 2206/2215 VRB04KT 9999 SCT055"
    },
    {
      "icao": "LRTR",
      "alert": "OK",
      "vis_m": 9999,
      "fzfg": false,
      "metar_trigger": false,
      "taf_trigger": false,
      "metar": "METAR LRTR 220630Z 13004KT 100V160 CAVOK 24/20 Q1021",
      "taf": "TAF LRTR 220500Z 2206/2306 VRB04KT CAVOK"
    },
    {
      "icao": "LTAC",
      "alert": "OK",
      "vis_m": 9999,
      "fzfg": false,
      "metar_trigger": false,
      "taf_trigger": false,
      "metar": "METAR LTAC 220650Z 06017KT CAVOK 21/08 Q1020 NOSIG RMK RWY21C 06016KT RWY03L 05017KT RWY21R 06016KT RWY03R 05015KT RWY21L 04016KT 010V070",
      "taf": "TAF LTAC 220440Z 2206/2306 05012KT CAVOK"
    },
    {
      "icao": "LTFM",
      "alert": "OK",
      "vis_m": 9999,
      "fzfg": false,
      "metar_trigger": false,
      "taf_trigger": false,
      "metar": "METAR LTFM 220650Z 04011KT 9999 FEW010 SCT021 24/17 Q1019 NOSIG RMK RWY17L 04010KT RWY34L 04010KT RWY16R 04011KT RWY36 04011KT 360V060 RWY18 05011KT",
      "taf": "TAF LTFM 220440Z 2206/2312 03015KT 9999 BKN008"
    },
    {
      "icao": "LUKK",
      "alert": "OK",
      "vis_m": 9999,
      "fzfg": false,
      "metar_trigger": false,
      "taf_trigger": false,
      "metar": "METAR LUKK 220700Z VRB03KT CAVOK 26/16 Q1022 NOSIG",
      "taf": "TAF LUKK 220510Z 2206/2306 VRB05KT CAVOK"
    },
    {
      "icao": "LWOH",
      "alert": "OK",
      "vis_m": 9999,
      "fzfg": false,
      "metar_trigger": false,
      "taf_trigger": false,
      "metar": "METAR LWOH 220650Z 16003KT 130V190 CAVOK 23/16 Q1023",
      "taf": "TAF LWOH 220515Z 2206/2306 VRB02KT CAVOK"
    },
    {
      "icao": "LWSK",
      "alert": "OK",
      "vis_m": 9999,
      "fzfg": false,
      "metar_trigger": false,
      "taf_trigger": false,
      "metar": "METAR LWSK 220650Z VRB02KT CAVOK 27/18 Q1021 NOSIG",
      "taf": "TAF LWSK 220515Z 2206/2306 VRB02KT CAVOK"
    },
    {
      "icao": "LYBE",
      "alert": "OK",
      "vis_m": 9999,
      "fzfg": false,
      "metar_trigger": false,
      "taf_trigger": false,
      "metar": "METAR LYBE 220700Z 23009KT 180V250 CAVOK 26/18 Q1021 NOSIG",
      "taf": "TAF LYBE 220500Z 2206/2306 29008KT CAVOK TX31/2213Z TN20/2303Z"
    },
    {
      "icao": "LYNI",
      "alert": "OK",
      "vis_m": 9999,
      "fzfg": false,
      "metar_trigger": false,
      "taf_trigger": false,
      "metar": "METAR LYNI 220700Z 31005KT 250V020 9999 FEW050 25/18 Q1022 NOSIG",
      "taf": "TAF LYNI 220500Z 2206/2306 20003KT 9999 SCT055 TX32/2213Z TN17/2303Z"
    },
    {
      "icao": "LYPG",
      "alert": "OK",
      "vis_m": 9999,
      "fzfg": false,
      "metar_trigger": false,
      "taf_trigger": false,
      "metar": "METAR LYPG 220700Z VRB01KT CAVOK 30/17 Q1019 NOSIG",
      "taf": "TAF LYPG 220500Z 2206/2306 18008KT 9999 FEW040 TX36/2214Z TN23/2303Z"
    },
    {
      "icao": "LZIB",
      "alert": "OK",
      "vis_m": 9999,
      "fzfg": false,
      "metar_trigger": false,
      "taf_trigger": false,
      "metar": "METAR LZIB 220700Z 03009KT 350V050 CAVOK 29/18 Q1023 NOSIG",
      "taf": "TAF LZIB 220515Z 2206/2306 VRB02KT CAVOK"
    },
    {
      "icao": "LZKZ",
      "alert": "OK",
      "vis_m": 9999,
      "fzfg": false,
      "metar_trigger": false,
      "taf_trigger": false,
      "metar": "METAR LZKZ 220700Z 36009KT 9999 FEW030 25/20 Q1022 NOSIG",
      "taf": "TAF LZKZ 220515Z 2206/2306 01008KT CAVOK"
    },
    {
      "icao": "LZTT",
      "alert": "OK",
      "vis_m": 9999,
      "fzfg": false,
      "metar_trigger": false,
      "taf_trigger": false,
      "metar": "METAR LZTT 220700Z 24003KT 140V310 9999 FEW016 21/17 Q1025 NOSIG",
      "taf": "TAF LZTT 220515Z 2206/2306 VRB02KT 9999 SCT050"
    },
    {
      "icao": "OEJN",
      "alert": "OK",
      "vis_m": 9999,
      "fzfg": false,
      "metar_trigger": false,
      "taf_trigger": false,
      "metar": "METAR OEJN 220700Z VRB02KT CAVOK 34/23 Q1005 NOSIG",
      "taf": "TAF OEJN 220600Z 2206/2312 33012KT CAVOK"
    },
    {
      "icao": "OEMA",
      "alert": "OK",
      "vis_m": 9999,
      "fzfg": false,
      "metar_trigger": false,
      "taf_trigger": false,
      "metar": "METAR OEMA 220700Z 33003KT CAVOK 40/M03 Q1010 NOSIG",
      "taf": "TAF OEMA 220600Z 2206/2312 32010KT CAVOK"
    },
    {
      "icao": "OJAI",
      "alert": "OK",
      "vis_m": 5000,
      "fzfg": false,
      "metar_trigger": false,
      "taf_trigger": false,
      "metar": "METAR OJAI 220600Z 28006KT 5000 HZ NSC 22/14 Q1013 NOSIG",
      "taf": "TAF OJAI 220500Z 2206/2312 29010KT 5000 HZ NSC"
    },
    {
      "icao": "OMAA",
      "alert": "OK",
      "vis_m": 9999,
      "fzfg": false,
      "metar_trigger": false,
      "taf_trigger": false,
      "metar": "METAR OMAA 220700Z 29008KT CAVOK 40/14 Q1001 NOSIG",
      "taf": "TAF OMAA 220500Z 2206/2312 26005KT 8000 NSC"
    },
    {
      "icao": "OMDB",
      "alert": "OK",
      "vis_m": 9999,
      "fzfg": false,
      "metar_trigger": false,
      "taf_trigger": false,
      "metar": "METAR OMDB 220700Z 30007KT 270V350 CAVOK 37/21 Q1001 NOSIG",
      "taf": "TAF OMDB 220500Z 2206/2312 VRB02KT CAVOK"
    },
    {
      "icao": "UAAA",
      "alert": "OK",
      "vis_m": 9999,
      "fzfg": false,
      "metar_trigger": false,
      "taf_trigger": false,
      "metar": "METAR UAAA 220630Z 03003MPS 310V080 9999 FEW050TCU SCT100 BKN200 32/05 Q1011 NOSIG",
      "taf": "TAF UAAA 220505Z 2206/2306 01003G08MPS 9999 FEW050CB SCT100 TX33/2210Z TN21/2301Z"
    },
    {
      "icao": "UBBB",
      "alert": "OK",
      "vis_m": 9999,
      "fzfg": false,
      "metar_trigger": false,
      "taf_trigger": false,
      "metar": "METAR UBBB 220700Z 33022G32KT CAVOK 25/19 Q1014 NOSIG",
      "taf": "TAF UBBB 220501Z 2206/2306 33018KT 9999 SCT040 TX28/2210Z TN20/2301Z"
    },
    {
      "icao": "UDSG",
      "alert": "OK",
      "vis_m": 9999,
      "fzfg": false,
      "metar_trigger": false,
      "taf_trigger": false,
      "metar": "METAR UDSG 220630Z 36005KT 9999 FEW049 20/07 Q1021 NOSIG",
      "taf": "TAF UDSG 220500Z 2206/2306 36006KT 9999 FEW050"
    },
    {
      "icao": "UDYZ",
      "alert": "OK",
      "vis_m": 9999,
      "fzfg": false,
      "metar_trigger": false,
      "taf_trigger": false,
      "metar": "METAR UDYZ 220630Z VRB02KT 9999 NSC 25/13 Q1015 NOSIG",
      "taf": "TAF UDYZ 220500Z 2206/2306 24006KT 9999 FEW040"
    },
    {
      "icao": "UGKO",
      "alert": "OK",
      "vis_m": 9999,
      "fzfg": false,
      "metar_trigger": false,
      "taf_trigger": false,
      "metar": "METAR UGKO 220630Z 22005KT 170V260 9999 FEW017 SCT026CB BKN048 23/19 Q1016 NOSIG",
      "taf": "TAF UGKO 220500Z 2206/2306 27007KT 9999 SCT050 TX26/2212Z TN16/2302Z"
    }
  ]
}