{
  "ts_utc": "2026-04-10T02:00:41Z",
  "threshold_m": 150,
  "source": "stations_override.txt (ICAO list) + aviationweather.gov (METAR/TAF raw)",
  "station_count": 159,
  "stations": [
    {
      "icao": "BIKF",
      "alert": "OK",
      "vis_m": 9999,
      "fzfg": false,
      "metar_trigger": false,
      "taf_trigger": false,
      "metar": "METAR BIKF 100130Z 22021KT 9999 SCT028 02/M04 Q0993",
      "taf": "TAF BIKF 100106Z 1003/1103 19015KT 9999 SCT030 TX04/1015Z TNM03/1103Z"
    },
    {
      "icao": "BKPR",
      "alert": "OK",
      "vis_m": null,
      "fzfg": false,
      "metar_trigger": false,
      "taf_trigger": false,
      "metar": "",
      "taf": "TAF BKPR 092330Z 1000/1024 01007KT 9999 SCT050"
    },
    {
      "icao": "EBCI",
      "alert": "OK",
      "vis_m": 9999,
      "fzfg": false,
      "metar_trigger": false,
      "taf_trigger": false,
      "metar": "METAR EBCI 100150Z 32007KT 280V010 9999 BKN040 10/05 Q1018 NOSIG",
      "taf": "TAF EBCI 092313Z 1000/1106 32010KT 9999 SCT020"
    },
    {
      "icao": "EDDB",
      "alert": "OK",
      "vis_m": 9999,
      "fzfg": false,
      "metar_trigger": false,
      "taf_trigger": false,
      "metar": "METAR EDDB 100150Z AUTO 10005KT CAVOK M01/M04 Q1019 NOSIG",
      "taf": "TAF EDDB 092300Z 1000/1024 09005KT CAVOK"
    },
    {
      "icao": "EDDH",
      "alert": "OK",
      "vis_m": 9999,
      "fzfg": false,
      "metar_trigger": false,
      "taf_trigger": false,
      "metar": "METAR EDDH 100150Z AUTO 13014KT 9999 -RA FEW048 05/00 Q1014 TEMPO 14015G25KT SHRA BKN030TCU",
      "taf": "TAF EDDH 092300Z 1000/1106 13011KT 9999 BKN045"
    },
    {
      "icao": "EDDK",
      "alert": "OK",
      "vis_m": 9999,
      "fzfg": false,
      "metar_trigger": false,
      "taf_trigger": false,
      "metar": "METAR EDDK 100150Z AUTO 32015KT 9999 SCT033 OVC048 12/07 Q1015 BECMG 31010KT",
      "taf": "TAF EDDK 092300Z 1000/1106 20006KT CAVOK"
    },
    {
      "icao": "EDDN",
      "alert": "OK",
      "vis_m": 9999,
      "fzfg": false,
      "metar_trigger": false,
      "taf_trigger": false,
      "metar": "METAR EDDN 100150Z AUTO 12005KT CAVOK 07/01 Q1015",
      "taf": ""
    },
    {
      "icao": "EDDS",
      "alert": "OK",
      "vis_m": 9999,
      "fzfg": false,
      "metar_trigger": false,
      "taf_trigger": false,
      "metar": "METAR EDDS 100150Z AUTO 06002KT CAVOK 08/02 Q1014",
      "taf": "TAF EDDS 092300Z 1000/1024 28004KT CAVOK"
    },
    {
      "icao": "EDFH",
      "alert": "OK",
      "vis_m": 9999,
      "fzfg": false,
      "metar_trigger": false,
      "taf_trigger": false,
      "metar": "METAR EDFH 100150Z 29006KT 250V320 9999 BKN019 13/09 Q1015",
      "taf": "TAF EDFH 092300Z 1000/1024 20007KT 9999 SCT030"
    },
    {
      "icao": "EDJA",
      "alert": "OK",
      "vis_m": 9999,
      "fzfg": false,
      "metar_trigger": false,
      "taf_trigger": false,
      "metar": "METAR EDJA 100150Z AUTO 19004KT 140V240 9999 // SCT100/// OVC120/// 09/05 Q1015",
      "taf": ""
    },
    {
      "icao": "EDLW",
      "alert": "OK",
      "vis_m": 9999,
      "fzfg": false,
      "metar_trigger": false,
      "taf_trigger": false,
      "metar": "METAR EDLW 100150Z AUTO 28010KT 250V310 9999 // FEW016/// SCT018/// OVC047/// 12/09 Q1014",
      "taf": "TAF EDLW 091700Z 0918/1018 09007KT CAVOK"
    },
    {
      "icao": "EDNY",
      "alert": "OK",
      "vis_m": 9999,
      "fzfg": false,
      "metar_trigger": false,
      "taf_trigger": false,
      "metar": "METAR EDNY 100150Z AUTO 00000KT 9999 BKN220/// 07/04 Q1016",
      "taf": "TAF EDNY 091700Z 0918/1003 VRB03KT CAVOK"
    },
    {
      "icao": "EDSB",
      "alert": "OK",
      "vis_m": 9999,
      "fzfg": false,
      "metar_trigger": false,
      "taf_trigger": false,
      "metar": "METAR EDSB 100150Z AUTO 29007KT 240V330 9999 // BKN070/// OVC079/// 12/05 Q1016",
      "taf": "TAF EDSB 092300Z 1000/1024 20003KT CAVOK"
    },
    {
      "icao": "EETN",
      "alert": "OK",
      "vis_m": 9999,
      "fzfg": false,
      "metar_trigger": false,
      "taf_trigger": false,
      "metar": "METAR EETN 100150Z 05003KT CAVOK M01/M03 Q1026",
      "taf": "TAF EETN 092330Z 1000/1024 07010KT CAVOK"
    },
    {
      "icao": "EFTU",
      "alert": "OK",
      "vis_m": 9999,
      "fzfg": false,
      "metar_trigger": false,
      "taf_trigger": false,
      "metar": "METAR EFTU 100150Z AUTO VRB02KT CAVOK M05/M07 Q1027",
      "taf": "TAF EFTU 092327Z 1000/1024 VRB02KT CAVOK"
    },
    {
      "icao": "EGBB",
      "alert": "OK",
      "vis_m": 9999,
      "fzfg": false,
      "metar_trigger": false,
      "taf_trigger": false,
      "metar": "METAR EGBB 100150Z 25005KT 220V300 CAVOK 05/00 Q1022",
      "taf": "TAF EGBB 092255Z 1000/1024 28006KT 9999 FEW045"
    },
    {
      "icao": "EGGP",
      "alert": "OK",
      "vis_m": 9999,
      "fzfg": false,
      "metar_trigger": false,
      "taf_trigger": false,
      "metar": "METAR EGGP 100150Z 26013KT 9999 FEW029 BKN044 05/01 Q1021",
      "taf": "TAF EGGP 092255Z 1000/1024 28013KT 9999 FEW030"
    },
    {
      "icao": "EGGW",
      "alert": "OK",
      "vis_m": 9999,
      "fzfg": false,
      "metar_trigger": false,
      "taf_trigger": false,
      "metar": "METAR EGGW 100150Z AUTO 27013KT 9999 NCD 05/00 Q1022",
      "taf": "TAF EGGW 092257Z 1000/1024 27010KT 9999 SCT040"
    },
    {
      "icao": "EGKK",
      "alert": "OK",
      "vis_m": 9999,
      "fzfg": false,
      "metar_trigger": false,
      "taf_trigger": false,
      "metar": "METAR EGKK 100150Z 30012KT CAVOK 08/00 Q1022",
      "taf": "TAF EGKK 092254Z 1000/1106 32012KT CAVOK"
    },
    {
      "icao": "EGNM",
      "alert": "OK",
      "vis_m": 9999,
      "fzfg": false,
      "metar_trigger": false,
      "taf_trigger": false,
      "metar": "METAR EGNM 100120Z 27016KT 9999 -SHRA FEW015 SCT033 04/01 Q1017",
      "taf": "TAF EGNM 092256Z 1000/1024 27012KT 9999 FEW025"
    },
    {
      "icao": "EGPD",
      "alert": "OK",
      "vis_m": 9999,
      "fzfg": false,
      "metar_trigger": false,
      "taf_trigger": false,
      "metar": "METAR EGPD 100150Z COR AUTO 28012KT 9999 NCD 05/01 Q1010 NOSIG",
      "taf": "TAF EGPD 092255Z 1000/1024 27009KT 9999 FEW040"
    },
    {
      "icao": "EGPF",
      "alert": "OK",
      "vis_m": 9999,
      "fzfg": false,
      "metar_trigger": false,
      "taf_trigger": false,
      "metar": "METAR EGPF 100150Z AUTO 25007KT 9999 //////TCU 03/01 Q1016",
      "taf": ""
    },
    {
      "icao": "EHBK",
      "alert": "OK",
      "vis_m": 9999,
      "fzfg": false,
      "metar_trigger": false,
      "taf_trigger": false,
      "metar": "METAR EHBK 100155Z AUTO 30007KT 250V350 9999 FEW024 OVC044 10/04 Q1017",
      "taf": "TAF EHBK 092304Z 1000/1106 30010KT 9999 SCT030"
    },
    {
      "icao": "EHEH",
      "alert": "OK",
      "vis_m": 9999,
      "fzfg": false,
      "metar_trigger": false,
      "taf_trigger": false,
      "metar": "METAR EHEH 100125Z AUTO 31008KT 260V020 9999 BKN021 OVC029 10/05 Q1017 WHT",
      "taf": "TAF EHEH 092340Z 1000/1106 30010KT 9999 SCT025 BKN045"
    },
    {
      "icao": "EKBI",
      "alert": "OK",
      "vis_m": 9999,
      "fzfg": false,
      "metar_trigger": false,
      "taf_trigger": false,
      "metar": "METAR EKBI 100150Z AUTO 12016KT 090V150 9999 OVC072/// 04/M02 Q1012",
      "taf": "TAF EKBI 092327Z 1000/1024 13015KT 9999 BKN045"
    },
    {
      "icao": "EKCH",
      "alert": "OK",
      "vis_m": 9999,
      "fzfg": false,
      "metar_trigger": false,
      "taf_trigger": false,
      "metar": "METAR EKCH 100150Z AUTO 13019KT 9999 BKN016/// 03/M01 Q1020 NOSIG",
      "taf": "TAF EKCH 092327Z 1000/1024 13015KT CAVOK"
    },
    {
      "icao": "ENAL",
      "alert": "OK",
      "vis_m": 9999,
      "fzfg": false,
      "metar_trigger": false,
      "taf_trigger": false,
      "metar": "METAR ENAL 100150Z AUTO 06011KT 9999 -RA OVC042/// 06/05 Q1009",
      "taf": "TAF ENAL 092300Z 1000/1009 35005KT 9999 -RA BKN050"
    },
    {
      "icao": "ENBR",
      "alert": "OK",
      "vis_m": 9999,
      "fzfg": false,
      "metar_trigger": false,
      "taf_trigger": false,
      "metar": "METAR ENBR 100150Z AUTO 15021G35KT 9999 NCD 07/M05 Q1008 RMK WIND 1200FT 14041G54KT",
      "taf": "TAF ENBR 092300Z 1000/1024 15020KT 9999 -RA FEW040 SCT050"
    },
    {
      "icao": "ENGM",
      "alert": "OK",
      "vis_m": 9999,
      "fzfg": false,
      "metar_trigger": false,
      "taf_trigger": false,
      "metar": "METAR ENGM 100150Z 11005KT CAVOK 00/M07 Q1019",
      "taf": "TAF ENGM 092300Z 1000/1024 VRB03KT CAVOK"
    },
    {
      "icao": "ENHD",
      "alert": "OK",
      "vis_m": 9999,
      "fzfg": false,
      "metar_trigger": false,
      "taf_trigger": false,
      "metar": "METAR ENHD 100150Z AUTO 14016KT 9999 FEW042/// 07/M02 Q1009",
      "taf": ""
    },
    {
      "icao": "ENTC",
      "alert": "OK",
      "vis_m": 9999,
      "fzfg": false,
      "metar_trigger": false,
      "taf_trigger": false,
      "metar": "METAR ENTC 100150Z AUTO VRB02KT 9999 NCD 05/M01 Q1015 RMK WIND 2600FT 17010KT",
      "taf": "TAF ENTC 092300Z 1000/1024 20005KT CAVOK"
    },
    {
      "icao": "ENTO",
      "alert": "OK",
      "vis_m": 9999,
      "fzfg": false,
      "metar_trigger": false,
      "taf_trigger": false,
      "metar": "METAR ENTO 100150Z AUTO 16005KT 9999 FEW016/// 03/03 Q1018",
      "taf": "TAF ENTO 092300Z 1000/1024 15008KT CAVOK"
    },
    {
      "icao": "ENVA",
      "alert": "OK",
      "vis_m": 9999,
      "fzfg": false,
      "metar_trigger": false,
      "taf_trigger": false,
      "metar": "METAR ENVA 100150Z AUTO 13013KT 9999 NCD 09/M01 Q1014 RMK WIND 670FT 15013KT",
      "taf": "TAF ENVA 092300Z 1000/1024 14015KT CAVOK"
    },
    {
      "icao": "ENZV",
      "alert": "OK",
      "vis_m": 9999,
      "fzfg": false,
      "metar_trigger": false,
      "taf_trigger": false,
      "metar": "METAR ENZV 100150Z AUTO 13021KT 9999 SQ FEW029/// SCT039/// 05/M02 Q1009",
      "taf": ""
    },
    {
      "icao": "EPGD",
      "alert": "OK",
      "vis_m": 9999,
      "fzfg": false,
      "metar_trigger": false,
      "taf_trigger": false,
      "metar": "METAR EPGD 100130Z 09005KT 9999 BKN049 M01/M03 Q1022",
      "taf": "TAF EPGD 092330Z 1000/1024 VRB02KT CAVOK"
    },
    {
      "icao": "EPKK",
      "alert": "OK",
      "vis_m": 6000,
      "fzfg": false,
      "metar_trigger": false,
      "taf_trigger": false,
      "metar": "METAR EPKK 100130Z VRB01KT 6000 BKN061 M00/M02 Q1020",
      "taf": "TAF EPKK 092330Z 1000/1024 24002KT 7000 BKN030"
    },
    {
      "icao": "EPKT",
      "alert": "OK",
      "vis_m": 5000,
      "fzfg": false,
      "metar_trigger": false,
      "taf_trigger": false,
      "metar": "METAR EPKT 100130Z 08002KT 5000 BR NSC M04/M05 Q1019",
      "taf": "TAF EPKT 092330Z 1000/1024 VRB02KT 6000 NSC"
    },
    {
      "icao": "EPLB",
      "alert": "OK",
      "vis_m": 9999,
      "fzfg": false,
      "metar_trigger": false,
      "taf_trigger": false,
      "metar": "METAR EPLB 100130Z 04005KT CAVOK M02/M03 Q1020",
      "taf": "TAF EPLB 092330Z 1000/1024 VRB05KT CAVOK"
    },
    {
      "icao": "EPMO",
      "alert": "OK",
      "vis_m": 9999,
      "fzfg": false,
      "metar_trigger": false,
      "taf_trigger": false,
      "metar": "METAR EPMO 100130Z 08003KT CAVOK M01/M04 Q1022",
      "taf": "TAF EPMO 092330Z 1000/1024 06004KT CAVOK"
    },
    {
      "icao": "EPPO",
      "alert": "OK",
      "vis_m": 9999,
      "fzfg": false,
      "metar_trigger": false,
      "taf_trigger": false,
      "metar": "METAR EPPO 100130Z 07004KT CAVOK M03/M05 Q1021",
      "taf": "TAF EPPO 092330Z 1000/1024 06006KT CAVOK"
    },
    {
      "icao": "EPRA",
      "alert": "OK",
      "vis_m": 9999,
      "fzfg": false,
      "metar_trigger": false,
      "taf_trigger": false,
      "metar": "METAR EPRA 100130Z 05003KT CAVOK M01/M03 Q1020",
      "taf": "TAF EPRA 092330Z 1000/1009 07005KT 9999 SCT040"
    },
    {
      "icao": "EPRZ",
      "alert": "OK",
      "vis_m": 4000,
      "fzfg": false,
      "metar_trigger": false,
      "taf_trigger": false,
      "metar": "METAR EPRZ 100130Z 31003KT 4000 BR BKN006 M00/M00 Q1020",
      "taf": ""
    },
    {
      "icao": "EPSC",
      "alert": "OK",
      "vis_m": 9999,
      "fzfg": false,
      "metar_trigger": false,
      "taf_trigger": false,
      "metar": "METAR EPSC 100130Z 10008KT CAVOK M00/M05 Q1020",
      "taf": "TAF EPSC 092330Z 1000/1024 06006KT CAVOK"
    },
    {
      "icao": "EPSY",
      "alert": "OK",
      "vis_m": 9999,
      "fzfg": false,
      "metar_trigger": false,
      "taf_trigger": false,
      "metar": "METAR EPSY 100130Z 04003KT CAVOK M02/M05 Q1022",
      "taf": "TAF EPSY 092330Z 1000/1009 03005KT CAVOK"
    },
    {
      "icao": "EPWA",
      "alert": "OK",
      "vis_m": 9999,
      "fzfg": false,
      "metar_trigger": false,
      "taf_trigger": false,
      "metar": "METAR EPWA 100130Z VRB02KT CAVOK M01/M04 Q1021 NOSIG",
      "taf": "TAF EPWA 092330Z 1000/1024 07006KT CAVOK"
    },
    {
      "icao": "EPWR",
      "alert": "OK",
      "vis_m": 9999,
      "fzfg": false,
      "metar_trigger": false,
      "taf_trigger": false,
      "metar": "METAR EPWR 100130Z VRB01KT CAVOK M03/M05 Q1020",
      "taf": "TAF EPWR 092330Z 1000/1024 VRB02KT CAVOK"
    },
    {
      "icao": "ESGG",
      "alert": "OK",
      "vis_m": 9999,
      "fzfg": false,
      "metar_trigger": false,
      "taf_trigger": false,
      "metar": "METAR ESGG 100150Z 13009KT CAVOK M01/M05 Q1019",
      "taf": "TAF ESGG 092330Z 1000/1024 14009KT CAVOK"
    },
    {
      "icao": "ESKN",
      "alert": "OK",
      "vis_m": 9999,
      "fzfg": false,
      "metar_trigger": false,
      "taf_trigger": false,
      "metar": "METAR ESKN 100150Z 05003KT CAVOK M04/M04 Q1024",
      "taf": "TAF ESKN 092330Z 1000/1024 07004KT CAVOK"
    },
    {
      "icao": "ESMS",
      "alert": "OK",
      "vis_m": 9999,
      "fzfg": false,
      "metar_trigger": false,
      "taf_trigger": false,
      "metar": "METAR ESMS 100150Z 12011KT 9999 FEW016 01/M01 Q1019",
      "taf": "TAF ESMS 092327Z 1000/1024 11010KT CAVOK"
    },
    {
      "icao": "ESSA",
      "alert": "OK",
      "vis_m": 9999,
      "fzfg": false,
      "metar_trigger": false,
      "taf_trigger": false,
      "metar": "METAR ESSA 100150Z 07004KT CAVOK M04/M06 Q1025 NOSIG",
      "taf": "TAF ESSA 092330Z 1000/1024 10004KT CAVOK"
    },
    {
      "icao": "EYKA",
      "alert": "OK",
      "vis_m": 9999,
      "fzfg": false,
      "metar_trigger": false,
      "taf_trigger": false,
      "metar": "METAR EYKA 100150Z 31004KT 9999 BKN043 00/M04 Q1022",
      "taf": "TAF EYKA 092302Z 1000/1024 VRB04KT 9000 BKN040"
    },
    {
      "icao": "EYPA",
      "alert": "OK",
      "vis_m": 9999,
      "fzfg": false,
      "metar_trigger": false,
      "taf_trigger": false,
      "metar": "METAR EYPA 100150Z VRB02KT CAVOK M02/M05 Q1025",
      "taf": "TAF EYPA 092302Z 1000/1024 VRB04KT 9000 NSC"
    },
    {
      "icao": "EYVI",
      "alert": "OK",
      "vis_m": 9999,
      "fzfg": false,
      "metar_trigger": false,
      "taf_trigger": false,
      "metar": "METAR EYVI 100150Z 32005KT 9999 OVC040 00/M03 Q1021 NOSIG",
      "taf": "TAF EYVI 092302Z 1000/1024 VRB04KT 9000 BKN035"
    },
    {
      "icao": "GCFV",
      "alert": "OK",
      "vis_m": 9999,
      "fzfg": false,
      "metar_trigger": false,
      "taf_trigger": false,
      "metar": "METAR GCFV 100130Z AUTO 32010KT CAVOK 17/10 Q1017",
      "taf": ""
    },
    {
      "icao": "GCLP",
      "alert": "OK",
      "vis_m": 9999,
      "fzfg": false,
      "metar_trigger": false,
      "taf_trigger": false,
      "metar": "METAR GCLP 100130Z 34017KT 9999 FEW040 17/10 Q1018 NOSIG",
      "taf": ""
    },
    {
      "icao": "GCTS",
      "alert": "OK",
      "vis_m": 9999,
      "fzfg": false,
      "metar_trigger": false,
      "taf_trigger": false,
      "metar": "METAR GCTS 100130Z 34006KT 9999 SCT025 17/11 Q1019 NOSIG",
      "taf": "TAF GCTS 092000Z 0921/1021 VRB09KT 9999 SCT030 TX23/1014Z TN15/1006Z"
    },
    {
      "icao": "GMAD",
      "alert": "OK",
      "vis_m": 9999,
      "fzfg": false,
      "metar_trigger": false,
      "taf_trigger": false,
      "metar": "METAR GMAD 100130Z 18005KT 9999 FEW016 SCT026 14/13 Q1012 NOSIG",
      "taf": "TAF GMAD 092300Z 1000/1106 18006KT 6000 SCT020 SCT080"
    },
    {
      "icao": "GMMN",
      "alert": "OK",
      "vis_m": 9999,
      "fzfg": false,
      "metar_trigger": false,
      "taf_trigger": false,
      "metar": "METAR GMMN 100130Z 13008KT 9999 FEW020 BKN030 11/09 Q1014 NOSIG",
      "taf": "TAF GMMN 092300Z 1000/1106 06006KT 9999 FEW026 SCT100"
    },
    {
      "icao": "GMMX",
      "alert": "OK",
      "vis_m": 6000,
      "fzfg": false,
      "metar_trigger": false,
      "taf_trigger": false,
      "metar": "METAR GMMX 100130Z VRB02KT 6000 SCT013 SCT023 11/10 Q1012 NOSIG",
      "taf": "TAF GMMX 092300Z 1000/1106 26008KT 8000 SCT013 BKN023"
    },
    {
      "icao": "HEGN",
      "alert": "OK",
      "vis_m": 9999,
      "fzfg": false,
      "metar_trigger": false,
      "taf_trigger": false,
      "metar": "METAR HEGN 100100Z 28010KT CAVOK 18/M06 Q1014 NOSIG",
      "taf": "TAF HEGN 092300Z 1000/1106 26010KT CAVOK"
    },
    {
      "icao": "HEMA",
      "alert": "OK",
      "vis_m": 9999,
      "fzfg": false,
      "metar_trigger": false,
      "taf_trigger": false,
      "metar": "METAR HEMA 100100Z 24008KT CAVOK 18/08 Q1014 NOSIG",
      "taf": "TAF HEMA 092300Z 1000/1106 27010KT CAVOK"
    },
    {
      "icao": "HESH",
      "alert": "OK",
      "vis_m": 9999,
      "fzfg": false,
      "metar_trigger": false,
      "taf_trigger": false,
      "metar": "METAR HESH 100100Z 33005KT CAVOK 20/13 Q1014 NOSIG",
      "taf": "TAF HESH 092300Z 1000/1106 33010KT CAVOK"
    },
    {
      "icao": "HESX",
      "alert": "OK",
      "vis_m": 9999,
      "fzfg": false,
      "metar_trigger": false,
      "taf_trigger": false,
      "metar": "METAR HESX 100100Z 20005KT CAVOK 14/06 Q1015 NOSIG",
      "taf": "TAF HESX 092300Z 1000/1106 VRB03KT CAVOK"
    },
    {
      "icao": "LATI",
      "alert": "OK",
      "vis_m": 9999,
      "fzfg": false,
      "metar_trigger": false,
      "taf_trigger": false,
      "metar": "METAR LATI 100150Z 18005KT CAVOK 07/02 Q1015 NOSIG",
      "taf": "TAF LATI 092300Z 1000/1024 VRB05KT CAVOK TX21/1012Z TN04/1004Z"
    },
    {
      "icao": "LBPD",
      "alert": "OK",
      "vis_m": 9999,
      "fzfg": false,
      "metar_trigger": false,
      "taf_trigger": false,
      "metar": "METAR LBPD 100130Z AUTO 00000KT 9999 FEW083/// 02/M00 Q1016",
      "taf": "TAF LBPD 092300Z 1000/1024 29010KT 9999 SCT060"
    },
    {
      "icao": "LBSF",
      "alert": "OK",
      "vis_m": 9999,
      "fzfg": false,
      "metar_trigger": false,
      "taf_trigger": false,
      "metar": "METAR LBSF 100130Z AUTO 33005KT 300V360 9999 OVC061/// 02/M04 Q1016 NOSIG",
      "taf": "TAF LBSF 092300Z 1000/1024 VRB03KT 9999 SCT060"
    },
    {
      "icao": "LBWN",
      "alert": "OK",
      "vis_m": 9999,
      "fzfg": false,
      "metar_trigger": false,
      "taf_trigger": false,
      "metar": "METAR LBWN 100130Z AUTO 29004KT 260V330 9999 BKN045/// 05/05 Q1016 NOSIG",
      "taf": "TAF LBWN 092300Z 1000/1024 02010KT 9999 SCT025 BKN040"
    },
    {
      "icao": "LCLK",
      "alert": "OK",
      "vis_m": 9999,
      "fzfg": false,
      "metar_trigger": false,
      "taf_trigger": false,
      "metar": "METAR LCLK 100130Z 24008KT CAVOK 15/13 Q1010 NOSIG",
      "taf": "TAF LCLK 092330Z 1000/1100 25009KT 9999 FEW020 SCT050"
    },
    {
      "icao": "LCPH",
      "alert": "OK",
      "vis_m": 9999,
      "fzfg": false,
      "metar_trigger": false,
      "taf_trigger": false,
      "metar": "METAR LCPH 100130Z AUTO 26009KT 250V320 9999 OVC013 17/14 Q1011 NOSIG",
      "taf": "TAF LCPH 092330Z 1000/1100 26007KT 9999 SCT018"
    },
    {
      "icao": "LEAL",
      "alert": "OK",
      "vis_m": 9999,
      "fzfg": false,
      "metar_trigger": false,
      "taf_trigger": false,
      "metar": "METAR LEAL 100130Z 02004KT CAVOK 18/04 Q1017 NOSIG",
      "taf": "TAF LEAL 092300Z 1000/1024 36004KT CAVOK TX26/1013Z TN14/1006Z"
    },
    {
      "icao": "LEBB",
      "alert": "OK",
      "vis_m": 9999,
      "fzfg": false,
      "metar_trigger": false,
      "taf_trigger": false,
      "metar": "METAR LEBB 100130Z AUTO VRB01KT 9999 SCT017 13/12 Q1023",
      "taf": "TAF LEBB 092300Z 1000/1024 31006KT 9999 FEW010 TX31/1014Z TN11/1006Z"
    },
    {
      "icao": "LEBL",
      "alert": "OK",
      "vis_m": 9999,
      "fzfg": false,
      "metar_trigger": false,
      "taf_trigger": false,
      "metar": "METAR LEBL 100130Z 30006KT 9999 FEW015 15/08 Q1018 NOSIG",
      "taf": "TAF LEBL 092300Z 1000/1024 20005KT 9999 FEW005 TX23/1012Z TN12/1006Z"
    },
    {
      "icao": "LECH",
      "alert": "OK",
      "vis_m": 9999,
      "fzfg": false,
      "metar_trigger": false,
      "taf_trigger": false,
      "metar": "METAR LECH 100130Z AUTO 00000KT CAVOK 13/03 Q1019",
      "taf": "TAF LECH 092300Z 1000/1024 VRB04KT CAVOK TX26/1014Z TN09/1006Z"
    },
    {
      "icao": "LEMD",
      "alert": "OK",
      "vis_m": 9999,
      "fzfg": false,
      "metar_trigger": false,
      "taf_trigger": false,
      "metar": "METAR LEMD 100130Z 01003KT 340V060 CAVOK 14/03 Q1020 NOSIG",
      "taf": "TAF LEMD 092300Z 1000/1106 VRB04KT CAVOK TX29/1015Z TN09/1006Z"
    },
    {
      "icao": "LEMG",
      "alert": "OK",
      "vis_m": 9999,
      "fzfg": false,
      "metar_trigger": false,
      "taf_trigger": false,
      "metar": "METAR LEMG 100130Z 29006KT CAVOK 14/11 Q1013 NOSIG",
      "taf": "TAF LEMG 092300Z 1000/1024 29005KT 9999 FEW020 SCT040 TX24/1014Z TN14/1007Z"
    },
    {
      "icao": "LEVC",
      "alert": "OK",
      "vis_m": 9999,
      "fzfg": false,
      "metar_trigger": false,
      "taf_trigger": false,
      "metar": "METAR LEVC 100130Z 28003KT CAVOK 13/06 Q1018 NOSIG",
      "taf": "TAF LEVC 092300Z 1000/1024 29004KT 9999 FEW010 TX26/1013Z TN13/1006Z"
    },
    {
      "icao": "LEXJ",
      "alert": "OK",
      "vis_m": 8000,
      "fzfg": false,
      "metar_trigger": false,
      "taf_trigger": false,
      "metar": "METAR LEXJ 100130Z AUTO 24003KT 8000 OVC017 13/11 Q1023",
      "taf": "TAF LEXJ 092000Z 0921/1021 28007KT 9000 SCT010 TX24/1014Z TN12/1007Z"
    },
    {
      "icao": "LEZG",
      "alert": "OK",
      "vis_m": 9999,
      "fzfg": false,
      "metar_trigger": false,
      "taf_trigger": false,
      "metar": "METAR LEZG 100130Z 28010KT CAVOK 16/06 Q1019 NOSIG",
      "taf": "TAF LEZG 092300Z 1000/1024 29010KT CAVOK TX30/1015Z TN12/1006Z"
    },
    {
      "icao": "LEZL",
      "alert": "OK",
      "vis_m": 9000,
      "fzfg": false,
      "metar_trigger": false,
      "taf_trigger": false,
      "metar": "METAR LEZL 100130Z AUTO 17005KT 9000 NCD 14/13 Q1014",
      "taf": "TAF LEZL 092000Z 0921/1021 21006KT CAVOK TX26/1015Z TN11/1007Z"
    },
    {
      "icao": "LFBD",
      "alert": "OK",
      "vis_m": 1100,
      "fzfg": false,
      "metar_trigger": false,
      "taf_trigger": false,
      "metar": "METAR LFBD 100130Z AUTO 26007KT 1100 1000 R23/1300U R05/1300U R29/1400U BR VV/// 14/13 Q1020 TEMPO 0400 FG",
      "taf": "TAF LFBD 092300Z 1000/1106 24008KT 3000 BR BKN002 TX27/1015Z TN12/1005Z"
    },
    {
      "icao": "LFLL",
      "alert": "OK",
      "vis_m": 9999,
      "fzfg": false,
      "metar_trigger": false,
      "taf_trigger": false,
      "metar": "METAR LFLL 100130Z 19001KT CAVOK 12/07 Q1017 NOSIG",
      "taf": "TAF LFLL 092300Z 1000/1106 VRB02KT CAVOK"
    },
    {
      "icao": "LFLS",
      "alert": "OK",
      "vis_m": 9999,
      "fzfg": false,
      "metar_trigger": false,
      "taf_trigger": false,
      "metar": "METAR LFLS 100130Z AUTO 08004KT 9999 4700 NSC 06/04 Q1017",
      "taf": ""
    },
    {
      "icao": "LFMN",
      "alert": "OK",
      "vis_m": 9999,
      "fzfg": false,
      "metar_trigger": false,
      "taf_trigger": false,
      "metar": "METAR LFMN 100130Z 03005KT 9999 OVC015 15/12 Q1014 NOSIG",
      "taf": "TAF LFMN 092000Z 0921/1103 VRB03KT 9999 FEW012"
    },
    {
      "icao": "LFOB",
      "alert": "OK",
      "vis_m": 9999,
      "fzfg": false,
      "metar_trigger": false,
      "taf_trigger": false,
      "metar": "METAR LFOB 100130Z AUTO 29008KT CAVOK 08/05 Q1021 NOSIG",
      "taf": "TAF LFOB 092300Z 1000/1024 33010KT CAVOK"
    },
    {
      "icao": "LFPO",
      "alert": "OK",
      "vis_m": 9999,
      "fzfg": false,
      "metar_trigger": false,
      "taf_trigger": false,
      "metar": "METAR LFPO 100130Z AUTO 33011KT 9999 FEW024 OVC230 10/05 Q1021 NOSIG",
      "taf": "TAF LFPO 092300Z 1000/1106 33010KT CAVOK"
    },
    {
      "icao": "LFSB",
      "alert": "OK",
      "vis_m": 9999,
      "fzfg": false,
      "metar_trigger": false,
      "taf_trigger": false,
      "metar": "METAR LFSB 100130Z AUTO VRB02KT CAVOK 08/05 Q1016 TEMPO SCT080TCU",
      "taf": "TAF LFSB 092300Z 1000/1024 VRB03KT CAVOK"
    },
    {
      "icao": "LGAV",
      "alert": "OK",
      "vis_m": 9999,
      "fzfg": false,
      "metar_trigger": false,
      "taf_trigger": false,
      "metar": "METAR LGAV 100150Z 00000KT 9999 FEW025 SCT070 09/07 Q1015 NOSIG",
      "taf": "TAF LGAV 092300Z 1000/1024 VRB03KT 9999 SCT030"
    },
    {
      "icao": "LGTS",
      "alert": "OK",
      "vis_m": 9999,
      "fzfg": false,
      "metar_trigger": false,
      "taf_trigger": false,
      "metar": "METAR LGTS 100150Z 12005KT 9999 FEW020 07/05 Q1016 NOSIG",
      "taf": "TAF LGTS 092300Z 1000/1024 34015KT 9999 FEW025"
    },
    {
      "icao": "LHBP",
      "alert": "OK",
      "vis_m": 9999,
      "fzfg": false,
      "metar_trigger": false,
      "taf_trigger": false,
      "metar": "METAR LHBP 100130Z 04004KT CAVOK 01/M01 Q1019 NOSIG",
      "taf": "TAF LHBP 092315Z 1000/1024 07007KT CAVOK"
    },
    {
      "icao": "LHDC",
      "alert": "OK",
      "vis_m": 9999,
      "fzfg": false,
      "metar_trigger": false,
      "taf_trigger": false,
      "metar": "METAR LHDC 100115Z AUTO 02009KT CAVOK 04/M03 Q1018",
      "taf": "TAF LHDC 091415Z 0915/0924 03008KT CAVOK"
    },
    {
      "icao": "LIBD",
      "alert": "OK",
      "vis_m": 9999,
      "fzfg": false,
      "metar_trigger": false,
      "taf_trigger": false,
      "metar": "METAR LIBD 100150Z 22005KT CAVOK 09/04 Q1015",
      "taf": "TAF LIBD 092300Z 1000/1024 22006KT CAVOK"
    },
    {
      "icao": "LIBG",
      "alert": "OK",
      "vis_m": null,
      "fzfg": false,
      "metar_trigger": false,
      "taf_trigger": false,
      "metar": "",
      "taf": ""
    },
    {
      "icao": "LIBP",
      "alert": "OK",
      "vis_m": 9999,
      "fzfg": false,
      "metar_trigger": false,
      "taf_trigger": false,
      "metar": "METAR LIBP 100150Z AUTO 23004KT 9999 NCD 07/07 Q1015",
      "taf": "TAF LIBP 092300Z 1000/1024 VRB05KT CAVOK"
    },
    {
      "icao": "LIBR",
      "alert": "OK",
      "vis_m": 9999,
      "fzfg": false,
      "metar_trigger": false,
      "taf_trigger": false,
      "metar": "METAR LIBR 100150Z 24004KT CAVOK 10/04 Q1015",
      "taf": "TAF LIBR 092300Z 1000/1024 VRB05KT CAVOK"
    },
    {
      "icao": "LICA",
      "alert": "OK",
      "vis_m": 9999,
      "fzfg": false,
      "metar_trigger": false,
      "taf_trigger": false,
      "metar": "METAR LICA 100150Z AUTO 19004KT 9999 NCD 08/07 Q1017",
      "taf": "TAF LICA 092300Z 1000/1024 26005KT CAVOK"
    },
    {
      "icao": "LICC",
      "alert": "OK",
      "vis_m": 9999,
      "fzfg": false,
      "metar_trigger": false,
      "taf_trigger": false,
      "metar": "METAR LICC 100150Z 24006KT CAVOK 08/04 Q1016",
      "taf": "TAF LICC 092300Z 1000/1024 VRB05KT CAVOK"
    },
    {
      "icao": "LICJ",
      "alert": "OK",
      "vis_m": 9999,
      "fzfg": false,
      "metar_trigger": false,
      "taf_trigger": false,
      "metar": "METAR LICJ 100150Z VRB02KT CAVOK 14/07 Q1016",
      "taf": "TAF LICJ 092300Z 1000/1024 VRB05KT CAVOK"
    },
    {
      "icao": "LIMC",
      "alert": "OK",
      "vis_m": 9999,
      "fzfg": false,
      "metar_trigger": false,
      "taf_trigger": false,
      "metar": "METAR LIMC 100150Z 04003KT 330V070 CAVOK 12/08 Q1015 NOSIG",
      "taf": "TAF LIMC 092300Z 1000/1106 VRB05KT CAVOK"
    },
    {
      "icao": "LIME",
      "alert": "OK",
      "vis_m": 9999,
      "fzfg": false,
      "metar_trigger": false,
      "taf_trigger": false,
      "metar": "METAR LIME 100150Z 36004KT CAVOK 10/07 Q1015 NOSIG",
      "taf": "TAF LIME 092300Z 1000/1024 VRB05KT CAVOK"
    },
    {
      "icao": "LIMF",
      "alert": "OK",
      "vis_m": 9999,
      "fzfg": false,
      "metar_trigger": false,
      "taf_trigger": false,
      "metar": "METAR LIMF 100150Z 36003KT CAVOK 14/08 Q1015",
      "taf": "TAF LIMF 092300Z 1000/1024 VRB05KT CAVOK"
    },
    {
      "icao": "LIMJ",
      "alert": "OK",
      "vis_m": 9999,
      "fzfg": false,
      "metar_trigger": false,
      "taf_trigger": false,
      "metar": "METAR LIMJ 100150Z 03003KT 9999 SCT018 14/11 Q1015",
      "taf": "TAF LIMJ 092300Z 1000/1024 VRB05KT 9000 FEW014"
    },
    {
      "icao": "LIPE",
      "alert": "OK",
      "vis_m": 9999,
      "fzfg": false,
      "metar_trigger": false,
      "taf_trigger": false,
      "metar": "METAR LIPE 100150Z 04002KT CAVOK 09/M03 Q1015",
      "taf": "TAF LIPE 092300Z 1000/1024 VRB05KT CAVOK"
    },
    {
      "icao": "LIPH",
      "alert": "OK",
      "vis_m": null,
      "fzfg": false,
      "metar_trigger": false,
      "taf_trigger": false,
      "metar": "",
      "taf": "TAF LIPH 092300Z 1000/1024 VRB05KT CAVOK"
    },
    {
      "icao": "LIPQ",
      "alert": "OK",
      "vis_m": 9999,
      "fzfg": false,
      "metar_trigger": false,
      "taf_trigger": false,
      "metar": "METAR LIPQ 100150Z AUTO 05003KT 9999 NCD 05/05 Q1015",
      "taf": "TAF LIPQ 092300Z 1000/1024 VRB05KT CAVOK"
    },
    {
      "icao": "LIPR",
      "alert": "OK",
      "vis_m": 9999,
      "fzfg": false,
      "metar_trigger": false,
      "taf_trigger": false,
      "metar": "METAR LIPR 100150Z AUTO 36003KT 330V030 9999 BKN054/// 12/10 Q1015",
      "taf": "TAF LIPR 092300Z 1000/1024 VRB05KT CAVOK"
    },
    {
      "icao": "LIPX",
      "alert": "OK",
      "vis_m": 9999,
      "fzfg": false,
      "metar_trigger": false,
      "taf_trigger": false,
      "metar": "METAR LIPX 100150Z 36004KT CAVOK 08/06 Q1015",
      "taf": "TAF LIPX 092300Z 1000/1024 VRB05KT 9999 FEW040"
    },
    {
      "icao": "LIPY",
      "alert": "OK",
      "vis_m": 9999,
      "fzfg": false,
      "metar_trigger": false,
      "taf_trigger": false,
      "metar": "METAR LIPY 100150Z AUTO 14002KT 9999 FEW070/// 10/07 Q1015",
      "taf": "TAF LIPY 092300Z 1000/1024 VRB05KT CAVOK"
    },
    {
      "icao": "LIPZ",
      "alert": "OK",
      "vis_m": 9999,
      "fzfg": false,
      "metar_trigger": false,
      "taf_trigger": false,
      "metar": "METAR LIPZ 100150Z 04006KT CAVOK 08/06 Q1015 NOSIG",
      "taf": "TAF LIPZ 092300Z 1000/1106 VRB05KT CAVOK"
    },
    {
      "icao": "LIRF",
      "alert": "OK",
      "vis_m": 9000,
      "fzfg": false,
      "metar_trigger": false,
      "taf_trigger": false,
      "metar": "METAR LIRF 100150Z 09005KT 9000 NSC 09/08 Q1015 NOSIG",
      "taf": "TAF LIRF 092300Z 1000/1106 VRB05KT CAVOK"
    },
    {
      "icao": "LIRN",
      "alert": "OK",
      "vis_m": 9999,
      "fzfg": false,
      "metar_trigger": false,
      "taf_trigger": false,
      "metar": "METAR LIRN 100150Z AUTO 06003KT 9999 FEW018/// 12/11 Q1016",
      "taf": "TAF LIRN 092300Z 1000/1024 VRB05KT 9999 SCT015"
    },
    {
      "icao": "LIRP",
      "alert": "OK",
      "vis_m": 9999,
      "fzfg": false,
      "metar_trigger": false,
      "taf_trigger": false,
      "metar": "METAR LIRP 100145Z 13005KT 9999 SCT015 09/08 Q1015 NOSIG",
      "taf": "TAF LIRP 092300Z 1000/1024 12004KT 5000 BR FEW010"
    },
    {
      "icao": "LIRZ",
      "alert": "OK",
      "vis_m": 9999,
      "fzfg": false,
      "metar_trigger": false,
      "taf_trigger": false,
      "metar": "METAR LIRZ 100150Z AUTO 02005KT 9999 NCD 07/05 Q1016",
      "taf": "TAF LIRZ 092300Z 1000/1024 VRB05KT CAVOK"
    },
    {
      "icao": "LJLJ",
      "alert": "OK",
      "vis_m": 9999,
      "fzfg": false,
      "metar_trigger": false,
      "taf_trigger": false,
      "metar": "METAR LJLJ 100130Z 33002KT CAVOK 01/M01 Q1017 NOSIG",
      "taf": "TAF LJLJ 092300Z 1000/1100 VRB02KT CAVOK"
    },
    {
      "icao": "LKMT",
      "alert": "OK",
      "vis_m": 9999,
      "fzfg": false,
      "metar_trigger": false,
      "taf_trigger": false,
      "metar": "METAR LKMT 100130Z 18003KT 140V230 CAVOK M03/M04 Q1020 NOSIG",
      "taf": "TAF LKMT 092300Z 1000/1024 VRB02KT CAVOK"
    },
    {
      "icao": "LKPR",
      "alert": "OK",
      "vis_m": 9999,
      "fzfg": false,
      "metar_trigger": false,
      "taf_trigger": false,
      "metar": "METAR LKPR 100130Z 09004KT CAVOK 00/M05 Q1018 NOSIG",
      "taf": "TAF LKPR 092300Z 1000/1106 10006KT CAVOK"
    },
    {
      "icao": "LLBG",
      "alert": "OK",
      "vis_m": 9999,
      "fzfg": false,
      "metar_trigger": false,
      "taf_trigger": false,
      "metar": "METAR LLBG 100150Z VRB02KT CAVOK 13/10 Q1014 NOSIG",
      "taf": "TAF LLBG 092314Z 1000/1024 VRB04KT 9999 SCT025 TX22/1011Z TN13/1003Z"
    },
    {
      "icao": "LMML",
      "alert": "OK",
      "vis_m": 9999,
      "fzfg": false,
      "metar_trigger": false,
      "taf_trigger": false,
      "metar": "METAR LMML 100145Z 25009KT CAVOK 16/03 Q1017 NOSIG",
      "taf": "TAF LMML 092300Z 1000/1024 28008KT CAVOK ."
    },
    {
      "icao": "LOWW",
      "alert": "OK",
      "vis_m": 9999,
      "fzfg": false,
      "metar_trigger": false,
      "taf_trigger": false,
      "metar": "METAR LOWW 100150Z 02003KT CAVOK M01/M04 Q1019 NOSIG",
      "taf": "TAF LOWW 092315Z 1000/1106 36008KT CAVOK TX06/1011Z TN01/1004Z"
    },
    {
      "icao": "LPFR",
      "alert": "OK",
      "vis_m": 9999,
      "fzfg": false,
      "metar_trigger": false,
      "taf_trigger": false,
      "metar": "METAR LPFR 100130Z 29005KT 9999 FEW010 15/13 Q1014",
      "taf": "TAF LPFR 092300Z 1000/1024 03008KT 9999 SCT030"
    },
    {
      "icao": "LPMA",
      "alert": "OK",
      "vis_m": 9999,
      "fzfg": false,
      "metar_trigger": false,
      "taf_trigger": false,
      "metar": "METAR LPMA 100130Z 35016G26KT 310V030 9999 BKN015 FEW016TCU 16/12 Q1018",
      "taf": "TAF LPMA 092300Z 1000/1024 36015KT 9999 SCT015"
    },
    {
      "icao": "LPPR",
      "alert": "OK",
      "vis_m": 9999,
      "fzfg": false,
      "metar_trigger": false,
      "taf_trigger": false,
      "metar": "METAR LPPR 100130Z 01004KT CAVOK 14/13 Q1015",
      "taf": "TAF LPPR 092300Z 1000/1024 VRB02KT CAVOK"
    },
    {
      "icao": "LPPS",
      "alert": "OK",
      "vis_m": 9999,
      "fzfg": false,
      "metar_trigger": false,
      "taf_trigger": false,
      "metar": "METAR LPPS 100130Z 36014KT 9999 FEW012 SCT030 15/13 Q1018",
      "taf": "TAF LPPS 092300Z 1000/1106 34015KT 9999 SCT012 SCT030"
    },
    {
      "icao": "LPPT",
      "alert": "OK",
      "vis_m": 9999,
      "fzfg": false,
      "metar_trigger": false,
      "taf_trigger": false,
      "metar": "METAR LPPT 100130Z 30009KT CAVOK 19/11 Q1012",
      "taf": "TAF LPPT 092300Z 1000/1106 23007KT 9999 SCT030"
    },
    {
      "icao": "LQBK",
      "alert": "OK",
      "vis_m": 9999,
      "fzfg": false,
      "metar_trigger": false,
      "taf_trigger": false,
      "metar": "METAR LQBK 100130Z VRB02KT CAVOK 01/M02 Q1017 NOSIG",
      "taf": "TAF LQBK 092300Z 1000/1024 17005KT CAVOK TX16/1013Z TNM00/1004Z"
    },
    {
      "icao": "LQSA",
      "alert": "OK",
      "vis_m": 9999,
      "fzfg": false,
      "metar_trigger": false,
      "taf_trigger": false,
      "metar": "METAR LQSA 100130Z 18002KT CAVOK M00/M04 Q1018",
      "taf": "TAF LQSA 092300Z 1000/1024 32006KT 9999 SCT060 TX17/1014Z TNM02/1005Z"
    },
    {
      "icao": "LQTZ",
      "alert": "OK",
      "vis_m": 9999,
      "fzfg": false,
      "metar_trigger": false,
      "taf_trigger": false,
      "metar": "METAR LQTZ 100130Z 00000KT CAVOK M01/M01 Q1018",
      "taf": "TAF LQTZ 092300Z 1000/1024 VRB02KT CAVOK TX15/1013Z TNM02/1004Z"
    },
    {
      "icao": "LRBC",
      "alert": "OK",
      "vis_m": 9999,
      "fzfg": false,
      "metar_trigger": false,
      "taf_trigger": false,
      "metar": "METAR LRBC 100130Z 34011KT 9999 BKN040 01/M03 Q1018",
      "taf": "TAF LRBC 092300Z 1000/1009 34012KT 9999 SCT035"
    },
    {
      "icao": "LRBS",
      "alert": "OK",
      "vis_m": 9999,
      "fzfg": false,
      "metar_trigger": false,
      "taf_trigger": false,
      "metar": "METAR LRBS 100130Z 08007KT 9999 -RA FEW041 SCT049 05/01 Q1017 NOSIG",
      "taf": "TAF LRBS 092300Z 1000/1024 VRB04KT CAVOK"
    },
    {
      "icao": "LRBV",
      "alert": "OK",
      "vis_m": 3500,
      "fzfg": false,
      "metar_trigger": false,
      "taf_trigger": false,
      "metar": "METAR LRBV 100130Z AUTO 11006KT 3500 SN FEW006/// OVC023/// M01/M01 Q1016",
      "taf": "TAF LRBV 092000Z 0921/1006 29006KT 9999 SCT020 BKN040"
    },
    {
      "icao": "LRCL",
      "alert": "OK",
      "vis_m": 9999,
      "fzfg": false,
      "metar_trigger": false,
      "taf_trigger": false,
      "metar": "METAR LRCL 100130Z 30001KT CAVOK M02/M04 Q1017",
      "taf": "TAF LRCL 092300Z 1000/1009 VRB04KT CAVOK"
    },
    {
      "icao": "LRCV",
      "alert": "OK",
      "vis_m": 9999,
      "fzfg": false,
      "metar_trigger": false,
      "taf_trigger": false,
      "metar": "METAR LRCV 100130Z COR 07006KT CAVOK 04/03 Q1017",
      "taf": "TAF LRCV 092300Z 1000/1009 VRB04KT CAVOK"
    },
    {
      "icao": "LRIA",
      "alert": "OK",
      "vis_m": 7000,
      "fzfg": false,
      "metar_trigger": false,
      "taf_trigger": false,
      "metar": "METAR LRIA 100130Z 30010KT 7000 -SNRA BKN004 OVC027 01/00 Q1017",
      "taf": "TAF LRIA 092300Z 1000/1009 31011KT 9999 OVC010"
    },
    {
      "icao": "LROP",
      "alert": "OK",
      "vis_m": 9999,
      "fzfg": false,
      "metar_trigger": false,
      "taf_trigger": false,
      "metar": "METAR LROP 100130Z 10004KT 9999 -RA BKN047 05/M01 Q1017 NOSIG",
      "taf": "TAF LROP 092300Z 1000/1024 VRB04KT CAVOK"
    },
    {
      "icao": "LRSB",
      "alert": "OK",
      "vis_m": 9999,
      "fzfg": false,
      "metar_trigger": false,
      "taf_trigger": false,
      "metar": "METAR LRSB 100130Z 29003KT 9999 FEW060 01/M01 Q1016",
      "taf": "TAF LRSB 092300Z 1000/1024 VRB04KT 9999 SCT045"
    },
    {
      "icao": "LRSM",
      "alert": "OK",
      "vis_m": 9999,
      "fzfg": false,
      "metar_trigger": false,
      "taf_trigger": false,
      "metar": "METAR LRSM 100130Z AUTO 07004KT 9999 NCD M02/M05 Q1018",
      "taf": "TAF LRSM 092000Z 0921/1006 35006KT CAVOK"
    },
    {
      "icao": "LRSV",
      "alert": "OK",
      "vis_m": 9999,
      "fzfg": false,
      "metar_trigger": false,
      "taf_trigger": false,
      "metar": "METAR LRSV 100130Z 31008KT 9999 -SN BKN024 00/M01 Q1016",
      "taf": "TAF LRSV 092300Z 1000/1009 32010KT 9999 SCT025"
    },
    {
      "icao": "LRTM",
      "alert": "OK",
      "vis_m": 9999,
      "fzfg": false,
      "metar_trigger": false,
      "taf_trigger": false,
      "metar": "METAR LRTM 100130Z 26003KT 230V290 9999 SCT043 M01/M02 Q1017",
      "taf": "TAF LRTM 092300Z 1000/1009 VRB04KT CAVOK"
    },
    {
      "icao": "LRTR",
      "alert": "OK",
      "vis_m": 9999,
      "fzfg": false,
      "metar_trigger": false,
      "taf_trigger": false,
      "metar": "METAR LRTR 100130Z 14005KT CAVOK 02/00 Q1017 NOSIG",
      "taf": "TAF LRTR 092300Z 1000/1024 VRB04KT CAVOK"
    },
    {
      "icao": "LTAC",
      "alert": "OK",
      "vis_m": 9999,
      "fzfg": false,
      "metar_trigger": false,
      "taf_trigger": false,
      "metar": "METAR LTAC 100150Z 26002KT 9999 SCT040 BKN120 01/M02 Q1012 NOSIG RMK RWY21C 17004KT RWY03L 22002KT RWY21R 17004KT RWY03R 00000KT RWY21L 16003KT",
      "taf": "TAF LTAC 092240Z 1000/1024 VRB02KT 9999 SCT040 BKN100"
    },
    {
      "icao": "LTFM",
      "alert": "OK",
      "vis_m": 9999,
      "fzfg": false,
      "metar_trigger": false,
      "taf_trigger": false,
      "metar": "METAR LTFM 100150Z 24004KT 9999 SCT035 BKN090 05/03 Q1015 NOSIG RMK RWY17L 28004KT RWY34L 27005KT 230V290 RWY16R 27004KT 230V320 RWY36 20005KT RWY18 25004KT 220V290",
      "taf": "TAF LTFM 092240Z 1000/1106 VRB02KT 9999 SCT035 BKN090"
    },
    {
      "icao": "LUKK",
      "alert": "OK",
      "vis_m": 9999,
      "fzfg": false,
      "metar_trigger": false,
      "taf_trigger": false,
      "metar": "METAR LUKK 100130Z 35007KT 9999 -RA SCT024 BKN033 OVC055 03/02 Q1016 TEMPO BKN008",
      "taf": "TAF LUKK 092325Z 1000/1024 32008KT 9999 BKN015"
    },
    {
      "icao": "LWOH",
      "alert": "OK",
      "vis_m": null,
      "fzfg": false,
      "metar_trigger": false,
      "taf_trigger": false,
      "metar": "",
      "taf": "TAF LWOH 092310Z 1000/1024 34005KT CAVOK"
    },
    {
      "icao": "LWSK",
      "alert": "OK",
      "vis_m": 9999,
      "fzfg": false,
      "metar_trigger": false,
      "taf_trigger": false,
      "metar": "METAR LWSK 100050Z 03005KT 290V050 CAVOK 04/M02 Q1018 NOSIG",
      "taf": "TAF LWSK 092310Z 1000/1024 35008KT CAVOK"
    },
    {
      "icao": "LYBE",
      "alert": "OK",
      "vis_m": 9999,
      "fzfg": false,
      "metar_trigger": false,
      "taf_trigger": false,
      "metar": "METAR LYBE 100130Z 20005KT CAVOK 04/00 Q1018 NOSIG",
      "taf": "TAF LYBE 092300Z 1000/1024 23005KT CAVOK TX13/1013Z TN01/1004Z"
    },
    {
      "icao": "LYNI",
      "alert": "OK",
      "vis_m": 9999,
      "fzfg": false,
      "metar_trigger": false,
      "taf_trigger": false,
      "metar": "METAR LYNI 100130Z 09003KT 9999 SCT050 BKN080 04/M01 Q1018 NOSIG",
      "taf": "TAF LYNI 092300Z 1000/1024 02005KT 9999 SCT060 TX15/1012Z TN00/1004Z"
    },
    {
      "icao": "LYPG",
      "alert": "OK",
      "vis_m": 9999,
      "fzfg": false,
      "metar_trigger": false,
      "taf_trigger": false,
      "metar": "METAR LYPG 100130Z 33006KT 310V010 CAVOK 11/M04 Q1016 NOSIG",
      "taf": "TAF LYPG 092300Z 1000/1024 36005KT CAVOK TX22/1013Z TN06/1004Z"
    },
    {
      "icao": "LZIB",
      "alert": "OK",
      "vis_m": 9999,
      "fzfg": false,
      "metar_trigger": false,
      "taf_trigger": false,
      "metar": "METAR LZIB 100130Z 36004KT CAVOK 00/M05 Q1019 NOSIG",
      "taf": "TAF LZIB 092315Z 1000/1100 04007KT CAVOK"
    },
    {
      "icao": "LZKZ",
      "alert": "OK",
      "vis_m": 9999,
      "fzfg": false,
      "metar_trigger": false,
      "taf_trigger": false,
      "metar": "METAR LZKZ 100130Z 01002KT CAVOK M00/M05 Q1019 NOSIG",
      "taf": "TAF LZKZ 092315Z 1000/1100 01009KT CAVOK"
    },
    {
      "icao": "LZTT",
      "alert": "OK",
      "vis_m": 9999,
      "fzfg": false,
      "metar_trigger": false,
      "taf_trigger": false,
      "metar": "METAR LZTT 100130Z 35003KT 9999 FEW030 BKN050 M05/M07 Q1017",
      "taf": "TAF LZTT 092315Z 1000/1100 07007KT 9999 BKN045"
    },
    {
      "icao": "OEJN",
      "alert": "OK",
      "vis_m": 9999,
      "fzfg": false,
      "metar_trigger": false,
      "taf_trigger": false,
      "metar": "METAR OEJN 100100Z 36003KT CAVOK 21/11 Q1011 NOSIG",
      "taf": "TAF OEJN 092300Z 1000/1106 VRB03KT CAVOK"
    },
    {
      "icao": "OEMA",
      "alert": "OK",
      "vis_m": 9999,
      "fzfg": false,
      "metar_trigger": false,
      "taf_trigger": false,
      "metar": "METAR OEMA 100100Z 06006KT CAVOK 21/M04 Q1016 NOSIG",
      "taf": "TAF OEMA 092300Z 1000/1106 06005KT CAVOK"
    },
    {
      "icao": "OJAI",
      "alert": "OK",
      "vis_m": null,
      "fzfg": false,
      "metar_trigger": false,
      "taf_trigger": false,
      "metar": "",
      "taf": "TAF OJAI 092300Z 1000/1106 25012KT 5000 HZ NSC"
    },
    {
      "icao": "OMAA",
      "alert": "OK",
      "vis_m": null,
      "fzfg": false,
      "metar_trigger": false,
      "taf_trigger": false,
      "metar": "",
      "taf": ""
    },
    {
      "icao": "OMDB",
      "alert": "OK",
      "vis_m": null,
      "fzfg": false,
      "metar_trigger": false,
      "taf_trigger": false,
      "metar": "",
      "taf": ""
    },
    {
      "icao": "UAAA",
      "alert": "OK",
      "vis_m": 9999,
      "fzfg": false,
      "metar_trigger": false,
      "taf_trigger": false,
      "metar": "METAR UAAA 100130Z VRB01MPS 9999 BKN050CB OVC100 11/08 Q1020 NOSIG",
      "taf": "TAF UAAA 092302Z 1000/1024 16003G08MPS 9999 BKN050CB OVC100 TX18/1008Z TN08/1001Z"
    },
    {
      "icao": "UBBB",
      "alert": "OK",
      "vis_m": 9999,
      "fzfg": false,
      "metar_trigger": false,
      "taf_trigger": false,
      "metar": "METAR UBBB 100130Z 00000KT CAVOK 07/06 Q1016 NOSIG",
      "taf": "TAF UBBB 092301Z 1000/1024 34006KT CAVOK TX15/1010Z TN07/1001Z"
    },
    {
      "icao": "UDSG",
      "alert": "OK",
      "vis_m": 3000,
      "fzfg": false,
      "metar_trigger": false,
      "taf_trigger": false,
      "metar": "METAR UDSG 100130Z 27001KT 3000 -SHSN BR BKN020CB 00/00 Q1012 NOSIG",
      "taf": ""
    },
    {
      "icao": "UDYZ",
      "alert": "OK",
      "vis_m": 9999,
      "fzfg": false,
      "metar_trigger": false,
      "taf_trigger": false,
      "metar": "METAR UDYZ 100130Z 35001KT 9999 -SHRA OVC043CB 07/05 Q1011 NOSIG",
      "taf": "TAF UDYZ 092300Z 1000/1024 03006KT 9999 OVC040"
    },
    {
      "icao": "UGKO",
      "alert": "OK",
      "vis_m": 9999,
      "fzfg": false,
      "metar_trigger": false,
      "taf_trigger": false,
      "metar": "METAR UGKO 100130Z VRB02KT 9999 BKN086 06/01 Q1012 NOSIG",
      "taf": "TAF UGKO 092300Z 1000/1024 08010KT 9999 SCT020 OVC050 TX12/1011Z TN05/1003Z"
    }
  ]
}