{
  "ts_utc": "2026-07-06T00:17:14Z",
  "threshold_m": 150,
  "source": "stations_override.txt (ICAO list) + aviationweather.gov (METAR/TAF raw)",
  "station_count": 159,
  "stations": [
    {
      "icao": "BIKF",
      "alert": "OK",
      "vis_m": 9999,
      "fzfg": false,
      "metar_trigger": false,
      "taf_trigger": false,
      "metar": "METAR BIKF 060000Z 12011KT 9999 FEW021 SCT047 OVC130 11/06 Q1010",
      "taf": "TAF BIKF 052253Z 0600/0700 10010KT 9999 FEW025 TX13/0613Z TN09/0618Z"
    },
    {
      "icao": "BKPR",
      "alert": "OK",
      "vis_m": null,
      "fzfg": false,
      "metar_trigger": false,
      "taf_trigger": false,
      "metar": "",
      "taf": "TAF BKPR 052330Z 0600/0624 34008KT CAVOK"
    },
    {
      "icao": "EBCI",
      "alert": "OK",
      "vis_m": 9999,
      "fzfg": false,
      "metar_trigger": false,
      "taf_trigger": false,
      "metar": "METAR EBCI 052350Z 20003KT CAVOK 17/14 Q1022 NOSIG",
      "taf": "TAF EBCI 052300Z 0600/0706 22006KT CAVOK"
    },
    {
      "icao": "EDDB",
      "alert": "OK",
      "vis_m": 9999,
      "fzfg": false,
      "metar_trigger": false,
      "taf_trigger": false,
      "metar": "METAR EDDB 052350Z AUTO 29007KT CAVOK 16/11 Q1016 NOSIG",
      "taf": "TAF EDDB 052300Z 0600/0624 28009KT CAVOK"
    },
    {
      "icao": "EDDH",
      "alert": "OK",
      "vis_m": 9999,
      "fzfg": false,
      "metar_trigger": false,
      "taf_trigger": false,
      "metar": "METAR EDDH 052350Z AUTO 25003KT CAVOK 13/11 Q1017 NOSIG",
      "taf": "TAF EDDH 052300Z 0600/0706 29004KT 9999 SCT025"
    },
    {
      "icao": "EDDK",
      "alert": "OK",
      "vis_m": 9999,
      "fzfg": false,
      "metar_trigger": false,
      "taf_trigger": false,
      "metar": "METAR EDDK 052350Z AUTO 31004KT 280V350 9999 OVC046 18/14 Q1021 NOSIG",
      "taf": "TAF EDDK 052300Z 0600/0706 28005KT 9999 FEW040"
    },
    {
      "icao": "EDDN",
      "alert": "OK",
      "vis_m": 9999,
      "fzfg": false,
      "metar_trigger": false,
      "taf_trigger": false,
      "metar": "METAR EDDN 052350Z AUTO 33005KT 290V350 9999 FEW030 SCT038 17/14 Q1021",
      "taf": "TAF EDDN 052300Z 0600/0624 28006KT 9999 SCT030"
    },
    {
      "icao": "EDDS",
      "alert": "OK",
      "vis_m": 9999,
      "fzfg": false,
      "metar_trigger": false,
      "taf_trigger": false,
      "metar": "METAR EDDS 052350Z AUTO 28003KT 9999 FEW043 19/14 Q1022",
      "taf": "TAF EDDS 052300Z 0600/0624 26004KT 9999 SCT040"
    },
    {
      "icao": "EDFH",
      "alert": "OK",
      "vis_m": 9999,
      "fzfg": false,
      "metar_trigger": false,
      "taf_trigger": false,
      "metar": "METAR EDFH 052350Z 28004KT CAVOK 16/13 Q1022",
      "taf": "TAF EDFH 052300Z 0600/0624 27004KT 9999 FEW030"
    },
    {
      "icao": "EDJA",
      "alert": "OK",
      "vis_m": 9999,
      "fzfg": false,
      "metar_trigger": false,
      "taf_trigger": false,
      "metar": "METAR EDJA 052350Z AUTO 23007KT 9999 // FEW051/// BKN092/// 15/14 Q1023",
      "taf": "TAF EDJA 051700Z 0518/0603 36008KT CAVOK"
    },
    {
      "icao": "EDLW",
      "alert": "OK",
      "vis_m": 9999,
      "fzfg": false,
      "metar_trigger": false,
      "taf_trigger": false,
      "metar": "METAR EDLW 052350Z AUTO 24005KT 9999 // FEW027/// BKN100/// 16/14 Q1020",
      "taf": "TAF EDLW 051700Z 0518/0618 28008KT 9999 BKN035"
    },
    {
      "icao": "EDNY",
      "alert": "OK",
      "vis_m": 9999,
      "fzfg": false,
      "metar_trigger": false,
      "taf_trigger": false,
      "metar": "METAR EDNY 052350Z AUTO 04003KT 360V060 9999 // FEW048/// BKN110/// 15/14 Q1023",
      "taf": "TAF EDNY 051700Z 0518/0603 VRB03KT CAVOK"
    },
    {
      "icao": "EDSB",
      "alert": "OK",
      "vis_m": 9999,
      "fzfg": false,
      "metar_trigger": false,
      "taf_trigger": false,
      "metar": "METAR EDSB 052350Z AUTO 17003KT 9999 // FEW150/// 17/13 Q1022",
      "taf": "TAF EDSB 052300Z 0600/0624 VRB03KT 9999 FEW035"
    },
    {
      "icao": "EETN",
      "alert": "OK",
      "vis_m": 9999,
      "fzfg": false,
      "metar_trigger": false,
      "taf_trigger": false,
      "metar": "METAR EETN 052350Z 30006KT 9999 SCT009 16/14 Q0997",
      "taf": "TAF EETN 052330Z 0600/0624 30012KT 9999 SCT010 FEW025CB BKN030"
    },
    {
      "icao": "EFTU",
      "alert": "OK",
      "vis_m": 9999,
      "fzfg": false,
      "metar_trigger": false,
      "taf_trigger": false,
      "metar": "METAR EFTU 052350Z AUTO 28004KT 9999 -SHRA OVC042 //////CB 14/14 Q0998",
      "taf": "TAF EFTU 052328Z 0600/0624 31004KT 9999 SCT030"
    },
    {
      "icao": "EGBB",
      "alert": "OK",
      "vis_m": 9999,
      "fzfg": false,
      "metar_trigger": false,
      "taf_trigger": false,
      "metar": "METAR EGBB 052350Z 27004KT CAVOK 20/13 Q1021",
      "taf": "TAF EGBB 052259Z 0600/0624 25008KT 9999 FEW040"
    },
    {
      "icao": "EGGP",
      "alert": "OK",
      "vis_m": 9999,
      "fzfg": false,
      "metar_trigger": false,
      "taf_trigger": false,
      "metar": "METAR EGGP 052350Z 24005KT CAVOK 16/14 Q1020",
      "taf": "TAF EGGP 052300Z 0600/0624 21006KT 9999 SCT020"
    },
    {
      "icao": "EGGW",
      "alert": "OK",
      "vis_m": 9999,
      "fzfg": false,
      "metar_trigger": false,
      "taf_trigger": false,
      "metar": "METAR EGGW 052350Z AUTO 26009KT 9999 NCD 19/16 Q1021",
      "taf": "TAF EGGW 052254Z 0600/0624 27012KT 9999 FEW045"
    },
    {
      "icao": "EGKK",
      "alert": "OK",
      "vis_m": 9999,
      "fzfg": false,
      "metar_trigger": false,
      "taf_trigger": false,
      "metar": "METAR EGKK 052350Z 22005KT CAVOK 19/16 Q1021",
      "taf": "TAF EGKK 052254Z 0600/0706 24009KT 9999 FEW045"
    },
    {
      "icao": "EGNM",
      "alert": "OK",
      "vis_m": 9999,
      "fzfg": false,
      "metar_trigger": false,
      "taf_trigger": false,
      "metar": "METAR EGNM 052350Z 24009KT 9999 SCT011 17/15 Q1019",
      "taf": "TAF EGNM 052258Z 0600/0624 27013KT 9999 SCT020"
    },
    {
      "icao": "EGPD",
      "alert": "OK",
      "vis_m": 9999,
      "fzfg": false,
      "metar_trigger": false,
      "taf_trigger": false,
      "metar": "METAR EGPD 052350Z AUTO 25002KT 9999 -RA NCD 15/13 Q1011",
      "taf": "TAF EGPD 052254Z 0600/0624 24005KT 9999 FEW008 SCT040"
    },
    {
      "icao": "EGPF",
      "alert": "OK",
      "vis_m": 9999,
      "fzfg": false,
      "metar_trigger": false,
      "taf_trigger": false,
      "metar": "METAR EGPF 052350Z AUTO 25011KT 9999 -RA BKN011/// OVC043/// //////TCU 14/14 Q1016",
      "taf": "TAF EGPF 052254Z 0600/0624 25009KT 9999 SCT018"
    },
    {
      "icao": "EHBK",
      "alert": "OK",
      "vis_m": 9999,
      "fzfg": false,
      "metar_trigger": false,
      "taf_trigger": false,
      "metar": "METAR EHBK 052355Z AUTO 21004KT 9999 NSC 15/13 Q1021",
      "taf": "TAF EHBK 052313Z 0600/0706 VRB02KT CAVOK"
    },
    {
      "icao": "EHEH",
      "alert": "OK",
      "vis_m": 9999,
      "fzfg": false,
      "metar_trigger": false,
      "taf_trigger": false,
      "metar": "METAR EHEH 052325Z AUTO VRB02KT 9999 OVC140 15/14 Q1021 BLU",
      "taf": "TAF EHEH 052354Z 0600/0706 23006KT CAVOK"
    },
    {
      "icao": "EKBI",
      "alert": "OK",
      "vis_m": 9999,
      "fzfg": false,
      "metar_trigger": false,
      "taf_trigger": false,
      "metar": "METAR EKBI 052350Z AUTO 27006KT 9999 NCD 09/07 Q1015",
      "taf": "TAF EKBI 052327Z 0600/0624 27008KT 9999 FEW025"
    },
    {
      "icao": "EKCH",
      "alert": "OK",
      "vis_m": 9999,
      "fzfg": false,
      "metar_trigger": false,
      "taf_trigger": false,
      "metar": "METAR EKCH 052350Z AUTO 27008KT 9999 NCD 12/07 Q1013 NOSIG",
      "taf": "TAF EKCH 052327Z 0600/0624 28010KT 9999 FEW025"
    },
    {
      "icao": "ENAL",
      "alert": "OK",
      "vis_m": 9999,
      "fzfg": false,
      "metar_trigger": false,
      "taf_trigger": false,
      "metar": "METAR ENAL 052350Z AUTO 21013KT 9999 FEW035/// SCT042/// 10/06 Q1008 REDZRA RERA",
      "taf": "TAF ENAL 052300Z 0600/0609 24015KT 9999 SCT025 BKN045"
    },
    {
      "icao": "ENBR",
      "alert": "OK",
      "vis_m": 9999,
      "fzfg": false,
      "metar_trigger": false,
      "taf_trigger": false,
      "metar": "METAR ENBR 052350Z 12004KT 9999 NSC 07/06 Q1012 RMK WIND 1200FT 25006KT",
      "taf": "TAF ENBR 052300Z 0600/0624 29005KT 9999 SCT030"
    },
    {
      "icao": "ENGM",
      "alert": "OK",
      "vis_m": 9999,
      "fzfg": false,
      "metar_trigger": false,
      "taf_trigger": false,
      "metar": "METAR ENGM 052350Z 34006KT 310V010 CAVOK 11/01 Q1007",
      "taf": "TAF ENGM 052300Z 0600/0624 33005KT CAVOK"
    },
    {
      "icao": "ENHD",
      "alert": "OK",
      "vis_m": 9999,
      "fzfg": false,
      "metar_trigger": false,
      "taf_trigger": false,
      "metar": "METAR ENHD 052350Z AUTO 28004KT 9999 NCD 10/06 Q1012",
      "taf": "TAF ENHD 051400Z 0515/0522 31012KT 9999 FEW035"
    },
    {
      "icao": "ENTC",
      "alert": "OK",
      "vis_m": 9999,
      "fzfg": false,
      "metar_trigger": false,
      "taf_trigger": false,
      "metar": "METAR ENTC 052350Z 00000KT CAVOK 11/09 Q1005 RMK WIND 2600FT 16011KT",
      "taf": "TAF ENTC 052300Z 0600/0624 03008KT 9999 FEW045"
    },
    {
      "icao": "ENTO",
      "alert": "OK",
      "vis_m": 9999,
      "fzfg": false,
      "metar_trigger": false,
      "taf_trigger": false,
      "metar": "METAR ENTO 052350Z AUTO 31004KT 9999 NCD 11/01 Q1008",
      "taf": "TAF ENTO 052300Z 0600/0624 33008KT CAVOK"
    },
    {
      "icao": "ENVA",
      "alert": "OK",
      "vis_m": 9999,
      "fzfg": false,
      "metar_trigger": false,
      "taf_trigger": false,
      "metar": "METAR ENVA 052350Z AUTO 24009KT 9999 SCT037/// BKN047/// 09/04 Q1009 RMK WIND 670FT 23008KT",
      "taf": "TAF ENVA 052300Z 0600/0624 20008KT 9999 FEW020 BKN030"
    },
    {
      "icao": "ENZV",
      "alert": "OK",
      "vis_m": 9999,
      "fzfg": false,
      "metar_trigger": false,
      "taf_trigger": false,
      "metar": "METAR ENZV 052350Z 18002KT 9999 FEW030 11/06 Q1013",
      "taf": "TAF ENZV 052300Z 0600/0624 31003KT 9999 SCT030"
    },
    {
      "icao": "EPGD",
      "alert": "OK",
      "vis_m": 9999,
      "fzfg": false,
      "metar_trigger": false,
      "taf_trigger": false,
      "metar": "METAR EPGD 060000Z 27014KT CAVOK 13/09 Q1009",
      "taf": "TAF EPGD 052330Z 0600/0624 27012KT 9999 FEW030"
    },
    {
      "icao": "EPKK",
      "alert": "OK",
      "vis_m": 9999,
      "fzfg": false,
      "metar_trigger": false,
      "taf_trigger": false,
      "metar": "METAR EPKK 060000Z 28004KT CAVOK 12/12 Q1015",
      "taf": "TAF EPKK 052330Z 0600/0624 24006KT CAVOK"
    },
    {
      "icao": "EPKT",
      "alert": "OK",
      "vis_m": 9999,
      "fzfg": false,
      "metar_trigger": false,
      "taf_trigger": false,
      "metar": "METAR EPKT 060000Z 26005KT CAVOK 12/11 Q1015",
      "taf": "TAF EPKT 052330Z 0600/0624 28008KT CAVOK"
    },
    {
      "icao": "EPLB",
      "alert": "OK",
      "vis_m": 9999,
      "fzfg": false,
      "metar_trigger": false,
      "taf_trigger": false,
      "metar": "METAR EPLB 060000Z 29008KT CAVOK 14/12 Q1011",
      "taf": "TAF EPLB 052330Z 0600/0624 27010KT CAVOK"
    },
    {
      "icao": "EPMO",
      "alert": "OK",
      "vis_m": 9999,
      "fzfg": false,
      "metar_trigger": false,
      "taf_trigger": false,
      "metar": "METAR EPMO 060000Z 26010KT CAVOK 13/09 Q1011",
      "taf": "TAF EPMO 052330Z 0600/0624 28010KT CAVOK"
    },
    {
      "icao": "EPPO",
      "alert": "OK",
      "vis_m": 9999,
      "fzfg": false,
      "metar_trigger": false,
      "taf_trigger": false,
      "metar": "METAR EPPO 060000Z 30006KT CAVOK 12/08 Q1014",
      "taf": "TAF EPPO 052330Z 0600/0624 31005KT CAVOK"
    },
    {
      "icao": "EPRA",
      "alert": "OK",
      "vis_m": 9999,
      "fzfg": false,
      "metar_trigger": false,
      "taf_trigger": false,
      "metar": "METAR EPRA 060000Z 27009KT CAVOK 13/11 Q1012",
      "taf": "TAF EPRA 052330Z 0600/0609 27010KT CAVOK"
    },
    {
      "icao": "EPRZ",
      "alert": "OK",
      "vis_m": 9999,
      "fzfg": false,
      "metar_trigger": false,
      "taf_trigger": false,
      "metar": "METAR EPRZ 060000Z 25007KT 9999 SCT027CB 15/14 Q1014",
      "taf": "TAF EPRZ 052330Z 0600/0624 25012KT CAVOK"
    },
    {
      "icao": "EPSC",
      "alert": "OK",
      "vis_m": 9999,
      "fzfg": false,
      "metar_trigger": false,
      "taf_trigger": false,
      "metar": "METAR EPSC 060000Z 23005KT 210V270 CAVOK 12/09 Q1014",
      "taf": "TAF EPSC 052330Z 0600/0624 26010KT CAVOK"
    },
    {
      "icao": "EPSY",
      "alert": "OK",
      "vis_m": 9999,
      "fzfg": false,
      "metar_trigger": false,
      "taf_trigger": false,
      "metar": "METAR EPSY 060000Z 26007KT 230V300 CAVOK 13/09 Q1009",
      "taf": "TAF EPSY 052330Z 0600/0609 27010KT CAVOK"
    },
    {
      "icao": "EPWA",
      "alert": "OK",
      "vis_m": 9999,
      "fzfg": false,
      "metar_trigger": false,
      "taf_trigger": false,
      "metar": "METAR EPWA 060000Z 27008KT CAVOK 13/11 Q1011 NOSIG",
      "taf": "TAF EPWA 052330Z 0600/0624 28010KT CAVOK"
    },
    {
      "icao": "EPWR",
      "alert": "OK",
      "vis_m": 9999,
      "fzfg": false,
      "metar_trigger": false,
      "taf_trigger": false,
      "metar": "METAR EPWR 060000Z 26005KT 9999 FEW048 14/10 Q1015",
      "taf": "TAF EPWR 052330Z 0600/0624 27008KT CAVOK"
    },
    {
      "icao": "ESGG",
      "alert": "OK",
      "vis_m": 9999,
      "fzfg": false,
      "metar_trigger": false,
      "taf_trigger": false,
      "metar": "METAR ESGG 052350Z 24008KT CAVOK 12/10 Q1008",
      "taf": "TAF ESGG 052330Z 0600/0624 28008KT CAVOK"
    },
    {
      "icao": "ESKN",
      "alert": "OK",
      "vis_m": 9999,
      "fzfg": false,
      "metar_trigger": false,
      "taf_trigger": false,
      "metar": "METAR ESKN 052350Z 29007KT CAVOK 10/06 Q1006",
      "taf": "TAF ESKN 052330Z 0600/0624 30009KT CAVOK"
    },
    {
      "icao": "ESMS",
      "alert": "OK",
      "vis_m": 9999,
      "fzfg": false,
      "metar_trigger": false,
      "taf_trigger": false,
      "metar": "METAR ESMS 052350Z 30009KT CAVOK 13/07 Q1012",
      "taf": "TAF ESMS 052327Z 0600/0624 28010KT CAVOK"
    },
    {
      "icao": "ESSA",
      "alert": "OK",
      "vis_m": 9999,
      "fzfg": false,
      "metar_trigger": false,
      "taf_trigger": false,
      "metar": "METAR ESSA 052350Z 29008KT CAVOK 08/05 Q1004 NOSIG",
      "taf": "TAF ESSA 052330Z 0600/0624 32012KT 9999 SCT040"
    },
    {
      "icao": "EYKA",
      "alert": "OK",
      "vis_m": 9999,
      "fzfg": false,
      "metar_trigger": false,
      "taf_trigger": false,
      "metar": "METAR EYKA 052350Z 27008KT 9999 -SHRA FEW029CB 13/13 Q1003",
      "taf": "TAF EYKA 052320Z 0600/0624 25006KT 9000 SCT035"
    },
    {
      "icao": "EYPA",
      "alert": "OK",
      "vis_m": 9999,
      "fzfg": false,
      "metar_trigger": false,
      "taf_trigger": false,
      "metar": "METAR EYPA 052350Z 30008KT 250V350 9999 FEW016 SCT032CB OVC091 15/13 Q1003",
      "taf": "TAF EYPA 052310Z 0600/0624 31010KT 9000 BKN025"
    },
    {
      "icao": "EYVI",
      "alert": "OK",
      "vis_m": 9999,
      "fzfg": false,
      "metar_trigger": false,
      "taf_trigger": false,
      "metar": "METAR EYVI 052350Z 26006KT 9999 -SHRA FEW006 SCT021CB 13/12 Q1003 TEMPO BKN005",
      "taf": "TAF EYVI 052320Z 0600/0624 25010KT 9000 BKN015"
    },
    {
      "icao": "GCFV",
      "alert": "OK",
      "vis_m": 9999,
      "fzfg": false,
      "metar_trigger": false,
      "taf_trigger": false,
      "metar": "METAR GCFV 060000Z AUTO 34008KT CAVOK 24/18 Q1017",
      "taf": "TAF GCFV 052000Z 0521/0621 30014KT 9999 FEW020 TX33/0614Z TN22/0606Z"
    },
    {
      "icao": "GCLP",
      "alert": "OK",
      "vis_m": 9999,
      "fzfg": false,
      "metar_trigger": false,
      "taf_trigger": false,
      "metar": "METAR GCLP 060000Z 01024KT 9999 FEW020 22/19 Q1017 NOSIG",
      "taf": "TAF GCLP 052000Z 0521/0621 36021KT 9999 FEW020 TX30/0614Z TN22/0606Z"
    },
    {
      "icao": "GCTS",
      "alert": "OK",
      "vis_m": 9999,
      "fzfg": false,
      "metar_trigger": false,
      "taf_trigger": false,
      "metar": "METAR GCTS 060000Z 29003KT 260V320 9999 FEW020 23/20 Q1018 NOSIG",
      "taf": "TAF GCTS 052000Z 0521/0621 VRB06KT 9999 FEW020 TX31/0614Z TN22/0606Z"
    },
    {
      "icao": "GMAD",
      "alert": "OK",
      "vis_m": 6000,
      "fzfg": false,
      "metar_trigger": false,
      "taf_trigger": false,
      "metar": "METAR GMAD 060000Z 19004KT 170V240 6000 OVC006 22/21 Q1016 NOSIG",
      "taf": "TAF GMAD 052300Z 0600/0706 23004KT 6000 OVC006"
    },
    {
      "icao": "GMMN",
      "alert": "OK",
      "vis_m": 9999,
      "fzfg": false,
      "metar_trigger": false,
      "taf_trigger": false,
      "metar": "METAR GMMN 060000Z VRB02KT CAVOK 24/19 Q1017 NOSIG",
      "taf": "TAF GMMN 052300Z 0600/0706 12003KT CAVOK"
    },
    {
      "icao": "GMMX",
      "alert": "OK",
      "vis_m": 9999,
      "fzfg": false,
      "metar_trigger": false,
      "taf_trigger": false,
      "metar": "METAR GMMX 060000Z 25003KT 200V270 CAVOK 29/14 Q1018 NOSIG",
      "taf": "TAF GMMX 052300Z 0600/0706 02006KT CAVOK"
    },
    {
      "icao": "HEGN",
      "alert": "OK",
      "vis_m": 9999,
      "fzfg": false,
      "metar_trigger": false,
      "taf_trigger": false,
      "metar": "METAR HEGN 052300Z 28009KT CAVOK 32/10 Q1006 NOSIG",
      "taf": "TAF HEGN 052300Z 0600/0706 30010KT CAVOK"
    },
    {
      "icao": "HEMA",
      "alert": "OK",
      "vis_m": 9999,
      "fzfg": false,
      "metar_trigger": false,
      "taf_trigger": false,
      "metar": "METAR HEMA 052300Z 30005KT CAVOK 31/06 Q1005 NOSIG",
      "taf": "TAF HEMA 052300Z 0600/0706 29010KT CAVOK"
    },
    {
      "icao": "HESH",
      "alert": "OK",
      "vis_m": 9999,
      "fzfg": false,
      "metar_trigger": false,
      "taf_trigger": false,
      "metar": "METAR HESH 052300Z 36013KT CAVOK 33/16 Q1004 NOSIG",
      "taf": "TAF HESH 052300Z 0600/0706 33012KT CAVOK"
    },
    {
      "icao": "HESX",
      "alert": "OK",
      "vis_m": 9999,
      "fzfg": false,
      "metar_trigger": false,
      "taf_trigger": false,
      "metar": "METAR HESX 052300Z 04008KT CAVOK 26/20 Q1008 NOSIG",
      "taf": "TAF HESX 052300Z 0600/0706 05006KT CAVOK"
    },
    {
      "icao": "LATI",
      "alert": "OK",
      "vis_m": null,
      "fzfg": false,
      "metar_trigger": false,
      "taf_trigger": false,
      "metar": "",
      "taf": "TAF LATI 052300Z 0600/0624 VRB03KT CAVOK TX34/0611Z TN17/0604Z"
    },
    {
      "icao": "LBPD",
      "alert": "OK",
      "vis_m": 9999,
      "fzfg": false,
      "metar_trigger": false,
      "taf_trigger": false,
      "metar": "METAR LBPD 060000Z AUTO 29008KT 9999 NCD 20/12 Q1016",
      "taf": "TAF LBPD 052300Z 0600/0624 VRB03KT 9999 SCT050"
    },
    {
      "icao": "LBSF",
      "alert": "OK",
      "vis_m": 9999,
      "fzfg": false,
      "metar_trigger": false,
      "taf_trigger": false,
      "metar": "METAR LBSF 060000Z AUTO 13004KT 9999 NCD 12/11 Q1019 NOSIG",
      "taf": "TAF LBSF 052300Z 0600/0624 VRB03KT 9999 SCT050"
    },
    {
      "icao": "LBWN",
      "alert": "OK",
      "vis_m": 9999,
      "fzfg": false,
      "metar_trigger": false,
      "taf_trigger": false,
      "metar": "METAR LBWN 060000Z AUTO 36004KT 9999 NCD 16/16 Q1014 NOSIG",
      "taf": "TAF LBWN 052300Z 0600/0624 VRB04KT 9999 SCT045"
    },
    {
      "icao": "LCLK",
      "alert": "OK",
      "vis_m": 8000,
      "fzfg": false,
      "metar_trigger": false,
      "taf_trigger": false,
      "metar": "METAR LCLK 060000Z 22006KT 8000 NSC 25/25 Q1005 TEMPO 5000 BR BKN008",
      "taf": "TAF LCLK 052330Z 0600/0700 23008KT 8000 FEW015"
    },
    {
      "icao": "LCPH",
      "alert": "OK",
      "vis_m": 9999,
      "fzfg": false,
      "metar_trigger": false,
      "taf_trigger": false,
      "metar": "METAR LCPH 060000Z VRB01KT 9999 SCT016 25/22 Q1005 NOSIG",
      "taf": "TAF LCPH 052330Z 0600/0700 06005KT 9999 FEW015"
    },
    {
      "icao": "LEAL",
      "alert": "OK",
      "vis_m": 9999,
      "fzfg": false,
      "metar_trigger": false,
      "taf_trigger": false,
      "metar": "METAR LEAL 060000Z 28005KT CAVOK 25/16 Q1020 NOSIG",
      "taf": "TAF LEAL 052300Z 0600/0624 VRB04KT CAVOK TX35/0612Z TN21/0606Z"
    },
    {
      "icao": "LEBB",
      "alert": "OK",
      "vis_m": 9999,
      "fzfg": false,
      "metar_trigger": false,
      "taf_trigger": false,
      "metar": "METAR LEBB 060000Z AUTO 08004KT CAVOK 20/14 Q1021",
      "taf": "TAF LEBB 052300Z 0600/0624 08008KT CAVOK TX39/0613Z TN17/0605Z"
    },
    {
      "icao": "LEBL",
      "alert": "OK",
      "vis_m": 9999,
      "fzfg": false,
      "metar_trigger": false,
      "taf_trigger": false,
      "metar": "METAR LEBL 060000Z 31006KT 9999 FEW030 26/13 Q1019 NOSIG",
      "taf": "TAF LEBL 052300Z 0600/0624 33005KT CAVOK TX32/0613Z TN24/0606Z"
    },
    {
      "icao": "LECH",
      "alert": "OK",
      "vis_m": 9999,
      "fzfg": false,
      "metar_trigger": false,
      "taf_trigger": false,
      "metar": "METAR LECH 060000Z AUTO 20005KT CAVOK 23/11 Q1022",
      "taf": "TAF LECH 052300Z 0600/0624 24005KT CAVOK TX38/0612Z TN19/0606Z"
    },
    {
      "icao": "LEMD",
      "alert": "OK",
      "vis_m": 9999,
      "fzfg": false,
      "metar_trigger": false,
      "taf_trigger": false,
      "metar": "METAR LEMD 060000Z 33003KT CAVOK 27/08 Q1020 NOSIG",
      "taf": "TAF LEMD 052300Z 0600/0706 VRB04KT CAVOK TX40/0616Z TN22/0606Z"
    },
    {
      "icao": "LEMG",
      "alert": "OK",
      "vis_m": 9999,
      "fzfg": false,
      "metar_trigger": false,
      "taf_trigger": false,
      "metar": "METAR LEMG 060000Z 28004KT CAVOK 23/18 Q1020 NOSIG",
      "taf": "TAF LEMG 052300Z 0600/0624 29007KT CAVOK TX30/0614Z TN20/0606Z"
    },
    {
      "icao": "LEVC",
      "alert": "OK",
      "vis_m": 9999,
      "fzfg": false,
      "metar_trigger": false,
      "taf_trigger": false,
      "metar": "METAR LEVC 060000Z 33005KT CAVOK 26/13 Q1020 NOSIG",
      "taf": "TAF LEVC 052300Z 0600/0624 VRB04KT CAVOK TX38/0612Z TN22/0606Z"
    },
    {
      "icao": "LEXJ",
      "alert": "OK",
      "vis_m": 9999,
      "fzfg": false,
      "metar_trigger": false,
      "taf_trigger": false,
      "metar": "METAR LEXJ 060000Z AUTO 20004KT CAVOK 20/15 Q1019",
      "taf": ""
    },
    {
      "icao": "LEZG",
      "alert": "OK",
      "vis_m": 9999,
      "fzfg": false,
      "metar_trigger": false,
      "taf_trigger": false,
      "metar": "METAR LEZG 060000Z 27008KT CAVOK 26/11 Q1019 NOSIG",
      "taf": "TAF LEZG 052300Z 0600/0624 29006KT CAVOK TX42/0615Z TN23/0606Z"
    },
    {
      "icao": "LEZL",
      "alert": "OK",
      "vis_m": 9999,
      "fzfg": false,
      "metar_trigger": false,
      "taf_trigger": false,
      "metar": "METAR LEZL 060000Z AUTO 29007KT CAVOK 31/14 Q1017",
      "taf": "TAF LEZL 052000Z 0521/0621 23010KT CAVOK TX42/0615Z TN23/0605Z"
    },
    {
      "icao": "LFBD",
      "alert": "OK",
      "vis_m": 9999,
      "fzfg": false,
      "metar_trigger": false,
      "taf_trigger": false,
      "metar": "METAR LFBD 060000Z AUTO 02003KT CAVOK 23/15 Q1021 NOSIG",
      "taf": "TAF LFBD 052300Z 0600/0706 02005KT CAVOK TX40/0615Z TN22/0605Z"
    },
    {
      "icao": "LFLL",
      "alert": "OK",
      "vis_m": 9999,
      "fzfg": false,
      "metar_trigger": false,
      "taf_trigger": false,
      "metar": "METAR LFLL 060000Z VRB02KT CAVOK 23/12 Q1022 NOSIG",
      "taf": "TAF LFLL 052300Z 0600/0706 VRB02KT CAVOK"
    },
    {
      "icao": "LFLS",
      "alert": "OK",
      "vis_m": 9999,
      "fzfg": false,
      "metar_trigger": false,
      "taf_trigger": false,
      "metar": "METAR LFLS 060000Z AUTO 13004KT CAVOK 17/10 Q1022",
      "taf": "TAF LFLS 051400Z 0515/0615 35013KT CAVOK"
    },
    {
      "icao": "LFMN",
      "alert": "OK",
      "vis_m": 9999,
      "fzfg": false,
      "metar_trigger": false,
      "taf_trigger": false,
      "metar": "METAR LFMN 060000Z 04004KT CAVOK 24/18 Q1016 NOSIG",
      "taf": "TAF LFMN 052000Z 0521/0703 VRB04KT CAVOK"
    },
    {
      "icao": "LFOB",
      "alert": "OK",
      "vis_m": 9999,
      "fzfg": false,
      "metar_trigger": false,
      "taf_trigger": false,
      "metar": "METAR LFOB 060000Z AUTO 31002KT CAVOK 14/12 Q1023 NOSIG",
      "taf": "TAF LFOB 052300Z 0600/0624 VRB03KT CAVOK"
    },
    {
      "icao": "LFPO",
      "alert": "OK",
      "vis_m": 9999,
      "fzfg": false,
      "metar_trigger": false,
      "taf_trigger": false,
      "metar": "METAR LFPO 060000Z AUTO 31004KT CAVOK 21/14 Q1023 NOSIG",
      "taf": "TAF LFPO 052300Z 0600/0706 32006KT CAVOK"
    },
    {
      "icao": "LFSB",
      "alert": "OK",
      "vis_m": 9999,
      "fzfg": false,
      "metar_trigger": false,
      "taf_trigger": false,
      "metar": "METAR LFSB 060000Z AUTO 25004KT CAVOK 18/13 Q1022 NOSIG",
      "taf": "TAF LFSB 052300Z 0600/0624 30010KT CAVOK"
    },
    {
      "icao": "LGAV",
      "alert": "OK",
      "vis_m": 9999,
      "fzfg": false,
      "metar_trigger": false,
      "taf_trigger": false,
      "metar": "METAR LGAV 052350Z 36008KT CAVOK 23/07 Q1014 NOSIG",
      "taf": "TAF LGAV 052300Z 0600/0624 02015KT 9999 FEW025"
    },
    {
      "icao": "LGTS",
      "alert": "OK",
      "vis_m": 9999,
      "fzfg": false,
      "metar_trigger": false,
      "taf_trigger": false,
      "metar": "METAR LGTS 052350Z VRB02KT 9999 FEW025 21/13 Q1015 NOSIG",
      "taf": "TAF LGTS 052300Z 0600/0624 33013KT 9999 FEW030"
    },
    {
      "icao": "LHBP",
      "alert": "OK",
      "vis_m": 9999,
      "fzfg": false,
      "metar_trigger": false,
      "taf_trigger": false,
      "metar": "METAR LHBP 060000Z 32011KT CAVOK 20/12 Q1016 NOSIG",
      "taf": "TAF LHBP 052315Z 0600/0624 30007KT CAVOK"
    },
    {
      "icao": "LHDC",
      "alert": "OK",
      "vis_m": 9999,
      "fzfg": false,
      "metar_trigger": false,
      "taf_trigger": false,
      "metar": "METAR LHDC 052345Z AUTO 31005KT 280V340 CAVOK 18/11 Q1014 NOSIG",
      "taf": "TAF LHDC 052315Z 0600/0609 VRB03KT CAVOK"
    },
    {
      "icao": "LIBD",
      "alert": "OK",
      "vis_m": 9999,
      "fzfg": false,
      "metar_trigger": false,
      "taf_trigger": false,
      "metar": "METAR LIBD 052350Z 23006KT CAVOK 20/09 Q1016",
      "taf": "TAF LIBD 052300Z 0600/0624 VRB05KT CAVOK"
    },
    {
      "icao": "LIBG",
      "alert": "OK",
      "vis_m": 9999,
      "fzfg": false,
      "metar_trigger": false,
      "taf_trigger": false,
      "metar": "METAR LIBG 052350Z AUTO 35006KT 9999 NCD 23/13 Q1016",
      "taf": "TAF LIBG 052300Z 0600/0624 VRB05KT CAVOK"
    },
    {
      "icao": "LIBP",
      "alert": "OK",
      "vis_m": 9999,
      "fzfg": false,
      "metar_trigger": false,
      "taf_trigger": false,
      "metar": "METAR LIBP 052350Z AUTO VRB03KT 9999 -RA OVC110/// 24/13 Q1017",
      "taf": "TAF LIBP 052300Z 0600/0624 VRB05KT CAVOK"
    },
    {
      "icao": "LIBR",
      "alert": "OK",
      "vis_m": 9999,
      "fzfg": false,
      "metar_trigger": false,
      "taf_trigger": false,
      "metar": "METAR LIBR 052350Z 32009KT 290V350 CAVOK 25/18 Q1015",
      "taf": "TAF LIBR 052300Z 0600/0624 34012KT CAVOK"
    },
    {
      "icao": "LICA",
      "alert": "OK",
      "vis_m": 9999,
      "fzfg": false,
      "metar_trigger": false,
      "taf_trigger": false,
      "metar": "METAR LICA 052350Z AUTO VRB02KT 9999 NCD 21/16 Q1017",
      "taf": "TAF LICA 052300Z 0600/0624 VRB05KT CAVOK"
    },
    {
      "icao": "LICC",
      "alert": "OK",
      "vis_m": 9999,
      "fzfg": false,
      "metar_trigger": false,
      "taf_trigger": false,
      "metar": "METAR LICC 052350Z 27006KT CAVOK 23/14 Q1017",
      "taf": "TAF LICC 052300Z 0600/0624 26006KT CAVOK"
    },
    {
      "icao": "LICJ",
      "alert": "OK",
      "vis_m": 9999,
      "fzfg": false,
      "metar_trigger": false,
      "taf_trigger": false,
      "metar": "METAR LICJ 052350Z 08004KT CAVOK 25/16 Q1018",
      "taf": "TAF LICJ 052300Z 0600/0624 VRB05KT CAVOK"
    },
    {
      "icao": "LIMC",
      "alert": "OK",
      "vis_m": 9999,
      "fzfg": false,
      "metar_trigger": false,
      "taf_trigger": false,
      "metar": "METAR LIMC 052350Z 02006KT CAVOK 21/14 Q1017 NOSIG",
      "taf": "TAF LIMC 052300Z 0600/0706 VRB05KT CAVOK"
    },
    {
      "icao": "LIME",
      "alert": "OK",
      "vis_m": 9999,
      "fzfg": false,
      "metar_trigger": false,
      "taf_trigger": false,
      "metar": "METAR LIME 052350Z 11005KT 080V140 9999 FEW080 24/15 Q1017 NOSIG",
      "taf": "TAF LIME 052300Z 0600/0624 VRB06KT CAVOK"
    },
    {
      "icao": "LIMF",
      "alert": "OK",
      "vis_m": 9999,
      "fzfg": false,
      "metar_trigger": false,
      "taf_trigger": false,
      "metar": "METAR LIMF 052350Z 19003KT 140V240 CAVOK 23/15 Q1017",
      "taf": "TAF LIMF 052300Z 0600/0624 VRB05KT CAVOK"
    },
    {
      "icao": "LIMJ",
      "alert": "OK",
      "vis_m": 9999,
      "fzfg": false,
      "metar_trigger": false,
      "taf_trigger": false,
      "metar": "METAR LIMJ 052350Z 06004KT CAVOK 25/18 Q1016",
      "taf": "TAF LIMJ 052300Z 0600/0624 02006KT CAVOK"
    },
    {
      "icao": "LIPE",
      "alert": "OK",
      "vis_m": 9999,
      "fzfg": false,
      "metar_trigger": false,
      "taf_trigger": false,
      "metar": "METAR LIPE 052350Z AUTO 20007KT 9999 NCD 24/17 Q1015",
      "taf": "TAF LIPE 052300Z 0600/0624 VRB05KT CAVOK"
    },
    {
      "icao": "LIPH",
      "alert": "OK",
      "vis_m": 9999,
      "fzfg": false,
      "metar_trigger": false,
      "taf_trigger": false,
      "metar": "METAR LIPH 052350Z AUTO 05004KT 020V080 9999 FEW160/// 21/18 Q1016",
      "taf": "TAF LIPH 052300Z 0600/0624 VRB05KT 9999 FEW040"
    },
    {
      "icao": "LIPQ",
      "alert": "OK",
      "vis_m": 9999,
      "fzfg": false,
      "metar_trigger": false,
      "taf_trigger": false,
      "metar": "METAR LIPQ 052350Z AUTO 01007KT 9999 RA VCTS OVC100/// 20/18 Q1017",
      "taf": "TAF LIPQ 052300Z 0600/0624 VRB05KT 9999 FEW040"
    },
    {
      "icao": "LIPR",
      "alert": "OK",
      "vis_m": 9999,
      "fzfg": false,
      "metar_trigger": false,
      "taf_trigger": false,
      "metar": "METAR LIPR 052350Z AUTO VRB02KT 9999 BKN160/// 22/15 Q1015",
      "taf": "TAF LIPR 052300Z 0600/0624 VRB05KT CAVOK"
    },
    {
      "icao": "LIPX",
      "alert": "OK",
      "vis_m": 9999,
      "fzfg": false,
      "metar_trigger": false,
      "taf_trigger": false,
      "metar": "METAR LIPX 052350Z 12003KT CAVOK 24/18 Q1015",
      "taf": "TAF LIPX 052300Z 0600/0624 VRB05KT CAVOK"
    },
    {
      "icao": "LIPY",
      "alert": "OK",
      "vis_m": 9999,
      "fzfg": false,
      "metar_trigger": false,
      "taf_trigger": false,
      "metar": "METAR LIPY 052350Z AUTO 20005KT 9999 SCT160/// 23/13 Q1015",
      "taf": "TAF LIPY 052300Z 0600/0624 VRB05KT CAVOK"
    },
    {
      "icao": "LIPZ",
      "alert": "OK",
      "vis_m": 9999,
      "fzfg": false,
      "metar_trigger": false,
      "taf_trigger": false,
      "metar": "METAR LIPZ 052350Z 05008KT CAVOK 23/18 Q1016 NOSIG",
      "taf": "TAF LIPZ 052300Z 0600/0706 16010KT 9999 FEW040"
    },
    {
      "icao": "LIRF",
      "alert": "OK",
      "vis_m": 9999,
      "fzfg": false,
      "metar_trigger": false,
      "taf_trigger": false,
      "metar": "METAR LIRF 052350Z 09002KT CAVOK 23/21 Q1017 NOSIG",
      "taf": "TAF LIRF 052300Z 0600/0706 VRB05KT CAVOK"
    },
    {
      "icao": "LIRN",
      "alert": "OK",
      "vis_m": 9999,
      "fzfg": false,
      "metar_trigger": false,
      "taf_trigger": false,
      "metar": "METAR LIRN 052350Z VRB01KT CAVOK 25/16 Q1017 NOSIG",
      "taf": "TAF LIRN 052300Z 0600/0624 VRB05KT CAVOK"
    },
    {
      "icao": "LIRP",
      "alert": "OK",
      "vis_m": 9999,
      "fzfg": false,
      "metar_trigger": false,
      "taf_trigger": false,
      "metar": "METAR LIRP 052345Z 22003KT CAVOK 20/19 Q1016 NOSIG",
      "taf": "TAF LIRP 052300Z 0600/0624 VRB03KT CAVOK"
    },
    {
      "icao": "LIRZ",
      "alert": "OK",
      "vis_m": 9999,
      "fzfg": false,
      "metar_trigger": false,
      "taf_trigger": false,
      "metar": "METAR LIRZ 052350Z AUTO 17002KT 9999 NCD 22/18 Q1017",
      "taf": "TAF LIRZ 052300Z 0600/0624 VRB05KT 9999 FEW040"
    },
    {
      "icao": "LJLJ",
      "alert": "OK",
      "vis_m": 9999,
      "fzfg": false,
      "metar_trigger": false,
      "taf_trigger": false,
      "metar": "METAR LJLJ 060000Z 04006KT 9999 -SHRA FEW050TCU BKN075 BKN100 17/15 Q1019 NOSIG",
      "taf": "TAF LJLJ 052300Z 0600/0700 VRB02KT 9999 SCT090"
    },
    {
      "icao": "LKMT",
      "alert": "OK",
      "vis_m": 9999,
      "fzfg": false,
      "metar_trigger": false,
      "taf_trigger": false,
      "metar": "METAR LKMT 060000Z 21007KT CAVOK 15/13 Q1016 NOSIG",
      "taf": "TAF LKMT 052300Z 0600/0624 22008KT CAVOK"
    },
    {
      "icao": "LKPR",
      "alert": "OK",
      "vis_m": 9999,
      "fzfg": false,
      "metar_trigger": false,
      "taf_trigger": false,
      "metar": "METAR LKPR 060000Z 27004KT 9999 SCT030TCU 16/14 Q1018 TEMPO SHRA",
      "taf": "TAF LKPR 052300Z 0600/0706 27010KT 9999 SCT045"
    },
    {
      "icao": "LLBG",
      "alert": "OK",
      "vis_m": 9999,
      "fzfg": false,
      "metar_trigger": false,
      "taf_trigger": false,
      "metar": "METAR LLBG 052350Z 16006KT 9999 FEW016 SCT020 26/22 Q1007 NOSIG",
      "taf": "TAF LLBG 052301Z 0600/0624 VRB04KT 9999 SCT023 TX31/0611Z TN25/0603Z"
    },
    {
      "icao": "LMML",
      "alert": "OK",
      "vis_m": 9999,
      "fzfg": false,
      "metar_trigger": false,
      "taf_trigger": false,
      "metar": "METAR LMML 060015Z 12005KT 9999 FEW015 24/22 Q1016 NOSIG",
      "taf": "TAF LMML 052300Z 0600/0624 16006KT 9999 FEW015"
    },
    {
      "icao": "LOWW",
      "alert": "OK",
      "vis_m": 9999,
      "fzfg": false,
      "metar_trigger": false,
      "taf_trigger": false,
      "metar": "METAR LOWW 052350Z 29012KT 9999 FEW050 21/12 Q1018 NOSIG",
      "taf": "TAF LOWW 052315Z 0600/0706 29010KT 9999 FEW050 TX24/0614Z TN18/0703Z"
    },
    {
      "icao": "LPFR",
      "alert": "OK",
      "vis_m": 9999,
      "fzfg": false,
      "metar_trigger": false,
      "taf_trigger": false,
      "metar": "METAR LPFR 060000Z 02004KT CAVOK 27/17 Q1018",
      "taf": "TAF LPFR 052300Z 0600/0624 VRB02KT CAVOK"
    },
    {
      "icao": "LPMA",
      "alert": "OK",
      "vis_m": 9999,
      "fzfg": false,
      "metar_trigger": false,
      "taf_trigger": false,
      "metar": "METAR LPMA 060000Z 32005KT 9999 BKN016 22/17 Q1019",
      "taf": "TAF LPMA 052300Z 0600/0624 VRB05KT 9999 SCT016"
    },
    {
      "icao": "LPPR",
      "alert": "OK",
      "vis_m": 9999,
      "fzfg": false,
      "metar_trigger": false,
      "taf_trigger": false,
      "metar": "METAR LPPR 060000Z 00000KT CAVOK 20/18 Q1018",
      "taf": "TAF LPPR 052300Z 0600/0624 VRB02KT CAVOK"
    },
    {
      "icao": "LPPS",
      "alert": "OK",
      "vis_m": 9999,
      "fzfg": false,
      "metar_trigger": false,
      "taf_trigger": false,
      "metar": "METAR LPPS 060000Z 33004KT 300V360 9999 SCT014 SCT030 21/17 Q1019",
      "taf": "TAF LPPS 052300Z 0600/0706 34007KT 9999 SCT015 SCT030"
    },
    {
      "icao": "LPPT",
      "alert": "OK",
      "vis_m": 9999,
      "fzfg": false,
      "metar_trigger": false,
      "taf_trigger": false,
      "metar": "METAR LPPT 060000Z VRB02KT CAVOK 27/08 Q1018 NOSIG",
      "taf": "TAF LPPT 052300Z 0600/0706 VRB02KT CAVOK"
    },
    {
      "icao": "LQBK",
      "alert": "OK",
      "vis_m": 9999,
      "fzfg": false,
      "metar_trigger": false,
      "taf_trigger": false,
      "metar": "METAR LQBK 060000Z 15003KT 130V270 CAVOK 17/13 Q1018 NOSIG",
      "taf": "TAF LQBK 052300Z 0600/0624 33005KT CAVOK TX28/0614Z TN16/0603Z"
    },
    {
      "icao": "LQSA",
      "alert": "OK",
      "vis_m": 9999,
      "fzfg": false,
      "metar_trigger": false,
      "taf_trigger": false,
      "metar": "METAR LQSA 060000Z 00000KT CAVOK 15/11 Q1020",
      "taf": "TAF LQSA 052300Z 0600/0624 VRB02KT CAVOK TX27/0614Z TN12/0603Z"
    },
    {
      "icao": "LQTZ",
      "alert": "OK",
      "vis_m": 9999,
      "fzfg": false,
      "metar_trigger": false,
      "taf_trigger": false,
      "metar": "METAR LQTZ 060000Z 00000KT CAVOK 14/14 Q1019",
      "taf": "TAF LQTZ 052300Z 0600/0624 03005KT CAVOK TX27/0614Z TN13/0603Z"
    },
    {
      "icao": "LRBC",
      "alert": "OK",
      "vis_m": 9999,
      "fzfg": false,
      "metar_trigger": false,
      "taf_trigger": false,
      "metar": "METAR LRBC 060000Z 15003KT CAVOK 14/12 Q1013",
      "taf": "TAF LRBC 052300Z 0600/0609 VRB04KT CAVOK"
    },
    {
      "icao": "LRBS",
      "alert": "OK",
      "vis_m": 9999,
      "fzfg": false,
      "metar_trigger": false,
      "taf_trigger": false,
      "metar": "METAR LRBS 060000Z 00000KT CAVOK 17/14 Q1014 NOSIG",
      "taf": "TAF LRBS 052300Z 0600/0624 VRB04KT CAVOK"
    },
    {
      "icao": "LRBV",
      "alert": "OK",
      "vis_m": 9999,
      "fzfg": false,
      "metar_trigger": false,
      "taf_trigger": false,
      "metar": "METAR LRBV 060000Z AUTO 20004KT 170V240 9999 BKN071/// 15/10 Q1016",
      "taf": "TAF LRBV 051700Z 0518/0603 27007KT CAVOK"
    },
    {
      "icao": "LRCL",
      "alert": "OK",
      "vis_m": 9999,
      "fzfg": false,
      "metar_trigger": false,
      "taf_trigger": false,
      "metar": "METAR LRCL 060000Z 00000KT CAVOK 15/12 Q1015",
      "taf": "TAF LRCL 052300Z 0600/0609 VRB04KT CAVOK"
    },
    {
      "icao": "LRCV",
      "alert": "OK",
      "vis_m": 9999,
      "fzfg": false,
      "metar_trigger": false,
      "taf_trigger": false,
      "metar": "METAR LRCV 060000Z 30003KT 270V360 CAVOK 18/12 Q1015",
      "taf": "TAF LRCV 052300Z 0600/0609 VRB04KT CAVOK"
    },
    {
      "icao": "LRIA",
      "alert": "OK",
      "vis_m": 9999,
      "fzfg": false,
      "metar_trigger": false,
      "taf_trigger": false,
      "metar": "METAR LRIA 060000Z 22002KT CAVOK 17/11 Q1013",
      "taf": "TAF LRIA 052300Z 0600/0609 VRB04KT CAVOK"
    },
    {
      "icao": "LROP",
      "alert": "OK",
      "vis_m": 9999,
      "fzfg": false,
      "metar_trigger": false,
      "taf_trigger": false,
      "metar": "METAR LROP 060000Z 30003KT CAVOK 17/15 Q1014 NOSIG",
      "taf": "TAF LROP 052300Z 0600/0624 VRB04KT CAVOK"
    },
    {
      "icao": "LRSB",
      "alert": "OK",
      "vis_m": 9999,
      "fzfg": false,
      "metar_trigger": false,
      "taf_trigger": false,
      "metar": "METAR LRSB 060000Z VRB01KT CAVOK 14/12 Q1016",
      "taf": "TAF LRSB 052300Z 0600/0624 VRB04KT CAVOK"
    },
    {
      "icao": "LRSM",
      "alert": "OK",
      "vis_m": 9999,
      "fzfg": false,
      "metar_trigger": false,
      "taf_trigger": false,
      "metar": "METAR LRSM 060000Z AUTO 05007KT 9999 BKN055/// BKN090/// 19/13 Q1014",
      "taf": ""
    },
    {
      "icao": "LRSV",
      "alert": "OK",
      "vis_m": 9999,
      "fzfg": false,
      "metar_trigger": false,
      "taf_trigger": false,
      "metar": "METAR LRSV 060000Z 29006KT CAVOK 17/10 Q1013",
      "taf": "TAF LRSV 052300Z 0600/0609 24006KT CAVOK"
    },
    {
      "icao": "LRTM",
      "alert": "OK",
      "vis_m": 9999,
      "fzfg": false,
      "metar_trigger": false,
      "taf_trigger": false,
      "metar": "METAR LRTM 060000Z 00000KT CAVOK 14/13 Q1015",
      "taf": "TAF LRTM 052300Z 0600/0609 VRB04KT CAVOK"
    },
    {
      "icao": "LRTR",
      "alert": "OK",
      "vis_m": 9999,
      "fzfg": false,
      "metar_trigger": false,
      "taf_trigger": false,
      "metar": "METAR LRTR 060000Z 30005KT CAVOK 17/12 Q1016",
      "taf": "TAF LRTR 052300Z 0600/0624 32007KT CAVOK"
    },
    {
      "icao": "LTAC",
      "alert": "OK",
      "vis_m": 9999,
      "fzfg": false,
      "metar_trigger": false,
      "taf_trigger": false,
      "metar": "METAR LTAC 052350Z 04009KT 9999 FEW040 SCT100 16/11 Q1015 NOSIG",
      "taf": "TAF LTAC 052240Z 0600/0624 03009KT 9999 SCT040"
    },
    {
      "icao": "LTFM",
      "alert": "OK",
      "vis_m": 9999,
      "fzfg": false,
      "metar_trigger": false,
      "taf_trigger": false,
      "metar": "METAR LTFM 052350Z 16003KT 110V180 CAVOK 21/14 Q1015 NOSIG",
      "taf": "TAF LTFM 052240Z 0600/0706 VRB02KT CAVOK"
    },
    {
      "icao": "LUKK",
      "alert": "OK",
      "vis_m": 9999,
      "fzfg": false,
      "metar_trigger": false,
      "taf_trigger": false,
      "metar": "METAR LUKK 060000Z 25003KT CAVOK 15/11 Q1012 NOSIG",
      "taf": "TAF LUKK 052317Z 0600/0624 VRB04KT CAVOK"
    },
    {
      "icao": "LWOH",
      "alert": "OK",
      "vis_m": null,
      "fzfg": false,
      "metar_trigger": false,
      "taf_trigger": false,
      "metar": "",
      "taf": "TAF LWOH 052330Z 0600/0624 33006KT CAVOK"
    },
    {
      "icao": "LWSK",
      "alert": "OK",
      "vis_m": null,
      "fzfg": false,
      "metar_trigger": false,
      "taf_trigger": false,
      "metar": "",
      "taf": "TAF LWSK 052330Z 0600/0624 VRB02KT CAVOK"
    },
    {
      "icao": "LYBE",
      "alert": "OK",
      "vis_m": 9999,
      "fzfg": false,
      "metar_trigger": false,
      "taf_trigger": false,
      "metar": "METAR LYBE 060000Z 27005KT CAVOK 17/14 Q1017 NOSIG",
      "taf": "TAF LYBE 052300Z 0600/0624 24005KT CAVOK TX28/0613Z TN16/0603Z"
    },
    {
      "icao": "LYNI",
      "alert": "OK",
      "vis_m": 9999,
      "fzfg": false,
      "metar_trigger": false,
      "taf_trigger": false,
      "metar": "METAR LYNI 060000Z VRB01KT CAVOK 16/11 Q1018 NOSIG",
      "taf": "TAF LYNI 052300Z 0600/0624 09005KT CAVOK TX29/0613Z TN13/0603Z"
    },
    {
      "icao": "LYPG",
      "alert": "OK",
      "vis_m": 9999,
      "fzfg": false,
      "metar_trigger": false,
      "taf_trigger": false,
      "metar": "METAR LYPG 060000Z 32004KT CAVOK 24/09 Q1016 NOSIG",
      "taf": "TAF LYPG 052300Z 0600/0624 34007KT CAVOK TX34/0612Z TN22/0603Z"
    },
    {
      "icao": "LZIB",
      "alert": "OK",
      "vis_m": 9999,
      "fzfg": false,
      "metar_trigger": false,
      "taf_trigger": false,
      "metar": "METAR LZIB 060000Z 27006KT CAVOK 19/14 Q1017 NOSIG",
      "taf": "TAF LZIB 052315Z 0600/0700 27007KT CAVOK"
    },
    {
      "icao": "LZKZ",
      "alert": "OK",
      "vis_m": 9999,
      "fzfg": false,
      "metar_trigger": false,
      "taf_trigger": false,
      "metar": "METAR LZKZ 060000Z VRB03KT CAVOK 15/13 Q1015 NOSIG",
      "taf": "TAF LZKZ 052315Z 0600/0700 36004KT CAVOK"
    },
    {
      "icao": "LZTT",
      "alert": "OK",
      "vis_m": 9999,
      "fzfg": false,
      "metar_trigger": false,
      "taf_trigger": false,
      "metar": "METAR LZTT 060000Z 29008KT 9999 FEW063 13/10 Q1016",
      "taf": "TAF LZTT 052315Z 0600/0700 26009KT 9999 SCT012 BKN060"
    },
    {
      "icao": "OEJN",
      "alert": "OK",
      "vis_m": 9999,
      "fzfg": false,
      "metar_trigger": false,
      "taf_trigger": false,
      "metar": "METAR OEJN 060000Z 35005KT CAVOK 31/17 Q1001 NOSIG",
      "taf": "TAF OEJN 052300Z 0600/0706 30005KT 9999 FEW040"
    },
    {
      "icao": "OEMA",
      "alert": "OK",
      "vis_m": 9999,
      "fzfg": false,
      "metar_trigger": false,
      "taf_trigger": false,
      "metar": "METAR OEMA 060000Z 11003KT CAVOK 35/01 Q1009 NOSIG",
      "taf": "TAF OEMA 052300Z 0600/0706 32005KT CAVOK"
    },
    {
      "icao": "OJAI",
      "alert": "OK",
      "vis_m": 5000,
      "fzfg": false,
      "metar_trigger": false,
      "taf_trigger": false,
      "metar": "METAR OJAI 060000Z 23005KT 5000 HZ NSC 20/16 Q1012 NOSIG",
      "taf": "TAF OJAI 052300Z 0600/0706 29010KT 5000 HZ FEW035"
    },
    {
      "icao": "OMAA",
      "alert": "OK",
      "vis_m": 9999,
      "fzfg": false,
      "metar_trigger": false,
      "taf_trigger": false,
      "metar": "METAR OMAA 060000Z 18002KT CAVOK 30/16 Q0997 NOSIG",
      "taf": "TAF OMAA 052300Z 0600/0706 21005KT 8000 NSC"
    },
    {
      "icao": "OMDB",
      "alert": "OK",
      "vis_m": 9999,
      "fzfg": false,
      "metar_trigger": false,
      "taf_trigger": false,
      "metar": "METAR OMDB 060000Z 19007KT 130V230 CAVOK 33/15 Q0997 NOSIG",
      "taf": "TAF OMDB 052300Z 0600/0706 18005KT 8000 NSC"
    },
    {
      "icao": "UAAA",
      "alert": "OK",
      "vis_m": 9999,
      "fzfg": false,
      "metar_trigger": false,
      "taf_trigger": false,
      "metar": "METAR UAAA 060000Z 20003MPS 9999 FEW100 SCT200 17/11 Q1009 NOSIG",
      "taf": "TAF UAAA 052303Z 0600/0624 22003MPS 9999 FEW050 SCT100 TX30/0610Z TN15/0600Z"
    },
    {
      "icao": "UBBB",
      "alert": "OK",
      "vis_m": 9999,
      "fzfg": false,
      "metar_trigger": false,
      "taf_trigger": false,
      "metar": "METAR UBBB 060000Z 30004KT CAVOK 23/22 Q1008 NOSIG",
      "taf": "TAF UBBB 052259Z 0600/0624 32005KT CAVOK TX30/0610Z TN22/0601Z"
    },
    {
      "icao": "UDSG",
      "alert": "OK",
      "vis_m": 9999,
      "fzfg": false,
      "metar_trigger": false,
      "taf_trigger": false,
      "metar": "METAR UDSG 060000Z 32003KT 260V340 9999 BKN043CB 15/15 Q1017 NOSIG",
      "taf": "TAF UDSG 052258Z 0600/0624 06006KT 9999 SCT040"
    },
    {
      "icao": "UDYZ",
      "alert": "OK",
      "vis_m": 9999,
      "fzfg": false,
      "metar_trigger": false,
      "taf_trigger": false,
      "metar": "METAR UDYZ 060000Z 04007KT 9999 VCTS SCT043CB 23/13 Q1011 NOSIG",
      "taf": "TAF UDYZ 052300Z 0600/0624 04006KT 9999 SCT040"
    },
    {
      "icao": "UGKO",
      "alert": "OK",
      "vis_m": 9999,
      "fzfg": false,
      "metar_trigger": false,
      "taf_trigger": false,
      "metar": "METAR UGKO 060000Z 07003KT 9999 SCT031 19/18 Q1011 NOSIG",
      "taf": "TAF UGKO 052300Z 0600/0624 26007KT 9999 SCT030 TX26/0611Z TN19/0602Z"
    }
  ]
}