{
  "ts_utc": "2026-06-28T14:10:22Z",
  "threshold_m": 150,
  "source": "stations_override.txt (ICAO list) + aviationweather.gov (METAR/TAF raw)",
  "station_count": 159,
  "stations": [
    {
      "icao": "BIKF",
      "alert": "OK",
      "vis_m": 9999,
      "fzfg": false,
      "metar_trigger": false,
      "taf_trigger": false,
      "metar": "METAR BIKF 281400Z 36004KT 320V030 9999 FEW032 SCT064 OVC088 11/06 Q0993",
      "taf": "TAF BIKF 281356Z 2815/2915 36007KT 9999 -RA SCT030 BKN045 TX11/2815Z TN09/2904Z"
    },
    {
      "icao": "BKPR",
      "alert": "OK",
      "vis_m": 9999,
      "fzfg": false,
      "metar_trigger": false,
      "taf_trigger": false,
      "metar": "METAR BKPR 281400Z 03011KT 9999 FEW060 32/16 Q1021 NOSIG",
      "taf": "TAF BKPR 281130Z 2812/2912 VRB05KT 9999 FEW050"
    },
    {
      "icao": "EBCI",
      "alert": "OK",
      "vis_m": 9999,
      "fzfg": false,
      "metar_trigger": false,
      "taf_trigger": false,
      "metar": "METAR EBCI 281350Z 26007KT 230V310 9999 FEW030 26/19 Q1021 NOSIG",
      "taf": "TAF EBCI 281114Z 2812/2918 28008KT 9999 FEW040"
    },
    {
      "icao": "EDDB",
      "alert": "OK",
      "vis_m": 9999,
      "fzfg": false,
      "metar_trigger": false,
      "taf_trigger": false,
      "metar": "METAR EDDB 281350Z AUTO 29010KT 250V330 9999 -SHRA FEW///CB 40/18 Q1014 NOSIG",
      "taf": "TAF EDDB 281100Z 2812/2912 29009KT CAVOK"
    },
    {
      "icao": "EDDH",
      "alert": "OK",
      "vis_m": 9999,
      "fzfg": false,
      "metar_trigger": false,
      "taf_trigger": false,
      "metar": "METAR EDDH 281350Z AUTO 32007KT 280V020 9999 FEW036 30/22 Q1017 NOSIG",
      "taf": ""
    },
    {
      "icao": "EDDK",
      "alert": "OK",
      "vis_m": 9999,
      "fzfg": false,
      "metar_trigger": false,
      "taf_trigger": false,
      "metar": "METAR EDDK 281350Z AUTO VRB05KT CAVOK 33/16 Q1018 NOSIG",
      "taf": "TAF EDDK 281100Z 2812/2918 22005KT CAVOK"
    },
    {
      "icao": "EDDN",
      "alert": "OK",
      "vis_m": 9999,
      "fzfg": false,
      "metar_trigger": false,
      "taf_trigger": false,
      "metar": "METAR EDDN 281350Z AUTO 26013KT CAVOK 36/15 Q1018 NOSIG",
      "taf": ""
    },
    {
      "icao": "EDDS",
      "alert": "OK",
      "vis_m": 9999,
      "fzfg": false,
      "metar_trigger": false,
      "taf_trigger": false,
      "metar": "METAR EDDS 281350Z AUTO 03005KT 320V130 CAVOK 35/14 Q1019 NOSIG",
      "taf": "TAF EDDS 281100Z 2812/2912 07004KT CAVOK"
    },
    {
      "icao": "EDFH",
      "alert": "OK",
      "vis_m": 9999,
      "fzfg": false,
      "metar_trigger": false,
      "taf_trigger": false,
      "metar": "METAR EDFH 281350Z 24009KT 190V310 CAVOK 32/13 Q1021",
      "taf": "TAF EDFH 281100Z 2812/2912 28009KT CAVOK"
    },
    {
      "icao": "EDJA",
      "alert": "OK",
      "vis_m": 9999,
      "fzfg": false,
      "metar_trigger": false,
      "taf_trigger": false,
      "metar": "METAR EDJA 281350Z COR 14003KT 070V220 CAVOK 30/17 Q1022",
      "taf": "TAF EDJA 281100Z 2812/2821 25007KT CAVOK"
    },
    {
      "icao": "EDLW",
      "alert": "OK",
      "vis_m": 9999,
      "fzfg": false,
      "metar_trigger": false,
      "taf_trigger": false,
      "metar": "METAR EDLW 281350Z 29006KT 220V030 CAVOK 32/18 Q1018",
      "taf": "TAF EDLW 281100Z 2812/2912 28006KT CAVOK"
    },
    {
      "icao": "EDNY",
      "alert": "OK",
      "vis_m": 9999,
      "fzfg": false,
      "metar_trigger": false,
      "taf_trigger": false,
      "metar": "METAR EDNY 281350Z VRB03KT CAVOK 33/16 Q1020",
      "taf": "TAF EDNY 281100Z 2812/2821 06005KT CAVOK"
    },
    {
      "icao": "EDSB",
      "alert": "OK",
      "vis_m": 9999,
      "fzfg": false,
      "metar_trigger": false,
      "taf_trigger": false,
      "metar": "METAR EDSB 281350Z 27007KT 220V350 CAVOK 36/15 Q1018",
      "taf": "TAF EDSB 281100Z 2812/2912 29006KT CAVOK"
    },
    {
      "icao": "EETN",
      "alert": "OK",
      "vis_m": 9999,
      "fzfg": false,
      "metar_trigger": false,
      "taf_trigger": false,
      "metar": "METAR EETN 281350Z 23007KT 9999 -TSRA SCT035CB BKN047 22/18 Q1016 TEMPO 5000 TSRA",
      "taf": "TAF EETN 281130Z 2812/2912 19012KT 9999 FEW035CB"
    },
    {
      "icao": "EFTU",
      "alert": "OK",
      "vis_m": 9999,
      "fzfg": false,
      "metar_trigger": false,
      "taf_trigger": false,
      "metar": "METAR EFTU 281350Z AUTO 20009KT 9999 FEW025 //////CB 19/18 Q1013",
      "taf": "TAF EFTU 281135Z 2812/2912 18012KT CAVOK"
    },
    {
      "icao": "EGBB",
      "alert": "OK",
      "vis_m": 9999,
      "fzfg": false,
      "metar_trigger": false,
      "taf_trigger": false,
      "metar": "METAR EGBB 281350Z 26010KT 220V300 CAVOK 21/08 Q1018",
      "taf": "TAF EGBB 281054Z 2812/2912 25011KT 9999 SCT040"
    },
    {
      "icao": "EGGP",
      "alert": "OK",
      "vis_m": 9999,
      "fzfg": false,
      "metar_trigger": false,
      "taf_trigger": false,
      "metar": "METAR EGGP 281350Z 24017KT CAVOK 21/07 Q1017",
      "taf": ""
    },
    {
      "icao": "EGGW",
      "alert": "OK",
      "vis_m": 9999,
      "fzfg": false,
      "metar_trigger": false,
      "taf_trigger": false,
      "metar": "METAR EGGW 281350Z AUTO 27018KT 240V300 9999 SCT049 24/10 Q1018",
      "taf": "TAF EGGW 281102Z 2812/2912 24012KT 9999 SCT035"
    },
    {
      "icao": "EGKK",
      "alert": "OK",
      "vis_m": 9999,
      "fzfg": false,
      "metar_trigger": false,
      "taf_trigger": false,
      "metar": "METAR EGKK 281350Z 23014KT 9999 FEW049 24/12 Q1019",
      "taf": "TAF EGKK 281058Z 2812/2918 22010KT 9999 SCT030"
    },
    {
      "icao": "EGNM",
      "alert": "OK",
      "vis_m": 9999,
      "fzfg": false,
      "metar_trigger": false,
      "taf_trigger": false,
      "metar": "METAR EGNM 281350Z 25015KT 9999 FEW036 SCT045 19/07 Q1016",
      "taf": "TAF EGNM 281056Z 2812/2912 27012KT 9999 FEW025"
    },
    {
      "icao": "EGPD",
      "alert": "OK",
      "vis_m": 9999,
      "fzfg": false,
      "metar_trigger": false,
      "taf_trigger": false,
      "metar": "METAR EGPD 281350Z AUTO 22018G31KT 180V260 9999 NCD 22/07 Q1009",
      "taf": ""
    },
    {
      "icao": "EGPF",
      "alert": "OK",
      "vis_m": 9999,
      "fzfg": false,
      "metar_trigger": false,
      "taf_trigger": false,
      "metar": "METAR EGPF 281350Z AUTO 22022G33KT 9999 SCT045 18/08 Q1013",
      "taf": "TAF EGPF 281054Z 2812/2912 22008KT 9999 SCT035"
    },
    {
      "icao": "EHBK",
      "alert": "OK",
      "vis_m": 9999,
      "fzfg": false,
      "metar_trigger": false,
      "taf_trigger": false,
      "metar": "METAR EHBK 281355Z AUTO 25005KT 210V300 9999 NSC 27/20 Q1019 NOSIG",
      "taf": "TAF EHBK 281103Z 2812/2918 27010KT 9999 FEW045"
    },
    {
      "icao": "EHEH",
      "alert": "OK",
      "vis_m": 9999,
      "fzfg": false,
      "metar_trigger": false,
      "taf_trigger": false,
      "metar": "METAR EHEH 281355Z AUTO 25005KT 220V330 9999 FEW041 OVC140 28/20 Q1019 BLU NOSIG RMK TREND REMOTE BY EHWX",
      "taf": "TAF EHEH 281108Z 2812/2918 27008KT CAVOK"
    },
    {
      "icao": "EKBI",
      "alert": "OK",
      "vis_m": 9999,
      "fzfg": false,
      "metar_trigger": false,
      "taf_trigger": false,
      "metar": "METAR EKBI 281350Z AUTO 23011KT 190V260 9999 SCT019/// 24/20 Q1017",
      "taf": ""
    },
    {
      "icao": "EKCH",
      "alert": "OK",
      "vis_m": 9999,
      "fzfg": false,
      "metar_trigger": false,
      "taf_trigger": false,
      "metar": "METAR EKCH 281350Z AUTO 26010KT 220V280 9999 FEW038/// SCT096/// 29/18 Q1016 NOSIG",
      "taf": ""
    },
    {
      "icao": "ENAL",
      "alert": "OK",
      "vis_m": 9999,
      "fzfg": false,
      "metar_trigger": false,
      "taf_trigger": false,
      "metar": "METAR ENAL 281350Z 22007KT 9999 SCT053 20/15 Q1010",
      "taf": "TAF ENAL 281100Z 2812/2821 14005KT 9999 -SHRA FEW040 SCT050"
    },
    {
      "icao": "ENBR",
      "alert": "OK",
      "vis_m": 9999,
      "fzfg": false,
      "metar_trigger": false,
      "taf_trigger": false,
      "metar": "METAR ENBR 281350Z 19010KT 9999 FEW040 22/15 Q1011 NOSIG RMK WIND 1200FT 19011KT",
      "taf": "TAF ENBR 281100Z 2812/2912 16009KT 9999 FEW015 SCT050"
    },
    {
      "icao": "ENGM",
      "alert": "OK",
      "vis_m": 9999,
      "fzfg": false,
      "metar_trigger": false,
      "taf_trigger": false,
      "metar": "METAR ENGM 281350Z 21008KT 170V250 CAVOK 29/13 Q1012 NOSIG",
      "taf": "TAF ENGM 281100Z 2812/2912 20012KT CAVOK"
    },
    {
      "icao": "ENHD",
      "alert": "OK",
      "vis_m": 9999,
      "fzfg": false,
      "metar_trigger": false,
      "taf_trigger": false,
      "metar": "METAR ENHD 281350Z 19013KT 9999 BKN049 23/13 Q1011",
      "taf": "TAF ENHD 281100Z 2812/2821 16012KT 9999 FEW020 BKN050"
    },
    {
      "icao": "ENTC",
      "alert": "OK",
      "vis_m": 9999,
      "fzfg": false,
      "metar_trigger": false,
      "taf_trigger": false,
      "metar": "METAR ENTC 281350Z 03009KT CAVOK 15/05 Q1012 NOSIG RMK WIND 2600FT 01004KT",
      "taf": "TAF ENTC 281100Z 2812/2912 02008KT 9999 FEW050"
    },
    {
      "icao": "ENTO",
      "alert": "OK",
      "vis_m": 9999,
      "fzfg": false,
      "metar_trigger": false,
      "taf_trigger": false,
      "metar": "METAR ENTO 281350Z 17011KT CAVOK 27/13 Q1013 NOSIG",
      "taf": "TAF ENTO 281100Z 2812/2912 18008KT CAVOK"
    },
    {
      "icao": "ENVA",
      "alert": "OK",
      "vis_m": 9999,
      "fzfg": false,
      "metar_trigger": false,
      "taf_trigger": false,
      "metar": "METAR ENVA 281350Z 25005KT 9999 FEW030 SCT038TCU 23/16 Q1011 NOSIG RMK WIND 670FT 35003KT",
      "taf": "TAF ENVA 281100Z 2812/2912 25008KT 9999 FEW030 BKN045"
    },
    {
      "icao": "ENZV",
      "alert": "OK",
      "vis_m": 9999,
      "fzfg": false,
      "metar_trigger": false,
      "taf_trigger": false,
      "metar": "METAR ENZV 281350Z 18013KT 9999 SCT047 26/14 Q1012 NOSIG",
      "taf": "TAF ENZV 281100Z 2812/2912 16008KT 9999 FEW020"
    },
    {
      "icao": "EPGD",
      "alert": "OK",
      "vis_m": 9999,
      "fzfg": false,
      "metar_trigger": false,
      "taf_trigger": false,
      "metar": "METAR EPGD 281400Z VRB06KT CAVOK 35/18 Q1015",
      "taf": "TAF EPGD 281130Z 2812/2912 VRB06KT CAVOK"
    },
    {
      "icao": "EPKK",
      "alert": "OK",
      "vis_m": 9999,
      "fzfg": false,
      "metar_trigger": false,
      "taf_trigger": false,
      "metar": "METAR EPKK 281400Z 22004KT 190V280 CAVOK 35/16 Q1018",
      "taf": "TAF EPKK 281130Z 2812/2912 24006KT CAVOK"
    },
    {
      "icao": "EPKT",
      "alert": "OK",
      "vis_m": 9999,
      "fzfg": false,
      "metar_trigger": false,
      "taf_trigger": false,
      "metar": "METAR EPKT 281400Z 22009KT 180V250 CAVOK 36/14 Q1018",
      "taf": "TAF EPKT 281130Z 2812/2912 24012KT CAVOK"
    },
    {
      "icao": "EPLB",
      "alert": "OK",
      "vis_m": 9999,
      "fzfg": false,
      "metar_trigger": false,
      "taf_trigger": false,
      "metar": "METAR EPLB 281400Z 32010KT CAVOK 37/16 Q1017",
      "taf": "TAF EPLB 281130Z 2812/2912 24008KT CAVOK"
    },
    {
      "icao": "EPMO",
      "alert": "OK",
      "vis_m": 9999,
      "fzfg": false,
      "metar_trigger": false,
      "taf_trigger": false,
      "metar": "METAR EPMO 281400Z 24008KT 190V290 CAVOK 38/17 Q1015",
      "taf": "TAF EPMO 281130Z 2812/2912 26005KT CAVOK"
    },
    {
      "icao": "EPPO",
      "alert": "OK",
      "vis_m": 9999,
      "fzfg": false,
      "metar_trigger": false,
      "taf_trigger": false,
      "metar": "METAR EPPO 281400Z 20007KT 180V250 CAVOK 39/16 Q1015",
      "taf": "TAF EPPO 281130Z 2812/2912 19006KT CAVOK"
    },
    {
      "icao": "EPRA",
      "alert": "OK",
      "vis_m": 9999,
      "fzfg": false,
      "metar_trigger": false,
      "taf_trigger": false,
      "metar": "METAR EPRA 281400Z 33006KT 290V020 CAVOK 38/14 Q1017",
      "taf": "TAF EPRA 281130Z 2812/2821 23010KT CAVOK"
    },
    {
      "icao": "EPRZ",
      "alert": "OK",
      "vis_m": 9999,
      "fzfg": false,
      "metar_trigger": false,
      "taf_trigger": false,
      "metar": "METAR EPRZ 281400Z 23010KT CAVOK 37/15 Q1018",
      "taf": "TAF EPRZ 281130Z 2812/2912 20010KT CAVOK"
    },
    {
      "icao": "EPSC",
      "alert": "OK",
      "vis_m": 9999,
      "fzfg": false,
      "metar_trigger": false,
      "taf_trigger": false,
      "metar": "METAR EPSC 281400Z 15005KT 090V180 CAVOK 36/22 Q1014",
      "taf": "TAF EPSC 281130Z 2812/2912 VRB06KT CAVOK"
    },
    {
      "icao": "EPSY",
      "alert": "OK",
      "vis_m": 9999,
      "fzfg": false,
      "metar_trigger": false,
      "taf_trigger": false,
      "metar": "METAR EPSY 281400Z 21010KT 170V240 CAVOK 37/13 Q1016",
      "taf": "TAF EPSY 281130Z 2812/2821 VRB02KT CAVOK"
    },
    {
      "icao": "EPWA",
      "alert": "OK",
      "vis_m": 9999,
      "fzfg": false,
      "metar_trigger": false,
      "taf_trigger": false,
      "metar": "METAR EPWA 281400Z VRB07KT CAVOK 38/16 Q1016 NOSIG",
      "taf": "TAF EPWA 281130Z 2812/2912 24005KT CAVOK"
    },
    {
      "icao": "EPWR",
      "alert": "OK",
      "vis_m": 9999,
      "fzfg": false,
      "metar_trigger": false,
      "taf_trigger": false,
      "metar": "METAR EPWR 281400Z 18008KT 130V210 CAVOK 38/15 Q1016",
      "taf": "TAF EPWR 281130Z 2812/2912 17007KT CAVOK"
    },
    {
      "icao": "ESGG",
      "alert": "OK",
      "vis_m": 9999,
      "fzfg": false,
      "metar_trigger": false,
      "taf_trigger": false,
      "metar": "METAR ESGG 281350Z 21010KT CAVOK 23/19 Q1015",
      "taf": "TAF ESGG 281130Z 2812/2912 VRB03KT CAVOK"
    },
    {
      "icao": "ESKN",
      "alert": "OK",
      "vis_m": 9999,
      "fzfg": false,
      "metar_trigger": false,
      "taf_trigger": false,
      "metar": "METAR ESKN 281350Z VRB02KT CAVOK 25/19 Q1014",
      "taf": "TAF ESKN 281130Z 2812/2912 24005KT CAVOK"
    },
    {
      "icao": "ESMS",
      "alert": "OK",
      "vis_m": 9999,
      "fzfg": false,
      "metar_trigger": false,
      "taf_trigger": false,
      "metar": "METAR ESMS 281350Z 29010KT CAVOK 29/19 Q1016",
      "taf": ""
    },
    {
      "icao": "ESSA",
      "alert": "OK",
      "vis_m": 9999,
      "fzfg": false,
      "metar_trigger": false,
      "taf_trigger": false,
      "metar": "METAR ESSA 281350Z 22005KT 9999 -RA NSC 18/17 Q1013 TEMPO SHRA SCT070CB",
      "taf": "TAF ESSA 281130Z 2812/2912 20006KT CAVOK"
    },
    {
      "icao": "EYKA",
      "alert": "OK",
      "vis_m": 9999,
      "fzfg": false,
      "metar_trigger": false,
      "taf_trigger": false,
      "metar": "METAR EYKA 281350Z 15006KT CAVOK 32/16 Q1017",
      "taf": "TAF EYKA 281103Z 2812/2912 VRB03KT 9000 NSC"
    },
    {
      "icao": "EYPA",
      "alert": "OK",
      "vis_m": 9999,
      "fzfg": false,
      "metar_trigger": false,
      "taf_trigger": false,
      "metar": "METAR EYPA 281350Z 23006KT 190V290 CAVOK 33/17 Q1015",
      "taf": "TAF EYPA 281102Z 2812/2912 VRB03KT 9000 NSC"
    },
    {
      "icao": "EYVI",
      "alert": "OK",
      "vis_m": 9999,
      "fzfg": false,
      "metar_trigger": false,
      "taf_trigger": false,
      "metar": "METAR EYVI 281350Z 13005KT 090V150 CAVOK 31/17 Q1018 NOSIG",
      "taf": "TAF EYVI 281100Z 2812/2912 16010KT CAVOK"
    },
    {
      "icao": "GCFV",
      "alert": "OK",
      "vis_m": 9999,
      "fzfg": false,
      "metar_trigger": false,
      "taf_trigger": false,
      "metar": "METAR GCFV 281400Z 05022KT 9999 FEW020 25/19 Q1019",
      "taf": "TAF GCFV 280800Z 2809/2909 04016KT 9999 FEW025 TX26/2814Z TN21/2906Z"
    },
    {
      "icao": "GCLP",
      "alert": "OK",
      "vis_m": 9999,
      "fzfg": false,
      "metar_trigger": false,
      "taf_trigger": false,
      "metar": "METAR GCLP 281400Z 01028KT 9999 FEW035 27/18 Q1019 NOSIG",
      "taf": "TAF GCLP 280800Z 2809/2909 02026KT 9999 SCT030 TX27/2814Z TN22/2906Z"
    },
    {
      "icao": "GCTS",
      "alert": "OK",
      "vis_m": 9999,
      "fzfg": false,
      "metar_trigger": false,
      "taf_trigger": false,
      "metar": "METAR GCTS 281400Z 09020KT 060V120 9999 FEW025 28/17 Q1019 NOSIG",
      "taf": ""
    },
    {
      "icao": "GMAD",
      "alert": "OK",
      "vis_m": 8000,
      "fzfg": false,
      "metar_trigger": false,
      "taf_trigger": false,
      "metar": "METAR GMAD 281400Z 25011KT 8000 NSC 28/18 Q1016 NOSIG",
      "taf": "TAF GMAD 281100Z 2812/2918 26010KT 8000 NSC"
    },
    {
      "icao": "GMMN",
      "alert": "OK",
      "vis_m": 9999,
      "fzfg": false,
      "metar_trigger": false,
      "taf_trigger": false,
      "metar": "METAR GMMN 281400Z 35010KT 300V040 CAVOK 30/19 Q1020 NOSIG",
      "taf": "TAF GMMN 281100Z 2812/2918 36012KT CAVOK"
    },
    {
      "icao": "GMMX",
      "alert": "OK",
      "vis_m": 9999,
      "fzfg": false,
      "metar_trigger": false,
      "taf_trigger": false,
      "metar": "METAR GMMX 281400Z VRB04KT CAVOK 35/17 Q1019 NOSIG",
      "taf": "TAF GMMX 281100Z 2812/2918 02006KT CAVOK"
    },
    {
      "icao": "HEGN",
      "alert": "OK",
      "vis_m": 9999,
      "fzfg": false,
      "metar_trigger": false,
      "taf_trigger": false,
      "metar": "METAR HEGN 281300Z 03009KT CAVOK 36/08 Q1007 NOSIG",
      "taf": "TAF HEGN 281100Z 2812/2918 03013KT CAVOK"
    },
    {
      "icao": "HEMA",
      "alert": "OK",
      "vis_m": 9999,
      "fzfg": false,
      "metar_trigger": false,
      "taf_trigger": false,
      "metar": "METAR HEMA 281300Z 34014KT CAVOK 34/12 Q1007 NOSIG",
      "taf": "TAF HEMA 281100Z 2812/2918 36008G20KT CAVOK"
    },
    {
      "icao": "HESH",
      "alert": "OK",
      "vis_m": 9999,
      "fzfg": false,
      "metar_trigger": false,
      "taf_trigger": false,
      "metar": "METAR HESH 281300Z 01005KT CAVOK 38/11 Q1007 NOSIG",
      "taf": "TAF HESH 281100Z 2812/2918 09012KT CAVOK"
    },
    {
      "icao": "HESX",
      "alert": "OK",
      "vis_m": 9999,
      "fzfg": false,
      "metar_trigger": false,
      "taf_trigger": false,
      "metar": "METAR HESX 281300Z 05006KT CAVOK 36/12 Q1009 NOSIG",
      "taf": "TAF HESX 281100Z 2812/2918 34010KT CAVOK"
    },
    {
      "icao": "LATI",
      "alert": "OK",
      "vis_m": 9999,
      "fzfg": false,
      "metar_trigger": false,
      "taf_trigger": false,
      "metar": "METAR LATI 281350Z 32008KT 260V350 CAVOK 35/21 Q1015 NOSIG",
      "taf": "TAF LATI 281100Z 2812/2912 31012KT CAVOK TX37/2812Z TN21/2904Z"
    },
    {
      "icao": "LBPD",
      "alert": "OK",
      "vis_m": 9999,
      "fzfg": false,
      "metar_trigger": false,
      "taf_trigger": false,
      "metar": "METAR LBPD 281400Z AUTO 09007KT 060V140 9999 NCD 32/09 Q1020 NOSIG",
      "taf": "TAF LBPD 281100Z 2812/2912 12010KT CAVOK"
    },
    {
      "icao": "LBSF",
      "alert": "OK",
      "vis_m": 9999,
      "fzfg": false,
      "metar_trigger": false,
      "taf_trigger": false,
      "metar": "METAR LBSF 281400Z 05010KT 360V080 CAVOK 31/13 Q1022 NOSIG",
      "taf": "TAF LBSF 281100Z 2812/2912 08010KT CAVOK"
    },
    {
      "icao": "LBWN",
      "alert": "OK",
      "vis_m": 9999,
      "fzfg": false,
      "metar_trigger": false,
      "taf_trigger": false,
      "metar": "METAR LBWN 281400Z 10006KT 040V140 CAVOK 31/10 Q1020 NOSIG",
      "taf": "TAF LBWN 281100Z 2812/2912 13012KT CAVOK"
    },
    {
      "icao": "LCLK",
      "alert": "OK",
      "vis_m": 9999,
      "fzfg": false,
      "metar_trigger": false,
      "taf_trigger": false,
      "metar": "METAR LCLK 281400Z 18007KT 150V210 9999 FEW025 33/19 Q1009 NOSIG",
      "taf": "TAF LCLK 281130Z 2812/2912 18011KT 9999 FEW020"
    },
    {
      "icao": "LCPH",
      "alert": "OK",
      "vis_m": 9999,
      "fzfg": false,
      "metar_trigger": false,
      "taf_trigger": false,
      "metar": "METAR LCPH 281400Z 22005KT 170V260 9999 FEW020 30/24 Q1010 NOSIG",
      "taf": "TAF LCPH 281130Z 2812/2912 27010KT 9999 FEW020"
    },
    {
      "icao": "LEAL",
      "alert": "OK",
      "vis_m": 9999,
      "fzfg": false,
      "metar_trigger": false,
      "taf_trigger": false,
      "metar": "METAR LEAL 281400Z 10010KT 070V130 9999 FEW021 29/23 Q1017 NOSIG",
      "taf": "TAF LEAL 281100Z 2812/2912 09010KT 9999 FEW015 TX32/2812Z TN24/2906Z"
    },
    {
      "icao": "LEBB",
      "alert": "OK",
      "vis_m": 3000,
      "fzfg": false,
      "metar_trigger": false,
      "taf_trigger": false,
      "metar": "METAR LEBB 281400Z COR 29006KT 270V330 3000 DZ BR SCT006 BKN011 22/21 Q1022 NOSIG",
      "taf": ""
    },
    {
      "icao": "LEBL",
      "alert": "OK",
      "vis_m": 9999,
      "fzfg": false,
      "metar_trigger": false,
      "taf_trigger": false,
      "metar": "METAR LEBL 281400Z 14007KT 090V190 CAVOK 30/26 Q1018 NOSIG",
      "taf": "TAF LEBL 281100Z 2812/2912 15009KT CAVOK TX34/2814Z TN25/2905Z"
    },
    {
      "icao": "LECH",
      "alert": "OK",
      "vis_m": 9999,
      "fzfg": false,
      "metar_trigger": false,
      "taf_trigger": false,
      "metar": "METAR LECH 281400Z AUTO VRB07KT CAVOK 30/12 Q1020",
      "taf": "TAF LECH 281100Z 2812/2912 13010KT CAVOK TX34/2812Z TN19/2906Z"
    },
    {
      "icao": "LEMD",
      "alert": "OK",
      "vis_m": 9999,
      "fzfg": false,
      "metar_trigger": false,
      "taf_trigger": false,
      "metar": "METAR LEMD 281400Z 15006KT 080V250 9999 FEW080 34/11 Q1018 NOSIG",
      "taf": "TAF LEMD 281100Z 2812/2918 VRB04KT CAVOK TX34/2816Z TN17/2905Z"
    },
    {
      "icao": "LEMG",
      "alert": "OK",
      "vis_m": 9999,
      "fzfg": false,
      "metar_trigger": false,
      "taf_trigger": false,
      "metar": "METAR LEMG 281400Z 11012KT 9999 FEW070 25/19 Q1018 NOSIG",
      "taf": "TAF LEMG 281100Z 2812/2912 13010KT CAVOK TX33/2812Z TN22/2905Z"
    },
    {
      "icao": "LEVC",
      "alert": "OK",
      "vis_m": 9999,
      "fzfg": false,
      "metar_trigger": false,
      "taf_trigger": false,
      "metar": "METAR LEVC 281400Z 08011KT 050V110 CAVOK 30/20 Q1018 NOSIG",
      "taf": "TAF LEVC 281100Z 2812/2912 09010KT CAVOK TX33/2812Z TN23/2906Z"
    },
    {
      "icao": "LEXJ",
      "alert": "OK",
      "vis_m": 9999,
      "fzfg": false,
      "metar_trigger": false,
      "taf_trigger": false,
      "metar": "METAR LEXJ 281400Z VRB01KT 9999 SCT024 OVC031 21/20 Q1022",
      "taf": ""
    },
    {
      "icao": "LEZG",
      "alert": "OK",
      "vis_m": 9999,
      "fzfg": false,
      "metar_trigger": false,
      "taf_trigger": false,
      "metar": "METAR LEZG 281400Z 05001KT 9999 FEW060CB 33/15 Q1018 TEMPO 24020G43KT 1500 +TSGRRA",
      "taf": "TAF LEZG 281100Z 2812/2912 VRB06KT 9999 SCT070 TX37/2813Z TN20/2906Z"
    },
    {
      "icao": "LEZL",
      "alert": "OK",
      "vis_m": 9999,
      "fzfg": false,
      "metar_trigger": false,
      "taf_trigger": false,
      "metar": "METAR LEZL 281400Z 26007KT 190V330 CAVOK 36/12 Q1017 NOSIG",
      "taf": "TAF LEZL 280800Z 2809/2909 VRB02KT CAVOK TX38/2815Z TN22/2905Z"
    },
    {
      "icao": "LFBD",
      "alert": "OK",
      "vis_m": 9999,
      "fzfg": false,
      "metar_trigger": false,
      "taf_trigger": false,
      "metar": "METAR LFBD 281400Z AUTO 36009KT 290V040 9999 BKN043 BKN064 29/18 Q1020 NOSIG",
      "taf": "TAF LFBD 281100Z 2812/2918 34008KT 9999 SCT020 TX30/2914Z TN19/2905Z"
    },
    {
      "icao": "LFLL",
      "alert": "OK",
      "vis_m": 9999,
      "fzfg": false,
      "metar_trigger": false,
      "taf_trigger": false,
      "metar": "METAR LFLL 281400Z 20006KT 160V240 CAVOK 36/12 Q1019 NOSIG",
      "taf": "TAF LFLL 281100Z 2812/2918 VRB05KT CAVOK"
    },
    {
      "icao": "LFLS",
      "alert": "OK",
      "vis_m": 9999,
      "fzfg": false,
      "metar_trigger": false,
      "taf_trigger": false,
      "metar": "METAR LFLS 281400Z AUTO 27007KT 230V330 CAVOK 35/12 Q1020 NOSIG",
      "taf": "TAF LFLS 280800Z 2809/2909 22008KT CAVOK"
    },
    {
      "icao": "LFMN",
      "alert": "OK",
      "vis_m": 9999,
      "fzfg": false,
      "metar_trigger": false,
      "taf_trigger": false,
      "metar": "METAR LFMN 281400Z 16004KT CAVOK 31/23 Q1018 NOSIG",
      "taf": "TAF LFMN 280800Z 2809/2915 14006KT CAVOK"
    },
    {
      "icao": "LFOB",
      "alert": "OK",
      "vis_m": 9999,
      "fzfg": false,
      "metar_trigger": false,
      "taf_trigger": false,
      "metar": "METAR LFOB 281400Z AUTO 25006KT 150V310 9999 FEW043 SCT100 BKN140 28/18 Q1020 TEMPO 4000 SHRA BKN040CB",
      "taf": "TAF LFOB 281100Z 2812/2912 28006KT 9999 SCT030"
    },
    {
      "icao": "LFPO",
      "alert": "OK",
      "vis_m": 9999,
      "fzfg": false,
      "metar_trigger": false,
      "taf_trigger": false,
      "metar": "METAR LFPO 281400Z 31009KT 250V360 CAVOK 31/16 Q1020 TEMPO -TSRA SCT090CB",
      "taf": "TAF LFPO 281100Z 2812/2918 25008KT CAVOK"
    },
    {
      "icao": "LFSB",
      "alert": "OK",
      "vis_m": 9999,
      "fzfg": false,
      "metar_trigger": false,
      "taf_trigger": false,
      "metar": "METAR LFSB 281400Z AUTO 02010KT 320V050 9999 FEW015 36/17 Q1018 TEMPO 30015G30KT 3000 TSRA SCT070CB",
      "taf": "TAF LFSB 281100Z 2812/2912 VRB03KT CAVOK"
    },
    {
      "icao": "LGAV",
      "alert": "OK",
      "vis_m": 9999,
      "fzfg": false,
      "metar_trigger": false,
      "taf_trigger": false,
      "metar": "METAR LGAV 281320Z 02019G29KT CAVOK 29/13 Q1017 NOSIG",
      "taf": "TAF LGAV 281100Z 2812/2912 04018KT 9999 FEW025"
    },
    {
      "icao": "LGTS",
      "alert": "OK",
      "vis_m": 9999,
      "fzfg": false,
      "metar_trigger": false,
      "taf_trigger": false,
      "metar": "METAR LGTS 281350Z 19011KT 9999 FEW025 31/18 Q1018 NOSIG",
      "taf": "TAF LGTS 281100Z 2812/2912 14013KT 9999 FEW030"
    },
    {
      "icao": "LHBP",
      "alert": "OK",
      "vis_m": 9999,
      "fzfg": false,
      "metar_trigger": false,
      "taf_trigger": false,
      "metar": "METAR LHBP 281400Z 22007KT 150V280 CAVOK 38/14 Q1018 NOSIG",
      "taf": "TAF LHBP 281115Z 2812/2912 13009KT CAVOK"
    },
    {
      "icao": "LHDC",
      "alert": "OK",
      "vis_m": 9999,
      "fzfg": false,
      "metar_trigger": false,
      "taf_trigger": false,
      "metar": "METAR LHDC 281345Z AUTO VRB04KT 9999 ////// 38/12 Q1019 NOSIG",
      "taf": "TAF LHDC 281115Z 2812/2821 VRB04KT CAVOK"
    },
    {
      "icao": "LIBD",
      "alert": "OK",
      "vis_m": 9999,
      "fzfg": false,
      "metar_trigger": false,
      "taf_trigger": false,
      "metar": "METAR LIBD 281350Z 01006KT 330V050 CAVOK 32/18 Q1017",
      "taf": "TAF LIBD 281100Z 2812/2912 01012KT CAVOK"
    },
    {
      "icao": "LIBG",
      "alert": "OK",
      "vis_m": 9999,
      "fzfg": false,
      "metar_trigger": false,
      "taf_trigger": false,
      "metar": "METAR LIBG 281350Z AUTO 03013KT 9999 FEW160/// 37/17 Q1016",
      "taf": "TAF LIBG 281100Z 2812/2912 02010KT 9999 FEW030"
    },
    {
      "icao": "LIBP",
      "alert": "OK",
      "vis_m": 9999,
      "fzfg": false,
      "metar_trigger": false,
      "taf_trigger": false,
      "metar": "METAR LIBP 281350Z AUTO 06008KT 9999 NCD 34/17 Q1017",
      "taf": "TAF LIBP 281100Z 2812/2912 07010KT CAVOK"
    },
    {
      "icao": "LIBR",
      "alert": "OK",
      "vis_m": 9999,
      "fzfg": false,
      "metar_trigger": false,
      "taf_trigger": false,
      "metar": "METAR LIBR 281350Z 34010KT CAVOK 30/25 Q1016",
      "taf": "TAF LIBR 281100Z 2812/2912 34013KT CAVOK"
    },
    {
      "icao": "LICA",
      "alert": "OK",
      "vis_m": 9999,
      "fzfg": false,
      "metar_trigger": false,
      "taf_trigger": false,
      "metar": "METAR LICA 281350Z AUTO 25011KT 9999 FEW054/// 30/25 Q1017",
      "taf": "TAF LICA 281100Z 2812/2912 26012KT 9999 SCT030"
    },
    {
      "icao": "LICC",
      "alert": "OK",
      "vis_m": 9999,
      "fzfg": false,
      "metar_trigger": false,
      "taf_trigger": false,
      "metar": "METAR LICC 281350Z 10009KT CAVOK 32/23 Q1016",
      "taf": "TAF LICC 281100Z 2812/2912 09013KT 9999 FEW040"
    },
    {
      "icao": "LICJ",
      "alert": "OK",
      "vis_m": 9999,
      "fzfg": false,
      "metar_trigger": false,
      "taf_trigger": false,
      "metar": "METAR LICJ 281350Z 04013KT CAVOK 30/25 Q1018",
      "taf": "TAF LICJ 281100Z 2812/2912 04014KT CAVOK"
    },
    {
      "icao": "LIMC",
      "alert": "OK",
      "vis_m": 9999,
      "fzfg": false,
      "metar_trigger": false,
      "taf_trigger": false,
      "metar": "METAR LIMC 281350Z 26008KT 210V310 CAVOK 36/16 Q1018 NOSIG",
      "taf": "TAF LIMC 281100Z 2812/2918 VRB05KT CAVOK"
    },
    {
      "icao": "LIME",
      "alert": "OK",
      "vis_m": 9999,
      "fzfg": false,
      "metar_trigger": false,
      "taf_trigger": false,
      "metar": "METAR LIME 281350Z 22006KT 140V260 CAVOK 35/19 Q1018 NOSIG",
      "taf": "TAF LIME 281100Z 2812/2912 24006KT CAVOK"
    },
    {
      "icao": "LIMF",
      "alert": "OK",
      "vis_m": 9999,
      "fzfg": false,
      "metar_trigger": false,
      "taf_trigger": false,
      "metar": "METAR LIMF 281350Z 11006KT 070V160 9999 FEW035 36/20 Q1018",
      "taf": "TAF LIMF 281100Z 2812/2912 VRB05KT CAVOK"
    },
    {
      "icao": "LIMJ",
      "alert": "OK",
      "vis_m": 9999,
      "fzfg": false,
      "metar_trigger": false,
      "taf_trigger": false,
      "metar": "METAR LIMJ 281350Z 25005KT CAVOK 30/25 Q1018",
      "taf": "TAF LIMJ 281100Z 2812/2912 19010KT CAVOK"
    },
    {
      "icao": "LIPE",
      "alert": "OK",
      "vis_m": 9999,
      "fzfg": false,
      "metar_trigger": false,
      "taf_trigger": false,
      "metar": "METAR LIPE 281350Z 03005KT 350V060 CAVOK 37/18 Q1016",
      "taf": "TAF LIPE 281100Z 2812/2912 07008KT 9999 FEW040"
    },
    {
      "icao": "LIPH",
      "alert": "OK",
      "vis_m": 9999,
      "fzfg": false,
      "metar_trigger": false,
      "taf_trigger": false,
      "metar": "METAR LIPH 281350Z 14007KT CAVOK 36/18 Q1016",
      "taf": "TAF LIPH 281100Z 2812/2912 VRB05KT 9999 FEW040"
    },
    {
      "icao": "LIPQ",
      "alert": "OK",
      "vis_m": 9999,
      "fzfg": false,
      "metar_trigger": false,
      "taf_trigger": false,
      "metar": "METAR LIPQ 281350Z AUTO 27006KT 220V300 9999 NCD 36/19 Q1016",
      "taf": "TAF LIPQ 281100Z 2812/2912 21010KT 9999 FEW040"
    },
    {
      "icao": "LIPR",
      "alert": "OK",
      "vis_m": 9999,
      "fzfg": false,
      "metar_trigger": false,
      "taf_trigger": false,
      "metar": "METAR LIPR 281350Z 08007KT 040V110 CAVOK 30/23 Q1017",
      "taf": "TAF LIPR 281100Z 2812/2912 05010KT CAVOK"
    },
    {
      "icao": "LIPX",
      "alert": "OK",
      "vis_m": 9999,
      "fzfg": false,
      "metar_trigger": false,
      "taf_trigger": false,
      "metar": "METAR LIPX 281350Z 25003KT 190V320 CAVOK 37/18 Q1017",
      "taf": "TAF LIPX 281100Z 2812/2912 VRB05KT CAVOK"
    },
    {
      "icao": "LIPY",
      "alert": "OK",
      "vis_m": 9999,
      "fzfg": false,
      "metar_trigger": false,
      "taf_trigger": false,
      "metar": "METAR LIPY 281350Z AUTO 04008KT 9999 NCD 31/21 Q1017",
      "taf": "TAF LIPY 281100Z 2812/2912 04010KT CAVOK"
    },
    {
      "icao": "LIPZ",
      "alert": "OK",
      "vis_m": 9999,
      "fzfg": false,
      "metar_trigger": false,
      "taf_trigger": false,
      "metar": "METAR LIPZ 281350Z 15006KT CAVOK 34/19 Q1017 NOSIG",
      "taf": "TAF LIPZ 281100Z 2812/2918 15010KT CAVOK"
    },
    {
      "icao": "LIRF",
      "alert": "OK",
      "vis_m": 9999,
      "fzfg": false,
      "metar_trigger": false,
      "taf_trigger": false,
      "metar": "METAR LIRF 281350Z 28010KT CAVOK 33/20 Q1017 NOSIG",
      "taf": "TAF LIRF 281100Z 2812/2918 29013KT CAVOK"
    },
    {
      "icao": "LIRN",
      "alert": "OK",
      "vis_m": 9999,
      "fzfg": false,
      "metar_trigger": false,
      "taf_trigger": false,
      "metar": "METAR LIRN 281350Z 17008KT 140V210 CAVOK 32/23 Q1017 NOSIG",
      "taf": "TAF LIRN 281100Z 2812/2912 23011KT CAVOK"
    },
    {
      "icao": "LIRP",
      "alert": "OK",
      "vis_m": 9999,
      "fzfg": false,
      "metar_trigger": false,
      "taf_trigger": false,
      "metar": "METAR LIRP 281345Z 28010KT CAVOK 33/21 Q1018 NOSIG",
      "taf": "TAF LIRP 281100Z 2812/2912 27005KT CAVOK"
    },
    {
      "icao": "LIRZ",
      "alert": "OK",
      "vis_m": 9999,
      "fzfg": false,
      "metar_trigger": false,
      "taf_trigger": false,
      "metar": "METAR LIRZ 281350Z AUTO 31007KT 210V010 9999 FEW085/// 37/12 Q1017",
      "taf": "TAF LIRZ 281100Z 2812/2912 VRB05KT 9999 FEW040"
    },
    {
      "icao": "LJLJ",
      "alert": "OK",
      "vis_m": 9999,
      "fzfg": false,
      "metar_trigger": false,
      "taf_trigger": false,
      "metar": "METAR LJLJ 281400Z 12004KT 080V150 9999 FEW060 34/16 Q1019 NOSIG",
      "taf": "TAF LJLJ 281100Z 2812/2912 06006KT 9999 FEW060"
    },
    {
      "icao": "LKMT",
      "alert": "OK",
      "vis_m": 9999,
      "fzfg": false,
      "metar_trigger": false,
      "taf_trigger": false,
      "metar": "METAR LKMT 281400Z 18008KT 160V220 CAVOK 36/16 Q1018 NOSIG",
      "taf": "TAF LKMT 281100Z 2812/2912 23007KT CAVOK"
    },
    {
      "icao": "LKPR",
      "alert": "OK",
      "vis_m": 9999,
      "fzfg": false,
      "metar_trigger": false,
      "taf_trigger": false,
      "metar": "METAR LKPR 281400Z 17004KT 100V230 CAVOK 37/13 Q1017 NOSIG",
      "taf": "TAF LKPR 281100Z 2812/2918 VRB02KT CAVOK"
    },
    {
      "icao": "LLBG",
      "alert": "OK",
      "vis_m": 9999,
      "fzfg": false,
      "metar_trigger": false,
      "taf_trigger": false,
      "metar": "METAR LLBG 281350Z 32011KT CAVOK 30/21 Q1009 NOSIG",
      "taf": "TAF LLBG 281108Z 2812/2912 29010KT CAVOK TX31/2812Z TN23/2904Z"
    },
    {
      "icao": "LMML",
      "alert": "OK",
      "vis_m": 9999,
      "fzfg": false,
      "metar_trigger": false,
      "taf_trigger": false,
      "metar": "METAR LMML 281345Z 02008KT CAVOK 32/21 Q1017 NOSIG",
      "taf": "TAF LMML 281100Z 2812/2912 36008KT 9999 FEW030"
    },
    {
      "icao": "LOWW",
      "alert": "OK",
      "vis_m": 9999,
      "fzfg": false,
      "metar_trigger": false,
      "taf_trigger": false,
      "metar": "METAR LOWW 281350Z 14015KT 110V170 CAVOK 38/14 Q1017 NOSIG",
      "taf": "TAF LOWW 281115Z 2812/2918 16012KT CAVOK TX38/2814Z TN22/2903Z"
    },
    {
      "icao": "LPFR",
      "alert": "OK",
      "vis_m": 9999,
      "fzfg": false,
      "metar_trigger": false,
      "taf_trigger": false,
      "metar": "METAR LPFR 281400Z 24010KT CAVOK 25/18 Q1019",
      "taf": "TAF LPFR 281100Z 2812/2912 19008KT CAVOK"
    },
    {
      "icao": "LPMA",
      "alert": "OK",
      "vis_m": 9999,
      "fzfg": false,
      "metar_trigger": false,
      "taf_trigger": false,
      "metar": "METAR LPMA 281400Z 01013KT 340V040 9999 FEW015 BKN033 23/17 Q1025",
      "taf": "TAF LPMA 281100Z 2812/2912 02015KT 9999 SCT015"
    },
    {
      "icao": "LPPR",
      "alert": "OK",
      "vis_m": 9999,
      "fzfg": false,
      "metar_trigger": false,
      "taf_trigger": false,
      "metar": "METAR LPPR 281400Z 31013KT 9999 FEW025 22/17 Q1023",
      "taf": "TAF LPPR 281100Z 2812/2912 35013KT 9999 FEW025"
    },
    {
      "icao": "LPPS",
      "alert": "OK",
      "vis_m": 9999,
      "fzfg": false,
      "metar_trigger": false,
      "taf_trigger": false,
      "metar": "METAR LPPS 281400Z 03011KT 350V070 9999 SCT014 BKN030 23/18 Q1025",
      "taf": "TAF LPPS 281100Z 2812/2918 03013KT 9999 SCT015 BKN030"
    },
    {
      "icao": "LPPT",
      "alert": "OK",
      "vis_m": 9999,
      "fzfg": false,
      "metar_trigger": false,
      "taf_trigger": false,
      "metar": "METAR LPPT 281400Z 35017KT 9999 FEW036 26/14 Q1022",
      "taf": "TAF LPPT 281100Z 2812/2918 35015KT CAVOK"
    },
    {
      "icao": "LQBK",
      "alert": "OK",
      "vis_m": 9999,
      "fzfg": false,
      "metar_trigger": false,
      "taf_trigger": false,
      "metar": "METAR LQBK 281400Z VRB04KT CAVOK 36/12 Q1017 NOSIG",
      "taf": "TAF LQBK 281100Z 2812/2912 15005KT CAVOK TX36/2813Z TN19/2903Z"
    },
    {
      "icao": "LQSA",
      "alert": "OK",
      "vis_m": 9999,
      "fzfg": false,
      "metar_trigger": false,
      "taf_trigger": false,
      "metar": "METAR LQSA 281400Z VRB03KT CAVOK 35/13 Q1019 NOSIG",
      "taf": "TAF LQSA 281100Z 2812/2912 VRB02KT CAVOK TX36/2813Z TN18/2903Z"
    },
    {
      "icao": "LQTZ",
      "alert": "OK",
      "vis_m": 9999,
      "fzfg": false,
      "metar_trigger": false,
      "taf_trigger": false,
      "metar": "METAR LQTZ 281400Z 10009KT CAVOK 35/16 Q1018",
      "taf": "TAF LQTZ 281100Z 2812/2912 03005KT CAVOK TX38/2814Z TN16/2903Z"
    },
    {
      "icao": "LRBC",
      "alert": "OK",
      "vis_m": 9999,
      "fzfg": false,
      "metar_trigger": false,
      "taf_trigger": false,
      "metar": "METAR LRBC 281400Z 11005KT 080V180 CAVOK 33/17 Q1019",
      "taf": "TAF LRBC 281100Z 2812/2821 VRB04KT CAVOK"
    },
    {
      "icao": "LRBS",
      "alert": "OK",
      "vis_m": 9999,
      "fzfg": false,
      "metar_trigger": false,
      "taf_trigger": false,
      "metar": "METAR LRBS 281400Z VRB04KT CAVOK 34/16 Q1019 NOSIG",
      "taf": "TAF LRBS 281100Z 2812/2912 VRB04KT CAVOK"
    },
    {
      "icao": "LRBV",
      "alert": "OK",
      "vis_m": 9999,
      "fzfg": false,
      "metar_trigger": false,
      "taf_trigger": false,
      "metar": "METAR LRBV 281400Z 32004KT 270V030 CAVOK 32/14 Q1022",
      "taf": "TAF LRBV 281100Z 2812/2821 VRB04KT CAVOK"
    },
    {
      "icao": "LRCL",
      "alert": "OK",
      "vis_m": 9999,
      "fzfg": false,
      "metar_trigger": false,
      "taf_trigger": false,
      "metar": "METAR LRCL 281400Z VRB03KT CAVOK 35/14 Q1020",
      "taf": "TAF LRCL 281100Z 2812/2821 VRB04KT CAVOK"
    },
    {
      "icao": "LRCV",
      "alert": "OK",
      "vis_m": 9999,
      "fzfg": false,
      "metar_trigger": false,
      "taf_trigger": false,
      "metar": "METAR LRCV 281400Z VRB03KT CAVOK 33/16 Q1020",
      "taf": "TAF LRCV 281100Z 2812/2821 VRB04KT CAVOK"
    },
    {
      "icao": "LRIA",
      "alert": "OK",
      "vis_m": 9999,
      "fzfg": false,
      "metar_trigger": false,
      "taf_trigger": false,
      "metar": "METAR LRIA 281400Z 23004KT 170V290 CAVOK 35/14 Q1018",
      "taf": "TAF LRIA 281100Z 2812/2821 VRB04KT CAVOK"
    },
    {
      "icao": "LROP",
      "alert": "OK",
      "vis_m": 9999,
      "fzfg": false,
      "metar_trigger": false,
      "taf_trigger": false,
      "metar": "METAR LROP 281400Z 30005KT 250V340 CAVOK 33/15 Q1020 NOSIG",
      "taf": "TAF LROP 281100Z 2812/2912 VRB04KT CAVOK"
    },
    {
      "icao": "LRSB",
      "alert": "OK",
      "vis_m": 9999,
      "fzfg": false,
      "metar_trigger": false,
      "taf_trigger": false,
      "metar": "METAR LRSB 281400Z 05005KT 010V090 9999 FEW050CB 33/16 Q1021",
      "taf": "TAF LRSB 281100Z 2812/2912 VRB04KT CAVOK"
    },
    {
      "icao": "LRSM",
      "alert": "OK",
      "vis_m": 9999,
      "fzfg": false,
      "metar_trigger": false,
      "taf_trigger": false,
      "metar": "METAR LRSM 281400Z AUTO 28006KT 250V010 9999 NCD 37/15 Q1019",
      "taf": ""
    },
    {
      "icao": "LRSV",
      "alert": "OK",
      "vis_m": 9999,
      "fzfg": false,
      "metar_trigger": false,
      "taf_trigger": false,
      "metar": "METAR LRSV 281400Z 05005KT 360V110 CAVOK 33/14 Q1020",
      "taf": "TAF LRSV 281100Z 2812/2821 VRB04KT CAVOK"
    },
    {
      "icao": "LRTM",
      "alert": "OK",
      "vis_m": 9999,
      "fzfg": false,
      "metar_trigger": false,
      "taf_trigger": false,
      "metar": "METAR LRTM 281400Z 24009KT 190V260 CAVOK 35/21 Q1020",
      "taf": "TAF LRTM 281100Z 2812/2821 VRB04KT CAVOK"
    },
    {
      "icao": "LRTR",
      "alert": "OK",
      "vis_m": 9999,
      "fzfg": false,
      "metar_trigger": false,
      "taf_trigger": false,
      "metar": "METAR LRTR 281400Z VRB03KT CAVOK 36/18 Q1019",
      "taf": "TAF LRTR 281100Z 2812/2912 VRB04KT CAVOK"
    },
    {
      "icao": "LTAC",
      "alert": "OK",
      "vis_m": 9999,
      "fzfg": false,
      "metar_trigger": false,
      "taf_trigger": false,
      "metar": "METAR LTAC 281350Z 05012KT 360V080 9999 FEW040 27/06 Q1020 NOSIG RMK RWY21C 09007KT 010V120 RWY03L 04012KT 360V080 RWY21R 05010KT 340V090 RWY03R 05010KT 330V080 RWY21L 06010KT 010V100",
      "taf": "TAF LTAC 281040Z 2812/2912 04012KT 9999 FEW040"
    },
    {
      "icao": "LTFM",
      "alert": "OK",
      "vis_m": 9999,
      "fzfg": false,
      "metar_trigger": false,
      "taf_trigger": false,
      "metar": "METAR LTFM 281350Z 04020KT CAVOK 26/17 Q1020 NOSIG RMK RWY17L 04018KT RWY34L 04018KT RWY16R 04018KT RWY36 05020KT RWY18 05017KT",
      "taf": "TAF LTFM 281040Z 2812/2918 06018G29KT 9999 SCT025"
    },
    {
      "icao": "LUKK",
      "alert": "OK",
      "vis_m": 9999,
      "fzfg": false,
      "metar_trigger": false,
      "taf_trigger": false,
      "metar": "METAR LUKK 281400Z 32009KT 290V360 CAVOK 33/16 Q1018 NOSIG",
      "taf": "TAF LUKK 281103Z 2812/2912 31009KT CAVOK"
    },
    {
      "icao": "LWOH",
      "alert": "OK",
      "vis_m": 9999,
      "fzfg": false,
      "metar_trigger": false,
      "taf_trigger": false,
      "metar": "METAR LWOH 281350Z 22004KT 170V260 9999 SCT040 31/17 Q1021",
      "taf": "TAF LWOH 281135Z 2812/2912 22006KT 9999 SCT040"
    },
    {
      "icao": "LWSK",
      "alert": "OK",
      "vis_m": 9999,
      "fzfg": false,
      "metar_trigger": false,
      "taf_trigger": false,
      "metar": "METAR LWSK 281350Z 02007KT 290V070 CAVOK 36/16 Q1017 NOSIG",
      "taf": "TAF LWSK 281135Z 2812/2912 22005KT CAVOK"
    },
    {
      "icao": "LYBE",
      "alert": "OK",
      "vis_m": 9999,
      "fzfg": false,
      "metar_trigger": false,
      "taf_trigger": false,
      "metar": "METAR LYBE 281400Z 08011KT 040V120 CAVOK 35/17 Q1019 NOSIG",
      "taf": "TAF LYBE 281100Z 2812/2912 13010KT CAVOK TX38/2912Z TN22/2903Z"
    },
    {
      "icao": "LYNI",
      "alert": "OK",
      "vis_m": 9999,
      "fzfg": false,
      "metar_trigger": false,
      "taf_trigger": false,
      "metar": "METAR LYNI 281400Z 01008KT 330V070 9999 FEW080 34/17 Q1019 NOSIG",
      "taf": "TAF LYNI 281100Z 2812/2912 09005KT 9999 SCT060 TX36/2814Z TN20/2903Z"
    },
    {
      "icao": "LYPG",
      "alert": "OK",
      "vis_m": 9999,
      "fzfg": false,
      "metar_trigger": false,
      "taf_trigger": false,
      "metar": "METAR LYPG 281400Z 18007KT 140V220 9999 FEW050 37/14 Q1015 NOSIG",
      "taf": "TAF LYPG 281100Z 2812/2912 17008KT CAVOK TX38/2814Z TN25/2903Z"
    },
    {
      "icao": "LZIB",
      "alert": "OK",
      "vis_m": 9999,
      "fzfg": false,
      "metar_trigger": false,
      "taf_trigger": false,
      "metar": "METAR LZIB 281400Z 17012KT 140V200 CAVOK 38/14 Q1017 NOSIG",
      "taf": "TAF LZIB 281115Z 2812/2912 19012KT CAVOK"
    },
    {
      "icao": "LZKZ",
      "alert": "OK",
      "vis_m": 9999,
      "fzfg": false,
      "metar_trigger": false,
      "taf_trigger": false,
      "metar": "METAR LZKZ 281400Z 14006KT 090V190 CAVOK 37/15 Q1019 NOSIG",
      "taf": "TAF LZKZ 281115Z 2812/2912 21006KT CAVOK"
    },
    {
      "icao": "LZTT",
      "alert": "OK",
      "vis_m": 9999,
      "fzfg": false,
      "metar_trigger": false,
      "taf_trigger": false,
      "metar": "METAR LZTT 281400Z 19005KT 150V250 9999 SCT066 32/16 Q1022 NOSIG",
      "taf": "TAF LZTT 281115Z 2812/2912 27005KT CAVOK"
    },
    {
      "icao": "OEJN",
      "alert": "OK",
      "vis_m": 9999,
      "fzfg": false,
      "metar_trigger": false,
      "taf_trigger": false,
      "metar": "METAR OEJN 281400Z 33017KT CAVOK 38/10 Q1004 NOSIG",
      "taf": "TAF OEJN 281100Z 2812/2918 30015KT CAVOK"
    },
    {
      "icao": "OEMA",
      "alert": "OK",
      "vis_m": 9999,
      "fzfg": false,
      "metar_trigger": false,
      "taf_trigger": false,
      "metar": "METAR OEMA 281400Z 28010KT CAVOK 43/M08 Q1008 NOSIG",
      "taf": "TAF OEMA 281100Z 2812/2918 28010KT CAVOK"
    },
    {
      "icao": "OJAI",
      "alert": "OK",
      "vis_m": 5000,
      "fzfg": false,
      "metar_trigger": false,
      "taf_trigger": false,
      "metar": "METAR OJAI 281400Z 25010KT 5000 HZ NSC 31/13 Q1013 NOSIG",
      "taf": "TAF OJAI 281100Z 2812/2918 29008KT 5000 HZ NSC"
    },
    {
      "icao": "OMAA",
      "alert": "OK",
      "vis_m": 9999,
      "fzfg": false,
      "metar_trigger": false,
      "taf_trigger": false,
      "metar": "METAR OMAA 281400Z 33013KT CAVOK 35/24 Q0999 NOSIG",
      "taf": "TAF OMAA 281100Z 2812/2918 32011KT 8000 NSC"
    },
    {
      "icao": "OMDB",
      "alert": "OK",
      "vis_m": 9999,
      "fzfg": false,
      "metar_trigger": false,
      "taf_trigger": false,
      "metar": "METAR OMDB 281400Z 33010KT 290V350 CAVOK 37/24 Q0998 NOSIG",
      "taf": "TAF OMDB 281100Z 2812/2918 33014KT 8000 NSC"
    },
    {
      "icao": "UAAA",
      "alert": "OK",
      "vis_m": 9999,
      "fzfg": false,
      "metar_trigger": false,
      "taf_trigger": false,
      "metar": "METAR UAAA 281400Z 15001MPS 9999 FEW050CB SCT100 33/11 Q1008 NOSIG",
      "taf": "TAF UAAA 281100Z 2812/2912 17003MPS 9999 SCT050CB BKN100 TX36/2910Z TN20/2901Z"
    },
    {
      "icao": "UBBB",
      "alert": "OK",
      "vis_m": 9999,
      "fzfg": false,
      "metar_trigger": false,
      "taf_trigger": false,
      "metar": "METAR UBBB 281400Z 35008KT CAVOK 24/10 Q1015 NOSIG",
      "taf": "TAF UBBB 281055Z 2812/2912 33012KT 9999 FEW040CB SCT040 TX23/2812Z TN19/2901Z"
    },
    {
      "icao": "UDSG",
      "alert": "OK",
      "vis_m": 9999,
      "fzfg": false,
      "metar_trigger": false,
      "taf_trigger": false,
      "metar": "METAR UDSG 281400Z 35009KT 9999 SCT049CB 19/07 Q1021 NOSIG",
      "taf": "TAF UDSG 281058Z 2812/2912 36006KT 9999 FEW050"
    },
    {
      "icao": "UDYZ",
      "alert": "OK",
      "vis_m": 9999,
      "fzfg": false,
      "metar_trigger": false,
      "taf_trigger": false,
      "metar": "METAR UDYZ 281400Z 13004KT 9999 NSC 28/05 Q1014 NOSIG",
      "taf": "TAF UDYZ 281100Z 2812/2912 04006KT CAVOK"
    },
    {
      "icao": "UGKO",
      "alert": "OK",
      "vis_m": 9999,
      "fzfg": false,
      "metar_trigger": false,
      "taf_trigger": false,
      "metar": "METAR UGKO 281400Z 28014KT CAVOK 24/12 Q1017 NOSIG",
      "taf": "TAF UGKO 281100Z 2812/2912 25007KT CAVOK TX25/2911Z TN16/2902Z"
    }
  ]
}