{
  "ts_utc": "2026-01-21T09:18:20Z",
  "threshold_m": 150,
  "source": "stations_override.txt (ICAO list) + aviationweather.gov (METAR/TAF raw)",
  "station_count": 159,
  "stations": [
    {
      "icao": "BIKF",
      "alert": "OK",
      "vis_m": 9999,
      "fzfg": false,
      "metar_trigger": false,
      "taf_trigger": false,
      "metar": "METAR BIKF 210900Z 03010KT CAVOK 03/01 Q0998",
      "taf": "TAF BIKF 210745Z 2109/2209 05012KT 9999 FEW020 BKN045 TX09/2209Z TN04/2109Z"
    },
    {
      "icao": "BKPR",
      "alert": "OK",
      "vis_m": 9999,
      "fzfg": false,
      "metar_trigger": false,
      "taf_trigger": false,
      "metar": "METAR BKPR 210900Z 17015KT 9999 FEW020 SCT025 BKN050 M00/M02 Q1017 NOSIG",
      "taf": ""
    },
    {
      "icao": "EBCI",
      "alert": "OK",
      "vis_m": 9999,
      "fzfg": false,
      "metar_trigger": false,
      "taf_trigger": false,
      "metar": "METAR EBCI 210850Z 16007KT 130V190 CAVOK 05/01 Q1003 NOSIG",
      "taf": "TAF EBCI 210510Z 2106/2212 15009KT 9999 SCT040"
    },
    {
      "icao": "EDDB",
      "alert": "OK",
      "vis_m": 9999,
      "fzfg": false,
      "metar_trigger": false,
      "taf_trigger": false,
      "metar": "METAR EDDB 210850Z AUTO 13006KT CAVOK M04/M07 Q1011 NOSIG",
      "taf": "TAF EDDB 210500Z 2106/2206 12005KT CAVOK"
    },
    {
      "icao": "EDDH",
      "alert": "OK",
      "vis_m": 9999,
      "fzfg": false,
      "metar_trigger": false,
      "taf_trigger": false,
      "metar": "METAR EDDH 210850Z AUTO 10005KT CAVOK M03/M06 Q1010 NOSIG",
      "taf": "TAF EDDH 210500Z 2106/2212 09005KT CAVOK"
    },
    {
      "icao": "EDDK",
      "alert": "OK",
      "vis_m": 9999,
      "fzfg": false,
      "metar_trigger": false,
      "taf_trigger": false,
      "metar": "METAR EDDK 210850Z AUTO 11007KT 080V150 CAVOK 03/M03 Q1007 NOSIG",
      "taf": "TAF EDDK 210500Z 2106/2212 12009KT CAVOK"
    },
    {
      "icao": "EDDN",
      "alert": "OK",
      "vis_m": 9999,
      "fzfg": false,
      "metar_trigger": false,
      "taf_trigger": false,
      "metar": "METAR EDDN 210850Z AUTO 11008KT CAVOK M05/M08 Q1010 NOSIG",
      "taf": "TAF EDDN 210500Z 2106/2206 11007KT CAVOK"
    },
    {
      "icao": "EDDS",
      "alert": "OK",
      "vis_m": 9999,
      "fzfg": false,
      "metar_trigger": false,
      "taf_trigger": false,
      "metar": "METAR EDDS 210850Z AUTO VRB02KT CAVOK M03/M04 Q1007 NOSIG",
      "taf": "TAF EDDS 210500Z 2106/2206 VRB03KT 3500 BR NSC"
    },
    {
      "icao": "EDFH",
      "alert": "OK",
      "vis_m": 250,
      "fzfg": true,
      "metar_trigger": false,
      "taf_trigger": false,
      "metar": "METAR EDFH 210850Z 14015KT 0250 R21/0325N FZFG VV/// M03/M04 Q1006",
      "taf": "TAF EDFH 210500Z 2106/2206 14013KT 6000 NSC"
    },
    {
      "icao": "EDJA",
      "alert": "OK",
      "vis_m": 9999,
      "fzfg": false,
      "metar_trigger": false,
      "taf_trigger": false,
      "metar": "METAR EDJA 210850Z COR VRB02KT CAVOK M03/M04 Q1008",
      "taf": "TAF EDJA 210800Z 2109/2118 VRB03KT CAVOK"
    },
    {
      "icao": "EDLW",
      "alert": "OK",
      "vis_m": 9999,
      "fzfg": false,
      "metar_trigger": false,
      "taf_trigger": false,
      "metar": "METAR EDLW 210850Z 15009KT CAVOK 06/M02 Q1005",
      "taf": "TAF EDLW 210500Z 2106/2206 14006KT CAVOK"
    },
    {
      "icao": "EDNY",
      "alert": "OK",
      "vis_m": 450,
      "fzfg": true,
      "metar_trigger": false,
      "taf_trigger": false,
      "metar": "METAR EDNY 210850Z 06005KT 0450 R24/0600N FZFG VV/// M04/M04 Q1009",
      "taf": "TAF EDNY 210800Z 2109/2118 VRB02KT 0500 FZFG VV001"
    },
    {
      "icao": "EDSB",
      "alert": "OK",
      "vis_m": 800,
      "fzfg": true,
      "metar_trigger": false,
      "taf_trigger": false,
      "metar": "METAR EDSB 210850Z VRB02KT 0800 R21/1300U FZFG VV/// M01/M01 Q1009",
      "taf": "TAF EDSB 210500Z 2106/2206 VRB03KT 0600 FZFG VV003"
    },
    {
      "icao": "EETN",
      "alert": "OK",
      "vis_m": 9000,
      "fzfg": false,
      "metar_trigger": false,
      "taf_trigger": false,
      "metar": "METAR EETN 210850Z 09008KT 9000 OVC004 M02/M02 Q1022 NOSIG",
      "taf": "TAF EETN 210530Z 2106/2206 09010KT 6000 BKN003 OVC005"
    },
    {
      "icao": "EFTU",
      "alert": "OK",
      "vis_m": 9999,
      "fzfg": false,
      "metar_trigger": false,
      "taf_trigger": false,
      "metar": "METAR EFTU 210850Z AUTO 10008KT 060V120 9999 OVC005 M03/M04 Q1023",
      "taf": "TAF EFTU 210837Z 2109/2209 07006KT 9999 OVC006"
    },
    {
      "icao": "EGBB",
      "alert": "OK",
      "vis_m": 7000,
      "fzfg": false,
      "metar_trigger": false,
      "taf_trigger": false,
      "metar": "METAR EGBB 210850Z 13012KT 7000 -RA BKN008 05/04 Q0990",
      "taf": ""
    },
    {
      "icao": "EGGP",
      "alert": "OK",
      "vis_m": 9999,
      "fzfg": false,
      "metar_trigger": false,
      "taf_trigger": false,
      "metar": "METAR EGGP 210850Z 11013KT 9999 -RA SCT025 04/03 Q0989",
      "taf": ""
    },
    {
      "icao": "EGGW",
      "alert": "OK",
      "vis_m": 9999,
      "fzfg": false,
      "metar_trigger": false,
      "taf_trigger": false,
      "metar": "METAR EGGW 210850Z AUTO 13015KT 9999 -RA OVC005/// //////CB 06/05 Q0991",
      "taf": "TAF EGGW 210455Z 2106/2206 16012KT 9999 SCT020"
    },
    {
      "icao": "EGKK",
      "alert": "OK",
      "vis_m": 5000,
      "fzfg": false,
      "metar_trigger": false,
      "taf_trigger": false,
      "metar": "METAR EGKK 210850Z 14010KT 100V190 5000 -RA SCT006 BKN017 08/08 Q0992",
      "taf": "TAF EGKK 210455Z 2106/2212 17009KT 9999 SCT016"
    },
    {
      "icao": "EGNM",
      "alert": "OK",
      "vis_m": 9999,
      "fzfg": false,
      "metar_trigger": false,
      "taf_trigger": false,
      "metar": "METAR EGNM 210850Z 12009KT 090V150 9999 BKN005 04/03 Q0991",
      "taf": "TAF EGNM 210525Z 2106/2206 15009KT 9999 SCT012"
    },
    {
      "icao": "EGPD",
      "alert": "OK",
      "vis_m": 7000,
      "fzfg": false,
      "metar_trigger": false,
      "taf_trigger": false,
      "metar": "METAR EGPD 210850Z 12016G28KT 7000 -RA BKN008 07/06 Q0993 TEMPO 4000 RA",
      "taf": ""
    },
    {
      "icao": "EGPF",
      "alert": "OK",
      "vis_m": 7000,
      "fzfg": false,
      "metar_trigger": false,
      "taf_trigger": false,
      "metar": "METAR EGPF 210850Z AUTO 07006KT 7000 FEW024 05/04 Q0989",
      "taf": ""
    },
    {
      "icao": "EHBK",
      "alert": "OK",
      "vis_m": 9999,
      "fzfg": false,
      "metar_trigger": false,
      "taf_trigger": false,
      "metar": "METAR EHBK 210855Z AUTO 16009KT 130V200 9999 NSC 06/01 Q1004 NOSIG",
      "taf": "TAF EHBK 210518Z 2106/2212 17010KT CAVOK"
    },
    {
      "icao": "EHEH",
      "alert": "OK",
      "vis_m": 9999,
      "fzfg": false,
      "metar_trigger": false,
      "taf_trigger": false,
      "metar": "METAR EHEH 210855Z AUTO 13007KT 100V200 9999 FEW059 BKN064 OVC070 04/M00 Q1004 BLU NOSIG RMK TREND REMOTE BY EHWX",
      "taf": "TAF EHEH 210543Z 2106/2212 13006KT 9999 BKN045"
    },
    {
      "icao": "EKBI",
      "alert": "OK",
      "vis_m": 9999,
      "fzfg": false,
      "metar_trigger": false,
      "taf_trigger": false,
      "metar": "METAR EKBI 210850Z AUTO 09015KT 060V130 9999 OVC012/// M00/M02 Q1012",
      "taf": "TAF EKBI 210827Z 2109/2209 08012KT 9999 BKN010"
    },
    {
      "icao": "EKCH",
      "alert": "OK",
      "vis_m": 5000,
      "fzfg": false,
      "metar_trigger": false,
      "taf_trigger": false,
      "metar": "METAR EKCH 210854Z 05008KT 5000 OVC022 M00/M01 Q1014 NOSIG",
      "taf": "TAF EKCH 210827Z 2109/2209 07010KT 7000 BKN020"
    },
    {
      "icao": "ENAL",
      "alert": "OK",
      "vis_m": 9999,
      "fzfg": false,
      "metar_trigger": false,
      "taf_trigger": false,
      "metar": "METAR ENAL 210850Z 07012KT CAVOK 01/M02 Q1012",
      "taf": "TAF ENAL 210800Z 2109/2118 12007KT CAVOK"
    },
    {
      "icao": "ENBR",
      "alert": "OK",
      "vis_m": 9999,
      "fzfg": false,
      "metar_trigger": false,
      "taf_trigger": false,
      "metar": "METAR ENBR 210850Z 00000KT CAVOK M01/M02 Q1010 NOSIG RMK WIND 1200FT 10007KT",
      "taf": "TAF ENBR 210500Z 2106/2206 08005KT CAVOK"
    },
    {
      "icao": "ENGM",
      "alert": "OK",
      "vis_m": 9999,
      "fzfg": false,
      "metar_trigger": false,
      "taf_trigger": false,
      "metar": "METAR ENGM 210850Z 02007KT 9999 VCSH OVC017 M03/M05 Q1021 NOSIG",
      "taf": "TAF ENGM 210500Z 2106/2206 02008KT 9999 OVC018"
    },
    {
      "icao": "ENHD",
      "alert": "OK",
      "vis_m": 9999,
      "fzfg": false,
      "metar_trigger": false,
      "taf_trigger": false,
      "metar": "METAR ENHD 210850Z 05001KT CAVOK M03/M04 Q1010",
      "taf": "TAF ENHD 210800Z 2109/2118 10009KT CAVOK"
    },
    {
      "icao": "ENTC",
      "alert": "OK",
      "vis_m": 9999,
      "fzfg": false,
      "metar_trigger": false,
      "taf_trigger": false,
      "metar": "METAR ENTC 210850Z 06002KT CAVOK M08/M09 Q1025 NOSIG RMK WIND 2600FT 10005KT",
      "taf": ""
    },
    {
      "icao": "ENTO",
      "alert": "OK",
      "vis_m": 9999,
      "fzfg": false,
      "metar_trigger": false,
      "taf_trigger": false,
      "metar": "METAR ENTO 210850Z 04012KT 9999 OVC016 M02/M05 Q1020 NOSIG",
      "taf": ""
    },
    {
      "icao": "ENVA",
      "alert": "OK",
      "vis_m": 9999,
      "fzfg": false,
      "metar_trigger": false,
      "taf_trigger": false,
      "metar": "METAR ENVA 210850Z 06005KT CAVOK M04/M08 Q1020 NOSIG RMK WIND 670FT 12011KT",
      "taf": "TAF ENVA 210500Z 2106/2206 09008KT CAVOK"
    },
    {
      "icao": "ENZV",
      "alert": "OK",
      "vis_m": 9999,
      "fzfg": false,
      "metar_trigger": false,
      "taf_trigger": false,
      "metar": "METAR ENZV 210850Z VRB02KT CAVOK M03/M04 Q1010 NOSIG",
      "taf": "TAF ENZV 210500Z 2106/2206 10005KT CAVOK"
    },
    {
      "icao": "EPGD",
      "alert": "OK",
      "vis_m": 2800,
      "fzfg": false,
      "metar_trigger": false,
      "taf_trigger": false,
      "metar": "METAR EPGD 210900Z VRB01KT 2800 BR NSC M11/M12 Q1013",
      "taf": ""
    },
    {
      "icao": "EPKK",
      "alert": "OK",
      "vis_m": 3000,
      "fzfg": false,
      "metar_trigger": false,
      "taf_trigger": false,
      "metar": "METAR EPKK 210900Z 13001KT 3000 HZ NSC M07/M12 Q1016",
      "taf": "TAF EPKK 210830Z 2109/2209 VRB02KT 2800 BR NSC"
    },
    {
      "icao": "EPKT",
      "alert": "OK",
      "vis_m": 9000,
      "fzfg": false,
      "metar_trigger": false,
      "taf_trigger": false,
      "metar": "METAR EPKT 210900Z 23006KT 9000 NSC M03/M08 Q1015",
      "taf": "TAF EPKT 210530Z 2106/2206 VRB02KT 3500 BR NSC"
    },
    {
      "icao": "EPLB",
      "alert": "OK",
      "vis_m": 2800,
      "fzfg": false,
      "metar_trigger": false,
      "taf_trigger": false,
      "metar": "METAR EPLB 210900Z 00000KT 2800 BR NSC M11/M12 Q1017",
      "taf": ""
    },
    {
      "icao": "EPMO",
      "alert": "OK",
      "vis_m": 4000,
      "fzfg": false,
      "metar_trigger": false,
      "taf_trigger": false,
      "metar": "METAR EPMO 210900Z 11005KT 060V150 4000 BR NSC M09/M11 Q1016",
      "taf": "TAF EPMO 210530Z 2106/2206 13005KT 7000 NSC"
    },
    {
      "icao": "EPPO",
      "alert": "OK",
      "vis_m": 9999,
      "fzfg": false,
      "metar_trigger": false,
      "taf_trigger": false,
      "metar": "METAR EPPO 210900Z 17005KT CAVOK M03/M08 Q1013",
      "taf": "TAF EPPO 210530Z 2106/2206 13005KT CAVOK"
    },
    {
      "icao": "EPRA",
      "alert": "OK",
      "vis_m": 9999,
      "fzfg": false,
      "metar_trigger": false,
      "taf_trigger": false,
      "metar": "METAR EPRA 210900Z VRB02KT CAVOK M08/M12 Q1016",
      "taf": "TAF EPRA 210830Z 2109/2118 15008KT CAVOK"
    },
    {
      "icao": "EPRZ",
      "alert": "OK",
      "vis_m": 5000,
      "fzfg": false,
      "metar_trigger": false,
      "taf_trigger": false,
      "metar": "METAR EPRZ 210900Z 09004KT 5000 BR NSC M07/M11 Q1017",
      "taf": "TAF EPRZ 210530Z 2106/2206 10005KT 8000 NSC"
    },
    {
      "icao": "EPSC",
      "alert": "OK",
      "vis_m": 9999,
      "fzfg": false,
      "metar_trigger": false,
      "taf_trigger": false,
      "metar": "METAR EPSC 210900Z 12004KT CAVOK M05/M07 Q1012",
      "taf": "TAF EPSC 210530Z 2106/2206 12007KT CAVOK"
    },
    {
      "icao": "EPSY",
      "alert": "OK",
      "vis_m": 1900,
      "fzfg": false,
      "metar_trigger": false,
      "taf_trigger": false,
      "metar": "METAR EPSY 210900Z 35001KT 1900 BR NSC M16/M18 Q1015",
      "taf": "TAF EPSY 210830Z 2109/2118 VRB02KT 2000 BR NSC"
    },
    {
      "icao": "EPWA",
      "alert": "OK",
      "vis_m": 5000,
      "fzfg": false,
      "metar_trigger": false,
      "taf_trigger": false,
      "metar": "METAR EPWA 210900Z 14006KT 5000 BR NSC M11/M12 Q1016 NOSIG",
      "taf": "TAF EPWA 210830Z 2109/2209 13005KT 6000 NSC"
    },
    {
      "icao": "EPWR",
      "alert": "OK",
      "vis_m": 9999,
      "fzfg": false,
      "metar_trigger": false,
      "taf_trigger": false,
      "metar": "METAR EPWR 210900Z 20007KT 180V240 CAVOK 01/M07 Q1013",
      "taf": "TAF EPWR 210830Z 2109/2209 18010KT CAVOK"
    },
    {
      "icao": "ESGG",
      "alert": "OK",
      "vis_m": 9999,
      "fzfg": false,
      "metar_trigger": false,
      "taf_trigger": false,
      "metar": "METAR ESGG 210850Z 05010KT 9999 OVC008 M03/M04 Q1016",
      "taf": "TAF ESGG 210830Z 2109/2209 05010KT 9999 OVC012"
    },
    {
      "icao": "ESKN",
      "alert": "OK",
      "vis_m": 9999,
      "fzfg": false,
      "metar_trigger": false,
      "taf_trigger": false,
      "metar": "METAR ESKN 210850Z 03006KT 350V060 9999 SCT020 OVC027 M00/M03 Q1019",
      "taf": "TAF ESKN 210830Z 2109/2209 04007KT 9999 OVC020"
    },
    {
      "icao": "ESMS",
      "alert": "OK",
      "vis_m": 9000,
      "fzfg": false,
      "metar_trigger": false,
      "taf_trigger": false,
      "metar": "METAR ESMS 210850Z 08005KT 9000 OVC019 00/M02 Q1013",
      "taf": "TAF ESMS 210827Z 2109/2209 08010KT 9999 BKN018"
    },
    {
      "icao": "ESSA",
      "alert": "OK",
      "vis_m": 9999,
      "fzfg": false,
      "metar_trigger": false,
      "taf_trigger": false,
      "metar": "METAR ESSA 210850Z 03008KT 9999 SCT016 OVC022 M02/M04 Q1020 TEMPO OVC015",
      "taf": "TAF ESSA 210830Z 2109/2209 02008KT 9999 -SN OVC020"
    },
    {
      "icao": "EYKA",
      "alert": "OK",
      "vis_m": 4200,
      "fzfg": false,
      "metar_trigger": false,
      "taf_trigger": false,
      "metar": "METAR EYKA 210850Z VRB02KT 4200 BR NSC M14/M16 Q1017",
      "taf": "TAF EYKA 210500Z 2106/2206 VRB04KT 5000 BR NSC"
    },
    {
      "icao": "EYPA",
      "alert": "OK",
      "vis_m": 9999,
      "fzfg": false,
      "metar_trigger": false,
      "taf_trigger": false,
      "metar": "METAR EYPA 210850Z 07005KT CAVOK M11/M13 Q1016",
      "taf": ""
    },
    {
      "icao": "EYVI",
      "alert": "OK",
      "vis_m": 3100,
      "fzfg": false,
      "metar_trigger": false,
      "taf_trigger": false,
      "metar": "METAR EYVI 210850Z 17006KT 3100 BR NSC M13/M15 Q1017 NOSIG",
      "taf": ""
    },
    {
      "icao": "GCFV",
      "alert": "OK",
      "vis_m": 9999,
      "fzfg": false,
      "metar_trigger": false,
      "taf_trigger": false,
      "metar": "METAR GCFV 210900Z 32007KT 9999 FEW035 17/09 Q1022",
      "taf": "TAF GCFV 210800Z 2109/2209 35012KT 9999 SCT035 TX21/2114Z TN16/2206Z"
    },
    {
      "icao": "GCLP",
      "alert": "OK",
      "vis_m": 9999,
      "fzfg": false,
      "metar_trigger": false,
      "taf_trigger": false,
      "metar": "METAR GCLP 210900Z 35006KT 320V020 9999 FEW035 SCT045 17/11 Q1023 NOSIG",
      "taf": ""
    },
    {
      "icao": "GCTS",
      "alert": "OK",
      "vis_m": 9999,
      "fzfg": false,
      "metar_trigger": false,
      "taf_trigger": false,
      "metar": "METAR GCTS 210900Z 32005KT 290V350 9999 FEW030 17/10 Q1023 NOSIG",
      "taf": ""
    },
    {
      "icao": "GMAD",
      "alert": "OK",
      "vis_m": 9999,
      "fzfg": false,
      "metar_trigger": false,
      "taf_trigger": false,
      "metar": "METAR GMAD 210900Z 07003KT 9999 FEW030 10/10 Q1020 NOSIG",
      "taf": "TAF GMAD 210500Z 2106/2212 06008KT"
    },
    {
      "icao": "GMMN",
      "alert": "OK",
      "vis_m": 9999,
      "fzfg": false,
      "metar_trigger": false,
      "taf_trigger": false,
      "metar": "METAR GMMN 210900Z 20007KT 9999 BKN040 10/09 Q1020 NOSIG",
      "taf": "TAF GMMN 210500Z 2106/2212 18006KT 9999 BKN034"
    },
    {
      "icao": "GMMX",
      "alert": "OK",
      "vis_m": 9999,
      "fzfg": false,
      "metar_trigger": false,
      "taf_trigger": false,
      "metar": "METAR GMMX 210900Z VRB01KT 9999 FEW026 09/06 Q1020 NOSIG",
      "taf": "TAF GMMX 210500Z 2106/2212 28006KT 8000 SCT026"
    },
    {
      "icao": "HEGN",
      "alert": "OK",
      "vis_m": 9999,
      "fzfg": false,
      "metar_trigger": false,
      "taf_trigger": false,
      "metar": "METAR HEGN 210900Z 34006KT CAVOK 19/07 Q1019 NOSIG",
      "taf": "TAF HEGN 210500Z 2106/2212 01013KT CAVOK"
    },
    {
      "icao": "HEMA",
      "alert": "OK",
      "vis_m": 9999,
      "fzfg": false,
      "metar_trigger": false,
      "taf_trigger": false,
      "metar": "METAR HEMA 210900Z 35012KT CAVOK 22/12 Q1018 NOSIG",
      "taf": "TAF HEMA 210500Z 2106/2212 01015KT CAVOK"
    },
    {
      "icao": "HESH",
      "alert": "OK",
      "vis_m": 9999,
      "fzfg": false,
      "metar_trigger": false,
      "taf_trigger": false,
      "metar": "METAR HESH 210800Z 34011KT CAVOK 20/07 Q1018 NOSIG",
      "taf": "TAF HESH 210500Z 2106/2212 15012KT CAVOK"
    },
    {
      "icao": "HESX",
      "alert": "OK",
      "vis_m": 9999,
      "fzfg": false,
      "metar_trigger": false,
      "taf_trigger": false,
      "metar": "METAR HESX 210900Z 07018KT CAVOK 16/01 Q1016 NOSIG",
      "taf": "TAF HESX 210500Z 2106/2212 08015KT 6000 NSC"
    },
    {
      "icao": "LATI",
      "alert": "OK",
      "vis_m": null,
      "fzfg": false,
      "metar_trigger": false,
      "taf_trigger": false,
      "metar": "",
      "taf": "TAF LATI 210500Z 2106/2206 VRB05KT 9999 -RA SCT035 BKN060 TX10/2112Z TN05/2204Z"
    },
    {
      "icao": "LBPD",
      "alert": "OK",
      "vis_m": 9999,
      "fzfg": false,
      "metar_trigger": false,
      "taf_trigger": false,
      "metar": "METAR LBPD 210900Z AUTO 30005KT 9999 OVC025/// M03/M04 Q1025 NOSIG",
      "taf": "TAF LBPD 210500Z 2106/2206 VRB03KT 9999 SCT040 BKN070"
    },
    {
      "icao": "LBSF",
      "alert": "OK",
      "vis_m": 2000,
      "fzfg": false,
      "metar_trigger": false,
      "taf_trigger": false,
      "metar": "METAR LBSF 210900Z 10013KT 2000 SN SCT018 BKN022 OVC029 M03/M05 Q1022 TEMPO 1200 SN",
      "taf": ""
    },
    {
      "icao": "LBWN",
      "alert": "OK",
      "vis_m": 9000,
      "fzfg": false,
      "metar_trigger": false,
      "taf_trigger": false,
      "metar": "METAR LBWN 210900Z 14004KT 9000 OVC021 02/01 Q1025 NOSIG",
      "taf": "TAF LBWN 210500Z 2106/2206 VRB03KT 9999 BKN020"
    },
    {
      "icao": "LCLK",
      "alert": "OK",
      "vis_m": 9999,
      "fzfg": false,
      "metar_trigger": false,
      "taf_trigger": false,
      "metar": "METAR LCLK 210900Z 05015KT 9999 FEW018 14/05 Q1024 NOSIG",
      "taf": "TAF LCLK 210530Z 2106/2206 32009KT CAVOK"
    },
    {
      "icao": "LCPH",
      "alert": "OK",
      "vis_m": 9999,
      "fzfg": false,
      "metar_trigger": false,
      "taf_trigger": false,
      "metar": "METAR LCPH 210900Z AUTO 14011KT 090V160 9999 NCD 14/M02 Q1023 NOSIG",
      "taf": "TAF LCPH 210530Z 2106/2206 06008KT CAVOK"
    },
    {
      "icao": "LEAL",
      "alert": "OK",
      "vis_m": 9999,
      "fzfg": false,
      "metar_trigger": false,
      "taf_trigger": false,
      "metar": "METAR LEAL 210900Z 30009KT 9999 BKN042 12/06 Q1012 NOSIG",
      "taf": "TAF LEAL 210500Z 2106/2206 30012KT 9999 BKN050 TX19/2113Z TN12/2106Z"
    },
    {
      "icao": "LEBB",
      "alert": "OK",
      "vis_m": 9999,
      "fzfg": false,
      "metar_trigger": false,
      "taf_trigger": false,
      "metar": "METAR LEBB 210900Z 17014G28KT 120V230 CAVOK 16/05 Q0998 WS ALL RWY NOSIG",
      "taf": "TAF LEBB 210500Z 2106/2206 20009KT 9999 FEW060 TX14/2115Z TN07/2206Z"
    },
    {
      "icao": "LEBL",
      "alert": "OK",
      "vis_m": 9999,
      "fzfg": false,
      "metar_trigger": false,
      "taf_trigger": false,
      "metar": "METAR LEBL 210900Z 33004KT 9999 SCT035 11/10 Q1010 NOSIG",
      "taf": ""
    },
    {
      "icao": "LECH",
      "alert": "OK",
      "vis_m": 7000,
      "fzfg": false,
      "metar_trigger": false,
      "taf_trigger": false,
      "metar": "METAR LECH 210900Z AUTO 21004KT 7000 SCT001 SCT020 BKN036 08/08 Q1011",
      "taf": ""
    },
    {
      "icao": "LEMD",
      "alert": "OK",
      "vis_m": 4000,
      "fzfg": false,
      "metar_trigger": false,
      "taf_trigger": false,
      "metar": "SPECI LEMD 210910Z VRB01KT 4000 -DZ BR SCT007 OVC013 02/02 Q1010 NOSIG",
      "taf": ""
    },
    {
      "icao": "LEMG",
      "alert": "OK",
      "vis_m": 9999,
      "fzfg": false,
      "metar_trigger": false,
      "taf_trigger": false,
      "metar": "METAR LEMG 210900Z 31004KT 9999 FEW040 09/06 Q1015 NOSIG",
      "taf": "TAF LEMG 210500Z 2106/2206 30010KT CAVOK TX17/2114Z TN08/2107Z"
    },
    {
      "icao": "LEVC",
      "alert": "OK",
      "vis_m": 9999,
      "fzfg": false,
      "metar_trigger": false,
      "taf_trigger": false,
      "metar": "METAR LEVC 210900Z 25007KT 9999 FEW030 BKN055 09/06 Q1012 NOSIG",
      "taf": ""
    },
    {
      "icao": "LEXJ",
      "alert": "OK",
      "vis_m": 9999,
      "fzfg": false,
      "metar_trigger": false,
      "taf_trigger": false,
      "metar": "METAR LEXJ 210900Z 20021G36KT 160V250 9999 FEW060 15/05 Q0995",
      "taf": ""
    },
    {
      "icao": "LEZG",
      "alert": "OK",
      "vis_m": 9999,
      "fzfg": false,
      "metar_trigger": false,
      "taf_trigger": false,
      "metar": "METAR LEZG 210900Z 11007KT 080V140 CAVOK 05/03 Q1009 NOSIG",
      "taf": "TAF LEZG 210500Z 2106/2206 VRB04KT 9999 FEW040 TX14/2115Z TN05/2106Z"
    },
    {
      "icao": "LEZL",
      "alert": "OK",
      "vis_m": 8000,
      "fzfg": false,
      "metar_trigger": false,
      "taf_trigger": false,
      "metar": "METAR LEZL 210900Z 00000KT 8000 -DZ SCT028 BKN032 08/08 Q1015 NOSIG",
      "taf": "TAF LEZL 210800Z 2109/2209 VRB03KT 9999 SCT030 TX15/2115Z TN09/2207Z"
    },
    {
      "icao": "LFBD",
      "alert": "OK",
      "vis_m": 9999,
      "fzfg": false,
      "metar_trigger": false,
      "taf_trigger": false,
      "metar": "METAR LFBD 210900Z AUTO 15012KT CAVOK 07/05 Q1000 NOSIG",
      "taf": "TAF LFBD 210500Z 2106/2212 16010KT CAVOK TX13/2114Z TN06/2106Z"
    },
    {
      "icao": "LFLL",
      "alert": "OK",
      "vis_m": 9999,
      "fzfg": false,
      "metar_trigger": false,
      "taf_trigger": false,
      "metar": "METAR LFLL 210900Z 14009KT CAVOK 05/05 Q1007 NOSIG",
      "taf": "TAF LFLL 210500Z 2106/2212 13009KT CAVOK"
    },
    {
      "icao": "LFLS",
      "alert": "OK",
      "vis_m": 9999,
      "fzfg": false,
      "metar_trigger": false,
      "taf_trigger": false,
      "metar": "METAR LFLS 210900Z AUTO 07006KT CAVOK 04/00 Q1008 TEMPO 22010KT",
      "taf": "TAF LFLS 210800Z 2109/2209 08006KT CAVOK"
    },
    {
      "icao": "LFMN",
      "alert": "OK",
      "vis_m": 9999,
      "fzfg": false,
      "metar_trigger": false,
      "taf_trigger": false,
      "metar": "METAR LFMN 210900Z 32012KT CAVOK 09/M00 Q1009 NOSIG",
      "taf": "TAF LFMN 210800Z 2109/2215 34010KT CAVOK"
    },
    {
      "icao": "LFOB",
      "alert": "OK",
      "vis_m": 9999,
      "fzfg": false,
      "metar_trigger": false,
      "taf_trigger": false,
      "metar": "METAR LFOB 210900Z AUTO 16013KT 9999 -RA ///TCU 09/06 Q0999 BECMG BKN045",
      "taf": "TAF LFOB 210500Z 2106/2206 16012KT 9999 BKN045"
    },
    {
      "icao": "LFPO",
      "alert": "OK",
      "vis_m": 9999,
      "fzfg": false,
      "metar_trigger": false,
      "taf_trigger": false,
      "metar": "METAR LFPO 210900Z AUTO 17009KT 140V200 CAVOK 09/04 Q1000",
      "taf": "TAF LFPO 210500Z 2106/2212 17010KT CAVOK"
    },
    {
      "icao": "LFSB",
      "alert": "OK",
      "vis_m": 9999,
      "fzfg": false,
      "metar_trigger": false,
      "taf_trigger": false,
      "metar": "METAR LFSB 210900Z AUTO 32004KT CAVOK 00/M01 Q1008 NOSIG",
      "taf": "TAF LFSB 210500Z 2106/2206 16005KT CAVOK"
    },
    {
      "icao": "LGAV",
      "alert": "OK",
      "vis_m": 4000,
      "fzfg": false,
      "metar_trigger": false,
      "taf_trigger": false,
      "metar": "METAR LGAV 210850Z 08008KT 4000 RA SCT015 BKN025 10/08 Q1016 NOSIG",
      "taf": "TAF LGAV 210500Z 2106/2206 10012KT 9999 FEW018 BKN025"
    },
    {
      "icao": "LGTS",
      "alert": "OK",
      "vis_m": 9999,
      "fzfg": false,
      "metar_trigger": false,
      "taf_trigger": false,
      "metar": "METAR LGTS 210850Z 27006KT 9999 FEW006 BKN040 05/04 Q1021 NOSIG",
      "taf": "TAF LGTS 210500Z 2106/2206 11010KT 9999 FEW010 BKN025"
    },
    {
      "icao": "LHBP",
      "alert": "OK",
      "vis_m": 7000,
      "fzfg": false,
      "metar_trigger": false,
      "taf_trigger": false,
      "metar": "METAR LHBP 210900Z VRB02KT 7000 NSC M06/M07 Q1020 NOSIG",
      "taf": "TAF LHBP 210515Z 2106/2206 VRB03KT 2500 BR NSC"
    },
    {
      "icao": "LHDC",
      "alert": "OK",
      "vis_m": 5000,
      "fzfg": false,
      "metar_trigger": false,
      "taf_trigger": false,
      "metar": "METAR LHDC 210845Z AUTO 04005KT 5000 BR NCD M07/M09 Q1020 NOSIG",
      "taf": "TAF LHDC 210815Z 2109/2118 04006KT 4000 BR NSC"
    },
    {
      "icao": "LIBD",
      "alert": "OK",
      "vis_m": 5000,
      "fzfg": false,
      "metar_trigger": false,
      "taf_trigger": false,
      "metar": "METAR LIBD 210850Z VRB01KT 5000 -RA BKN011 07/07 Q1010",
      "taf": "TAF LIBD 210500Z 2106/2206 12008KT 8000 BKN020"
    },
    {
      "icao": "LIBG",
      "alert": "OK",
      "vis_m": 9999,
      "fzfg": false,
      "metar_trigger": false,
      "taf_trigger": false,
      "metar": "METAR LIBG 210850Z 05013KT 9999 -RA FEW010 BKN040 09/09 Q1008",
      "taf": "TAF LIBG 210800Z 2109/2118 05015KT 9999 RA FEW015 SCT040"
    },
    {
      "icao": "LIBP",
      "alert": "OK",
      "vis_m": 9999,
      "fzfg": false,
      "metar_trigger": false,
      "taf_trigger": false,
      "metar": "METAR LIBP 210850Z AUTO 19002KT 9999 BKN043/// BKN073/// BKN120/// 07/06 Q1011",
      "taf": "TAF LIBP 210500Z 2106/2206 VRB05KT 9999 FEW050"
    },
    {
      "icao": "LIBR",
      "alert": "OK",
      "vis_m": 9999,
      "fzfg": false,
      "metar_trigger": false,
      "taf_trigger": false,
      "metar": "METAR LIBR 210850Z 09013KT 9999 -RA OVC045 10/08 Q1008",
      "taf": "TAF LIBR 210500Z 2106/2206 06015KT 8000 RA BKN020"
    },
    {
      "icao": "LICA",
      "alert": "OK",
      "vis_m": 9999,
      "fzfg": false,
      "metar_trigger": false,
      "taf_trigger": false,
      "metar": "METAR LICA 210850Z AUTO 07010KT 9999 -RA OVC041/// 11/10 Q1003",
      "taf": "TAF LICA 210500Z 2106/2206 08022G35KT 8000 RA BKN040"
    },
    {
      "icao": "LICC",
      "alert": "OK",
      "vis_m": 9999,
      "fzfg": false,
      "metar_trigger": false,
      "taf_trigger": false,
      "metar": "METAR LICC 210850Z 28003KT 260V320 9999 FEW030 BKN070 14/12 Q1001",
      "taf": "TAF LICC 210500Z 2106/2206 VRB06KT 7000 RA BKN030"
    },
    {
      "icao": "LICJ",
      "alert": "OK",
      "vis_m": 9999,
      "fzfg": false,
      "metar_trigger": false,
      "taf_trigger": false,
      "metar": "METAR LICJ 210850Z 10012KT 9999 FEW020 BKN035 13/08 Q1000 WS R07",
      "taf": "TAF LICJ 210500Z 2106/2206 07020G40KT 9999 BKN030"
    },
    {
      "icao": "LIMC",
      "alert": "OK",
      "vis_m": 3000,
      "fzfg": false,
      "metar_trigger": false,
      "taf_trigger": false,
      "metar": "METAR LIMC 210850Z 03003KT 350V050 3000 BCFG NSC 01/01 Q1012 NOSIG",
      "taf": ""
    },
    {
      "icao": "LIME",
      "alert": "OK",
      "vis_m": 9999,
      "fzfg": false,
      "metar_trigger": false,
      "taf_trigger": false,
      "metar": "METAR LIME 210850Z 03002KT CAVOK 02/M01 Q1012 NOSIG",
      "taf": "TAF LIME 210500Z 2106/2206 VRB04KT CAVOK"
    },
    {
      "icao": "LIMF",
      "alert": "OK",
      "vis_m": 8000,
      "fzfg": false,
      "metar_trigger": false,
      "taf_trigger": false,
      "metar": "METAR LIMF 210850Z 10002KT 8000 NSC 01/M01 Q1011",
      "taf": "TAF LIMF 210500Z 2106/2206 VRB04KT 9999 SCT060"
    },
    {
      "icao": "LIMJ",
      "alert": "OK",
      "vis_m": 9999,
      "fzfg": false,
      "metar_trigger": false,
      "taf_trigger": false,
      "metar": "METAR LIMJ 210850Z 04017KT CAVOK 07/M03 Q1010",
      "taf": "TAF LIMJ 210500Z 2106/2206 02015KT CAVOK"
    },
    {
      "icao": "LIPE",
      "alert": "OK",
      "vis_m": 9999,
      "fzfg": false,
      "metar_trigger": false,
      "taf_trigger": false,
      "metar": "METAR LIPE 210850Z 19005KT CAVOK 02/00 Q1013",
      "taf": "TAF LIPE 210500Z 2106/2206 VRB05KT 9999 FEW040"
    },
    {
      "icao": "LIPH",
      "alert": "OK",
      "vis_m": 9999,
      "fzfg": false,
      "metar_trigger": false,
      "taf_trigger": false,
      "metar": "METAR LIPH 210850Z 03005KT CAVOK M01/M07 Q1014",
      "taf": "TAF LIPH 210500Z 2106/2206 VRB05KT CAVOK"
    },
    {
      "icao": "LIPQ",
      "alert": "OK",
      "vis_m": 9999,
      "fzfg": false,
      "metar_trigger": false,
      "taf_trigger": false,
      "metar": "METAR LIPQ 210850Z AUTO 09004KT 040V110 9999 NCD 02/M08 Q1013",
      "taf": "TAF LIPQ 210500Z 2106/2206 VRB05KT CAVOK"
    },
    {
      "icao": "LIPR",
      "alert": "OK",
      "vis_m": 9999,
      "fzfg": false,
      "metar_trigger": false,
      "taf_trigger": false,
      "metar": "METAR LIPR 210850Z 30007KT 9999 BKN040 04/M01 Q1013",
      "taf": "TAF LIPR 210500Z 2106/2206 30010KT 9999 SCT040"
    },
    {
      "icao": "LIPX",
      "alert": "OK",
      "vis_m": 9999,
      "fzfg": false,
      "metar_trigger": false,
      "taf_trigger": false,
      "metar": "METAR LIPX 210850Z VRB01KT CAVOK M01/M03 Q1013",
      "taf": "TAF LIPX 210500Z 2106/2206 VRB04KT CAVOK"
    },
    {
      "icao": "LIPY",
      "alert": "OK",
      "vis_m": 9999,
      "fzfg": false,
      "metar_trigger": false,
      "taf_trigger": false,
      "metar": "METAR LIPY 210850Z AUTO 23004KT 9999 FEW027/// BKN055/// 04/02 Q1012",
      "taf": "TAF LIPY 210500Z 2106/2206 32008KT 9999 BKN020"
    },
    {
      "icao": "LIPZ",
      "alert": "OK",
      "vis_m": 9999,
      "fzfg": false,
      "metar_trigger": false,
      "taf_trigger": false,
      "metar": "METAR LIPZ 210850Z 04008KT CAVOK M00/M07 Q1013 NOSIG",
      "taf": "TAF LIPZ 210500Z 2106/2212 02007KT CAVOK"
    },
    {
      "icao": "LIRF",
      "alert": "OK",
      "vis_m": 9999,
      "fzfg": false,
      "metar_trigger": false,
      "taf_trigger": false,
      "metar": "METAR LIRF 210850Z 01007KT CAVOK 07/01 Q1007 NOSIG",
      "taf": "TAF LIRF 210500Z 2106/2212 04010KT 9999 SCT055"
    },
    {
      "icao": "LIRN",
      "alert": "OK",
      "vis_m": 9999,
      "fzfg": false,
      "metar_trigger": false,
      "taf_trigger": false,
      "metar": "METAR LIRN 210850Z 04013KT 9999 FEW020 BKN070 08/03 Q1005 NOSIG",
      "taf": "TAF LIRN 210500Z 2106/2206 05015G28KT 9999 BKN060"
    },
    {
      "icao": "LIRP",
      "alert": "OK",
      "vis_m": 9999,
      "fzfg": false,
      "metar_trigger": false,
      "taf_trigger": false,
      "metar": "METAR LIRP 210845Z VRB02KT 9999 FEW080 04/02 Q1010 NOSIG",
      "taf": "TAF LIRP 210500Z 2106/2206 06008KT CAVOK"
    },
    {
      "icao": "LIRZ",
      "alert": "OK",
      "vis_m": 9999,
      "fzfg": false,
      "metar_trigger": false,
      "taf_trigger": false,
      "metar": "METAR LIRZ 210850Z AUTO 01012KT 9999 NCD 07/02 Q1008",
      "taf": "TAF LIRZ 210500Z 2106/2206 05013KT 9999 FEW070"
    },
    {
      "icao": "LJLJ",
      "alert": "OK",
      "vis_m": 9999,
      "fzfg": false,
      "metar_trigger": false,
      "taf_trigger": false,
      "metar": "METAR LJLJ 210900Z 12004KT 9999 OVC015 M05/M09 Q1016 NOSIG",
      "taf": "TAF LJLJ 210500Z 2106/2206 12003KT 9999 OVC015"
    },
    {
      "icao": "LKMT",
      "alert": "OK",
      "vis_m": 9999,
      "fzfg": false,
      "metar_trigger": false,
      "taf_trigger": false,
      "metar": "METAR LKMT 210900Z 25010KT CAVOK M02/M07 Q1016 NOSIG",
      "taf": "TAF LKMT 210500Z 2106/2206 23014KT CAVOK"
    },
    {
      "icao": "LKPR",
      "alert": "OK",
      "vis_m": 9000,
      "fzfg": false,
      "metar_trigger": false,
      "taf_trigger": false,
      "metar": "METAR LKPR 210900Z 16006KT 9000 BKN011 M07/M09 Q1013 NOSIG",
      "taf": "TAF LKPR 210800Z 2109/2215 13005KT CAVOK"
    },
    {
      "icao": "LLBG",
      "alert": "OK",
      "vis_m": 9999,
      "fzfg": false,
      "metar_trigger": false,
      "taf_trigger": false,
      "metar": "METAR LLBG 210850Z 11009KT CAVOK 15/M02 Q1021 BECMG 10020G30KT",
      "taf": "TAF LLBG 210505Z 2106/2206 11010KT CAVOK"
    },
    {
      "icao": "LMML",
      "alert": "OK",
      "vis_m": 9999,
      "fzfg": false,
      "metar_trigger": false,
      "taf_trigger": false,
      "metar": "METAR LMML 210915Z 18007KT 160V220 9999 FEW015TCU SCT045 14/11 Q1001 NOSIG",
      "taf": "TAF LMML 210500Z 2106/2206 23015KT 9999 SCT015"
    },
    {
      "icao": "LOWW",
      "alert": "OK",
      "vis_m": 4000,
      "fzfg": false,
      "metar_trigger": false,
      "taf_trigger": false,
      "metar": "METAR LOWW 210850Z 14018KT 4000 BR BKN006 M05/M07 Q1017 BECMG 8000 TEMPO SCT006",
      "taf": "TAF LOWW 210815Z 2109/2215 14013KT 8000 OVC006 TXM02/2214Z TNM07/2207Z"
    },
    {
      "icao": "LPFR",
      "alert": "OK",
      "vis_m": 3000,
      "fzfg": false,
      "metar_trigger": false,
      "taf_trigger": false,
      "metar": "METAR LPFR 210900Z 21012KT 3000 -RADZ BR SCT005 SCT010 BKN015 14/12 Q1013 RERA",
      "taf": "TAF LPFR 210500Z 2106/2206 24015KT 9999 SCT012 BKN025"
    },
    {
      "icao": "LPMA",
      "alert": "OK",
      "vis_m": 9999,
      "fzfg": false,
      "metar_trigger": false,
      "taf_trigger": false,
      "metar": "METAR LPMA 210900Z 27004KT 240V330 9999 FEW016 16/11 Q1021",
      "taf": "TAF LPMA 210500Z 2106/2206 VRB05KT 9999 SCT015"
    },
    {
      "icao": "LPPR",
      "alert": "OK",
      "vis_m": 1400,
      "fzfg": false,
      "metar_trigger": false,
      "taf_trigger": false,
      "metar": "METAR LPPR 210900Z 23010G20KT 190V280 1400 1200S R17/P2000 RADZ BCFG BKN002 BKN005 13/13 Q1002",
      "taf": "TAF LPPR 210500Z 2106/2206 19015KT 8000 -RA SCT008 BKN025"
    },
    {
      "icao": "LPPS",
      "alert": "OK",
      "vis_m": 9999,
      "fzfg": false,
      "metar_trigger": false,
      "taf_trigger": false,
      "metar": "METAR LPPS 210900Z 28013KT 9999 VCSH FEW005 SCT010 16/15 Q1021",
      "taf": "TAF LPPS 210500Z 2106/2212 29015KT 9999 SCT015"
    },
    {
      "icao": "LPPT",
      "alert": "OK",
      "vis_m": 1500,
      "fzfg": false,
      "metar_trigger": false,
      "taf_trigger": false,
      "metar": "METAR LPPT 210900Z 22014KT 1500 RADZ BR FEW002 BKN004 15/15 Q1008",
      "taf": "TAF LPPT 210500Z 2106/2212 21013KT 9999 SCT008 BKN015"
    },
    {
      "icao": "LQBK",
      "alert": "OK",
      "vis_m": 5000,
      "fzfg": false,
      "metar_trigger": false,
      "taf_trigger": false,
      "metar": "METAR LQBK 210900Z 02004KT 5000 BR BKN006 OVC020 M03/M05 Q1018 NOSIG",
      "taf": ""
    },
    {
      "icao": "LQSA",
      "alert": "OK",
      "vis_m": 3000,
      "fzfg": false,
      "metar_trigger": false,
      "taf_trigger": false,
      "metar": "METAR LQSA 210900Z VRB02KT 3000 BR BKN006 OVC015 M06/M06 Q1015 NOSIG",
      "taf": "TAF LQSA 210500Z 2106/2206 VRB02KT 4000 BR BKN008 TX00/2113Z TNM07/2106Z"
    },
    {
      "icao": "LQTZ",
      "alert": "OK",
      "vis_m": 3500,
      "fzfg": false,
      "metar_trigger": false,
      "taf_trigger": false,
      "metar": "METAR LQTZ 210900Z VRB02KT 3500 BR OVC009 M05/M05 Q1017",
      "taf": "TAF LQTZ 210500Z 2106/2206 VRB02KT 3000 BR BKN010 TXM00/2114Z TNM06/2205Z"
    },
    {
      "icao": "LRBC",
      "alert": "CRITICAL",
      "vis_m": 150,
      "fzfg": true,
      "metar_trigger": true,
      "taf_trigger": true,
      "metar": "METAR LRBC 210900Z 17008KT 0150 R16/0500N FZFG VV002 M07/M09 Q1022",
      "taf": "TAF LRBC 210800Z 2109/2118 17010KT 0150 FZFG VV001"
    },
    {
      "icao": "LRBS",
      "alert": "OK",
      "vis_m": 3000,
      "fzfg": false,
      "metar_trigger": false,
      "taf_trigger": false,
      "metar": "METAR LRBS 210900Z 06003KT 3000 BR BKN003 M07/M08 Q1024 BECMG 5000 SCT005",
      "taf": ""
    },
    {
      "icao": "LRBV",
      "alert": "OK",
      "vis_m": 5000,
      "fzfg": false,
      "metar_trigger": false,
      "taf_trigger": false,
      "metar": "METAR LRBV 210900Z 13005KT 5000 BR FEW001 M09/M10 Q1021",
      "taf": "TAF LRBV 210800Z 2109/2118 VRB04KT 3000 BR OVC002"
    },
    {
      "icao": "LRCL",
      "alert": "OK",
      "vis_m": 800,
      "fzfg": true,
      "metar_trigger": false,
      "taf_trigger": false,
      "metar": "METAR LRCL 210900Z 08004KT 0800 R25/1000N -SN FZFG SCT001 BKN002 OVC005 M14/M15 Q1022",
      "taf": "TAF LRCL 210800Z 2109/2118 VRB04KT 3000 BR BKN010"
    },
    {
      "icao": "LRCV",
      "alert": "OK",
      "vis_m": 4500,
      "fzfg": false,
      "metar_trigger": false,
      "taf_trigger": false,
      "metar": "METAR LRCV 210900Z 25003KT 4500 BR NSC M06/M07 Q1023",
      "taf": "TAF LRCV 210800Z 2109/2118 VRB04KT 5000 BR NSC"
    },
    {
      "icao": "LRIA",
      "alert": "OK",
      "vis_m": 600,
      "fzfg": true,
      "metar_trigger": false,
      "taf_trigger": false,
      "metar": "METAR LRIA 210900Z 11007KT 0600 R14/0900N FZFG VV001 M08/M09 Q1023",
      "taf": "TAF LRIA 210800Z 2109/2118 12007KT 0300 FZFG VV001"
    },
    {
      "icao": "LROP",
      "alert": "OK",
      "vis_m": 1100,
      "fzfg": false,
      "metar_trigger": false,
      "taf_trigger": false,
      "metar": "METAR LROP 210900Z 07005KT 1100 R08R/1200U R08L/1200U BR BKN001 M08/M10 Q1024 BECMG 1500 BKN002",
      "taf": ""
    },
    {
      "icao": "LRSB",
      "alert": "OK",
      "vis_m": 250,
      "fzfg": true,
      "metar_trigger": false,
      "taf_trigger": false,
      "metar": "METAR LRSB 210900Z VRB01KT 0250 R27/0350N FZFG BKN001 M10/M12 Q1020",
      "taf": ""
    },
    {
      "icao": "LRSM",
      "alert": "OK",
      "vis_m": 9999,
      "fzfg": false,
      "metar_trigger": false,
      "taf_trigger": false,
      "metar": "METAR LRSM 210900Z VRB01KT CAVOK M07/M09 Q1020",
      "taf": "TAF LRSM 210800Z 2109/2118 VRB04KT CAVOK"
    },
    {
      "icao": "LRSV",
      "alert": "OK",
      "vis_m": 5000,
      "fzfg": false,
      "metar_trigger": false,
      "taf_trigger": false,
      "metar": "METAR LRSV 210900Z 15004KT 5000 BR NSC M07/M10 Q1018",
      "taf": "TAF LRSV 210800Z 2109/2118 VRB04KT CAVOK"
    },
    {
      "icao": "LRTM",
      "alert": "OK",
      "vis_m": 500,
      "fzfg": true,
      "metar_trigger": false,
      "taf_trigger": false,
      "metar": "METAR LRTM 210900Z 08003KT 0500 R07/0750U FZFG SCT001 SCT002 M15/M17 Q1022",
      "taf": "TAF LRTM 210800Z 2109/2118 VRB04KT 1500 BR OVC005"
    },
    {
      "icao": "LRTR",
      "alert": "OK",
      "vis_m": 8000,
      "fzfg": false,
      "metar_trigger": false,
      "taf_trigger": false,
      "metar": "METAR LRTR 210900Z 10002KT 8000 NSC M05/M07 Q1019 NOSIG",
      "taf": "TAF LRTR 210500Z 2106/2206 10008KT CAVOK"
    },
    {
      "icao": "LTAC",
      "alert": "OK",
      "vis_m": 9999,
      "fzfg": false,
      "metar_trigger": false,
      "taf_trigger": false,
      "metar": "METAR LTAC 210850Z 01003KT 330V050 CAVOK M04/M09 Q1026 NOSIG RMK RWY21C VRB02KT RWY03L VRB02KT RWY21R VRB02KT RWY03R 03003KT 350V060 RWY21L 35003KT",
      "taf": "TAF LTAC 210440Z 2106/2206 VRB02KT CAVOK"
    },
    {
      "icao": "LTFM",
      "alert": "OK",
      "vis_m": 9999,
      "fzfg": false,
      "metar_trigger": false,
      "taf_trigger": false,
      "metar": "METAR LTFM 210850Z 11005KT 070V140 CAVOK 05/M04 Q1023 NOSIG RMK RWY17L 10012KT RWY34L 11005KT 070V130 RWY16R 10011KT RWY36 09004KT 030V110 RWY18 11009KT",
      "taf": "TAF LTFM 210440Z 2106/2212 09015KT 9999 FEW040"
    },
    {
      "icao": "LUKK",
      "alert": "OK",
      "vis_m": 5000,
      "fzfg": false,
      "metar_trigger": false,
      "taf_trigger": false,
      "metar": "METAR LUKK 210900Z VRB01KT 5000 BR NSC M09/M11 Q1024 NOSIG",
      "taf": "TAF LUKK 210518Z 2106/2206 VRB04KT 3000 BR NSC"
    },
    {
      "icao": "LWOH",
      "alert": "OK",
      "vis_m": 8000,
      "fzfg": false,
      "metar_trigger": false,
      "taf_trigger": false,
      "metar": "METAR LWOH 210850Z 03010KT 8000 -SN SCT010 OVC033 02/M02 Q1016",
      "taf": "TAF LWOH 210840Z 2109/2209 03010KT 9999 SCT035 BKN070"
    },
    {
      "icao": "LWSK",
      "alert": "OK",
      "vis_m": null,
      "fzfg": false,
      "metar_trigger": false,
      "taf_trigger": false,
      "metar": "",
      "taf": "TAF LWSK 210840Z 2109/2209 VRB02KT 5000 SCT040 OVC070"
    },
    {
      "icao": "LYBE",
      "alert": "OK",
      "vis_m": 1000,
      "fzfg": true,
      "metar_trigger": false,
      "taf_trigger": false,
      "metar": "METAR LYBE 210900Z 31005KT 1000 R12L/1500D R30R/1100U BR OVC002 M05/M06 Q1019 NOSIG",
      "taf": "TAF LYBE 210500Z 2106/2206 27005KT 0500 FZFG BKN001 TX05/2113Z TNM07/2106Z"
    },
    {
      "icao": "LYNI",
      "alert": "OK",
      "vis_m": 9999,
      "fzfg": false,
      "metar_trigger": false,
      "taf_trigger": false,
      "metar": "METAR LYNI 210900Z 10019KT 9999 BKN040 BKN080 02/M09 Q1019 NOSIG",
      "taf": ""
    },
    {
      "icao": "LYPG",
      "alert": "OK",
      "vis_m": 8000,
      "fzfg": false,
      "metar_trigger": false,
      "taf_trigger": false,
      "metar": "METAR LYPG 210900Z 24005KT 8000 -RA FEW034 BKN050 OVC070 05/03 Q1014 NOSIG",
      "taf": "TAF LYPG 210500Z 2106/2206 16005KT 9999 SCT040 OVC070 TX08/2113Z TN02/2106Z"
    },
    {
      "icao": "LZIB",
      "alert": "OK",
      "vis_m": 4200,
      "fzfg": false,
      "metar_trigger": false,
      "taf_trigger": false,
      "metar": "METAR LZIB 210900Z 07006KT 040V100 4200 BR FEW004 BKN005 M07/M08 Q1019 BECMG FEW006",
      "taf": ""
    },
    {
      "icao": "LZKZ",
      "alert": "OK",
      "vis_m": 9999,
      "fzfg": false,
      "metar_trigger": false,
      "taf_trigger": false,
      "metar": "METAR LZKZ 210900Z 19001KT 9999 3000S BCFG NSC M09/M11 Q1020 NOSIG",
      "taf": "TAF LZKZ 210515Z 2106/2206 VRB02KT CAVOK"
    },
    {
      "icao": "LZTT",
      "alert": "OK",
      "vis_m": 9999,
      "fzfg": false,
      "metar_trigger": false,
      "taf_trigger": false,
      "metar": "METAR LZTT 210900Z 17006KT 130V200 CAVOK M03/M10 Q1015 NOSIG",
      "taf": "TAF LZTT 210515Z 2106/2206 20005KT CAVOK"
    },
    {
      "icao": "OEJN",
      "alert": "OK",
      "vis_m": 9999,
      "fzfg": false,
      "metar_trigger": false,
      "taf_trigger": false,
      "metar": "METAR OEJN 210900Z 04005KT CAVOK 32/05 Q1014 NOSIG",
      "taf": "TAF OEJN 210500Z 2106/2212 01005KT 7000 NSC"
    },
    {
      "icao": "OEMA",
      "alert": "OK",
      "vis_m": 9999,
      "fzfg": false,
      "metar_trigger": false,
      "taf_trigger": false,
      "metar": "METAR OEMA 210900Z 10009KT CAVOK 19/M01 Q1023 NOSIG",
      "taf": "TAF OEMA 210500Z 2106/2212 08012KT 7000 NSC"
    },
    {
      "icao": "OJAI",
      "alert": "OK",
      "vis_m": 4000,
      "fzfg": false,
      "metar_trigger": false,
      "taf_trigger": false,
      "metar": "METAR OJAI 210900Z 09018KT 4000 BLDU NSC 06/M06 Q1025 NOSIG",
      "taf": "TAF OJAI 210447Z 2106/2212 08010KT 5000 HZ FEW030"
    },
    {
      "icao": "OMAA",
      "alert": "OK",
      "vis_m": 9999,
      "fzfg": false,
      "metar_trigger": false,
      "taf_trigger": false,
      "metar": "METAR OMAA 210900Z 31014KT CAVOK 23/09 Q1017 NOSIG",
      "taf": "TAF OMAA 210500Z 2106/2212 20006KT 8000 NSC"
    },
    {
      "icao": "OMDB",
      "alert": "OK",
      "vis_m": 9999,
      "fzfg": false,
      "metar_trigger": false,
      "taf_trigger": false,
      "metar": "METAR OMDB 210900Z 32015KT 280V340 CAVOK 24/08 Q1016 TEMPO 29020G30KT",
      "taf": "TAF OMDB 210500Z 2106/2212 29014KT 8000 NSC"
    },
    {
      "icao": "UAAA",
      "alert": "OK",
      "vis_m": 4100,
      "fzfg": false,
      "metar_trigger": false,
      "taf_trigger": false,
      "metar": "METAR UAAA 210900Z 00000MPS 4100 BR SCT200 M07/M08 Q1016 NOSIG",
      "taf": "TAF UAAA 210502Z 2106/2206 04003MPS 3100 BR SCT011 BKN050 TXM06/2108Z TNM14/2202Z"
    },
    {
      "icao": "UBBB",
      "alert": "OK",
      "vis_m": 9999,
      "fzfg": false,
      "metar_trigger": false,
      "taf_trigger": false,
      "metar": "METAR UBBB 210900Z 31022KT 9999 BKN023 03/M03 Q1027 NOSIG",
      "taf": "TAF UBBB 210502Z 2106/2206 31016G26KT 9999 SCT025 TX04/2110Z TN00/2201Z"
    },
    {
      "icao": "UDSG",
      "alert": "OK",
      "vis_m": 9999,
      "fzfg": false,
      "metar_trigger": false,
      "taf_trigger": false,
      "metar": "METAR UDSG 210900Z 25003KT 190V290 9999 NSC M06/M13 Q1024 NOSIG",
      "taf": "TAF UDSG 210500Z 2106/2206 VRB06KT 9999 FEW050"
    },
    {
      "icao": "UDYZ",
      "alert": "OK",
      "vis_m": 9999,
      "fzfg": false,
      "metar_trigger": false,
      "taf_trigger": false,
      "metar": "METAR UDYZ 210900Z VRB01KT 9999 NSC M01/M09 Q1026 NOSIG",
      "taf": "TAF UDYZ 210500Z 2106/2206 VRB06KT 9999 NSC"
    },
    {
      "icao": "UGKO",
      "alert": "OK",
      "vis_m": 5000,
      "fzfg": false,
      "metar_trigger": false,
      "taf_trigger": false,
      "metar": "METAR UGKO 210900Z 28008KT 5000 -SHSNRA BR SCT006 BKN020CB OVC042 01/01 Q1030 NOSIG",
      "taf": "TAF UGKO 210500Z 2106/2206 26007KT 9999 SCT020 BKN050 TX06/2111Z TNM01/2206Z"
    }
  ]
}