{
  "ts_utc": "2026-01-10T05:26:14Z",
  "threshold_m": 150,
  "source": "stations_override.txt (ICAO list) + aviationweather.gov (METAR/TAF raw)",
  "station_count": 159,
  "stations": [
    {
      "icao": "BIKF",
      "alert": "OK",
      "vis_m": 9999,
      "fzfg": false,
      "metar_trigger": false,
      "taf_trigger": false,
      "metar": "METAR BIKF 100500Z 01008KT CAVOK M02/M05 Q1011",
      "taf": "TAF BIKF 100456Z 1006/1106 03009KT 9999 FEW040 TXM01/1106Z TNM07/1013Z"
    },
    {
      "icao": "BKPR",
      "alert": "OK",
      "vis_m": 9999,
      "fzfg": false,
      "metar_trigger": false,
      "taf_trigger": false,
      "metar": "METAR BKPR 100500Z 18009KT 9999 -RA SCT020 BKN035 01/01 Q1000 NOSIG",
      "taf": ""
    },
    {
      "icao": "EBCI",
      "alert": "OK",
      "vis_m": 1700,
      "fzfg": false,
      "metar_trigger": false,
      "taf_trigger": false,
      "metar": "METAR EBCI 100520Z 32006KT 290V360 1700 -SN SCT002 OVC003 M01/M01 Q1001 TEMPO 1300 -SN",
      "taf": "TAF EBCI 100515Z 1006/1112 33009KT 3500 -SN SCT001 BKN003"
    },
    {
      "icao": "EDDB",
      "alert": "OK",
      "vis_m": 9999,
      "fzfg": false,
      "metar_trigger": false,
      "taf_trigger": false,
      "metar": "METAR EDDB 100520Z AUTO 07010KT 9999 SCT032 M07/M11 Q1007 NOSIG",
      "taf": "TAF EDDB 100500Z 1006/1106 07010KT CAVOK"
    },
    {
      "icao": "EDDH",
      "alert": "OK",
      "vis_m": 9999,
      "fzfg": false,
      "metar_trigger": false,
      "taf_trigger": false,
      "metar": "METAR EDDH 100520Z AUTO 08010KT CAVOK M03/M07 Q1008 TEMPO 09015G25KT",
      "taf": "TAF EDDH 100500Z 1006/1112 08015G25KT 9999 SCT030"
    },
    {
      "icao": "EDDK",
      "alert": "OK",
      "vis_m": 5000,
      "fzfg": false,
      "metar_trigger": false,
      "taf_trigger": false,
      "metar": "METAR EDDK 100520Z AUTO 25005KT 5000 -SN BR OVC003 M00/M01 Q0998 TEMPO 2500 SN",
      "taf": "TAF EDDK 100500Z 1006/1112 24005KT 4000 -SN BR OVC008"
    },
    {
      "icao": "EDDN",
      "alert": "OK",
      "vis_m": 9999,
      "fzfg": false,
      "metar_trigger": false,
      "taf_trigger": false,
      "metar": "METAR EDDN 100520Z AUTO 19004KT 9999 -SNRA FEW005 BKN021 01/M00 Q0998 TEMPO 4000 -SN BKN012",
      "taf": "TAF EDDN 100500Z 1006/1106 24007KT 9999 SCT008 BKN020"
    },
    {
      "icao": "EDDS",
      "alert": "OK",
      "vis_m": 9999,
      "fzfg": false,
      "metar_trigger": false,
      "taf_trigger": false,
      "metar": "METAR EDDS 100520Z AUTO 23005KT 160V260 9999 -RA SCT018 BKN031 BKN046 01/00 Q0999 RESN NOSIG",
      "taf": ""
    },
    {
      "icao": "EDFH",
      "alert": "OK",
      "vis_m": 2100,
      "fzfg": false,
      "metar_trigger": false,
      "taf_trigger": false,
      "metar": "METAR EDFH 100450Z 27014KT 2100 -SN OVC002 M00/M01 Q0995",
      "taf": "TAF EDFH 100500Z 1006/1106 26012KT 7000 OVC005"
    },
    {
      "icao": "EDJA",
      "alert": "OK",
      "vis_m": 9999,
      "fzfg": false,
      "metar_trigger": false,
      "taf_trigger": false,
      "metar": "METAR EDJA 100450Z 24018G28KT 9999 -RA SCT018 BKN050 01/M02 Q0999",
      "taf": "TAF EDJA 100500Z 1006/1015 24015G25KT 9999 FEW015 OVC020"
    },
    {
      "icao": "EDLW",
      "alert": "OK",
      "vis_m": 4700,
      "fzfg": false,
      "metar_trigger": false,
      "taf_trigger": false,
      "metar": "METAR EDLW 100450Z COR 36007KT 4700 -SN SCT004 OVC007 M02/M03 Q0998",
      "taf": "TAF EDLW 100500Z 1006/1106 05010KT 6000 SCT004 BKN007"
    },
    {
      "icao": "EDNY",
      "alert": "OK",
      "vis_m": 9999,
      "fzfg": false,
      "metar_trigger": false,
      "taf_trigger": false,
      "metar": "METAR EDNY 100450Z AUTO 24016KT 9999 // FEW019/// OVC022/// 03/M00 Q1002",
      "taf": "TAF EDNY 100500Z 1006/1015 24012KT 9999 BKN020"
    },
    {
      "icao": "EDSB",
      "alert": "OK",
      "vis_m": 9999,
      "fzfg": false,
      "metar_trigger": false,
      "taf_trigger": false,
      "metar": "METAR EDSB 100450Z 19014KT 9999 RA FEW014 BKN019 OVC025 03/02 Q1001",
      "taf": "TAF EDSB 100500Z 1006/1106 21013KT 9999 BKN020"
    },
    {
      "icao": "EETN",
      "alert": "OK",
      "vis_m": 9999,
      "fzfg": false,
      "metar_trigger": false,
      "taf_trigger": false,
      "metar": "METAR EETN 100520Z 04014G24KT 010V080 9999 DRSN OVC014 M06/M09 Q1009 TEMPO 03018G30KT 4000 SN",
      "taf": "TAF EETN 092330Z 1000/1024 03016G26KT 9999 DRSN BKN012"
    },
    {
      "icao": "EFTU",
      "alert": "OK",
      "vis_m": 9999,
      "fzfg": false,
      "metar_trigger": false,
      "taf_trigger": false,
      "metar": "METAR EFTU 100520Z AUTO 04008KT 360V070 9999 BKN023 M12/M17 Q1016",
      "taf": "TAF EFTU 100225Z 1003/1103 04010KT CAVOK"
    },
    {
      "icao": "EGBB",
      "alert": "OK",
      "vis_m": 9999,
      "fzfg": false,
      "metar_trigger": false,
      "taf_trigger": false,
      "metar": "METAR EGBB 100520Z 35005KT CAVOK M01/M02 Q1012",
      "taf": "TAF EGBB 100458Z 1006/1106 32006KT 9999 FEW018"
    },
    {
      "icao": "EGGP",
      "alert": "OK",
      "vis_m": 9999,
      "fzfg": false,
      "metar_trigger": false,
      "taf_trigger": false,
      "metar": "METAR EGGP 100520Z AUTO 01003KT 320V050 9999 NCD 01/M01 Q1013",
      "taf": "TAF EGGP 100457Z 1006/1106 VRB02KT 9999 SCT040"
    },
    {
      "icao": "EGGW",
      "alert": "OK",
      "vis_m": 9999,
      "fzfg": false,
      "metar_trigger": false,
      "taf_trigger": false,
      "metar": "METAR EGGW 100520Z AUTO 33010KT 9999 BKN007 M01/M02 Q1010",
      "taf": "TAF EGGW 100455Z 1006/1106 34012KT 9999 SCT010"
    },
    {
      "icao": "EGKK",
      "alert": "OK",
      "vis_m": 9999,
      "fzfg": false,
      "metar_trigger": false,
      "taf_trigger": false,
      "metar": "METAR EGKK 100520Z 33011KT 9999 BKN013 02/M00 Q1010",
      "taf": "TAF EGKK 100457Z 1006/1112 33010KT 9999 SCT015"
    },
    {
      "icao": "EGNM",
      "alert": "OK",
      "vis_m": 9999,
      "fzfg": false,
      "metar_trigger": false,
      "taf_trigger": false,
      "metar": "METAR EGNM 100520Z 32005KT CAVOK M02/M04 Q1012",
      "taf": "TAF EGNM 100455Z 1006/1106 27004KT 9999 FEW040"
    },
    {
      "icao": "EGPD",
      "alert": "OK",
      "vis_m": 9999,
      "fzfg": false,
      "metar_trigger": false,
      "taf_trigger": false,
      "metar": "METAR EGPD 100520Z AUTO 21006KT 9999 FEW041 01/M00 Q1013",
      "taf": "TAF EGPD 100453Z 1006/1106 17008KT 9999 FEW015 SCT025"
    },
    {
      "icao": "EGPF",
      "alert": "OK",
      "vis_m": 3300,
      "fzfg": false,
      "metar_trigger": false,
      "taf_trigger": false,
      "metar": "METAR EGPF 100520Z AUTO 06003KT 3300 BR BKN031 01/00 Q1012",
      "taf": "TAF EGPF 100456Z 1006/1106 VRB03KT 9999 BKN030"
    },
    {
      "icao": "EHBK",
      "alert": "OK",
      "vis_m": 5000,
      "fzfg": false,
      "metar_trigger": false,
      "taf_trigger": false,
      "metar": "METAR EHBK 100455Z COR AUTO 34008KT 290V010 5000 -SGSN FEW002/// SCT018/// OVC023/// M02/M02 Q1000 BECMG 3000 -SN BKN008",
      "taf": "TAF EHBK 100513Z 1006/1112 32007KT 4000 -SN BR BKN008"
    },
    {
      "icao": "EHEH",
      "alert": "OK",
      "vis_m": 9000,
      "fzfg": false,
      "metar_trigger": false,
      "taf_trigger": false,
      "metar": "METAR EHEH 100455Z AUTO 36009KT 310V030 9000 BR BKN009 OVC011 M02/M04 Q1001 GRN",
      "taf": "TAF EHEH 092351Z 1000/1106 33008KT 8000 -SN SCT005 BKN007"
    },
    {
      "icao": "EKBI",
      "alert": "OK",
      "vis_m": 9999,
      "fzfg": false,
      "metar_trigger": false,
      "taf_trigger": false,
      "metar": "METAR EKBI 100520Z AUTO 06019KT 9999 OVC045/// M01/M07 Q1013",
      "taf": "TAF EKBI 100227Z 1003/1103 07015KT 9000 BKN025"
    },
    {
      "icao": "EKCH",
      "alert": "OK",
      "vis_m": 9999,
      "fzfg": false,
      "metar_trigger": false,
      "taf_trigger": false,
      "metar": "METAR EKCH 100520Z AUTO 02017KT 9999 BKN045/// M03/M06 Q1014 NOSIG",
      "taf": "TAF EKCH 100227Z 1003/1103 05015KT 9999 BKN030"
    },
    {
      "icao": "ENAL",
      "alert": "OK",
      "vis_m": 9999,
      "fzfg": false,
      "metar_trigger": false,
      "taf_trigger": false,
      "metar": "METAR ENAL 100450Z AUTO 23007KT 140V260 9999 NCD M01/M13 Q1018",
      "taf": "TAF ENAL 100200Z 1003/1012 23008KT CAVOK"
    },
    {
      "icao": "ENBR",
      "alert": "OK",
      "vis_m": 9999,
      "fzfg": false,
      "metar_trigger": false,
      "taf_trigger": false,
      "metar": "METAR ENBR 100450Z VRB01KT CAVOK M08/M13 Q1019 RMK WIND 1200FT 12003KT",
      "taf": "TAF ENBR 092300Z 1000/1024 08005KT CAVOK"
    },
    {
      "icao": "ENGM",
      "alert": "OK",
      "vis_m": 9999,
      "fzfg": false,
      "metar_trigger": false,
      "taf_trigger": false,
      "metar": "METAR ENGM 100450Z 34002KT CAVOK M13/M14 Q1023 NOSIG",
      "taf": "TAF ENGM 092300Z 1000/1024 03005KT 9999 -SN FEW020 BKN030"
    },
    {
      "icao": "ENHD",
      "alert": "OK",
      "vis_m": 9999,
      "fzfg": false,
      "metar_trigger": false,
      "taf_trigger": false,
      "metar": "METAR ENHD 100450Z AUTO 11006KT 9999 NCD M10/M14 Q1020",
      "taf": "TAF ENHD 100200Z 1003/1012 10008KT CAVOK"
    },
    {
      "icao": "ENTC",
      "alert": "OK",
      "vis_m": 9999,
      "fzfg": false,
      "metar_trigger": false,
      "taf_trigger": false,
      "metar": "METAR ENTC 100450Z 12003KT CAVOK M12/M14 Q1022 RMK WIND 2600FT 22002KT",
      "taf": "TAF ENTC 092300Z 1000/1024 22008KT CAVOK"
    },
    {
      "icao": "ENTO",
      "alert": "OK",
      "vis_m": 9999,
      "fzfg": false,
      "metar_trigger": false,
      "taf_trigger": false,
      "metar": "METAR ENTO 100450Z AUTO 01007KT 9999 NCD M09/M12 Q1022",
      "taf": "TAF ENTO 092300Z 1000/1024 04010KT 9999 -SN FEW020 BKN030"
    },
    {
      "icao": "ENVA",
      "alert": "OK",
      "vis_m": 9999,
      "fzfg": false,
      "metar_trigger": false,
      "taf_trigger": false,
      "metar": "METAR ENVA 100450Z 09004KT CAVOK M03/M11 Q1020 RMK WIND 670FT 14008KT",
      "taf": "TAF ENVA 092300Z 1000/1024 10008KT CAVOK"
    },
    {
      "icao": "ENZV",
      "alert": "OK",
      "vis_m": 9999,
      "fzfg": false,
      "metar_trigger": false,
      "taf_trigger": false,
      "metar": "METAR ENZV 100450Z 12008KT CAVOK M04/M12 Q1020",
      "taf": "TAF ENZV 092300Z 1000/1024 08008KT CAVOK"
    },
    {
      "icao": "EPGD",
      "alert": "OK",
      "vis_m": 9999,
      "fzfg": false,
      "metar_trigger": false,
      "taf_trigger": false,
      "metar": "METAR EPGD 100500Z 03012KT 9999 -SN DRSN BKN026 M02/M07 Q1004",
      "taf": ""
    },
    {
      "icao": "EPKK",
      "alert": "OK",
      "vis_m": 5000,
      "fzfg": false,
      "metar_trigger": false,
      "taf_trigger": false,
      "metar": "METAR EPKK 100500Z 07007KT 5000 -SN BR OVC007 M12/M14 Q1002",
      "taf": "TAF EPKK 100230Z 1003/1103 06007KT 3500 BR OVC005"
    },
    {
      "icao": "EPKT",
      "alert": "OK",
      "vis_m": 8000,
      "fzfg": false,
      "metar_trigger": false,
      "taf_trigger": false,
      "metar": "METAR EPKT 100500Z 03005KT 8000 -SN OVC007 M12/M13 Q1002",
      "taf": ""
    },
    {
      "icao": "EPLB",
      "alert": "OK",
      "vis_m": 8000,
      "fzfg": false,
      "metar_trigger": false,
      "taf_trigger": false,
      "metar": "METAR EPLB 100500Z 29009KT 8000 -SN FEW003 SCT007 M15/M16 Q1000",
      "taf": "TAF EPLB 092330Z 1000/1024 29008KT 9999 SCT014 BKN018"
    },
    {
      "icao": "EPMO",
      "alert": "OK",
      "vis_m": 9999,
      "fzfg": false,
      "metar_trigger": false,
      "taf_trigger": false,
      "metar": "METAR EPMO 100500Z VRB05G15KT 9999 FEW023 M16/M17 Q1002",
      "taf": "TAF EPMO 092330Z 1000/1024 33008KT CAVOK"
    },
    {
      "icao": "EPPO",
      "alert": "OK",
      "vis_m": 9999,
      "fzfg": false,
      "metar_trigger": false,
      "taf_trigger": false,
      "metar": "METAR EPPO 100500Z 36003KT 9999 FEW030 M10/M13 Q1006",
      "taf": "TAF EPPO 092330Z 1000/1024 06006KT CAVOK"
    },
    {
      "icao": "EPRA",
      "alert": "OK",
      "vis_m": 9999,
      "fzfg": false,
      "metar_trigger": false,
      "taf_trigger": false,
      "metar": "METAR EPRA 100500Z 29005KT CAVOK M15/M17 Q1002",
      "taf": "TAF EPRA 100230Z 1003/1012 30008KT 8000 NSC"
    },
    {
      "icao": "EPRZ",
      "alert": "OK",
      "vis_m": 9999,
      "fzfg": false,
      "metar_trigger": false,
      "taf_trigger": false,
      "metar": "METAR EPRZ 100500Z 27005KT 9999 -SN SCT006 OVC013 M11/M13 Q1002",
      "taf": ""
    },
    {
      "icao": "EPSC",
      "alert": "OK",
      "vis_m": 9999,
      "fzfg": false,
      "metar_trigger": false,
      "taf_trigger": false,
      "metar": "METAR EPSC 100500Z 07003KT 040V100 9999 BKN034 M03/M08 Q1007",
      "taf": "TAF EPSC 092330Z 1000/1024 06010KT CAVOK"
    },
    {
      "icao": "EPSY",
      "alert": "OK",
      "vis_m": 9999,
      "fzfg": false,
      "metar_trigger": false,
      "taf_trigger": false,
      "metar": "METAR EPSY 100500Z 32008KT 9999 -SN FEW014 BKN019 M09/M11 Q1001",
      "taf": "TAF EPSY 100230Z 1003/1012 34008KT 9999 SCT016"
    },
    {
      "icao": "EPWA",
      "alert": "OK",
      "vis_m": 9999,
      "fzfg": false,
      "metar_trigger": false,
      "taf_trigger": false,
      "metar": "METAR EPWA 100500Z 27006KT CAVOK M15/M17 Q1002 NOSIG",
      "taf": "TAF EPWA 100230Z 1003/1103 28005KT CAVOK"
    },
    {
      "icao": "EPWR",
      "alert": "OK",
      "vis_m": 9999,
      "fzfg": false,
      "metar_trigger": false,
      "taf_trigger": false,
      "metar": "METAR EPWR 100500Z 04003KT CAVOK M09/M12 Q1005",
      "taf": "TAF EPWR 100230Z 1003/1103 08008KT 7000 NSC"
    },
    {
      "icao": "ESGG",
      "alert": "OK",
      "vis_m": 9999,
      "fzfg": false,
      "metar_trigger": false,
      "taf_trigger": false,
      "metar": "METAR ESGG 100520Z 04009KT CAVOK M10/M11 Q1017",
      "taf": "TAF ESGG 100230Z 1003/1103 03010KT 9999 FEW015"
    },
    {
      "icao": "ESKN",
      "alert": "OK",
      "vis_m": 9999,
      "fzfg": false,
      "metar_trigger": false,
      "taf_trigger": false,
      "metar": "METAR ESKN 100520Z 34008KT CAVOK M08/M10 Q1017",
      "taf": "TAF ESKN 100230Z 1003/1103 36010KT CAVOK"
    },
    {
      "icao": "ESMS",
      "alert": "OK",
      "vis_m": 9999,
      "fzfg": false,
      "metar_trigger": false,
      "taf_trigger": false,
      "metar": "METAR ESMS 100520Z 05015KT 9999 SCT041 M02/M08 Q1012",
      "taf": "TAF ESMS 100227Z 1003/1103 05012KT 9999 BKN040"
    },
    {
      "icao": "ESSA",
      "alert": "OK",
      "vis_m": 9999,
      "fzfg": false,
      "metar_trigger": false,
      "taf_trigger": false,
      "metar": "METAR ESSA 100520Z 35009KT CAVOK M10/M12 Q1018 NOSIG",
      "taf": ""
    },
    {
      "icao": "EYKA",
      "alert": "OK",
      "vis_m": 9999,
      "fzfg": false,
      "metar_trigger": false,
      "taf_trigger": false,
      "metar": "METAR EYKA 100520Z 36007KT 320V030 9999 -SN SCT029 BKN053 M09/M11 Q0999",
      "taf": "TAF EYKA 100500Z 1006/1106 36010KT 5000 SN SCT010 BKN015"
    },
    {
      "icao": "EYPA",
      "alert": "OK",
      "vis_m": 9999,
      "fzfg": false,
      "metar_trigger": false,
      "taf_trigger": false,
      "metar": "METAR EYPA 100520Z 01009KT 340V040 CAVOK M05/M09 Q1004",
      "taf": "TAF EYPA 100500Z 1006/1106 01014KT 8000 SCT025"
    },
    {
      "icao": "EYVI",
      "alert": "OK",
      "vis_m": 4400,
      "fzfg": false,
      "metar_trigger": false,
      "taf_trigger": false,
      "metar": "METAR EYVI 100520Z 36013KT 4400 SN FEW013 BKN045 M10/M12 Q0996 TEMPO 3000 SN",
      "taf": "TAF EYVI 092303Z 1000/1024 01012KT 5000 SN SCT010 OVC020"
    },
    {
      "icao": "GCFV",
      "alert": "OK",
      "vis_m": 9999,
      "fzfg": false,
      "metar_trigger": false,
      "taf_trigger": false,
      "metar": "METAR GCFV 100500Z AUTO 01013KT 9999 BKN025 OVC035 17/12 Q1027",
      "taf": "TAF GCFV 100200Z 1003/1103 05015KT 9999 BKN025 TX20/1014Z TN15/1006Z"
    },
    {
      "icao": "GCLP",
      "alert": "OK",
      "vis_m": 9999,
      "fzfg": false,
      "metar_trigger": false,
      "taf_trigger": false,
      "metar": "METAR GCLP 100500Z 36009KT 9999 FEW035 BKN050 18/08 Q1027 NOSIG",
      "taf": "TAF GCLP 100200Z 1003/1103 03013KT 9999 BKN030 TX19/1014Z TN15/1006Z"
    },
    {
      "icao": "GCTS",
      "alert": "OK",
      "vis_m": 9999,
      "fzfg": false,
      "metar_trigger": false,
      "taf_trigger": false,
      "metar": "METAR GCTS 100500Z 01007KT 9999 FEW040 16/08 Q1028 NOSIG",
      "taf": "TAF GCTS 100200Z 1003/1103 04009KT 9999 SCT030 TX23/1014Z TN15/1006Z"
    },
    {
      "icao": "GMAD",
      "alert": "OK",
      "vis_m": 9999,
      "fzfg": false,
      "metar_trigger": false,
      "taf_trigger": false,
      "metar": "METAR GMAD 100500Z 00000KT CAVOK 06/06 Q1025 NOSIG",
      "taf": "TAF GMAD 092300Z 1000/1106 06008KT CAVOK"
    },
    {
      "icao": "GMMN",
      "alert": "OK",
      "vis_m": 9999,
      "fzfg": false,
      "metar_trigger": false,
      "taf_trigger": false,
      "metar": "METAR GMMN 100500Z 12003KT 9999 FEW023 05/04 Q1029 NOSIG",
      "taf": "TAF GMMN 100500Z 1006/1112 12004KT 9999 FEW023"
    },
    {
      "icao": "GMMX",
      "alert": "OK",
      "vis_m": 6000,
      "fzfg": false,
      "metar_trigger": false,
      "taf_trigger": false,
      "metar": "METAR GMMX 100500Z 09006KT 6000 NSC 07/06 Q1027 NOSIG",
      "taf": "TAF GMMX 100500Z 1006/1112 06006KT 8000 NSC"
    },
    {
      "icao": "HEGN",
      "alert": "OK",
      "vis_m": 9999,
      "fzfg": false,
      "metar_trigger": false,
      "taf_trigger": false,
      "metar": "METAR HEGN 100500Z 30011KT CAVOK 14/07 Q1021 NOSIG",
      "taf": "TAF HEGN 100500Z 1006/1112 32010G24KT 6000 NSC"
    },
    {
      "icao": "HEMA",
      "alert": "OK",
      "vis_m": 9999,
      "fzfg": false,
      "metar_trigger": false,
      "taf_trigger": false,
      "metar": "METAR HEMA 100500Z 32017KT CAVOK 17/08 Q1019 NOSIG",
      "taf": "TAF HEMA 100500Z 1006/1112 33010G24KT 6000 NSC"
    },
    {
      "icao": "HESH",
      "alert": "OK",
      "vis_m": 9999,
      "fzfg": false,
      "metar_trigger": false,
      "taf_trigger": false,
      "metar": "METAR HESH 100500Z 35010KT CAVOK 17/05 Q1020 NOSIG",
      "taf": "TAF HESH 100500Z 1006/1112 34014KT CAVOK"
    },
    {
      "icao": "HESX",
      "alert": "OK",
      "vis_m": 9999,
      "fzfg": false,
      "metar_trigger": false,
      "taf_trigger": false,
      "metar": "METAR HESX 100500Z 22004KT CAVOK 09/07 Q1021 NOSIG",
      "taf": "TAF HESX 100500Z 1006/1112 23007KT CAVOK"
    },
    {
      "icao": "LATI",
      "alert": "OK",
      "vis_m": 9999,
      "fzfg": false,
      "metar_trigger": false,
      "taf_trigger": false,
      "metar": "METAR LATI 100520Z 12006KT 9999 SCT060 BKN080 12/07 Q1001 NOSIG",
      "taf": "TAF LATI 100500Z 1006/1106 12008KT 9999 BKN080 TX11/1012Z TN05/1106Z"
    },
    {
      "icao": "LBPD",
      "alert": "OK",
      "vis_m": 9999,
      "fzfg": false,
      "metar_trigger": false,
      "taf_trigger": false,
      "metar": "METAR LBPD 100500Z AUTO 29009KT 9999 OVC069/// 01/M01 Q1003 NOSIG",
      "taf": "TAF LBPD 100500Z 1006/1106 VRB03KT 9999 SCT050"
    },
    {
      "icao": "LBSF",
      "alert": "OK",
      "vis_m": 5000,
      "fzfg": false,
      "metar_trigger": false,
      "taf_trigger": false,
      "metar": "METAR LBSF 100500Z 08007KT 5000 -RASN BR FEW026 SCT034 OVC041 01/00 Q1001 TEMPO 1500 RA BR",
      "taf": "TAF LBSF 100500Z 1006/1106 VRB03KT 7000 SCT030 BKN050"
    },
    {
      "icao": "LBWN",
      "alert": "OK",
      "vis_m": 9999,
      "fzfg": false,
      "metar_trigger": false,
      "taf_trigger": false,
      "metar": "METAR LBWN 100500Z AUTO 36005KT 9999 NSC 05/M03 Q1000 NOSIG",
      "taf": "TAF LBWN 100500Z 1006/1106 VRB04KT 9999 BKN040"
    },
    {
      "icao": "LCLK",
      "alert": "OK",
      "vis_m": 9999,
      "fzfg": false,
      "metar_trigger": false,
      "taf_trigger": false,
      "metar": "METAR LCLK 100500Z 27006KT 9999 FEW020 08/06 Q1016 NOSIG",
      "taf": "TAF LCLK 092330Z 1000/1100 26007KT 9999 FEW020 SCT040"
    },
    {
      "icao": "LCPH",
      "alert": "OK",
      "vis_m": 9999,
      "fzfg": false,
      "metar_trigger": false,
      "taf_trigger": false,
      "metar": "METAR LCPH 100500Z 32006KT 250V360 9999 FEW025TCU SCT035 BKN045 16/11 Q1017 NOSIG",
      "taf": "TAF LCPH 092330Z 1000/1100 31012KT 9999 FEW025 SCT040"
    },
    {
      "icao": "LEAL",
      "alert": "OK",
      "vis_m": 9999,
      "fzfg": false,
      "metar_trigger": false,
      "taf_trigger": false,
      "metar": "METAR LEAL 100500Z 26006KT CAVOK 09/04 Q1024 NOSIG",
      "taf": "TAF LEAL 100500Z 1006/1106 27009KT 9999 FEW040 TX16/1014Z TN08/1006Z"
    },
    {
      "icao": "LEBB",
      "alert": "OK",
      "vis_m": 9000,
      "fzfg": false,
      "metar_trigger": false,
      "taf_trigger": false,
      "metar": "METAR LEBB 100500Z 29009KT 190V330 9000 -SHRA FEW011 FEW021TCU BKN023 08/06 Q1024 RESHRA TEMPO SHRA",
      "taf": "TAF LEBB 092300Z 1000/1024 28010KT 9999 FEW020 BKN040 TX10/1014Z TN08/1000Z"
    },
    {
      "icao": "LEBL",
      "alert": "OK",
      "vis_m": 9999,
      "fzfg": false,
      "metar_trigger": false,
      "taf_trigger": false,
      "metar": "METAR LEBL 100500Z 32018KT 9999 FEW048 07/01 Q1016 NOSIG",
      "taf": "TAF LEBL 100500Z 1006/1106 30010KT 9999 FEW020 TX14/1013Z TN08/1006Z"
    },
    {
      "icao": "LECH",
      "alert": "OK",
      "vis_m": 9999,
      "fzfg": false,
      "metar_trigger": false,
      "taf_trigger": false,
      "metar": "METAR LECH 100500Z AUTO 23004KT 180V350 CAVOK 06/M04 Q1021",
      "taf": ""
    },
    {
      "icao": "LEMD",
      "alert": "OK",
      "vis_m": 9999,
      "fzfg": false,
      "metar_trigger": false,
      "taf_trigger": false,
      "metar": "METAR LEMD 100500Z 28010KT CAVOK 05/M01 Q1024 NOSIG",
      "taf": "TAF LEMD 100500Z 1006/1112 VRB03KT 9999 FEW040 TX10/1014Z TN01/1006Z"
    },
    {
      "icao": "LEMG",
      "alert": "OK",
      "vis_m": 9999,
      "fzfg": false,
      "metar_trigger": false,
      "taf_trigger": false,
      "metar": "METAR LEMG 100500Z 29011KT CAVOK 11/06 Q1026 NOSIG",
      "taf": "TAF LEMG 100500Z 1006/1106 30015KT CAVOK TX18/1014Z TN10/1006Z"
    },
    {
      "icao": "LEVC",
      "alert": "OK",
      "vis_m": 9999,
      "fzfg": false,
      "metar_trigger": false,
      "taf_trigger": false,
      "metar": "METAR LEVC 100500Z 30005KT CAVOK 06/02 Q1023 NOSIG",
      "taf": "TAF LEVC 092300Z 1000/1024 26008KT 9999 FEW040 TX16/1014Z TN07/1006Z"
    },
    {
      "icao": "LEXJ",
      "alert": "OK",
      "vis_m": 9000,
      "fzfg": false,
      "metar_trigger": false,
      "taf_trigger": false,
      "metar": "METAR LEXJ 100500Z 27012KT 240V300 9000 SCT028 SCT040 08/04 Q1024",
      "taf": "TAF LEXJ 100200Z 1003/1103 27015KT 9999 SCT025 BKN040 TX11/1015Z TN08/1007Z"
    },
    {
      "icao": "LEZG",
      "alert": "OK",
      "vis_m": 9999,
      "fzfg": false,
      "metar_trigger": false,
      "taf_trigger": false,
      "metar": "METAR LEZG 100500Z COR 25009KT 9999 SCT055 06/M00 Q1022 NOSIG",
      "taf": "TAF LEZG 100500Z 1006/1106 28012KT 9999 FEW040 TX11/1015Z TN05/1006Z"
    },
    {
      "icao": "LEZL",
      "alert": "OK",
      "vis_m": 9999,
      "fzfg": false,
      "metar_trigger": false,
      "taf_trigger": false,
      "metar": "METAR LEZL 100500Z 00000KT CAVOK 05/05 Q1028 NOSIG",
      "taf": "TAF LEZL 100200Z 1003/1103 VRB03KT CAVOK TX15/1015Z TN06/1007Z"
    },
    {
      "icao": "LFBD",
      "alert": "OK",
      "vis_m": 9999,
      "fzfg": false,
      "metar_trigger": false,
      "taf_trigger": false,
      "metar": "METAR LFBD 100500Z AUTO 27006KT 9999 -RA FEW039/// BKN056/// BKN070/// ///TCU 06/04 Q1018",
      "taf": ""
    },
    {
      "icao": "LFLL",
      "alert": "OK",
      "vis_m": 9999,
      "fzfg": false,
      "metar_trigger": false,
      "taf_trigger": false,
      "metar": "METAR LFLL 100500Z 23006KT 9999 BKN028 BKN046 03/00 Q1010 NOSIG",
      "taf": "TAF LFLL 092300Z 1000/1106 25008KT 9999 BKN025"
    },
    {
      "icao": "LFLS",
      "alert": "OK",
      "vis_m": 9999,
      "fzfg": false,
      "metar_trigger": false,
      "taf_trigger": false,
      "metar": "METAR LFLS 100500Z AUTO 20005KT 9999 FEW017 BKN056 OVC066 01/00 Q1010 TEMPO 2000 -SHSN BKN008 BKN030TCU",
      "taf": "TAF LFLS 100200Z 1003/1103 VRB03KT 9999 BKN030"
    },
    {
      "icao": "LFMN",
      "alert": "OK",
      "vis_m": 9999,
      "fzfg": false,
      "metar_trigger": false,
      "taf_trigger": false,
      "metar": "METAR LFMN 100500Z 24014KT 200V270 CAVOK 11/M02 Q1001 TEMPO 29015G35KT",
      "taf": "TAF LFMN 100200Z 1003/1109 34015KT CAVOK"
    },
    {
      "icao": "LFOB",
      "alert": "OK",
      "vis_m": 9999,
      "fzfg": false,
      "metar_trigger": false,
      "taf_trigger": false,
      "metar": "METAR LFOB 100500Z AUTO 31015KT 9999 FEW029 BKN036 BKN044 03/M00 Q1006 TEMPO BKN014 BECMG 28015G25KT",
      "taf": "TAF LFOB 092300Z 1000/1024 28015G25KT 9999 BKN025"
    },
    {
      "icao": "LFPO",
      "alert": "OK",
      "vis_m": 9999,
      "fzfg": false,
      "metar_trigger": false,
      "taf_trigger": false,
      "metar": "METAR LFPO 100500Z 29011KT 9999 SCT030 BKN043 04/00 Q1007 NOSIG",
      "taf": "TAF LFPO 100500Z 1006/1112 30010KT 9999 BKN025"
    },
    {
      "icao": "LFSB",
      "alert": "OK",
      "vis_m": 9999,
      "fzfg": false,
      "metar_trigger": false,
      "taf_trigger": false,
      "metar": "METAR LFSB 100500Z AUTO 25014KT 9999 -RA FEW019/// SCT035/// BKN058/// ///TCU 03/01 Q1004 TEMPO 3000 -SHRASN BECMG 25017G30KT",
      "taf": "TAF LFSB 100500Z 1006/1106 25015KT 9999 SCT025 BKN040"
    },
    {
      "icao": "LGAV",
      "alert": "OK",
      "vis_m": 9999,
      "fzfg": false,
      "metar_trigger": false,
      "taf_trigger": false,
      "metar": "METAR LGAV 100520Z 21011KT 9999 FEW030 15/07 Q1006 NOSIG",
      "taf": "TAF LGAV 100500Z 1006/1106 24012KT 9999 FEW025"
    },
    {
      "icao": "LGTS",
      "alert": "OK",
      "vis_m": 7000,
      "fzfg": false,
      "metar_trigger": false,
      "taf_trigger": false,
      "metar": "METAR LGTS 100450Z 12004KT 7000 3500SE BR FEW010 01/01 Q1003 NOSIG",
      "taf": "TAF LGTS 100500Z 1006/1106 VRB03KT 9999 SCT030"
    },
    {
      "icao": "LHBP",
      "alert": "OK",
      "vis_m": 3000,
      "fzfg": false,
      "metar_trigger": false,
      "taf_trigger": false,
      "metar": "METAR LHBP 100500Z 31003KT 3000 BR OVC004 M06/M07 Q1002 TEMPO 2500 BR",
      "taf": "TAF LHBP 092315Z 1000/1024 VRB03KT 7000 BKN015 OVC030"
    },
    {
      "icao": "LHDC",
      "alert": "OK",
      "vis_m": 7000,
      "fzfg": false,
      "metar_trigger": false,
      "taf_trigger": false,
      "metar": "METAR LHDC 100445Z AUTO 04004KT 7000 OVC026 M05/M07 Q1001",
      "taf": "TAF LHDC 100515Z 1006/1015 04005KT 9999 BKN025 OVC050"
    },
    {
      "icao": "LIBD",
      "alert": "OK",
      "vis_m": 9999,
      "fzfg": false,
      "metar_trigger": false,
      "taf_trigger": false,
      "metar": "METAR LIBD 100520Z 18003KT CAVOK 09/05 Q0999",
      "taf": "TAF LIBD 100500Z 1006/1106 23012KT 9999 SCT040"
    },
    {
      "icao": "LIBG",
      "alert": "OK",
      "vis_m": null,
      "fzfg": false,
      "metar_trigger": false,
      "taf_trigger": false,
      "metar": "",
      "taf": ""
    },
    {
      "icao": "LIBP",
      "alert": "OK",
      "vis_m": 9999,
      "fzfg": false,
      "metar_trigger": false,
      "taf_trigger": false,
      "metar": "METAR LIBP 100520Z AUTO 20004KT 9999 -RA OVC046/// 07/06 Q0998 RERA",
      "taf": "TAF LIBP 100500Z 1006/1106 25005KT 9999 SCT040"
    },
    {
      "icao": "LIBR",
      "alert": "OK",
      "vis_m": 9999,
      "fzfg": false,
      "metar_trigger": false,
      "taf_trigger": false,
      "metar": "METAR LIBR 100520Z 21004KT 170V250 9999 -RA NSC 10/08 Q1000",
      "taf": "TAF LIBR 100500Z 1006/1106 21008KT 9999 SCT040"
    },
    {
      "icao": "LICA",
      "alert": "OK",
      "vis_m": 9999,
      "fzfg": false,
      "metar_trigger": false,
      "taf_trigger": false,
      "metar": "METAR LICA 100520Z AUTO 27025G40KT 9999 -RA BKN032/// 11/09 Q1005",
      "taf": "TAF LICA 100500Z 1006/1106 25025G35KT 9999 SCT020"
    },
    {
      "icao": "LICC",
      "alert": "OK",
      "vis_m": 9999,
      "fzfg": false,
      "metar_trigger": false,
      "taf_trigger": false,
      "metar": "METAR LICC 100520Z 28018KT 9999 SCT050 BKN080 14/10 Q1007",
      "taf": "TAF LICC 100500Z 1006/1106 26018G30KT 9999 FEW050"
    },
    {
      "icao": "LICJ",
      "alert": "OK",
      "vis_m": 9999,
      "fzfg": false,
      "metar_trigger": false,
      "taf_trigger": false,
      "metar": "METAR LICJ 100520Z 25023KT 9999 SCT060 14/08 Q1008",
      "taf": "TAF LICJ 100500Z 1006/1106 23020G30KT 9999 SCT030"
    },
    {
      "icao": "LIMC",
      "alert": "OK",
      "vis_m": 5000,
      "fzfg": false,
      "metar_trigger": false,
      "taf_trigger": false,
      "metar": "METAR LIMC 100450Z 01004KT 350V050 5000 BR NSC M05/M06 Q1000 NOSIG",
      "taf": "TAF LIMC 100500Z 1006/1112 VRB04KT 7000 NSC"
    },
    {
      "icao": "LIME",
      "alert": "OK",
      "vis_m": 9000,
      "fzfg": false,
      "metar_trigger": false,
      "taf_trigger": false,
      "metar": "METAR LIME 100450Z 03004KT 9000 NSC M03/M04 Q1000 NOSIG",
      "taf": "TAF LIME 100500Z 1006/1106 VRB04KT 8000 NSC"
    },
    {
      "icao": "LIMF",
      "alert": "OK",
      "vis_m": 7000,
      "fzfg": false,
      "metar_trigger": false,
      "taf_trigger": false,
      "metar": "METAR LIMF 100450Z 06005KT 7000 NSC M02/M07 Q0999",
      "taf": "TAF LIMF 100500Z 1006/1106 30010KT 8000 NSC"
    },
    {
      "icao": "LIMJ",
      "alert": "OK",
      "vis_m": 9999,
      "fzfg": false,
      "metar_trigger": false,
      "taf_trigger": false,
      "metar": "METAR LIMJ 100450Z 03007KT CAVOK 08/M04 Q1000",
      "taf": "TAF LIMJ 100500Z 1006/1106 04013KT CAVOK"
    },
    {
      "icao": "LIPE",
      "alert": "OK",
      "vis_m": 5000,
      "fzfg": false,
      "metar_trigger": false,
      "taf_trigger": false,
      "metar": "METAR LIPE 100450Z 26007KT 5000 BR FEW040 01/M01 Q1001",
      "taf": "TAF LIPE 100500Z 1006/1106 27006KT 7000 NSC"
    },
    {
      "icao": "LIPH",
      "alert": "OK",
      "vis_m": 9999,
      "fzfg": false,
      "metar_trigger": false,
      "taf_trigger": false,
      "metar": "METAR LIPH 100520Z AUTO 26004KT 230V300 9999 BKN009/// M01/M03 Q1000",
      "taf": "TAF LIPH 100500Z 1006/1106 VRB05KT 9999 SCT040"
    },
    {
      "icao": "LIPQ",
      "alert": "OK",
      "vis_m": 9999,
      "fzfg": false,
      "metar_trigger": false,
      "taf_trigger": false,
      "metar": "METAR LIPQ 100520Z AUTO 34005KT 9999 FEW120/// BKN200/// 02/02 Q0999",
      "taf": "TAF LIPQ 100500Z 1006/1106 VRB05KT 9999 BKN030"
    },
    {
      "icao": "LIPR",
      "alert": "OK",
      "vis_m": 6000,
      "fzfg": false,
      "metar_trigger": false,
      "taf_trigger": false,
      "metar": "METAR LIPR 100520Z AUTO 30006KT 6000 BKN028/// 01/M01 Q1000",
      "taf": "TAF LIPR 100500Z 1006/1106 30010KT 7000 SCT040"
    },
    {
      "icao": "LIPX",
      "alert": "OK",
      "vis_m": 8000,
      "fzfg": false,
      "metar_trigger": false,
      "taf_trigger": false,
      "metar": "METAR LIPX 100520Z 35006KT 8000 NSC M05/M06 Q1001",
      "taf": "TAF LIPX 100500Z 1006/1106 VRB05KT 8000 NSC"
    },
    {
      "icao": "LIPY",
      "alert": "OK",
      "vis_m": 3300,
      "fzfg": false,
      "metar_trigger": false,
      "taf_trigger": false,
      "metar": "METAR LIPY 100520Z AUTO 30005KT 270V330 3300 RA FEW006/// OVC019/// 04/03 Q0999",
      "taf": "TAF LIPY 100500Z 1006/1106 30012KT 9999 SCT050"
    },
    {
      "icao": "LIPZ",
      "alert": "OK",
      "vis_m": 9999,
      "fzfg": false,
      "metar_trigger": false,
      "taf_trigger": false,
      "metar": "METAR LIPZ 100520Z 31007KT CAVOK M01/M03 Q1000 NOSIG",
      "taf": "TAF LIPZ 100500Z 1006/1112 VRB05KT CAVOK"
    },
    {
      "icao": "LIRF",
      "alert": "OK",
      "vis_m": 9999,
      "fzfg": false,
      "metar_trigger": false,
      "taf_trigger": false,
      "metar": "METAR LIRF 100450Z 26019G30KT 9999 FEW035 12/06 Q0998 NOSIG",
      "taf": "TAF LIRF 100500Z 1006/1112 25023G35KT 9999 SCT025"
    },
    {
      "icao": "LIRN",
      "alert": "OK",
      "vis_m": 8000,
      "fzfg": false,
      "metar_trigger": false,
      "taf_trigger": false,
      "metar": "METAR LIRN 100450Z 26013KT 230V300 8000 -RA BKN030 09/07 Q1000 NOSIG",
      "taf": "TAF LIRN 100500Z 1006/1106 26020G32KT 9999 SCT030"
    },
    {
      "icao": "LIRP",
      "alert": "OK",
      "vis_m": 9999,
      "fzfg": false,
      "metar_trigger": false,
      "taf_trigger": false,
      "metar": "METAR LIRP 100445Z 21005KT 9999 FEW040 05/04 Q0998 NOSIG",
      "taf": "TAF LIRP 100500Z 1006/1106 VRB05KT 9999 SCT040"
    },
    {
      "icao": "LIRZ",
      "alert": "OK",
      "vis_m": 9999,
      "fzfg": false,
      "metar_trigger": false,
      "taf_trigger": false,
      "metar": "METAR LIRZ 100520Z AUTO 13007KT 9999 FEW028/// BKN038/// BKN076/// 06/04 Q0998",
      "taf": "TAF LIRZ 100500Z 1006/1106 VRB05KT 9999 BKN040"
    },
    {
      "icao": "LJLJ",
      "alert": "OK",
      "vis_m": 2000,
      "fzfg": false,
      "metar_trigger": false,
      "taf_trigger": false,
      "metar": "METAR LJLJ 100500Z VRB01KT 2000 BR SCT001 OVC015 M00/M01 Q1000 NOSIG",
      "taf": "TAF LJLJ 100500Z 1006/1106 30003KT 4000 BR SCT001 BKN015 BKN030"
    },
    {
      "icao": "LKMT",
      "alert": "OK",
      "vis_m": 4000,
      "fzfg": false,
      "metar_trigger": false,
      "taf_trigger": false,
      "metar": "METAR LKMT 100500Z 00000KT 4000 BR FEW012 SCT016 OVC019 M04/M05 Q1001 TEMPO 2500 SN BKN012",
      "taf": "TAF LKMT 100500Z 1006/1106 02008KT 8000 BKN035"
    },
    {
      "icao": "LKPR",
      "alert": "OK",
      "vis_m": 4300,
      "fzfg": false,
      "metar_trigger": false,
      "taf_trigger": false,
      "metar": "METAR LKPR 100500Z 33003KT 4300 -SN BR SCT004 BKN008 OVC013 M04/M05 Q0999 TEMPO 2000 SN BR BKN002",
      "taf": "TAF LKPR 100500Z 1006/1112 06005KT 5000 BR SCT008 OVC013"
    },
    {
      "icao": "LLBG",
      "alert": "OK",
      "vis_m": 9999,
      "fzfg": false,
      "metar_trigger": false,
      "taf_trigger": false,
      "metar": "METAR LLBG 100520Z 15005KT 9999 SCT040 SCT050 15/08 Q1020 NOSIG",
      "taf": "TAF LLBG 100503Z 1006/1106 21012KT 9999 SCT035"
    },
    {
      "icao": "LMML",
      "alert": "OK",
      "vis_m": 9999,
      "fzfg": false,
      "metar_trigger": false,
      "taf_trigger": false,
      "metar": "METAR LMML 100515Z 26014KT 9999 FEW027 14/10 Q1012 NOSIG",
      "taf": "TAF LMML 100500Z 1006/1106 26019KT 9999 SCT023"
    },
    {
      "icao": "LOWW",
      "alert": "OK",
      "vis_m": 4300,
      "fzfg": false,
      "metar_trigger": false,
      "taf_trigger": false,
      "metar": "METAR LOWW 100450Z 16004KT 130V190 4300 BR FEW003 BKN004 M05/M06 Q1001 NOSIG",
      "taf": ""
    },
    {
      "icao": "LPFR",
      "alert": "OK",
      "vis_m": 9999,
      "fzfg": false,
      "metar_trigger": false,
      "taf_trigger": false,
      "metar": "METAR LPFR 100500Z 35001KT CAVOK 07/06 Q1029",
      "taf": "TAF LPFR 100500Z 1006/1106 32005KT 9999 FEW035"
    },
    {
      "icao": "LPMA",
      "alert": "OK",
      "vis_m": 9999,
      "fzfg": false,
      "metar_trigger": false,
      "taf_trigger": false,
      "metar": "METAR LPMA 100500Z 35008KT 300V010 9999 SCT015 15/10 Q1031",
      "taf": "TAF LPMA 100500Z 1006/1106 02008KT 9999 SCT016"
    },
    {
      "icao": "LPPR",
      "alert": "OK",
      "vis_m": 9999,
      "fzfg": false,
      "metar_trigger": false,
      "taf_trigger": false,
      "metar": "METAR LPPR 100500Z 13006KT 9999 VCSH SCT045 08/07 Q1029",
      "taf": "TAF LPPR 100500Z 1006/1106 VRB02KT 9999 SCT035"
    },
    {
      "icao": "LPPS",
      "alert": "OK",
      "vis_m": 9999,
      "fzfg": false,
      "metar_trigger": false,
      "taf_trigger": false,
      "metar": "METAR LPPS 100500Z 36007KT 9999 SCT012 SCT030 14/12 Q1031",
      "taf": "TAF LPPS 100500Z 1006/1112 03008KT 9999 SCT015 SCT030"
    },
    {
      "icao": "LPPT",
      "alert": "OK",
      "vis_m": 9999,
      "fzfg": false,
      "metar_trigger": false,
      "taf_trigger": false,
      "metar": "METAR LPPT 100500Z 30005KT 9999 FEW015 BKN034 10/09 Q1029",
      "taf": "TAF LPPT 100500Z 1006/1112 VRB02KT 9999 SCT035"
    },
    {
      "icao": "LQBK",
      "alert": "OK",
      "vis_m": 400,
      "fzfg": false,
      "metar_trigger": false,
      "taf_trigger": false,
      "metar": "METAR LQBK 100500Z 33005KT 0400 R16/0700N FG VV003 00/00 Q1000 NOSIG",
      "taf": "TAF LQBK 100500Z 1006/1106 30005KT 7000 SCT010 BKN030 TX02/1011Z TNM06/1105Z"
    },
    {
      "icao": "LQSA",
      "alert": "OK",
      "vis_m": 350,
      "fzfg": true,
      "metar_trigger": false,
      "taf_trigger": false,
      "metar": "METAR LQSA 100500Z VRB01KT 0350 R11/0300N FZFG VV002 M01/M01 Q0998 NOSIG",
      "taf": ""
    },
    {
      "icao": "LQTZ",
      "alert": "OK",
      "vis_m": 4000,
      "fzfg": false,
      "metar_trigger": false,
      "taf_trigger": false,
      "metar": "METAR LQTZ 100500Z 12006KT 4000 BR FEW030 00/00 Q1000",
      "taf": "TAF LQTZ 100500Z 1006/1106 27005KT 6000 SCT005 BKN025 TX02/1013Z TNM06/1106Z"
    },
    {
      "icao": "LRBC",
      "alert": "OK",
      "vis_m": 9999,
      "fzfg": false,
      "metar_trigger": false,
      "taf_trigger": false,
      "metar": "METAR LRBC 100500Z 02004KT 9999 -SN OVC047 M04/M08 Q1000",
      "taf": "TAF LRBC 100200Z 1003/1012 VRB04KT CAVOK"
    },
    {
      "icao": "LRBS",
      "alert": "OK",
      "vis_m": 9999,
      "fzfg": false,
      "metar_trigger": false,
      "taf_trigger": false,
      "metar": "METAR LRBS 100500Z VRB01KT 9999 OVC043 00/M02 Q1000 NOSIG",
      "taf": "TAF LRBS 092300Z 1000/1024 VRB04KT 9999 BKN030"
    },
    {
      "icao": "LRBV",
      "alert": "OK",
      "vis_m": 7000,
      "fzfg": false,
      "metar_trigger": false,
      "taf_trigger": false,
      "metar": "METAR LRBV 100500Z 00000KT 7000 -SN FEW031 OVC040 M05/M07 Q0998",
      "taf": "TAF LRBV 100200Z 1003/1012 VRB04KT 9999 BKN025 BKN050"
    },
    {
      "icao": "LRCL",
      "alert": "OK",
      "vis_m": 9999,
      "fzfg": false,
      "metar_trigger": false,
      "taf_trigger": false,
      "metar": "METAR LRCL 100500Z COR 00000KT 9999 OVC026 M05/M08 Q1001",
      "taf": "TAF LRCL 100200Z 1003/1012 VRB04KT 9999 OVC035"
    },
    {
      "icao": "LRCV",
      "alert": "OK",
      "vis_m": 9000,
      "fzfg": false,
      "metar_trigger": false,
      "taf_trigger": false,
      "metar": "METAR LRCV 100500Z 32003KT 9000 SCT027 BKN044 M01/M01 Q1000",
      "taf": "TAF LRCV 100200Z 1003/1012 VRB04KT 9999 BKN040"
    },
    {
      "icao": "LRIA",
      "alert": "OK",
      "vis_m": 9999,
      "fzfg": false,
      "metar_trigger": false,
      "taf_trigger": false,
      "metar": "METAR LRIA 100500Z 08005KT CAVOK M05/M07 Q1000",
      "taf": "TAF LRIA 100200Z 1003/1012 VRB04KT CAVOK"
    },
    {
      "icao": "LROP",
      "alert": "OK",
      "vis_m": 9999,
      "fzfg": false,
      "metar_trigger": false,
      "taf_trigger": false,
      "metar": "METAR LROP 100500Z VRB02KT 9999 OVC041 00/M02 Q1000 NOSIG",
      "taf": "TAF LROP 092300Z 1000/1024 VRB04KT 9999 BKN030"
    },
    {
      "icao": "LRSB",
      "alert": "OK",
      "vis_m": 9999,
      "fzfg": false,
      "metar_trigger": false,
      "taf_trigger": false,
      "metar": "METAR LRSB 100500Z VRB02KT 9999 BKN017 M04/M05 Q0999",
      "taf": "TAF LRSB 092300Z 1000/1024 VRB04KT 9999 OVC040"
    },
    {
      "icao": "LRSM",
      "alert": "OK",
      "vis_m": 9999,
      "fzfg": false,
      "metar_trigger": false,
      "taf_trigger": false,
      "metar": "METAR LRSM 100500Z AUTO 06003KT 9999 SCT018/// BKN024/// OVC036/// M05/M07 Q1001",
      "taf": ""
    },
    {
      "icao": "LRSV",
      "alert": "OK",
      "vis_m": 9999,
      "fzfg": false,
      "metar_trigger": false,
      "taf_trigger": false,
      "metar": "METAR LRSV 100500Z 28003KT CAVOK M06/M10 Q0998",
      "taf": "TAF LRSV 100200Z 1003/1012 VRB04KT CAVOK"
    },
    {
      "icao": "LRTM",
      "alert": "OK",
      "vis_m": 9000,
      "fzfg": false,
      "metar_trigger": false,
      "taf_trigger": false,
      "metar": "METAR LRTM 100500Z 07004KT 9000 -SN FEW010 SCT016 BKN022 M05/M07 Q1000",
      "taf": "TAF LRTM 100200Z 1003/1012 VRB04KT 9999 OVC040"
    },
    {
      "icao": "LRTR",
      "alert": "OK",
      "vis_m": 2000,
      "fzfg": false,
      "metar_trigger": false,
      "taf_trigger": false,
      "metar": "METAR LRTR 100500Z 08003KT 2000 -SN BR OVC002 M01/M01 Q1001",
      "taf": "TAF LRTR 092300Z 1000/1024 VRB04KT 3000 -SN BR BKN010 OVC025"
    },
    {
      "icao": "LTAC",
      "alert": "OK",
      "vis_m": 9999,
      "fzfg": false,
      "metar_trigger": false,
      "taf_trigger": false,
      "metar": "METAR LTAC 100520Z 34003KT 300V020 9999 SCT040 BKN100 M03/M06 Q1012 NOSIG",
      "taf": "TAF LTAC 100440Z 1006/1106 VRB02KT 9999 SCT040 BKN100"
    },
    {
      "icao": "LTFM",
      "alert": "OK",
      "vis_m": 9999,
      "fzfg": false,
      "metar_trigger": false,
      "taf_trigger": false,
      "metar": "METAR LTFM 100520Z 20018KT 9999 SCT035 BKN090 10/05 Q1003 NOSIG",
      "taf": "TAF LTFM 100440Z 1006/1112 20020KT 9999 SCT035 BKN090"
    },
    {
      "icao": "LUKK",
      "alert": "OK",
      "vis_m": 9999,
      "fzfg": false,
      "metar_trigger": false,
      "taf_trigger": false,
      "metar": "METAR LUKK 100500Z VRB02KT CAVOK M07/M08 Q1000 NOSIG",
      "taf": "TAF LUKK 092317Z 1000/1024 VRB04KT 9999 SCT045"
    },
    {
      "icao": "LWOH",
      "alert": "OK",
      "vis_m": 8000,
      "fzfg": false,
      "metar_trigger": false,
      "taf_trigger": false,
      "metar": "METAR LWOH 100520Z 15017KT 120V180 8000 -RA SCT010 OVC035 07/05 Q1001",
      "taf": "TAF LWOH 100230Z 1003/1103 16010KT 9999 -RA FEW005 BKN020 OVC040"
    },
    {
      "icao": "LWSK",
      "alert": "OK",
      "vis_m": 7000,
      "fzfg": false,
      "metar_trigger": false,
      "taf_trigger": false,
      "metar": "METAR LWSK 100520Z VRB02KT 7000 FEW040 SCT070 M03/M04 Q1002 NOSIG",
      "taf": "TAF LWSK 100230Z 1003/1103 VRB02KT 9999 SCT040 BKN060"
    },
    {
      "icao": "LYBE",
      "alert": "OK",
      "vis_m": 1000,
      "fzfg": false,
      "metar_trigger": false,
      "taf_trigger": false,
      "metar": "METAR LYBE 100500Z 00000KT 1000 R12L/1800U R30R/2000U BR BKN002 BKN020 00/00 Q1001 NOSIG",
      "taf": "TAF LYBE 100500Z 1006/1106 30005KT 2000 BR BKN003 BKN020 TX01/1006Z TNM04/1106Z"
    },
    {
      "icao": "LYNI",
      "alert": "OK",
      "vis_m": 6000,
      "fzfg": false,
      "metar_trigger": false,
      "taf_trigger": false,
      "metar": "METAR LYNI 100500Z VRB01KT 6000 FEW030 BKN070 01/01 Q1001 NOSIG",
      "taf": "TAF LYNI 100500Z 1006/1106 07004KT 7000 SCT015 BKN030 TX01/1006Z TNM03/1106Z"
    },
    {
      "icao": "LYPG",
      "alert": "OK",
      "vis_m": 6000,
      "fzfg": false,
      "metar_trigger": false,
      "taf_trigger": false,
      "metar": "METAR LYPG 100500Z VRB03KT 6000 -RA FEW010 SCT020 BKN034 04/04 Q1000 NOSIG",
      "taf": "TAF LYPG 100500Z 1006/1106 16005KT 9999 FEW010 BKN030 OVC070 TX08/1012Z TN04/1105Z"
    },
    {
      "icao": "LZIB",
      "alert": "OK",
      "vis_m": 9999,
      "fzfg": false,
      "metar_trigger": false,
      "taf_trigger": false,
      "metar": "METAR LZIB 100500Z 12001KT 9999 BKN007 OVC009 M04/M06 Q1001 NOSIG",
      "taf": "TAF LZIB 100515Z 1006/1106 06004KT 9999 BKN007 OVC012"
    },
    {
      "icao": "LZKZ",
      "alert": "OK",
      "vis_m": 7000,
      "fzfg": false,
      "metar_trigger": false,
      "taf_trigger": false,
      "metar": "METAR LZKZ 100500Z 03003KT 7000 OVC009 M08/M10 Q1001 NOSIG",
      "taf": "TAF LZKZ 100515Z 1006/1106 03006KT 9999 BKN009"
    },
    {
      "icao": "LZTT",
      "alert": "OK",
      "vis_m": 9999,
      "fzfg": false,
      "metar_trigger": false,
      "taf_trigger": false,
      "metar": "METAR LZTT 100500Z 04001KT 9999 BKN023 M11/M13 Q0997",
      "taf": "TAF LZTT 100515Z 1006/1106 07005KT 9999 SCT025 BKN045"
    },
    {
      "icao": "OEJN",
      "alert": "OK",
      "vis_m": 6000,
      "fzfg": false,
      "metar_trigger": false,
      "taf_trigger": false,
      "metar": "METAR OEJN 100500Z 00000KT 6000 NSC 24/17 Q1015 NOSIG",
      "taf": "TAF OEJN 100500Z 1006/1112 29016KT 7000 SCT040"
    },
    {
      "icao": "OEMA",
      "alert": "OK",
      "vis_m": 9999,
      "fzfg": false,
      "metar_trigger": false,
      "taf_trigger": false,
      "metar": "METAR OEMA 100500Z 02004KT CAVOK 17/10 Q1020 NOSIG",
      "taf": "TAF OEMA 100500Z 1006/1112 06016KT 7000 FEW045"
    },
    {
      "icao": "OJAI",
      "alert": "OK",
      "vis_m": 3000,
      "fzfg": false,
      "metar_trigger": false,
      "taf_trigger": false,
      "metar": "METAR OJAI 100500Z 26008KT 3000 BR BKN025 08/07 Q1020 NOSIG",
      "taf": ""
    },
    {
      "icao": "OMAA",
      "alert": "OK",
      "vis_m": 6000,
      "fzfg": false,
      "metar_trigger": false,
      "taf_trigger": false,
      "metar": "METAR OMAA 100500Z 14004KT 6000 NSC 17/13 Q1020 NOSIG",
      "taf": "TAF OMAA 100500Z 1006/1112 VRB02KT 8000 NSC"
    },
    {
      "icao": "OMDB",
      "alert": "OK",
      "vis_m": 8000,
      "fzfg": false,
      "metar_trigger": false,
      "taf_trigger": false,
      "metar": "METAR OMDB 100500Z 20005KT 120V220 8000 NSC 19/13 Q1020 NOSIG",
      "taf": "TAF OMDB 100500Z 1006/1112 20005KT 8000 NSC"
    },
    {
      "icao": "UAAA",
      "alert": "OK",
      "vis_m": 550,
      "fzfg": true,
      "metar_trigger": false,
      "taf_trigger": false,
      "metar": "METAR UAAA 100500Z VRB01MPS 0550 R23L/0600N FZFG VV003 M05/M06 Q1020 NOSIG RMK QBB100",
      "taf": "TAF UAAA 100505Z 1006/1106 23003MPS 1600 BR FU BKN011 OVC020 TX04/1009Z TNM05/1101Z"
    },
    {
      "icao": "UBBB",
      "alert": "OK",
      "vis_m": 9999,
      "fzfg": false,
      "metar_trigger": false,
      "taf_trigger": false,
      "metar": "METAR UBBB 100500Z 35020KT 9999 BKN021 09/05 Q1009 NOSIG",
      "taf": "TAF UBBB 100501Z 1006/1106 33018G28KT 9999 SCT015 BKN025 TX09/1008Z TN04/1102Z"
    },
    {
      "icao": "UDSG",
      "alert": "OK",
      "vis_m": 1800,
      "fzfg": false,
      "metar_trigger": false,
      "taf_trigger": false,
      "metar": "METAR UDSG 100500Z 04001KT 1800 SN BR OVC015 M02/M02 Q1007 NOSIG",
      "taf": "TAF UDSG 100458Z 1006/1106 VRB06KT 1000 BR OVC010"
    },
    {
      "icao": "UDYZ",
      "alert": "OK",
      "vis_m": 1400,
      "fzfg": false,
      "metar_trigger": false,
      "taf_trigger": false,
      "metar": "METAR UDYZ 100500Z 11002KT 1400 0800W R08/0800D BCFG BKN044 M01/M02 Q1008 NOSIG",
      "taf": "TAF UDYZ 100500Z 1006/1106 VRB04KT 1000 BR BKN030"
    },
    {
      "icao": "UGKO",
      "alert": "OK",
      "vis_m": 6000,
      "fzfg": false,
      "metar_trigger": false,
      "taf_trigger": false,
      "metar": "METAR UGKO 100500Z 22011KT 6000 -SHRA SCT013 BKN015CB OVC056 03/02 Q1014 NOSIG",
      "taf": "TAF UGKO 100500Z 1006/1106 24010KT 9999 OVC050 TX09/1012Z TN03/1022Z"
    }
  ]
}