{
  "ts_utc": "2026-03-09T02:31:29Z",
  "threshold_m": 150,
  "source": "stations_override.txt (ICAO list) + aviationweather.gov (METAR/TAF raw)",
  "station_count": 159,
  "stations": [
    {
      "icao": "BIKF",
      "alert": "OK",
      "vis_m": 9999,
      "fzfg": false,
      "metar_trigger": false,
      "taf_trigger": false,
      "metar": "METAR BIKF 090200Z 17018KT 9999 -SHRASN SCT011CB BKN023 01/M01 Q0995",
      "taf": "TAF BIKF 090155Z 0903/1003 18010KT 9999 SCT015 BKN035 TX05/0916Z TN00/0903Z"
    },
    {
      "icao": "BKPR",
      "alert": "OK",
      "vis_m": 9999,
      "fzfg": false,
      "metar_trigger": false,
      "taf_trigger": false,
      "metar": "METAR BKPR 090230Z 34010KT CAVOK 04/01 Q1027 NOSIG",
      "taf": "TAF BKPR 082330Z 0900/0924 01008KT 9999 SCT050"
    },
    {
      "icao": "EBCI",
      "alert": "OK",
      "vis_m": 6000,
      "fzfg": false,
      "metar_trigger": false,
      "taf_trigger": false,
      "metar": "METAR EBCI 090220Z 15003KT 6000 NSC 08/06 Q1021 NOSIG",
      "taf": "TAF EBCI 082302Z 0900/1006 20004KT CAVOK"
    },
    {
      "icao": "EDDB",
      "alert": "OK",
      "vis_m": 9999,
      "fzfg": false,
      "metar_trigger": false,
      "taf_trigger": false,
      "metar": "METAR EDDB 090220Z AUTO 08005KT CAVOK 02/M02 Q1025 NOSIG",
      "taf": "TAF EDDB 082300Z 0900/0924 10006KT CAVOK"
    },
    {
      "icao": "EDDH",
      "alert": "OK",
      "vis_m": 9999,
      "fzfg": false,
      "metar_trigger": false,
      "taf_trigger": false,
      "metar": "METAR EDDH 090220Z AUTO 07003KT 040V110 CAVOK 06/01 Q1023 NOSIG",
      "taf": "TAF EDDH 082300Z 0900/1006 13005KT CAVOK"
    },
    {
      "icao": "EDDK",
      "alert": "OK",
      "vis_m": 9999,
      "fzfg": false,
      "metar_trigger": false,
      "taf_trigger": false,
      "metar": "METAR EDDK 090220Z AUTO VRB01KT CAVOK 04/02 Q1022 NOSIG",
      "taf": "TAF EDDK 082300Z 0900/1006 VRB03KT CAVOK"
    },
    {
      "icao": "EDDN",
      "alert": "OK",
      "vis_m": 9999,
      "fzfg": false,
      "metar_trigger": false,
      "taf_trigger": false,
      "metar": "METAR EDDN 090220Z AUTO 12003KT CAVOK 03/01 Q1023 NOSIG",
      "taf": "TAF EDDN 082300Z 0900/0924 VRB03KT CAVOK"
    },
    {
      "icao": "EDDS",
      "alert": "OK",
      "vis_m": 9999,
      "fzfg": false,
      "metar_trigger": false,
      "taf_trigger": false,
      "metar": "METAR EDDS 090220Z AUTO VRB01KT CAVOK 03/01 Q1021",
      "taf": "TAF EDDS 082300Z 0900/0924 VRB02KT CAVOK"
    },
    {
      "icao": "EDFH",
      "alert": "OK",
      "vis_m": 9999,
      "fzfg": false,
      "metar_trigger": false,
      "taf_trigger": false,
      "metar": "METAR EDFH 090220Z 18004KT CAVOK 07/03 Q1022",
      "taf": "TAF EDFH 082300Z 0900/0924 16006KT CAVOK"
    },
    {
      "icao": "EDJA",
      "alert": "OK",
      "vis_m": 9999,
      "fzfg": false,
      "metar_trigger": false,
      "taf_trigger": false,
      "metar": "METAR EDJA 090220Z AUTO VRB02KT 9999 // NCD 02/01 Q1022",
      "taf": "TAF EDJA 090200Z 0903/0912 VRB03KT CAVOK"
    },
    {
      "icao": "EDLW",
      "alert": "OK",
      "vis_m": 9999,
      "fzfg": false,
      "metar_trigger": false,
      "taf_trigger": false,
      "metar": "METAR EDLW 090220Z AUTO 14008KT 9999 // NCD 08/03 Q1021",
      "taf": "TAF EDLW 081700Z 0818/0918 05004KT CAVOK"
    },
    {
      "icao": "EDNY",
      "alert": "OK",
      "vis_m": 5000,
      "fzfg": false,
      "metar_trigger": false,
      "taf_trigger": false,
      "metar": "METAR EDNY 090220Z AUTO 08002KT 5000 // FEW190/// 03/03 Q1023",
      "taf": "TAF EDNY 090200Z 0903/0912 VRB02KT 8000 NSC"
    },
    {
      "icao": "EDSB",
      "alert": "OK",
      "vis_m": 350,
      "fzfg": false,
      "metar_trigger": false,
      "taf_trigger": false,
      "metar": "METAR EDSB 090220Z AUTO 00000KT 0350 R21///// // FEW009/// 04/04 Q1022",
      "taf": ""
    },
    {
      "icao": "EETN",
      "alert": "OK",
      "vis_m": 9999,
      "fzfg": false,
      "metar_trigger": false,
      "taf_trigger": false,
      "metar": "METAR EETN 090220Z 22003KT CAVOK 00/M02 Q1025",
      "taf": "TAF EETN 082330Z 0900/0924 22004KT CAVOK"
    },
    {
      "icao": "EFTU",
      "alert": "OK",
      "vis_m": 9999,
      "fzfg": false,
      "metar_trigger": false,
      "taf_trigger": false,
      "metar": "METAR EFTU 090220Z AUTO 23006KT CAVOK 01/M01 Q1022",
      "taf": "TAF EFTU 082325Z 0900/0924 20005KT CAVOK"
    },
    {
      "icao": "EGBB",
      "alert": "OK",
      "vis_m": 1000,
      "fzfg": false,
      "metar_trigger": false,
      "taf_trigger": false,
      "metar": "METAR EGBB 090220Z 19005KT 1000 R15/P1500D BR OVC002 07/07 Q1019",
      "taf": ""
    },
    {
      "icao": "EGGP",
      "alert": "OK",
      "vis_m": 8000,
      "fzfg": false,
      "metar_trigger": false,
      "taf_trigger": false,
      "metar": "METAR EGGP 090220Z 15007KT 8000 BKN008 08/07 Q1019",
      "taf": "TAF EGGP 082302Z 0900/0924 15007KT 7000 BKN010"
    },
    {
      "icao": "EGGW",
      "alert": "OK",
      "vis_m": 1700,
      "fzfg": false,
      "metar_trigger": false,
      "taf_trigger": false,
      "metar": "METAR EGGW 090220Z AUTO 15006KT 1700 BR OVC003 06/06 Q1020",
      "taf": ""
    },
    {
      "icao": "EGKK",
      "alert": "OK",
      "vis_m": 700,
      "fzfg": false,
      "metar_trigger": false,
      "taf_trigger": false,
      "metar": "METAR EGKK 090220Z 09003KT 060V130 0700 R08R/1100D FG OVC001 07/07 Q1020",
      "taf": "TAF EGKK 082258Z 0900/1006 13005KT 5000 BR BKN005"
    },
    {
      "icao": "EGNM",
      "alert": "OK",
      "vis_m": null,
      "fzfg": false,
      "metar_trigger": false,
      "taf_trigger": false,
      "metar": "",
      "taf": "TAF EGNM 082301Z 0900/0924 15007KT 6000 SCT003 BKN006"
    },
    {
      "icao": "EGPD",
      "alert": "OK",
      "vis_m": 9999,
      "fzfg": false,
      "metar_trigger": false,
      "taf_trigger": false,
      "metar": "METAR EGPD 090220Z COR AUTO 16004KT 9999 NCD 05/03 Q1016 NOSIG",
      "taf": "TAF EGPD 082256Z 0900/0924 18008KT 9999 FEW030"
    },
    {
      "icao": "EGPF",
      "alert": "OK",
      "vis_m": 7000,
      "fzfg": false,
      "metar_trigger": false,
      "taf_trigger": false,
      "metar": "METAR EGPF 090220Z AUTO VRB02KT 7000 BKN019 04/03 Q1017",
      "taf": "TAF EGPF 082256Z 0900/0924 VRB03KT 9999 SCT025"
    },
    {
      "icao": "EHBK",
      "alert": "OK",
      "vis_m": 9999,
      "fzfg": false,
      "metar_trigger": false,
      "taf_trigger": false,
      "metar": "METAR EHBK 090225Z AUTO 21006KT 9999 NCD 06/04 Q1021",
      "taf": "TAF EHBK 082315Z 0900/1006 VRB02KT CAVOK"
    },
    {
      "icao": "EHEH",
      "alert": "OK",
      "vis_m": 2500,
      "fzfg": false,
      "metar_trigger": false,
      "taf_trigger": false,
      "metar": "METAR EHEH 090225Z AUTO 20002KT 2500 BR NCD 02/01 Q1021 YLO",
      "taf": "TAF EHEH 082336Z 0900/1006 VRB02KT 3000 BR MIFG NSC"
    },
    {
      "icao": "EKBI",
      "alert": "OK",
      "vis_m": 3600,
      "fzfg": false,
      "metar_trigger": false,
      "taf_trigger": false,
      "metar": "METAR EKBI 090220Z AUTO 10003KT 3600 BR SCT170/// 05/04 Q1023",
      "taf": "TAF EKBI 090227Z 0903/1003 13003KT 3000 BR NSC"
    },
    {
      "icao": "EKCH",
      "alert": "OK",
      "vis_m": 9999,
      "fzfg": false,
      "metar_trigger": false,
      "taf_trigger": false,
      "metar": "METAR EKCH 090220Z AUTO 14005KT 9999 BKN130/// 05/00 Q1025 NOSIG",
      "taf": "TAF EKCH 090227Z 0903/1003 15006KT 7000 NSC"
    },
    {
      "icao": "ENAL",
      "alert": "OK",
      "vis_m": null,
      "fzfg": false,
      "metar_trigger": false,
      "taf_trigger": false,
      "metar": "",
      "taf": "TAF ENAL 082300Z 0900/0909 17008KT 9999 SCT012 BKN025"
    },
    {
      "icao": "ENBR",
      "alert": "OK",
      "vis_m": 5000,
      "fzfg": false,
      "metar_trigger": false,
      "taf_trigger": false,
      "metar": "METAR ENBR 090220Z 16016KT 5000 -SHRA OVC005 04/03 Q1022 RMK WIND 1200FT 16022KT",
      "taf": "TAF ENBR 082300Z 0900/0924 17008KT 9999 BKN012"
    },
    {
      "icao": "ENGM",
      "alert": "OK",
      "vis_m": 750,
      "fzfg": false,
      "metar_trigger": false,
      "taf_trigger": false,
      "metar": "METAR ENGM 090220Z 20009KT 0750 0450SE R19R/1100N R01R/0550N R19L/0650N R01L/0900D FG VV002 01/00 Q1020",
      "taf": "TAF ENGM 082300Z 0900/0924 18005KT 4000 BR BKN006"
    },
    {
      "icao": "ENHD",
      "alert": "OK",
      "vis_m": 9999,
      "fzfg": false,
      "metar_trigger": false,
      "taf_trigger": false,
      "metar": "METAR ENHD 090220Z AUTO 15010KT 9999 BKN008/// BKN009/// OVC012/// 04/03 Q1022",
      "taf": ""
    },
    {
      "icao": "ENTC",
      "alert": "OK",
      "vis_m": 9999,
      "fzfg": false,
      "metar_trigger": false,
      "taf_trigger": false,
      "metar": "METAR ENTC 090150Z AUTO 31001KT 9999 FEW010/// SCT015/// BKN020/// 02/M00 Q1014 RMK WIND 2600FT 24010KT",
      "taf": "TAF ENTC 082300Z 0900/0924 20005KT 9999 FEW015 BKN020"
    },
    {
      "icao": "ENTO",
      "alert": "OK",
      "vis_m": 350,
      "fzfg": false,
      "metar_trigger": false,
      "taf_trigger": false,
      "metar": "METAR ENTO 090220Z AUTO 22006KT 0350 R18/1200D R36/1300D FG VV002 01/01 Q1022",
      "taf": "TAF ENTO 082300Z 0900/0924 20005KT 0150 FG VV001"
    },
    {
      "icao": "ENVA",
      "alert": "OK",
      "vis_m": 9999,
      "fzfg": false,
      "metar_trigger": false,
      "taf_trigger": false,
      "metar": "METAR ENVA 090220Z AUTO 10007KT 9999 NCD M00/M03 Q1018 RMK WIND 670FT 13005KT",
      "taf": "TAF ENVA 082300Z 0900/0924 12008KT CAVOK"
    },
    {
      "icao": "ENZV",
      "alert": "OK",
      "vis_m": 9999,
      "fzfg": false,
      "metar_trigger": false,
      "taf_trigger": false,
      "metar": "METAR ENZV 090220Z 13004KT 9999 FEW034 03/02 Q1023",
      "taf": "TAF ENZV 082300Z 0900/0924 17008KT 9999 SCT004 BKN015"
    },
    {
      "icao": "EPGD",
      "alert": "OK",
      "vis_m": 9999,
      "fzfg": false,
      "metar_trigger": false,
      "taf_trigger": false,
      "metar": "METAR EPGD 090200Z VRB01KT CAVOK 06/M02 Q1029",
      "taf": "TAF EPGD 082330Z 0900/0924 18007KT CAVOK"
    },
    {
      "icao": "EPKK",
      "alert": "OK",
      "vis_m": 9999,
      "fzfg": false,
      "metar_trigger": false,
      "taf_trigger": false,
      "metar": "METAR EPKK 090200Z VRB04KT CAVOK M00/M03 Q1029",
      "taf": "TAF EPKK 090230Z 0903/1003 04005KT CAVOK"
    },
    {
      "icao": "EPKT",
      "alert": "OK",
      "vis_m": 9999,
      "fzfg": false,
      "metar_trigger": false,
      "taf_trigger": false,
      "metar": "METAR EPKT 090200Z 09004KT CAVOK 02/M03 Q1028",
      "taf": "TAF EPKT 082330Z 0900/0924 08006KT CAVOK"
    },
    {
      "icao": "EPLB",
      "alert": "OK",
      "vis_m": 5000,
      "fzfg": false,
      "metar_trigger": false,
      "taf_trigger": false,
      "metar": "METAR EPLB 090200Z 08002KT 5000 BR NSC M01/M01 Q1032",
      "taf": "TAF EPLB 082330Z 0900/0924 08002KT 7000 NSC"
    },
    {
      "icao": "EPMO",
      "alert": "OK",
      "vis_m": 9000,
      "fzfg": false,
      "metar_trigger": false,
      "taf_trigger": false,
      "metar": "METAR EPMO 090200Z 08003KT 9000 NSC M00/M02 Q1031",
      "taf": "TAF EPMO 082330Z 0900/0924 10004KT CAVOK"
    },
    {
      "icao": "EPPO",
      "alert": "OK",
      "vis_m": 9999,
      "fzfg": false,
      "metar_trigger": false,
      "taf_trigger": false,
      "metar": "METAR EPPO 090200Z 11007KT CAVOK 02/M03 Q1028",
      "taf": "TAF EPPO 082330Z 0900/0924 11006KT CAVOK"
    },
    {
      "icao": "EPRA",
      "alert": "OK",
      "vis_m": 9999,
      "fzfg": false,
      "metar_trigger": false,
      "taf_trigger": false,
      "metar": "METAR EPRA 090200Z 14005KT CAVOK 03/M01 Q1030",
      "taf": "TAF EPRA 090230Z 0903/0912 14006KT CAVOK"
    },
    {
      "icao": "EPRZ",
      "alert": "OK",
      "vis_m": 9999,
      "fzfg": false,
      "metar_trigger": false,
      "taf_trigger": false,
      "metar": "METAR EPRZ 090200Z 08007KT CAVOK 02/M01 Q1030",
      "taf": "TAF EPRZ 082330Z 0900/0924 07007KT CAVOK"
    },
    {
      "icao": "EPSC",
      "alert": "OK",
      "vis_m": 9999,
      "fzfg": false,
      "metar_trigger": false,
      "taf_trigger": false,
      "metar": "METAR EPSC 090200Z 13010KT CAVOK 06/M02 Q1027",
      "taf": "TAF EPSC 082330Z 0900/0924 15008KT CAVOK"
    },
    {
      "icao": "EPSY",
      "alert": "OK",
      "vis_m": 9999,
      "fzfg": false,
      "metar_trigger": false,
      "taf_trigger": false,
      "metar": "METAR EPSY 090200Z 04001KT CAVOK M03/M04 Q1031",
      "taf": "TAF EPSY 090230Z 0903/0912 VRB02KT CAVOK"
    },
    {
      "icao": "EPWA",
      "alert": "OK",
      "vis_m": 9999,
      "fzfg": false,
      "metar_trigger": false,
      "taf_trigger": false,
      "metar": "METAR EPWA 090200Z 11004KT CAVOK 03/M01 Q1031 NOSIG",
      "taf": "TAF EPWA 090230Z 0903/1003 11004KT CAVOK"
    },
    {
      "icao": "EPWR",
      "alert": "OK",
      "vis_m": 9999,
      "fzfg": false,
      "metar_trigger": false,
      "taf_trigger": false,
      "metar": "METAR EPWR 090200Z 12005KT CAVOK 01/M02 Q1027",
      "taf": "TAF EPWR 090230Z 0903/1003 10006KT CAVOK"
    },
    {
      "icao": "ESGG",
      "alert": "OK",
      "vis_m": 3200,
      "fzfg": false,
      "metar_trigger": false,
      "taf_trigger": false,
      "metar": "METAR ESGG 090220Z 24005KT 3200 BR SCT006 03/02 Q1024",
      "taf": "TAF ESGG 082330Z 0900/0924 21007KT 9999 SCT007"
    },
    {
      "icao": "ESKN",
      "alert": "OK",
      "vis_m": 9999,
      "fzfg": false,
      "metar_trigger": false,
      "taf_trigger": false,
      "metar": "METAR ESKN 090220Z 00000KT CAVOK 04/02 Q1023",
      "taf": "TAF ESKN 082330Z 0900/0924 23005KT CAVOK"
    },
    {
      "icao": "ESMS",
      "alert": "OK",
      "vis_m": 9000,
      "fzfg": false,
      "metar_trigger": false,
      "taf_trigger": false,
      "metar": "METAR ESMS 090220Z 12005KT 9000 NSC 04/M01 Q1025",
      "taf": "TAF ESMS 082328Z 0900/0924 13008KT 7000 NSC"
    },
    {
      "icao": "ESSA",
      "alert": "OK",
      "vis_m": 9000,
      "fzfg": false,
      "metar_trigger": false,
      "taf_trigger": false,
      "metar": "METAR ESSA 090220Z 17006KT 9000 -RA FEW047 OVC064 03/01 Q1022 NOSIG",
      "taf": "TAF ESSA 082330Z 0900/0924 21006KT CAVOK"
    },
    {
      "icao": "EYKA",
      "alert": "OK",
      "vis_m": 8000,
      "fzfg": false,
      "metar_trigger": false,
      "taf_trigger": false,
      "metar": "METAR EYKA 090220Z 14002KT 8000 NSC M04/M05 Q1031",
      "taf": "TAF EYKA 082300Z 0900/0924 VRB02KT 9000 NSC"
    },
    {
      "icao": "EYPA",
      "alert": "OK",
      "vis_m": 9999,
      "fzfg": false,
      "metar_trigger": false,
      "taf_trigger": false,
      "metar": "METAR EYPA 090220Z 18006KT CAVOK 01/M03 Q1029",
      "taf": "TAF EYPA 082300Z 0900/0924 VRB04KT 9000 NSC"
    },
    {
      "icao": "EYVI",
      "alert": "OK",
      "vis_m": 9999,
      "fzfg": false,
      "metar_trigger": false,
      "taf_trigger": false,
      "metar": "METAR EYVI 090220Z 18003KT CAVOK M01/M05 Q1031 NOSIG",
      "taf": "TAF EYVI 082300Z 0900/0924 VRB03KT 9000 NSC"
    },
    {
      "icao": "GCFV",
      "alert": "OK",
      "vis_m": 9999,
      "fzfg": false,
      "metar_trigger": false,
      "taf_trigger": false,
      "metar": "METAR GCFV 090200Z AUTO 36016KT 9999 FEW027 BKN047 16/10 Q1022",
      "taf": "TAF GCFV 090200Z 0903/1003 03017KT 9999 SCT025 BKN045 TX20/0914Z TN15/0906Z"
    },
    {
      "icao": "GCLP",
      "alert": "OK",
      "vis_m": 9999,
      "fzfg": false,
      "metar_trigger": false,
      "taf_trigger": false,
      "metar": "METAR GCLP 090200Z 36013KT 9999 SCT030 BKN040 16/10 Q1023 NOSIG",
      "taf": "TAF GCLP 090200Z 0903/1003 01022KT 9999 SCT025 BKN045 TX20/0914Z TN15/0906Z"
    },
    {
      "icao": "GCTS",
      "alert": "OK",
      "vis_m": 9999,
      "fzfg": false,
      "metar_trigger": false,
      "taf_trigger": false,
      "metar": "METAR GCTS 090200Z 08011KT 050V110 9999 SCT045 16/07 Q1023 NOSIG",
      "taf": "TAF GCTS 090200Z 0903/1003 04015KT 9999 SCT045 TX21/0914Z TN14/0906Z"
    },
    {
      "icao": "GMAD",
      "alert": "OK",
      "vis_m": 8000,
      "fzfg": false,
      "metar_trigger": false,
      "taf_trigger": false,
      "metar": "METAR GMAD 090200Z 12003KT 8000 NSC 09/08 Q1018 NOSIG",
      "taf": "TAF GMAD 082300Z 0900/1006 12004KT 6000 SCT008 SCT016"
    },
    {
      "icao": "GMMN",
      "alert": "OK",
      "vis_m": 9999,
      "fzfg": false,
      "metar_trigger": false,
      "taf_trigger": false,
      "metar": "METAR GMMN 090200Z VRB02KT 9999 SCT016 08/07 Q1023 BECMG 3000 BR BKN010",
      "taf": "TAF GMMN 082300Z 0900/1006 14004KT 8000 BKN016"
    },
    {
      "icao": "GMMX",
      "alert": "OK",
      "vis_m": 8000,
      "fzfg": false,
      "metar_trigger": false,
      "taf_trigger": false,
      "metar": "METAR GMMX 090200Z 09006KT 8000 BKN023 09/07 Q1021 NOSIG",
      "taf": "TAF GMMX 082300Z 0900/1006 06006KT 8000 BKN023"
    },
    {
      "icao": "HEGN",
      "alert": "OK",
      "vis_m": 9999,
      "fzfg": false,
      "metar_trigger": false,
      "taf_trigger": false,
      "metar": "METAR HEGN 090200Z 28008KT CAVOK 14/05 Q1016 NOSIG",
      "taf": "TAF HEGN 082300Z 0900/1006 29008G20KT CAVOK"
    },
    {
      "icao": "HEMA",
      "alert": "OK",
      "vis_m": 9999,
      "fzfg": false,
      "metar_trigger": false,
      "taf_trigger": false,
      "metar": "METAR HEMA 090200Z 30012KT CAVOK 17/06 Q1015 NOSIG",
      "taf": "TAF HEMA 082300Z 0900/1006 31008G20KT CAVOK"
    },
    {
      "icao": "HESH",
      "alert": "OK",
      "vis_m": 9999,
      "fzfg": false,
      "metar_trigger": false,
      "taf_trigger": false,
      "metar": "METAR HESH 090200Z 36014KT CAVOK 17/02 Q1016 NOSIG",
      "taf": "TAF HESH 082300Z 0900/1006 32013KT CAVOK"
    },
    {
      "icao": "HESX",
      "alert": "OK",
      "vis_m": 9999,
      "fzfg": false,
      "metar_trigger": false,
      "taf_trigger": false,
      "metar": "METAR HESX 090200Z 36003KT CAVOK 09/07 Q1019 NOSIG",
      "taf": "TAF HESX 082300Z 0900/1006 04007KT CAVOK"
    },
    {
      "icao": "LATI",
      "alert": "OK",
      "vis_m": 7000,
      "fzfg": false,
      "metar_trigger": false,
      "taf_trigger": false,
      "metar": "METAR LATI 090220Z VRB03KT 7000 -DZ FEW047 BKN070 11/08 Q1025 NOSIG",
      "taf": "TAF LATI 082300Z 0900/0924 VRB05KT 9999 SCT040 BKN080 TX17/0912Z TN10/0905Z"
    },
    {
      "icao": "LBPD",
      "alert": "OK",
      "vis_m": 9999,
      "fzfg": false,
      "metar_trigger": false,
      "taf_trigger": false,
      "metar": "METAR LBPD 090230Z AUTO 00000KT 9999 OVC047/// 02/01 Q1032",
      "taf": "TAF LBPD 082300Z 0900/0924 VRB04KT CAVOK"
    },
    {
      "icao": "LBSF",
      "alert": "OK",
      "vis_m": 9999,
      "fzfg": false,
      "metar_trigger": false,
      "taf_trigger": false,
      "metar": "METAR LBSF 090230Z AUTO 11010KT 9999 NCD 01/M02 Q1030 NOSIG",
      "taf": "TAF LBSF 082300Z 0900/0924 10012KT CAVOK"
    },
    {
      "icao": "LBWN",
      "alert": "OK",
      "vis_m": 9999,
      "fzfg": false,
      "metar_trigger": false,
      "taf_trigger": false,
      "metar": "METAR LBWN 090230Z AUTO 23001KT 9999 BKN024/// 01/01 Q1033 NOSIG",
      "taf": "TAF LBWN 082300Z 0900/0924 02008KT CAVOK"
    },
    {
      "icao": "LCLK",
      "alert": "OK",
      "vis_m": 9999,
      "fzfg": false,
      "metar_trigger": false,
      "taf_trigger": false,
      "metar": "METAR LCLK 090200Z 31006KT CAVOK 07/03 Q1019 NOSIG",
      "taf": "TAF LCLK 082330Z 0900/1000 32006KT 9999 FEW020"
    },
    {
      "icao": "LCPH",
      "alert": "OK",
      "vis_m": 9999,
      "fzfg": false,
      "metar_trigger": false,
      "taf_trigger": false,
      "metar": "METAR LCPH 090200Z AUTO VRB02KT 9999 NCD 08/01 Q1019 NOSIG",
      "taf": "TAF LCPH 082330Z 0900/1000 02007KT 9999 FEW020"
    },
    {
      "icao": "LEAL",
      "alert": "OK",
      "vis_m": 9999,
      "fzfg": false,
      "metar_trigger": false,
      "taf_trigger": false,
      "metar": "METAR LEAL 090200Z 25004KT 9999 FEW021 11/11 Q1022 NOSIG",
      "taf": "TAF LEAL 082300Z 0900/0924 VRB04KT 9999 SCT025 TX17/0913Z TN07/0906Z"
    },
    {
      "icao": "LEBB",
      "alert": "OK",
      "vis_m": 9999,
      "fzfg": false,
      "metar_trigger": false,
      "taf_trigger": false,
      "metar": "METAR LEBB 090200Z AUTO VRB02KT CAVOK 09/08 Q1020",
      "taf": "TAF LEBB 082300Z 0900/0924 12006KT CAVOK TX16/0912Z TN06/0907Z"
    },
    {
      "icao": "LEBL",
      "alert": "OK",
      "vis_m": 9999,
      "fzfg": false,
      "metar_trigger": false,
      "taf_trigger": false,
      "metar": "METAR LEBL 090200Z 33009KT 9999 FEW028 10/10 Q1021 NOSIG",
      "taf": "TAF LEBL 082300Z 0900/0924 33006KT 9999 FEW015 TX15/0912Z TN09/0906Z"
    },
    {
      "icao": "LECH",
      "alert": "OK",
      "vis_m": 6000,
      "fzfg": false,
      "metar_trigger": false,
      "taf_trigger": false,
      "metar": "METAR LECH 090200Z AUTO 00000KT 6000 BKN027 BKN044 OVC055 09/08 Q1021",
      "taf": ""
    },
    {
      "icao": "LEMD",
      "alert": "OK",
      "vis_m": 9999,
      "fzfg": false,
      "metar_trigger": false,
      "taf_trigger": false,
      "metar": "METAR LEMD 090200Z 36002KT 9999 FEW031 05/05 Q1021 NOSIG",
      "taf": "TAF LEMD 082300Z 0900/1006 VRB03KT 9999 SCT040 TX13/0915Z TN02/0904Z"
    },
    {
      "icao": "LEMG",
      "alert": "OK",
      "vis_m": 9999,
      "fzfg": false,
      "metar_trigger": false,
      "taf_trigger": false,
      "metar": "METAR LEMG 090200Z 31004KT CAVOK 09/09 Q1023 NOSIG",
      "taf": "TAF LEMG 082300Z 0900/0924 29006KT 9999 FEW030 TX18/0914Z TN08/0907Z"
    },
    {
      "icao": "LEVC",
      "alert": "OK",
      "vis_m": 9999,
      "fzfg": false,
      "metar_trigger": false,
      "taf_trigger": false,
      "metar": "METAR LEVC 090200Z 27002KT 9999 FEW025 BKN030 11/10 Q1022 NOSIG",
      "taf": "TAF LEVC 082300Z 0900/0924 VRB05KT 9999 SCT025 TX18/0913Z TN06/0906Z"
    },
    {
      "icao": "LEXJ",
      "alert": "OK",
      "vis_m": 9999,
      "fzfg": false,
      "metar_trigger": false,
      "taf_trigger": false,
      "metar": "METAR LEXJ 090200Z AUTO VRB01KT 9999 3200E NCD 06/05 Q1020",
      "taf": "TAF LEXJ 090200Z 0903/1003 22005KT 9999 FEW005 SCT016 TX13/0913Z TN05/0903Z"
    },
    {
      "icao": "LEZG",
      "alert": "OK",
      "vis_m": 9999,
      "fzfg": false,
      "metar_trigger": false,
      "taf_trigger": false,
      "metar": "METAR LEZG 090200Z 08002KT 9999 FEW030 BKN080 10/09 Q1021 NOSIG",
      "taf": "TAF LEZG 082300Z 0900/0924 VRB04KT 9999 FEW025 SCT040 TX15/0914Z TN06/0906Z"
    },
    {
      "icao": "LEZL",
      "alert": "OK",
      "vis_m": 8000,
      "fzfg": false,
      "metar_trigger": false,
      "taf_trigger": false,
      "metar": "METAR LEZL 090200Z AUTO 16001KT 8000 OVC007 11/11 Q1022",
      "taf": "TAF LEZL 090200Z 0903/1003 VRB03KT 9999 BKN020 TX20/0915Z TN12/0907Z"
    },
    {
      "icao": "LFBD",
      "alert": "OK",
      "vis_m": 9999,
      "fzfg": false,
      "metar_trigger": false,
      "taf_trigger": false,
      "metar": "METAR LFBD 090200Z AUTO 16004KT 9999 FEW048 OVC066 10/09 Q1021 TEMPO 0400 FG VV///",
      "taf": "TAF LFBD 082300Z 0900/1006 VRB03KT 9999 BKN040 TX16/0914Z TN06/0905Z"
    },
    {
      "icao": "LFLL",
      "alert": "OK",
      "vis_m": 9999,
      "fzfg": false,
      "metar_trigger": false,
      "taf_trigger": false,
      "metar": "METAR LFLL 090200Z 13006KT CAVOK 10/06 Q1023 NOSIG",
      "taf": "TAF LFLL 082300Z 0900/1006 16007KT CAVOK"
    },
    {
      "icao": "LFLS",
      "alert": "OK",
      "vis_m": 9999,
      "fzfg": false,
      "metar_trigger": false,
      "taf_trigger": false,
      "metar": "METAR LFLS 090200Z AUTO 09006KT CAVOK 04/03 Q1023",
      "taf": "TAF LFLS 090200Z 0903/1003 09005KT CAVOK"
    },
    {
      "icao": "LFMN",
      "alert": "OK",
      "vis_m": 9999,
      "fzfg": false,
      "metar_trigger": false,
      "taf_trigger": false,
      "metar": "METAR LFMN 090200Z 34007KT 9999 SCT110 11/06 Q1024 NOSIG",
      "taf": "TAF LFMN 090200Z 0903/1009 34008KT CAVOK"
    },
    {
      "icao": "LFOB",
      "alert": "OK",
      "vis_m": 250,
      "fzfg": false,
      "metar_trigger": false,
      "taf_trigger": false,
      "metar": "METAR LFOB 090200Z AUTO 28001KT 0250 0200 R30/0250N R12/0325N FG VV/// 05/05 Q1021 NOSIG",
      "taf": ""
    },
    {
      "icao": "LFPO",
      "alert": "OK",
      "vis_m": 7000,
      "fzfg": false,
      "metar_trigger": false,
      "taf_trigger": false,
      "metar": "METAR LFPO 090200Z AUTO 00000KT 7000 FEW003 08/07 Q1021 TEMPO 4000 BR",
      "taf": "TAF LFPO 082300Z 0900/1006 VRB03KT CAVOK"
    },
    {
      "icao": "LFSB",
      "alert": "OK",
      "vis_m": 9999,
      "fzfg": false,
      "metar_trigger": false,
      "taf_trigger": false,
      "metar": "METAR LFSB 090200Z AUTO 17003KT CAVOK 05/04 Q1023 TEMPO 4000 BR",
      "taf": "TAF LFSB 082300Z 0900/0924 VRB03KT CAVOK"
    },
    {
      "icao": "LGAV",
      "alert": "OK",
      "vis_m": 9999,
      "fzfg": false,
      "metar_trigger": false,
      "taf_trigger": false,
      "metar": "METAR LGAV 090220Z 36012KT 9999 FEW030 10/01 Q1025 NOSIG",
      "taf": "TAF LGAV 082300Z 0900/0924 02013KT 9999 SCT025"
    },
    {
      "icao": "LGTS",
      "alert": "OK",
      "vis_m": 9999,
      "fzfg": false,
      "metar_trigger": false,
      "taf_trigger": false,
      "metar": "METAR LGTS 090220Z 11004KT 9999 SCT020 06/05 Q1029 NOSIG",
      "taf": "TAF LGTS 082300Z 0900/0924 14005KT 9999 FEW012 BKN030"
    },
    {
      "icao": "LHBP",
      "alert": "OK",
      "vis_m": 9999,
      "fzfg": false,
      "metar_trigger": false,
      "taf_trigger": false,
      "metar": "METAR LHBP 090200Z VRB02KT CAVOK 05/M02 Q1029 NOSIG",
      "taf": "TAF LHBP 082315Z 0900/0924 07006KT CAVOK"
    },
    {
      "icao": "LHDC",
      "alert": "OK",
      "vis_m": 9999,
      "fzfg": false,
      "metar_trigger": false,
      "taf_trigger": false,
      "metar": "METAR LHDC 090145Z AUTO 12004KT 090V150 CAVOK 05/M02 Q1030",
      "taf": "TAF LHDC 090215Z 0903/0912 06006KT CAVOK"
    },
    {
      "icao": "LIBD",
      "alert": "OK",
      "vis_m": 9999,
      "fzfg": false,
      "metar_trigger": false,
      "taf_trigger": false,
      "metar": "METAR LIBD 090220Z AUTO 28004KT 9999 -RA OVC061/// 11/10 Q1025",
      "taf": "TAF LIBD 082300Z 0900/0924 VRB05KT 8000 SCT020"
    },
    {
      "icao": "LIBG",
      "alert": "OK",
      "vis_m": null,
      "fzfg": false,
      "metar_trigger": false,
      "taf_trigger": false,
      "metar": "",
      "taf": "TAF LIBG 081700Z 0818/0903 VRB03KT 7000 SCT015"
    },
    {
      "icao": "LIBP",
      "alert": "OK",
      "vis_m": 1500,
      "fzfg": false,
      "metar_trigger": false,
      "taf_trigger": false,
      "metar": "METAR LIBP 090220Z AUTO 24001KT 1500 BR FEW027/// 10/10 Q1025",
      "taf": "TAF LIBP 082300Z 0900/0924 VRB04KT 8000 SCT030"
    },
    {
      "icao": "LIBR",
      "alert": "OK",
      "vis_m": 9999,
      "fzfg": false,
      "metar_trigger": false,
      "taf_trigger": false,
      "metar": "METAR LIBR 090220Z 28003KT 9999 BKN045 12/11 Q1024",
      "taf": "TAF LIBR 082300Z 0900/0924 VRB06KT 8000 SCT018"
    },
    {
      "icao": "LICA",
      "alert": "OK",
      "vis_m": 9999,
      "fzfg": false,
      "metar_trigger": false,
      "taf_trigger": false,
      "metar": "METAR LICA 090220Z AUTO 05008KT 9999 NCD 11/09 Q1023",
      "taf": "TAF LICA 082300Z 0900/0924 07012KT 9999 SCT025"
    },
    {
      "icao": "LICC",
      "alert": "OK",
      "vis_m": 4000,
      "fzfg": false,
      "metar_trigger": false,
      "taf_trigger": false,
      "metar": "METAR LICC 090220Z 21004KT 4000 BR BKN100 11/09 Q1023",
      "taf": "TAF LICC 082300Z 0900/0924 VRB05KT 3000 BR SCT020"
    },
    {
      "icao": "LICJ",
      "alert": "OK",
      "vis_m": 9999,
      "fzfg": false,
      "metar_trigger": false,
      "taf_trigger": false,
      "metar": "METAR LICJ 090220Z 21003KT CAVOK 12/10 Q1022",
      "taf": "TAF LICJ 082300Z 0900/0924 VRB05KT 9999 FEW030"
    },
    {
      "icao": "LIMC",
      "alert": "OK",
      "vis_m": 9999,
      "fzfg": false,
      "metar_trigger": false,
      "taf_trigger": false,
      "metar": "METAR LIMC 090220Z 01005KT 9999 SCT080 06/03 Q1025 NOSIG",
      "taf": "TAF LIMC 082300Z 0900/1006 VRB05KT 9999 SCT060"
    },
    {
      "icao": "LIME",
      "alert": "OK",
      "vis_m": 9999,
      "fzfg": false,
      "metar_trigger": false,
      "taf_trigger": false,
      "metar": "METAR LIME 090220Z 02004KT 9999 SCT090 07/04 Q1025 NOSIG",
      "taf": "TAF LIME 082300Z 0900/0924 VRB05KT 9999 FEW080"
    },
    {
      "icao": "LIMF",
      "alert": "OK",
      "vis_m": 9999,
      "fzfg": false,
      "metar_trigger": false,
      "taf_trigger": false,
      "metar": "METAR LIMF 090220Z 31003KT 9999 SCT050 08/02 Q1026",
      "taf": "TAF LIMF 082300Z 0900/0924 VRB04KT CAVOK"
    },
    {
      "icao": "LIMJ",
      "alert": "OK",
      "vis_m": 9999,
      "fzfg": false,
      "metar_trigger": false,
      "taf_trigger": false,
      "metar": "METAR LIMJ 090220Z AUTO 03008KT 350V060 9999 OVC099/// 15/05 Q1024",
      "taf": "TAF LIMJ 082300Z 0900/0924 VRB05KT 9999 SCT030"
    },
    {
      "icao": "LIPE",
      "alert": "OK",
      "vis_m": 6000,
      "fzfg": false,
      "metar_trigger": false,
      "taf_trigger": false,
      "metar": "METAR LIPE 090220Z 21005KT 6000 NSC 06/05 Q1025",
      "taf": "TAF LIPE 082300Z 0900/0924 VRB04KT 3000 BR BKN003"
    },
    {
      "icao": "LIPH",
      "alert": "OK",
      "vis_m": 9999,
      "fzfg": false,
      "metar_trigger": false,
      "taf_trigger": false,
      "metar": "METAR LIPH 090220Z AUTO 32002KT 9999 OVC230/// 06/04 Q1025",
      "taf": "TAF LIPH 082300Z 0900/0924 VRB04KT 8000 FEW050"
    },
    {
      "icao": "LIPQ",
      "alert": "OK",
      "vis_m": 5000,
      "fzfg": false,
      "metar_trigger": false,
      "taf_trigger": false,
      "metar": "METAR LIPQ 090220Z AUTO 01003KT 5000 BR FEW088/// BKN220/// 08/07 Q1025",
      "taf": "TAF LIPQ 082300Z 0900/0924 VRB04KT 7000 SCT060"
    },
    {
      "icao": "LIPR",
      "alert": "OK",
      "vis_m": 2300,
      "fzfg": false,
      "metar_trigger": false,
      "taf_trigger": false,
      "metar": "METAR LIPR 090220Z AUTO 22002KT 2300 BR NCD 04/04 Q1025",
      "taf": "TAF LIPR 082300Z 0900/0924 VRB04KT 2500 BR NSC"
    },
    {
      "icao": "LIPX",
      "alert": "OK",
      "vis_m": 7000,
      "fzfg": false,
      "metar_trigger": false,
      "taf_trigger": false,
      "metar": "METAR LIPX 090220Z 33004KT 7000 NSC 05/04 Q1025",
      "taf": "TAF LIPX 082300Z 0900/0924 VRB05KT CAVOK"
    },
    {
      "icao": "LIPY",
      "alert": "OK",
      "vis_m": 3600,
      "fzfg": false,
      "metar_trigger": false,
      "taf_trigger": false,
      "metar": "METAR LIPY 090220Z AUTO 21005KT 3600 BR OVC003/// 09/09 Q1025",
      "taf": "TAF LIPY 082300Z 0900/0924 VRB05KT 2000 BR FEW020"
    },
    {
      "icao": "LIPZ",
      "alert": "OK",
      "vis_m": 9999,
      "fzfg": false,
      "metar_trigger": false,
      "taf_trigger": false,
      "metar": "METAR LIPZ 090220Z 35003KT CAVOK 07/05 Q1025 NOSIG",
      "taf": "TAF LIPZ 082300Z 0900/1006 VRB04KT CAVOK"
    },
    {
      "icao": "LIRF",
      "alert": "OK",
      "vis_m": 9999,
      "fzfg": false,
      "metar_trigger": false,
      "taf_trigger": false,
      "metar": "METAR LIRF 090220Z 07004KT CAVOK 08/08 Q1024 NOSIG",
      "taf": "TAF LIRF 082300Z 0900/1006 07005KT 9999 SCT050"
    },
    {
      "icao": "LIRN",
      "alert": "OK",
      "vis_m": 9999,
      "fzfg": false,
      "metar_trigger": false,
      "taf_trigger": false,
      "metar": "METAR LIRN 090220Z 29003KT CAVOK 10/08 Q1024 NOSIG",
      "taf": "TAF LIRN 082300Z 0900/0924 VRB05KT 9999 SCT060"
    },
    {
      "icao": "LIRP",
      "alert": "OK",
      "vis_m": 2000,
      "fzfg": false,
      "metar_trigger": false,
      "taf_trigger": false,
      "metar": "METAR LIRP 090215Z 07004KT 2000 R03R/1300 MIFG BR FEW001 08/08 Q1024 TEMPO 1200 BCFG",
      "taf": "TAF LIRP 082300Z 0900/0924 11003KT 5000 MIFG NSC"
    },
    {
      "icao": "LIRZ",
      "alert": "OK",
      "vis_m": 7000,
      "fzfg": false,
      "metar_trigger": false,
      "taf_trigger": false,
      "metar": "METAR LIRZ 090220Z AUTO 35005KT 340V040 7000 NCD 06/05 Q1024",
      "taf": "TAF LIRZ 082300Z 0900/0924 VRB05KT 8000 NSC"
    },
    {
      "icao": "LJLJ",
      "alert": "OK",
      "vis_m": 9999,
      "fzfg": false,
      "metar_trigger": false,
      "taf_trigger": false,
      "metar": "METAR LJLJ 090200Z 30002KT CAVOK 01/00 Q1026 NOSIG",
      "taf": "TAF LJLJ 082300Z 0900/1000 30003KT 9999 FEW070"
    },
    {
      "icao": "LKMT",
      "alert": "OK",
      "vis_m": 8000,
      "fzfg": false,
      "metar_trigger": false,
      "taf_trigger": false,
      "metar": "METAR LKMT 090200Z 24003KT 8000 NSC M00/M02 Q1028 NOSIG",
      "taf": "TAF LKMT 082300Z 0900/0924 VRB02KT CAVOK"
    },
    {
      "icao": "LKPR",
      "alert": "OK",
      "vis_m": 9999,
      "fzfg": false,
      "metar_trigger": false,
      "taf_trigger": false,
      "metar": "METAR LKPR 090200Z 04004KT CAVOK 02/M01 Q1024 NOSIG",
      "taf": "TAF LKPR 090200Z 0903/1009 11006KT CAVOK"
    },
    {
      "icao": "LLBG",
      "alert": "OK",
      "vis_m": 9999,
      "fzfg": false,
      "metar_trigger": false,
      "taf_trigger": false,
      "metar": "METAR LLBG 090220Z VRB03KT 9999 BKN050 08/03 Q1019 NOSIG",
      "taf": "TAF LLBG 082307Z 0900/0924 VRB03KT 9999 SCT050 TX19/0911Z TN06/0903Z"
    },
    {
      "icao": "LMML",
      "alert": "OK",
      "vis_m": 9999,
      "fzfg": false,
      "metar_trigger": false,
      "taf_trigger": false,
      "metar": "METAR LMML 090215Z 08010KT 9999 BKN012 15/13 Q1021 NOSIG",
      "taf": "TAF LMML 082300Z 0900/0924 09015KT 9999 SCT012"
    },
    {
      "icao": "LOWW",
      "alert": "OK",
      "vis_m": 9999,
      "fzfg": false,
      "metar_trigger": false,
      "taf_trigger": false,
      "metar": "METAR LOWW 090220Z 15007KT CAVOK 07/M01 Q1026 NOSIG",
      "taf": "TAF LOWW 090215Z 0903/1009 13005KT CAVOK TX16/0914Z TN05/0905Z"
    },
    {
      "icao": "LPFR",
      "alert": "OK",
      "vis_m": 9999,
      "fzfg": false,
      "metar_trigger": false,
      "taf_trigger": false,
      "metar": "METAR LPFR 090200Z 28004KT 9999 FEW040 11/08 Q1023",
      "taf": "TAF LPFR 082300Z 0900/0924 35005KT CAVOK"
    },
    {
      "icao": "LPMA",
      "alert": "OK",
      "vis_m": 9999,
      "fzfg": false,
      "metar_trigger": false,
      "taf_trigger": false,
      "metar": "METAR LPMA 090200Z 02010KT 310V050 9999 BKN015 SCT030 14/04 Q1028",
      "taf": "TAF LPMA 082300Z 0900/0924 01010KT 9999 BKN015"
    },
    {
      "icao": "LPPR",
      "alert": "OK",
      "vis_m": 9999,
      "fzfg": false,
      "metar_trigger": false,
      "taf_trigger": false,
      "metar": "METAR LPPR 090200Z 00000KT 9999 FEW018 SCT030 10/08 Q1022",
      "taf": "TAF LPPR 082300Z 0900/0924 20007KT 9999 SCT015 BKN030"
    },
    {
      "icao": "LPPS",
      "alert": "OK",
      "vis_m": 9999,
      "fzfg": false,
      "metar_trigger": false,
      "taf_trigger": false,
      "metar": "METAR LPPS 090200Z 04007KT 010V070 9999 SCT014 SCT030 14/06 Q1028",
      "taf": "TAF LPPS 082300Z 0900/1006 01010KT 9999 SCT015 BKN030"
    },
    {
      "icao": "LPPT",
      "alert": "OK",
      "vis_m": 9999,
      "fzfg": false,
      "metar_trigger": false,
      "taf_trigger": false,
      "metar": "METAR LPPT 090200Z 29003KT 240V320 9999 FEW020 SCT042 11/07 Q1023",
      "taf": "TAF LPPT 082300Z 0900/1006 32007KT 9999 SCT015 BKN035"
    },
    {
      "icao": "LQBK",
      "alert": "OK",
      "vis_m": 9999,
      "fzfg": false,
      "metar_trigger": false,
      "taf_trigger": false,
      "metar": "METAR LQBK 090200Z 13003KT CAVOK 01/M01 Q1026 NOSIG",
      "taf": "TAF LQBK 082300Z 0900/0924 16005KT CAVOK TX17/0914Z TN00/0905Z"
    },
    {
      "icao": "LQSA",
      "alert": "OK",
      "vis_m": 9999,
      "fzfg": false,
      "metar_trigger": false,
      "taf_trigger": false,
      "metar": "METAR LQSA 090200Z 00000KT CAVOK 02/02 Q1026",
      "taf": "TAF LQSA 082300Z 0900/0924 VRB02KT 9999 FEW055 TX17/0914Z TN03/0905Z"
    },
    {
      "icao": "LQTZ",
      "alert": "OK",
      "vis_m": 7000,
      "fzfg": false,
      "metar_trigger": false,
      "taf_trigger": false,
      "metar": "METAR LQTZ 090200Z VRB02KT 7000 NSC M01/M01 Q1026",
      "taf": "TAF LQTZ 082300Z 0900/0924 VRB02KT CAVOK TX17/0914Z TNM01/0905Z"
    },
    {
      "icao": "LRBC",
      "alert": "OK",
      "vis_m": 9999,
      "fzfg": false,
      "metar_trigger": false,
      "taf_trigger": false,
      "metar": "METAR LRBC 090200Z 34005KT CAVOK M03/M05 Q1034",
      "taf": "TAF LRBC 090200Z 0903/0912 VRB04KT CAVOK"
    },
    {
      "icao": "LRBS",
      "alert": "OK",
      "vis_m": 9999,
      "fzfg": false,
      "metar_trigger": false,
      "taf_trigger": false,
      "metar": "METAR LRBS 090200Z COR 00000KT CAVOK 00/M01 Q1033 NOSIG",
      "taf": "TAF LRBS 082300Z 0900/0924 VRB04KT CAVOK"
    },
    {
      "icao": "LRBV",
      "alert": "OK",
      "vis_m": 9999,
      "fzfg": false,
      "metar_trigger": false,
      "taf_trigger": false,
      "metar": "METAR LRBV 090200Z AUTO VRB03KT 9999 NCD M02/M03 Q1032",
      "taf": "TAF LRBV 090200Z 0903/0912 VRB04KT CAVOK"
    },
    {
      "icao": "LRCL",
      "alert": "OK",
      "vis_m": 9999,
      "fzfg": false,
      "metar_trigger": false,
      "taf_trigger": false,
      "metar": "METAR LRCL 090200Z 08003KT 060V120 CAVOK 01/M04 Q1032",
      "taf": "TAF LRCL 090200Z 0903/0912 VRB04KT CAVOK"
    },
    {
      "icao": "LRCV",
      "alert": "OK",
      "vis_m": 9999,
      "fzfg": false,
      "metar_trigger": false,
      "taf_trigger": false,
      "metar": "METAR LRCV 090200Z 04006KT CAVOK 01/00 Q1032",
      "taf": "TAF LRCV 090200Z 0903/0912 06008KT CAVOK"
    },
    {
      "icao": "LRIA",
      "alert": "OK",
      "vis_m": 9999,
      "fzfg": false,
      "metar_trigger": false,
      "taf_trigger": false,
      "metar": "METAR LRIA 090200Z 00000KT CAVOK 00/M02 Q1034",
      "taf": "TAF LRIA 090200Z 0903/0912 VRB04KT CAVOK"
    },
    {
      "icao": "LROP",
      "alert": "OK",
      "vis_m": 8000,
      "fzfg": false,
      "metar_trigger": false,
      "taf_trigger": false,
      "metar": "METAR LROP 090200Z 00000KT 8000 NSC 01/00 Q1033 NOSIG",
      "taf": "TAF LROP 082300Z 0900/0924 VRB04KT CAVOK"
    },
    {
      "icao": "LRSB",
      "alert": "OK",
      "vis_m": 9999,
      "fzfg": false,
      "metar_trigger": false,
      "taf_trigger": false,
      "metar": "METAR LRSB 090200Z VRB02KT CAVOK 03/M01 Q1030",
      "taf": "TAF LRSB 082300Z 0900/0924 VRB04KT CAVOK"
    },
    {
      "icao": "LRSM",
      "alert": "OK",
      "vis_m": 9999,
      "fzfg": false,
      "metar_trigger": false,
      "taf_trigger": false,
      "metar": "METAR LRSM 090200Z AUTO 12006KT 9999 NCD 08/M04 Q1031",
      "taf": "TAF LRSM 090200Z 0903/0912 13008KT CAVOK"
    },
    {
      "icao": "LRSV",
      "alert": "OK",
      "vis_m": 9999,
      "fzfg": false,
      "metar_trigger": false,
      "taf_trigger": false,
      "metar": "METAR LRSV 090200Z 24003KT CAVOK 03/M02 Q1032",
      "taf": "TAF LRSV 090200Z 0903/0912 VRB04KT CAVOK"
    },
    {
      "icao": "LRTM",
      "alert": "OK",
      "vis_m": 9999,
      "fzfg": false,
      "metar_trigger": false,
      "taf_trigger": false,
      "metar": "METAR LRTM 090200Z AUTO 08006KT 9999 NCD M01/M04 Q1032",
      "taf": "TAF LRTM 090200Z 0903/0912 VRB04KT CAVOK"
    },
    {
      "icao": "LRTR",
      "alert": "OK",
      "vis_m": 9999,
      "fzfg": false,
      "metar_trigger": false,
      "taf_trigger": false,
      "metar": "METAR LRTR 090200Z 09007KT CAVOK 03/02 Q1029",
      "taf": "TAF LRTR 082300Z 0900/0924 09010KT CAVOK"
    },
    {
      "icao": "LTAC",
      "alert": "OK",
      "vis_m": 9999,
      "fzfg": false,
      "metar_trigger": false,
      "taf_trigger": false,
      "metar": "METAR LTAC 090220Z 04006KT CAVOK M04/M07 Q1027 NOSIG RMK RWY21C 03008KT RWY03L 04005KT RWY21R 03009KT RWY03R 01008KT RWY21L 04007KT",
      "taf": "TAF LTAC 082240Z 0900/0924 03008KT CAVOK"
    },
    {
      "icao": "LTFM",
      "alert": "OK",
      "vis_m": 9999,
      "fzfg": false,
      "metar_trigger": false,
      "taf_trigger": false,
      "metar": "METAR LTFM 090220Z 06015KT 9999 SCT028 06/02 Q1030 NOSIG RMK RWY17L 06012KT RWY34L 05009KT RWY16R 06014KT RWY36 06015KT RWY18 07013KT",
      "taf": "TAF LTFM 082240Z 0900/1006 05015KT 9999 BKN028"
    },
    {
      "icao": "LUKK",
      "alert": "OK",
      "vis_m": 9999,
      "fzfg": false,
      "metar_trigger": false,
      "taf_trigger": false,
      "metar": "METAR LUKK 090200Z 00000KT CAVOK M00/M01 Q1034 NOSIG",
      "taf": "TAF LUKK 082318Z 0900/0924 VRB04KT CAVOK"
    },
    {
      "icao": "LWOH",
      "alert": "OK",
      "vis_m": null,
      "fzfg": false,
      "metar_trigger": false,
      "taf_trigger": false,
      "metar": "",
      "taf": "TAF LWOH 090230Z 0903/1003 VRB02KT 9999 SCT040 BKN090"
    },
    {
      "icao": "LWSK",
      "alert": "OK",
      "vis_m": 9999,
      "fzfg": false,
      "metar_trigger": false,
      "taf_trigger": false,
      "metar": "METAR LWSK 090220Z 11006KT 9999 SCT050 BKN070 09/06 Q1028 NOSIG",
      "taf": "TAF LWSK 090230Z 0903/1003 VRB02KT 9999 SCT050 BKN080"
    },
    {
      "icao": "LYBE",
      "alert": "OK",
      "vis_m": 9999,
      "fzfg": false,
      "metar_trigger": false,
      "taf_trigger": false,
      "metar": "METAR LYBE 090200Z 12016KT CAVOK 08/00 Q1028 NOSIG",
      "taf": "TAF LYBE 082300Z 0900/0924 12015KT CAVOK TX16/0913Z TN06/0905Z"
    },
    {
      "icao": "LYNI",
      "alert": "OK",
      "vis_m": 9999,
      "fzfg": false,
      "metar_trigger": false,
      "taf_trigger": false,
      "metar": "METAR LYNI 090200Z 09008KT CAVOK 08/M00 Q1029 NOSIG",
      "taf": "TAF LYNI 082300Z 0900/0924 07010KT CAVOK TX16/0913Z TN05/0905Z"
    },
    {
      "icao": "LYPG",
      "alert": "OK",
      "vis_m": 9999,
      "fzfg": false,
      "metar_trigger": false,
      "taf_trigger": false,
      "metar": "METAR LYPG 090200Z 03004KT CAVOK 09/07 Q1025 NOSIG",
      "taf": "TAF LYPG 082300Z 0900/0924 36005KT 9999 FEW040 SCT090 TX18/0913Z TN07/0905Z"
    },
    {
      "icao": "LZIB",
      "alert": "OK",
      "vis_m": 9999,
      "fzfg": false,
      "metar_trigger": false,
      "taf_trigger": false,
      "metar": "METAR LZIB 090200Z 03008KT CAVOK 04/M02 Q1028 NOSIG",
      "taf": "TAF LZIB 082315Z 0900/1000 10005KT CAVOK"
    },
    {
      "icao": "LZKZ",
      "alert": "OK",
      "vis_m": 9999,
      "fzfg": false,
      "metar_trigger": false,
      "taf_trigger": false,
      "metar": "METAR LZKZ 090200Z 01010KT CAVOK 03/M03 Q1030 NOSIG",
      "taf": "TAF LZKZ 082315Z 0900/1000 35006KT CAVOK"
    },
    {
      "icao": "LZTT",
      "alert": "OK",
      "vis_m": 9999,
      "fzfg": false,
      "metar_trigger": false,
      "taf_trigger": false,
      "metar": "METAR LZTT 090200Z 28003KT CAVOK M03/M06 Q1029",
      "taf": "TAF LZTT 082315Z 0900/1000 VRB02KT CAVOK"
    },
    {
      "icao": "OEJN",
      "alert": "OK",
      "vis_m": 9999,
      "fzfg": false,
      "metar_trigger": false,
      "taf_trigger": false,
      "metar": "METAR OEJN 090200Z 02005KT CAVOK 21/13 Q1012 NOSIG",
      "taf": "TAF OEJN 082300Z 0900/1006 02005KT 7000 FEW030"
    },
    {
      "icao": "OEMA",
      "alert": "OK",
      "vis_m": 9999,
      "fzfg": false,
      "metar_trigger": false,
      "taf_trigger": false,
      "metar": "METAR OEMA 090200Z 03008KT CAVOK 17/M04 Q1016 NOSIG",
      "taf": "TAF OEMA 082300Z 0900/1006 09014KT 7000 NSC"
    },
    {
      "icao": "OJAI",
      "alert": "OK",
      "vis_m": 5000,
      "fzfg": false,
      "metar_trigger": false,
      "taf_trigger": false,
      "metar": "METAR OJAI 090200Z 00000KT 5000 HZ NSC 00/M02 Q1019 NOSIG",
      "taf": "TAF OJAI 082300Z 0900/1006 30010KT 5000 HZ NSC"
    },
    {
      "icao": "OMAA",
      "alert": "OK",
      "vis_m": null,
      "fzfg": false,
      "metar_trigger": false,
      "taf_trigger": false,
      "metar": "",
      "taf": ""
    },
    {
      "icao": "OMDB",
      "alert": "OK",
      "vis_m": null,
      "fzfg": false,
      "metar_trigger": false,
      "taf_trigger": false,
      "metar": "",
      "taf": ""
    },
    {
      "icao": "UAAA",
      "alert": "OK",
      "vis_m": 5000,
      "fzfg": false,
      "metar_trigger": false,
      "taf_trigger": false,
      "metar": "METAR UAAA 090200Z 20002MPS 5000 BR SCT100 BKN200 02/00 Q1013 NOSIG",
      "taf": "TAF UAAA 082302Z 0900/0924 34003MPS 3100 BR FU SCT050 BKN100 TX16/0909Z TN02/0902Z"
    },
    {
      "icao": "UBBB",
      "alert": "OK",
      "vis_m": 9999,
      "fzfg": false,
      "metar_trigger": false,
      "taf_trigger": false,
      "metar": "METAR UBBB 090230Z 33006KT 9999 FEW027 05/02 Q1024 NOSIG",
      "taf": "TAF UBBB 082301Z 0900/0924 35005KT 9999 BKN035 TX08/0910Z TN04/0901Z"
    },
    {
      "icao": "UDSG",
      "alert": "OK",
      "vis_m": 9999,
      "fzfg": false,
      "metar_trigger": false,
      "taf_trigger": false,
      "metar": "METAR UDSG 090200Z 02007KT 9999 SCT049 M05/M11 Q1021 NOSIG",
      "taf": "TAF UDSG 082258Z 0900/0924 VRB06KT 9999 BKN040"
    },
    {
      "icao": "UDYZ",
      "alert": "OK",
      "vis_m": 9999,
      "fzfg": false,
      "metar_trigger": false,
      "taf_trigger": false,
      "metar": "METAR UDYZ 090200Z 12004KT 9999 BKN046 00/M04 Q1021 NOSIG",
      "taf": ""
    },
    {
      "icao": "UGKO",
      "alert": "OK",
      "vis_m": 8000,
      "fzfg": false,
      "metar_trigger": false,
      "taf_trigger": false,
      "metar": "METAR UGKO 090200Z AUTO 31008KT 8000 -RA FEW007/// SCT025/// BKN034/// 03/02 Q1029 NOSIG",
      "taf": "TAF UGKO 082300Z 0900/0924 25010KT 9999 SCT024 BKN050 TX08/0911Z TN02/0903Z"
    }
  ]
}