{
  "ts_utc": "2026-04-17T05:52:01Z",
  "threshold_m": 150,
  "source": "stations_override.txt (ICAO list) + aviationweather.gov (METAR/TAF raw)",
  "station_count": 159,
  "stations": [
    {
      "icao": "BIKF",
      "alert": "OK",
      "vis_m": 9999,
      "fzfg": false,
      "metar_trigger": false,
      "taf_trigger": false,
      "metar": "METAR BIKF 170530Z 20002KT 9999 FEW017 BKN035 04/01 Q0999",
      "taf": "TAF BIKF 170419Z 1706/1806 16010KT 9999 -SHRA SCT015 BKN025 TX08/1714Z TN02/1800Z"
    },
    {
      "icao": "BKPR",
      "alert": "OK",
      "vis_m": 9999,
      "fzfg": false,
      "metar_trigger": false,
      "taf_trigger": false,
      "metar": "METAR BKPR 170530Z 02005KT CAVOK 13/09 Q1018 NOSIG",
      "taf": "TAF BKPR 170530Z 1706/1806 01009KT 9999 FEW050"
    },
    {
      "icao": "EBCI",
      "alert": "OK",
      "vis_m": 9999,
      "fzfg": false,
      "metar_trigger": false,
      "taf_trigger": false,
      "metar": "METAR EBCI 170520Z 17003KT 150V230 CAVOK 08/05 Q1022 NOSIG",
      "taf": "TAF EBCI 170502Z 1706/1812 27004KT 9999 SCT040"
    },
    {
      "icao": "EDDB",
      "alert": "OK",
      "vis_m": 9999,
      "fzfg": false,
      "metar_trigger": false,
      "taf_trigger": false,
      "metar": "METAR EDDB 170520Z AUTO 03004KT CAVOK 11/07 Q1023 NOSIG",
      "taf": "TAF EDDB 170500Z 1706/1806 35005KT CAVOK"
    },
    {
      "icao": "EDDH",
      "alert": "OK",
      "vis_m": 9999,
      "fzfg": false,
      "metar_trigger": false,
      "taf_trigger": false,
      "metar": "METAR EDDH 170520Z AUTO VRB01KT CAVOK 06/05 Q1023 NOSIG",
      "taf": "TAF EDDH 170500Z 1706/1812 VRB02KT 9999 FEW030"
    },
    {
      "icao": "EDDK",
      "alert": "OK",
      "vis_m": 9999,
      "fzfg": false,
      "metar_trigger": false,
      "taf_trigger": false,
      "metar": "METAR EDDK 170520Z AUTO VRB01KT CAVOK 05/05 Q1022 NOSIG",
      "taf": "TAF EDDK 170500Z 1706/1812 12003KT CAVOK"
    },
    {
      "icao": "EDDN",
      "alert": "OK",
      "vis_m": 9999,
      "fzfg": false,
      "metar_trigger": false,
      "taf_trigger": false,
      "metar": "METAR EDDN 170520Z AUTO 12003KT CAVOK 08/06 Q1023 NOSIG",
      "taf": "TAF EDDN 170500Z 1706/1806 VRB03KT CAVOK"
    },
    {
      "icao": "EDDS",
      "alert": "OK",
      "vis_m": 9999,
      "fzfg": false,
      "metar_trigger": false,
      "taf_trigger": false,
      "metar": "METAR EDDS 170520Z AUTO 07002KT CAVOK 06/05 Q1021 NOSIG",
      "taf": "TAF EDDS 170500Z 1706/1806 VRB03KT CAVOK"
    },
    {
      "icao": "EDFH",
      "alert": "OK",
      "vis_m": 9999,
      "fzfg": false,
      "metar_trigger": false,
      "taf_trigger": false,
      "metar": "METAR EDFH 170520Z 20003KT 170V250 CAVOK 09/03 Q1022",
      "taf": "TAF EDFH 170500Z 1706/1806 VRB03KT CAVOK"
    },
    {
      "icao": "EDJA",
      "alert": "OK",
      "vis_m": 9999,
      "fzfg": false,
      "metar_trigger": false,
      "taf_trigger": false,
      "metar": "METAR EDJA 170520Z 15002KT CAVOK 02/02 Q1022",
      "taf": "TAF EDJA 170500Z 1706/1715 VRB02KT CAVOK"
    },
    {
      "icao": "EDLW",
      "alert": "OK",
      "vis_m": 9999,
      "fzfg": false,
      "metar_trigger": false,
      "taf_trigger": false,
      "metar": "METAR EDLW 170520Z 13003KT CAVOK 09/06 Q1021",
      "taf": "TAF EDLW 170500Z 1706/1806 16004KT CAVOK"
    },
    {
      "icao": "EDNY",
      "alert": "OK",
      "vis_m": 9999,
      "fzfg": false,
      "metar_trigger": false,
      "taf_trigger": false,
      "metar": "METAR EDNY 170520Z 08002KT CAVOK 05/04 Q1022",
      "taf": "TAF EDNY 170500Z 1706/1715 08004KT CAVOK"
    },
    {
      "icao": "EDSB",
      "alert": "OK",
      "vis_m": 9999,
      "fzfg": false,
      "metar_trigger": false,
      "taf_trigger": false,
      "metar": "METAR EDSB 170520Z 19001KT CAVOK 07/06 Q1022",
      "taf": "TAF EDSB 170500Z 1706/1806 VRB03KT CAVOK"
    },
    {
      "icao": "EETN",
      "alert": "OK",
      "vis_m": 9999,
      "fzfg": false,
      "metar_trigger": false,
      "taf_trigger": false,
      "metar": "METAR EETN 170550Z 03007KT CAVOK 07/05 Q1019 NOSIG",
      "taf": "TAF EETN 170530Z 1706/1806 03010KT 9999 SCT040"
    },
    {
      "icao": "EFTU",
      "alert": "OK",
      "vis_m": 9999,
      "fzfg": false,
      "metar_trigger": false,
      "taf_trigger": false,
      "metar": "METAR EFTU 170520Z AUTO 03003KT 330V070 CAVOK 08/02 Q1021",
      "taf": "TAF EFTU 170529Z 1706/1806 03003KT CAVOK"
    },
    {
      "icao": "EGBB",
      "alert": "OK",
      "vis_m": 9999,
      "fzfg": false,
      "metar_trigger": false,
      "taf_trigger": false,
      "metar": "METAR EGBB 170520Z 17007KT 9999 NSC 10/08 Q1017",
      "taf": "TAF EGBB 170526Z 1706/1806 19009KT 9999 SCT020"
    },
    {
      "icao": "EGGP",
      "alert": "OK",
      "vis_m": 9999,
      "fzfg": false,
      "metar_trigger": false,
      "taf_trigger": false,
      "metar": "METAR EGGP 170520Z 16011KT 9999 FEW028 10/08 Q1014",
      "taf": "TAF EGGP 170457Z 1706/1806 16012KT 9999 SCT030"
    },
    {
      "icao": "EGGW",
      "alert": "OK",
      "vis_m": 9999,
      "fzfg": false,
      "metar_trigger": false,
      "taf_trigger": false,
      "metar": "METAR EGGW 170520Z AUTO 18004KT 150V210 9999 NCD 09/08 Q1018",
      "taf": "TAF EGGW 170455Z 1706/1806 19004KT 9999 SCT035"
    },
    {
      "icao": "EGKK",
      "alert": "OK",
      "vis_m": 9999,
      "fzfg": false,
      "metar_trigger": false,
      "taf_trigger": false,
      "metar": "METAR EGKK 170520Z 09003KT 9999 BKN048 09/09 Q1019",
      "taf": "TAF EGKK 170454Z 1706/1812 14003KT 9999 SCT035"
    },
    {
      "icao": "EGNM",
      "alert": "OK",
      "vis_m": 9999,
      "fzfg": false,
      "metar_trigger": false,
      "taf_trigger": false,
      "metar": "METAR EGNM 170520Z 18008KT 9999 SCT015 BKN025 09/08 Q1015",
      "taf": "TAF EGNM 170455Z 1706/1806 17006KT 9999 SCT025"
    },
    {
      "icao": "EGPD",
      "alert": "OK",
      "vis_m": 9999,
      "fzfg": false,
      "metar_trigger": false,
      "taf_trigger": false,
      "metar": "METAR EGPD 170520Z AUTO 17017KT 9999 BKN007 OVC010 09/07 Q1011 TEMPO BKN006",
      "taf": "TAF EGPD 170459Z 1706/1806 17015G25KT 9999 BKN006"
    },
    {
      "icao": "EGPF",
      "alert": "OK",
      "vis_m": 9999,
      "fzfg": false,
      "metar_trigger": false,
      "taf_trigger": false,
      "metar": "METAR EGPF 170520Z AUTO 17011KT 9999 NCD 11/08 Q1009",
      "taf": "TAF EGPF 170450Z 1706/1806 17012KT 9999 SCT030"
    },
    {
      "icao": "EHBK",
      "alert": "OK",
      "vis_m": 9999,
      "fzfg": false,
      "metar_trigger": false,
      "taf_trigger": false,
      "metar": "METAR EHBK 170525Z AUTO 20004KT 9999 SCT042 07/06 Q1022 NOSIG",
      "taf": "TAF EHBK 170449Z 1706/1812 24004KT CAVOK"
    },
    {
      "icao": "EHEH",
      "alert": "OK",
      "vis_m": 9999,
      "fzfg": false,
      "metar_trigger": false,
      "taf_trigger": false,
      "metar": "METAR EHEH 170525Z AUTO VRB01KT 9999 FEW015CB OVC180 05/05 Q1022 BLU NOSIG RMK TREND REMOTE BY EHWX",
      "taf": "TAF EHEH 162341Z 1700/1806 VRB01KT CAVOK"
    },
    {
      "icao": "EKBI",
      "alert": "OK",
      "vis_m": 1000,
      "fzfg": false,
      "metar_trigger": false,
      "taf_trigger": false,
      "metar": "METAR EKBI 170520Z AUTO 09003KT 1000 R09/P1500N R27/P1500D BR OVC002/// 07/07 Q1023",
      "taf": "TAF EKBI 170527Z 1706/1806 VRB03KT 8000 BKN004"
    },
    {
      "icao": "EKCH",
      "alert": "OK",
      "vis_m": 9999,
      "fzfg": false,
      "metar_trigger": false,
      "taf_trigger": false,
      "metar": "METAR EKCH 170520Z 00000KT 9999 MIFG NSC 06/05 Q1024 NOSIG",
      "taf": "TAF EKCH 170527Z 1706/1806 08002KT 9999 BKN035"
    },
    {
      "icao": "ENAL",
      "alert": "OK",
      "vis_m": 9999,
      "fzfg": false,
      "metar_trigger": false,
      "taf_trigger": false,
      "metar": "METAR ENAL 170520Z 10005KT CAVOK 07/04 Q1019",
      "taf": "TAF ENAL 170500Z 1706/1715 10005KT CAVOK"
    },
    {
      "icao": "ENBR",
      "alert": "OK",
      "vis_m": 9999,
      "fzfg": false,
      "metar_trigger": false,
      "taf_trigger": false,
      "metar": "METAR ENBR 170520Z 14007KT 9999 BKN042 08/04 Q1020 NOSIG RMK WIND 1200FT 15015KT",
      "taf": "TAF ENBR 170500Z 1706/1806 16008KT 9999 SCT045"
    },
    {
      "icao": "ENGM",
      "alert": "OK",
      "vis_m": 9999,
      "fzfg": false,
      "metar_trigger": false,
      "taf_trigger": false,
      "metar": "METAR ENGM 170520Z 34003KT 310V010 9999 SCT033 03/01 Q1024 NOSIG",
      "taf": "TAF ENGM 170500Z 1706/1806 01003KT 9999 FEW050"
    },
    {
      "icao": "ENHD",
      "alert": "OK",
      "vis_m": 9999,
      "fzfg": false,
      "metar_trigger": false,
      "taf_trigger": false,
      "metar": "METAR ENHD 170520Z 14010KT CAVOK 07/04 Q1021",
      "taf": "TAF ENHD 170500Z 1706/1715 14012KT 9999 FEW045"
    },
    {
      "icao": "ENTC",
      "alert": "OK",
      "vis_m": 9999,
      "fzfg": false,
      "metar_trigger": false,
      "taf_trigger": false,
      "metar": "METAR ENTC 170520Z 09001KT CAVOK 02/M00 Q1025 NOSIG RMK WIND 2600FT 16010KT",
      "taf": "TAF ENTC 170500Z 1706/1806 04007KT CAVOK"
    },
    {
      "icao": "ENTO",
      "alert": "OK",
      "vis_m": 9999,
      "fzfg": false,
      "metar_trigger": false,
      "taf_trigger": false,
      "metar": "METAR ENTO 170520Z VRB01KT CAVOK 04/03 Q1024 NOSIG",
      "taf": "TAF ENTO 170500Z 1706/1806 VRB03KT 9999 FEW030"
    },
    {
      "icao": "ENVA",
      "alert": "OK",
      "vis_m": 9999,
      "fzfg": false,
      "metar_trigger": false,
      "taf_trigger": false,
      "metar": "METAR ENVA 170520Z 08004KT CAVOK 09/00 Q1021 NOSIG RMK WIND 670FT 16010KT",
      "taf": "TAF ENVA 170500Z 1706/1806 10008KT CAVOK"
    },
    {
      "icao": "ENZV",
      "alert": "OK",
      "vis_m": 9999,
      "fzfg": false,
      "metar_trigger": false,
      "taf_trigger": false,
      "metar": "METAR ENZV 170520Z 14008KT CAVOK 07/04 Q1021 NOSIG",
      "taf": "TAF ENZV 170500Z 1706/1806 16008KT 9999 FEW040"
    },
    {
      "icao": "EPGD",
      "alert": "OK",
      "vis_m": 9999,
      "fzfg": false,
      "metar_trigger": false,
      "taf_trigger": false,
      "metar": "METAR EPGD 170530Z 30007KT 290V350 CAVOK 04/03 Q1021",
      "taf": "TAF EPGD 170530Z 1706/1806 30008KT CAVOK"
    },
    {
      "icao": "EPKK",
      "alert": "OK",
      "vis_m": 4600,
      "fzfg": false,
      "metar_trigger": false,
      "taf_trigger": false,
      "metar": "METAR EPKK 170530Z 20003KT 4600 BR NSC 08/07 Q1021",
      "taf": "TAF EPKK 170530Z 1706/1806 VRB02KT CAVOK"
    },
    {
      "icao": "EPKT",
      "alert": "OK",
      "vis_m": 4300,
      "fzfg": false,
      "metar_trigger": false,
      "taf_trigger": false,
      "metar": "METAR EPKT 170530Z VRB01KT 4300 BR NSC 05/05 Q1021",
      "taf": "TAF EPKT 170530Z 1706/1806 VRB02KT CAVOK"
    },
    {
      "icao": "EPLB",
      "alert": "OK",
      "vis_m": 9999,
      "fzfg": false,
      "metar_trigger": false,
      "taf_trigger": false,
      "metar": "METAR EPLB 170530Z 31009KT CAVOK 09/06 Q1019",
      "taf": "TAF EPLB 170530Z 1706/1806 32010KT CAVOK"
    },
    {
      "icao": "EPMO",
      "alert": "OK",
      "vis_m": 9999,
      "fzfg": false,
      "metar_trigger": false,
      "taf_trigger": false,
      "metar": "METAR EPMO 170530Z 32006KT CAVOK 06/02 Q1021",
      "taf": "TAF EPMO 170530Z 1706/1806 33008KT CAVOK"
    },
    {
      "icao": "EPPO",
      "alert": "OK",
      "vis_m": 9999,
      "fzfg": false,
      "metar_trigger": false,
      "taf_trigger": false,
      "metar": "METAR EPPO 170530Z 04006KT CAVOK 08/03 Q1022",
      "taf": ""
    },
    {
      "icao": "EPRA",
      "alert": "OK",
      "vis_m": 9999,
      "fzfg": false,
      "metar_trigger": false,
      "taf_trigger": false,
      "metar": "METAR EPRA 170530Z 36008KT CAVOK 09/03 Q1020",
      "taf": "TAF EPRA 170530Z 1706/1715 35010KT CAVOK"
    },
    {
      "icao": "EPRZ",
      "alert": "OK",
      "vis_m": 9999,
      "fzfg": false,
      "metar_trigger": false,
      "taf_trigger": false,
      "metar": "METAR EPRZ 170530Z 26007KT CAVOK 08/05 Q1019",
      "taf": "TAF EPRZ 170530Z 1706/1806 26005KT CAVOK"
    },
    {
      "icao": "EPSC",
      "alert": "OK",
      "vis_m": 9999,
      "fzfg": false,
      "metar_trigger": false,
      "taf_trigger": false,
      "metar": "METAR EPSC 170530Z VRB01KT CAVOK 05/02 Q1023",
      "taf": "TAF EPSC 170530Z 1706/1806 36003KT CAVOK"
    },
    {
      "icao": "EPSY",
      "alert": "OK",
      "vis_m": 9999,
      "fzfg": false,
      "metar_trigger": false,
      "taf_trigger": false,
      "metar": "METAR EPSY 170530Z 31008KT 280V340 9999 SCT003 BKN006 03/02 Q1020",
      "taf": "TAF EPSY 170530Z 1706/1715 32010KT 8000 BKN004"
    },
    {
      "icao": "EPWA",
      "alert": "OK",
      "vis_m": 9999,
      "fzfg": false,
      "metar_trigger": false,
      "taf_trigger": false,
      "metar": "METAR EPWA 170530Z 32006KT CAVOK 07/03 Q1020 NOSIG",
      "taf": "TAF EPWA 170530Z 1706/1806 33008KT CAVOK"
    },
    {
      "icao": "EPWR",
      "alert": "OK",
      "vis_m": 9999,
      "fzfg": false,
      "metar_trigger": false,
      "taf_trigger": false,
      "metar": "METAR EPWR 170530Z 29005KT 9999 FEW026CB 11/08 Q1022",
      "taf": "TAF EPWR 170530Z 1706/1806 27002KT 9999 SCT030"
    },
    {
      "icao": "ESGG",
      "alert": "OK",
      "vis_m": 9999,
      "fzfg": false,
      "metar_trigger": false,
      "taf_trigger": false,
      "metar": "METAR ESGG 170520Z 06002KT CAVOK 05/03 Q1023",
      "taf": "TAF ESGG 170530Z 1706/1806 VRB03KT CAVOK"
    },
    {
      "icao": "ESKN",
      "alert": "OK",
      "vis_m": 9999,
      "fzfg": false,
      "metar_trigger": false,
      "taf_trigger": false,
      "metar": "METAR ESKN 170520Z 31006KT CAVOK 07/M00 Q1023",
      "taf": "TAF ESKN 170530Z 1706/1806 33005KT CAVOK"
    },
    {
      "icao": "ESMS",
      "alert": "OK",
      "vis_m": 9999,
      "fzfg": false,
      "metar_trigger": false,
      "taf_trigger": false,
      "metar": "METAR ESMS 170520Z 09002KT CAVOK 04/04 Q1023",
      "taf": "TAF ESMS 170527Z 1706/1806 VRB03KT 9999 FEW040"
    },
    {
      "icao": "ESSA",
      "alert": "OK",
      "vis_m": 9999,
      "fzfg": false,
      "metar_trigger": false,
      "taf_trigger": false,
      "metar": "METAR ESSA 170520Z 36005KT CAVOK 06/M01 Q1022 NOSIG",
      "taf": "TAF ESSA 170530Z 1706/1806 36006KT CAVOK"
    },
    {
      "icao": "EYKA",
      "alert": "OK",
      "vis_m": 8000,
      "fzfg": false,
      "metar_trigger": false,
      "taf_trigger": false,
      "metar": "METAR EYKA 170550Z 31006KT 280V340 8000 OVC008 05/04 Q1017",
      "taf": "TAF EYKA 170512Z 1706/1806 VRB04KT 5000 BR BKN005 OVC010"
    },
    {
      "icao": "EYPA",
      "alert": "OK",
      "vis_m": 9000,
      "fzfg": false,
      "metar_trigger": false,
      "taf_trigger": false,
      "metar": "METAR EYPA 170550Z 35003KT 290V050 9000 OVC002 05/05 Q1019",
      "taf": "TAF EYPA 170510Z 1706/1806 VRB04KT 8000 OVC005"
    },
    {
      "icao": "EYVI",
      "alert": "OK",
      "vis_m": 4600,
      "fzfg": false,
      "metar_trigger": false,
      "taf_trigger": false,
      "metar": "METAR EYVI 170550Z 31007KT 290V350 4600 -RA BR OVC003 04/04 Q1015 NOSIG",
      "taf": "TAF EYVI 170510Z 1706/1806 31010KT 5000 BR OVC002"
    },
    {
      "icao": "GCFV",
      "alert": "OK",
      "vis_m": 9999,
      "fzfg": false,
      "metar_trigger": false,
      "taf_trigger": false,
      "metar": "METAR GCFV 170530Z 04008KT 9999 BKN012 17/14 Q1015",
      "taf": "TAF GCFV 170200Z 1703/1803 05010KT 8000 FEW015 TX25/1714Z TN17/1706Z"
    },
    {
      "icao": "GCLP",
      "alert": "OK",
      "vis_m": 9999,
      "fzfg": false,
      "metar_trigger": false,
      "taf_trigger": false,
      "metar": "METAR GCLP 170530Z 01014KT 9999 BKN017 18/14 Q1014 NOSIG",
      "taf": "TAF GCLP 170200Z 1703/1803 02016KT 8000 NSC TX24/1714Z TN18/1706Z"
    },
    {
      "icao": "GCTS",
      "alert": "OK",
      "vis_m": 9999,
      "fzfg": false,
      "metar_trigger": false,
      "taf_trigger": false,
      "metar": "METAR GCTS 170530Z 07011KT CAVOK 18/15 Q1014 NOSIG",
      "taf": "TAF GCTS 170200Z 1703/1803 09018KT 8000 FEW025 TX26/1714Z TN18/1706Z"
    },
    {
      "icao": "GMAD",
      "alert": "OK",
      "vis_m": 8000,
      "fzfg": false,
      "metar_trigger": false,
      "taf_trigger": false,
      "metar": "METAR GMAD 170530Z 05006KT 8000 NSC 14/11 Q1013 NOSIG",
      "taf": "TAF GMAD 170500Z 1706/1812 07004KT 8000 SCT010"
    },
    {
      "icao": "GMMN",
      "alert": "OK",
      "vis_m": 6000,
      "fzfg": false,
      "metar_trigger": false,
      "taf_trigger": false,
      "metar": "METAR GMMN 170530Z 21005KT 6000 NSC 10/09 Q1015 NOSIG",
      "taf": "TAF GMMN 170500Z 1706/1812 18005KT 5000 NSC"
    },
    {
      "icao": "GMMX",
      "alert": "OK",
      "vis_m": 9999,
      "fzfg": false,
      "metar_trigger": false,
      "taf_trigger": false,
      "metar": "METAR GMMX 170530Z VRB02KT CAVOK 15/12 Q1016 NOSIG",
      "taf": "TAF GMMX 170500Z 1706/1812 06006KT CAVOK"
    },
    {
      "icao": "HEGN",
      "alert": "OK",
      "vis_m": null,
      "fzfg": false,
      "metar_trigger": false,
      "taf_trigger": false,
      "metar": "",
      "taf": "TAF HEGN 162300Z 1700/1806 14010KT CAVOK"
    },
    {
      "icao": "HEMA",
      "alert": "OK",
      "vis_m": null,
      "fzfg": false,
      "metar_trigger": false,
      "taf_trigger": false,
      "metar": "",
      "taf": "TAF HEMA 162300Z 1700/1806 13010KT CAVOK"
    },
    {
      "icao": "HESH",
      "alert": "OK",
      "vis_m": null,
      "fzfg": false,
      "metar_trigger": false,
      "taf_trigger": false,
      "metar": "",
      "taf": "TAF HESH 162300Z 1700/1806 15010KT CAVOK"
    },
    {
      "icao": "HESX",
      "alert": "OK",
      "vis_m": null,
      "fzfg": false,
      "metar_trigger": false,
      "taf_trigger": false,
      "metar": "",
      "taf": "TAF HESX 162300Z 1700/1806 22010KT 6000 NSC"
    },
    {
      "icao": "LATI",
      "alert": "OK",
      "vis_m": 9999,
      "fzfg": false,
      "metar_trigger": false,
      "taf_trigger": false,
      "metar": "METAR LATI 170550Z VRB03KT CAVOK 15/11 Q1013 NOSIG",
      "taf": "TAF LATI 170500Z 1706/1806 VRB05KT CAVOK TX28/1712Z TN11/1804Z"
    },
    {
      "icao": "LBPD",
      "alert": "OK",
      "vis_m": 9999,
      "fzfg": false,
      "metar_trigger": false,
      "taf_trigger": false,
      "metar": "METAR LBPD 170530Z AUTO 00000KT 9999 NCD 09/02 Q1018 NOSIG",
      "taf": "TAF LBPD 170500Z 1706/1806 VRB03KT 9999 SCT050 BKN070"
    },
    {
      "icao": "LBSF",
      "alert": "OK",
      "vis_m": 6000,
      "fzfg": false,
      "metar_trigger": false,
      "taf_trigger": false,
      "metar": "METAR LBSF 170530Z VRB01KT 6000 NSC 08/06 Q1018 NOSIG",
      "taf": "TAF LBSF 170500Z 1706/1806 VRB03KT 9999 SCT050 BKN070"
    },
    {
      "icao": "LBWN",
      "alert": "OK",
      "vis_m": 100,
      "fzfg": false,
      "metar_trigger": false,
      "taf_trigger": false,
      "metar": "METAR LBWN 170530Z 27004KT 0100 R09/0125N FG VV001 06/06 Q1018 TEMPO 0200 FG SCT001 OVC002",
      "taf": "TAF LBWN 170500Z 1706/1806 VRB03KT 9999 SCT020"
    },
    {
      "icao": "LCLK",
      "alert": "OK",
      "vis_m": 9999,
      "fzfg": false,
      "metar_trigger": false,
      "taf_trigger": false,
      "metar": "METAR LCLK 170530Z 03010KT CAVOK 22/15 Q1005 NOSIG",
      "taf": ""
    },
    {
      "icao": "LCPH",
      "alert": "OK",
      "vis_m": 9999,
      "fzfg": false,
      "metar_trigger": false,
      "taf_trigger": false,
      "metar": "METAR LCPH 170530Z 10022G34KT 090V150 9999 FEW030CB 28/12 Q1001 TEMPO 4000 SCT060CB RMK DISTANT CB TO W SW",
      "taf": ""
    },
    {
      "icao": "LEAL",
      "alert": "OK",
      "vis_m": 9999,
      "fzfg": false,
      "metar_trigger": false,
      "taf_trigger": false,
      "metar": "METAR LEAL 170530Z 23003KT CAVOK 11/10 Q1019 NOSIG",
      "taf": "TAF LEAL 170500Z 1706/1806 23003KT 9999 FEW030 TX22/1713Z TN11/1706Z"
    },
    {
      "icao": "LEBB",
      "alert": "OK",
      "vis_m": 8000,
      "fzfg": false,
      "metar_trigger": false,
      "taf_trigger": false,
      "metar": "METAR LEBB 170530Z 09004KT 050V120 8000 NSC 11/11 Q1020 NOSIG",
      "taf": "TAF LEBB 170500Z 1706/1806 31009KT 9999 SCT030 TX20/1710Z TN12/1706Z"
    },
    {
      "icao": "LEBL",
      "alert": "OK",
      "vis_m": 9999,
      "fzfg": false,
      "metar_trigger": false,
      "taf_trigger": false,
      "metar": "METAR LEBL 170530Z 32005KT CAVOK 12/08 Q1020 NOSIG",
      "taf": "TAF LEBL 170500Z 1706/1806 22007KT CAVOK TX20/1713Z TN11/1706Z"
    },
    {
      "icao": "LECH",
      "alert": "OK",
      "vis_m": 9999,
      "fzfg": false,
      "metar_trigger": false,
      "taf_trigger": false,
      "metar": "METAR LECH 170530Z AUTO 05002KT CAVOK 10/05 Q1020",
      "taf": "TAF LECH 170500Z 1706/1806 VRB03KT 9999 FEW030 TX26/1713Z TN10/1706Z"
    },
    {
      "icao": "LEMD",
      "alert": "OK",
      "vis_m": 9999,
      "fzfg": false,
      "metar_trigger": false,
      "taf_trigger": false,
      "metar": "METAR LEMD 170530Z 01001KT CAVOK 08/05 Q1020 NOSIG",
      "taf": "TAF LEMD 170500Z 1706/1812 VRB04KT CAVOK TX27/1716Z TN09/1706Z"
    },
    {
      "icao": "LEMG",
      "alert": "OK",
      "vis_m": 9999,
      "fzfg": false,
      "metar_trigger": false,
      "taf_trigger": false,
      "metar": "METAR LEMG 170530Z 29009KT CAVOK 12/09 Q1019 NOSIG",
      "taf": "TAF LEMG 170500Z 1706/1806 29005KT CAVOK TX24/1714Z TN15/1707Z"
    },
    {
      "icao": "LEVC",
      "alert": "OK",
      "vis_m": 9999,
      "fzfg": false,
      "metar_trigger": false,
      "taf_trigger": false,
      "metar": "METAR LEVC 170530Z VRB02KT CAVOK 12/08 Q1019 NOSIG",
      "taf": "TAF LEVC 170500Z 1706/1806 10007KT 9999 FEW030 TX24/1713Z TN10/1706Z"
    },
    {
      "icao": "LEXJ",
      "alert": "OK",
      "vis_m": 5000,
      "fzfg": false,
      "metar_trigger": false,
      "taf_trigger": false,
      "metar": "METAR LEXJ 170530Z 00000KT 5000 BR OVC004 11/10 Q1020",
      "taf": "TAF LEXJ 170200Z 1703/1803 04008KT 6000 SCT010 BKN020 TX16/1711Z TN12/1703Z"
    },
    {
      "icao": "LEZG",
      "alert": "OK",
      "vis_m": 9999,
      "fzfg": false,
      "metar_trigger": false,
      "taf_trigger": false,
      "metar": "METAR LEZG 170530Z 30002KT CAVOK 12/09 Q1020 NOSIG",
      "taf": "TAF LEZG 170500Z 1706/1806 28004KT 9999 FEW040 TX30/1713Z TN11/1706Z"
    },
    {
      "icao": "LEZL",
      "alert": "OK",
      "vis_m": 9999,
      "fzfg": false,
      "metar_trigger": false,
      "taf_trigger": false,
      "metar": "METAR LEZL 170530Z 03003KT CAVOK 14/11 Q1017 NOSIG",
      "taf": "TAF LEZL 170200Z 1703/1803 05005KT CAVOK TX31/1715Z TN13/1707Z"
    },
    {
      "icao": "LFBD",
      "alert": "OK",
      "vis_m": 9999,
      "fzfg": false,
      "metar_trigger": false,
      "taf_trigger": false,
      "metar": "METAR LFBD 170530Z AUTO 13002KT CAVOK 10/07 Q1020 NOSIG",
      "taf": "TAF LFBD 170500Z 1706/1812 VRB03KT CAVOK TX26/1715Z TN10/1706Z"
    },
    {
      "icao": "LFLL",
      "alert": "OK",
      "vis_m": 9999,
      "fzfg": false,
      "metar_trigger": false,
      "taf_trigger": false,
      "metar": "METAR LFLL 170500Z 00000KT CAVOK 09/08 Q1021 NOSIG",
      "taf": "TAF LFLL 170500Z 1706/1812 VRB02KT CAVOK"
    },
    {
      "icao": "LFLS",
      "alert": "OK",
      "vis_m": 9999,
      "fzfg": false,
      "metar_trigger": false,
      "taf_trigger": false,
      "metar": "METAR LFLS 170530Z AUTO 09003KT CAVOK 06/06 Q1021 TEMPO 4000 MIFG",
      "taf": "TAF LFLS 170200Z 1703/1803 VRB02KT CAVOK"
    },
    {
      "icao": "LFMN",
      "alert": "OK",
      "vis_m": 9999,
      "fzfg": false,
      "metar_trigger": false,
      "taf_trigger": false,
      "metar": "METAR LFMN 170530Z 04004KT 360V070 CAVOK 17/09 Q1018 NOSIG",
      "taf": "TAF LFMN 170200Z 1703/1809 VRB03KT CAVOK"
    },
    {
      "icao": "LFOB",
      "alert": "OK",
      "vis_m": 9999,
      "fzfg": false,
      "metar_trigger": false,
      "taf_trigger": false,
      "metar": "METAR LFOB 170530Z AUTO 31001KT CAVOK 04/04 Q1022 NOSIG",
      "taf": "TAF LFOB 170500Z 1706/1806 VRB03KT CAVOK"
    },
    {
      "icao": "LFPO",
      "alert": "OK",
      "vis_m": 9999,
      "fzfg": false,
      "metar_trigger": false,
      "taf_trigger": false,
      "metar": "METAR LFPO 170530Z 24002KT CAVOK 07/06 Q1022 NOSIG",
      "taf": "TAF LFPO 170500Z 1706/1812 24002KT CAVOK"
    },
    {
      "icao": "LFSB",
      "alert": "OK",
      "vis_m": 9999,
      "fzfg": false,
      "metar_trigger": false,
      "taf_trigger": false,
      "metar": "METAR LFSB 170530Z AUTO 17004KT CAVOK 07/06 Q1022 NOSIG",
      "taf": "TAF LFSB 170500Z 1706/1806 VRB03KT CAVOK"
    },
    {
      "icao": "LGAV",
      "alert": "OK",
      "vis_m": 9999,
      "fzfg": false,
      "metar_trigger": false,
      "taf_trigger": false,
      "metar": "METAR LGAV 170520Z 01014KT 9999 SCT025 17/04 Q1011 NOSIG",
      "taf": "TAF LGAV 170500Z 1706/1806 01015KT 9999 FEW020 SCT040"
    },
    {
      "icao": "LGTS",
      "alert": "OK",
      "vis_m": 9999,
      "fzfg": false,
      "metar_trigger": false,
      "taf_trigger": false,
      "metar": "METAR LGTS 170520Z 10003KT 9999 SCT025 12/12 Q1015 NOSIG",
      "taf": "TAF LGTS 170500Z 1706/1806 VRB03KT 9999 FEW025"
    },
    {
      "icao": "LHBP",
      "alert": "OK",
      "vis_m": 9999,
      "fzfg": false,
      "metar_trigger": false,
      "taf_trigger": false,
      "metar": "METAR LHBP 170530Z 31003KT CAVOK 10/07 Q1020 NOSIG",
      "taf": "TAF LHBP 170515Z 1706/1806 33003KT CAVOK"
    },
    {
      "icao": "LHDC",
      "alert": "OK",
      "vis_m": 9999,
      "fzfg": false,
      "metar_trigger": false,
      "taf_trigger": false,
      "metar": "METAR LHDC 170515Z AUTO VRB01KT CAVOK 12/07 Q1019 NOSIG",
      "taf": "TAF LHDC 170515Z 1706/1715 30004KT CAVOK"
    },
    {
      "icao": "LIBD",
      "alert": "OK",
      "vis_m": 9999,
      "fzfg": false,
      "metar_trigger": false,
      "taf_trigger": false,
      "metar": "METAR LIBD 170520Z 28003KT 250V310 CAVOK 15/11 Q1015",
      "taf": "TAF LIBD 170500Z 1706/1806 28007KT CAVOK"
    },
    {
      "icao": "LIBG",
      "alert": "OK",
      "vis_m": null,
      "fzfg": false,
      "metar_trigger": false,
      "taf_trigger": false,
      "metar": "",
      "taf": ""
    },
    {
      "icao": "LIBP",
      "alert": "OK",
      "vis_m": 9999,
      "fzfg": false,
      "metar_trigger": false,
      "taf_trigger": false,
      "metar": "METAR LIBP 170520Z AUTO 22004KT 9999 NCD 12/12 Q1018",
      "taf": "TAF LIBP 170500Z 1706/1806 VRB05KT CAVOK"
    },
    {
      "icao": "LIBR",
      "alert": "OK",
      "vis_m": 9999,
      "fzfg": false,
      "metar_trigger": false,
      "taf_trigger": false,
      "metar": "METAR LIBR 170520Z 32014KT CAVOK 15/13 Q1013",
      "taf": "TAF LIBR 170500Z 1706/1806 33015KT CAVOK"
    },
    {
      "icao": "LICA",
      "alert": "OK",
      "vis_m": 9999,
      "fzfg": false,
      "metar_trigger": false,
      "taf_trigger": false,
      "metar": "METAR LICA 170520Z AUTO 21007KT 180V240 9999 OVC023/// 16/14 Q1015",
      "taf": "TAF LICA 170500Z 1706/1806 VRB05KT 9999 SCT020"
    },
    {
      "icao": "LICC",
      "alert": "OK",
      "vis_m": 9999,
      "fzfg": false,
      "metar_trigger": false,
      "taf_trigger": false,
      "metar": "METAR LICC 170520Z 23006KT CAVOK 11/09 Q1014",
      "taf": "TAF LICC 170500Z 1706/1806 28006KT CAVOK"
    },
    {
      "icao": "LICJ",
      "alert": "OK",
      "vis_m": 9999,
      "fzfg": false,
      "metar_trigger": false,
      "taf_trigger": false,
      "metar": "METAR LICJ 170520Z 14003KT 110V180 CAVOK 14/12 Q1016",
      "taf": "TAF LICJ 170500Z 1706/1806 VRB05KT CAVOK"
    },
    {
      "icao": "LIMC",
      "alert": "OK",
      "vis_m": 8000,
      "fzfg": false,
      "metar_trigger": false,
      "taf_trigger": false,
      "metar": "METAR LIMC 170520Z VRB01KT 8000 BKN030 11/11 Q1020 NOSIG",
      "taf": "TAF LIMC 170500Z 1706/1812 VRB05KT 9999 FEW040"
    },
    {
      "icao": "LIME",
      "alert": "OK",
      "vis_m": 9999,
      "fzfg": false,
      "metar_trigger": false,
      "taf_trigger": false,
      "metar": "METAR LIME 170520Z VRB02KT 9999 SCT055 15/12 Q1020 NOSIG",
      "taf": "TAF LIME 170500Z 1706/1806 VRB05KT 9999 FEW050"
    },
    {
      "icao": "LIMF",
      "alert": "OK",
      "vis_m": 9999,
      "fzfg": false,
      "metar_trigger": false,
      "taf_trigger": false,
      "metar": "METAR LIMF 170520Z 27003KT 9999 BKN060 16/12 Q1020",
      "taf": "TAF LIMF 170500Z 1706/1806 VRB05KT 9999 FEW040"
    },
    {
      "icao": "LIMJ",
      "alert": "OK",
      "vis_m": 9999,
      "fzfg": false,
      "metar_trigger": false,
      "taf_trigger": false,
      "metar": "METAR LIMJ 170520Z 04011KT CAVOK 18/11 Q1017",
      "taf": "TAF LIMJ 170500Z 1706/1806 VRB05KT 9999 SCT030"
    },
    {
      "icao": "LIPE",
      "alert": "OK",
      "vis_m": 9999,
      "fzfg": false,
      "metar_trigger": false,
      "taf_trigger": false,
      "metar": "METAR LIPE 170520Z 22003KT CAVOK 12/12 Q1019",
      "taf": "TAF LIPE 170500Z 1706/1806 VRB05KT CAVOK"
    },
    {
      "icao": "LIPH",
      "alert": "OK",
      "vis_m": 9999,
      "fzfg": false,
      "metar_trigger": false,
      "taf_trigger": false,
      "metar": "METAR LIPH 170520Z 01003KT CAVOK 17/11 Q1019",
      "taf": "TAF LIPH 170500Z 1706/1806 VRB05KT 9999 SCT070"
    },
    {
      "icao": "LIPQ",
      "alert": "OK",
      "vis_m": 9999,
      "fzfg": false,
      "metar_trigger": false,
      "taf_trigger": false,
      "metar": "METAR LIPQ 170520Z AUTO 02005KT 9999 NCD 15/10 Q1019",
      "taf": "TAF LIPQ 170500Z 1706/1806 VRB05KT 9999 FEW080"
    },
    {
      "icao": "LIPR",
      "alert": "OK",
      "vis_m": 9999,
      "fzfg": false,
      "metar_trigger": false,
      "taf_trigger": false,
      "metar": "METAR LIPR 170520Z AUTO 22003KT 9999 NCD 12/10 Q1019",
      "taf": "TAF LIPR 170500Z 1706/1806 VRB05KT CAVOK"
    },
    {
      "icao": "LIPX",
      "alert": "OK",
      "vis_m": 9999,
      "fzfg": false,
      "metar_trigger": false,
      "taf_trigger": false,
      "metar": "METAR LIPX 170520Z 35003KT CAVOK 12/11 Q1019",
      "taf": "TAF LIPX 170500Z 1706/1806 VRB05KT 9999 FEW040"
    },
    {
      "icao": "LIPY",
      "alert": "OK",
      "vis_m": 9999,
      "fzfg": false,
      "metar_trigger": false,
      "taf_trigger": false,
      "metar": "METAR LIPY 170520Z AUTO 19004KT 9999 NCD 12/11 Q1018",
      "taf": "TAF LIPY 170500Z 1706/1806 VRB05KT CAVOK"
    },
    {
      "icao": "LIPZ",
      "alert": "OK",
      "vis_m": 9999,
      "fzfg": false,
      "metar_trigger": false,
      "taf_trigger": false,
      "metar": "METAR LIPZ 170520Z 05006KT CAVOK 15/11 Q1019 NOSIG",
      "taf": "TAF LIPZ 170500Z 1706/1812 05007KT 9999 FEW070"
    },
    {
      "icao": "LIRF",
      "alert": "OK",
      "vis_m": 9999,
      "fzfg": false,
      "metar_trigger": false,
      "taf_trigger": false,
      "metar": "METAR LIRF 170520Z VRB02KT CAVOK 12/12 Q1016 NOSIG",
      "taf": "TAF LIRF 170500Z 1706/1812 VRB05KT CAVOK"
    },
    {
      "icao": "LIRN",
      "alert": "OK",
      "vis_m": 9999,
      "fzfg": false,
      "metar_trigger": false,
      "taf_trigger": false,
      "metar": "METAR LIRN 170520Z 32005KT 250V360 CAVOK 16/11 Q1015 NOSIG",
      "taf": "TAF LIRN 170500Z 1706/1806 VRB06KT 9999 FEW040"
    },
    {
      "icao": "LIRP",
      "alert": "OK",
      "vis_m": 9999,
      "fzfg": false,
      "metar_trigger": false,
      "taf_trigger": false,
      "metar": "METAR LIRP 170515Z 07003KT CAVOK 13/11 Q1018 NOSIG",
      "taf": "TAF LIRP 170500Z 1706/1806 07004KT CAVOK"
    },
    {
      "icao": "LIRZ",
      "alert": "OK",
      "vis_m": 9999,
      "fzfg": false,
      "metar_trigger": false,
      "taf_trigger": false,
      "metar": "METAR LIRZ 170520Z AUTO 36009KT 9999 NCD 11/09 Q1018",
      "taf": "TAF LIRZ 170500Z 1706/1806 VRB05KT CAVOK"
    },
    {
      "icao": "LJLJ",
      "alert": "OK",
      "vis_m": 9999,
      "fzfg": false,
      "metar_trigger": false,
      "taf_trigger": false,
      "metar": "METAR LJLJ 170530Z VRB01KT 9999 FEW001 08/07 Q1022 NOSIG",
      "taf": "TAF LJLJ 170500Z 1706/1806 32003KT 9999 FEW060"
    },
    {
      "icao": "LKMT",
      "alert": "OK",
      "vis_m": 9999,
      "fzfg": false,
      "metar_trigger": false,
      "taf_trigger": false,
      "metar": "METAR LKMT 170530Z 21003KT 170V240 CAVOK 09/06 Q1021 NOSIG",
      "taf": "TAF LKMT 170500Z 1706/1806 22004KT CAVOK"
    },
    {
      "icao": "LKPR",
      "alert": "OK",
      "vis_m": 9999,
      "fzfg": false,
      "metar_trigger": false,
      "taf_trigger": false,
      "metar": "METAR LKPR 170530Z 26004KT CAVOK 10/07 Q1023 NOSIG",
      "taf": "TAF LKPR 170500Z 1706/1812 30005KT CAVOK"
    },
    {
      "icao": "LLBG",
      "alert": "OK",
      "vis_m": 9999,
      "fzfg": false,
      "metar_trigger": false,
      "taf_trigger": false,
      "metar": "METAR LLBG 170520Z 13012KT CAVOK 30/15 Q1002 NOSIG",
      "taf": "TAF LLBG 170504Z 1706/1806 12015KT CAVOK TX33/1709Z TN18/1804Z"
    },
    {
      "icao": "LMML",
      "alert": "OK",
      "vis_m": 9999,
      "fzfg": false,
      "metar_trigger": false,
      "taf_trigger": false,
      "metar": "METAR LMML 170545Z 32006KT CAVOK 15/13 Q1014 NOSIG",
      "taf": ""
    },
    {
      "icao": "LOWW",
      "alert": "OK",
      "vis_m": 9999,
      "fzfg": false,
      "metar_trigger": false,
      "taf_trigger": false,
      "metar": "METAR LOWW 170520Z VRB01KT CAVOK 12/08 Q1022 NOSIG",
      "taf": "TAF LOWW 170515Z 1706/1812 30005KT 9999 FEW050 TX21/1713Z TN08/1804Z"
    },
    {
      "icao": "LPFR",
      "alert": "OK",
      "vis_m": 9999,
      "fzfg": false,
      "metar_trigger": false,
      "taf_trigger": false,
      "metar": "METAR LPFR 170530Z 03006KT 360V090 CAVOK 18/07 Q1017",
      "taf": "TAF LPFR 170500Z 1706/1806 03007KT CAVOK"
    },
    {
      "icao": "LPMA",
      "alert": "OK",
      "vis_m": 9999,
      "fzfg": false,
      "metar_trigger": false,
      "taf_trigger": false,
      "metar": "METAR LPMA 170530Z 01014G24KT 330V040 9999 SCT016 17/10 Q1017",
      "taf": "TAF LPMA 170500Z 1706/1806 02013KT 9999 SCT015"
    },
    {
      "icao": "LPPR",
      "alert": "OK",
      "vis_m": 900,
      "fzfg": false,
      "metar_trigger": false,
      "taf_trigger": false,
      "metar": "METAR LPPR 170530Z 10004KT 070V140 0900 0500N R17/2000U FG BKN001 10/09 Q1019",
      "taf": "TAF LPPR 170500Z 1706/1806 VRB02KT 5000 BR SCT006"
    },
    {
      "icao": "LPPS",
      "alert": "OK",
      "vis_m": 9999,
      "fzfg": false,
      "metar_trigger": false,
      "taf_trigger": false,
      "metar": "METAR LPPS 170530Z 04009KT 010V080 9999 SCT015 SCT030 16/12 Q1018",
      "taf": "TAF LPPS 170500Z 1706/1812 05012KT 9999 FEW015 BKN030"
    },
    {
      "icao": "LPPT",
      "alert": "OK",
      "vis_m": 9999,
      "fzfg": false,
      "metar_trigger": false,
      "taf_trigger": false,
      "metar": "METAR LPPT 170530Z 02003KT 350V060 CAVOK 11/10 Q1018",
      "taf": "TAF LPPT 170500Z 1706/1812 35007KT CAVOK"
    },
    {
      "icao": "LQBK",
      "alert": "OK",
      "vis_m": 9999,
      "fzfg": false,
      "metar_trigger": false,
      "taf_trigger": false,
      "metar": "METAR LQBK 170530Z 00000KT CAVOK 13/11 Q1020 NOSIG",
      "taf": "TAF LQBK 170500Z 1706/1806 VRB02KT CAVOK TX21/1713Z TN08/1804Z"
    },
    {
      "icao": "LQSA",
      "alert": "OK",
      "vis_m": 9999,
      "fzfg": false,
      "metar_trigger": false,
      "taf_trigger": false,
      "metar": "METAR LQSA 170530Z 00000KT 9999 FEW036 BKN060 13/10 Q1019 NOSIG",
      "taf": "TAF LQSA 170500Z 1706/1806 33005KT 9999 SCT050 TX21/1714Z TN08/1804Z"
    },
    {
      "icao": "LQTZ",
      "alert": "OK",
      "vis_m": 8000,
      "fzfg": false,
      "metar_trigger": false,
      "taf_trigger": false,
      "metar": "METAR LQTZ 170530Z VRB02KT 8000 OVC050 12/12 Q1020",
      "taf": "TAF LQTZ 170500Z 1706/1806 33005KT 9999 SCT050 TX21/1713Z TN08/1804Z"
    },
    {
      "icao": "LRBC",
      "alert": "OK",
      "vis_m": 9999,
      "fzfg": false,
      "metar_trigger": false,
      "taf_trigger": false,
      "metar": "METAR LRBC 170530Z 13003KT CAVOK 09/05 Q1018",
      "taf": "TAF LRBC 170500Z 1706/1715 VRB04KT 9999 SCT040"
    },
    {
      "icao": "LRBS",
      "alert": "OK",
      "vis_m": 9999,
      "fzfg": false,
      "metar_trigger": false,
      "taf_trigger": false,
      "metar": "METAR LRBS 170530Z 08004KT CAVOK 10/03 Q1018 NOSIG",
      "taf": "TAF LRBS 170500Z 1706/1806 08004KT CAVOK"
    },
    {
      "icao": "LRBV",
      "alert": "OK",
      "vis_m": 9999,
      "fzfg": false,
      "metar_trigger": false,
      "taf_trigger": false,
      "metar": "METAR LRBV 170530Z VRB02KT 9999 SCT063 SCT070 11/09 Q1018",
      "taf": "TAF LRBV 170500Z 1706/1715 VRB04KT 9999 BKN050"
    },
    {
      "icao": "LRCL",
      "alert": "OK",
      "vis_m": 9999,
      "fzfg": false,
      "metar_trigger": false,
      "taf_trigger": false,
      "metar": "METAR LRCL 170530Z 25006KT 9999 BKN042 13/08 Q1018",
      "taf": "TAF LRCL 170500Z 1706/1715 VRB04KT 9999 BKN040"
    },
    {
      "icao": "LRCV",
      "alert": "OK",
      "vis_m": 9999,
      "fzfg": false,
      "metar_trigger": false,
      "taf_trigger": false,
      "metar": "METAR LRCV 170530Z 11005KT CAVOK 11/08 Q1018",
      "taf": "TAF LRCV 170500Z 1706/1715 08006KT CAVOK"
    },
    {
      "icao": "LRIA",
      "alert": "OK",
      "vis_m": 9999,
      "fzfg": false,
      "metar_trigger": false,
      "taf_trigger": false,
      "metar": "METAR LRIA 170530Z 07003KT CAVOK 10/05 Q1018",
      "taf": "TAF LRIA 170500Z 1706/1715 VRB04KT 9999 SCT045"
    },
    {
      "icao": "LROP",
      "alert": "OK",
      "vis_m": 9999,
      "fzfg": false,
      "metar_trigger": false,
      "taf_trigger": false,
      "metar": "METAR LROP 170530Z 09004KT CAVOK 10/01 Q1018 NOSIG",
      "taf": "TAF LROP 170500Z 1706/1806 08004KT CAVOK"
    },
    {
      "icao": "LRSB",
      "alert": "OK",
      "vis_m": 9999,
      "fzfg": false,
      "metar_trigger": false,
      "taf_trigger": false,
      "metar": "METAR LRSB 170530Z VRB02KT 9999 SCT070 13/09 Q1018",
      "taf": "TAF LRSB 170500Z 1706/1806 VRB04KT 9999 BKN035"
    },
    {
      "icao": "LRSM",
      "alert": "OK",
      "vis_m": 9999,
      "fzfg": false,
      "metar_trigger": false,
      "taf_trigger": false,
      "metar": "METAR LRSM 170530Z 27004KT 240V300 CAVOK 11/07 Q1018",
      "taf": "TAF LRSM 170500Z 1706/1715 VRB04KT CAVOK"
    },
    {
      "icao": "LRSV",
      "alert": "OK",
      "vis_m": 7000,
      "fzfg": false,
      "metar_trigger": false,
      "taf_trigger": false,
      "metar": "METAR LRSV 170530Z 31004KT 7000 -RA BKN026 10/08 Q1018",
      "taf": "TAF LRSV 170500Z 1706/1715 35007KT 9999 BKN030"
    },
    {
      "icao": "LRTM",
      "alert": "OK",
      "vis_m": 4500,
      "fzfg": false,
      "metar_trigger": false,
      "taf_trigger": false,
      "metar": "METAR LRTM 170530Z VRB01KT 4500 -SHRA BR FEW006 SCT011 FEW030CB OVC045 12/10 Q1018",
      "taf": "TAF LRTM 170500Z 1706/1715 VRB04KT 9999 BKN040"
    },
    {
      "icao": "LRTR",
      "alert": "OK",
      "vis_m": 9999,
      "fzfg": false,
      "metar_trigger": false,
      "taf_trigger": false,
      "metar": "METAR LRTR 170530Z 00000KT CAVOK 13/10 Q1018",
      "taf": "TAF LRTR 170500Z 1706/1806 VRB04KT CAVOK"
    },
    {
      "icao": "LTAC",
      "alert": "OK",
      "vis_m": 9999,
      "fzfg": false,
      "metar_trigger": false,
      "taf_trigger": false,
      "metar": "METAR LTAC 170520Z 04014KT CAVOK 12/02 Q1014 NOSIG RMK RWY21C 03011KT RWY03L 03013KT RWY21R 02010KT RWY03R 02010KT RWY21L 02013KT",
      "taf": "TAF LTAC 170440Z 1706/1806 03008KT CAVOK"
    },
    {
      "icao": "LTFM",
      "alert": "OK",
      "vis_m": 9999,
      "fzfg": false,
      "metar_trigger": false,
      "taf_trigger": false,
      "metar": "METAR LTFM 170520Z 02014KT 9999 BKN016 10/08 Q1015 NOSIG RMK RWY17L 02011KT RWY34L 01013KT RWY16R 02011KT RWY36 02015KT RWY18 03010KT",
      "taf": "TAF LTFM 170440Z 1706/1812 03014KT 9999 BKN016"
    },
    {
      "icao": "LUKK",
      "alert": "OK",
      "vis_m": 9999,
      "fzfg": false,
      "metar_trigger": false,
      "taf_trigger": false,
      "metar": "METAR LUKK 170530Z 24004KT 200V280 CAVOK 11/00 Q1018 TEMPO BKN030CB",
      "taf": "TAF LUKK 170502Z 1706/1806 VRB06KT 9999 SCT040"
    },
    {
      "icao": "LWOH",
      "alert": "OK",
      "vis_m": 9999,
      "fzfg": false,
      "metar_trigger": false,
      "taf_trigger": false,
      "metar": "METAR LWOH 170520Z 31006KT 9999 SCT040 11/08 Q1016",
      "taf": "TAF LWOH 170505Z 1706/1806 31006KT 9999 FEW040"
    },
    {
      "icao": "LWSK",
      "alert": "OK",
      "vis_m": 9999,
      "fzfg": false,
      "metar_trigger": false,
      "taf_trigger": false,
      "metar": "METAR LWSK 170550Z VRB02KT CAVOK 15/11 Q1017 NOSIG",
      "taf": "TAF LWSK 170505Z 1706/1806 VRB02KT CAVOK"
    },
    {
      "icao": "LYBE",
      "alert": "OK",
      "vis_m": 9999,
      "fzfg": false,
      "metar_trigger": false,
      "taf_trigger": false,
      "metar": "METAR LYBE 170530Z 25006KT CAVOK 12/09 Q1019 NOSIG",
      "taf": "TAF LYBE 170500Z 1706/1806 30006KT 9999 SCT040 TX22/1713Z TN08/1804Z"
    },
    {
      "icao": "LYNI",
      "alert": "OK",
      "vis_m": 9999,
      "fzfg": false,
      "metar_trigger": false,
      "taf_trigger": false,
      "metar": "METAR LYNI 170530Z 12003KT 080V160 9999 FEW083 12/09 Q1018 BECMG FM0700 32012KT",
      "taf": "TAF LYNI 170500Z 1706/1806 02005KT 9999 SCT050 TX22/1711Z TN09/1804Z"
    },
    {
      "icao": "LYPG",
      "alert": "OK",
      "vis_m": 9999,
      "fzfg": false,
      "metar_trigger": false,
      "taf_trigger": false,
      "metar": "METAR LYPG 170530Z 36012KT CAVOK 21/07 Q1014 NOSIG",
      "taf": "TAF LYPG 170500Z 1706/1806 34008KT CAVOK TX27/1713Z TN19/1804Z"
    },
    {
      "icao": "LZIB",
      "alert": "OK",
      "vis_m": 9999,
      "fzfg": false,
      "metar_trigger": false,
      "taf_trigger": false,
      "metar": "METAR LZIB 170530Z 28007KT CAVOK 15/09 Q1021 NOSIG",
      "taf": "TAF LZIB 170515Z 1706/1806 30008KT CAVOK"
    },
    {
      "icao": "LZKZ",
      "alert": "OK",
      "vis_m": 9999,
      "fzfg": false,
      "metar_trigger": false,
      "taf_trigger": false,
      "metar": "METAR LZKZ 170530Z VRB02KT CAVOK 10/07 Q1020 NOSIG",
      "taf": "TAF LZKZ 170515Z 1706/1806 03005KT CAVOK"
    },
    {
      "icao": "LZTT",
      "alert": "OK",
      "vis_m": 9999,
      "fzfg": false,
      "metar_trigger": false,
      "taf_trigger": false,
      "metar": "METAR LZTT 170530Z 27007KT 9999 FEW043 06/04 Q1020 NOSIG",
      "taf": "TAF LZTT 170515Z 1706/1806 27005KT 9999 FEW020"
    },
    {
      "icao": "OEJN",
      "alert": "OK",
      "vis_m": 9999,
      "fzfg": false,
      "metar_trigger": false,
      "taf_trigger": false,
      "metar": "METAR OEJN 170500Z 10004KT CAVOK 31/20 Q1006 NOSIG",
      "taf": "TAF OEJN 170500Z 1706/1812 16022KT 7000 FEW040"
    },
    {
      "icao": "OEMA",
      "alert": "OK",
      "vis_m": 5000,
      "fzfg": false,
      "metar_trigger": false,
      "taf_trigger": false,
      "metar": "METAR OEMA 170500Z 07011KT 5000 HZ NSC 24/16 Q1015 NOSIG",
      "taf": "TAF OEMA 170500Z 1706/1812 08010KT 7000 SCT040"
    },
    {
      "icao": "OJAI",
      "alert": "OK",
      "vis_m": null,
      "fzfg": false,
      "metar_trigger": false,
      "taf_trigger": false,
      "metar": "",
      "taf": "TAF OJAI 170500Z 1706/1812 12012KT 4000 HZ NSC"
    },
    {
      "icao": "OMAA",
      "alert": "OK",
      "vis_m": null,
      "fzfg": false,
      "metar_trigger": false,
      "taf_trigger": false,
      "metar": "",
      "taf": ""
    },
    {
      "icao": "OMDB",
      "alert": "OK",
      "vis_m": null,
      "fzfg": false,
      "metar_trigger": false,
      "taf_trigger": false,
      "metar": "",
      "taf": ""
    },
    {
      "icao": "UAAA",
      "alert": "OK",
      "vis_m": 9999,
      "fzfg": false,
      "metar_trigger": false,
      "taf_trigger": false,
      "metar": "METAR UAAA 170530Z 06004MPS 9999 BKN050CB OVC100 10/05 Q1017 NOSIG",
      "taf": "TAF UAAA 170509Z 1706/1806 10003G08MPS 6000 BKN020CB OVC050 TX12/1709Z TN04/1801Z"
    },
    {
      "icao": "UBBB",
      "alert": "OK",
      "vis_m": 9999,
      "fzfg": false,
      "metar_trigger": false,
      "taf_trigger": false,
      "metar": "METAR UBBB 170530Z 20014KT CAVOK 15/08 Q1022 NOSIG",
      "taf": "TAF UBBB 170457Z 1706/1806 18012KT CAVOK TX17/1710Z TN09/1801Z"
    },
    {
      "icao": "UDSG",
      "alert": "OK",
      "vis_m": 9999,
      "fzfg": false,
      "metar_trigger": false,
      "taf_trigger": false,
      "metar": "METAR UDSG 170530Z 24002KT 9999 NSC 04/M06 Q1021 NOSIG",
      "taf": "TAF UDSG 170458Z 1706/1806 VRB06KT 9999 FEW050"
    },
    {
      "icao": "UDYZ",
      "alert": "OK",
      "vis_m": 9999,
      "fzfg": false,
      "metar_trigger": false,
      "taf_trigger": false,
      "metar": "METAR UDYZ 170530Z 16002KT 9999 NSC 09/M00 Q1021 NOSIG",
      "taf": "TAF UDYZ 170500Z 1706/1806 20006KT 9999 FEW040"
    },
    {
      "icao": "UGKO",
      "alert": "OK",
      "vis_m": 9999,
      "fzfg": false,
      "metar_trigger": false,
      "taf_trigger": false,
      "metar": "METAR UGKO 170530Z 09022G33KT CAVOK 15/02 Q1016 NOSIG",
      "taf": "TAF UGKO 170500Z 1706/1806 08019KT CAVOK TX24/1711Z TN14/1803Z"
    }
  ]
}