{
  "ts_utc": "2026-06-06T08:07:30Z",
  "threshold_m": 150,
  "source": "stations_override.txt (ICAO list) + aviationweather.gov (METAR/TAF raw)",
  "station_count": 159,
  "stations": [
    {
      "icao": "BIKF",
      "alert": "OK",
      "vis_m": 9999,
      "fzfg": false,
      "metar_trigger": false,
      "taf_trigger": false,
      "metar": "METAR BIKF 060800Z 14009KT 120V180 9999 SCT022TCU BKN059 08/05 Q0992",
      "taf": "TAF BIKF 060748Z 0609/0709 16012KT 9999 SCT020 BKN045 TX12/0615Z TN05/0704Z"
    },
    {
      "icao": "BKPR",
      "alert": "OK",
      "vis_m": 9999,
      "fzfg": false,
      "metar_trigger": false,
      "taf_trigger": false,
      "metar": "METAR BKPR 060800Z VRB03KT CAVOK 23/15 Q1018 NOSIG",
      "taf": "TAF BKPR 060530Z 0606/0706 35006KT 9999 FEW050"
    },
    {
      "icao": "EBCI",
      "alert": "OK",
      "vis_m": 9999,
      "fzfg": false,
      "metar_trigger": false,
      "taf_trigger": false,
      "metar": "METAR EBCI 060750Z 17009KT CAVOK 16/09 Q1014 NOSIG",
      "taf": "TAF EBCI 060500Z 0606/0712 16008KT 9999 FEW030 SCT045"
    },
    {
      "icao": "EDDB",
      "alert": "OK",
      "vis_m": 9999,
      "fzfg": false,
      "metar_trigger": false,
      "taf_trigger": false,
      "metar": "METAR EDDB 060750Z AUTO 23003KT 150V320 CAVOK 20/12 Q1017 NOSIG",
      "taf": "TAF EDDB 060500Z 0606/0706 VRB03KT CAVOK"
    },
    {
      "icao": "EDDH",
      "alert": "OK",
      "vis_m": 9999,
      "fzfg": false,
      "metar_trigger": false,
      "taf_trigger": false,
      "metar": "METAR EDDH 060750Z AUTO 17009KT 140V210 9999 FEW020 18/12 Q1016 NOSIG",
      "taf": "TAF EDDH 060500Z 0606/0712 VRB03KT 9999 SCT030"
    },
    {
      "icao": "EDDK",
      "alert": "OK",
      "vis_m": 9999,
      "fzfg": false,
      "metar_trigger": false,
      "taf_trigger": false,
      "metar": "METAR EDDK 060750Z AUTO 13005KT 090V160 CAVOK 16/13 Q1015 NOSIG",
      "taf": "TAF EDDK 060500Z 0606/0712 13003KT CAVOK"
    },
    {
      "icao": "EDDN",
      "alert": "OK",
      "vis_m": 9999,
      "fzfg": false,
      "metar_trigger": false,
      "taf_trigger": false,
      "metar": "METAR EDDN 060750Z AUTO 07006KT 030V140 CAVOK 19/09 Q1017 NOSIG",
      "taf": "TAF EDDN 060500Z 0606/0706 13004KT CAVOK"
    },
    {
      "icao": "EDDS",
      "alert": "OK",
      "vis_m": 9999,
      "fzfg": false,
      "metar_trigger": false,
      "taf_trigger": false,
      "metar": "METAR EDDS 060750Z AUTO VRB03KT CAVOK 16/10 Q1016 NOSIG",
      "taf": "TAF EDDS 060500Z 0606/0706 VRB03KT CAVOK"
    },
    {
      "icao": "EDFH",
      "alert": "OK",
      "vis_m": 9999,
      "fzfg": false,
      "metar_trigger": false,
      "taf_trigger": false,
      "metar": "METAR EDFH 060750Z 13009KT 100V160 CAVOK 15/09 Q1016",
      "taf": "TAF EDFH 060500Z 0606/0706 14007KT CAVOK"
    },
    {
      "icao": "EDJA",
      "alert": "OK",
      "vis_m": 9999,
      "fzfg": false,
      "metar_trigger": false,
      "taf_trigger": false,
      "metar": "METAR EDJA 060750Z VRB02KT CAVOK 14/10 Q1015",
      "taf": "TAF EDJA 060500Z 0606/0615 05004KT CAVOK"
    },
    {
      "icao": "EDLW",
      "alert": "OK",
      "vis_m": 9999,
      "fzfg": false,
      "metar_trigger": false,
      "taf_trigger": false,
      "metar": "METAR EDLW 060750Z 19004KT 100V270 CAVOK 18/13 Q1015",
      "taf": "TAF EDLW 060500Z 0606/0706 15006KT CAVOK"
    },
    {
      "icao": "EDNY",
      "alert": "OK",
      "vis_m": 9999,
      "fzfg": false,
      "metar_trigger": false,
      "taf_trigger": false,
      "metar": "METAR EDNY 060750Z 26004KT 210V360 9999 FEW016 15/11 Q1017",
      "taf": "TAF EDNY 060500Z 0606/0615 03004KT CAVOK"
    },
    {
      "icao": "EDSB",
      "alert": "OK",
      "vis_m": 9999,
      "fzfg": false,
      "metar_trigger": false,
      "taf_trigger": false,
      "metar": "METAR EDSB 060750Z VRB02KT CAVOK 15/10 Q1016",
      "taf": ""
    },
    {
      "icao": "EETN",
      "alert": "OK",
      "vis_m": 9999,
      "fzfg": false,
      "metar_trigger": false,
      "taf_trigger": false,
      "metar": "METAR EETN 060750Z 15009KT 9999 -SHRA BKN009 FEW030CB BKN035 18/17 Q1010 TEMPO 2000 SHRA",
      "taf": "TAF EETN 060530Z 0606/0706 14010KT 9999 SCT008 FEW025CB BKN030"
    },
    {
      "icao": "EFTU",
      "alert": "OK",
      "vis_m": 9999,
      "fzfg": false,
      "metar_trigger": false,
      "taf_trigger": false,
      "metar": "METAR EFTU 060750Z AUTO 03004KT 9999 -SHRA OVC004 //////CB 16/16 Q1010",
      "taf": "TAF EFTU 060538Z 0606/0706 31006KT 9999 SCT004 BKN015"
    },
    {
      "icao": "EGBB",
      "alert": "OK",
      "vis_m": 9999,
      "fzfg": false,
      "metar_trigger": false,
      "taf_trigger": false,
      "metar": "METAR EGBB 060750Z 14013KT 9999 -RA BKN010 BKN016 12/10 Q1003",
      "taf": "TAF EGBB 060459Z 0606/0706 15015G25KT 9999 FEW015 SCT030"
    },
    {
      "icao": "EGGP",
      "alert": "OK",
      "vis_m": 9999,
      "fzfg": false,
      "metar_trigger": false,
      "taf_trigger": false,
      "metar": "METAR EGGP 060750Z 13017KT 9999 -SHRA BKN016 BKN029 12/09 Q1001",
      "taf": "TAF EGGP 060458Z 0606/0706 14011KT 9999 SCT040"
    },
    {
      "icao": "EGGW",
      "alert": "OK",
      "vis_m": 9999,
      "fzfg": false,
      "metar_trigger": false,
      "taf_trigger": false,
      "metar": "METAR EGGW 060750Z AUTO 15013KT 9999 -DZRA BKN008 BKN012 OVC017 12/11 Q1005",
      "taf": "TAF EGGW 060502Z 0606/0706 15013KT 9999 FEW009 BKN040"
    },
    {
      "icao": "EGKK",
      "alert": "OK",
      "vis_m": 6000,
      "fzfg": false,
      "metar_trigger": false,
      "taf_trigger": false,
      "metar": "METAR EGKK 060750Z 14010KT 110V170 6000 -RA FEW008 BKN018 12/11 Q1006",
      "taf": "TAF EGKK 060457Z 0606/0712 15005KT 9999 FEW040"
    },
    {
      "icao": "EGNM",
      "alert": "OK",
      "vis_m": 9000,
      "fzfg": false,
      "metar_trigger": false,
      "taf_trigger": false,
      "metar": "METAR EGNM 060750Z 11009KT 9000 -RA SCT004 BKN010 09/09 Q1004",
      "taf": "TAF EGNM 060457Z 0606/0706 15008KT 9999 SCT040"
    },
    {
      "icao": "EGPD",
      "alert": "OK",
      "vis_m": 9999,
      "fzfg": false,
      "metar_trigger": false,
      "taf_trigger": false,
      "metar": "METAR EGPD 060750Z COR AUTO 12007KT 9999 SCT009 13/11 Q1006 NOSIG",
      "taf": "TAF EGPD 060459Z 0606/0706 15009KT 9999 SCT045"
    },
    {
      "icao": "EGPF",
      "alert": "OK",
      "vis_m": 9999,
      "fzfg": false,
      "metar_trigger": false,
      "taf_trigger": false,
      "metar": "METAR EGPF 060750Z AUTO 10009G20KT 060V130 9999 -RA FEW040 13/08 Q1004",
      "taf": "TAF EGPF 060454Z 0606/0706 07010KT 9999 SCT035"
    },
    {
      "icao": "EHBK",
      "alert": "OK",
      "vis_m": 9999,
      "fzfg": false,
      "metar_trigger": false,
      "taf_trigger": false,
      "metar": "METAR EHBK 060755Z AUTO 17007KT 140V200 9999 NSC 16/11 Q1014 NOSIG",
      "taf": "TAF EHBK 060509Z 0606/0712 17005KT CAVOK"
    },
    {
      "icao": "EHEH",
      "alert": "OK",
      "vis_m": 9999,
      "fzfg": false,
      "metar_trigger": false,
      "taf_trigger": false,
      "metar": "METAR EHEH 060755Z AUTO 17007KT 140V220 9999 OVC100 16/12 Q1014 BLU NOSIG RMK TREND REMOTE BY EHWX",
      "taf": "TAF EHEH 060527Z 0606/0712 17005KT 9999 FEW035 SCT050"
    },
    {
      "icao": "EKBI",
      "alert": "OK",
      "vis_m": 9999,
      "fzfg": false,
      "metar_trigger": false,
      "taf_trigger": false,
      "metar": "METAR EKBI 060750Z AUTO 19004KT 140V240 9999 NCD 14/09 Q1016",
      "taf": "TAF EKBI 060527Z 0606/0706 23005KT 9999 FEW020"
    },
    {
      "icao": "EKCH",
      "alert": "OK",
      "vis_m": 9999,
      "fzfg": false,
      "metar_trigger": false,
      "taf_trigger": false,
      "metar": "METAR EKCH 060750Z AUTO 22005KT 170V280 9999 FEW028/// 16/09 Q1017 NOSIG",
      "taf": "TAF EKCH 060527Z 0606/0706 27008KT 9999 FEW030"
    },
    {
      "icao": "ENAL",
      "alert": "OK",
      "vis_m": 9999,
      "fzfg": false,
      "metar_trigger": false,
      "taf_trigger": false,
      "metar": "METAR ENAL 060750Z 31006KT 290V350 9999 FEW015 FEW030TCU BKN057 12/10 Q1013",
      "taf": "TAF ENAL 060500Z 0606/0615 22009KT 9999 BKN035"
    },
    {
      "icao": "ENBR",
      "alert": "OK",
      "vis_m": 9999,
      "fzfg": false,
      "metar_trigger": false,
      "taf_trigger": false,
      "metar": "METAR ENBR 060750Z 21006KT 9999 SCT022 12/08 Q1013 NOSIG RMK WIND 1200FT 14007KT",
      "taf": "TAF ENBR 060500Z 0606/0706 18008KT 9999 BKN020"
    },
    {
      "icao": "ENGM",
      "alert": "OK",
      "vis_m": 9999,
      "fzfg": false,
      "metar_trigger": false,
      "taf_trigger": false,
      "metar": "METAR ENGM 060750Z 15003KT 110V180 9999 VCSH SCT018 BKN023 13/10 Q1012 NOSIG",
      "taf": "TAF ENGM 060500Z 0606/0706 17008KT 9999 BKN004"
    },
    {
      "icao": "ENHD",
      "alert": "OK",
      "vis_m": 9999,
      "fzfg": false,
      "metar_trigger": false,
      "taf_trigger": false,
      "metar": "METAR ENHD 060750Z 24004KT 210V270 9999 SCT019 12/09 Q1013",
      "taf": "TAF ENHD 060500Z 0606/0615 25007KT 9999 SCT040"
    },
    {
      "icao": "ENTC",
      "alert": "OK",
      "vis_m": 9999,
      "fzfg": false,
      "metar_trigger": false,
      "taf_trigger": false,
      "metar": "METAR ENTC 060750Z 23010KT 9999 BKN061 16/09 Q1010 NOSIG RMK WIND 2600FT 21022KT",
      "taf": "TAF ENTC 060500Z 0606/0706 19008KT 9999 SCT065"
    },
    {
      "icao": "ENTO",
      "alert": "OK",
      "vis_m": 9999,
      "fzfg": false,
      "metar_trigger": false,
      "taf_trigger": false,
      "metar": "METAR ENTO 060750Z 20002KT CAVOK 16/09 Q1012 NOSIG",
      "taf": "TAF ENTO 060500Z 0606/0706 VRB03KT CAVOK"
    },
    {
      "icao": "ENVA",
      "alert": "OK",
      "vis_m": 9999,
      "fzfg": false,
      "metar_trigger": false,
      "taf_trigger": false,
      "metar": "METAR ENVA 060750Z COR 26003KT 9999 FEW029 OVC041 13/10 Q1014 NOSIG RMK WIND 670FT 00000KT",
      "taf": "TAF ENVA 060500Z 0606/0706 26008KT 9999 FEW030 BKN045"
    },
    {
      "icao": "ENZV",
      "alert": "OK",
      "vis_m": 9999,
      "fzfg": false,
      "metar_trigger": false,
      "taf_trigger": false,
      "metar": "METAR ENZV 060750Z 00000KT 9999 SCT034 15/08 Q1013 NOSIG",
      "taf": "TAF ENZV 060500Z 0606/0706 27008KT 9999 -SHRA FEW010 SCT030"
    },
    {
      "icao": "EPGD",
      "alert": "OK",
      "vis_m": 9999,
      "fzfg": false,
      "metar_trigger": false,
      "taf_trigger": false,
      "metar": "METAR EPGD 060800Z 27009KT 9999 FEW021 18/13 Q1017",
      "taf": "TAF EPGD 060530Z 0606/0706 26010KT CAVOK"
    },
    {
      "icao": "EPKK",
      "alert": "OK",
      "vis_m": 9999,
      "fzfg": false,
      "metar_trigger": false,
      "taf_trigger": false,
      "metar": "METAR EPKK 060800Z VRB01KT 9999 FEW027 18/10 Q1019",
      "taf": "TAF EPKK 060530Z 0606/0706 06005KT 2500 BR NSC"
    },
    {
      "icao": "EPKT",
      "alert": "OK",
      "vis_m": 9999,
      "fzfg": false,
      "metar_trigger": false,
      "taf_trigger": false,
      "metar": "METAR EPKT 060800Z VRB02KT 9999 FEW023 17/11 Q1019",
      "taf": "TAF EPKT 060530Z 0606/0706 12005KT 3000 BR BKN001"
    },
    {
      "icao": "EPLB",
      "alert": "OK",
      "vis_m": 9999,
      "fzfg": false,
      "metar_trigger": false,
      "taf_trigger": false,
      "metar": "METAR EPLB 060800Z 33007KT 300V360 9999 BKN022 16/11 Q1019",
      "taf": "TAF EPLB 060530Z 0606/0706 31007KT 9999 BKN014"
    },
    {
      "icao": "EPMO",
      "alert": "OK",
      "vis_m": 9999,
      "fzfg": false,
      "metar_trigger": false,
      "taf_trigger": false,
      "metar": "METAR EPMO 060800Z 25005KT 210V300 9999 SCT024 19/13 Q1018",
      "taf": "TAF EPMO 060530Z 0606/0706 28005KT 9999 SCT025"
    },
    {
      "icao": "EPPO",
      "alert": "OK",
      "vis_m": 9999,
      "fzfg": false,
      "metar_trigger": false,
      "taf_trigger": false,
      "metar": "METAR EPPO 060800Z VRB02KT 9999 FEW024 20/13 Q1018",
      "taf": "TAF EPPO 060530Z 0606/0706 25004KT CAVOK"
    },
    {
      "icao": "EPRA",
      "alert": "OK",
      "vis_m": 9999,
      "fzfg": false,
      "metar_trigger": false,
      "taf_trigger": false,
      "metar": "METAR EPRA 060800Z VRB03KT 9999 SCT027 18/10 Q1019",
      "taf": "TAF EPRA 060530Z 0606/0615 27006KT CAVOK"
    },
    {
      "icao": "EPRZ",
      "alert": "OK",
      "vis_m": 9999,
      "fzfg": false,
      "metar_trigger": false,
      "taf_trigger": false,
      "metar": "METAR EPRZ 060800Z 36004KT 300V030 9999 BKN023 16/11 Q1019",
      "taf": "TAF EPRZ 060530Z 0606/0706 26006KT 9999 BKN018"
    },
    {
      "icao": "EPSC",
      "alert": "OK",
      "vis_m": 9999,
      "fzfg": false,
      "metar_trigger": false,
      "taf_trigger": false,
      "metar": "METAR EPSC 060800Z VRB03KT 9999 FEW021 SCT026 18/13 Q1017",
      "taf": "TAF EPSC 060530Z 0606/0706 VRB04KT CAVOK"
    },
    {
      "icao": "EPSY",
      "alert": "OK",
      "vis_m": 9999,
      "fzfg": false,
      "metar_trigger": false,
      "taf_trigger": false,
      "metar": "METAR EPSY 060800Z 25004KT 200V290 9999 SCT017 18/13 Q1018",
      "taf": ""
    },
    {
      "icao": "EPWA",
      "alert": "OK",
      "vis_m": 9999,
      "fzfg": false,
      "metar_trigger": false,
      "taf_trigger": false,
      "metar": "METAR EPWA 060800Z 28005KT 220V350 9999 BKN025 19/12 Q1018 NOSIG",
      "taf": "TAF EPWA 060530Z 0606/0706 29005KT 9999 SCT020"
    },
    {
      "icao": "EPWR",
      "alert": "OK",
      "vis_m": 9999,
      "fzfg": false,
      "metar_trigger": false,
      "taf_trigger": false,
      "metar": "METAR EPWR 060800Z VRB02KT 9999 FEW040 20/10 Q1018",
      "taf": "TAF EPWR 060530Z 0606/0706 13003KT CAVOK"
    },
    {
      "icao": "ESGG",
      "alert": "OK",
      "vis_m": 9999,
      "fzfg": false,
      "metar_trigger": false,
      "taf_trigger": false,
      "metar": "METAR ESGG 060750Z 24010KT 9999 FEW021 SCT041 14/09 Q1014",
      "taf": "TAF ESGG 060530Z 0606/0706 24005KT 9999 SCT015"
    },
    {
      "icao": "ESKN",
      "alert": "OK",
      "vis_m": 9999,
      "fzfg": false,
      "metar_trigger": false,
      "taf_trigger": false,
      "metar": "METAR ESKN 060750Z 27007KT 240V320 9999 SCT013 15/12 Q1013",
      "taf": ""
    },
    {
      "icao": "ESMS",
      "alert": "OK",
      "vis_m": 6000,
      "fzfg": false,
      "metar_trigger": false,
      "taf_trigger": false,
      "metar": "METAR ESMS 060750Z 26007KT 6000 FEW027 16/09 Q1016",
      "taf": "TAF ESMS 060527Z 0606/0706 25008KT 9999 SCT020"
    },
    {
      "icao": "ESSA",
      "alert": "OK",
      "vis_m": 9999,
      "fzfg": false,
      "metar_trigger": false,
      "taf_trigger": false,
      "metar": "METAR ESSA 060750Z 27006KT CAVOK 14/11 Q1012 NOSIG",
      "taf": "TAF ESSA 060530Z 0606/0706 27005KT CAVOK"
    },
    {
      "icao": "EYKA",
      "alert": "OK",
      "vis_m": 9999,
      "fzfg": false,
      "metar_trigger": false,
      "taf_trigger": false,
      "metar": "METAR EYKA 060750Z 30008KT 270V350 9999 FEW015 BKN023 OVC029 16/13 Q1016",
      "taf": "TAF EYKA 060500Z 0606/0706 28009KT 5000 BR SCT005 BKN010"
    },
    {
      "icao": "EYPA",
      "alert": "OK",
      "vis_m": 9999,
      "fzfg": false,
      "metar_trigger": false,
      "taf_trigger": false,
      "metar": "METAR EYPA 060750Z VRB04KT 9999 OVC006 15/14 Q1015",
      "taf": ""
    },
    {
      "icao": "EYVI",
      "alert": "OK",
      "vis_m": 9999,
      "fzfg": false,
      "metar_trigger": false,
      "taf_trigger": false,
      "metar": "METAR EYVI 060750Z 28007KT 240V320 9999 BKN007 OVC012 14/13 Q1016 NOSIG",
      "taf": "TAF EYVI 060513Z 0606/0706 28010KT 5000 -RA BR OVC005"
    },
    {
      "icao": "GCFV",
      "alert": "OK",
      "vis_m": 9999,
      "fzfg": false,
      "metar_trigger": false,
      "taf_trigger": false,
      "metar": "METAR GCFV 060800Z 36017KT 9999 FEW022 21/15 Q1018",
      "taf": "TAF GCFV 060200Z 0603/0703 36016KT 9999 SCT020 TX26/0614Z TN19/0606Z"
    },
    {
      "icao": "GCLP",
      "alert": "OK",
      "vis_m": 9999,
      "fzfg": false,
      "metar_trigger": false,
      "taf_trigger": false,
      "metar": "METAR GCLP 060800Z 36026KT 9999 FEW020 21/14 Q1018 NOSIG",
      "taf": "TAF GCLP 060200Z 0603/0703 36024KT 9999 SCT020 TX26/0614Z TN19/0606Z"
    },
    {
      "icao": "GCTS",
      "alert": "OK",
      "vis_m": 9999,
      "fzfg": false,
      "metar_trigger": false,
      "taf_trigger": false,
      "metar": "METAR GCTS 060800Z 22004KT 140V260 9999 FEW025 21/15 Q1019 NOSIG",
      "taf": "TAF GCTS 060200Z 0603/0703 02005KT 9999 FEW030 TX28/0614Z TN20/0606Z"
    },
    {
      "icao": "GMAD",
      "alert": "OK",
      "vis_m": 8000,
      "fzfg": false,
      "metar_trigger": false,
      "taf_trigger": false,
      "metar": "METAR GMAD 060800Z 20004KT 110V250 8000 FEW016 19/15 Q1013 NOSIG",
      "taf": "TAF GMAD 060500Z 0606/0712 01003KT 8000 NSC"
    },
    {
      "icao": "GMMN",
      "alert": "OK",
      "vis_m": 9999,
      "fzfg": false,
      "metar_trigger": false,
      "taf_trigger": false,
      "metar": "METAR GMMN 060800Z 01008KT 340V070 9999 FEW012 20/16 Q1017 NOSIG",
      "taf": "TAF GMMN 060500Z 0606/0712 12004KT CAVOK"
    },
    {
      "icao": "GMMX",
      "alert": "OK",
      "vis_m": 9999,
      "fzfg": false,
      "metar_trigger": false,
      "taf_trigger": false,
      "metar": "METAR GMMX 060800Z 05005KT 010V130 CAVOK 20/12 Q1016 NOSIG",
      "taf": "TAF GMMX 060500Z 0606/0712 06006KT 8000 NSC"
    },
    {
      "icao": "HEGN",
      "alert": "OK",
      "vis_m": 9999,
      "fzfg": false,
      "metar_trigger": false,
      "taf_trigger": false,
      "metar": "METAR HEGN 060700Z 02006KT CAVOK 32/07 Q1013 NOSIG",
      "taf": "TAF HEGN 060500Z 0606/0712 33012KT CAVOK"
    },
    {
      "icao": "HEMA",
      "alert": "OK",
      "vis_m": 9999,
      "fzfg": false,
      "metar_trigger": false,
      "taf_trigger": false,
      "metar": "METAR HEMA 060700Z 32020KT CAVOK 32/11 Q1012 NOSIG",
      "taf": "TAF HEMA 060500Z 0606/0712 34010G20KT CAVOK"
    },
    {
      "icao": "HESH",
      "alert": "OK",
      "vis_m": 9999,
      "fzfg": false,
      "metar_trigger": false,
      "taf_trigger": false,
      "metar": "METAR HESH 060700Z 34015KT CAVOK 32/10 Q1012 NOSIG",
      "taf": "TAF HESH 060500Z 0606/0712 36015KT CAVOK"
    },
    {
      "icao": "HESX",
      "alert": "OK",
      "vis_m": 9999,
      "fzfg": false,
      "metar_trigger": false,
      "taf_trigger": false,
      "metar": "METAR HESX 060700Z 20009KT CAVOK 32/07 Q1012 NOSIG",
      "taf": "TAF HESX 060500Z 0606/0712 35010KT 7000 NSC"
    },
    {
      "icao": "LATI",
      "alert": "OK",
      "vis_m": 9999,
      "fzfg": false,
      "metar_trigger": false,
      "taf_trigger": false,
      "metar": "METAR LATI 060750Z VRB02KT 9999 SCT140 26/11 Q1016 NOSIG",
      "taf": "TAF LATI 060500Z 0606/0706 VRB03KT CAVOK TX31/0612Z TN15/0704Z"
    },
    {
      "icao": "LBPD",
      "alert": "OK",
      "vis_m": 9999,
      "fzfg": false,
      "metar_trigger": false,
      "taf_trigger": false,
      "metar": "METAR LBPD 060800Z AUTO 26004KT 230V320 9999 NCD 25/18 Q1016 NOSIG",
      "taf": "TAF LBPD 060500Z 0606/0706 VRB04KT 9999 FEW025 SCT040"
    },
    {
      "icao": "LBSF",
      "alert": "OK",
      "vis_m": 9999,
      "fzfg": false,
      "metar_trigger": false,
      "taf_trigger": false,
      "metar": "METAR LBSF 060800Z VRB02KT 9999 FEW028 23/17 Q1018 NOSIG",
      "taf": "TAF LBSF 060500Z 0606/0706 VRB04KT 9999 SCT050"
    },
    {
      "icao": "LBWN",
      "alert": "OK",
      "vis_m": 9999,
      "fzfg": false,
      "metar_trigger": false,
      "taf_trigger": false,
      "metar": "METAR LBWN 060800Z 12010KT 9999 NSC 22/19 Q1016 NOSIG",
      "taf": "TAF LBWN 060500Z 0606/0706 VRB04KT 3000 BR SCT003 BKN007"
    },
    {
      "icao": "LCLK",
      "alert": "OK",
      "vis_m": 9999,
      "fzfg": false,
      "metar_trigger": false,
      "taf_trigger": false,
      "metar": "METAR LCLK 060800Z 17011KT CAVOK 27/20 Q1012 NOSIG",
      "taf": "TAF LCLK 060530Z 0606/0706 02007KT CAVOK"
    },
    {
      "icao": "LCPH",
      "alert": "OK",
      "vis_m": 9999,
      "fzfg": false,
      "metar_trigger": false,
      "taf_trigger": false,
      "metar": "METAR LCPH 060800Z 29007KT 250V320 9999 FEW025 25/20 Q1012 NOSIG",
      "taf": "TAF LCPH 060530Z 0606/0706 02006KT CAVOK"
    },
    {
      "icao": "LEAL",
      "alert": "OK",
      "vis_m": 9999,
      "fzfg": false,
      "metar_trigger": false,
      "taf_trigger": false,
      "metar": "METAR LEAL 060800Z 11004KT 050V200 9999 SCT015 BKN030 25/20 Q1018 NOSIG",
      "taf": "TAF LEAL 060500Z 0606/0706 VRB04KT 9999 BKN040 TX27/0612Z TN20/0606Z"
    },
    {
      "icao": "LEBB",
      "alert": "OK",
      "vis_m": 9999,
      "fzfg": false,
      "metar_trigger": false,
      "taf_trigger": false,
      "metar": "METAR LEBB 060800Z 30009KT 250V330 9999 BKN023 18/15 Q1020 NOSIG",
      "taf": "TAF LEBB 060500Z 0606/0706 11006KT 9999 BKN025 TX18/0607Z TN11/0705Z"
    },
    {
      "icao": "LEBL",
      "alert": "OK",
      "vis_m": 9999,
      "fzfg": false,
      "metar_trigger": false,
      "taf_trigger": false,
      "metar": "METAR LEBL 060800Z 22005KT 9999 BKN039 21/16 Q1018 NOSIG",
      "taf": ""
    },
    {
      "icao": "LECH",
      "alert": "OK",
      "vis_m": 9000,
      "fzfg": false,
      "metar_trigger": false,
      "taf_trigger": false,
      "metar": "METAR LECH 060800Z AUTO 20004KT 140V250 9000 NCD 20/15 Q1018",
      "taf": ""
    },
    {
      "icao": "LEMD",
      "alert": "OK",
      "vis_m": 9999,
      "fzfg": false,
      "metar_trigger": false,
      "taf_trigger": false,
      "metar": "METAR LEMD 060800Z 11004KT 030V170 CAVOK 19/12 Q1019 NOSIG",
      "taf": "TAF LEMD 060500Z 0606/0712 VRB05KT CAVOK TX31/0616Z TN15/0606Z"
    },
    {
      "icao": "LEMG",
      "alert": "OK",
      "vis_m": 9999,
      "fzfg": false,
      "metar_trigger": false,
      "taf_trigger": false,
      "metar": "METAR LEMG 060800Z 09001KT 9999 BKN020 23/18 Q1018 NOSIG",
      "taf": "TAF LEMG 060500Z 0606/0706 VRB02KT 9999 BKN030 TX28/0614Z TN19/0606Z"
    },
    {
      "icao": "LEVC",
      "alert": "OK",
      "vis_m": 9999,
      "fzfg": false,
      "metar_trigger": false,
      "taf_trigger": false,
      "metar": "METAR LEVC 060800Z VRB03KT CAVOK 23/17 Q1017 NOSIG",
      "taf": "TAF LEVC 060500Z 0606/0706 VRB04KT 9999 SCT040 TX28/0612Z TN17/0606Z"
    },
    {
      "icao": "LEXJ",
      "alert": "OK",
      "vis_m": 3500,
      "fzfg": false,
      "metar_trigger": false,
      "taf_trigger": false,
      "metar": "METAR LEXJ 060800Z 26003KT 200V290 3500 DZ FEW007 BKN015 OVC022 16/15 Q1020",
      "taf": "TAF LEXJ 060200Z 0603/0703 20006KT 9999 SCT025 BKN040 TX18/0616Z TN12/0703Z"
    },
    {
      "icao": "LEZG",
      "alert": "OK",
      "vis_m": 9999,
      "fzfg": false,
      "metar_trigger": false,
      "taf_trigger": false,
      "metar": "METAR LEZG 060800Z 08003KT 360V140 CAVOK 20/14 Q1018 NOSIG",
      "taf": "TAF LEZG 060500Z 0606/0706 10007KT CAVOK TX32/0615Z TN16/0606Z"
    },
    {
      "icao": "LEZL",
      "alert": "OK",
      "vis_m": 9999,
      "fzfg": false,
      "metar_trigger": false,
      "taf_trigger": false,
      "metar": "METAR LEZL 060800Z 03003KT 330V080 CAVOK 24/08 Q1018 NOSIG",
      "taf": "TAF LEZL 060200Z 0603/0703 04005KT CAVOK TX34/0615Z TN19/0606Z"
    },
    {
      "icao": "LFBD",
      "alert": "OK",
      "vis_m": 9999,
      "fzfg": false,
      "metar_trigger": false,
      "taf_trigger": false,
      "metar": "METAR LFBD 060800Z AUTO 26015KT 9999 FEW025/// BKN043/// BKN062/// ///TCU 20/14 Q1017 TEMPO 4000 -RA BKN025",
      "taf": ""
    },
    {
      "icao": "LFLL",
      "alert": "OK",
      "vis_m": 9999,
      "fzfg": false,
      "metar_trigger": false,
      "taf_trigger": false,
      "metar": "METAR LFLL 060800Z VRB02KT 9999 FEW040 18/09 Q1018 NOSIG",
      "taf": "TAF LFLL 060500Z 0606/0712 VRB04KT CAVOK"
    },
    {
      "icao": "LFLS",
      "alert": "OK",
      "vis_m": 9999,
      "fzfg": false,
      "metar_trigger": false,
      "taf_trigger": false,
      "metar": "METAR LFLS 060800Z AUTO VRB02KT CAVOK 18/10 Q1018 NOSIG",
      "taf": "TAF LFLS 060200Z 0603/0703 VRB02KT CAVOK"
    },
    {
      "icao": "LFMN",
      "alert": "OK",
      "vis_m": 9999,
      "fzfg": false,
      "metar_trigger": false,
      "taf_trigger": false,
      "metar": "METAR LFMN 060800Z 17008KT 9999 FEW018 22/17 Q1016 NOSIG",
      "taf": "TAF LFMN 060200Z 0603/0709 32010KT 9999 BKN030"
    },
    {
      "icao": "LFOB",
      "alert": "OK",
      "vis_m": 9999,
      "fzfg": false,
      "metar_trigger": false,
      "taf_trigger": false,
      "metar": "METAR LFOB 060800Z AUTO 16006KT 9999 FEW046/// SCT052/// BKN062/// ///TCU 15/11 Q1012 TEMPO 19015G25KT 2000 RA SCT009 BKN012TCU OVC020",
      "taf": "TAF LFOB 060500Z 0606/0706 16010KT 9999 BKN040 OVC060"
    },
    {
      "icao": "LFPO",
      "alert": "OK",
      "vis_m": 9999,
      "fzfg": false,
      "metar_trigger": false,
      "taf_trigger": false,
      "metar": "METAR LFPO 060800Z 19010KT 150V210 CAVOK 17/09 Q1013 TEMPO 4000 -RA",
      "taf": "TAF LFPO 060500Z 0606/0712 16006KT CAVOK"
    },
    {
      "icao": "LFSB",
      "alert": "OK",
      "vis_m": 9999,
      "fzfg": false,
      "metar_trigger": false,
      "taf_trigger": false,
      "metar": "METAR LFSB 060800Z AUTO VRB02KT CAVOK 18/12 Q1017 NOSIG",
      "taf": "TAF LFSB 060500Z 0606/0706 VRB02KT CAVOK"
    },
    {
      "icao": "LGAV",
      "alert": "OK",
      "vis_m": 9999,
      "fzfg": false,
      "metar_trigger": false,
      "taf_trigger": false,
      "metar": "METAR LGAV 060750Z VRB06KT CAVOK 27/12 Q1016 NOSIG",
      "taf": "TAF LGAV 060500Z 0606/0706 VRB05KT 9999 FEW030"
    },
    {
      "icao": "LGTS",
      "alert": "OK",
      "vis_m": 9999,
      "fzfg": false,
      "metar_trigger": false,
      "taf_trigger": false,
      "metar": "METAR LGTS 060750Z 28006KT 9999 FEW020 24/19 Q1016 NOSIG",
      "taf": "TAF LGTS 060500Z 0606/0706 VRB03KT 9999 FEW030"
    },
    {
      "icao": "LHBP",
      "alert": "OK",
      "vis_m": 9999,
      "fzfg": false,
      "metar_trigger": false,
      "taf_trigger": false,
      "metar": "METAR LHBP 060800Z VRB03KT CAVOK 18/11 Q1017 NOSIG",
      "taf": "TAF LHBP 060515Z 0606/0706 31008KT CAVOK"
    },
    {
      "icao": "LHDC",
      "alert": "OK",
      "vis_m": 9999,
      "fzfg": false,
      "metar_trigger": false,
      "taf_trigger": false,
      "metar": "METAR LHDC 060745Z AUTO 05005KT 9999 -RA OVC092 //////TCU 16/13 Q1017 RERA NOSIG",
      "taf": "TAF LHDC 060515Z 0606/0615 VRB03KT CAVOK"
    },
    {
      "icao": "LIBD",
      "alert": "OK",
      "vis_m": 9999,
      "fzfg": false,
      "metar_trigger": false,
      "taf_trigger": false,
      "metar": "METAR LIBD 060750Z VRB04KT CAVOK 25/16 Q1015",
      "taf": "TAF LIBD 060500Z 0606/0706 VRB06KT CAVOK"
    },
    {
      "icao": "LIBG",
      "alert": "OK",
      "vis_m": 9999,
      "fzfg": false,
      "metar_trigger": false,
      "taf_trigger": false,
      "metar": "METAR LIBG 060750Z AUTO 17004KT 130V230 9999 NCD 26/18 Q1015",
      "taf": "TAF LIBG 060500Z 0606/0706 VRB05KT CAVOK"
    },
    {
      "icao": "LIBP",
      "alert": "OK",
      "vis_m": 9999,
      "fzfg": false,
      "metar_trigger": false,
      "taf_trigger": false,
      "metar": "METAR LIBP 060750Z AUTO 05003KT 330V100 9999 NCD 24/17 Q1015",
      "taf": "TAF LIBP 060500Z 0606/0706 VRB05KT 9999 SCT080"
    },
    {
      "icao": "LIBR",
      "alert": "OK",
      "vis_m": 9999,
      "fzfg": false,
      "metar_trigger": false,
      "taf_trigger": false,
      "metar": "METAR LIBR 060750Z 10007KT 080V140 CAVOK 24/19 Q1016",
      "taf": "TAF LIBR 060500Z 0606/0706 VRB05KT CAVOK"
    },
    {
      "icao": "LICA",
      "alert": "OK",
      "vis_m": 9999,
      "fzfg": false,
      "metar_trigger": false,
      "taf_trigger": false,
      "metar": "METAR LICA 060750Z AUTO 28006KT 240V340 9999 NCD 25/17 Q1016",
      "taf": "TAF LICA 060500Z 0606/0706 VRB04KT 9999 FEW020"
    },
    {
      "icao": "LICC",
      "alert": "OK",
      "vis_m": 9999,
      "fzfg": false,
      "metar_trigger": false,
      "taf_trigger": false,
      "metar": "METAR LICC 060750Z 08007KT CAVOK 27/21 Q1015",
      "taf": "TAF LICC 060500Z 0606/0706 VRB04KT CAVOK"
    },
    {
      "icao": "LICJ",
      "alert": "OK",
      "vis_m": 9999,
      "fzfg": false,
      "metar_trigger": false,
      "taf_trigger": false,
      "metar": "METAR LICJ 060750Z 01005KT CAVOK 24/19 Q1016",
      "taf": "TAF LICJ 060500Z 0606/0706 04008KT CAVOK"
    },
    {
      "icao": "LIMC",
      "alert": "OK",
      "vis_m": 9999,
      "fzfg": false,
      "metar_trigger": false,
      "taf_trigger": false,
      "metar": "METAR LIMC 060750Z 14007KT 100V170 9999 BKN015 19/15 Q1017 NOSIG",
      "taf": "TAF LIMC 060500Z 0606/0712 VRB05KT 9999 SCT030"
    },
    {
      "icao": "LIME",
      "alert": "OK",
      "vis_m": 9999,
      "fzfg": false,
      "metar_trigger": false,
      "taf_trigger": false,
      "metar": "METAR LIME 060750Z 23004KT 190V270 9999 SCT010 BKN040 18/16 Q1017 NOSIG",
      "taf": "TAF LIME 060500Z 0606/0706 VRB05KT 9999 SCT030"
    },
    {
      "icao": "LIMF",
      "alert": "OK",
      "vis_m": 9999,
      "fzfg": false,
      "metar_trigger": false,
      "taf_trigger": false,
      "metar": "METAR LIMF 060750Z 04005KT 010V070 9999 SCT015 BKN150 19/15 Q1016",
      "taf": "TAF LIMF 060500Z 0606/0706 VRB05KT 9999 SCT040"
    },
    {
      "icao": "LIMJ",
      "alert": "OK",
      "vis_m": 9999,
      "fzfg": false,
      "metar_trigger": false,
      "taf_trigger": false,
      "metar": "METAR LIMJ 060750Z 13006KT 9999 SCT030 20/15 Q1016",
      "taf": "TAF LIMJ 060500Z 0606/0706 05007KT 9999 SCT020"
    },
    {
      "icao": "LIPE",
      "alert": "OK",
      "vis_m": 9999,
      "fzfg": false,
      "metar_trigger": false,
      "taf_trigger": false,
      "metar": "METAR LIPE 060750Z 29005KT 250V350 9999 FEW020 21/15 Q1015",
      "taf": "TAF LIPE 060500Z 0606/0706 26006KT 9999 FEW010"
    },
    {
      "icao": "LIPH",
      "alert": "OK",
      "vis_m": 9999,
      "fzfg": false,
      "metar_trigger": false,
      "taf_trigger": false,
      "metar": "METAR LIPH 060750Z 06008KT 010V090 9999 SCT045 21/15 Q1016",
      "taf": "TAF LIPH 060500Z 0606/0706 05013KT 9999 FEW040"
    },
    {
      "icao": "LIPQ",
      "alert": "OK",
      "vis_m": 9999,
      "fzfg": false,
      "metar_trigger": false,
      "taf_trigger": false,
      "metar": "METAR LIPQ 060750Z AUTO VRB02KT 9999 FEW052/// SCT085/// BKN100/// 22/14 Q1016",
      "taf": "TAF LIPQ 060500Z 0606/0706 VRB06KT 9999 OVC030"
    },
    {
      "icao": "LIPR",
      "alert": "OK",
      "vis_m": 9999,
      "fzfg": false,
      "metar_trigger": false,
      "taf_trigger": false,
      "metar": "METAR LIPR 060750Z 02007KT 340V050 9999 FEW045 21/11 Q1015",
      "taf": "TAF LIPR 060500Z 0606/0706 VRB05KT 9999 BKN060"
    },
    {
      "icao": "LIPX",
      "alert": "OK",
      "vis_m": 9999,
      "fzfg": false,
      "metar_trigger": false,
      "taf_trigger": false,
      "metar": "METAR LIPX 060750Z 07007KT 9999 BKN030 21/13 Q1016",
      "taf": "TAF LIPX 060500Z 0606/0706 09010KT 9999 FEW040"
    },
    {
      "icao": "LIPY",
      "alert": "OK",
      "vis_m": 9999,
      "fzfg": false,
      "metar_trigger": false,
      "taf_trigger": false,
      "metar": "METAR LIPY 060750Z AUTO VRB03KT 9999 NCD 24/18 Q1015",
      "taf": "TAF LIPY 060500Z 0606/0706 19006KT 9999 BKN070"
    },
    {
      "icao": "LIPZ",
      "alert": "OK",
      "vis_m": 9999,
      "fzfg": false,
      "metar_trigger": false,
      "taf_trigger": false,
      "metar": "METAR LIPZ 060750Z 06008KT 9999 FEW040 21/15 Q1016 NOSIG",
      "taf": "TAF LIPZ 060500Z 0606/0712 04015KT 9999 FEW040"
    },
    {
      "icao": "LIRF",
      "alert": "OK",
      "vis_m": 9999,
      "fzfg": false,
      "metar_trigger": false,
      "taf_trigger": false,
      "metar": "METAR LIRF 060750Z 21005KT 150V300 9999 SCT025 24/17 Q1016 NOSIG",
      "taf": "TAF LIRF 060500Z 0606/0712 VRB04KT 9999 FEW020"
    },
    {
      "icao": "LIRN",
      "alert": "OK",
      "vis_m": 9999,
      "fzfg": false,
      "metar_trigger": false,
      "taf_trigger": false,
      "metar": "METAR LIRN 060750Z VRB03KT CAVOK 28/17 Q1016 NOSIG",
      "taf": "TAF LIRN 060500Z 0606/0706 VRB03KT 9999 FEW020"
    },
    {
      "icao": "LIRP",
      "alert": "OK",
      "vis_m": 9999,
      "fzfg": false,
      "metar_trigger": false,
      "taf_trigger": false,
      "metar": "METAR LIRP 060745Z VRB02KT CAVOK 20/13 Q1017 NOSIG",
      "taf": "TAF LIRP 060500Z 0606/0706 12003KT 9999 FEW050"
    },
    {
      "icao": "LIRZ",
      "alert": "OK",
      "vis_m": 9999,
      "fzfg": false,
      "metar_trigger": false,
      "taf_trigger": false,
      "metar": "METAR LIRZ 060750Z AUTO 09003KT 030V150 9999 NCD 22/15 Q1016",
      "taf": "TAF LIRZ 060500Z 0606/0706 VRB03KT 9999 FEW030"
    },
    {
      "icao": "LJLJ",
      "alert": "OK",
      "vis_m": 9999,
      "fzfg": false,
      "metar_trigger": false,
      "taf_trigger": false,
      "metar": "METAR LJLJ 060800Z 22001KT 9999 FEW010 BKN040 16/13 Q1019 NOSIG",
      "taf": "TAF LJLJ 060500Z 0606/0706 VRB02KT 9999 FEW003 BKN015 OVC040"
    },
    {
      "icao": "LKMT",
      "alert": "OK",
      "vis_m": 9999,
      "fzfg": false,
      "metar_trigger": false,
      "taf_trigger": false,
      "metar": "METAR LKMT 060800Z VRB03KT CAVOK 17/13 Q1019 NOSIG",
      "taf": "TAF LKMT 060500Z 0606/0706 VRB02KT 1400 BR BCFG BKN002"
    },
    {
      "icao": "LKPR",
      "alert": "OK",
      "vis_m": 9999,
      "fzfg": false,
      "metar_trigger": false,
      "taf_trigger": false,
      "metar": "METAR LKPR 060800Z 03004KT 350V110 9999 FEW010 16/14 Q1018 NOSIG",
      "taf": "TAF LKPR 060500Z 0606/0712 25004KT CAVOK"
    },
    {
      "icao": "LLBG",
      "alert": "OK",
      "vis_m": 9999,
      "fzfg": false,
      "metar_trigger": false,
      "taf_trigger": false,
      "metar": "METAR LLBG 060750Z 30010KT 270V330 CAVOK 28/11 Q1013 NOSIG",
      "taf": "TAF LLBG 060510Z 0606/0706 VRB04KT CAVOK TX33/0613Z TN19/0703Z"
    },
    {
      "icao": "LMML",
      "alert": "OK",
      "vis_m": 9999,
      "fzfg": false,
      "metar_trigger": false,
      "taf_trigger": false,
      "metar": "METAR LMML 060745Z 03009KT 9999 FEW010 25/20 Q1015 NOSIG",
      "taf": "TAF LMML 060500Z 0606/0706 VRB07KT CAVOK"
    },
    {
      "icao": "LOWW",
      "alert": "OK",
      "vis_m": 9999,
      "fzfg": false,
      "metar_trigger": false,
      "taf_trigger": false,
      "metar": "METAR LOWW 060750Z VRB02KT CAVOK 19/11 Q1018 NOSIG",
      "taf": "TAF LOWW 060515Z 0606/0712 VRB03KT CAVOK TX26/0712Z TN15/0606Z"
    },
    {
      "icao": "LPFR",
      "alert": "OK",
      "vis_m": 9999,
      "fzfg": false,
      "metar_trigger": false,
      "taf_trigger": false,
      "metar": "METAR LPFR 060800Z 35006KT 310V020 CAVOK 21/09 Q1018",
      "taf": "TAF LPFR 060500Z 0606/0706 VRB05KT CAVOK"
    },
    {
      "icao": "LPMA",
      "alert": "OK",
      "vis_m": 9999,
      "fzfg": false,
      "metar_trigger": false,
      "taf_trigger": false,
      "metar": "METAR LPMA 060800Z 17004KT 130V210 9999 FEW014 20/16 Q1022",
      "taf": "TAF LPMA 060500Z 0606/0706 01010KT 9999 SCT014"
    },
    {
      "icao": "LPPR",
      "alert": "OK",
      "vis_m": 6000,
      "fzfg": false,
      "metar_trigger": false,
      "taf_trigger": false,
      "metar": "METAR LPPR 060800Z 01005KT 340V040 6000 -DZ BKN004 BKN007 15/14 Q1020",
      "taf": "TAF LPPR 060500Z 0606/0706 VRB02KT 3000 -RADZ BR SCT002 BKN004"
    },
    {
      "icao": "LPPS",
      "alert": "OK",
      "vis_m": 9999,
      "fzfg": false,
      "metar_trigger": false,
      "taf_trigger": false,
      "metar": "METAR LPPS 060800Z 34011KT 9999 SCT012 BKN030 20/17 Q1022",
      "taf": "TAF LPPS 060500Z 0606/0712 35012KT 9999 SCT012 SCT025"
    },
    {
      "icao": "LPPT",
      "alert": "OK",
      "vis_m": 9999,
      "fzfg": false,
      "metar_trigger": false,
      "taf_trigger": false,
      "metar": "METAR LPPT 060800Z 34003KT 270V060 9999 FEW012 BKN018 19/15 Q1019",
      "taf": "TAF LPPT 060500Z 0606/0712 30007KT 9999 SCT025"
    },
    {
      "icao": "LQBK",
      "alert": "OK",
      "vis_m": 9999,
      "fzfg": false,
      "metar_trigger": false,
      "taf_trigger": false,
      "metar": "METAR LQBK 060800Z VRB02KT 9999 BKN010 OVC027 16/13 Q1019 NOSIG",
      "taf": "TAF LQBK 060500Z 0606/0706 04005KT 9999 SCT040 TX23/0613Z TN15/0703Z"
    },
    {
      "icao": "LQSA",
      "alert": "OK",
      "vis_m": 9999,
      "fzfg": false,
      "metar_trigger": false,
      "taf_trigger": false,
      "metar": "METAR LQSA 060800Z VRB04KT 9999 SCT025 20/15 Q1018 NOSIG",
      "taf": "TAF LQSA 060500Z 0606/0706 27006KT 9999 SCT050 TX26/0613Z TN15/0703Z"
    },
    {
      "icao": "LQTZ",
      "alert": "OK",
      "vis_m": 9999,
      "fzfg": false,
      "metar_trigger": false,
      "taf_trigger": false,
      "metar": "METAR LQTZ 060800Z 12006KT 9999 BKN035 18/14 Q1019",
      "taf": "TAF LQTZ 060500Z 0606/0706 27005KT 9999 BKN040 TX25/0613Z TN14/0703Z"
    },
    {
      "icao": "LRBC",
      "alert": "OK",
      "vis_m": 9999,
      "fzfg": false,
      "metar_trigger": false,
      "taf_trigger": false,
      "metar": "METAR LRBC 060800Z 32003KT 240V040 9999 SCT017 24/19 Q1016",
      "taf": "TAF LRBC 060500Z 0606/0615 VRB04KT 5000 BR BKN005"
    },
    {
      "icao": "LRBS",
      "alert": "OK",
      "vis_m": 9999,
      "fzfg": false,
      "metar_trigger": false,
      "taf_trigger": false,
      "metar": "METAR LRBS 060800Z VRB02KT 9999 SCT035 27/18 Q1015 NOSIG",
      "taf": "TAF LRBS 060500Z 0606/0706 VRB04KT CAVOK"
    },
    {
      "icao": "LRBV",
      "alert": "OK",
      "vis_m": 9999,
      "fzfg": false,
      "metar_trigger": false,
      "taf_trigger": false,
      "metar": "METAR LRBV 060800Z VRB02KT 9999 FEW019 FEW030TCU SCT074 22/16 Q1018",
      "taf": "TAF LRBV 060500Z 0606/0615 20007KT 9999 SCT040 BKN060"
    },
    {
      "icao": "LRCL",
      "alert": "OK",
      "vis_m": 9999,
      "fzfg": false,
      "metar_trigger": false,
      "taf_trigger": false,
      "metar": "METAR LRCL 060800Z 02004KT 330V110 9999 SCT051 24/16 Q1017",
      "taf": "TAF LRCL 060500Z 0606/0615 VRB04KT 9999 SCT045"
    },
    {
      "icao": "LRCV",
      "alert": "OK",
      "vis_m": 9999,
      "fzfg": false,
      "metar_trigger": false,
      "taf_trigger": false,
      "metar": "METAR LRCV 060800Z VRB02KT 9999 SCT030 26/17 Q1016",
      "taf": "TAF LRCV 060500Z 0606/0615 VRB04KT CAVOK"
    },
    {
      "icao": "LRIA",
      "alert": "OK",
      "vis_m": 9999,
      "fzfg": false,
      "metar_trigger": false,
      "taf_trigger": false,
      "metar": "METAR LRIA 060800Z 11003KT 060V170 9999 OVC018 22/17 Q1016",
      "taf": ""
    },
    {
      "icao": "LROP",
      "alert": "OK",
      "vis_m": 9999,
      "fzfg": false,
      "metar_trigger": false,
      "taf_trigger": false,
      "metar": "METAR LROP 060800Z VRB02KT CAVOK 27/19 Q1015 NOSIG",
      "taf": "TAF LROP 060500Z 0606/0706 VRB04KT CAVOK"
    },
    {
      "icao": "LRSB",
      "alert": "OK",
      "vis_m": 9999,
      "fzfg": false,
      "metar_trigger": false,
      "taf_trigger": false,
      "metar": "METAR LRSB 060800Z 32006KT 290V010 9999 FEW042TCU 24/17 Q1017",
      "taf": "TAF LRSB 060500Z 0606/0706 VRB04KT 9999 SCT045 BKN070"
    },
    {
      "icao": "LRSM",
      "alert": "OK",
      "vis_m": 9999,
      "fzfg": false,
      "metar_trigger": false,
      "taf_trigger": false,
      "metar": "METAR LRSM 060800Z 28004KT 250V310 9999 FEW010 20/15 Q1017",
      "taf": ""
    },
    {
      "icao": "LRSV",
      "alert": "OK",
      "vis_m": 4000,
      "fzfg": false,
      "metar_trigger": false,
      "taf_trigger": false,
      "metar": "METAR LRSV 060800Z 31014KT 4000 BR OVC004 17/16 Q1017",
      "taf": ""
    },
    {
      "icao": "LRTM",
      "alert": "OK",
      "vis_m": 9999,
      "fzfg": false,
      "metar_trigger": false,
      "taf_trigger": false,
      "metar": "METAR LRTM 060800Z 31003KT 240V350 9999 SCT048 23/18 Q1017",
      "taf": "TAF LRTM 060500Z 0606/0615 VRB04KT 9999 SCT045"
    },
    {
      "icao": "LRTR",
      "alert": "OK",
      "vis_m": 9999,
      "fzfg": false,
      "metar_trigger": false,
      "taf_trigger": false,
      "metar": "METAR LRTR 060800Z 30004KT 270V330 9999 FEW047 18/15 Q1018 NOSIG",
      "taf": "TAF LRTR 060500Z 0606/0706 33010KT CAVOK"
    },
    {
      "icao": "LTAC",
      "alert": "OK",
      "vis_m": 9999,
      "fzfg": false,
      "metar_trigger": false,
      "taf_trigger": false,
      "metar": "METAR LTAC 060750Z 07008KT 020V110 9999 FEW040 SCT100 25/10 Q1017 NOSIG RMK RWY21C 03010KT RWY03L 04008KT 010V080 RWY21R 03010KT RWY03R VRB06KT RWY21L 06007KT 010V100",
      "taf": "TAF LTAC 060440Z 0606/0706 VRB02KT 9999 SCT040 SCT100"
    },
    {
      "icao": "LTFM",
      "alert": "OK",
      "vis_m": 9999,
      "fzfg": false,
      "metar_trigger": false,
      "taf_trigger": false,
      "metar": "METAR LTFM 060750Z 03009KT 360V060 9999 SCT014 20/16 Q1017 NOSIG RMK RWY17L 01009KT 340V040 RWY34L 03008KT 350V050 RWY16R 02008KT 340V040 RWY36 04008KT RWY18 04008KT",
      "taf": "TAF LTFM 060440Z 0606/0712 03012KT 9999 BKN009"
    },
    {
      "icao": "LUKK",
      "alert": "OK",
      "vis_m": 9999,
      "fzfg": false,
      "metar_trigger": false,
      "taf_trigger": false,
      "metar": "METAR LUKK 060800Z 17007KT 110V220 9999 SCT038 25/18 Q1016 NOSIG",
      "taf": "TAF LUKK 060507Z 0606/0706 VRB06KT CAVOK"
    },
    {
      "icao": "LWOH",
      "alert": "OK",
      "vis_m": 9999,
      "fzfg": false,
      "metar_trigger": false,
      "taf_trigger": false,
      "metar": "METAR LWOH 060750Z 16006KT 9999 FEW040 20/15 Q1019",
      "taf": "TAF LWOH 060515Z 0606/0706 VRB02KT 9999 FEW040"
    },
    {
      "icao": "LWSK",
      "alert": "OK",
      "vis_m": 9999,
      "fzfg": false,
      "metar_trigger": false,
      "taf_trigger": false,
      "metar": "METAR LWSK 060750Z VRB03KT CAVOK 25/17 Q1017 NOSIG",
      "taf": "TAF LWSK 060515Z 0606/0706 VRB02KT CAVOK"
    },
    {
      "icao": "LYBE",
      "alert": "OK",
      "vis_m": 9999,
      "fzfg": false,
      "metar_trigger": false,
      "taf_trigger": false,
      "metar": "METAR LYBE 060800Z VRB02KT 9999 FEW013 SCT040 15/14 Q1019 NOSIG",
      "taf": "TAF LYBE 060500Z 0606/0706 32007KT 9999 SCT040 TX25/0613Z TN15/0704Z"
    },
    {
      "icao": "LYNI",
      "alert": "OK",
      "vis_m": 9999,
      "fzfg": false,
      "metar_trigger": false,
      "taf_trigger": false,
      "metar": "METAR LYNI 060800Z 34012KT 290V020 9999 FEW033 SCT070 22/17 Q1017 NOSIG",
      "taf": "TAF LYNI 060500Z 0606/0706 32012KT 9999 SCT040 SCT080 TX27/0614Z TN14/0704Z"
    },
    {
      "icao": "LYPG",
      "alert": "OK",
      "vis_m": 9999,
      "fzfg": false,
      "metar_trigger": false,
      "taf_trigger": false,
      "metar": "METAR LYPG 060800Z VRB03KT CAVOK 25/14 Q1016 NOSIG",
      "taf": "TAF LYPG 060500Z 0606/0706 16005KT 9999 FEW040 TX29/0614Z TN19/0703Z"
    },
    {
      "icao": "LZIB",
      "alert": "OK",
      "vis_m": 9999,
      "fzfg": false,
      "metar_trigger": false,
      "taf_trigger": false,
      "metar": "METAR LZIB 060800Z VRB04KT 9999 FEW037 21/11 Q1017 NOSIG",
      "taf": "TAF LZIB 060515Z 0606/0706 VRB02KT 9999 FEW030"
    },
    {
      "icao": "LZKZ",
      "alert": "OK",
      "vis_m": 9999,
      "fzfg": false,
      "metar_trigger": false,
      "taf_trigger": false,
      "metar": "METAR LZKZ 060800Z 01014KT CAVOK 17/10 Q1018 NOSIG",
      "taf": ""
    },
    {
      "icao": "LZTT",
      "alert": "OK",
      "vis_m": 9999,
      "fzfg": false,
      "metar_trigger": false,
      "taf_trigger": false,
      "metar": "METAR LZTT 060800Z 06010KT 030V090 9999 FEW023 15/07 Q1019 NOSIG",
      "taf": "TAF LZTT 060515Z 0606/0706 VRB02KT 9999 FEW020 SCT045"
    },
    {
      "icao": "OEJN",
      "alert": "OK",
      "vis_m": 9999,
      "fzfg": false,
      "metar_trigger": false,
      "taf_trigger": false,
      "metar": "METAR OEJN 060800Z 32010KT CAVOK 36/21 Q1008 NOSIG",
      "taf": "TAF OEJN 060500Z 0606/0712 30016KT CAVOK"
    },
    {
      "icao": "OEMA",
      "alert": "OK",
      "vis_m": 9999,
      "fzfg": false,
      "metar_trigger": false,
      "taf_trigger": false,
      "metar": "METAR OEMA 060800Z VRB02KT CAVOK 39/M03 Q1014 NOSIG",
      "taf": "TAF OEMA 060500Z 0606/0712 28016KT CAVOK"
    },
    {
      "icao": "OJAI",
      "alert": "OK",
      "vis_m": 5000,
      "fzfg": false,
      "metar_trigger": false,
      "taf_trigger": false,
      "metar": "METAR OJAI 060700Z 26006KT 5000 HZ NSC 25/01 Q1016 NOSIG",
      "taf": "TAF OJAI 060431Z 0606/0712 30012KT 5000 HZ NSC"
    },
    {
      "icao": "OMAA",
      "alert": "OK",
      "vis_m": 9999,
      "fzfg": false,
      "metar_trigger": false,
      "taf_trigger": false,
      "metar": "METAR OMAA 060800Z 27012KT CAVOK 37/17 Q1002 NOSIG",
      "taf": "TAF OMAA 060500Z 0606/0712 29013KT 8000 NSC"
    },
    {
      "icao": "OMDB",
      "alert": "OK",
      "vis_m": 9999,
      "fzfg": false,
      "metar_trigger": false,
      "taf_trigger": false,
      "metar": "METAR OMDB 060800Z 24006KT 160V290 CAVOK 40/20 Q1000 NOSIG",
      "taf": "TAF OMDB 060500Z 0606/0712 22008KT 8000 NSC"
    },
    {
      "icao": "UAAA",
      "alert": "OK",
      "vis_m": 9999,
      "fzfg": false,
      "metar_trigger": false,
      "taf_trigger": false,
      "metar": "METAR UAAA 060800Z 16002MPS 140V200 9999 SCT050CB OVC100 24/13 Q1016 NOSIG",
      "taf": "TAF UAAA 060502Z 0606/0706 16003MPS 9999 BKN050CB OVC100 TX22/0609Z TN16/0701Z"
    },
    {
      "icao": "UBBB",
      "alert": "OK",
      "vis_m": 9999,
      "fzfg": false,
      "metar_trigger": false,
      "taf_trigger": false,
      "metar": "METAR UBBB 060800Z 18012KT CAVOK 26/07 Q1014 NOSIG",
      "taf": "TAF UBBB 060503Z 0606/0706 19012KT CAVOK TX27/0610Z TN16/0701Z"
    },
    {
      "icao": "UDSG",
      "alert": "OK",
      "vis_m": 9999,
      "fzfg": false,
      "metar_trigger": false,
      "taf_trigger": false,
      "metar": "METAR UDSG 060800Z 20002KT 9999 VCTS SCT049CB 21/10 Q1019 TEMPO -TSRA",
      "taf": "TAF UDSG 060500Z 0606/0706 24006KT 9999 SCT050"
    },
    {
      "icao": "UDYZ",
      "alert": "OK",
      "vis_m": 9999,
      "fzfg": false,
      "metar_trigger": false,
      "taf_trigger": false,
      "metar": "METAR UDYZ 060800Z 19007KT 150V230 9999 FEW046TCU 27/11 Q1014 NOSIG",
      "taf": "TAF UDYZ 060500Z 0606/0706 24006KT 9999 FEW040"
    },
    {
      "icao": "UGKO",
      "alert": "OK",
      "vis_m": 9999,
      "fzfg": false,
      "metar_trigger": false,
      "taf_trigger": false,
      "metar": "METAR UGKO 060800Z 25005KT 180V350 CAVOK 26/16 Q1013 BECMG 25010KT",
      "taf": "TAF UGKO 060500Z 0606/0706 26007KT CAVOK TX29/0611Z TN15/0702Z"
    }
  ]
}