{
  "ts_utc": "2026-01-05T12:34:44Z",
  "threshold_m": 150,
  "source": "stations_override.txt (ICAO list) + aviationweather.gov (METAR/TAF raw)",
  "station_count": 159,
  "stations": [
    {
      "icao": "BIKF",
      "alert": "OK",
      "vis_m": 9999,
      "fzfg": false,
      "metar_trigger": false,
      "taf_trigger": false,
      "metar": "METAR BIKF 051230Z 03008KT 9999 BKN015 M02/M03 Q1018",
      "taf": "TAF BIKF 051025Z 0512/0612 10006KT 9999 SCT010 TX00/0512Z TNM07/0610Z"
    },
    {
      "icao": "BKPR",
      "alert": "OK",
      "vis_m": 9999,
      "fzfg": false,
      "metar_trigger": false,
      "taf_trigger": false,
      "metar": "METAR BKPR 051230Z 18004KT 120V210 9999 SCT060 10/07 Q1009 NOSIG",
      "taf": ""
    },
    {
      "icao": "EBCI",
      "alert": "OK",
      "vis_m": 2000,
      "fzfg": false,
      "metar_trigger": false,
      "taf_trigger": false,
      "metar": "METAR EBCI 051220Z 20012KT 2000 R24/1200U -SN SCT004 BKN006 M03/M04 Q1011 TEMPO 2000 -SHSN BR BKN004",
      "taf": "TAF EBCI 051116Z 0512/0618 22009KT 9999 SCT005 BKN011"
    },
    {
      "icao": "EDDB",
      "alert": "OK",
      "vis_m": 9999,
      "fzfg": false,
      "metar_trigger": false,
      "taf_trigger": false,
      "metar": "METAR EDDB 051220Z AUTO 20008KT CAVOK M00/M05 Q1012 NOSIG",
      "taf": "TAF EDDB 051100Z 0512/0612 19006KT 9999 SCT045"
    },
    {
      "icao": "EDDH",
      "alert": "OK",
      "vis_m": 7000,
      "fzfg": false,
      "metar_trigger": false,
      "taf_trigger": false,
      "metar": "METAR EDDH 051220Z AUTO 18009KT 7000 -SHSN BKN013 BKN035 BKN045 FEW///CB M01/M03 Q1009 NOSIG",
      "taf": "TAF EDDH 051100Z 0512/0618 19009KT 9999 BKN015"
    },
    {
      "icao": "EDDK",
      "alert": "OK",
      "vis_m": 9999,
      "fzfg": false,
      "metar_trigger": false,
      "taf_trigger": false,
      "metar": "METAR EDDK 051220Z AUTO 15011KT 9999 -SHSN SCT041 FEW///CB M00/M05 Q1012 TEMPO 3000 SHSN",
      "taf": "TAF EDDK 051100Z 0512/0618 16005KT 9999 BKN035"
    },
    {
      "icao": "EDDN",
      "alert": "OK",
      "vis_m": 9999,
      "fzfg": false,
      "metar_trigger": false,
      "taf_trigger": false,
      "metar": "METAR EDDN 051220Z AUTO 24006KT 9999 FEW028 SCT035 M03/M09 Q1013 NOSIG",
      "taf": "TAF EDDN 051100Z 0512/0612 24005KT 9999 SCT035"
    },
    {
      "icao": "EDDS",
      "alert": "OK",
      "vis_m": 9999,
      "fzfg": false,
      "metar_trigger": false,
      "taf_trigger": false,
      "metar": "METAR EDDS 051220Z AUTO 20003KT 150V250 CAVOK M01/M09 Q1012 NOSIG",
      "taf": "TAF EDDS 051100Z 0512/0612 19003KT CAVOK"
    },
    {
      "icao": "EDFH",
      "alert": "OK",
      "vis_m": 9999,
      "fzfg": false,
      "metar_trigger": false,
      "taf_trigger": false,
      "metar": "METAR EDFH 051220Z 25007KT 210V270 9999 BKN007 M05/M06 Q1010",
      "taf": "TAF EDFH 051100Z 0512/0612 26010KT 9999 BKN005"
    },
    {
      "icao": "EDJA",
      "alert": "OK",
      "vis_m": 9999,
      "fzfg": false,
      "metar_trigger": false,
      "taf_trigger": false,
      "metar": "METAR EDJA 051220Z 20004KT 9999 FEW022 BKN029 M04/M08 Q1011",
      "taf": "TAF EDJA 051100Z 0512/0521 22003KT 9999 OVC030"
    },
    {
      "icao": "EDLW",
      "alert": "OK",
      "vis_m": 9999,
      "fzfg": false,
      "metar_trigger": false,
      "taf_trigger": false,
      "metar": "METAR EDLW 051220Z COR 19011KT 9999 FEW028 M01/M06 Q1010",
      "taf": "TAF EDLW 051100Z 0512/0612 19009KT 9999 SCT020"
    },
    {
      "icao": "EDNY",
      "alert": "OK",
      "vis_m": 9999,
      "fzfg": false,
      "metar_trigger": false,
      "taf_trigger": false,
      "metar": "METAR EDNY 051220Z 13003KT 9999 OVC033 M03/M08 Q1013",
      "taf": "TAF EDNY 051100Z 0512/0521 03003KT 9999 OVC030"
    },
    {
      "icao": "EDSB",
      "alert": "OK",
      "vis_m": 9999,
      "fzfg": false,
      "metar_trigger": false,
      "taf_trigger": false,
      "metar": "METAR EDSB 051220Z VRB02KT CAVOK M03/M05 Q1015",
      "taf": ""
    },
    {
      "icao": "EETN",
      "alert": "OK",
      "vis_m": 9999,
      "fzfg": false,
      "metar_trigger": false,
      "taf_trigger": false,
      "metar": "METAR EETN 051220Z 18003KT CAVOK M09/M11 Q1016 NOSIG",
      "taf": "TAF EETN 051130Z 0512/0612 17005KT CAVOK"
    },
    {
      "icao": "EFTU",
      "alert": "OK",
      "vis_m": 9999,
      "fzfg": false,
      "metar_trigger": false,
      "taf_trigger": false,
      "metar": "METAR EFTU 051220Z AUTO 26002KT CAVOK M15/M18 Q1015",
      "taf": "TAF EFTU 051130Z 0512/0612 VRB02KT CAVOK"
    },
    {
      "icao": "EGBB",
      "alert": "OK",
      "vis_m": 9999,
      "fzfg": false,
      "metar_trigger": false,
      "taf_trigger": false,
      "metar": "METAR EGBB 051220Z 33012KT CAVOK M00/M05 Q1014",
      "taf": "TAF EGBB 051059Z 0512/0612 31008KT 9999 FEW025"
    },
    {
      "icao": "EGGP",
      "alert": "OK",
      "vis_m": 9999,
      "fzfg": false,
      "metar_trigger": false,
      "taf_trigger": false,
      "metar": "METAR EGGP 051220Z 35005KT CAVOK 01/M04 Q1016",
      "taf": "TAF EGGP 051053Z 0512/0612 31005KT 9999 FEW030"
    },
    {
      "icao": "EGGW",
      "alert": "OK",
      "vis_m": 9999,
      "fzfg": false,
      "metar_trigger": false,
      "taf_trigger": false,
      "metar": "METAR EGGW 051220Z AUTO 31012KT 9999 NCD 00/M05 Q1012",
      "taf": "TAF EGGW 051100Z 0512/0612 31009KT 9999 FEW030"
    },
    {
      "icao": "EGKK",
      "alert": "OK",
      "vis_m": 9999,
      "fzfg": false,
      "metar_trigger": false,
      "taf_trigger": false,
      "metar": "METAR EGKK 051220Z 32010KT CAVOK 01/M04 Q1013",
      "taf": "TAF EGKK 051053Z 0512/0618 32006KT 9999 FEW035"
    },
    {
      "icao": "EGNM",
      "alert": "OK",
      "vis_m": 9999,
      "fzfg": false,
      "metar_trigger": false,
      "taf_trigger": false,
      "metar": "METAR EGNM 051220Z 32009KT 9999 FEW023 00/M04 Q1013",
      "taf": "TAF EGNM 051101Z 0512/0612 31012KT 9999 FEW020"
    },
    {
      "icao": "EGPD",
      "alert": "OK",
      "vis_m": 500,
      "fzfg": false,
      "metar_trigger": false,
      "taf_trigger": false,
      "metar": "METAR EGPD 051220Z 32009KT 0500 R34/0400N SN VV/// M00/M01 Q1014 RESN TEMPO 4000 SHSN",
      "taf": "TAF EGPD 051054Z 0512/0612 30010KT 9999 FEW012"
    },
    {
      "icao": "EGPF",
      "alert": "OK",
      "vis_m": 9999,
      "fzfg": false,
      "metar_trigger": false,
      "taf_trigger": false,
      "metar": "METAR EGPF 051220Z AUTO 26004KT 9999 NCD 02/M02 Q1016",
      "taf": "TAF EGPF 051056Z 0512/0612 28005KT CAVOK"
    },
    {
      "icao": "EHBK",
      "alert": "OK",
      "vis_m": 9999,
      "fzfg": false,
      "metar_trigger": false,
      "taf_trigger": false,
      "metar": "METAR EHBK 051225Z AUTO 21014KT 9999 OVC014/// M00/M03 Q1010 NOSIG",
      "taf": "TAF EHBK 051119Z 0512/0618 21012KT 9999 BKN025"
    },
    {
      "icao": "EHEH",
      "alert": "OK",
      "vis_m": 5000,
      "fzfg": false,
      "metar_trigger": false,
      "taf_trigger": false,
      "metar": "METAR EHEH 051225Z AUTO 21011KT 5000 R21/2200D -SN SCT009 OVC010 M00/M02 Q1010 GRN TEMPO 0600 SHSN SCT003 BKN005 FEW015CB RMK TREND REMOTE BY EHWX",
      "taf": "TAF EHEH 051121Z 0512/0618 21008KT 9999 BKN012"
    },
    {
      "icao": "EKBI",
      "alert": "OK",
      "vis_m": 9999,
      "fzfg": false,
      "metar_trigger": false,
      "taf_trigger": false,
      "metar": "METAR EKBI 051220Z AUTO 05006KT 350V070 9999 -FZRA OVC007/// M02/M02 Q1007",
      "taf": "TAF EKBI 051127Z 0512/0612 05008KT 9999 BKN008"
    },
    {
      "icao": "EKCH",
      "alert": "OK",
      "vis_m": 9999,
      "fzfg": false,
      "metar_trigger": false,
      "taf_trigger": false,
      "metar": "METAR EKCH 051220Z 00000KT 9999 FEW013 BKN054 M01/M02 Q1009 TEMPO 1200 SHSN BKN006 SCT020CB",
      "taf": "TAF EKCH 051127Z 0512/0612 12010KT 9999 BKN030"
    },
    {
      "icao": "ENAL",
      "alert": "OK",
      "vis_m": 9999,
      "fzfg": false,
      "metar_trigger": false,
      "taf_trigger": false,
      "metar": "METAR ENAL 051220Z 14010KT CAVOK M03/M11 Q1011",
      "taf": "TAF ENAL 051100Z 0512/0521 14012KT CAVOK"
    },
    {
      "icao": "ENBR",
      "alert": "OK",
      "vis_m": 9999,
      "fzfg": false,
      "metar_trigger": false,
      "taf_trigger": false,
      "metar": "METAR ENBR 051220Z 11005KT 9999 VCSH FEW032 SCT043 BKN053 M05/M12 Q1010 NOSIG RMK WIND 1200FT 12017KT",
      "taf": "TAF ENBR 051100Z 0512/0612 10008KT 9999 FEW040"
    },
    {
      "icao": "ENGM",
      "alert": "OK",
      "vis_m": 3300,
      "fzfg": false,
      "metar_trigger": false,
      "taf_trigger": false,
      "metar": "METAR ENGM 051220Z 04005KT 3300 -SN BR FEW035 BKN043 M09/M12 Q1013 TEMPO 5000",
      "taf": "TAF ENGM 051100Z 0512/0612 02005KT 8000 -SN BKN025"
    },
    {
      "icao": "ENHD",
      "alert": "OK",
      "vis_m": 9999,
      "fzfg": false,
      "metar_trigger": false,
      "taf_trigger": false,
      "metar": "METAR ENHD 051220Z 11012KT 9999 VCSH FEW011 M03/M05 Q1009",
      "taf": "TAF ENHD 051100Z 0512/0521 12012KT 9999 FEW015CB BKN030"
    },
    {
      "icao": "ENTC",
      "alert": "OK",
      "vis_m": 9999,
      "fzfg": false,
      "metar_trigger": false,
      "taf_trigger": false,
      "metar": "METAR ENTC 051220Z 02009KT 9999 BKN035 M07/M11 Q1008 NOSIG RMK WIND 2600FT 09009KT",
      "taf": "TAF ENTC 051100Z 0512/0612 04010KT 9999 FEW020 SCT035"
    },
    {
      "icao": "ENTO",
      "alert": "OK",
      "vis_m": 3300,
      "fzfg": false,
      "metar_trigger": false,
      "taf_trigger": false,
      "metar": "METAR ENTO 051220Z 36007KT 3300 -SN FEW003 SCT014 BKN016 M07/M08 Q1013 TEMPO 6000 BKN014",
      "taf": "TAF ENTO 051100Z 0512/0612 02008KT 9999 BKN025"
    },
    {
      "icao": "ENVA",
      "alert": "OK",
      "vis_m": 9999,
      "fzfg": false,
      "metar_trigger": false,
      "taf_trigger": false,
      "metar": "METAR ENVA 051220Z 09006KT CAVOK M16/M18 Q1013 NOSIG RMK WIND 670FT 15016KT",
      "taf": "TAF ENVA 051100Z 0512/0612 11008KT CAVOK"
    },
    {
      "icao": "ENZV",
      "alert": "OK",
      "vis_m": 9999,
      "fzfg": false,
      "metar_trigger": false,
      "taf_trigger": false,
      "metar": "METAR ENZV 051220Z 12007KT 9999 FEW028 BKN033 M02/M08 Q1010 NOSIG",
      "taf": "TAF ENZV 051100Z 0512/0612 12008KT 9999 FEW020 BKN040"
    },
    {
      "icao": "EPGD",
      "alert": "OK",
      "vis_m": 9000,
      "fzfg": false,
      "metar_trigger": false,
      "taf_trigger": false,
      "metar": "METAR EPGD 051230Z 23005KT 9000 OVC002 M04/M05 Q1013",
      "taf": "TAF EPGD 051130Z 0512/0612 20007KT CAVOK"
    },
    {
      "icao": "EPKK",
      "alert": "OK",
      "vis_m": 9999,
      "fzfg": false,
      "metar_trigger": false,
      "taf_trigger": false,
      "metar": "METAR EPKK 051230Z 08006KT CAVOK M01/M08 Q1014",
      "taf": "TAF EPKK 051130Z 0512/0612 06006KT CAVOK"
    },
    {
      "icao": "EPKT",
      "alert": "OK",
      "vis_m": 9999,
      "fzfg": false,
      "metar_trigger": false,
      "taf_trigger": false,
      "metar": "METAR EPKT 051230Z 16002KT CAVOK M01/M08 Q1013",
      "taf": "TAF EPKT 051130Z 0512/0612 VRB02KT CAVOK"
    },
    {
      "icao": "EPLB",
      "alert": "OK",
      "vis_m": 9999,
      "fzfg": false,
      "metar_trigger": false,
      "taf_trigger": false,
      "metar": "METAR EPLB 051230Z 09003KT CAVOK M03/M07 Q1016",
      "taf": "TAF EPLB 051130Z 0512/0612 18010KT CAVOK"
    },
    {
      "icao": "EPMO",
      "alert": "OK",
      "vis_m": 9999,
      "fzfg": false,
      "metar_trigger": false,
      "taf_trigger": false,
      "metar": "METAR EPMO 051230Z VRB02KT CAVOK M01/M06 Q1015",
      "taf": "TAF EPMO 051130Z 0512/0612 14005KT CAVOK"
    },
    {
      "icao": "EPPO",
      "alert": "OK",
      "vis_m": 9999,
      "fzfg": false,
      "metar_trigger": false,
      "taf_trigger": false,
      "metar": "METAR EPPO 051230Z 20005KT 9999 -SN NSC M00/M05 Q1014",
      "taf": "TAF EPPO 051130Z 0512/0612 20006KT CAVOK"
    },
    {
      "icao": "EPRA",
      "alert": "OK",
      "vis_m": 9999,
      "fzfg": false,
      "metar_trigger": false,
      "taf_trigger": false,
      "metar": "METAR EPRA 051230Z 14005KT CAVOK M02/M08 Q1015",
      "taf": "TAF EPRA 051130Z 0512/0521 14008KT CAVOK"
    },
    {
      "icao": "EPRZ",
      "alert": "OK",
      "vis_m": 9999,
      "fzfg": false,
      "metar_trigger": false,
      "taf_trigger": false,
      "metar": "METAR EPRZ 051230Z 09010KT CAVOK M01/M07 Q1015",
      "taf": "TAF EPRZ 051130Z 0512/0612 06006KT CAVOK"
    },
    {
      "icao": "EPSC",
      "alert": "OK",
      "vis_m": 9999,
      "fzfg": false,
      "metar_trigger": false,
      "taf_trigger": false,
      "metar": "METAR EPSC 051230Z 16005KT 9999 FEW028 BKN038 M00/M02 Q1012",
      "taf": "TAF EPSC 051130Z 0512/0612 16007KT 9999 BKN025"
    },
    {
      "icao": "EPSY",
      "alert": "OK",
      "vis_m": 9999,
      "fzfg": false,
      "metar_trigger": false,
      "taf_trigger": false,
      "metar": "METAR EPSY 051230Z 21006KT 9999 BKN006 M02/M04 Q1015",
      "taf": "TAF EPSY 051130Z 0512/0521 20008KT 7000 SCT010"
    },
    {
      "icao": "EPWA",
      "alert": "OK",
      "vis_m": 9999,
      "fzfg": false,
      "metar_trigger": false,
      "taf_trigger": false,
      "metar": "METAR EPWA 051230Z 15005KT CAVOK M03/M07 Q1016 NOSIG",
      "taf": "TAF EPWA 051130Z 0512/0612 14005KT CAVOK"
    },
    {
      "icao": "EPWR",
      "alert": "OK",
      "vis_m": 9999,
      "fzfg": false,
      "metar_trigger": false,
      "taf_trigger": false,
      "metar": "METAR EPWR 051230Z 10003KT CAVOK M01/M06 Q1014",
      "taf": "TAF EPWR 051130Z 0512/0612 12005KT CAVOK"
    },
    {
      "icao": "ESGG",
      "alert": "OK",
      "vis_m": 9999,
      "fzfg": false,
      "metar_trigger": false,
      "taf_trigger": false,
      "metar": "METAR ESGG 051220Z 09005KT 060V120 9999 SCT016 BKN022 OVC030 M05/M07 Q1010",
      "taf": "TAF ESGG 051130Z 0512/0612 09006KT 9999 -SN FEW015 BKN040"
    },
    {
      "icao": "ESKN",
      "alert": "OK",
      "vis_m": 9999,
      "fzfg": false,
      "metar_trigger": false,
      "taf_trigger": false,
      "metar": "METAR ESKN 051220Z 04008KT 9999 SCT032 M05/M08 Q1013",
      "taf": "TAF ESKN 051130Z 0512/0612 06009KT 9999 BKN035"
    },
    {
      "icao": "ESMS",
      "alert": "OK",
      "vis_m": 9999,
      "fzfg": false,
      "metar_trigger": false,
      "taf_trigger": false,
      "metar": "METAR ESMS 051220Z 17005KT 9999 SCT013 BKN031 M00/M01 Q1009",
      "taf": "TAF ESMS 051127Z 0512/0612 10004KT 9999 BKN030"
    },
    {
      "icao": "ESSA",
      "alert": "OK",
      "vis_m": 9999,
      "fzfg": false,
      "metar_trigger": false,
      "taf_trigger": false,
      "metar": "METAR ESSA 051220Z 03005KT CAVOK M11/M13 Q1015 NOSIG",
      "taf": "TAF ESSA 051130Z 0512/0612 05007KT CAVOK"
    },
    {
      "icao": "EYKA",
      "alert": "OK",
      "vis_m": 8000,
      "fzfg": false,
      "metar_trigger": false,
      "taf_trigger": false,
      "metar": "METAR EYKA 051220Z 21005KT 150V250 8000 -SN OVC017 M03/M05 Q1013",
      "taf": "TAF EYKA 051108Z 0512/0612 21012KT 9000 SCT010 OVC015"
    },
    {
      "icao": "EYPA",
      "alert": "OK",
      "vis_m": 9999,
      "fzfg": false,
      "metar_trigger": false,
      "taf_trigger": false,
      "metar": "METAR EYPA 051220Z 07004KT 9999 OVC018 M03/M04 Q1012",
      "taf": "TAF EYPA 051107Z 0512/0612 VRB04KT 9000 SCT005 OVC015"
    },
    {
      "icao": "EYVI",
      "alert": "OK",
      "vis_m": 9999,
      "fzfg": false,
      "metar_trigger": false,
      "taf_trigger": false,
      "metar": "METAR EYVI 051220Z 20012KT 9999 -SN OVC018 M04/M06 Q1014 TEMPO 3000 SN",
      "taf": "TAF EYVI 051100Z 0512/0612 20010KT 8000 BKN015"
    },
    {
      "icao": "GCFV",
      "alert": "OK",
      "vis_m": 9999,
      "fzfg": false,
      "metar_trigger": false,
      "taf_trigger": false,
      "metar": "METAR GCFV 051200Z 32009KT 9999 VCSH FEW022TCU SCT027 21/15 Q1016",
      "taf": "TAF GCFV 050800Z 0509/0609 36014KT 9999 SCT030 TX21/0514Z TN15/0606Z"
    },
    {
      "icao": "GCLP",
      "alert": "OK",
      "vis_m": 9999,
      "fzfg": false,
      "metar_trigger": false,
      "taf_trigger": false,
      "metar": "SPECI GCLP 051215Z 02011G21KT 9999 FEW030 BKN060 18/15 Q1017 RERA WS R03 NOSIG",
      "taf": "TAF GCLP 050800Z 0509/0609 35007KT 9999 SCT030 TX21/0514Z TN15/0606Z"
    },
    {
      "icao": "GCTS",
      "alert": "OK",
      "vis_m": 9999,
      "fzfg": false,
      "metar_trigger": false,
      "taf_trigger": false,
      "metar": "METAR GCTS 051200Z 18008KT 150V250 9999 SCT025 21/15 Q1017 NOSIG",
      "taf": "TAF GCTS 050800Z 0509/0609 VRB07KT 9999 SCT030 TX22/0514Z TN16/0606Z"
    },
    {
      "icao": "GMAD",
      "alert": "OK",
      "vis_m": 9999,
      "fzfg": false,
      "metar_trigger": false,
      "taf_trigger": false,
      "metar": "METAR GMAD 051230Z 26017KT 9999 SCT026TCU FEW030 19/15 Q1011 NOSIG",
      "taf": "TAF GMAD 051100Z 0512/0618 27010KT 8000 FEW010 SCT023TCU SCT080"
    },
    {
      "icao": "GMMN",
      "alert": "OK",
      "vis_m": 9999,
      "fzfg": false,
      "metar_trigger": false,
      "taf_trigger": false,
      "metar": "METAR GMMN 051230Z 33013KT 9999 BKN015TCU 16/14 Q1011 NOSIG",
      "taf": "TAF GMMN 051100Z 0512/0618 32009KT 9999 SCT006 BKN030"
    },
    {
      "icao": "GMMX",
      "alert": "OK",
      "vis_m": 8000,
      "fzfg": false,
      "metar_trigger": false,
      "taf_trigger": false,
      "metar": "METAR GMMX 051230Z 25009KT 8000 SCT010 BKN023 14/13 Q1012 TEMPO 3000 RA",
      "taf": "TAF GMMX 051100Z 0512/0618 26008KT 8000 SCT023 BKN080"
    },
    {
      "icao": "HEGN",
      "alert": "OK",
      "vis_m": 9999,
      "fzfg": false,
      "metar_trigger": false,
      "taf_trigger": false,
      "metar": "METAR HEGN 051200Z 36006KT CAVOK 24/05 Q1017 NOSIG",
      "taf": "TAF HEGN 051100Z 0512/0618 36016KT CAVOK"
    },
    {
      "icao": "HEMA",
      "alert": "OK",
      "vis_m": 4000,
      "fzfg": false,
      "metar_trigger": false,
      "taf_trigger": false,
      "metar": "METAR HEMA 051200Z 36014KT 4000 SA NSC 24/14 Q1016 NOSIG",
      "taf": "TAF HEMA 051100Z 0512/0618 35016KT CAVOK"
    },
    {
      "icao": "HESH",
      "alert": "OK",
      "vis_m": 9999,
      "fzfg": false,
      "metar_trigger": false,
      "taf_trigger": false,
      "metar": "METAR HESH 051200Z 01009KT CAVOK 25/11 Q1017 NOSIG",
      "taf": "TAF HESH 051100Z 0512/0618 01013KT CAVOK"
    },
    {
      "icao": "HESX",
      "alert": "OK",
      "vis_m": 9999,
      "fzfg": false,
      "metar_trigger": false,
      "taf_trigger": false,
      "metar": "METAR HESX 051200Z 30004KT CAVOK 20/04 Q1019 NOSIG",
      "taf": "TAF HESX 051100Z 0512/0618 26006KT CAVOK"
    },
    {
      "icao": "LATI",
      "alert": "OK",
      "vis_m": 9999,
      "fzfg": false,
      "metar_trigger": false,
      "taf_trigger": false,
      "metar": "METAR LATI 051220Z 16012KT 9999 SCT074 BKN130 17/07 Q1009 NOSIG",
      "taf": "TAF LATI 051100Z 0512/0612 16012KT 9999 SCT035 BKN080 TX18/0512Z TN11/0604Z"
    },
    {
      "icao": "LBPD",
      "alert": "OK",
      "vis_m": 9999,
      "fzfg": false,
      "metar_trigger": false,
      "taf_trigger": false,
      "metar": "METAR LBPD 051230Z AUTO 28003KT 230V320 9999 FEW067/// BKN100/// BKN140/// 13/11 Q1012 NOSIG",
      "taf": "TAF LBPD 051100Z 0512/0612 VRB04KT 9999 SCT060"
    },
    {
      "icao": "LBSF",
      "alert": "OK",
      "vis_m": 9999,
      "fzfg": false,
      "metar_trigger": false,
      "taf_trigger": false,
      "metar": "METAR LBSF 051230Z 12010KT 9999 SCT045 BKN062 11/05 Q1012 WS ALL RWY NOSIG",
      "taf": "TAF LBSF 051100Z 0512/0612 11010KT 9999 SCT040 BKN060"
    },
    {
      "icao": "LBWN",
      "alert": "OK",
      "vis_m": 9999,
      "fzfg": false,
      "metar_trigger": false,
      "taf_trigger": false,
      "metar": "METAR LBWN 051230Z 12008KT 9999 -RA BKN019 11/11 Q1014 NOSIG",
      "taf": "TAF LBWN 051100Z 0512/0612 10010KT 9999 SCT010 OVC020"
    },
    {
      "icao": "LCLK",
      "alert": "OK",
      "vis_m": 9999,
      "fzfg": false,
      "metar_trigger": false,
      "taf_trigger": false,
      "metar": "METAR LCLK 051230Z 04013KT CAVOK 18/09 Q1021 NOSIG",
      "taf": "TAF LCLK 051130Z 0512/0612 05014KT CAVOK"
    },
    {
      "icao": "LCPH",
      "alert": "OK",
      "vis_m": 9999,
      "fzfg": false,
      "metar_trigger": false,
      "taf_trigger": false,
      "metar": "METAR LCPH 051230Z 15011KT CAVOK 20/11 Q1020 NOSIG",
      "taf": "TAF LCPH 051130Z 0512/0612 14014KT 9999 FEW040"
    },
    {
      "icao": "LEAL",
      "alert": "OK",
      "vis_m": 9999,
      "fzfg": false,
      "metar_trigger": false,
      "taf_trigger": false,
      "metar": "METAR LEAL 051200Z 02007KT 350V060 9999 -RA SCT020 OVC047 11/08 Q1008 NOSIG",
      "taf": "TAF LEAL 051100Z 0512/0612 VRB04KT 9999 SCT020 TX13/0514Z TN04/0606Z"
    },
    {
      "icao": "LEBB",
      "alert": "OK",
      "vis_m": 9999,
      "fzfg": false,
      "metar_trigger": false,
      "taf_trigger": false,
      "metar": "METAR LEBB 051200Z VRB01KT 9999 FEW031 SCT062 07/M00 Q1016 NOSIG",
      "taf": "TAF LEBB 051100Z 0512/0612 13005KT 9999 FEW030 TX07/0514Z TNM00/0521Z"
    },
    {
      "icao": "LEBL",
      "alert": "OK",
      "vis_m": 9999,
      "fzfg": false,
      "metar_trigger": false,
      "taf_trigger": false,
      "metar": "METAR LEBL 051200Z 33015KT 9999 -RA FEW040 04/02 Q1009 NOSIG",
      "taf": "TAF LEBL 051100Z 0512/0612 33013KT 9999 BKN045 TX08/0513Z TN01/0606Z"
    },
    {
      "icao": "LECH",
      "alert": "OK",
      "vis_m": 9999,
      "fzfg": false,
      "metar_trigger": false,
      "taf_trigger": false,
      "metar": "METAR LECH 051200Z AUTO 35006KT 300V050 9999 OVC032 04/M05 Q1008",
      "taf": ""
    },
    {
      "icao": "LEMD",
      "alert": "OK",
      "vis_m": 9999,
      "fzfg": false,
      "metar_trigger": false,
      "taf_trigger": false,
      "metar": "METAR LEMD 051200Z 03004KT 310V080 CAVOK 03/M02 Q1010 NOSIG",
      "taf": "TAF LEMD 051100Z 0512/0618 VRB03KT 9999 SCT025 TX06/0514Z TNM03/0608Z"
    },
    {
      "icao": "LEMG",
      "alert": "OK",
      "vis_m": 9999,
      "fzfg": false,
      "metar_trigger": false,
      "taf_trigger": false,
      "metar": "METAR LEMG 051200Z 27010KT 9999 FEW060 16/11 Q1006 NOSIG",
      "taf": "TAF LEMG 051100Z 0512/0612 29007KT 9999 FEW050 TX18/0514Z TN04/0606Z"
    },
    {
      "icao": "LEVC",
      "alert": "OK",
      "vis_m": 9999,
      "fzfg": false,
      "metar_trigger": false,
      "taf_trigger": false,
      "metar": "METAR LEVC 051200Z 32006KT 9999 FEW007 OVC025 07/05 Q1009 NOSIG",
      "taf": ""
    },
    {
      "icao": "LEXJ",
      "alert": "OK",
      "vis_m": 9999,
      "fzfg": false,
      "metar_trigger": false,
      "taf_trigger": false,
      "metar": "METAR LEXJ 051200Z 11006KT 050V160 9999 SCT070 08/01 Q1016",
      "taf": "TAF LEXJ 050800Z 0509/0609 22005KT 9999 SCT040 TX08/0514Z TN03/0520Z"
    },
    {
      "icao": "LEZG",
      "alert": "OK",
      "vis_m": 9999,
      "fzfg": false,
      "metar_trigger": false,
      "taf_trigger": false,
      "metar": "METAR LEZG 051200Z 31021KT CAVOK 05/M09 Q1010 NOSIG",
      "taf": "TAF LEZG 051100Z 0512/0612 31018KT 9999 FEW050 TX04/0515Z TN00/0606Z"
    },
    {
      "icao": "LEZL",
      "alert": "OK",
      "vis_m": 9999,
      "fzfg": false,
      "metar_trigger": false,
      "taf_trigger": false,
      "metar": "METAR LEZL 051200Z VRB02KT 9999 FEW025 14/09 Q1008 NOSIG",
      "taf": "TAF LEZL 050800Z 0509/0609 VRB03KT CAVOK TX15/0515Z TN02/0607Z"
    },
    {
      "icao": "LFBD",
      "alert": "OK",
      "vis_m": 9999,
      "fzfg": false,
      "metar_trigger": false,
      "taf_trigger": false,
      "metar": "METAR LFBD 051230Z AUTO VRB01KT CAVOK 03/M03 Q1016 NOSIG",
      "taf": "TAF LFBD 051100Z 0512/0618 VRB03KT CAVOK TX05/0514Z TNM02/0601Z"
    },
    {
      "icao": "LFLL",
      "alert": "OK",
      "vis_m": 9999,
      "fzfg": false,
      "metar_trigger": false,
      "taf_trigger": false,
      "metar": "METAR LFLL 051230Z 35012KT 9999 FEW025 M01/M07 Q1013 NOSIG",
      "taf": "TAF LFLL 051100Z 0512/0618 35010KT CAVOK"
    },
    {
      "icao": "LFLS",
      "alert": "OK",
      "vis_m": 9999,
      "fzfg": false,
      "metar_trigger": false,
      "taf_trigger": false,
      "metar": "METAR LFLS 051230Z AUTO 01007KT 330V040 9999 BKN027 M02/M08 Q1011",
      "taf": "TAF LFLS 050200Z 0503/0603 35008KT 9999 BKN025"
    },
    {
      "icao": "LFMN",
      "alert": "OK",
      "vis_m": 9999,
      "fzfg": false,
      "metar_trigger": false,
      "taf_trigger": false,
      "metar": "METAR LFMN 051230Z 26004KT 220V300 CAVOK 12/M01 Q1005 NOSIG",
      "taf": "TAF LFMN 050800Z 0509/0615 33010KT CAVOK"
    },
    {
      "icao": "LFOB",
      "alert": "OK",
      "vis_m": 2800,
      "fzfg": false,
      "metar_trigger": false,
      "taf_trigger": false,
      "metar": "METAR LFOB 051230Z AUTO 20004KT 160V230 2800 -SN BR BKN005 OVC009 M01/M01 Q1012 TEMPO SHSN BKN007 BKN014TCU",
      "taf": ""
    },
    {
      "icao": "LFPO",
      "alert": "OK",
      "vis_m": 4500,
      "fzfg": false,
      "metar_trigger": false,
      "taf_trigger": false,
      "metar": "METAR LFPO 051230Z AUTO 22008KT 4500 BR OVC003 M02/M02 Q1013 TEMPO 0500 FG BKN006",
      "taf": "TAF LFPO 051100Z 0512/0618 22005KT 4000 BR OVC003"
    },
    {
      "icao": "LFSB",
      "alert": "OK",
      "vis_m": 9999,
      "fzfg": false,
      "metar_trigger": false,
      "taf_trigger": false,
      "metar": "METAR LFSB 051230Z AUTO 13004KT 070V180 9999 FEW014 M00/M09 Q1013 NOSIG",
      "taf": "TAF LFSB 051100Z 0512/0612 19003KT CAVOK"
    },
    {
      "icao": "LGAV",
      "alert": "OK",
      "vis_m": 9999,
      "fzfg": false,
      "metar_trigger": false,
      "taf_trigger": false,
      "metar": "METAR LGAV 051220Z 20014KT 9999 FEW018 BKN030 17/09 Q1017 NOSIG",
      "taf": "TAF LGAV 051100Z 0512/0612 20014KT 9999 SCT025 SCT070"
    },
    {
      "icao": "LGTS",
      "alert": "OK",
      "vis_m": 9999,
      "fzfg": false,
      "metar_trigger": false,
      "taf_trigger": false,
      "metar": "METAR LGTS 051220Z 12007KT 9999 SCT035 16/08 Q1014 NOSIG",
      "taf": "TAF LGTS 051100Z 0512/0612 14010KT 9999 SCT030"
    },
    {
      "icao": "LHBP",
      "alert": "OK",
      "vis_m": 8000,
      "fzfg": false,
      "metar_trigger": false,
      "taf_trigger": false,
      "metar": "METAR LHBP 051230Z 05007KT 010V080 8000 -SN BKN035 OVC065 00/M05 Q1012 TEMPO 3000 SN BKN012 OVC040",
      "taf": "TAF LHBP 051115Z 0512/0612 06007KT CAVOK"
    },
    {
      "icao": "LHDC",
      "alert": "OK",
      "vis_m": 3000,
      "fzfg": false,
      "metar_trigger": false,
      "taf_trigger": false,
      "metar": "METAR LHDC 051215Z AUTO 05009KT 3000 -SN BR FEW007 OVC017 M00/M01 Q1012 NOSIG",
      "taf": "TAF LHDC 051115Z 0512/0521 06010KT 6000 -SN SCT008 OVC025"
    },
    {
      "icao": "LIBD",
      "alert": "OK",
      "vis_m": 9999,
      "fzfg": false,
      "metar_trigger": false,
      "taf_trigger": false,
      "metar": "METAR LIBD 051220Z 17007KT 140V200 9999 FEW025 17/13 Q1003",
      "taf": "TAF LIBD 051100Z 0512/0612 15008KT 9999 FEW040"
    },
    {
      "icao": "LIBG",
      "alert": "OK",
      "vis_m": 5000,
      "fzfg": false,
      "metar_trigger": false,
      "taf_trigger": false,
      "metar": "METAR LIBG 051150Z 16016KT 5000 -TSRA SCT010CB BKN020 16/16 Q1005",
      "taf": "TAF LIBG 051100Z 0512/0521 17015KT 9999 SCT030"
    },
    {
      "icao": "LIBP",
      "alert": "OK",
      "vis_m": 9999,
      "fzfg": false,
      "metar_trigger": false,
      "taf_trigger": false,
      "metar": "METAR LIBP 051220Z AUTO 03004KT 9999 OVC006/// 08/07 Q1005",
      "taf": "TAF LIBP 051100Z 0512/0612 34006KT 2000 RA OVC004"
    },
    {
      "icao": "LIBR",
      "alert": "OK",
      "vis_m": 9999,
      "fzfg": false,
      "metar_trigger": false,
      "taf_trigger": false,
      "metar": "METAR LIBR 051220Z 16014KT 9999 BKN015 15/13 Q1006 RETSRA",
      "taf": "TAF LIBR 051100Z 0512/0612 17015KT 9999 SCT020"
    },
    {
      "icao": "LICA",
      "alert": "OK",
      "vis_m": 9999,
      "fzfg": false,
      "metar_trigger": false,
      "taf_trigger": false,
      "metar": "METAR LICA 051220Z AUTO 06014KT 9999 FEW088/// SCT110/// 17/14 Q1003",
      "taf": "TAF LICA 051100Z 0512/0612 08012KT 9999 SCT050"
    },
    {
      "icao": "LICC",
      "alert": "OK",
      "vis_m": 9999,
      "fzfg": false,
      "metar_trigger": false,
      "taf_trigger": false,
      "metar": "METAR LICC 051220Z 26009KT 220V290 9999 FEW030 SCT060 21/18 Q1003",
      "taf": "TAF LICC 051100Z 0512/0612 26013KT 9999 SCT030"
    },
    {
      "icao": "LICJ",
      "alert": "OK",
      "vis_m": 9999,
      "fzfg": false,
      "metar_trigger": false,
      "taf_trigger": false,
      "metar": "METAR LICJ 051220Z 21016KT 9999 FEW050 19/12 Q1001 WS R20",
      "taf": "TAF LICJ 051100Z 0512/0612 21016KT 9999 FEW030"
    },
    {
      "icao": "LIMC",
      "alert": "OK",
      "vis_m": 9999,
      "fzfg": false,
      "metar_trigger": false,
      "taf_trigger": false,
      "metar": "METAR LIMC 051220Z 17003KT 130V210 CAVOK 04/M05 Q1008 NOSIG",
      "taf": "TAF LIMC 051100Z 0512/0618 VRB04KT CAVOK"
    },
    {
      "icao": "LIME",
      "alert": "OK",
      "vis_m": 9999,
      "fzfg": false,
      "metar_trigger": false,
      "taf_trigger": false,
      "metar": "METAR LIME 051220Z 26005KT 220V290 CAVOK 03/M05 Q1008 NOSIG",
      "taf": "TAF LIME 051100Z 0512/0612 VRB04KT CAVOK"
    },
    {
      "icao": "LIMF",
      "alert": "OK",
      "vis_m": 9999,
      "fzfg": false,
      "metar_trigger": false,
      "taf_trigger": false,
      "metar": "METAR LIMF 051220Z 10003KT 070V140 CAVOK 03/M08 Q1008",
      "taf": "TAF LIMF 051100Z 0512/0612 VRB04KT CAVOK"
    },
    {
      "icao": "LIMJ",
      "alert": "OK",
      "vis_m": 9999,
      "fzfg": false,
      "metar_trigger": false,
      "taf_trigger": false,
      "metar": "METAR LIMJ 051220Z AUTO 04013KT 9999 FEW190/// BKN220/// 07/M05 Q1005",
      "taf": "TAF LIMJ 051100Z 0512/0612 04016KT CAVOK"
    },
    {
      "icao": "LIPE",
      "alert": "OK",
      "vis_m": 9999,
      "fzfg": false,
      "metar_trigger": false,
      "taf_trigger": false,
      "metar": "METAR LIPE 051220Z 29005KT 260V320 9999 BKN056 04/M05 Q1008",
      "taf": "TAF LIPE 051100Z 0512/0612 28007KT 6000 SCT030 SCT060"
    },
    {
      "icao": "LIPH",
      "alert": "OK",
      "vis_m": 9999,
      "fzfg": false,
      "metar_trigger": false,
      "taf_trigger": false,
      "metar": "METAR LIPH 051220Z 04006KT 360V080 9999 BKN070 05/M06 Q1008",
      "taf": "TAF LIPH 051100Z 0512/0612 02006KT CAVOK"
    },
    {
      "icao": "LIPQ",
      "alert": "OK",
      "vis_m": 9999,
      "fzfg": false,
      "metar_trigger": false,
      "taf_trigger": false,
      "metar": "METAR LIPQ 051220Z AUTO 11009KT 9999 -RA OVC032/// 03/M01 Q1008",
      "taf": ""
    },
    {
      "icao": "LIPR",
      "alert": "OK",
      "vis_m": 9999,
      "fzfg": false,
      "metar_trigger": false,
      "taf_trigger": false,
      "metar": "METAR LIPR 051220Z 29008KT 9999 -RA BKN020 SCT040 03/02 Q1007",
      "taf": "TAF LIPR 051100Z 0512/0612 29009KT 4000 -RA OVC020"
    },
    {
      "icao": "LIPX",
      "alert": "OK",
      "vis_m": 9999,
      "fzfg": false,
      "metar_trigger": false,
      "taf_trigger": false,
      "metar": "METAR LIPX 051220Z VRB01KT 9999 BKN070 04/M05 Q1008",
      "taf": "TAF LIPX 051100Z 0512/0612 VRB04KT CAVOK"
    },
    {
      "icao": "LIPY",
      "alert": "OK",
      "vis_m": 9999,
      "fzfg": false,
      "metar_trigger": false,
      "taf_trigger": false,
      "metar": "METAR LIPY 051220Z AUTO 30005KT 270V330 9999 -RA OVC008/// 04/04 Q1007",
      "taf": "TAF LIPY 051100Z 0512/0612 32010KT 6000 OVC015"
    },
    {
      "icao": "LIPZ",
      "alert": "OK",
      "vis_m": 9999,
      "fzfg": false,
      "metar_trigger": false,
      "taf_trigger": false,
      "metar": "METAR LIPZ 051220Z 05009KT 9999 BKN060 05/M04 Q1008 NOSIG",
      "taf": "TAF LIPZ 051100Z 0512/0618 02008KT CAVOK"
    },
    {
      "icao": "LIRF",
      "alert": "OK",
      "vis_m": 7000,
      "fzfg": false,
      "metar_trigger": false,
      "taf_trigger": false,
      "metar": "METAR LIRF 051220Z 04004KT 7000 -SHRA SCT005 SCT010 13/13 Q1002 RESHRA NOSIG",
      "taf": "TAF LIRF 051100Z 0512/0618 10010KT 8000 SCT020"
    },
    {
      "icao": "LIRN",
      "alert": "OK",
      "vis_m": 9999,
      "fzfg": false,
      "metar_trigger": false,
      "taf_trigger": false,
      "metar": "METAR LIRN 051220Z 03004KT 9999 SCT080 16/11 Q1002 NOSIG",
      "taf": "TAF LIRN 051100Z 0512/0612 VRB06KT 9999 SCT020 SCT050"
    },
    {
      "icao": "LIRP",
      "alert": "OK",
      "vis_m": 9999,
      "fzfg": false,
      "metar_trigger": false,
      "taf_trigger": false,
      "metar": "METAR LIRP 051215Z 13007KT 9999 BKN040 BKN060 07/02 Q1005 NOSIG",
      "taf": "TAF LIRP 051100Z 0512/0612 13010KT 9999 BKN040 BKN060"
    },
    {
      "icao": "LIRZ",
      "alert": "OK",
      "vis_m": 9999,
      "fzfg": false,
      "metar_trigger": false,
      "taf_trigger": false,
      "metar": "METAR LIRZ 051220Z AUTO 34009KT 9999 OVC018/// 05/04 Q1003",
      "taf": "TAF LIRZ 051100Z 0512/0612 01010KT 6000 RA BKN020"
    },
    {
      "icao": "LJLJ",
      "alert": "OK",
      "vis_m": 8000,
      "fzfg": false,
      "metar_trigger": false,
      "taf_trigger": false,
      "metar": "METAR LJLJ 051200Z 12001KT 8000 -SN FEW010 SCT045 BKN055 M01/M03 Q1009 NOSIG",
      "taf": "TAF LJLJ 051100Z 0512/0612 10004KT 7000 SCT025 OVC040"
    },
    {
      "icao": "LKMT",
      "alert": "OK",
      "vis_m": 9999,
      "fzfg": false,
      "metar_trigger": false,
      "taf_trigger": false,
      "metar": "METAR LKMT 051230Z VRB01KT CAVOK M03/M07 Q1013 NOSIG",
      "taf": "TAF LKMT 051100Z 0512/0612 20005KT CAVOK"
    },
    {
      "icao": "LKPR",
      "alert": "OK",
      "vis_m": 9999,
      "fzfg": false,
      "metar_trigger": false,
      "taf_trigger": false,
      "metar": "METAR LKPR 051230Z 23005KT 190V260 9999 BKN037 M01/M09 Q1012 NOSIG",
      "taf": "TAF LKPR 051100Z 0512/0618 19004KT 9999 SCT040"
    },
    {
      "icao": "LLBG",
      "alert": "OK",
      "vis_m": 9999,
      "fzfg": false,
      "metar_trigger": false,
      "taf_trigger": false,
      "metar": "METAR LLBG 051220Z 11010KT CAVOK 23/04 Q1018 NOSIG",
      "taf": "TAF LLBG 051107Z 0512/0612 13008KT CAVOK"
    },
    {
      "icao": "LMML",
      "alert": "OK",
      "vis_m": 8000,
      "fzfg": false,
      "metar_trigger": false,
      "taf_trigger": false,
      "metar": "METAR LMML 051215Z 20013KT 170V230 8000 NSC 19/14 Q1005 NOSIG",
      "taf": "TAF LMML 051100Z 0512/0612 21015KT 8000 NSC"
    },
    {
      "icao": "LOWW",
      "alert": "OK",
      "vis_m": 9999,
      "fzfg": false,
      "metar_trigger": false,
      "taf_trigger": false,
      "metar": "METAR LOWW 051220Z VRB02KT 9999 OVC050 M03/M07 Q1013 NOSIG",
      "taf": "TAF LOWW 051115Z 0512/0618 VRB05KT 9999 FEW050 TXM02/0613Z TNM04/0606Z"
    },
    {
      "icao": "LPFR",
      "alert": "OK",
      "vis_m": 9999,
      "fzfg": false,
      "metar_trigger": false,
      "taf_trigger": false,
      "metar": "METAR LPFR 051200Z 34017KT CAVOK 13/01 Q1010",
      "taf": "TAF LPFR 051100Z 0512/0612 34015KT CAVOK"
    },
    {
      "icao": "LPMA",
      "alert": "OK",
      "vis_m": 9999,
      "fzfg": false,
      "metar_trigger": false,
      "taf_trigger": false,
      "metar": "METAR LPMA 051200Z 02016G32KT 330V060 9999 SCT015 16/08 Q1020",
      "taf": "TAF LPMA 051100Z 0512/0612 02017KT 9999 SCT015"
    },
    {
      "icao": "LPPR",
      "alert": "OK",
      "vis_m": 9999,
      "fzfg": false,
      "metar_trigger": false,
      "taf_trigger": false,
      "metar": "METAR LPPR 051200Z 01005KT 340V050 CAVOK 08/M01 Q1017",
      "taf": "TAF LPPR 051100Z 0512/0612 01008KT CAVOK"
    },
    {
      "icao": "LPPS",
      "alert": "OK",
      "vis_m": 9999,
      "fzfg": false,
      "metar_trigger": false,
      "taf_trigger": false,
      "metar": "METAR LPPS 051200Z 03016KT 9999 FEW014 16/09 Q1021",
      "taf": "TAF LPPS 051100Z 0512/0618 02017KT 9999 SCT015"
    },
    {
      "icao": "LPPT",
      "alert": "OK",
      "vis_m": 9999,
      "fzfg": false,
      "metar_trigger": false,
      "taf_trigger": false,
      "metar": "METAR LPPT 051200Z 35020KT 9999 FEW035 09/M01 Q1014",
      "taf": "TAF LPPT 051100Z 0512/0618 35017KT CAVOK"
    },
    {
      "icao": "LQBK",
      "alert": "OK",
      "vis_m": 7000,
      "fzfg": false,
      "metar_trigger": false,
      "taf_trigger": false,
      "metar": "METAR LQBK 051230Z 34003KT 7000 -SG BKN005 OVC008 M00/M01 Q1010 NOSIG",
      "taf": "TAF LQBK 051100Z 0512/0612 33005KT 7000 BKN007 OVC013 TXM00/0513Z TNM03/0605Z"
    },
    {
      "icao": "LQSA",
      "alert": "OK",
      "vis_m": 6000,
      "fzfg": false,
      "metar_trigger": false,
      "taf_trigger": false,
      "metar": "METAR LQSA 051230Z VRB02KT 6000 FZRA FEW005 BKN015 BKN050 M00/M00 Q1007 NOSIG",
      "taf": ""
    },
    {
      "icao": "LQTZ",
      "alert": "OK",
      "vis_m": 9999,
      "fzfg": false,
      "metar_trigger": false,
      "taf_trigger": false,
      "metar": "METAR LQTZ 051230Z VRB02KT 9999 BKN006 OVC012 00/M01 Q1009",
      "taf": "TAF LQTZ 051100Z 0512/0612 30006KT 9999 SCT005 BKN015 OVC025 TX00/0513Z TNM03/0605Z"
    },
    {
      "icao": "LRBC",
      "alert": "OK",
      "vis_m": 3500,
      "fzfg": false,
      "metar_trigger": false,
      "taf_trigger": false,
      "metar": "METAR LRBC 051200Z 20003KT 3500 -SN BKN023 OVC032 M01/M03 Q1019",
      "taf": "TAF LRBC 051100Z 0512/0521 14006KT 5000 -SN SCT010 OVC025"
    },
    {
      "icao": "LRBS",
      "alert": "OK",
      "vis_m": 1300,
      "fzfg": false,
      "metar_trigger": false,
      "taf_trigger": false,
      "metar": "METAR LRBS 051200Z 05012KT 010V080 1300 R07/1600N -RA BR OVC003 00/M00 Q1017 NOSIG",
      "taf": "TAF LRBS 051100Z 0512/0612 05010KT 1500 -RA BR OVC002"
    },
    {
      "icao": "LRBV",
      "alert": "OK",
      "vis_m": 9999,
      "fzfg": false,
      "metar_trigger": false,
      "taf_trigger": false,
      "metar": "METAR LRBV 051200Z VRB02KT 9999 BKN037 OVC087 01/M02 Q1012",
      "taf": "TAF LRBV 051100Z 0512/0521 VRB04KT 9999 SCT010 OVC040"
    },
    {
      "icao": "LRCL",
      "alert": "OK",
      "vis_m": 9999,
      "fzfg": false,
      "metar_trigger": false,
      "taf_trigger": false,
      "metar": "METAR LRCL 051200Z 06004KT 040V100 9999 -SN BKN016 OVC040 M01/M02 Q1013",
      "taf": "TAF LRCL 051100Z 0512/0521 VRB04KT 3000 -SN SCT010 OVC025"
    },
    {
      "icao": "LRCV",
      "alert": "OK",
      "vis_m": 7000,
      "fzfg": false,
      "metar_trigger": false,
      "taf_trigger": false,
      "metar": "METAR LRCV 051200Z 09010KT 7000 RA BKN005 OVC009 01/00 Q1016",
      "taf": "TAF LRCV 051100Z 0512/0521 08010KT 7000 -RA BKN005 OVC020"
    },
    {
      "icao": "LRIA",
      "alert": "OK",
      "vis_m": 2000,
      "fzfg": false,
      "metar_trigger": false,
      "taf_trigger": false,
      "metar": "METAR LRIA 051200Z 09009KT 2000 -SN OVC023 M01/M01 Q1020",
      "taf": "TAF LRIA 051100Z 0512/0521 11008KT 7000 -SN BKN025"
    },
    {
      "icao": "LROP",
      "alert": "OK",
      "vis_m": 3500,
      "fzfg": false,
      "metar_trigger": false,
      "taf_trigger": false,
      "metar": "METAR LROP 051200Z 06016KT 3500 -RA OVC004 01/01 Q1017 NOSIG",
      "taf": "TAF LROP 051100Z 0512/0612 05010KT 3000 -RA BR OVC005"
    },
    {
      "icao": "LRSB",
      "alert": "OK",
      "vis_m": 9999,
      "fzfg": false,
      "metar_trigger": false,
      "taf_trigger": false,
      "metar": "METAR LRSB 051200Z 26002KT 9999 OVC006 M01/M02 Q1012",
      "taf": "TAF LRSB 051100Z 0512/0612 VRB04KT 9999 BKN005 BKN025"
    },
    {
      "icao": "LRSM",
      "alert": "OK",
      "vis_m": 9999,
      "fzfg": false,
      "metar_trigger": false,
      "taf_trigger": false,
      "metar": "METAR LRSM 051200Z 07010KT 9999 -SN FEW022 BKN028 BKN040 01/M03 Q1013",
      "taf": "TAF LRSM 051100Z 0512/0521 06006KT 9999 BKN035"
    },
    {
      "icao": "LRSV",
      "alert": "OK",
      "vis_m": 4000,
      "fzfg": false,
      "metar_trigger": false,
      "taf_trigger": false,
      "metar": "METAR LRSV 051200Z 14014KT 4000 -SN FEW014 SCT046 M02/M03 Q1016",
      "taf": "TAF LRSV 051100Z 0512/0521 14012KT 5000 -SN SCT015 BKN045"
    },
    {
      "icao": "LRTM",
      "alert": "OK",
      "vis_m": 2700,
      "fzfg": false,
      "metar_trigger": false,
      "taf_trigger": false,
      "metar": "METAR LRTM 051200Z 00000KT 2700 -SN BR FEW006 SCT016 BKN028 M00/M02 Q1013",
      "taf": "TAF LRTM 051100Z 0512/0521 VRB04KT 3000 -SN SCT010 OVC025"
    },
    {
      "icao": "LRTR",
      "alert": "OK",
      "vis_m": 3000,
      "fzfg": false,
      "metar_trigger": false,
      "taf_trigger": false,
      "metar": "METAR LRTR 051200Z COR VRB02KT 3000 -RA BR FEW004 OVC026 01/01 Q1011",
      "taf": "TAF LRTR 051100Z 0512/0612 03008KT 5000 -RA BR BKN005 OVC025"
    },
    {
      "icao": "LTAC",
      "alert": "OK",
      "vis_m": 9999,
      "fzfg": false,
      "metar_trigger": false,
      "taf_trigger": false,
      "metar": "METAR LTAC 051220Z 05007KT 9999 FEW040 BKN200 07/02 Q1022 NOSIG RMK RWY21C 04007KT RWY03L 05007KT RWY21R 03007KT RWY03R 01006KT RWY21L 03007KT",
      "taf": "TAF LTAC 051040Z 0512/0612 VRB02KT 9999 SCT040 BKN200"
    },
    {
      "icao": "LTFM",
      "alert": "OK",
      "vis_m": 9999,
      "fzfg": false,
      "metar_trigger": false,
      "taf_trigger": false,
      "metar": "METAR LTFM 051220Z 21019KT CAVOK 17/06 Q1017 NOSIG RMK RWY17L 21017KT RWY34L 20017KT RWY16R 21018KT RWY36 21019KT RWY18 22020G30KT",
      "taf": "TAF LTFM 051040Z 0512/0618 19014KT CAVOK"
    },
    {
      "icao": "LUKK",
      "alert": "OK",
      "vis_m": 2200,
      "fzfg": false,
      "metar_trigger": false,
      "taf_trigger": false,
      "metar": "METAR LUKK 051230Z 07007KT 2200 SN BKN003 OVC020 M01/M02 Q1021 TEMPO 1000 SN",
      "taf": "TAF LUKK 051110Z 0512/0612 11008KT 4000 SN BKN012"
    },
    {
      "icao": "LWOH",
      "alert": "OK",
      "vis_m": 9999,
      "fzfg": false,
      "metar_trigger": false,
      "taf_trigger": false,
      "metar": "METAR LWOH 051220Z VRB02KT 9999 SCT010 OVC040 11/08 Q1011",
      "taf": "TAF LWOH 051115Z 0512/0612 19010KT 9999 RA SCT010 OVC040"
    },
    {
      "icao": "LWSK",
      "alert": "OK",
      "vis_m": 9999,
      "fzfg": false,
      "metar_trigger": false,
      "taf_trigger": false,
      "metar": "METAR LWSK 051220Z 13017KT 9999 FEW050 BKN100 14/07 Q1011 NOSIG",
      "taf": "TAF LWSK 051115Z 0512/0612 14012KT 9999 FEW050 BKN090"
    },
    {
      "icao": "LYBE",
      "alert": "OK",
      "vis_m": 2000,
      "fzfg": false,
      "metar_trigger": false,
      "taf_trigger": false,
      "metar": "METAR LYBE 051230Z 05004KT 2000 -RA BR FEW010 SCT025 00/M00 Q1010 TEMPO 1200",
      "taf": "TAF LYBE 051100Z 0512/0612 27005KT 5000 BR SCT010 BKN025 TX01/0512Z TNM02/0606Z"
    },
    {
      "icao": "LYNI",
      "alert": "OK",
      "vis_m": 9999,
      "fzfg": false,
      "metar_trigger": false,
      "taf_trigger": false,
      "metar": "METAR LYNI 051230Z VRB01KT 9999 BKN090 03/02 Q1011 NOSIG",
      "taf": "TAF LYNI 051100Z 0512/0612 06006KT 9999 BKN070 TX05/0513Z TN02/0606Z"
    },
    {
      "icao": "LYPG",
      "alert": "OK",
      "vis_m": 9999,
      "fzfg": false,
      "metar_trigger": false,
      "taf_trigger": false,
      "metar": "METAR LYPG 051230Z 15023KT 120V190 9999 FEW026TCU SCT050 BKN080 15/11 Q1006 NOSIG",
      "taf": ""
    },
    {
      "icao": "LZIB",
      "alert": "OK",
      "vis_m": 9999,
      "fzfg": false,
      "metar_trigger": false,
      "taf_trigger": false,
      "metar": "METAR LZIB 051230Z 06004KT 010V080 CAVOK M02/M07 Q1013 NOSIG",
      "taf": "TAF LZIB 051115Z 0512/0612 05005KT CAVOK"
    },
    {
      "icao": "LZKZ",
      "alert": "OK",
      "vis_m": 9999,
      "fzfg": false,
      "metar_trigger": false,
      "taf_trigger": false,
      "metar": "METAR LZKZ 051230Z 02010KT CAVOK M01/M05 Q1013 NOSIG",
      "taf": "TAF LZKZ 051115Z 0512/0612 02009KT CAVOK"
    },
    {
      "icao": "LZTT",
      "alert": "OK",
      "vis_m": 9999,
      "fzfg": false,
      "metar_trigger": false,
      "taf_trigger": false,
      "metar": "METAR LZTT 051230Z VRB02KT CAVOK M04/M10 Q1011 NOSIG",
      "taf": "TAF LZTT 051115Z 0512/0612 VRB02KT CAVOK"
    },
    {
      "icao": "OEJN",
      "alert": "OK",
      "vis_m": 7000,
      "fzfg": false,
      "metar_trigger": false,
      "taf_trigger": false,
      "metar": "METAR OEJN 051200Z 27007KT 7000 FEW040 31/13 Q1013 NOSIG",
      "taf": "TAF OEJN 051100Z 0512/0618 29010KT 7000 FEW040"
    },
    {
      "icao": "OEMA",
      "alert": "OK",
      "vis_m": 9999,
      "fzfg": false,
      "metar_trigger": false,
      "taf_trigger": false,
      "metar": "METAR OEMA 051200Z 08008KT CAVOK 24/02 Q1020 NOSIG",
      "taf": "TAF OEMA 051100Z 0512/0618 11015KT 7000 NSC"
    },
    {
      "icao": "OJAI",
      "alert": "OK",
      "vis_m": 5000,
      "fzfg": false,
      "metar_trigger": false,
      "taf_trigger": false,
      "metar": "METAR OJAI 051200Z 09008KT 5000 HZ NSC 14/01 Q1023 NOSIG",
      "taf": "TAF OJAI 051100Z 0512/0618 14010KT 5000 HZ NSC"
    },
    {
      "icao": "OMAA",
      "alert": "OK",
      "vis_m": 9999,
      "fzfg": false,
      "metar_trigger": false,
      "taf_trigger": false,
      "metar": "METAR OMAA 051200Z 30010KT 270V330 CAVOK 24/13 Q1019 NOSIG",
      "taf": "TAF OMAA 051100Z 0512/0618 33010KT 8000 FEW040"
    },
    {
      "icao": "OMDB",
      "alert": "OK",
      "vis_m": 9999,
      "fzfg": false,
      "metar_trigger": false,
      "taf_trigger": false,
      "metar": "METAR OMDB 051230Z 01009KT 350V050 CAVOK 24/13 Q1019 NOSIG",
      "taf": "TAF OMDB 051100Z 0512/0618 34010KT 8000 NSC"
    },
    {
      "icao": "UAAA",
      "alert": "OK",
      "vis_m": 5000,
      "fzfg": false,
      "metar_trigger": false,
      "taf_trigger": false,
      "metar": "METAR UAAA 051200Z 11002MPS 060V140 5000 BR OVC010 01/M02 Q1038 NOSIG",
      "taf": "TAF UAAA 051108Z 0512/0612 22002MPS 1200 BR FU BKN011 OVC030 TX01/0609Z TNM03/0602Z"
    },
    {
      "icao": "UBBB",
      "alert": "OK",
      "vis_m": 9999,
      "fzfg": false,
      "metar_trigger": false,
      "taf_trigger": false,
      "metar": "METAR UBBB 051230Z 17012KT CAVOK 11/03 Q1022 NOSIG",
      "taf": "TAF UBBB 051054Z 0512/0612 18014G24KT CAVOK TX12/0512Z TN02/0300Z"
    },
    {
      "icao": "UDSG",
      "alert": "OK",
      "vis_m": 8000,
      "fzfg": false,
      "metar_trigger": false,
      "taf_trigger": false,
      "metar": "METAR UDSG 051200Z 11001KT 8000 NSC M06/M13 Q1030 NOSIG",
      "taf": "TAF UDSG 051100Z 0512/0612 VRB06KT 9999 FEW050"
    },
    {
      "icao": "UDYZ",
      "alert": "OK",
      "vis_m": 7000,
      "fzfg": false,
      "metar_trigger": false,
      "taf_trigger": false,
      "metar": "METAR UDYZ 051200Z 25001KT 7000 NSC M03/M11 Q1033 NOSIG",
      "taf": "TAF UDYZ 051100Z 0512/0612 VRB04KT 6000 NSC"
    },
    {
      "icao": "UGKO",
      "alert": "OK",
      "vis_m": 9999,
      "fzfg": false,
      "metar_trigger": false,
      "taf_trigger": false,
      "metar": "METAR UGKO 051200Z 10005KT CAVOK 16/02 Q1022 NOSIG",
      "taf": "TAF UGKO 051100Z 0512/0612 08007KT CAVOK TX15/0512Z TN03/0523Z"
    }
  ]
}