{
  "ts_utc": "2026-06-20T01:50:37Z",
  "threshold_m": 150,
  "source": "stations_override.txt (ICAO list) + aviationweather.gov (METAR/TAF raw)",
  "station_count": 159,
  "stations": [
    {
      "icao": "BIKF",
      "alert": "OK",
      "vis_m": 9999,
      "fzfg": false,
      "metar_trigger": false,
      "taf_trigger": false,
      "metar": "METAR BIKF 200130Z 06008KT 020V090 9999 VCSH FEW030 BKN056 BKN070 10/05 Q0999",
      "taf": "TAF BIKF 200116Z 2003/2103 03013KT 9999 FEW040 TX13/2013Z TN06/2103Z"
    },
    {
      "icao": "BKPR",
      "alert": "OK",
      "vis_m": 9999,
      "fzfg": false,
      "metar_trigger": false,
      "taf_trigger": false,
      "metar": "METAR BKPR 200130Z 32003KT CAVOK 15/11 Q1023 NOSIG",
      "taf": "TAF BKPR 192330Z 2000/2024 01007KT CAVOK"
    },
    {
      "icao": "EBCI",
      "alert": "OK",
      "vis_m": 9999,
      "fzfg": false,
      "metar_trigger": false,
      "taf_trigger": false,
      "metar": "METAR EBCI 200120Z 32004KT 290V010 CAVOK 20/17 Q1016 NOSIG",
      "taf": "TAF EBCI 192310Z 2000/2106 26005KT CAVOK"
    },
    {
      "icao": "EDDB",
      "alert": "OK",
      "vis_m": 9999,
      "fzfg": false,
      "metar_trigger": false,
      "taf_trigger": false,
      "metar": "METAR EDDB 200120Z AUTO 11002KT CAVOK 19/18 Q1017 NOSIG",
      "taf": "TAF EDDB 192300Z 2000/2024 10004KT CAVOK"
    },
    {
      "icao": "EDDH",
      "alert": "OK",
      "vis_m": 9999,
      "fzfg": false,
      "metar_trigger": false,
      "taf_trigger": false,
      "metar": "METAR EDDH 200120Z AUTO 29016G26KT 260V340 CAVOK 24/16 Q1017 NOSIG",
      "taf": "TAF EDDH 192300Z 2000/2106 13003KT CAVOK"
    },
    {
      "icao": "EDDK",
      "alert": "OK",
      "vis_m": 9999,
      "fzfg": false,
      "metar_trigger": false,
      "taf_trigger": false,
      "metar": "METAR EDDK 200120Z AUTO 11006KT 080V150 CAVOK 21/16 Q1016 NOSIG",
      "taf": "TAF EDDK 192300Z 2000/2106 14004KT CAVOK"
    },
    {
      "icao": "EDDN",
      "alert": "OK",
      "vis_m": 9999,
      "fzfg": false,
      "metar_trigger": false,
      "taf_trigger": false,
      "metar": "METAR EDDN 200120Z AUTO VRB02KT CAVOK 23/15 Q1019",
      "taf": ""
    },
    {
      "icao": "EDDS",
      "alert": "OK",
      "vis_m": 9999,
      "fzfg": false,
      "metar_trigger": false,
      "taf_trigger": false,
      "metar": "METAR EDDS 200120Z AUTO VRB02KT CAVOK 22/14 Q1020",
      "taf": "TAF EDDS 192300Z 2000/2024 VRB03KT 9999 SCT040"
    },
    {
      "icao": "EDFH",
      "alert": "OK",
      "vis_m": 9999,
      "fzfg": false,
      "metar_trigger": false,
      "taf_trigger": false,
      "metar": "METAR EDFH 200120Z 15013KT CAVOK 22/14 Q1019",
      "taf": "TAF EDFH 192300Z 2000/2024 16006KT CAVOK"
    },
    {
      "icao": "EDJA",
      "alert": "OK",
      "vis_m": 9999,
      "fzfg": false,
      "metar_trigger": false,
      "taf_trigger": false,
      "metar": "METAR EDJA 200120Z AUTO 24004KT 9999 // NCD 17/14 Q1022",
      "taf": "TAF EDJA 191700Z 1918/2003 05004KT CAVOK"
    },
    {
      "icao": "EDLW",
      "alert": "OK",
      "vis_m": 9999,
      "fzfg": false,
      "metar_trigger": false,
      "taf_trigger": false,
      "metar": "METAR EDLW 200120Z AUTO 04004KT 360V090 9999 // OVC100/// 22/15 Q1017",
      "taf": "TAF EDLW 191700Z 1918/2018 15006KT CAVOK"
    },
    {
      "icao": "EDNY",
      "alert": "OK",
      "vis_m": 9999,
      "fzfg": false,
      "metar_trigger": false,
      "taf_trigger": false,
      "metar": "METAR EDNY 200120Z AUTO 08003KT 9999 // NCD 15/15 Q1021",
      "taf": "TAF EDNY 191700Z 1918/2003 17006KT CAVOK"
    },
    {
      "icao": "EDSB",
      "alert": "OK",
      "vis_m": 9999,
      "fzfg": false,
      "metar_trigger": false,
      "taf_trigger": false,
      "metar": "METAR EDSB 200120Z AUTO 20004KT 9999 // FEW058/// SCT087/// OVC100/// 20/19 Q1019",
      "taf": "TAF EDSB 192300Z 2000/2024 VRB03KT CAVOK"
    },
    {
      "icao": "EETN",
      "alert": "OK",
      "vis_m": 9999,
      "fzfg": false,
      "metar_trigger": false,
      "taf_trigger": false,
      "metar": "METAR EETN 200120Z VRB02KT CAVOK 11/09 Q1019",
      "taf": "TAF EETN 192330Z 2000/2024 22008KT CAVOK"
    },
    {
      "icao": "EFTU",
      "alert": "OK",
      "vis_m": 9999,
      "fzfg": false,
      "metar_trigger": false,
      "taf_trigger": false,
      "metar": "METAR EFTU 200120Z AUTO 20005KT 9999 FEW049 15/13 Q1017",
      "taf": "TAF EFTU 192327Z 2000/2024 21006KT CAVOK"
    },
    {
      "icao": "EGBB",
      "alert": "OK",
      "vis_m": 9999,
      "fzfg": false,
      "metar_trigger": false,
      "taf_trigger": false,
      "metar": "METAR EGBB 200120Z 20006KT 160V250 9999 FEW011 18/16 Q1014",
      "taf": "TAF EGBB 192257Z 2000/2024 22007KT 9999 FEW025"
    },
    {
      "icao": "EGGP",
      "alert": "OK",
      "vis_m": 9999,
      "fzfg": false,
      "metar_trigger": false,
      "taf_trigger": false,
      "metar": "METAR EGGP 200120Z 21005KT 180V240 9999 SCT031 17/14 Q1012",
      "taf": "TAF EGGP 192254Z 2000/2024 21005KT 9999 FEW035"
    },
    {
      "icao": "EGGW",
      "alert": "OK",
      "vis_m": 9999,
      "fzfg": false,
      "metar_trigger": false,
      "taf_trigger": false,
      "metar": "METAR EGGW 200120Z AUTO 18004KT 140V210 9999 NCD 16/15 Q1014",
      "taf": "TAF EGGW 192259Z 2000/2024 22007KT 9999 FEW030"
    },
    {
      "icao": "EGKK",
      "alert": "OK",
      "vis_m": 9999,
      "fzfg": false,
      "metar_trigger": false,
      "taf_trigger": false,
      "metar": "METAR EGKK 200120Z 22005KT 9999 SCT005 16/15 Q1016",
      "taf": "TAF EGKK 192255Z 2000/2106 23008KT 9999 FEW045"
    },
    {
      "icao": "EGNM",
      "alert": "OK",
      "vis_m": 9999,
      "fzfg": false,
      "metar_trigger": false,
      "taf_trigger": false,
      "metar": "METAR EGNM 200120Z 21013KT CAVOK 17/13 Q1012",
      "taf": "TAF EGNM 192253Z 2000/2024 22009KT 9999 FEW020"
    },
    {
      "icao": "EGPD",
      "alert": "OK",
      "vis_m": 450,
      "fzfg": false,
      "metar_trigger": false,
      "taf_trigger": false,
      "metar": "METAR EGPD 200120Z AUTO 00000KT 0450 FG VV/// 12/11 Q1009",
      "taf": "TAF EGPD 192255Z 2000/2024 VRB03KT 9999 FEW004 SCT030"
    },
    {
      "icao": "EGPF",
      "alert": "OK",
      "vis_m": 9999,
      "fzfg": false,
      "metar_trigger": false,
      "taf_trigger": false,
      "metar": "METAR EGPF 200120Z AUTO 25003KT 9999 BKN044/// //////TCU 12/12 Q1010",
      "taf": "TAF EGPF 192259Z 2000/2024 VRB04KT 9999 SCT030"
    },
    {
      "icao": "EHBK",
      "alert": "OK",
      "vis_m": 9999,
      "fzfg": false,
      "metar_trigger": false,
      "taf_trigger": false,
      "metar": "METAR EHBK 200125Z AUTO 03007KT 9999 NSC 20/16 Q1015",
      "taf": "TAF EHBK 192315Z 2000/2106 20005KT CAVOK"
    },
    {
      "icao": "EHEH",
      "alert": "OK",
      "vis_m": 9999,
      "fzfg": false,
      "metar_trigger": false,
      "taf_trigger": false,
      "metar": "METAR EHEH 200125Z AUTO 10007KT 060V130 9999 NCD 22/17 Q1014 BLU",
      "taf": "TAF EHEH 192318Z 2000/2106 04008KT CAVOK"
    },
    {
      "icao": "EKBI",
      "alert": "OK",
      "vis_m": 9999,
      "fzfg": false,
      "metar_trigger": false,
      "taf_trigger": false,
      "metar": "METAR EKBI 200120Z AUTO 13004KT 110V170 9999 FEW140/// 20/19 Q1014",
      "taf": "TAF EKBI 192327Z 2000/2024 16007KT 9999 SCT030"
    },
    {
      "icao": "EKCH",
      "alert": "OK",
      "vis_m": 9999,
      "fzfg": false,
      "metar_trigger": false,
      "taf_trigger": false,
      "metar": "METAR EKCH 200120Z 14007KT CAVOK 17/17 Q1016 NOSIG",
      "taf": "TAF EKCH 192327Z 2000/2024 14008KT CAVOK"
    },
    {
      "icao": "ENAL",
      "alert": "OK",
      "vis_m": 9999,
      "fzfg": false,
      "metar_trigger": false,
      "taf_trigger": false,
      "metar": "METAR ENAL 200120Z AUTO 26013KT 9999 -RA SCT005/// BKN039/// BKN046/// 12/11 Q1006",
      "taf": "TAF ENAL 192300Z 2000/2009 24020KT 9999 -RA SCT010 BKN015"
    },
    {
      "icao": "ENBR",
      "alert": "OK",
      "vis_m": 7000,
      "fzfg": false,
      "metar_trigger": false,
      "taf_trigger": false,
      "metar": "METAR ENBR 200120Z 18016KT 7000 -RA OVC004 14/13 Q1009 RMK WIND 1200FT 20021G32KT",
      "taf": "TAF ENBR 192300Z 2000/2024 18018KT 8000 -RA SCT004 BKN007"
    },
    {
      "icao": "ENGM",
      "alert": "OK",
      "vis_m": 9999,
      "fzfg": false,
      "metar_trigger": false,
      "taf_trigger": false,
      "metar": "METAR ENGM 200120Z 19010KT 9999 FEW011 BKN034 17/15 Q1013",
      "taf": ""
    },
    {
      "icao": "ENHD",
      "alert": "OK",
      "vis_m": 5000,
      "fzfg": false,
      "metar_trigger": false,
      "taf_trigger": false,
      "metar": "METAR ENHD 200120Z AUTO 18012KT 150V210 5000 RA SCT003/// OVC004/// 15/14 Q1009 RERA REDZRA",
      "taf": "TAF ENHD 191400Z 1915/1922 17015KT 9999 BKN030"
    },
    {
      "icao": "ENTC",
      "alert": "OK",
      "vis_m": 9999,
      "fzfg": false,
      "metar_trigger": false,
      "taf_trigger": false,
      "metar": "METAR ENTC 200050Z AUTO 04006KT 9999 NCD 08/06 Q1010 RMK WIND 2600FT 17011KT",
      "taf": "TAF ENTC 192300Z 2000/2024 02006KT 9999 BKN040"
    },
    {
      "icao": "ENTO",
      "alert": "OK",
      "vis_m": 250,
      "fzfg": false,
      "metar_trigger": false,
      "taf_trigger": false,
      "metar": "METAR ENTO 200120Z AUTO 18002KT 0250 R17/1400D R35/P2000N BCFG VV002 16/16 Q1012",
      "taf": "TAF ENTO 192300Z 2000/2024 18007KT 9999 FEW010 BKN040"
    },
    {
      "icao": "ENVA",
      "alert": "OK",
      "vis_m": 9999,
      "fzfg": false,
      "metar_trigger": false,
      "taf_trigger": false,
      "metar": "METAR ENVA 200120Z AUTO 15009KT 9999 -RA NCD 21/15 Q1004 RMK WIND 670FT 17016G26KT",
      "taf": "TAF ENVA 192300Z 2000/2024 10007KT 9999 BKN055"
    },
    {
      "icao": "ENZV",
      "alert": "OK",
      "vis_m": 9000,
      "fzfg": false,
      "metar_trigger": false,
      "taf_trigger": false,
      "metar": "METAR ENZV 200120Z 16013KT 9000 SCT008 17/15 Q1010",
      "taf": "TAF ENZV 192300Z 2000/2024 16012KT 9999 FEW010"
    },
    {
      "icao": "EPGD",
      "alert": "OK",
      "vis_m": 9999,
      "fzfg": false,
      "metar_trigger": false,
      "taf_trigger": false,
      "metar": "METAR EPGD 200130Z 15003KT CAVOK 17/15 Q1020",
      "taf": "TAF EPGD 192330Z 2000/2024 VRB03KT CAVOK"
    },
    {
      "icao": "EPKK",
      "alert": "OK",
      "vis_m": 9999,
      "fzfg": false,
      "metar_trigger": false,
      "taf_trigger": false,
      "metar": "METAR EPKK 200130Z 03004KT CAVOK 20/17 Q1020",
      "taf": "TAF EPKK 192330Z 2000/2024 04004KT CAVOK"
    },
    {
      "icao": "EPKT",
      "alert": "OK",
      "vis_m": 9999,
      "fzfg": false,
      "metar_trigger": false,
      "taf_trigger": false,
      "metar": "METAR EPKT 200130Z 05009KT 9999 FEW050CB 19/18 Q1020 RETSRA",
      "taf": "TAF EPKT 192330Z 2000/2024 03005KT CAVOK"
    },
    {
      "icao": "EPLB",
      "alert": "OK",
      "vis_m": 9999,
      "fzfg": false,
      "metar_trigger": false,
      "taf_trigger": false,
      "metar": "METAR EPLB 200130Z 12001KT CAVOK 13/12 Q1022",
      "taf": "TAF EPLB 192330Z 2000/2024 VRB01KT CAVOK"
    },
    {
      "icao": "EPMO",
      "alert": "OK",
      "vis_m": 9999,
      "fzfg": false,
      "metar_trigger": false,
      "taf_trigger": false,
      "metar": "METAR EPMO 200130Z 12003KT CAVOK 16/15 Q1021",
      "taf": "TAF EPMO 192330Z 2000/2024 08003KT CAVOK"
    },
    {
      "icao": "EPPO",
      "alert": "OK",
      "vis_m": 6000,
      "fzfg": false,
      "metar_trigger": false,
      "taf_trigger": false,
      "metar": "METAR EPPO 200130Z 11004KT 6000 0700NW BCFG NSC 16/16 Q1019",
      "taf": "TAF EPPO 192330Z 2000/2024 11006KT CAVOK"
    },
    {
      "icao": "EPRA",
      "alert": "OK",
      "vis_m": 9999,
      "fzfg": false,
      "metar_trigger": false,
      "taf_trigger": false,
      "metar": "METAR EPRA 200130Z 14004KT CAVOK 16/12 Q1021",
      "taf": "TAF EPRA 192330Z 2000/2009 14005KT CAVOK"
    },
    {
      "icao": "EPRZ",
      "alert": "OK",
      "vis_m": 9999,
      "fzfg": false,
      "metar_trigger": false,
      "taf_trigger": false,
      "metar": "METAR EPRZ 200130Z 06004KT CAVOK 16/13 Q1021",
      "taf": "TAF EPRZ 192330Z 2000/2024 06004KT CAVOK"
    },
    {
      "icao": "EPSC",
      "alert": "OK",
      "vis_m": 9999,
      "fzfg": false,
      "metar_trigger": false,
      "taf_trigger": false,
      "metar": "METAR EPSC 200130Z 13005KT CAVOK 17/17 Q1017",
      "taf": "TAF EPSC 192330Z 2000/2024 12004KT CAVOK"
    },
    {
      "icao": "EPSY",
      "alert": "OK",
      "vis_m": 9999,
      "fzfg": false,
      "metar_trigger": false,
      "taf_trigger": false,
      "metar": "METAR EPSY 200130Z VRB02KT CAVOK 12/12 Q1022",
      "taf": "TAF EPSY 192330Z 2000/2009 VRB02KT CAVOK"
    },
    {
      "icao": "EPWA",
      "alert": "OK",
      "vis_m": 9999,
      "fzfg": false,
      "metar_trigger": false,
      "taf_trigger": false,
      "metar": "METAR EPWA 200130Z 13003KT CAVOK 18/14 Q1021 NOSIG",
      "taf": "TAF EPWA 192330Z 2000/2024 VRB02KT CAVOK"
    },
    {
      "icao": "EPWR",
      "alert": "OK",
      "vis_m": 9999,
      "fzfg": false,
      "metar_trigger": false,
      "taf_trigger": false,
      "metar": "METAR EPWR 200130Z 11004KT CAVOK 19/18 Q1018",
      "taf": "TAF EPWR 192330Z 2000/2024 16008KT CAVOK"
    },
    {
      "icao": "ESGG",
      "alert": "OK",
      "vis_m": 9999,
      "fzfg": false,
      "metar_trigger": false,
      "taf_trigger": false,
      "metar": "METAR ESGG 200120Z 16007KT CAVOK 18/16 Q1015",
      "taf": ""
    },
    {
      "icao": "ESKN",
      "alert": "OK",
      "vis_m": 9999,
      "fzfg": false,
      "metar_trigger": false,
      "taf_trigger": false,
      "metar": "METAR ESKN 200120Z 13002KT 9999 MIFG NSC 15/15 Q1016",
      "taf": "TAF ESKN 192330Z 2000/2024 VRB03KT CAVOK"
    },
    {
      "icao": "ESMS",
      "alert": "OK",
      "vis_m": 5000,
      "fzfg": false,
      "metar_trigger": false,
      "taf_trigger": false,
      "metar": "METAR ESMS 200120Z AUTO VRB03KT 5000 BR NCD 17/17 Q1017",
      "taf": "TAF ESMS 192327Z 2000/2024 13005KT CAVOK"
    },
    {
      "icao": "ESSA",
      "alert": "OK",
      "vis_m": 9999,
      "fzfg": false,
      "metar_trigger": false,
      "taf_trigger": false,
      "metar": "METAR ESSA 200120Z 21005KT CAVOK 14/12 Q1016 NOSIG",
      "taf": "TAF ESSA 192330Z 2000/2024 18009KT CAVOK"
    },
    {
      "icao": "EYKA",
      "alert": "OK",
      "vis_m": 9999,
      "fzfg": false,
      "metar_trigger": false,
      "taf_trigger": false,
      "metar": "METAR EYKA 200120Z VRB01KT CAVOK 12/11 Q1022",
      "taf": "TAF EYKA 192300Z 2000/2024 VRB03KT 8000 NSC"
    },
    {
      "icao": "EYPA",
      "alert": "OK",
      "vis_m": 9999,
      "fzfg": false,
      "metar_trigger": false,
      "taf_trigger": false,
      "metar": "METAR EYPA 200120Z 14003KT CAVOK 13/12 Q1021",
      "taf": "TAF EYPA 192300Z 2000/2024 VRB03KT 8000 NSC"
    },
    {
      "icao": "EYVI",
      "alert": "OK",
      "vis_m": 9999,
      "fzfg": false,
      "metar_trigger": false,
      "taf_trigger": false,
      "metar": "METAR EYVI 200120Z 18001KT 9999 MIFG NSC 10/09 Q1022 NOSIG",
      "taf": "TAF EYVI 192300Z 2000/2024 VRB03KT 5000 MIFG BR NSC"
    },
    {
      "icao": "GCFV",
      "alert": "OK",
      "vis_m": 9999,
      "fzfg": false,
      "metar_trigger": false,
      "taf_trigger": false,
      "metar": "METAR GCFV 200130Z AUTO 36008KT CAVOK 20/15 Q1017",
      "taf": "TAF GCFV 192000Z 1921/2021 36010KT 9999 SCT020 TX25/2014Z TN20/2006Z"
    },
    {
      "icao": "GCLP",
      "alert": "OK",
      "vis_m": 9999,
      "fzfg": false,
      "metar_trigger": false,
      "taf_trigger": false,
      "metar": "METAR GCLP 200130Z 01014KT 9999 FEW025 20/16 Q1017 NOSIG",
      "taf": "TAF GCLP 192000Z 1921/2021 01017KT 9999 FEW025 TX26/2014Z TN20/2006Z"
    },
    {
      "icao": "GCTS",
      "alert": "OK",
      "vis_m": 9999,
      "fzfg": false,
      "metar_trigger": false,
      "taf_trigger": false,
      "metar": "METAR GCTS 200130Z 06006KT 9999 SCT020 20/16 Q1018 NOSIG",
      "taf": "TAF GCTS 192000Z 1921/2021 06005KT 9999 SCT025 TX26/2014Z TN19/2006Z"
    },
    {
      "icao": "GMAD",
      "alert": "OK",
      "vis_m": 8000,
      "fzfg": false,
      "metar_trigger": false,
      "taf_trigger": false,
      "metar": "METAR GMAD 200130Z 20005KT 8000 SCT010 BKN020 20/17 Q1013 NOSIG",
      "taf": "TAF GMAD 192300Z 2000/2106 12005KT 8000 SCT020"
    },
    {
      "icao": "GMMN",
      "alert": "OK",
      "vis_m": 9999,
      "fzfg": false,
      "metar_trigger": false,
      "taf_trigger": false,
      "metar": "METAR GMMN 200130Z 29003KT 200V340 9999 BKN015 21/17 Q1014 NOSIG",
      "taf": "TAF GMMN 192300Z 2000/2106 26006KT 9999 BKN015"
    },
    {
      "icao": "GMMX",
      "alert": "OK",
      "vis_m": 9999,
      "fzfg": false,
      "metar_trigger": false,
      "taf_trigger": false,
      "metar": "METAR GMMX 200130Z 25006KT CAVOK 20/15 Q1014 NOSIG",
      "taf": "TAF GMMX 192300Z 2000/2106 06006KT 8000 NSC"
    },
    {
      "icao": "HEGN",
      "alert": "OK",
      "vis_m": 9999,
      "fzfg": false,
      "metar_trigger": false,
      "taf_trigger": false,
      "metar": "METAR HEGN 200100Z 31015KT CAVOK 28/13 Q1008 NOSIG",
      "taf": "TAF HEGN 192300Z 2000/2106 30012KT CAVOK"
    },
    {
      "icao": "HEMA",
      "alert": "OK",
      "vis_m": 9999,
      "fzfg": false,
      "metar_trigger": false,
      "taf_trigger": false,
      "metar": "METAR HEMA 200100Z 33010KT CAVOK 29/08 Q1007 NOSIG",
      "taf": "TAF HEMA 192300Z 2000/2106 26010KT CAVOK"
    },
    {
      "icao": "HESH",
      "alert": "OK",
      "vis_m": 9999,
      "fzfg": false,
      "metar_trigger": false,
      "taf_trigger": false,
      "metar": "METAR HESH 200100Z 34012KT CAVOK 29/17 Q1007 NOSIG",
      "taf": "TAF HESH 192300Z 2000/2106 32010KT CAVOK"
    },
    {
      "icao": "HESX",
      "alert": "OK",
      "vis_m": 9999,
      "fzfg": false,
      "metar_trigger": false,
      "taf_trigger": false,
      "metar": "METAR HESX 200100Z 03005KT CAVOK 22/18 Q1012 NOSIG",
      "taf": "TAF HESX 192300Z 2000/2106 36010KT CAVOK"
    },
    {
      "icao": "LATI",
      "alert": "OK",
      "vis_m": 9999,
      "fzfg": false,
      "metar_trigger": false,
      "taf_trigger": false,
      "metar": "METAR LATI 200150Z 12003KT CAVOK 18/15 Q1018 NOSIG",
      "taf": "TAF LATI 192300Z 2000/2024 VRB03KT CAVOK TX35/2012Z TN18/2004Z"
    },
    {
      "icao": "LBPD",
      "alert": "OK",
      "vis_m": 9999,
      "fzfg": false,
      "metar_trigger": false,
      "taf_trigger": false,
      "metar": "METAR LBPD 200130Z AUTO 24003KT 9999 NCD 14/11 Q1021",
      "taf": "TAF LBPD 192300Z 2000/2024 VRB04KT 9999 SCT070"
    },
    {
      "icao": "LBSF",
      "alert": "OK",
      "vis_m": 9999,
      "fzfg": false,
      "metar_trigger": false,
      "taf_trigger": false,
      "metar": "METAR LBSF 200130Z AUTO 00000KT 9999 NSC 11/10 Q1023 NOSIG",
      "taf": "TAF LBSF 192300Z 2000/2024 VRB04KT CAVOK"
    },
    {
      "icao": "LBWN",
      "alert": "OK",
      "vis_m": 9999,
      "fzfg": false,
      "metar_trigger": false,
      "taf_trigger": false,
      "metar": "METAR LBWN 200130Z AUTO 29004KT 270V340 9999 NCD 14/13 Q1019 NOSIG",
      "taf": "TAF LBWN 192300Z 2000/2024 VRB03KT CAVOK"
    },
    {
      "icao": "LCLK",
      "alert": "OK",
      "vis_m": 9999,
      "fzfg": false,
      "metar_trigger": false,
      "taf_trigger": false,
      "metar": "METAR LCLK 200130Z 28003KT CAVOK 21/19 Q1010 NOSIG",
      "taf": "TAF LCLK 192330Z 2000/2100 24006KT 9999 SCT025"
    },
    {
      "icao": "LCPH",
      "alert": "OK",
      "vis_m": 9999,
      "fzfg": false,
      "metar_trigger": false,
      "taf_trigger": false,
      "metar": "METAR LCPH 200130Z AUTO 02002KT 9999 NCD 21/17 Q1010 NOSIG",
      "taf": "TAF LCPH 192330Z 2000/2100 02006KT 9999 FEW018"
    },
    {
      "icao": "LEAL",
      "alert": "OK",
      "vis_m": 9999,
      "fzfg": false,
      "metar_trigger": false,
      "taf_trigger": false,
      "metar": "METAR LEAL 200130Z 26005KT CAVOK 25/19 Q1014 NOSIG",
      "taf": "TAF LEAL 192300Z 2000/2024 VRB04KT CAVOK TX33/2012Z TN23/2005Z"
    },
    {
      "icao": "LEBB",
      "alert": "OK",
      "vis_m": 9999,
      "fzfg": false,
      "metar_trigger": false,
      "taf_trigger": false,
      "metar": "METAR LEBB 200130Z AUTO VRB02KT 9999 OVC018 21/20 Q1017",
      "taf": "TAF LEBB 192300Z 2000/2024 VRB03KT 9999 SCT020 TX31/2012Z TN19/2005Z"
    },
    {
      "icao": "LEBL",
      "alert": "OK",
      "vis_m": 9999,
      "fzfg": false,
      "metar_trigger": false,
      "taf_trigger": false,
      "metar": "METAR LEBL 200130Z 02005KT CAVOK 23/17 Q1018 NOSIG",
      "taf": "TAF LEBL 192300Z 2000/2024 07010KT CAVOK TX30/2012Z TN23/2006Z"
    },
    {
      "icao": "LECH",
      "alert": "OK",
      "vis_m": 9999,
      "fzfg": false,
      "metar_trigger": false,
      "taf_trigger": false,
      "metar": "METAR LECH 200130Z AUTO 02008KT 350V050 CAVOK 22/16 Q1019",
      "taf": "TAF LECH 192300Z 2000/2024 04010KT CAVOK TX35/2012Z TN19/2005Z"
    },
    {
      "icao": "LEMD",
      "alert": "OK",
      "vis_m": 9999,
      "fzfg": false,
      "metar_trigger": false,
      "taf_trigger": false,
      "metar": "METAR LEMD 200130Z 09003KT 020V140 9999 SCT080 26/14 Q1017 NOSIG",
      "taf": "TAF LEMD 192300Z 2000/2106 VRB04KT CAVOK TX37/2015Z TN19/2005Z"
    },
    {
      "icao": "LEMG",
      "alert": "OK",
      "vis_m": 9999,
      "fzfg": false,
      "metar_trigger": false,
      "taf_trigger": false,
      "metar": "METAR LEMG 200130Z 30006KT CAVOK 22/18 Q1013 NOSIG",
      "taf": "TAF LEMG 192300Z 2000/2024 29009KT CAVOK TX31/2014Z TN22/2006Z"
    },
    {
      "icao": "LEVC",
      "alert": "OK",
      "vis_m": 9999,
      "fzfg": false,
      "metar_trigger": false,
      "taf_trigger": false,
      "metar": "METAR LEVC 200130Z 09001KT 9999 FEW015 23/21 Q1017 NOSIG",
      "taf": "TAF LEVC 192300Z 2000/2024 VRB04KT 9999 FEW015 TX32/2012Z TN20/2005Z"
    },
    {
      "icao": "LEXJ",
      "alert": "OK",
      "vis_m": 7000,
      "fzfg": false,
      "metar_trigger": false,
      "taf_trigger": false,
      "metar": "METAR LEXJ 200130Z AUTO VRB01KT 7000 BKN006 OVC022 19/19 Q1017",
      "taf": "TAF LEXJ 192000Z 1921/2021 06009KT 9999 BKN016 TX26/2015Z TN19/2005Z"
    },
    {
      "icao": "LEZG",
      "alert": "OK",
      "vis_m": 9999,
      "fzfg": false,
      "metar_trigger": false,
      "taf_trigger": false,
      "metar": "METAR LEZG 200130Z 15009KT CAVOK 25/12 Q1018 NOSIG",
      "taf": "TAF LEZG 192300Z 2000/2024 12007KT CAVOK TX39/2015Z TN22/2005Z"
    },
    {
      "icao": "LEZL",
      "alert": "OK",
      "vis_m": 9999,
      "fzfg": false,
      "metar_trigger": false,
      "taf_trigger": false,
      "metar": "METAR LEZL 200130Z AUTO 27003KT 230V300 CAVOK 25/20 Q1014",
      "taf": "TAF LEZL 192000Z 1921/2021 21012KT CAVOK TX38/2015Z TN22/2006Z"
    },
    {
      "icao": "LFBD",
      "alert": "OK",
      "vis_m": 9999,
      "fzfg": false,
      "metar_trigger": false,
      "taf_trigger": false,
      "metar": "METAR LFBD 200130Z AUTO 33005KT 270V360 9999 ///CB 20/18 Q1016 TEMPO SHRA BKN008",
      "taf": ""
    },
    {
      "icao": "LFLL",
      "alert": "OK",
      "vis_m": 9999,
      "fzfg": false,
      "metar_trigger": false,
      "taf_trigger": false,
      "metar": "METAR LFLL 200130Z 15007KT CAVOK 23/10 Q1019 NOSIG",
      "taf": "TAF LFLL 192300Z 2000/2106 19010KT CAVOK"
    },
    {
      "icao": "LFLS",
      "alert": "OK",
      "vis_m": 9999,
      "fzfg": false,
      "metar_trigger": false,
      "taf_trigger": false,
      "metar": "METAR LFLS 200130Z AUTO 09007KT CAVOK 15/11 Q1021",
      "taf": "TAF LFLS 191400Z 1915/2015 22010KT CAVOK"
    },
    {
      "icao": "LFMN",
      "alert": "OK",
      "vis_m": 9999,
      "fzfg": false,
      "metar_trigger": false,
      "taf_trigger": false,
      "metar": "METAR LFMN 200130Z VRB02KT CAVOK 25/14 Q1018 NOSIG",
      "taf": "TAF LFMN 192000Z 1921/2103 VRB04KT CAVOK"
    },
    {
      "icao": "LFOB",
      "alert": "OK",
      "vis_m": 9999,
      "fzfg": false,
      "metar_trigger": false,
      "taf_trigger": false,
      "metar": "METAR LFOB 200130Z AUTO 00000KT CAVOK 16/15 Q1016 NOSIG",
      "taf": ""
    },
    {
      "icao": "LFPO",
      "alert": "OK",
      "vis_m": 9999,
      "fzfg": false,
      "metar_trigger": false,
      "taf_trigger": false,
      "metar": "METAR LFPO 200130Z AUTO 33005KT CAVOK 22/17 Q1016 NOSIG",
      "taf": "TAF LFPO 192300Z 2000/2106 29008KT CAVOK"
    },
    {
      "icao": "LFSB",
      "alert": "OK",
      "vis_m": 9999,
      "fzfg": false,
      "metar_trigger": false,
      "taf_trigger": false,
      "metar": "METAR LFSB 200130Z AUTO 29002KT CAVOK 18/16 Q1020 NOSIG",
      "taf": "TAF LFSB 192300Z 2000/2024 13005KT CAVOK"
    },
    {
      "icao": "LGAV",
      "alert": "OK",
      "vis_m": 9999,
      "fzfg": false,
      "metar_trigger": false,
      "taf_trigger": false,
      "metar": "METAR LGAV 200120Z 36013KT 9999 FEW025 22/11 Q1017 NOSIG",
      "taf": "TAF LGAV 192300Z 2000/2024 01010KT 9999 FEW025"
    },
    {
      "icao": "LGTS",
      "alert": "OK",
      "vis_m": 9999,
      "fzfg": false,
      "metar_trigger": false,
      "taf_trigger": false,
      "metar": "METAR LGTS 200120Z 10004KT 9999 FEW025 19/16 Q1020 NOSIG",
      "taf": "TAF LGTS 192300Z 2000/2024 VRB03KT 9999 FEW030"
    },
    {
      "icao": "LHBP",
      "alert": "OK",
      "vis_m": 9999,
      "fzfg": false,
      "metar_trigger": false,
      "taf_trigger": false,
      "metar": "METAR LHBP 200130Z 00000KT CAVOK 18/14 Q1020 NOSIG",
      "taf": "TAF LHBP 192315Z 2000/2024 VRB04KT CAVOK"
    },
    {
      "icao": "LHDC",
      "alert": "OK",
      "vis_m": 9999,
      "fzfg": false,
      "metar_trigger": false,
      "taf_trigger": false,
      "metar": "METAR LHDC 200115Z AUTO 00000KT CAVOK 18/15 Q1021",
      "taf": "TAF LHDC 191415Z 1915/1924 VRB03KT CAVOK"
    },
    {
      "icao": "LIBD",
      "alert": "OK",
      "vis_m": 9999,
      "fzfg": false,
      "metar_trigger": false,
      "taf_trigger": false,
      "metar": "METAR LIBD 200120Z AUTO 23006KT 9999 NCD 20/14 Q1019",
      "taf": "TAF LIBD 192300Z 2000/2024 VRB05KT CAVOK"
    },
    {
      "icao": "LIBG",
      "alert": "OK",
      "vis_m": 9999,
      "fzfg": false,
      "metar_trigger": false,
      "taf_trigger": false,
      "metar": "METAR LIBG 200120Z AUTO VRB01KT 9999 NCD 19/12 Q1018",
      "taf": "TAF LIBG 192300Z 2000/2024 VRB05KT CAVOK"
    },
    {
      "icao": "LIBP",
      "alert": "OK",
      "vis_m": 9999,
      "fzfg": false,
      "metar_trigger": false,
      "taf_trigger": false,
      "metar": "METAR LIBP 200120Z AUTO 21005KT 9999 NCD 17/15 Q1019",
      "taf": "TAF LIBP 192300Z 2000/2024 VRB05KT CAVOK"
    },
    {
      "icao": "LIBR",
      "alert": "OK",
      "vis_m": 9999,
      "fzfg": false,
      "metar_trigger": false,
      "taf_trigger": false,
      "metar": "METAR LIBR 200120Z 32008KT CAVOK 24/18 Q1018",
      "taf": "TAF LIBR 192300Z 2000/2024 35012KT CAVOK"
    },
    {
      "icao": "LICA",
      "alert": "OK",
      "vis_m": 9999,
      "fzfg": false,
      "metar_trigger": false,
      "taf_trigger": false,
      "metar": "METAR LICA 200120Z AUTO 07005KT 9999 NCD 20/19 Q1019",
      "taf": "TAF LICA 192300Z 2000/2024 VRB05KT 9999 SCT015"
    },
    {
      "icao": "LICC",
      "alert": "OK",
      "vis_m": 9999,
      "fzfg": false,
      "metar_trigger": false,
      "taf_trigger": false,
      "metar": "METAR LICC 200120Z 24005KT CAVOK 20/12 Q1018",
      "taf": "TAF LICC 192300Z 2000/2024 VRB05KT 9999 FEW040"
    },
    {
      "icao": "LICJ",
      "alert": "OK",
      "vis_m": 9999,
      "fzfg": false,
      "metar_trigger": false,
      "taf_trigger": false,
      "metar": "METAR LICJ 200120Z 20005KT CAVOK 23/22 Q1018",
      "taf": "TAF LICJ 192300Z 2000/2024 VRB05KT CAVOK"
    },
    {
      "icao": "LIMC",
      "alert": "OK",
      "vis_m": 9999,
      "fzfg": false,
      "metar_trigger": false,
      "taf_trigger": false,
      "metar": "METAR LIMC 200120Z 07004KT 050V120 CAVOK 22/20 Q1020 NOSIG",
      "taf": "TAF LIMC 192300Z 2000/2106 VRB05KT 9999 FEW050"
    },
    {
      "icao": "LIME",
      "alert": "OK",
      "vis_m": 9999,
      "fzfg": false,
      "metar_trigger": false,
      "taf_trigger": false,
      "metar": "METAR LIME 200120Z 01005KT CAVOK 24/17 Q1020 NOSIG",
      "taf": "TAF LIME 192300Z 2000/2024 VRB05KT 9999 FEW040"
    },
    {
      "icao": "LIMF",
      "alert": "OK",
      "vis_m": 9999,
      "fzfg": false,
      "metar_trigger": false,
      "taf_trigger": false,
      "metar": "METAR LIMF 200120Z 32004KT 280V350 CAVOK 24/17 Q1020",
      "taf": "TAF LIMF 192300Z 2000/2024 VRB05KT 9999 FEW060"
    },
    {
      "icao": "LIMJ",
      "alert": "OK",
      "vis_m": 9999,
      "fzfg": false,
      "metar_trigger": false,
      "taf_trigger": false,
      "metar": "METAR LIMJ 200120Z 35003KT CAVOK 24/15 Q1019",
      "taf": "TAF LIMJ 192300Z 2000/2024 VRB05KT CAVOK"
    },
    {
      "icao": "LIPE",
      "alert": "OK",
      "vis_m": 9999,
      "fzfg": false,
      "metar_trigger": false,
      "taf_trigger": false,
      "metar": "METAR LIPE 200120Z 20008KT CAVOK 25/17 Q1018",
      "taf": "TAF LIPE 192300Z 2000/2024 VRB05KT CAVOK"
    },
    {
      "icao": "LIPH",
      "alert": "OK",
      "vis_m": 9999,
      "fzfg": false,
      "metar_trigger": false,
      "taf_trigger": false,
      "metar": "METAR LIPH 200120Z AUTO 36002KT 9999 NCD 23/20 Q1019",
      "taf": "TAF LIPH 192300Z 2000/2024 VRB05KT CAVOK"
    },
    {
      "icao": "LIPQ",
      "alert": "OK",
      "vis_m": 9999,
      "fzfg": false,
      "metar_trigger": false,
      "taf_trigger": false,
      "metar": "METAR LIPQ 200120Z AUTO 10002KT 9999 NCD 20/19 Q1019",
      "taf": "TAF LIPQ 192300Z 2000/2024 VRB05KT CAVOK"
    },
    {
      "icao": "LIPR",
      "alert": "OK",
      "vis_m": 9999,
      "fzfg": false,
      "metar_trigger": false,
      "taf_trigger": false,
      "metar": "METAR LIPR 200120Z AUTO VRB01KT 9999 NCD 20/17 Q1018",
      "taf": "TAF LIPR 192300Z 2000/2024 VRB05KT CAVOK"
    },
    {
      "icao": "LIPX",
      "alert": "OK",
      "vis_m": 9999,
      "fzfg": false,
      "metar_trigger": false,
      "taf_trigger": false,
      "metar": "METAR LIPX 200120Z 35002KT CAVOK 23/19 Q1019",
      "taf": "TAF LIPX 192300Z 2000/2024 VRB05KT CAVOK"
    },
    {
      "icao": "LIPY",
      "alert": "OK",
      "vis_m": 9999,
      "fzfg": false,
      "metar_trigger": false,
      "taf_trigger": false,
      "metar": "METAR LIPY 200120Z AUTO 17003KT 120V220 9999 NCD 21/16 Q1019",
      "taf": "TAF LIPY 192300Z 2000/2024 VRB05KT CAVOK"
    },
    {
      "icao": "LIPZ",
      "alert": "OK",
      "vis_m": 9999,
      "fzfg": false,
      "metar_trigger": false,
      "taf_trigger": false,
      "metar": "METAR LIPZ 200120Z VRB01KT CAVOK 24/23 Q1019 NOSIG",
      "taf": "TAF LIPZ 192300Z 2000/2106 VRB05KT CAVOK"
    },
    {
      "icao": "LIRF",
      "alert": "OK",
      "vis_m": 9999,
      "fzfg": false,
      "metar_trigger": false,
      "taf_trigger": false,
      "metar": "METAR LIRF 200120Z 35001KT CAVOK 21/20 Q1018 NOSIG",
      "taf": "TAF LIRF 192300Z 2000/2106 VRB05KT CAVOK"
    },
    {
      "icao": "LIRN",
      "alert": "OK",
      "vis_m": 9999,
      "fzfg": false,
      "metar_trigger": false,
      "taf_trigger": false,
      "metar": "METAR LIRN 200120Z VRB01KT CAVOK 25/15 Q1018 NOSIG",
      "taf": "TAF LIRN 192300Z 2000/2024 VRB05KT CAVOK"
    },
    {
      "icao": "LIRP",
      "alert": "OK",
      "vis_m": 9999,
      "fzfg": false,
      "metar_trigger": false,
      "taf_trigger": false,
      "metar": "METAR LIRP 200115Z 14002KT CAVOK 18/17 Q1019 NOSIG",
      "taf": "TAF LIRP 192300Z 2000/2024 VRB03KT CAVOK"
    },
    {
      "icao": "LIRZ",
      "alert": "OK",
      "vis_m": 9999,
      "fzfg": false,
      "metar_trigger": false,
      "taf_trigger": false,
      "metar": "METAR LIRZ 200120Z AUTO 03007KT 9999 NCD 21/16 Q1020",
      "taf": "TAF LIRZ 192300Z 2000/2024 VRB05KT 9999 FEW035"
    },
    {
      "icao": "LJLJ",
      "alert": "OK",
      "vis_m": 9999,
      "fzfg": false,
      "metar_trigger": false,
      "taf_trigger": false,
      "metar": "METAR LJLJ 200130Z VRB04KT CAVOK 19/17 Q1021 NOSIG",
      "taf": "TAF LJLJ 192300Z 2000/2100 08005KT 9999 FEW060"
    },
    {
      "icao": "LKMT",
      "alert": "OK",
      "vis_m": 9999,
      "fzfg": false,
      "metar_trigger": false,
      "taf_trigger": false,
      "metar": "METAR LKMT 200130Z VRB01KT CAVOK 19/17 Q1020 NOSIG",
      "taf": "TAF LKMT 192300Z 2000/2024 VRB02KT CAVOK"
    },
    {
      "icao": "LKPR",
      "alert": "OK",
      "vis_m": 9999,
      "fzfg": false,
      "metar_trigger": false,
      "taf_trigger": false,
      "metar": "METAR LKPR 200130Z 03005KT CAVOK 21/15 Q1018 NOSIG",
      "taf": "TAF LKPR 192300Z 2000/2106 17006KT CAVOK"
    },
    {
      "icao": "LLBG",
      "alert": "OK",
      "vis_m": 9999,
      "fzfg": false,
      "metar_trigger": false,
      "taf_trigger": false,
      "metar": "METAR LLBG 200120Z 13004KT 9999 FEW023 22/15 Q1011 NOSIG",
      "taf": "TAF LLBG 192311Z 2000/2024 VRB03KT CAVOK TX31/2011Z TN20/2003Z"
    },
    {
      "icao": "LMML",
      "alert": "OK",
      "vis_m": 9999,
      "fzfg": false,
      "metar_trigger": false,
      "taf_trigger": false,
      "metar": "METAR LMML 200145Z 23003KT CAVOK 23/21 Q1018 NOSIG",
      "taf": "TAF LMML 192300Z 2000/2024 VRB05KT CAVOK"
    },
    {
      "icao": "LOWW",
      "alert": "OK",
      "vis_m": 9999,
      "fzfg": false,
      "metar_trigger": false,
      "taf_trigger": false,
      "metar": "METAR LOWW 200120Z 14002KT CAVOK 21/17 Q1019 NOSIG",
      "taf": "TAF LOWW 192315Z 2000/2106 14005KT CAVOK TX33/2013Z TN21/2003Z"
    },
    {
      "icao": "LPFR",
      "alert": "OK",
      "vis_m": 9999,
      "fzfg": false,
      "metar_trigger": false,
      "taf_trigger": false,
      "metar": "METAR LPFR 200130Z 03006KT CAVOK 24/12 Q1014",
      "taf": "TAF LPFR 192300Z 2000/2024 VRB02KT CAVOK"
    },
    {
      "icao": "LPMA",
      "alert": "OK",
      "vis_m": 9999,
      "fzfg": false,
      "metar_trigger": false,
      "taf_trigger": false,
      "metar": "METAR LPMA 200130Z 28003KT 9999 FEW015 20/16 Q1018",
      "taf": "TAF LPMA 192300Z 2000/2024 VRB05KT 9999 SCT015"
    },
    {
      "icao": "LPPR",
      "alert": "OK",
      "vis_m": 9999,
      "fzfg": false,
      "metar_trigger": false,
      "taf_trigger": false,
      "metar": "METAR LPPR 200130Z VRB01KT CAVOK 17/16 Q1016",
      "taf": "TAF LPPR 192300Z 2000/2024 VRB02KT 6000 SCT006"
    },
    {
      "icao": "LPPS",
      "alert": "OK",
      "vis_m": 9999,
      "fzfg": false,
      "metar_trigger": false,
      "taf_trigger": false,
      "metar": "METAR LPPS 200130Z 30002KT 9999 FEW015 19/17 Q1018",
      "taf": "TAF LPPS 192300Z 2000/2106 VRB05KT 9999 SCT015"
    },
    {
      "icao": "LPPT",
      "alert": "OK",
      "vis_m": 9999,
      "fzfg": false,
      "metar_trigger": false,
      "taf_trigger": false,
      "metar": "METAR LPPT 200130Z 33008KT 290V350 9999 FEW012 19/16 Q1015",
      "taf": "TAF LPPT 192300Z 2000/2106 33008KT 9999 SCT012"
    },
    {
      "icao": "LQBK",
      "alert": "OK",
      "vis_m": 9999,
      "fzfg": false,
      "metar_trigger": false,
      "taf_trigger": false,
      "metar": "METAR LQBK 200130Z 00000KT CAVOK 17/15 Q1021 NOSIG",
      "taf": "TAF LQBK 192300Z 2000/2024 VRB02KT CAVOK TX32/2014Z TN16/2003Z"
    },
    {
      "icao": "LQSA",
      "alert": "OK",
      "vis_m": 9999,
      "fzfg": false,
      "metar_trigger": false,
      "taf_trigger": false,
      "metar": "METAR LQSA 200130Z VRB01KT CAVOK 15/13 Q1023",
      "taf": "TAF LQSA 192300Z 2000/2024 VRB02KT CAVOK TX32/2014Z TN15/2003Z"
    },
    {
      "icao": "LQTZ",
      "alert": "OK",
      "vis_m": 9999,
      "fzfg": false,
      "metar_trigger": false,
      "taf_trigger": false,
      "metar": "METAR LQTZ 200130Z VRB02KT CAVOK 14/14 Q1022",
      "taf": "TAF LQTZ 192300Z 2000/2024 VRB02KT CAVOK TX31/2014Z TN13/2003Z"
    },
    {
      "icao": "LRBC",
      "alert": "OK",
      "vis_m": 9999,
      "fzfg": false,
      "metar_trigger": false,
      "taf_trigger": false,
      "metar": "METAR LRBC 200130Z 00000KT CAVOK 15/14 Q1021",
      "taf": "TAF LRBC 192300Z 2000/2009 VRB04KT CAVOK"
    },
    {
      "icao": "LRBS",
      "alert": "OK",
      "vis_m": 9999,
      "fzfg": false,
      "metar_trigger": false,
      "taf_trigger": false,
      "metar": "METAR LRBS 200130Z 28003KT 250V320 CAVOK 18/15 Q1020 NOSIG",
      "taf": "TAF LRBS 192300Z 2000/2024 VRB04KT CAVOK"
    },
    {
      "icao": "LRBV",
      "alert": "OK",
      "vis_m": 9999,
      "fzfg": false,
      "metar_trigger": false,
      "taf_trigger": false,
      "metar": "METAR LRBV 200130Z AUTO VRB02KT 9999 OVC088/// 14/13 Q1023",
      "taf": "TAF LRBV 192000Z 1921/2006 VRB04KT CAVOK"
    },
    {
      "icao": "LRCL",
      "alert": "OK",
      "vis_m": 9999,
      "fzfg": false,
      "metar_trigger": false,
      "taf_trigger": false,
      "metar": "METAR LRCL 200130Z 28005KT CAVOK 16/13 Q1022",
      "taf": "TAF LRCL 192300Z 2000/2009 VRB04KT CAVOK"
    },
    {
      "icao": "LRCV",
      "alert": "OK",
      "vis_m": 9999,
      "fzfg": false,
      "metar_trigger": false,
      "taf_trigger": false,
      "metar": "METAR LRCV 200130Z 09004KT CAVOK 16/14 Q1021",
      "taf": "TAF LRCV 192300Z 2000/2009 VRB04KT CAVOK"
    },
    {
      "icao": "LRIA",
      "alert": "OK",
      "vis_m": 9999,
      "fzfg": false,
      "metar_trigger": false,
      "taf_trigger": false,
      "metar": "METAR LRIA 200130Z 23001KT CAVOK 18/15 Q1020",
      "taf": "TAF LRIA 192300Z 2000/2009 VRB04KT CAVOK"
    },
    {
      "icao": "LROP",
      "alert": "OK",
      "vis_m": 9999,
      "fzfg": false,
      "metar_trigger": false,
      "taf_trigger": false,
      "metar": "METAR LROP 200130Z 30004KT CAVOK 17/16 Q1021 NOSIG",
      "taf": "TAF LROP 192300Z 2000/2024 VRB04KT CAVOK"
    },
    {
      "icao": "LRSB",
      "alert": "OK",
      "vis_m": 9999,
      "fzfg": false,
      "metar_trigger": false,
      "taf_trigger": false,
      "metar": "METAR LRSB 200130Z 24003KT CAVOK 14/12 Q1022",
      "taf": "TAF LRSB 192300Z 2000/2024 VRB04KT CAVOK"
    },
    {
      "icao": "LRSM",
      "alert": "OK",
      "vis_m": 9999,
      "fzfg": false,
      "metar_trigger": false,
      "taf_trigger": false,
      "metar": "METAR LRSM 200130Z AUTO 10004KT 9999 NCD 16/15 Q1021",
      "taf": "TAF LRSM 191400Z 1915/1924 VRB04KT CAVOK"
    },
    {
      "icao": "LRSV",
      "alert": "OK",
      "vis_m": 9999,
      "fzfg": false,
      "metar_trigger": false,
      "taf_trigger": false,
      "metar": "METAR LRSV 200130Z 29008KT CAVOK 19/14 Q1021",
      "taf": "TAF LRSV 192300Z 2000/2009 28008KT CAVOK"
    },
    {
      "icao": "LRTM",
      "alert": "OK",
      "vis_m": 9999,
      "fzfg": false,
      "metar_trigger": false,
      "taf_trigger": false,
      "metar": "METAR LRTM 200130Z VRB01KT CAVOK 14/13 Q1022",
      "taf": "TAF LRTM 192300Z 2000/2009 VRB04KT CAVOK"
    },
    {
      "icao": "LRTR",
      "alert": "OK",
      "vis_m": 9999,
      "fzfg": false,
      "metar_trigger": false,
      "taf_trigger": false,
      "metar": "METAR LRTR 200130Z 07006KT CAVOK 15/14 Q1020",
      "taf": "TAF LRTR 192300Z 2000/2024 VRB04KT CAVOK"
    },
    {
      "icao": "LTAC",
      "alert": "OK",
      "vis_m": 9999,
      "fzfg": false,
      "metar_trigger": false,
      "taf_trigger": false,
      "metar": "METAR LTAC 200120Z 06007KT 9999 SCT040 SCT100 15/10 Q1018 NOSIG RMK RWY21C 07006KT RWY03L 04005KT RWY21R 04004KT RWY03R 04007KT RWY21L 05006KT",
      "taf": "TAF LTAC 192240Z 2000/2024 03009KT 9999 SCT040 SCT100"
    },
    {
      "icao": "LTFM",
      "alert": "OK",
      "vis_m": 9999,
      "fzfg": false,
      "metar_trigger": false,
      "taf_trigger": false,
      "metar": "METAR LTFM 200120Z 03009KT 9999 BKN012 20/17 Q1018 NOSIG RMK RWY17L 03010KT RWY34L 02010KT RWY16R 03009KT RWY36 03010KT RWY18 04009KT",
      "taf": "TAF LTFM 192240Z 2000/2106 04015KT 9999 FEW012"
    },
    {
      "icao": "LUKK",
      "alert": "OK",
      "vis_m": 9999,
      "fzfg": false,
      "metar_trigger": false,
      "taf_trigger": false,
      "metar": "METAR LUKK 200130Z 26003KT CAVOK 15/14 Q1020 NOSIG",
      "taf": "TAF LUKK 192319Z 2000/2024 VRB05KT CAVOK"
    },
    {
      "icao": "LWOH",
      "alert": "OK",
      "vis_m": 9999,
      "fzfg": false,
      "metar_trigger": false,
      "taf_trigger": false,
      "metar": "METAR LWOH 200150Z 35008KT 9999 FEW035 15/11 Q1022",
      "taf": ""
    },
    {
      "icao": "LWSK",
      "alert": "OK",
      "vis_m": 9999,
      "fzfg": false,
      "metar_trigger": false,
      "taf_trigger": false,
      "metar": "METAR LWSK 200150Z 02004KT CAVOK 17/13 Q1021 NOSIG",
      "taf": ""
    },
    {
      "icao": "LYBE",
      "alert": "OK",
      "vis_m": 9999,
      "fzfg": false,
      "metar_trigger": false,
      "taf_trigger": false,
      "metar": "METAR LYBE 200130Z 20004KT 180V250 CAVOK 20/16 Q1021 NOSIG",
      "taf": "TAF LYBE 192300Z 2000/2024 24004KT CAVOK TX32/2014Z TN18/2003Z"
    },
    {
      "icao": "LYNI",
      "alert": "OK",
      "vis_m": 9999,
      "fzfg": false,
      "metar_trigger": false,
      "taf_trigger": false,
      "metar": "METAR LYNI 200130Z 14001KT CAVOK 15/12 Q1021 NOSIG",
      "taf": "TAF LYNI 192300Z 2000/2024 11004KT CAVOK TX32/2014Z TN15/2003Z"
    },
    {
      "icao": "LYPG",
      "alert": "OK",
      "vis_m": 9999,
      "fzfg": false,
      "metar_trigger": false,
      "taf_trigger": false,
      "metar": "METAR LYPG 200130Z 36008KT CAVOK 25/13 Q1019 NOSIG",
      "taf": "TAF LYPG 192300Z 2000/2024 36010KT CAVOK TX34/2014Z TN24/2003Z"
    },
    {
      "icao": "LZIB",
      "alert": "OK",
      "vis_m": 9999,
      "fzfg": false,
      "metar_trigger": false,
      "taf_trigger": false,
      "metar": "METAR LZIB 200130Z 02004KT CAVOK 20/15 Q1019 NOSIG",
      "taf": "TAF LZIB 192315Z 2000/2100 10004KT CAVOK"
    },
    {
      "icao": "LZKZ",
      "alert": "OK",
      "vis_m": 9999,
      "fzfg": false,
      "metar_trigger": false,
      "taf_trigger": false,
      "metar": "METAR LZKZ 200130Z 01002KT CAVOK 20/16 Q1021 NOSIG",
      "taf": "TAF LZKZ 192315Z 2000/2100 01003KT CAVOK"
    },
    {
      "icao": "LZTT",
      "alert": "OK",
      "vis_m": 9999,
      "fzfg": false,
      "metar_trigger": false,
      "taf_trigger": false,
      "metar": "METAR LZTT 200130Z 28002KT 9999 FEW056 14/13 Q1023",
      "taf": "TAF LZTT 192315Z 2000/2100 28004KT 9999 FEW055"
    },
    {
      "icao": "OEJN",
      "alert": "OK",
      "vis_m": 9999,
      "fzfg": false,
      "metar_trigger": false,
      "taf_trigger": false,
      "metar": "METAR OEJN 200100Z 34002KT CAVOK 28/20 Q1004 NOSIG",
      "taf": "TAF OEJN 192300Z 2000/2106 VRB03KT CAVOK"
    },
    {
      "icao": "OEMA",
      "alert": "OK",
      "vis_m": 9999,
      "fzfg": false,
      "metar_trigger": false,
      "taf_trigger": false,
      "metar": "METAR OEMA 200100Z 06007KT CAVOK 33/M07 Q1009 NOSIG",
      "taf": "TAF OEMA 192300Z 2000/2106 VRB03KT CAVOK"
    },
    {
      "icao": "OJAI",
      "alert": "OK",
      "vis_m": 5000,
      "fzfg": false,
      "metar_trigger": false,
      "taf_trigger": false,
      "metar": "METAR OJAI 200100Z 10004KT 5000 HZ NSC 15/06 Q1014 NOSIG",
      "taf": "TAF OJAI 192226Z 2000/2106 VRB02KT 5000 HZ NSC"
    },
    {
      "icao": "OMAA",
      "alert": "OK",
      "vis_m": 9999,
      "fzfg": false,
      "metar_trigger": false,
      "taf_trigger": false,
      "metar": "METAR OMAA 200130Z 29003KT 220V320 CAVOK 33/12 Q1002 NOSIG",
      "taf": "TAF OMAA 192300Z 2000/2106 VRB02KT 8000 NSC"
    },
    {
      "icao": "OMDB",
      "alert": "OK",
      "vis_m": 9999,
      "fzfg": false,
      "metar_trigger": false,
      "taf_trigger": false,
      "metar": "METAR OMDB 200130Z 09004KT 050V120 CAVOK 34/15 Q1002 NOSIG",
      "taf": "TAF OMDB 192300Z 2000/2106 10005KT CAVOK"
    },
    {
      "icao": "UAAA",
      "alert": "OK",
      "vis_m": 9999,
      "fzfg": false,
      "metar_trigger": false,
      "taf_trigger": false,
      "metar": "METAR UAAA 200130Z 22006MPS 9999 SCT050CB OVC100 25/12 Q1012 NOSIG",
      "taf": "TAF UAAA 192304Z 2000/2024 26003G08MPS 9999 SCT050CB BKN100 TX29/2010Z TN23/2001Z"
    },
    {
      "icao": "UBBB",
      "alert": "OK",
      "vis_m": 9999,
      "fzfg": false,
      "metar_trigger": false,
      "taf_trigger": false,
      "metar": "METAR UBBB 200130Z 32012KT CAVOK 24/19 Q1011 NOSIG",
      "taf": "TAF UBBB 192301Z 2000/2024 31008KT CAVOK TX33/2010Z TN22/2000Z"
    },
    {
      "icao": "UDSG",
      "alert": "OK",
      "vis_m": 9999,
      "fzfg": false,
      "metar_trigger": false,
      "taf_trigger": false,
      "metar": "METAR UDSG 200130Z 12004KT 080V150 9999 SCT049CB 17/12 Q1019 NOSIG",
      "taf": "TAF UDSG 192258Z 2000/2024 24006KT 9999 FEW050"
    },
    {
      "icao": "UDYZ",
      "alert": "OK",
      "vis_m": 9999,
      "fzfg": false,
      "metar_trigger": false,
      "taf_trigger": false,
      "metar": "METAR UDYZ 200130Z 05003KT 9999 FEW046 19/15 Q1013 NOSIG",
      "taf": "TAF UDYZ 192300Z 2000/2024 04006KT 9999 FEW040"
    },
    {
      "icao": "UGKO",
      "alert": "OK",
      "vis_m": 9999,
      "fzfg": false,
      "metar_trigger": false,
      "taf_trigger": false,
      "metar": "METAR UGKO 200130Z 28004KT 9999 SCT019 18/18 Q1013 NOSIG",
      "taf": "TAF UGKO 192300Z 2000/2024 25006KT 9999 SCT030 OVC050 TX24/2011Z TN19/2002Z"
    }
  ]
}