{
  "ts_utc": "2026-02-19T23:17:43Z",
  "threshold_m": 150,
  "source": "stations_override.txt (ICAO list) + aviationweather.gov (METAR/TAF raw)",
  "station_count": 159,
  "stations": [
    {
      "icao": "BIKF",
      "alert": "OK",
      "vis_m": 9999,
      "fzfg": false,
      "metar_trigger": false,
      "taf_trigger": false,
      "metar": "METAR BIKF 192300Z 06011KT CAVOK M02/M08 Q1008",
      "taf": "TAF BIKF 192249Z 2000/2100 07010KT CAVOK TX02/2015Z TNM05/2100Z"
    },
    {
      "icao": "BKPR",
      "alert": "OK",
      "vis_m": 9999,
      "fzfg": false,
      "metar_trigger": false,
      "taf_trigger": false,
      "metar": "METAR BKPR 192300Z 16018KT 9999 BKN060 07/02 Q1010 NOSIG",
      "taf": "TAF BKPR 191730Z 1918/2018 18006KT 9999 BKN050"
    },
    {
      "icao": "EBCI",
      "alert": "OK",
      "vis_m": 9999,
      "fzfg": false,
      "metar_trigger": false,
      "taf_trigger": false,
      "metar": "METAR EBCI 192250Z 16002KT 9999 BKN014 BKN042 05/03 Q1011 NOSIG",
      "taf": "TAF EBCI 191718Z 1918/2024 VRB04KT 9999 SCT015 BKN020"
    },
    {
      "icao": "EDDB",
      "alert": "OK",
      "vis_m": 9999,
      "fzfg": false,
      "metar_trigger": false,
      "taf_trigger": false,
      "metar": "METAR EDDB 192250Z AUTO 07001KT CAVOK M08/M08 Q1020 NOSIG",
      "taf": "TAF EDDB 191700Z 1918/2018 06008KT CAVOK"
    },
    {
      "icao": "EDDH",
      "alert": "OK",
      "vis_m": 9999,
      "fzfg": false,
      "metar_trigger": false,
      "taf_trigger": false,
      "metar": "METAR EDDH 192250Z AUTO 10007KT CAVOK M04/M07 Q1019 NOSIG",
      "taf": "TAF EDDH 191700Z 1918/2024 09009KT CAVOK"
    },
    {
      "icao": "EDDK",
      "alert": "OK",
      "vis_m": 9999,
      "fzfg": false,
      "metar_trigger": false,
      "taf_trigger": false,
      "metar": "METAR EDDK 192250Z AUTO 10006KT 070V140 CAVOK 02/M02 Q1013 NOSIG",
      "taf": "TAF EDDK 191700Z 1918/2024 11007KT 9999 BKN030"
    },
    {
      "icao": "EDDN",
      "alert": "OK",
      "vis_m": 9999,
      "fzfg": false,
      "metar_trigger": false,
      "taf_trigger": false,
      "metar": "METAR EDDN 192250Z AUTO 01003KT 340V050 CAVOK 01/M02 Q1011",
      "taf": ""
    },
    {
      "icao": "EDDS",
      "alert": "OK",
      "vis_m": 5000,
      "fzfg": false,
      "metar_trigger": false,
      "taf_trigger": false,
      "metar": "METAR EDDS 192250Z AUTO 03006KT 5000 -SN BR BKN007 01/01 Q1009",
      "taf": ""
    },
    {
      "icao": "EDFH",
      "alert": "OK",
      "vis_m": 9999,
      "fzfg": false,
      "metar_trigger": false,
      "taf_trigger": false,
      "metar": "METAR EDFH 192250Z 11012KT 9999 BKN011 00/M01 Q1010",
      "taf": ""
    },
    {
      "icao": "EDJA",
      "alert": "OK",
      "vis_m": 2500,
      "fzfg": false,
      "metar_trigger": false,
      "taf_trigger": false,
      "metar": "METAR EDJA 192250Z AUTO 05004KT 2500 // BKN003/// OVC021/// M00/M01 Q1007",
      "taf": "TAF EDJA 191700Z 1918/2003 04006KT 6000 SCT004 BKN025"
    },
    {
      "icao": "EDLW",
      "alert": "OK",
      "vis_m": 9999,
      "fzfg": false,
      "metar_trigger": false,
      "taf_trigger": false,
      "metar": "METAR EDLW 192250Z AUTO 05009KT 9999 // NCD M01/M03 Q1013",
      "taf": "TAF EDLW 191700Z 1918/2018 08011KT 9999 SCT030"
    },
    {
      "icao": "EDNY",
      "alert": "OK",
      "vis_m": 9999,
      "fzfg": false,
      "metar_trigger": false,
      "taf_trigger": false,
      "metar": "METAR EDNY 192250Z AUTO 03005KT 340V100 9999 // SCT007/// OVC011/// 03/02 Q1008",
      "taf": ""
    },
    {
      "icao": "EDSB",
      "alert": "OK",
      "vis_m": 9999,
      "fzfg": false,
      "metar_trigger": false,
      "taf_trigger": false,
      "metar": "METAR EDSB 192250Z AUTO 02013KT 9999 // SCT009/// OVC023/// 03/02 Q1010",
      "taf": "TAF EDSB 191700Z 1918/2018 02008KT 9999 SCT020 BKN035"
    },
    {
      "icao": "EETN",
      "alert": "OK",
      "vis_m": 9999,
      "fzfg": false,
      "metar_trigger": false,
      "taf_trigger": false,
      "metar": "METAR EETN 192250Z 32007KT 9999 OVC009 M09/M11 Q1012",
      "taf": "TAF EETN 191730Z 1918/2018 01008KT 9999 OVC010"
    },
    {
      "icao": "EFTU",
      "alert": "OK",
      "vis_m": 9999,
      "fzfg": false,
      "metar_trigger": false,
      "taf_trigger": false,
      "metar": "METAR EFTU 192250Z AUTO 33003KT 290V360 CAVOK M16/M18 Q1014",
      "taf": "TAF EFTU 192022Z 1921/2021 33002KT CAVOK"
    },
    {
      "icao": "EGBB",
      "alert": "OK",
      "vis_m": 9999,
      "fzfg": false,
      "metar_trigger": false,
      "taf_trigger": false,
      "metar": "METAR EGBB 192250Z 24003KT 9999 BKN025 04/02 Q1013",
      "taf": "TAF EGBB 192255Z 2000/2024 26007KT 9999 BKN025"
    },
    {
      "icao": "EGGP",
      "alert": "OK",
      "vis_m": 8000,
      "fzfg": false,
      "metar_trigger": false,
      "taf_trigger": false,
      "metar": "METAR EGGP 192250Z 20003KT 170V230 8000 VCSH SCT016 OVC019 04/03 Q1013",
      "taf": "TAF EGGP 192256Z 2000/2024 VRB04KT 9999 SCT025"
    },
    {
      "icao": "EGGW",
      "alert": "OK",
      "vis_m": 7000,
      "fzfg": false,
      "metar_trigger": false,
      "taf_trigger": false,
      "metar": "METAR EGGW 192250Z AUTO 29008KT 7000 OVC020 04/03 Q1013",
      "taf": "TAF EGGW 192259Z 2000/2024 27007KT 9999 FEW012 SCT025"
    },
    {
      "icao": "EGKK",
      "alert": "OK",
      "vis_m": 9999,
      "fzfg": false,
      "metar_trigger": false,
      "taf_trigger": false,
      "metar": "METAR EGKK 192250Z 30007KT 9999 BKN026 05/03 Q1014",
      "taf": "TAF EGKK 192255Z 2000/2106 25005KT 9999 BKN025"
    },
    {
      "icao": "EGNM",
      "alert": "OK",
      "vis_m": 6000,
      "fzfg": false,
      "metar_trigger": false,
      "taf_trigger": false,
      "metar": "METAR EGNM 192150Z 27006KT 6000 SCT010 BKN025 03/02 Q1010",
      "taf": "TAF EGNM 191703Z 1918/2018 VRB02KT 3000 -DZ BKN003"
    },
    {
      "icao": "EGPD",
      "alert": "OK",
      "vis_m": 7000,
      "fzfg": false,
      "metar_trigger": false,
      "taf_trigger": false,
      "metar": "METAR EGPD 192250Z COR AUTO 19012KT 7000 -RA SCT033 SCT042 05/02 Q1007 NOSIG",
      "taf": "TAF EGPD 192256Z 2000/2024 17010KT 9999 SCT020"
    },
    {
      "icao": "EGPF",
      "alert": "OK",
      "vis_m": 5000,
      "fzfg": false,
      "metar_trigger": false,
      "taf_trigger": false,
      "metar": "METAR EGPF 192250Z AUTO 06003KT 5000 BR BKN007 BKN029 04/03 Q1008",
      "taf": "TAF EGPF 192304Z 2000/2024 06005KT 9999 FEW007 SCT030"
    },
    {
      "icao": "EHBK",
      "alert": "OK",
      "vis_m": 9999,
      "fzfg": false,
      "metar_trigger": false,
      "taf_trigger": false,
      "metar": "METAR EHBK 192255Z AUTO 05004KT 030V090 9999 BKN031 BKN039 BKN046 03/01 Q1011",
      "taf": "TAF EHBK 191723Z 1918/2024 09012KT 9999 OVC030"
    },
    {
      "icao": "EHEH",
      "alert": "OK",
      "vis_m": 9999,
      "fzfg": false,
      "metar_trigger": false,
      "taf_trigger": false,
      "metar": "METAR EHEH 192255Z AUTO 08003KT 9999 SCT040 03/00 Q1012 BLU",
      "taf": "TAF EHEH 191713Z 1918/2024 09008KT CAVOK"
    },
    {
      "icao": "EKBI",
      "alert": "OK",
      "vis_m": 9999,
      "fzfg": false,
      "metar_trigger": false,
      "taf_trigger": false,
      "metar": "METAR EKBI 192250Z AUTO 10007KT 9999 NCD M05/M07 Q1019",
      "taf": "TAF EKBI 192027Z 1921/2021 08008KT CAVOK"
    },
    {
      "icao": "EKCH",
      "alert": "OK",
      "vis_m": 9999,
      "fzfg": false,
      "metar_trigger": false,
      "taf_trigger": false,
      "metar": "METAR EKCH 192250Z AUTO 07002KT 9999 NCD M07/M08 Q1022 NOSIG",
      "taf": "TAF EKCH 192027Z 1921/2021 02008KT CAVOK"
    },
    {
      "icao": "ENAL",
      "alert": "OK",
      "vis_m": 9999,
      "fzfg": false,
      "metar_trigger": false,
      "taf_trigger": false,
      "metar": "METAR ENAL 192250Z 20016KT CAVOK 04/M08 Q1007",
      "taf": "TAF ENAL 192000Z 1921/2006 20012KT CAVOK"
    },
    {
      "icao": "ENBR",
      "alert": "OK",
      "vis_m": 9999,
      "fzfg": false,
      "metar_trigger": false,
      "taf_trigger": false,
      "metar": "METAR ENBR 192250Z 15015KT CAVOK 01/M07 Q1013 RMK WIND 1200FT 16028KT",
      "taf": "TAF ENBR 191700Z 1918/2018 16010KT CAVOK"
    },
    {
      "icao": "ENGM",
      "alert": "OK",
      "vis_m": 9999,
      "fzfg": false,
      "metar_trigger": false,
      "taf_trigger": false,
      "metar": "METAR ENGM 192250Z 00000KT 9999 FEW002 M14/M16 Q1016",
      "taf": "TAF ENGM 191700Z 1918/2018 17005KT 9999 FEW010"
    },
    {
      "icao": "ENHD",
      "alert": "OK",
      "vis_m": 9999,
      "fzfg": false,
      "metar_trigger": false,
      "taf_trigger": false,
      "metar": "METAR ENHD 192250Z AUTO 15017KT 9999 NCD 01/M04 Q1014",
      "taf": "TAF ENHD 191400Z 1915/1923 17015KT CAVOK"
    },
    {
      "icao": "ENTC",
      "alert": "OK",
      "vis_m": 9999,
      "fzfg": false,
      "metar_trigger": false,
      "taf_trigger": false,
      "metar": "METAR ENTC 192250Z 23006KT 170V280 CAVOK M07/M11 Q1008 RMK WIND 2600FT 14016KT",
      "taf": "TAF ENTC 191700Z 1918/2018 22009KT 9999 SCT050"
    },
    {
      "icao": "ENTO",
      "alert": "OK",
      "vis_m": 9999,
      "fzfg": false,
      "metar_trigger": false,
      "taf_trigger": false,
      "metar": "METAR ENTO 192250Z AUTO 21009KT 9999 NCD M05/M06 Q1018",
      "taf": "TAF ENTO 191700Z 1918/2018 22005KT 9999 FEW010"
    },
    {
      "icao": "ENVA",
      "alert": "OK",
      "vis_m": 9999,
      "fzfg": false,
      "metar_trigger": false,
      "taf_trigger": false,
      "metar": "METAR ENVA 192250Z 06003KT CAVOK 01/M09 Q1008 RMK WIND 670FT 19020KT",
      "taf": "TAF ENVA 191700Z 1918/2018 17009KT 9999 FEW025 BKN040"
    },
    {
      "icao": "ENZV",
      "alert": "OK",
      "vis_m": 9999,
      "fzfg": false,
      "metar_trigger": false,
      "taf_trigger": false,
      "metar": "METAR ENZV 192250Z 15015KT CAVOK 01/M09 Q1015",
      "taf": "TAF ENZV 191700Z 1918/2018 15008KT CAVOK"
    },
    {
      "icao": "EPGD",
      "alert": "OK",
      "vis_m": 9999,
      "fzfg": false,
      "metar_trigger": false,
      "taf_trigger": false,
      "metar": "METAR EPGD 192300Z 28004KT 9999 BKN033 M08/M10 Q1019",
      "taf": "TAF EPGD 191730Z 1918/2018 30010KT 9999 BKN035"
    },
    {
      "icao": "EPKK",
      "alert": "OK",
      "vis_m": 9999,
      "fzfg": false,
      "metar_trigger": false,
      "taf_trigger": false,
      "metar": "METAR EPKK 192300Z 05009KT 9999 BKN025 M05/M09 Q1016",
      "taf": "TAF EPKK 192030Z 1921/2021 06008KT 8000 OVC022"
    },
    {
      "icao": "EPKT",
      "alert": "OK",
      "vis_m": 9999,
      "fzfg": false,
      "metar_trigger": false,
      "taf_trigger": false,
      "metar": "METAR EPKT 192300Z 05006KT CAVOK M06/M09 Q1016",
      "taf": "TAF EPKT 191730Z 1918/2018 07007KT CAVOK"
    },
    {
      "icao": "EPLB",
      "alert": "OK",
      "vis_m": 2700,
      "fzfg": false,
      "metar_trigger": false,
      "taf_trigger": false,
      "metar": "METAR EPLB 192300Z 30002KT 2700 BR NSC M14/M15 Q1017",
      "taf": ""
    },
    {
      "icao": "EPMO",
      "alert": "OK",
      "vis_m": 9000,
      "fzfg": false,
      "metar_trigger": false,
      "taf_trigger": false,
      "metar": "METAR EPMO 192300Z 31005KT 9000 NSC M06/M07 Q1018",
      "taf": ""
    },
    {
      "icao": "EPPO",
      "alert": "OK",
      "vis_m": 9999,
      "fzfg": false,
      "metar_trigger": false,
      "taf_trigger": false,
      "metar": "METAR EPPO 192300Z 05004KT CAVOK M05/M08 Q1020",
      "taf": "TAF EPPO 191730Z 1918/2018 06010KT 9999 SCT030"
    },
    {
      "icao": "EPRA",
      "alert": "OK",
      "vis_m": 6000,
      "fzfg": false,
      "metar_trigger": false,
      "taf_trigger": false,
      "metar": "METAR EPRA 192300Z VRB03KT 6000 NSC M11/M13 Q1018",
      "taf": "TAF EPRA 192030Z 1921/2006 VRB03KT 8000 NSC"
    },
    {
      "icao": "EPRZ",
      "alert": "OK",
      "vis_m": 9999,
      "fzfg": false,
      "metar_trigger": false,
      "taf_trigger": false,
      "metar": "METAR EPRZ 192300Z 02007KT 9999 SCT033 M05/M09 Q1016",
      "taf": "TAF EPRZ 191730Z 1918/2018 06005KT 9999 OVC024"
    },
    {
      "icao": "EPSC",
      "alert": "OK",
      "vis_m": 9999,
      "fzfg": false,
      "metar_trigger": false,
      "taf_trigger": false,
      "metar": "METAR EPSC 192300Z 00000KT CAVOK M09/M09 Q1021",
      "taf": "TAF EPSC 191730Z 1918/2018 VRB03KT CAVOK"
    },
    {
      "icao": "EPSY",
      "alert": "OK",
      "vis_m": 9999,
      "fzfg": false,
      "metar_trigger": false,
      "taf_trigger": false,
      "metar": "METAR EPSY 192300Z 27004KT 9999 FEW030 BKN038 M06/M07 Q1017",
      "taf": "TAF EPSY 192030Z 1921/2006 28005KT 9999 BKN025"
    },
    {
      "icao": "EPWA",
      "alert": "OK",
      "vis_m": 8000,
      "fzfg": false,
      "metar_trigger": false,
      "taf_trigger": false,
      "metar": "METAR EPWA 192300Z VRB01KT 8000 NSC M09/M10 Q1018 BECMG 3000 BR",
      "taf": "TAF EPWA 192030Z 1921/2021 29004KT CAVOK"
    },
    {
      "icao": "EPWR",
      "alert": "OK",
      "vis_m": 6000,
      "fzfg": false,
      "metar_trigger": false,
      "taf_trigger": false,
      "metar": "METAR EPWR 192300Z 02004KT 6000 NSC M07/M09 Q1018",
      "taf": "TAF EPWR 192030Z 1921/2021 04005KT CAVOK"
    },
    {
      "icao": "ESGG",
      "alert": "OK",
      "vis_m": 4100,
      "fzfg": false,
      "metar_trigger": false,
      "taf_trigger": false,
      "metar": "METAR ESGG 192250Z 21005KT 4100 BR NSC M11/M12 Q1019",
      "taf": ""
    },
    {
      "icao": "ESKN",
      "alert": "OK",
      "vis_m": 9999,
      "fzfg": false,
      "metar_trigger": false,
      "taf_trigger": false,
      "metar": "METAR ESKN 192250Z 28003KT CAVOK M12/M13 Q1018",
      "taf": "TAF ESKN 192030Z 1921/2021 28004KT CAVOK"
    },
    {
      "icao": "ESMS",
      "alert": "OK",
      "vis_m": 9999,
      "fzfg": false,
      "metar_trigger": false,
      "taf_trigger": false,
      "metar": "METAR ESMS 192250Z 00000KT CAVOK M12/M13 Q1021",
      "taf": "TAF ESMS 192027Z 1921/2021 04006KT CAVOK"
    },
    {
      "icao": "ESSA",
      "alert": "OK",
      "vis_m": 9999,
      "fzfg": false,
      "metar_trigger": false,
      "taf_trigger": false,
      "metar": "METAR ESSA 192250Z VRB03KT CAVOK M12/M14 Q1017 NOSIG",
      "taf": "TAF ESSA 192030Z 1921/2021 VRB03KT CAVOK"
    },
    {
      "icao": "EYKA",
      "alert": "OK",
      "vis_m": 6000,
      "fzfg": false,
      "metar_trigger": false,
      "taf_trigger": false,
      "metar": "METAR EYKA 192250Z VRB01KT 6000 -SN OVC039 M09/M10 Q1014",
      "taf": "TAF EYKA 192300Z 2000/2024 VRB04KT 9000 BKN020"
    },
    {
      "icao": "EYPA",
      "alert": "OK",
      "vis_m": 9999,
      "fzfg": false,
      "metar_trigger": false,
      "taf_trigger": false,
      "metar": "METAR EYPA 192250Z 01007KT 330V030 9999 -SN FEW024 SCT029 OVC045 M05/M08 Q1017",
      "taf": "TAF EYPA 192300Z 2000/2024 VRB04KT 9000 BKN025"
    },
    {
      "icao": "EYVI",
      "alert": "OK",
      "vis_m": 7000,
      "fzfg": false,
      "metar_trigger": false,
      "taf_trigger": false,
      "metar": "METAR EYVI 192250Z 32004KT 7000 -SN OVC027 M09/M11 Q1013 TEMPO 3000 SN",
      "taf": "TAF EYVI 192300Z 2000/2024 VRB04KT 9000 BKN020"
    },
    {
      "icao": "GCFV",
      "alert": "OK",
      "vis_m": 9999,
      "fzfg": false,
      "metar_trigger": false,
      "taf_trigger": false,
      "metar": "METAR GCFV 192300Z 02017KT 9999 BKN020 18/13 Q1023",
      "taf": "TAF GCFV 192000Z 1921/2021 04018KT 9999 SCT015 TX21/2014Z TN16/2006Z"
    },
    {
      "icao": "GCLP",
      "alert": "OK",
      "vis_m": 9999,
      "fzfg": false,
      "metar_trigger": false,
      "taf_trigger": false,
      "metar": "METAR GCLP 192300Z 02020KT 9999 BKN020 18/13 Q1024 NOSIG",
      "taf": "TAF GCLP 192000Z 1921/2021 02020KT 9999 SCT020 TX20/2014Z TN16/2006Z"
    },
    {
      "icao": "GCTS",
      "alert": "OK",
      "vis_m": 9999,
      "fzfg": false,
      "metar_trigger": false,
      "taf_trigger": false,
      "metar": "METAR GCTS 192300Z 05013KT 010V070 9999 FEW020 17/11 Q1023 NOSIG",
      "taf": "TAF GCTS 192000Z 1921/2021 08019KT 9999 FEW020 TX23/2014Z TN16/2006Z"
    },
    {
      "icao": "GMAD",
      "alert": "OK",
      "vis_m": 6000,
      "fzfg": false,
      "metar_trigger": false,
      "taf_trigger": false,
      "metar": "METAR GMAD 192300Z 11004KT 6000 NSC 10/08 Q1021 NOSIG",
      "taf": "TAF GMAD 192300Z 2000/2106 06008KT 8000 NSC"
    },
    {
      "icao": "GMMN",
      "alert": "OK",
      "vis_m": 9999,
      "fzfg": false,
      "metar_trigger": false,
      "taf_trigger": false,
      "metar": "METAR GMMN 192300Z 04009KT 9999 FEW020 10/08 Q1026 NOSIG",
      "taf": "TAF GMMN 192300Z 2000/2106 04008KT 9999 FEW020"
    },
    {
      "icao": "GMMX",
      "alert": "OK",
      "vis_m": 9999,
      "fzfg": false,
      "metar_trigger": false,
      "taf_trigger": false,
      "metar": "METAR GMMX 192300Z VRB02KT CAVOK 12/09 Q1023 NOSIG",
      "taf": "TAF GMMX 191700Z 1918/2024 06006KT CAVOK"
    },
    {
      "icao": "HEGN",
      "alert": "OK",
      "vis_m": 9999,
      "fzfg": false,
      "metar_trigger": false,
      "taf_trigger": false,
      "metar": "METAR HEGN 192300Z 29010KT CAVOK 15/05 Q1018 NOSIG",
      "taf": "TAF HEGN 192300Z 2000/2106 29014KT CAVOK"
    },
    {
      "icao": "HEMA",
      "alert": "OK",
      "vis_m": 9999,
      "fzfg": false,
      "metar_trigger": false,
      "taf_trigger": false,
      "metar": "METAR HEMA 192300Z 29010KT CAVOK 18/09 Q1017 NOSIG",
      "taf": "TAF HEMA 192300Z 2000/2106 30014KT CAVOK"
    },
    {
      "icao": "HESH",
      "alert": "OK",
      "vis_m": 9999,
      "fzfg": false,
      "metar_trigger": false,
      "taf_trigger": false,
      "metar": "METAR HESH 192300Z 33010KT CAVOK 19/11 Q1018 NOSIG",
      "taf": "TAF HESH 192300Z 2000/2106 35012KT CAVOK"
    },
    {
      "icao": "HESX",
      "alert": "OK",
      "vis_m": 9999,
      "fzfg": false,
      "metar_trigger": false,
      "taf_trigger": false,
      "metar": "METAR HESX 192300Z 04007KT CAVOK 10/07 Q1022 NOSIG",
      "taf": "TAF HESX 192300Z 2000/2106 02007KT CAVOK"
    },
    {
      "icao": "LATI",
      "alert": "OK",
      "vis_m": null,
      "fzfg": false,
      "metar_trigger": false,
      "taf_trigger": false,
      "metar": "",
      "taf": "TAF LATI 192300Z 2000/2024 14012KT 9999 SCT040 BKN060 TX14/2013Z TN09/2004Z"
    },
    {
      "icao": "LBPD",
      "alert": "OK",
      "vis_m": 9999,
      "fzfg": false,
      "metar_trigger": false,
      "taf_trigger": false,
      "metar": "METAR LBPD 192300Z AUTO 15004KT 100V240 9999 BKN240/// 02/01 Q1016",
      "taf": "TAF LBPD 192300Z 2000/2024 VRB03KT 9999 SCT080"
    },
    {
      "icao": "LBSF",
      "alert": "OK",
      "vis_m": 9999,
      "fzfg": false,
      "metar_trigger": false,
      "taf_trigger": false,
      "metar": "METAR LBSF 192300Z AUTO 10006KT 9999 NSC 04/M02 Q1013 NOSIG",
      "taf": "TAF LBSF 192300Z 2000/2024 11012KT 9999 BKN070"
    },
    {
      "icao": "LBWN",
      "alert": "OK",
      "vis_m": 9999,
      "fzfg": false,
      "metar_trigger": false,
      "taf_trigger": false,
      "metar": "METAR LBWN 192300Z AUTO 12008KT 9999 NSC 04/00 Q1016 NOSIG",
      "taf": "TAF LBWN 192300Z 2000/2024 09008KT 9999 SCT050"
    },
    {
      "icao": "LCLK",
      "alert": "OK",
      "vis_m": 9999,
      "fzfg": false,
      "metar_trigger": false,
      "taf_trigger": false,
      "metar": "METAR LCLK 192230Z 34004KT 300V030 9999 SCT035 BKN045 14/10 Q1023 NOSIG",
      "taf": "TAF LCLK 191730Z 1918/2018 06010KT 9999 FEW025"
    },
    {
      "icao": "LCPH",
      "alert": "OK",
      "vis_m": 9999,
      "fzfg": false,
      "metar_trigger": false,
      "taf_trigger": false,
      "metar": "METAR LCPH 192230Z 05007KT 010V080 9999 FEW050 11/06 Q1023 NOSIG",
      "taf": "TAF LCPH 191730Z 1918/2018 04008KT 9999 FEW025"
    },
    {
      "icao": "LEAL",
      "alert": "OK",
      "vis_m": 9999,
      "fzfg": false,
      "metar_trigger": false,
      "taf_trigger": false,
      "metar": "METAR LEAL 192300Z 26009KT CAVOK 13/M01 Q1025 NOSIG",
      "taf": "TAF LEAL 191700Z 1918/2018 30015KT 9999 FEW030 TX18/2013Z TN09/2006Z"
    },
    {
      "icao": "LEBB",
      "alert": "OK",
      "vis_m": 9000,
      "fzfg": false,
      "metar_trigger": false,
      "taf_trigger": false,
      "metar": "METAR LEBB 192300Z 25005KT 210V300 9000 -RA SCT022 SCT034 BKN046 09/08 Q1028 TEMPO RA",
      "taf": "TAF LEBB 191700Z 1918/2018 30009KT 9999 FEW020 BKN025 TX14/2013Z TN07/2005Z"
    },
    {
      "icao": "LEBL",
      "alert": "OK",
      "vis_m": 9999,
      "fzfg": false,
      "metar_trigger": false,
      "taf_trigger": false,
      "metar": "METAR LEBL 192300Z 30008KT 260V330 9999 FEW040 11/00 Q1017 NOSIG",
      "taf": "TAF LEBL 191700Z 1918/2018 29012KT CAVOK TX18/2013Z TN09/2006Z"
    },
    {
      "icao": "LECH",
      "alert": "OK",
      "vis_m": 9999,
      "fzfg": false,
      "metar_trigger": false,
      "taf_trigger": false,
      "metar": "METAR LECH 192300Z AUTO 30011G22KT 260V340 CAVOK 11/M02 Q1022",
      "taf": ""
    },
    {
      "icao": "LEMD",
      "alert": "OK",
      "vis_m": 9999,
      "fzfg": false,
      "metar_trigger": false,
      "taf_trigger": false,
      "metar": "METAR LEMD 192300Z VRB02KT CAVOK 03/M01 Q1027 NOSIG",
      "taf": "TAF LEMD 191700Z 1918/2024 28010KT CAVOK TX14/2015Z TNM00/2006Z"
    },
    {
      "icao": "LEMG",
      "alert": "OK",
      "vis_m": 9999,
      "fzfg": false,
      "metar_trigger": false,
      "taf_trigger": false,
      "metar": "METAR LEMG 192300Z 28015KT CAVOK 12/04 Q1026 NOSIG",
      "taf": "TAF LEMG 191700Z 1918/2018 29012KT CAVOK TX18/2014Z TN11/2007Z"
    },
    {
      "icao": "LEVC",
      "alert": "OK",
      "vis_m": 9999,
      "fzfg": false,
      "metar_trigger": false,
      "taf_trigger": false,
      "metar": "METAR LEVC 192300Z 29012KT CAVOK 13/M02 Q1023 NOSIG",
      "taf": "TAF LEVC 191700Z 1918/2018 28013KT 9999 FEW035 TX21/2014Z TN08/2006Z"
    },
    {
      "icao": "LEXJ",
      "alert": "OK",
      "vis_m": 9999,
      "fzfg": false,
      "metar_trigger": false,
      "taf_trigger": false,
      "metar": "METAR LEXJ 192300Z AUTO 25006KT 220V280 9999 3500E FEW036 BKN056 BKN068 10/06 Q1028",
      "taf": ""
    },
    {
      "icao": "LEZG",
      "alert": "OK",
      "vis_m": 9999,
      "fzfg": false,
      "metar_trigger": false,
      "taf_trigger": false,
      "metar": "METAR LEZG 192300Z 26009KT 9999 FEW045 SCT075 08/03 Q1026 NOSIG",
      "taf": "TAF LEZG 191700Z 1918/2018 30015KT 9999 FEW040 TX13/2014Z TN07/2006Z"
    },
    {
      "icao": "LEZL",
      "alert": "OK",
      "vis_m": 9999,
      "fzfg": false,
      "metar_trigger": false,
      "taf_trigger": false,
      "metar": "METAR LEZL 192300Z VRB02KT CAVOK 10/06 Q1028 NOSIG",
      "taf": "TAF LEZL 192000Z 1921/2021 04004KT CAVOK TX19/2015Z TN06/2007Z"
    },
    {
      "icao": "LFBD",
      "alert": "OK",
      "vis_m": 9999,
      "fzfg": false,
      "metar_trigger": false,
      "taf_trigger": false,
      "metar": "METAR LFBD 192300Z AUTO 29008KT 9999 FEW018 SCT041 OVC056 09/08 Q1023 TEMPO 3000 SHRA BKN020TCU BECMG 29015G25KT",
      "taf": "TAF LFBD 191700Z 1918/2024 29015G25KT 9999 BKN030 TX13/2013Z TN07/2006Z"
    },
    {
      "icao": "LFLL",
      "alert": "OK",
      "vis_m": 6000,
      "fzfg": false,
      "metar_trigger": false,
      "taf_trigger": false,
      "metar": "METAR LFLL 192300Z 31007KT 6000 SHRA SCT016TCU BKN023 08/07 Q1012 TEMPO 4000",
      "taf": "TAF LFLL 191700Z 1918/2024 30012KT 9999 OVC030"
    },
    {
      "icao": "LFLS",
      "alert": "OK",
      "vis_m": 9999,
      "fzfg": false,
      "metar_trigger": false,
      "taf_trigger": false,
      "metar": "METAR LFLS 192300Z AUTO 30017KT 9999 -RA BKN014/// OVC022/// ///TCU 07/05 Q1012",
      "taf": "TAF LFLS 191400Z 1915/2015 20010KT 9999 BKN035"
    },
    {
      "icao": "LFMN",
      "alert": "OK",
      "vis_m": 9999,
      "fzfg": false,
      "metar_trigger": false,
      "taf_trigger": false,
      "metar": "METAR LFMN 192300Z 32007KT CAVOK 10/04 Q1003 WS R04R WSR04L NOSIG",
      "taf": "TAF LFMN 192000Z 1921/2103 25020KT CAVOK"
    },
    {
      "icao": "LFOB",
      "alert": "OK",
      "vis_m": 9000,
      "fzfg": false,
      "metar_trigger": false,
      "taf_trigger": false,
      "metar": "METAR LFOB 192300Z AUTO 30010KT 9000 -DZ BKN012 OVC018 06/06 Q1014 TEMPO 4000 -RA OVC008",
      "taf": ""
    },
    {
      "icao": "LFPO",
      "alert": "OK",
      "vis_m": 6000,
      "fzfg": false,
      "metar_trigger": false,
      "taf_trigger": false,
      "metar": "METAR LFPO 192300Z 29010KT 6000 -DZRA SCT008 BKN014 07/06 Q1014 TEMPO 4000 -DZRA BKN008",
      "taf": "TAF LFPO 191700Z 1918/2024 30010KT 9999 BKN015"
    },
    {
      "icao": "LFSB",
      "alert": "OK",
      "vis_m": 9999,
      "fzfg": false,
      "metar_trigger": false,
      "taf_trigger": false,
      "metar": "METAR LFSB 192300Z AUTO 25003KT 9999 FEW012 BKN025 OVC041 06/05 Q1009 TEMPO OVC008",
      "taf": ""
    },
    {
      "icao": "LGAV",
      "alert": "OK",
      "vis_m": 9999,
      "fzfg": false,
      "metar_trigger": false,
      "taf_trigger": false,
      "metar": "METAR LGAV 192250Z 25002KT 9999 FEW030 07/04 Q1019 NOSIG",
      "taf": "TAF LGAV 192300Z 2000/2024 21010KT 9999 FEW018"
    },
    {
      "icao": "LGTS",
      "alert": "OK",
      "vis_m": 9999,
      "fzfg": false,
      "metar_trigger": false,
      "taf_trigger": false,
      "metar": "METAR LGTS 192250Z 27006KT 9999 FEW008 10/07 Q1016 NOSIG",
      "taf": "TAF LGTS 192300Z 2000/2024 14013KT 9999 SCT025"
    },
    {
      "icao": "LHBP",
      "alert": "OK",
      "vis_m": 9999,
      "fzfg": false,
      "metar_trigger": false,
      "taf_trigger": false,
      "metar": "METAR LHBP 192300Z 06008KT 9999 BKN007 OVC060 02/01 Q1009 NOSIG",
      "taf": "TAF LHBP 191715Z 1918/2018 06009KT 9999 FEW010 BKN060"
    },
    {
      "icao": "LHDC",
      "alert": "OK",
      "vis_m": 9999,
      "fzfg": false,
      "metar_trigger": false,
      "taf_trigger": false,
      "metar": "METAR LHDC 192245Z AUTO 05012KT CAVOK 03/01 Q1010",
      "taf": "TAF LHDC 191415Z 1915/1924 10009KT 9999 RA OVC025"
    },
    {
      "icao": "LIBD",
      "alert": "OK",
      "vis_m": 9999,
      "fzfg": false,
      "metar_trigger": false,
      "taf_trigger": false,
      "metar": "METAR LIBD 192250Z 23006KT CAVOK 13/08 Q1004",
      "taf": "TAF LIBD 191700Z 1918/2018 15015KT 9999 SCT040"
    },
    {
      "icao": "LIBG",
      "alert": "OK",
      "vis_m": null,
      "fzfg": false,
      "metar_trigger": false,
      "taf_trigger": false,
      "metar": "",
      "taf": "TAF LIBG 191700Z 1918/2003 17015G30KT 9999 SCT020"
    },
    {
      "icao": "LIBP",
      "alert": "OK",
      "vis_m": 9999,
      "fzfg": false,
      "metar_trigger": false,
      "taf_trigger": false,
      "metar": "METAR LIBP 192250Z AUTO 27004KT 220V310 9999 BKN140/// 10/06 Q1002",
      "taf": "TAF LIBP 191700Z 1918/2018 VRB05KT 9999 SCT030 SCT060"
    },
    {
      "icao": "LIBR",
      "alert": "OK",
      "vis_m": 9999,
      "fzfg": false,
      "metar_trigger": false,
      "taf_trigger": false,
      "metar": "METAR LIBR 192250Z 18012KT 9999 BKN015 15/12 Q1007",
      "taf": "TAF LIBR 191700Z 1918/2018 17020G30KT 9999 SCT025"
    },
    {
      "icao": "LICA",
      "alert": "OK",
      "vis_m": 9000,
      "fzfg": false,
      "metar_trigger": false,
      "taf_trigger": false,
      "metar": "METAR LICA 192250Z AUTO 24011KT 9000 -RA FEW026/// OVC050/// 13/10 Q1012",
      "taf": "TAF LICA 191700Z 1918/2018 25010KT 9999 SCT030"
    },
    {
      "icao": "LICC",
      "alert": "OK",
      "vis_m": 9999,
      "fzfg": false,
      "metar_trigger": false,
      "taf_trigger": false,
      "metar": "METAR LICC 192250Z 25018KT 9999 BKN070 13/09 Q1013",
      "taf": "TAF LICC 191700Z 1918/2018 26011KT 9999 FEW040"
    },
    {
      "icao": "LICJ",
      "alert": "OK",
      "vis_m": 9999,
      "fzfg": false,
      "metar_trigger": false,
      "taf_trigger": false,
      "metar": "METAR LICJ 192250Z 27021KT 9999 SCT035 SCT060 14/08 Q1013",
      "taf": "TAF LICJ 191700Z 1918/2018 27020G30KT 9999 SCT035"
    },
    {
      "icao": "LIMC",
      "alert": "OK",
      "vis_m": 9999,
      "fzfg": false,
      "metar_trigger": false,
      "taf_trigger": false,
      "metar": "METAR LIMC 192250Z 35007KT CAVOK 03/03 Q1002 NOSIG",
      "taf": "TAF LIMC 191700Z 1918/2024 33007KT 9999 BKN025"
    },
    {
      "icao": "LIME",
      "alert": "OK",
      "vis_m": 9999,
      "fzfg": false,
      "metar_trigger": false,
      "taf_trigger": false,
      "metar": "METAR LIME 192250Z VRB02KT CAVOK 04/04 Q1002 NOSIG",
      "taf": "TAF LIME 191700Z 1918/2018 VRB05KT 8000 BKN020"
    },
    {
      "icao": "LIMF",
      "alert": "OK",
      "vis_m": 9999,
      "fzfg": false,
      "metar_trigger": false,
      "taf_trigger": false,
      "metar": "METAR LIMF 192250Z VRB02KT CAVOK 04/01 Q1003",
      "taf": "TAF LIMF 191700Z 1918/2018 VRB05KT 8000 FEW040"
    },
    {
      "icao": "LIMJ",
      "alert": "OK",
      "vis_m": 9999,
      "fzfg": false,
      "metar_trigger": false,
      "taf_trigger": false,
      "metar": "METAR LIMJ 192250Z 05007KT CAVOK 09/05 Q1003",
      "taf": "TAF LIMJ 191700Z 1918/2018 VRB05KT 9999 SCT030"
    },
    {
      "icao": "LIPE",
      "alert": "OK",
      "vis_m": 9999,
      "fzfg": false,
      "metar_trigger": false,
      "taf_trigger": false,
      "metar": "METAR LIPE 192250Z 25004KT CAVOK 05/03 Q1003",
      "taf": "TAF LIPE 191700Z 1918/2018 VRB05KT 9999 SCT040"
    },
    {
      "icao": "LIPH",
      "alert": "OK",
      "vis_m": 9999,
      "fzfg": false,
      "metar_trigger": false,
      "taf_trigger": false,
      "metar": "METAR LIPH 192250Z AUTO VRB01KT 9999 OVC012/// 06/05 Q1002",
      "taf": "TAF LIPH 191700Z 1918/2018 VRB05KT 7000 SCT020"
    },
    {
      "icao": "LIPQ",
      "alert": "OK",
      "vis_m": 8000,
      "fzfg": false,
      "metar_trigger": false,
      "taf_trigger": false,
      "metar": "METAR LIPQ 192250Z AUTO 02005KT 8000 OVC054/// 08/08 Q1002",
      "taf": ""
    },
    {
      "icao": "LIPR",
      "alert": "OK",
      "vis_m": 2600,
      "fzfg": false,
      "metar_trigger": false,
      "taf_trigger": false,
      "metar": "METAR LIPR 192250Z AUTO 18002KT 2600 BR BKN100/// 04/04 Q1002",
      "taf": "TAF LIPR 191700Z 1918/2018 VRB05KT 9999 FEW015 SCT040"
    },
    {
      "icao": "LIPX",
      "alert": "OK",
      "vis_m": 9999,
      "fzfg": false,
      "metar_trigger": false,
      "taf_trigger": false,
      "metar": "METAR LIPX 192250Z VRB02KT 9999 BKN090 06/04 Q1002",
      "taf": "TAF LIPX 191700Z 1918/2018 26012KT 8000 BKN020"
    },
    {
      "icao": "LIPY",
      "alert": "OK",
      "vis_m": 9999,
      "fzfg": false,
      "metar_trigger": false,
      "taf_trigger": false,
      "metar": "METAR LIPY 192250Z AUTO 16003KT 120V190 9999 FEW087/// BKN210/// 08/07 Q1002",
      "taf": "TAF LIPY 191700Z 1918/2018 VRB05KT 9999 SCT040"
    },
    {
      "icao": "LIPZ",
      "alert": "OK",
      "vis_m": 9999,
      "fzfg": false,
      "metar_trigger": false,
      "taf_trigger": false,
      "metar": "METAR LIPZ 192250Z 32003KT 280V340 9999 FEW015 SCT070 06/04 Q1002 NOSIG",
      "taf": "TAF LIPZ 191700Z 1918/2024 23012KT 7000 FEW015 SCT030"
    },
    {
      "icao": "LIRF",
      "alert": "OK",
      "vis_m": 9999,
      "fzfg": false,
      "metar_trigger": false,
      "taf_trigger": false,
      "metar": "METAR LIRF 192250Z VRB02KT 9999 SCT035 SCT050 10/08 Q1005 NOSIG",
      "taf": "TAF LIRF 191700Z 1918/2024 33012KT 9999 FEW025"
    },
    {
      "icao": "LIRN",
      "alert": "OK",
      "vis_m": 9999,
      "fzfg": false,
      "metar_trigger": false,
      "taf_trigger": false,
      "metar": "METAR LIRN 192250Z 22007G19KT 170V280 9999 RA SCT040 12/08 Q1006 NOSIG",
      "taf": "TAF LIRN 191700Z 1918/2018 26018KT 9999 SCT030"
    },
    {
      "icao": "LIRP",
      "alert": "OK",
      "vis_m": 9999,
      "fzfg": false,
      "metar_trigger": false,
      "taf_trigger": false,
      "metar": "METAR LIRP 192245Z 11004KT CAVOK 07/07 Q1002 NOSIG",
      "taf": "TAF LIRP 191700Z 1918/2018 27007KT 9999 BKN030"
    },
    {
      "icao": "LIRZ",
      "alert": "OK",
      "vis_m": 9999,
      "fzfg": false,
      "metar_trigger": false,
      "taf_trigger": false,
      "metar": "METAR LIRZ 192250Z AUTO VRB02KT 9999 -RA OVC027/// 08/07 Q1004",
      "taf": "TAF LIRZ 191700Z 1918/2018 19013KT 9999 SCT035"
    },
    {
      "icao": "LJLJ",
      "alert": "OK",
      "vis_m": 4000,
      "fzfg": false,
      "metar_trigger": false,
      "taf_trigger": false,
      "metar": "METAR LJLJ 192300Z 05001KT 4000 -RA BR FEW003 OVC020 04/03 Q1002 NOSIG",
      "taf": "TAF LJLJ 192300Z 2000/2100 VRB02KT 7000 -RA OVC020"
    },
    {
      "icao": "LKMT",
      "alert": "OK",
      "vis_m": 6000,
      "fzfg": false,
      "metar_trigger": false,
      "taf_trigger": false,
      "metar": "METAR LKMT 192300Z 02013KT 6000 OVC021 M03/M05 Q1014 NOSIG",
      "taf": "TAF LKMT 191700Z 1918/2018 03008KT 4000 BR SCT010 OVC040"
    },
    {
      "icao": "LKPR",
      "alert": "OK",
      "vis_m": 9999,
      "fzfg": false,
      "metar_trigger": false,
      "taf_trigger": false,
      "metar": "METAR LKPR 192300Z 06011KT CAVOK M04/M07 Q1013 NOSIG",
      "taf": "TAF LKPR 192300Z 2000/2106 06009KT CAVOK"
    },
    {
      "icao": "LLBG",
      "alert": "OK",
      "vis_m": 9999,
      "fzfg": false,
      "metar_trigger": false,
      "taf_trigger": false,
      "metar": "METAR LLBG 192250Z VRB02KT CAVOK 11/07 Q1023 NOSIG",
      "taf": "TAF LLBG 192303Z 2000/2024 VRB04KT CAVOK"
    },
    {
      "icao": "LMML",
      "alert": "OK",
      "vis_m": 9999,
      "fzfg": false,
      "metar_trigger": false,
      "taf_trigger": false,
      "metar": "METAR LMML 192315Z 31019KT 9999 FEW020 13/05 Q1016 NOSIG",
      "taf": "TAF LMML 192300Z 2000/2024 31017KT 9999 FEW025"
    },
    {
      "icao": "LOWW",
      "alert": "OK",
      "vis_m": 2200,
      "fzfg": false,
      "metar_trigger": false,
      "taf_trigger": false,
      "metar": "METAR LOWW 192250Z 36006KT 2200 1400E R29/P1500U SN FEW001 BKN002 M00/M00 Q1009 TEMPO 3200 -SN",
      "taf": "TAF LOWW 192315Z 2000/2106 02007KT 3500 SN BKN002 OVC005 TXM01/2015Z TNM06/2105Z"
    },
    {
      "icao": "LPFR",
      "alert": "OK",
      "vis_m": 9999,
      "fzfg": false,
      "metar_trigger": false,
      "taf_trigger": false,
      "metar": "METAR LPFR 192300Z 35004KT CAVOK 09/06 Q1029",
      "taf": "TAF LPFR 192300Z 2000/2024 36005KT CAVOK"
    },
    {
      "icao": "LPMA",
      "alert": "OK",
      "vis_m": 9999,
      "fzfg": false,
      "metar_trigger": false,
      "taf_trigger": false,
      "metar": "METAR LPMA 192300Z 03014KT 9999 BKN016 16/09 Q1028",
      "taf": "TAF LPMA 192300Z 2000/2024 02012KT 9999 SCT015"
    },
    {
      "icao": "LPPR",
      "alert": "OK",
      "vis_m": 9999,
      "fzfg": false,
      "metar_trigger": false,
      "taf_trigger": false,
      "metar": "METAR LPPR 192300Z 10001KT CAVOK 07/06 Q1031",
      "taf": "TAF LPPR 192300Z 2000/2024 VRB02KT 9999 SCT030"
    },
    {
      "icao": "LPPS",
      "alert": "OK",
      "vis_m": 9999,
      "fzfg": false,
      "metar_trigger": false,
      "taf_trigger": false,
      "metar": "METAR LPPS 192300Z 08010KT 030V110 9999 SCT015 BKN030 16/09 Q1029",
      "taf": "TAF LPPS 192300Z 2000/2106 07010KT 9999 FEW015 BKN030"
    },
    {
      "icao": "LPPT",
      "alert": "OK",
      "vis_m": 9999,
      "fzfg": false,
      "metar_trigger": false,
      "taf_trigger": false,
      "metar": "METAR LPPT 192300Z 32006KT CAVOK 09/06 Q1030",
      "taf": "TAF LPPT 192300Z 2000/2106 32008KT CAVOK"
    },
    {
      "icao": "LQBK",
      "alert": "OK",
      "vis_m": 9999,
      "fzfg": false,
      "metar_trigger": false,
      "taf_trigger": false,
      "metar": "METAR LQBK 192300Z 15003KT 100V200 CAVOK 11/05 Q1000 BECMG 30012KT 4000 RA",
      "taf": "TAF LQBK 192300Z 2000/2024 33006KT 9999 SCT015 BKN035 TX10/2000Z TNM00/2024Z"
    },
    {
      "icao": "LQSA",
      "alert": "OK",
      "vis_m": 5000,
      "fzfg": false,
      "metar_trigger": false,
      "taf_trigger": false,
      "metar": "METAR LQSA 192300Z 14021G34KT 5000 TSRA FEW030CB BKN040 09/07 Q1002 NOSIG",
      "taf": "TAF LQSA 192300Z 2000/2024 14013KT 9999 SCT030 BKN045 TX09/2013Z TN04/2006Z"
    },
    {
      "icao": "LQTZ",
      "alert": "OK",
      "vis_m": 9999,
      "fzfg": false,
      "metar_trigger": false,
      "taf_trigger": false,
      "metar": "METAR LQTZ 192300Z 13008KT 9999 SCT060 11/03 Q1002",
      "taf": "TAF LQTZ 192300Z 2000/2024 09006KT CAVOK TX10/2000Z TNM01/2024Z"
    },
    {
      "icao": "LRBC",
      "alert": "OK",
      "vis_m": 9999,
      "fzfg": false,
      "metar_trigger": false,
      "taf_trigger": false,
      "metar": "METAR LRBC 192300Z 17006KT CAVOK M01/M03 Q1013",
      "taf": "TAF LRBC 192000Z 1921/2006 17011KT 7000 SCT005"
    },
    {
      "icao": "LRBS",
      "alert": "OK",
      "vis_m": 9999,
      "fzfg": false,
      "metar_trigger": false,
      "taf_trigger": false,
      "metar": "METAR LRBS 192300Z 03003KT CAVOK 00/M03 Q1014 NOSIG",
      "taf": "TAF LRBS 191700Z 1918/2018 VRB03KT CAVOK"
    },
    {
      "icao": "LRBV",
      "alert": "OK",
      "vis_m": 9999,
      "fzfg": false,
      "metar_trigger": false,
      "taf_trigger": false,
      "metar": "METAR LRBV 192300Z AUTO 12010KT 9999 FEW200/// M01/M05 Q1011",
      "taf": "TAF LRBV 192000Z 1921/2006 12006KT CAVOK"
    },
    {
      "icao": "LRCL",
      "alert": "OK",
      "vis_m": 9999,
      "fzfg": false,
      "metar_trigger": false,
      "taf_trigger": false,
      "metar": "METAR LRCL 192300Z 09004KT 050V120 9999 OVC071 03/M02 Q1011",
      "taf": "TAF LRCL 192000Z 1921/2006 06005KT 9999 OVC065"
    },
    {
      "icao": "LRCV",
      "alert": "OK",
      "vis_m": 9999,
      "fzfg": false,
      "metar_trigger": false,
      "taf_trigger": false,
      "metar": "METAR LRCV 192300Z 09008KT CAVOK 02/M02 Q1013",
      "taf": "TAF LRCV 192000Z 1921/2006 09010KT CAVOK"
    },
    {
      "icao": "LRIA",
      "alert": "OK",
      "vis_m": 9999,
      "fzfg": false,
      "metar_trigger": false,
      "taf_trigger": false,
      "metar": "METAR LRIA 192300Z 12006KT CAVOK 01/M02 Q1014",
      "taf": "TAF LRIA 192000Z 1921/2006 10010KT CAVOK"
    },
    {
      "icao": "LROP",
      "alert": "OK",
      "vis_m": 6000,
      "fzfg": false,
      "metar_trigger": false,
      "taf_trigger": false,
      "metar": "METAR LROP 192300Z 06003KT 6000 NSC M01/M03 Q1014 NOSIG",
      "taf": "TAF LROP 191700Z 1918/2018 VRB03KT CAVOK"
    },
    {
      "icao": "LRSB",
      "alert": "OK",
      "vis_m": 9999,
      "fzfg": false,
      "metar_trigger": false,
      "taf_trigger": false,
      "metar": "METAR LRSB 192300Z VRB02KT CAVOK 01/M00 Q1010",
      "taf": "TAF LRSB 191700Z 1918/2018 VRB04KT CAVOK"
    },
    {
      "icao": "LRSM",
      "alert": "OK",
      "vis_m": 9999,
      "fzfg": false,
      "metar_trigger": false,
      "taf_trigger": false,
      "metar": "METAR LRSM 192300Z AUTO 08008KT 9999 BKN050/// 04/01 Q1011 REDZ",
      "taf": "TAF LRSM 191400Z 1915/1924 14006KT 9999 BKN035"
    },
    {
      "icao": "LRSV",
      "alert": "OK",
      "vis_m": 9999,
      "fzfg": false,
      "metar_trigger": false,
      "taf_trigger": false,
      "metar": "METAR LRSV 192300Z 22007KT CAVOK M00/M03 Q1011",
      "taf": "TAF LRSV 192000Z 1921/2006 VRB04KT 7000 SCT010"
    },
    {
      "icao": "LRTM",
      "alert": "OK",
      "vis_m": 9999,
      "fzfg": false,
      "metar_trigger": false,
      "taf_trigger": false,
      "metar": "METAR LRTM 192300Z AUTO 07004KT 9999 -RA NCD 02/M01 Q1011",
      "taf": "TAF LRTM 191400Z 1915/1924 08007KT CAVOK"
    },
    {
      "icao": "LRTR",
      "alert": "OK",
      "vis_m": 9999,
      "fzfg": false,
      "metar_trigger": false,
      "taf_trigger": false,
      "metar": "METAR LRTR 192300Z 10009KT CAVOK 06/03 Q1007 NOSIG",
      "taf": "TAF LRTR 191700Z 1918/2018 12010KT CAVOK"
    },
    {
      "icao": "LTAC",
      "alert": "OK",
      "vis_m": 9999,
      "fzfg": false,
      "metar_trigger": false,
      "taf_trigger": false,
      "metar": "METAR LTAC 192250Z VRB01KT CAVOK M02/M04 Q1023 NOSIG RMK RWY21C VRB02KT RWY03L 00000KT RWY21R 03003KT RWY03R 00000KT RWY21L 00000KT",
      "taf": "TAF LTAC 192240Z 2000/2024 VRB02KT CAVOK"
    },
    {
      "icao": "LTFM",
      "alert": "OK",
      "vis_m": 9999,
      "fzfg": false,
      "metar_trigger": false,
      "taf_trigger": false,
      "metar": "METAR LTFM 192250Z 20014KT CAVOK 08/04 Q1019 NOSIG RMK RWY17L 20015KT RWY34L 19012KT RWY16R 19015KT RWY36 21012KT RWY18 20015KT",
      "taf": "TAF LTFM 192240Z 2000/2106 19013KT CAVOK"
    },
    {
      "icao": "LUKK",
      "alert": "OK",
      "vis_m": 9999,
      "fzfg": false,
      "metar_trigger": false,
      "taf_trigger": false,
      "metar": "METAR LUKK 192300Z 16008KT CAVOK 00/M04 Q1015 NOSIG",
      "taf": "TAF LUKK 192306Z 2000/2024 VRB04KT 5000 BR SCT012"
    },
    {
      "icao": "LWOH",
      "alert": "OK",
      "vis_m": null,
      "fzfg": false,
      "metar_trigger": false,
      "taf_trigger": false,
      "metar": "",
      "taf": "TAF LWOH 192045Z 1921/2021 18012KT 9999 BKN040"
    },
    {
      "icao": "LWSK",
      "alert": "OK",
      "vis_m": null,
      "fzfg": false,
      "metar_trigger": false,
      "taf_trigger": false,
      "metar": "",
      "taf": "TAF LWSK 192045Z 1921/2021 15012KT 9999 BKN070"
    },
    {
      "icao": "LYBE",
      "alert": "OK",
      "vis_m": 9999,
      "fzfg": false,
      "metar_trigger": false,
      "taf_trigger": false,
      "metar": "METAR LYBE 192300Z 13013KT CAVOK 10/01 Q1006 NOSIG",
      "taf": "TAF LYBE 191700Z 1918/2018 12015KT CAVOK TX10/1918Z TN06/2005Z"
    },
    {
      "icao": "LYNI",
      "alert": "OK",
      "vis_m": 9999,
      "fzfg": false,
      "metar_trigger": false,
      "taf_trigger": false,
      "metar": "METAR LYNI 192300Z 15006KT 110V200 9999 SCT083 10/01 Q1010 NOSIG",
      "taf": "TAF LYNI 191700Z 1918/2018 15005KT CAVOK TX08/2012Z TN04/2004Z"
    },
    {
      "icao": "LYPG",
      "alert": "OK",
      "vis_m": 9999,
      "fzfg": false,
      "metar_trigger": false,
      "taf_trigger": false,
      "metar": "METAR LYPG 192300Z 14019KT 9999 FEW026 SCT043 OVC073 14/08 Q1008 NOSIG",
      "taf": "TAF LYPG 191700Z 1918/2018 16008KT 9999 FEW025 SCT040 OVC070 TX12/1922Z TN07/2006Z"
    },
    {
      "icao": "LZIB",
      "alert": "OK",
      "vis_m": 6000,
      "fzfg": false,
      "metar_trigger": false,
      "taf_trigger": false,
      "metar": "METAR LZIB 192300Z 02011KT 6000 -RASN FEW004 SCT006 BKN014 01/01 Q1009 NOSIG",
      "taf": "TAF LZIB 192315Z 2000/2100 02012KT 7000 -RASN FEW004 BKN018"
    },
    {
      "icao": "LZKZ",
      "alert": "OK",
      "vis_m": 8000,
      "fzfg": false,
      "metar_trigger": false,
      "taf_trigger": false,
      "metar": "METAR LZKZ 192300Z 01011KT 8000 -SN FEW027 BKN033 OVC045 01/M00 Q1012 NOSIG",
      "taf": "TAF LZKZ 192315Z 2000/2100 01012KT 7000 FEW023 BKN032 OVC040"
    },
    {
      "icao": "LZTT",
      "alert": "OK",
      "vis_m": 5000,
      "fzfg": false,
      "metar_trigger": false,
      "taf_trigger": false,
      "metar": "METAR LZTT 192300Z 07009KT 5000 BR BKN007 OVC016 M02/M03 Q1010",
      "taf": "TAF LZTT 192315Z 2000/2100 07012KT 9999 FEW010 OVC022"
    },
    {
      "icao": "OEJN",
      "alert": "OK",
      "vis_m": 9999,
      "fzfg": false,
      "metar_trigger": false,
      "taf_trigger": false,
      "metar": "METAR OEJN 192300Z 36003KT CAVOK 24/18 Q1013 NOSIG",
      "taf": "TAF OEJN 192300Z 2000/2106 02006KT 7000 NSC"
    },
    {
      "icao": "OEMA",
      "alert": "OK",
      "vis_m": 8000,
      "fzfg": false,
      "metar_trigger": false,
      "taf_trigger": false,
      "metar": "METAR OEMA 192300Z 02011KT 8000 NSC 23/00 Q1019 NOSIG",
      "taf": "TAF OEMA 192300Z 2000/2106 VRB03KT 7000 NSC"
    },
    {
      "icao": "OJAI",
      "alert": "OK",
      "vis_m": 4500,
      "fzfg": false,
      "metar_trigger": false,
      "taf_trigger": false,
      "metar": "METAR OJAI 192300Z 33001KT 4500 BR NSC 05/03 Q1024 NOSIG",
      "taf": ""
    },
    {
      "icao": "OMAA",
      "alert": "OK",
      "vis_m": 9999,
      "fzfg": false,
      "metar_trigger": false,
      "taf_trigger": false,
      "metar": "METAR OMAA 192300Z 06006KT CAVOK 20/13 Q1016 NOSIG",
      "taf": "TAF OMAA 192300Z 2000/2106 06007KT 8000 NSC"
    },
    {
      "icao": "OMDB",
      "alert": "OK",
      "vis_m": 9999,
      "fzfg": false,
      "metar_trigger": false,
      "taf_trigger": false,
      "metar": "METAR OMDB 192300Z 07004KT 010V100 CAVOK 22/12 Q1016 NOSIG",
      "taf": "TAF OMDB 192300Z 2000/2106 08005KT CAVOK"
    },
    {
      "icao": "UAAA",
      "alert": "OK",
      "vis_m": 9999,
      "fzfg": false,
      "metar_trigger": false,
      "taf_trigger": false,
      "metar": "METAR UAAA 192300Z VRB01MPS 9999 BKN100 08/04 Q1022 NOSIG",
      "taf": "TAF UAAA 191704Z 1918/2018 21003MPS 6000 SCT050CB BKN100 TX12/2009Z TN03/2003Z"
    },
    {
      "icao": "UBBB",
      "alert": "OK",
      "vis_m": 9999,
      "fzfg": false,
      "metar_trigger": false,
      "taf_trigger": false,
      "metar": "METAR UBBB 192300Z 32019G29KT CAVOK 09/04 Q1021 NOSIG",
      "taf": "TAF UBBB 192304Z 2000/2024 32018G28KT 9999 BKN030 TX10/2010Z TN07/2002Z"
    },
    {
      "icao": "UDSG",
      "alert": "OK",
      "vis_m": 9999,
      "fzfg": false,
      "metar_trigger": false,
      "taf_trigger": false,
      "metar": "METAR UDSG 192300Z 10006KT 9999 SCT049 M05/M08 Q1024 NOSIG",
      "taf": "TAF UDSG 191658Z 1918/2018 VRB06KT 9999 SCT040"
    },
    {
      "icao": "UDYZ",
      "alert": "OK",
      "vis_m": 9999,
      "fzfg": false,
      "metar_trigger": false,
      "taf_trigger": false,
      "metar": "METAR UDYZ 192300Z 08004KT 040V150 9999 SCT043CB 02/M05 Q1024 NOSIG",
      "taf": "TAF UDYZ 191700Z 1918/2018 22006KT 9999 SCT040"
    },
    {
      "icao": "UGKO",
      "alert": "OK",
      "vis_m": 9999,
      "fzfg": false,
      "metar_trigger": false,
      "taf_trigger": false,
      "metar": "METAR UGKO 192300Z 05004KT 9999 SCT081 03/02 Q1028 NOSIG",
      "taf": "TAF UGKO 192300Z 2000/2024 08007KT CAVOK TX17/2011Z TN02/2003Z"
    }
  ]
}