{
  "ts_utc": "2026-06-25T23:14:09Z",
  "threshold_m": 150,
  "source": "stations_override.txt (ICAO list) + aviationweather.gov (METAR/TAF raw)",
  "station_count": 159,
  "stations": [
    {
      "icao": "BIKF",
      "alert": "OK",
      "vis_m": 9999,
      "fzfg": false,
      "metar_trigger": false,
      "taf_trigger": false,
      "metar": "METAR BIKF 252300Z 23012KT 9999 VCSH BKN017 OVC032 08/06 Q1003",
      "taf": "TAF BIKF 252220Z 2600/2700 24015KT 9999 -SHRA SCT012 BKN025 TX11/2614Z TN08/2603Z"
    },
    {
      "icao": "BKPR",
      "alert": "OK",
      "vis_m": 9999,
      "fzfg": false,
      "metar_trigger": false,
      "taf_trigger": false,
      "metar": "METAR BKPR 252300Z 03002KT CAVOK 20/15 Q1020 NOSIG",
      "taf": ""
    },
    {
      "icao": "EBCI",
      "alert": "OK",
      "vis_m": 9999,
      "fzfg": false,
      "metar_trigger": false,
      "taf_trigger": false,
      "metar": "METAR EBCI 252250Z 06004KT CAVOK 27/20 Q1017 NOSIG",
      "taf": "TAF EBCI 251710Z 2518/2624 07008KT CAVOK"
    },
    {
      "icao": "EDDB",
      "alert": "OK",
      "vis_m": 9999,
      "fzfg": false,
      "metar_trigger": false,
      "taf_trigger": false,
      "metar": "METAR EDDB 252250Z AUTO 05004KT 010V070 CAVOK 22/14 Q1019 NOSIG",
      "taf": "TAF EDDB 251700Z 2518/2618 33010KT CAVOK"
    },
    {
      "icao": "EDDH",
      "alert": "OK",
      "vis_m": 9999,
      "fzfg": false,
      "metar_trigger": false,
      "taf_trigger": false,
      "metar": "METAR EDDH 252250Z AUTO VRB01KT CAVOK 18/16 Q1020 NOSIG",
      "taf": "TAF EDDH 251700Z 2518/2624 33007KT CAVOK"
    },
    {
      "icao": "EDDK",
      "alert": "OK",
      "vis_m": 9999,
      "fzfg": false,
      "metar_trigger": false,
      "taf_trigger": false,
      "metar": "METAR EDDK 252250Z AUTO 09005KT 050V130 CAVOK 27/20 Q1017 NOSIG",
      "taf": "TAF EDDK 251700Z 2518/2624 05006KT CAVOK"
    },
    {
      "icao": "EDDN",
      "alert": "OK",
      "vis_m": 9999,
      "fzfg": false,
      "metar_trigger": false,
      "taf_trigger": false,
      "metar": "METAR EDDN 252250Z AUTO 05003KT 020V090 CAVOK 25/15 Q1019",
      "taf": "TAF EDDN 251700Z 2518/2618 03004KT CAVOK"
    },
    {
      "icao": "EDDS",
      "alert": "OK",
      "vis_m": 9999,
      "fzfg": false,
      "metar_trigger": false,
      "taf_trigger": false,
      "metar": "METAR EDDS 252250Z AUTO VRB01KT CAVOK 25/16 Q1018",
      "taf": "TAF EDDS 251700Z 2518/2618 04006KT CAVOK"
    },
    {
      "icao": "EDFH",
      "alert": "OK",
      "vis_m": 9999,
      "fzfg": false,
      "metar_trigger": false,
      "taf_trigger": false,
      "metar": "METAR EDFH 252250Z 10004KT 050V160 CAVOK 25/16 Q1020",
      "taf": "TAF EDFH 251700Z 2518/2618 08006KT CAVOK"
    },
    {
      "icao": "EDJA",
      "alert": "OK",
      "vis_m": 9999,
      "fzfg": false,
      "metar_trigger": false,
      "taf_trigger": false,
      "metar": "METAR EDJA 252250Z AUTO 07002KT 9999 // FEW150/// 20/13 Q1020",
      "taf": "TAF EDJA 251700Z 2518/2603 04010KT CAVOK"
    },
    {
      "icao": "EDLW",
      "alert": "OK",
      "vis_m": 9999,
      "fzfg": false,
      "metar_trigger": false,
      "taf_trigger": false,
      "metar": "METAR EDLW 252250Z AUTO 08006KT 9999 // NCD 24/20 Q1018",
      "taf": "TAF EDLW 251700Z 2518/2618 06006KT CAVOK"
    },
    {
      "icao": "EDNY",
      "alert": "OK",
      "vis_m": 9999,
      "fzfg": false,
      "metar_trigger": false,
      "taf_trigger": false,
      "metar": "METAR EDNY 252250Z AUTO 04004KT 9999 // NCD 25/13 Q1018",
      "taf": "TAF EDNY 251700Z 2518/2603 04009KT CAVOK"
    },
    {
      "icao": "EDSB",
      "alert": "OK",
      "vis_m": 9999,
      "fzfg": false,
      "metar_trigger": false,
      "taf_trigger": false,
      "metar": "METAR EDSB 252250Z AUTO 02005KT 9999 // NCD 25/20 Q1016",
      "taf": "TAF EDSB 251700Z 2518/2618 03009KT CAVOK"
    },
    {
      "icao": "EETN",
      "alert": "OK",
      "vis_m": 9999,
      "fzfg": false,
      "metar_trigger": false,
      "taf_trigger": false,
      "metar": "METAR EETN 252250Z 30006KT 270V330 9999 SCT026 SCT038 16/14 Q1015",
      "taf": "TAF EETN 251730Z 2518/2618 27009KT 9999 BKN045"
    },
    {
      "icao": "EFTU",
      "alert": "OK",
      "vis_m": 9999,
      "fzfg": false,
      "metar_trigger": false,
      "taf_trigger": false,
      "metar": "METAR EFTU 252250Z AUTO 29005KT CAVOK 11/10 Q1016",
      "taf": "TAF EFTU 252033Z 2521/2621 30005KT CAVOK"
    },
    {
      "icao": "EGBB",
      "alert": "OK",
      "vis_m": 9999,
      "fzfg": false,
      "metar_trigger": false,
      "taf_trigger": false,
      "metar": "METAR EGBB 252250Z 13007KT CAVOK 26/19 Q1014",
      "taf": "TAF EGBB 252302Z 2600/2624 VRB05KT 9999 FEW040"
    },
    {
      "icao": "EGGP",
      "alert": "OK",
      "vis_m": 9999,
      "fzfg": false,
      "metar_trigger": false,
      "taf_trigger": false,
      "metar": "METAR EGGP 252250Z 09004KT 060V120 CAVOK 24/18 Q1013",
      "taf": "TAF EGGP 252304Z 2600/2624 12009KT 9999 FEW030"
    },
    {
      "icao": "EGGW",
      "alert": "OK",
      "vis_m": 9999,
      "fzfg": false,
      "metar_trigger": false,
      "taf_trigger": false,
      "metar": "METAR EGGW 252250Z AUTO 12008KT 9999 NCD 22/19 Q1015",
      "taf": "TAF EGGW 252303Z 2600/2624 11008KT CAVOK"
    },
    {
      "icao": "EGKK",
      "alert": "OK",
      "vis_m": 9999,
      "fzfg": false,
      "metar_trigger": false,
      "taf_trigger": false,
      "metar": "METAR EGKK 252250Z 08006KT CAVOK 22/20 Q1014",
      "taf": "TAF EGKK 252253Z 2600/2706 08004KT CAVOK"
    },
    {
      "icao": "EGNM",
      "alert": "OK",
      "vis_m": 9999,
      "fzfg": false,
      "metar_trigger": false,
      "taf_trigger": false,
      "metar": "METAR EGNM 252250Z 09004KT 060V120 CAVOK 16/14 Q1016",
      "taf": "TAF EGNM 252302Z 2600/2624 11007KT 9999 FEW045"
    },
    {
      "icao": "EGPD",
      "alert": "OK",
      "vis_m": 9000,
      "fzfg": false,
      "metar_trigger": false,
      "taf_trigger": false,
      "metar": "METAR EGPD 252250Z AUTO 13006KT 9000 BKN006 14/14 Q1015",
      "taf": "TAF EGPD 252258Z 2600/2624 15010KT 9999 BKN006"
    },
    {
      "icao": "EGPF",
      "alert": "OK",
      "vis_m": 9999,
      "fzfg": false,
      "metar_trigger": false,
      "taf_trigger": false,
      "metar": "METAR EGPF 252250Z AUTO 04005KT 9999 NCD 18/16 Q1013",
      "taf": "TAF EGPF 252255Z 2600/2624 08008KT 9999 FEW030"
    },
    {
      "icao": "EHBK",
      "alert": "OK",
      "vis_m": 9999,
      "fzfg": false,
      "metar_trigger": false,
      "taf_trigger": false,
      "metar": "METAR EHBK 252255Z AUTO 07007KT 9999 NCD 26/20 Q1017",
      "taf": "TAF EHBK 251715Z 2518/2624 04010KT CAVOK"
    },
    {
      "icao": "EHEH",
      "alert": "OK",
      "vis_m": 9999,
      "fzfg": false,
      "metar_trigger": false,
      "taf_trigger": false,
      "metar": "METAR EHEH 252255Z AUTO 07007KT 9999 NCD 26/21 Q1017 BLU",
      "taf": "TAF EHEH 251701Z 2518/2624 06009KT CAVOK"
    },
    {
      "icao": "EKBI",
      "alert": "OK",
      "vis_m": 9999,
      "fzfg": false,
      "metar_trigger": false,
      "taf_trigger": false,
      "metar": "METAR EKBI 252250Z AUTO 30005KT 9999 NCD 13/12 Q1021",
      "taf": "TAF EKBI 252027Z 2521/2621 30006KT CAVOK"
    },
    {
      "icao": "EKCH",
      "alert": "OK",
      "vis_m": 9999,
      "fzfg": false,
      "metar_trigger": false,
      "taf_trigger": false,
      "metar": "METAR EKCH 252250Z AUTO 29002KT 9999 NCD 19/13 Q1019 NOSIG",
      "taf": "TAF EKCH 252027Z 2521/2621 36005KT CAVOK"
    },
    {
      "icao": "ENAL",
      "alert": "OK",
      "vis_m": 9999,
      "fzfg": false,
      "metar_trigger": false,
      "taf_trigger": false,
      "metar": "METAR ENAL 252250Z AUTO 14004KT 110V170 9999 BKN027/// OVC032/// 13/09 Q1019",
      "taf": "TAF ENAL 252000Z 2521/2606 25010KT 9999 FEW010 BKN020"
    },
    {
      "icao": "ENBR",
      "alert": "OK",
      "vis_m": 9999,
      "fzfg": false,
      "metar_trigger": false,
      "taf_trigger": false,
      "metar": "METAR ENBR 252250Z VRB02KT 9999 FEW036 13/11 Q1020 RMK WIND 1200FT 16011KT",
      "taf": "TAF ENBR 251700Z 2518/2618 18008KT 9999 FEW012 BKN030"
    },
    {
      "icao": "ENGM",
      "alert": "OK",
      "vis_m": 9999,
      "fzfg": false,
      "metar_trigger": false,
      "taf_trigger": false,
      "metar": "METAR ENGM 252250Z 31005KT 280V350 CAVOK 18/08 Q1018",
      "taf": "TAF ENGM 251700Z 2518/2618 32006KT CAVOK"
    },
    {
      "icao": "ENHD",
      "alert": "OK",
      "vis_m": 9999,
      "fzfg": false,
      "metar_trigger": false,
      "taf_trigger": false,
      "metar": "METAR ENHD 252250Z AUTO 19005KT 9999 NCD 14/11 Q1020",
      "taf": "TAF ENHD 251400Z 2515/2522 27009KT 9999 FEW030 BKN040"
    },
    {
      "icao": "ENTC",
      "alert": "OK",
      "vis_m": 7000,
      "fzfg": false,
      "metar_trigger": false,
      "taf_trigger": false,
      "metar": "METAR ENTC 252250Z AUTO 21003KT 7000 +DZRA FEW006/// SCT010/// BKN015/// 10/08 Q1010 RMK WIND 2600FT 19013KT",
      "taf": "TAF ENTC 251700Z 2518/2618 22005KT 9999 FEW020 BKN040"
    },
    {
      "icao": "ENTO",
      "alert": "OK",
      "vis_m": 9999,
      "fzfg": false,
      "metar_trigger": false,
      "taf_trigger": false,
      "metar": "METAR ENTO 252250Z AUTO 00000KT 9999 // NCD 16/16 Q1018",
      "taf": "TAF ENTO 251700Z 2518/2618 19010KT CAVOK"
    },
    {
      "icao": "ENVA",
      "alert": "OK",
      "vis_m": 6000,
      "fzfg": false,
      "metar_trigger": false,
      "taf_trigger": false,
      "metar": "METAR ENVA 252250Z 04002KT 6000 -DZ FEW011 BKN015 11/11 Q1019 RMK WIND 670FT 18003KT",
      "taf": ""
    },
    {
      "icao": "ENZV",
      "alert": "OK",
      "vis_m": 9999,
      "fzfg": false,
      "metar_trigger": false,
      "taf_trigger": false,
      "metar": "METAR ENZV 252250Z 23002KT CAVOK 14/10 Q1021",
      "taf": "TAF ENZV 251700Z 2518/2618 31010KT CAVOK"
    },
    {
      "icao": "EPGD",
      "alert": "OK",
      "vis_m": 9999,
      "fzfg": false,
      "metar_trigger": false,
      "taf_trigger": false,
      "metar": "METAR EPGD 252300Z 25005KT 220V280 CAVOK 17/15 Q1018",
      "taf": "TAF EPGD 251730Z 2518/2618 06010KT CAVOK"
    },
    {
      "icao": "EPKK",
      "alert": "OK",
      "vis_m": 9999,
      "fzfg": false,
      "metar_trigger": false,
      "taf_trigger": false,
      "metar": "METAR EPKK 252300Z 28002KT CAVOK 19/15 Q1019",
      "taf": "TAF EPKK 252030Z 2521/2621 22003KT CAVOK"
    },
    {
      "icao": "EPKT",
      "alert": "OK",
      "vis_m": 9999,
      "fzfg": false,
      "metar_trigger": false,
      "taf_trigger": false,
      "metar": "METAR EPKT 252300Z 01001KT CAVOK 17/15 Q1019",
      "taf": "TAF EPKT 251730Z 2518/2618 33010KT CAVOK"
    },
    {
      "icao": "EPLB",
      "alert": "OK",
      "vis_m": 9999,
      "fzfg": false,
      "metar_trigger": false,
      "taf_trigger": false,
      "metar": "METAR EPLB 252300Z 33004KT CAVOK 20/15 Q1017",
      "taf": "TAF EPLB 251730Z 2518/2618 VRB04KT CAVOK"
    },
    {
      "icao": "EPMO",
      "alert": "OK",
      "vis_m": 9999,
      "fzfg": false,
      "metar_trigger": false,
      "taf_trigger": false,
      "metar": "METAR EPMO 252300Z VRB01KT CAVOK 19/15 Q1017",
      "taf": "TAF EPMO 251730Z 2518/2618 32010KT CAVOK"
    },
    {
      "icao": "EPPO",
      "alert": "OK",
      "vis_m": 9999,
      "fzfg": false,
      "metar_trigger": false,
      "taf_trigger": false,
      "metar": "METAR EPPO 252300Z 01004KT CAVOK 21/15 Q1018",
      "taf": "TAF EPPO 251730Z 2518/2618 31006KT CAVOK"
    },
    {
      "icao": "EPRA",
      "alert": "OK",
      "vis_m": 9999,
      "fzfg": false,
      "metar_trigger": false,
      "taf_trigger": false,
      "metar": "METAR EPRA 252300Z VRB02KT CAVOK 20/15 Q1017",
      "taf": "TAF EPRA 252030Z 2521/2606 VRB02KT CAVOK"
    },
    {
      "icao": "EPRZ",
      "alert": "OK",
      "vis_m": 9999,
      "fzfg": false,
      "metar_trigger": false,
      "taf_trigger": false,
      "metar": "METAR EPRZ 252300Z 23003KT CAVOK 20/15 Q1018",
      "taf": "TAF EPRZ 251730Z 2518/2618 28008KT CAVOK"
    },
    {
      "icao": "EPSC",
      "alert": "OK",
      "vis_m": 9999,
      "fzfg": false,
      "metar_trigger": false,
      "taf_trigger": false,
      "metar": "METAR EPSC 252300Z 11002KT CAVOK 15/14 Q1019",
      "taf": "TAF EPSC 251730Z 2518/2618 34010KT CAVOK"
    },
    {
      "icao": "EPSY",
      "alert": "OK",
      "vis_m": 9999,
      "fzfg": false,
      "metar_trigger": false,
      "taf_trigger": false,
      "metar": "METAR EPSY 252300Z 21003KT CAVOK 15/14 Q1018 RERA",
      "taf": "TAF EPSY 252030Z 2521/2606 VRB02KT CAVOK"
    },
    {
      "icao": "EPWA",
      "alert": "OK",
      "vis_m": 9999,
      "fzfg": false,
      "metar_trigger": false,
      "taf_trigger": false,
      "metar": "METAR EPWA 252300Z 11002KT CAVOK 22/14 Q1017 NOSIG",
      "taf": "TAF EPWA 252030Z 2521/2621 VRB04KT CAVOK"
    },
    {
      "icao": "EPWR",
      "alert": "OK",
      "vis_m": 9999,
      "fzfg": false,
      "metar_trigger": false,
      "taf_trigger": false,
      "metar": "METAR EPWR 252300Z VRB01KT CAVOK 22/19 Q1018",
      "taf": "TAF EPWR 252030Z 2521/2621 14003KT CAVOK"
    },
    {
      "icao": "ESGG",
      "alert": "OK",
      "vis_m": 9999,
      "fzfg": false,
      "metar_trigger": false,
      "taf_trigger": false,
      "metar": "METAR ESGG 252250Z 26002KT CAVOK 16/11 Q1019",
      "taf": "TAF ESGG 252030Z 2521/2621 VRB03KT CAVOK"
    },
    {
      "icao": "ESKN",
      "alert": "OK",
      "vis_m": 9999,
      "fzfg": false,
      "metar_trigger": false,
      "taf_trigger": false,
      "metar": "METAR ESKN 252250Z 10006KT CAVOK 17/13 Q1018",
      "taf": "TAF ESKN 252030Z 2521/2621 13005KT CAVOK"
    },
    {
      "icao": "ESMS",
      "alert": "OK",
      "vis_m": 9999,
      "fzfg": false,
      "metar_trigger": false,
      "taf_trigger": false,
      "metar": "METAR ESMS 252250Z 35005KT CAVOK 15/14 Q1019",
      "taf": "TAF ESMS 252027Z 2521/2621 31006KT CAVOK"
    },
    {
      "icao": "ESSA",
      "alert": "OK",
      "vis_m": 9999,
      "fzfg": false,
      "metar_trigger": false,
      "taf_trigger": false,
      "metar": "METAR ESSA 252250Z 00000KT CAVOK 11/09 Q1018 NOSIG",
      "taf": "TAF ESSA 252030Z 2521/2621 12005KT CAVOK"
    },
    {
      "icao": "EYKA",
      "alert": "OK",
      "vis_m": 9999,
      "fzfg": false,
      "metar_trigger": false,
      "taf_trigger": false,
      "metar": "METAR EYKA 252250Z VRB01KT CAVOK 15/14 Q1017",
      "taf": "TAF EYKA 252300Z 2600/2624 VRB03KT 9000 NSC"
    },
    {
      "icao": "EYPA",
      "alert": "OK",
      "vis_m": 9999,
      "fzfg": false,
      "metar_trigger": false,
      "taf_trigger": false,
      "metar": "METAR EYPA 252250Z AUTO VRB01KT 9999 NCD 16/15 Q1017",
      "taf": "TAF EYPA 252300Z 2600/2624 VRB03KT 5000 MIFG BR NSC"
    },
    {
      "icao": "EYVI",
      "alert": "OK",
      "vis_m": 9999,
      "fzfg": false,
      "metar_trigger": false,
      "taf_trigger": false,
      "metar": "METAR EYVI 252250Z 02001KT CAVOK 13/12 Q1017 NOSIG",
      "taf": "TAF EYVI 252300Z 2600/2624 VRB03KT 9000 NSC"
    },
    {
      "icao": "GCFV",
      "alert": "OK",
      "vis_m": 9999,
      "fzfg": false,
      "metar_trigger": false,
      "taf_trigger": false,
      "metar": "METAR GCFV 252300Z AUTO 01010KT CAVOK 22/18 Q1021",
      "taf": "TAF GCFV 252000Z 2521/2621 36008KT 9999 SCT025 TX26/2614Z TN20/2606Z"
    },
    {
      "icao": "GCLP",
      "alert": "OK",
      "vis_m": 9999,
      "fzfg": false,
      "metar_trigger": false,
      "taf_trigger": false,
      "metar": "METAR GCLP 252300Z 36012KT 9999 FEW025 23/18 Q1021 NOSIG",
      "taf": "TAF GCLP 252000Z 2521/2621 36015KT 9999 SCT025 TX26/2614Z TN20/2606Z"
    },
    {
      "icao": "GCTS",
      "alert": "OK",
      "vis_m": 9999,
      "fzfg": false,
      "metar_trigger": false,
      "taf_trigger": false,
      "metar": "METAR GCTS 252300Z 08008KT 9999 SCT030 23/18 Q1022 NOSIG",
      "taf": "TAF GCTS 252000Z 2521/2621 06008KT 9999 SCT030 TX27/2614Z TN19/2606Z"
    },
    {
      "icao": "GMAD",
      "alert": "OK",
      "vis_m": 9999,
      "fzfg": false,
      "metar_trigger": false,
      "taf_trigger": false,
      "metar": "METAR GMAD 252300Z 18007KT 150V210 9999 OVC013 22/18 Q1018 NOSIG",
      "taf": "TAF GMAD 251700Z 2518/2624 22011KT CAVOK"
    },
    {
      "icao": "GMMN",
      "alert": "OK",
      "vis_m": 9999,
      "fzfg": false,
      "metar_trigger": false,
      "taf_trigger": false,
      "metar": "METAR GMMN 252300Z 05007KT 9999 SCT017 20/17 Q1020 NOSIG",
      "taf": "TAF GMMN 251700Z 2518/2624 34011KT CAVOK"
    },
    {
      "icao": "GMMX",
      "alert": "OK",
      "vis_m": 9999,
      "fzfg": false,
      "metar_trigger": false,
      "taf_trigger": false,
      "metar": "METAR GMMX 252300Z 02004KT 350V080 CAVOK 23/16 Q1020 NOSIG",
      "taf": "TAF GMMX 251700Z 2518/2624 28006KT 8000 NSC"
    },
    {
      "icao": "HEGN",
      "alert": "OK",
      "vis_m": 9999,
      "fzfg": false,
      "metar_trigger": false,
      "taf_trigger": false,
      "metar": "METAR HEGN 252200Z 29015KT CAVOK 30/06 Q1008 NOSIG",
      "taf": "TAF HEGN 252300Z 2600/2706 29008G20KT CAVOK"
    },
    {
      "icao": "HEMA",
      "alert": "OK",
      "vis_m": 9999,
      "fzfg": false,
      "metar_trigger": false,
      "taf_trigger": false,
      "metar": "METAR HEMA 252200Z 29009KT CAVOK 28/00 Q1008 NOSIG",
      "taf": "TAF HEMA 252300Z 2600/2706 30008G20KT CAVOK"
    },
    {
      "icao": "HESH",
      "alert": "OK",
      "vis_m": 9999,
      "fzfg": false,
      "metar_trigger": false,
      "taf_trigger": false,
      "metar": "METAR HESH 252200Z 36015KT CAVOK 32/11 Q1007 NOSIG",
      "taf": "TAF HESH 252300Z 2600/2706 31011KT CAVOK"
    },
    {
      "icao": "HESX",
      "alert": "OK",
      "vis_m": 9999,
      "fzfg": false,
      "metar_trigger": false,
      "taf_trigger": false,
      "metar": "METAR HESX 252200Z 33007KT CAVOK 23/16 Q1013 NOSIG",
      "taf": "TAF HESX 252300Z 2600/2706 31006KT CAVOK"
    },
    {
      "icao": "LATI",
      "alert": "OK",
      "vis_m": 9999,
      "fzfg": false,
      "metar_trigger": false,
      "taf_trigger": false,
      "metar": "METAR LATI 252250Z 15003KT CAVOK 24/17 Q1016 NOSIG",
      "taf": "TAF LATI 252300Z 2600/2624 VRB03KT CAVOK TX35/2611Z TN20/2604Z"
    },
    {
      "icao": "LBPD",
      "alert": "OK",
      "vis_m": 9999,
      "fzfg": false,
      "metar_trigger": false,
      "taf_trigger": false,
      "metar": "METAR LBPD 252300Z AUTO 29005KT 9999 BKN077/// 24/16 Q1017",
      "taf": "TAF LBPD 251700Z 2518/2618 10010KT 9999 SCT070"
    },
    {
      "icao": "LBSF",
      "alert": "OK",
      "vis_m": 9999,
      "fzfg": false,
      "metar_trigger": false,
      "taf_trigger": false,
      "metar": "METAR LBSF 252300Z AUTO 18004KT 9999 FEW079/// 18/14 Q1019 NOSIG",
      "taf": "TAF LBSF 251700Z 2518/2618 05010KT 9999 SCT060"
    },
    {
      "icao": "LBWN",
      "alert": "OK",
      "vis_m": 9999,
      "fzfg": false,
      "metar_trigger": false,
      "taf_trigger": false,
      "metar": "METAR LBWN 252300Z AUTO VRB02KT 9999 NCD 19/14 Q1015 NOSIG",
      "taf": "TAF LBWN 251700Z 2518/2618 11010KT 9999 SCT045"
    },
    {
      "icao": "LCLK",
      "alert": "OK",
      "vis_m": 9999,
      "fzfg": false,
      "metar_trigger": false,
      "taf_trigger": false,
      "metar": "METAR LCLK 252300Z 23002KT CAVOK 24/23 Q1007 NOSIG",
      "taf": "TAF LCLK 251730Z 2518/2618 22010KT 9999 FEW020"
    },
    {
      "icao": "LCPH",
      "alert": "OK",
      "vis_m": 9999,
      "fzfg": false,
      "metar_trigger": false,
      "taf_trigger": false,
      "metar": "METAR LCPH 252300Z 34005KT 9999 FEW012 24/20 Q1007 NOSIG",
      "taf": "TAF LCPH 251730Z 2518/2618 30010KT 9999 FEW020"
    },
    {
      "icao": "LEAL",
      "alert": "OK",
      "vis_m": 9999,
      "fzfg": false,
      "metar_trigger": false,
      "taf_trigger": false,
      "metar": "METAR LEAL 252300Z VRB01KT 9999 SCT011 26/23 Q1017 NOSIG",
      "taf": ""
    },
    {
      "icao": "LEBB",
      "alert": "OK",
      "vis_m": 9999,
      "fzfg": false,
      "metar_trigger": false,
      "taf_trigger": false,
      "metar": "METAR LEBB 252300Z AUTO 06004KT CAVOK 22/19 Q1018",
      "taf": "TAF LEBB 251700Z 2518/2618 31011KT 9999 FEW040 TX32/2612Z TN19/2605Z"
    },
    {
      "icao": "LEBL",
      "alert": "OK",
      "vis_m": 9999,
      "fzfg": false,
      "metar_trigger": false,
      "taf_trigger": false,
      "metar": "METAR LEBL 252300Z 25006KT 9999 FEW025 26/23 Q1017 NOSIG",
      "taf": "TAF LEBL 251700Z 2518/2618 20010KT CAVOK TX32/2612Z TN23/2606Z"
    },
    {
      "icao": "LECH",
      "alert": "OK",
      "vis_m": 9999,
      "fzfg": false,
      "metar_trigger": false,
      "taf_trigger": false,
      "metar": "METAR LECH 252300Z AUTO 19004KT CAVOK 24/15 Q1018",
      "taf": "TAF LECH 251700Z 2518/2618 15010KT CAVOK TX33/2612Z TN18/2606Z"
    },
    {
      "icao": "LEMD",
      "alert": "OK",
      "vis_m": 9999,
      "fzfg": false,
      "metar_trigger": false,
      "taf_trigger": false,
      "metar": "METAR LEMD 252300Z 26005KT CAVOK 26/09 Q1019 NOSIG",
      "taf": "TAF LEMD 251700Z 2518/2624 21010KT CAVOK TX34/2616Z TN20/2605Z"
    },
    {
      "icao": "LEMG",
      "alert": "OK",
      "vis_m": 9999,
      "fzfg": false,
      "metar_trigger": false,
      "taf_trigger": false,
      "metar": "METAR LEMG 252300Z 28012KT CAVOK 25/15 Q1017 NOSIG",
      "taf": "TAF LEMG 251700Z 2518/2618 18010KT 9999 FEW080 TX33/2613Z TN20/2605Z"
    },
    {
      "icao": "LEVC",
      "alert": "OK",
      "vis_m": 9999,
      "fzfg": false,
      "metar_trigger": false,
      "taf_trigger": false,
      "metar": "METAR LEVC 252300Z 08004KT CAVOK 26/20 Q1017 NOSIG",
      "taf": "TAF LEVC 251700Z 2518/2618 11010KT CAVOK TX31/2612Z TN21/2606Z"
    },
    {
      "icao": "LEXJ",
      "alert": "OK",
      "vis_m": 9999,
      "fzfg": false,
      "metar_trigger": false,
      "taf_trigger": false,
      "metar": "METAR LEXJ 252300Z AUTO 00000KT CAVOK 19/18 Q1018",
      "taf": "TAF LEXJ 252000Z 2521/2621 VRB03KT 9999 FEW040 TX31/2612Z TN20/2605Z"
    },
    {
      "icao": "LEZG",
      "alert": "OK",
      "vis_m": 9999,
      "fzfg": false,
      "metar_trigger": false,
      "taf_trigger": false,
      "metar": "METAR LEZG 252300Z 11005KT CAVOK 27/13 Q1016 NOSIG",
      "taf": "TAF LEZG 251700Z 2518/2618 10010KT CAVOK TX38/2615Z TN22/2606Z"
    },
    {
      "icao": "LEZL",
      "alert": "OK",
      "vis_m": 9999,
      "fzfg": false,
      "metar_trigger": false,
      "taf_trigger": false,
      "metar": "METAR LEZL 252300Z 22009KT CAVOK 23/19 Q1019 NOSIG",
      "taf": "TAF LEZL 252000Z 2521/2621 24010KT CAVOK TX33/2615Z TN18/2605Z"
    },
    {
      "icao": "LFBD",
      "alert": "OK",
      "vis_m": 9999,
      "fzfg": false,
      "metar_trigger": false,
      "taf_trigger": false,
      "metar": "METAR LFBD 252300Z AUTO 30007KT 250V340 4100 +TSRA BR FEW030/// BKN044/// BKN056/// ///CB 23/21 Q1016 TEMPO VRB25G40KT BECMG CAVOK",
      "taf": ""
    },
    {
      "icao": "LFLL",
      "alert": "OK",
      "vis_m": 9999,
      "fzfg": false,
      "metar_trigger": false,
      "taf_trigger": false,
      "metar": "METAR LFLL 252300Z 15007KT CAVOK 30/13 Q1017 NOSIG",
      "taf": "TAF LFLL 251700Z 2518/2624 18010KT CAVOK"
    },
    {
      "icao": "LFLS",
      "alert": "OK",
      "vis_m": 9999,
      "fzfg": false,
      "metar_trigger": false,
      "taf_trigger": false,
      "metar": "METAR LFLS 252300Z AUTO 08007KT CAVOK 23/17 Q1018",
      "taf": ""
    },
    {
      "icao": "LFMN",
      "alert": "OK",
      "vis_m": 9999,
      "fzfg": false,
      "metar_trigger": false,
      "taf_trigger": false,
      "metar": "METAR LFMN 252300Z 33004KT CAVOK 26/19 Q1016 NOSIG",
      "taf": "TAF LFMN 252000Z 2521/2703 VRB03KT CAVOK"
    },
    {
      "icao": "LFOB",
      "alert": "OK",
      "vis_m": 9999,
      "fzfg": false,
      "metar_trigger": false,
      "taf_trigger": false,
      "metar": "METAR LFOB 252300Z AUTO VRB02KT CAVOK 26/19 Q1014 TEMPO 08012KT",
      "taf": "TAF LFOB 251700Z 2518/2618 08012KT CAVOK"
    },
    {
      "icao": "LFPO",
      "alert": "OK",
      "vis_m": 9999,
      "fzfg": false,
      "metar_trigger": false,
      "taf_trigger": false,
      "metar": "METAR LFPO 252300Z AUTO 13003KT 080V200 CAVOK 30/16 Q1013 NOSIG",
      "taf": "TAF LFPO 251700Z 2518/2624 11012KT CAVOK"
    },
    {
      "icao": "LFSB",
      "alert": "OK",
      "vis_m": 9999,
      "fzfg": false,
      "metar_trigger": false,
      "taf_trigger": false,
      "metar": "METAR LFSB 252300Z AUTO 00000KT CAVOK 24/17 Q1017 NOSIG",
      "taf": ""
    },
    {
      "icao": "LGAV",
      "alert": "OK",
      "vis_m": 9999,
      "fzfg": false,
      "metar_trigger": false,
      "taf_trigger": false,
      "metar": "METAR LGAV 252250Z 33004KT 9999 FEW025 27/11 Q1014 NOSIG",
      "taf": "TAF LGAV 252300Z 2600/2624 35005KT 9999 FEW025"
    },
    {
      "icao": "LGTS",
      "alert": "OK",
      "vis_m": 9999,
      "fzfg": false,
      "metar_trigger": false,
      "taf_trigger": false,
      "metar": "METAR LGTS 252250Z 11006KT 9999 FEW025 23/14 Q1015 NOSIG",
      "taf": "TAF LGTS 252300Z 2600/2624 VRB03KT 9999 FEW030"
    },
    {
      "icao": "LHBP",
      "alert": "OK",
      "vis_m": 9999,
      "fzfg": false,
      "metar_trigger": false,
      "taf_trigger": false,
      "metar": "METAR LHBP 252300Z 35005KT CAVOK 20/12 Q1018 NOSIG",
      "taf": "TAF LHBP 251715Z 2518/2618 36006KT CAVOK"
    },
    {
      "icao": "LHDC",
      "alert": "OK",
      "vis_m": 9999,
      "fzfg": false,
      "metar_trigger": false,
      "taf_trigger": false,
      "metar": "METAR LHDC 252245Z AUTO 01007KT 320V050 CAVOK 25/12 Q1017",
      "taf": "TAF LHDC 251715Z 2518/2603 02006KT CAVOK"
    },
    {
      "icao": "LIBD",
      "alert": "OK",
      "vis_m": 9999,
      "fzfg": false,
      "metar_trigger": false,
      "taf_trigger": false,
      "metar": "METAR LIBD 252250Z 27003KT CAVOK 24/21 Q1016",
      "taf": "TAF LIBD 251700Z 2518/2618 VRB05KT CAVOK"
    },
    {
      "icao": "LIBG",
      "alert": "OK",
      "vis_m": 9999,
      "fzfg": false,
      "metar_trigger": false,
      "taf_trigger": false,
      "metar": "METAR LIBG 252250Z AUTO VRB02KT 9999 NCD 24/18 Q1016",
      "taf": "TAF LIBG 251700Z 2518/2618 VRB05KT 9999 SCT030"
    },
    {
      "icao": "LIBP",
      "alert": "OK",
      "vis_m": 9999,
      "fzfg": false,
      "metar_trigger": false,
      "taf_trigger": false,
      "metar": "METAR LIBP 252250Z AUTO 22004KT 9999 NCD 21/18 Q1017",
      "taf": "TAF LIBP 251700Z 2518/2618 VRB05KT 9999 FEW030"
    },
    {
      "icao": "LIBR",
      "alert": "OK",
      "vis_m": 9999,
      "fzfg": false,
      "metar_trigger": false,
      "taf_trigger": false,
      "metar": "METAR LIBR 252250Z VRB02KT CAVOK 25/23 Q1015",
      "taf": "TAF LIBR 251700Z 2518/2618 VRB05KT 9999 SCT020"
    },
    {
      "icao": "LICA",
      "alert": "OK",
      "vis_m": 9999,
      "fzfg": false,
      "metar_trigger": false,
      "taf_trigger": false,
      "metar": "METAR LICA 252250Z AUTO 07003KT 9999 BKN020/// 24/21 Q1016",
      "taf": "TAF LICA 251700Z 2518/2618 26012KT 9999 FEW040"
    },
    {
      "icao": "LICC",
      "alert": "OK",
      "vis_m": 9999,
      "fzfg": false,
      "metar_trigger": false,
      "taf_trigger": false,
      "metar": "METAR LICC 252250Z 24008KT CAVOK 23/16 Q1016",
      "taf": "TAF LICC 251700Z 2518/2618 25007KT 9999 FEW040"
    },
    {
      "icao": "LICJ",
      "alert": "OK",
      "vis_m": 9999,
      "fzfg": false,
      "metar_trigger": false,
      "taf_trigger": false,
      "metar": "METAR LICJ 252250Z 27008KT CAVOK 26/23 Q1016",
      "taf": "TAF LICJ 251700Z 2518/2618 05012KT 9999 FEW030"
    },
    {
      "icao": "LIMC",
      "alert": "OK",
      "vis_m": 9999,
      "fzfg": false,
      "metar_trigger": false,
      "taf_trigger": false,
      "metar": "METAR LIMC 252250Z 04008KT CAVOK 27/22 Q1018 TEMPO TSRA",
      "taf": ""
    },
    {
      "icao": "LIME",
      "alert": "OK",
      "vis_m": 9999,
      "fzfg": false,
      "metar_trigger": false,
      "taf_trigger": false,
      "metar": "METAR LIME 252250Z 31017G38KT 280V360 9999 TS SCT060 FEW070CB 28/19 Q1019 TEMPO 4000 TSRA",
      "taf": ""
    },
    {
      "icao": "LIMF",
      "alert": "OK",
      "vis_m": 9999,
      "fzfg": false,
      "metar_trigger": false,
      "taf_trigger": false,
      "metar": "METAR LIMF 252250Z VRB02KT CAVOK 25/17 Q1018",
      "taf": "TAF LIMF 251700Z 2518/2618 VRB06KT CAVOK"
    },
    {
      "icao": "LIMJ",
      "alert": "OK",
      "vis_m": 9999,
      "fzfg": false,
      "metar_trigger": false,
      "taf_trigger": false,
      "metar": "METAR LIMJ 252250Z 01403KT CAVOK 27/19 Q1016",
      "taf": "TAF LIMJ 251700Z 2518/2618 VRB06KT CAVOK"
    },
    {
      "icao": "LIPE",
      "alert": "OK",
      "vis_m": 9999,
      "fzfg": false,
      "metar_trigger": false,
      "taf_trigger": false,
      "metar": "METAR LIPE 252250Z AUTO 18005KT 9999 NCD 27/17 Q1016",
      "taf": "TAF LIPE 251700Z 2518/2618 08010KT 9999 FEW040"
    },
    {
      "icao": "LIPH",
      "alert": "OK",
      "vis_m": 9999,
      "fzfg": false,
      "metar_trigger": false,
      "taf_trigger": false,
      "metar": "METAR LIPH 252250Z AUTO VRB01KT 9999 BKN100/// OVC140/// 26/21 Q1017",
      "taf": "TAF LIPH 251700Z 2518/2618 VRB05KT 9999 SCT040"
    },
    {
      "icao": "LIPQ",
      "alert": "OK",
      "vis_m": 9999,
      "fzfg": false,
      "metar_trigger": false,
      "taf_trigger": false,
      "metar": "METAR LIPQ 252250Z AUTO VRB03KT 9999 BKN066/// 24/21 Q1017 RERA",
      "taf": ""
    },
    {
      "icao": "LIPR",
      "alert": "OK",
      "vis_m": 9999,
      "fzfg": false,
      "metar_trigger": false,
      "taf_trigger": false,
      "metar": "METAR LIPR 252250Z AUTO 21003KT 9999 NCD 22/16 Q1017",
      "taf": "TAF LIPR 251700Z 2518/2618 VRB05KT CAVOK"
    },
    {
      "icao": "LIPX",
      "alert": "OK",
      "vis_m": 9999,
      "fzfg": false,
      "metar_trigger": false,
      "taf_trigger": false,
      "metar": "METAR LIPX 252250Z 07003KT CAVOK 29/19 Q1017",
      "taf": "TAF LIPX 251700Z 2518/2618 VRB06KT CAVOK"
    },
    {
      "icao": "LIPY",
      "alert": "OK",
      "vis_m": 9999,
      "fzfg": false,
      "metar_trigger": false,
      "taf_trigger": false,
      "metar": "METAR LIPY 252250Z AUTO 18004KT 9999 NCD 22/17 Q1017",
      "taf": "TAF LIPY 251700Z 2518/2618 VRB05KT CAVOK"
    },
    {
      "icao": "LIPZ",
      "alert": "OK",
      "vis_m": 9999,
      "fzfg": false,
      "metar_trigger": false,
      "taf_trigger": false,
      "metar": "METAR LIPZ 252250Z 23006KT CAVOK 29/19 Q1017 NOSIG",
      "taf": "TAF LIPZ 251700Z 2518/2624 VRB05KT 9999 SCT040"
    },
    {
      "icao": "LIRF",
      "alert": "OK",
      "vis_m": 9999,
      "fzfg": false,
      "metar_trigger": false,
      "taf_trigger": false,
      "metar": "METAR LIRF 252250Z VRB01KT CAVOK 24/21 Q1016 NOSIG",
      "taf": ""
    },
    {
      "icao": "LIRN",
      "alert": "OK",
      "vis_m": 9999,
      "fzfg": false,
      "metar_trigger": false,
      "taf_trigger": false,
      "metar": "METAR LIRN 252250Z 03004KT CAVOK 24/20 Q1017 NOSIG",
      "taf": "TAF LIRN 251700Z 2518/2618 VRB05KT CAVOK"
    },
    {
      "icao": "LIRP",
      "alert": "OK",
      "vis_m": 9999,
      "fzfg": false,
      "metar_trigger": false,
      "taf_trigger": false,
      "metar": "METAR LIRP 252245Z VRB01KT CAVOK 24/20 Q1016 NOSIG",
      "taf": "TAF LIRP 251700Z 2518/2618 30012KT 9999 FEW020"
    },
    {
      "icao": "LIRZ",
      "alert": "OK",
      "vis_m": 9999,
      "fzfg": false,
      "metar_trigger": false,
      "taf_trigger": false,
      "metar": "METAR LIRZ 252250Z AUTO 35004KT 9999 NCD 23/14 Q1018",
      "taf": "TAF LIRZ 251700Z 2518/2618 04010KT CAVOK"
    },
    {
      "icao": "LJLJ",
      "alert": "OK",
      "vis_m": 9999,
      "fzfg": false,
      "metar_trigger": false,
      "taf_trigger": false,
      "metar": "METAR LJLJ 252300Z 33006KT 9999 FEW060 19/16 Q1020 NOSIG",
      "taf": "TAF LJLJ 252300Z 2600/2700 04005KT CAVOK"
    },
    {
      "icao": "LKMT",
      "alert": "OK",
      "vis_m": 9999,
      "fzfg": false,
      "metar_trigger": false,
      "taf_trigger": false,
      "metar": "METAR LKMT 252300Z 22004KT CAVOK 18/16 Q1019 NOSIG",
      "taf": "TAF LKMT 251700Z 2518/2618 20004KT CAVOK"
    },
    {
      "icao": "LKPR",
      "alert": "OK",
      "vis_m": 9999,
      "fzfg": false,
      "metar_trigger": false,
      "taf_trigger": false,
      "metar": "METAR LKPR 252300Z 19005KT CAVOK 20/15 Q1019 NOSIG",
      "taf": "TAF LKPR 252000Z 2521/2703 07004KT CAVOK"
    },
    {
      "icao": "LLBG",
      "alert": "OK",
      "vis_m": 9999,
      "fzfg": false,
      "metar_trigger": false,
      "taf_trigger": false,
      "metar": "METAR LLBG 252250Z 15008KT 9999 FEW023 23/19 Q1010 NOSIG",
      "taf": "TAF LLBG 252302Z 2600/2624 VRB04KT 9999 SCT020 TX30/2612Z TN22/2603Z"
    },
    {
      "icao": "LMML",
      "alert": "OK",
      "vis_m": 9999,
      "fzfg": false,
      "metar_trigger": false,
      "taf_trigger": false,
      "metar": "METAR LMML 252245Z 28004KT CAVOK 25/19 Q1017 NOSIG",
      "taf": "TAF LMML 252300Z 2600/2624 30009KT CAVOK"
    },
    {
      "icao": "LOWW",
      "alert": "OK",
      "vis_m": 9999,
      "fzfg": false,
      "metar_trigger": false,
      "taf_trigger": false,
      "metar": "METAR LOWW 252250Z COR 18005KT CAVOK 21/15 Q1019 NOSIG",
      "taf": "TAF LOWW 252015Z 2521/2703 VRB04KT CAVOK TX36/2615Z TN18/2603Z"
    },
    {
      "icao": "LPFR",
      "alert": "OK",
      "vis_m": 9999,
      "fzfg": false,
      "metar_trigger": false,
      "taf_trigger": false,
      "metar": "METAR LPFR 252300Z 26006KT 9999 SCT008 21/19 Q1019",
      "taf": "TAF LPFR 251700Z 2518/2618 22010KT 9999 FEW012 SCT035"
    },
    {
      "icao": "LPMA",
      "alert": "OK",
      "vis_m": 9999,
      "fzfg": false,
      "metar_trigger": false,
      "taf_trigger": false,
      "metar": "METAR LPMA 252300Z 21005KT 180V240 9999 SCT015 22/19 Q1021",
      "taf": "TAF LPMA 251700Z 2518/2618 VRB05KT 9999 SCT015"
    },
    {
      "icao": "LPPR",
      "alert": "OK",
      "vis_m": 9999,
      "fzfg": false,
      "metar_trigger": false,
      "taf_trigger": false,
      "metar": "METAR LPPR 252300Z 19011KT 9999 BKN007 20/19 Q1017",
      "taf": ""
    },
    {
      "icao": "LPPS",
      "alert": "OK",
      "vis_m": 9999,
      "fzfg": false,
      "metar_trigger": false,
      "taf_trigger": false,
      "metar": "METAR LPPS 252300Z 29004KT 9999 FEW014 21/17 Q1021",
      "taf": "TAF LPPS 251700Z 2518/2624 31010KT 9999 FEW015 SCT030"
    },
    {
      "icao": "LPPT",
      "alert": "OK",
      "vis_m": 9999,
      "fzfg": false,
      "metar_trigger": false,
      "taf_trigger": false,
      "metar": "METAR LPPT 252300Z 20009KT 9999 FEW006 BKN010 20/19 Q1018",
      "taf": "TAF LPPT 251700Z 2518/2624 21013KT 9999 FEW012 BKN020"
    },
    {
      "icao": "LQBK",
      "alert": "OK",
      "vis_m": 9999,
      "fzfg": false,
      "metar_trigger": false,
      "taf_trigger": false,
      "metar": "METAR LQBK 252300Z 15004KT CAVOK 19/15 Q1018 NOSIG",
      "taf": "TAF LQBK 252300Z 2600/2624 16005KT CAVOK TX35/2614Z TN17/2603Z"
    },
    {
      "icao": "LQSA",
      "alert": "OK",
      "vis_m": 9999,
      "fzfg": false,
      "metar_trigger": false,
      "taf_trigger": false,
      "metar": "METAR LQSA 252300Z VRB02KT CAVOK 21/17 Q1020",
      "taf": "TAF LQSA 252300Z 2600/2624 VRB02KT CAVOK TX32/2614Z TN16/2603Z"
    },
    {
      "icao": "LQTZ",
      "alert": "OK",
      "vis_m": 9999,
      "fzfg": false,
      "metar_trigger": false,
      "taf_trigger": false,
      "metar": "METAR LQTZ 252300Z 00000KT CAVOK 17/17 Q1019",
      "taf": "TAF LQTZ 252300Z 2600/2624 VRB02KT CAVOK TX34/2613Z TN15/2603Z"
    },
    {
      "icao": "LRBC",
      "alert": "OK",
      "vis_m": 9999,
      "fzfg": false,
      "metar_trigger": false,
      "taf_trigger": false,
      "metar": "METAR LRBC 252300Z VRB02KT CAVOK 18/14 Q1017",
      "taf": "TAF LRBC 252000Z 2521/2606 VRB04KT CAVOK"
    },
    {
      "icao": "LRBS",
      "alert": "OK",
      "vis_m": 9999,
      "fzfg": false,
      "metar_trigger": false,
      "taf_trigger": false,
      "metar": "METAR LRBS 252300Z AUTO VRB02KT 9999 NCD 22/19 Q1016 NOSIG",
      "taf": "TAF LRBS 251700Z 2518/2618 VRB04KT CAVOK"
    },
    {
      "icao": "LRBV",
      "alert": "OK",
      "vis_m": 9999,
      "fzfg": false,
      "metar_trigger": false,
      "taf_trigger": false,
      "metar": "METAR LRBV 252300Z AUTO 23006KT 9999 NCD 16/14 Q1019",
      "taf": "TAF LRBV 251700Z 2518/2603 30006KT CAVOK"
    },
    {
      "icao": "LRCL",
      "alert": "OK",
      "vis_m": 9999,
      "fzfg": false,
      "metar_trigger": false,
      "taf_trigger": false,
      "metar": "METAR LRCL 252300Z 29004KT 260V320 CAVOK 19/13 Q1018",
      "taf": "TAF LRCL 252000Z 2521/2606 VRB04KT CAVOK"
    },
    {
      "icao": "LRCV",
      "alert": "OK",
      "vis_m": 9999,
      "fzfg": false,
      "metar_trigger": false,
      "taf_trigger": false,
      "metar": "METAR LRCV 252300Z 06003KT CAVOK 22/20 Q1016",
      "taf": "TAF LRCV 252000Z 2521/2606 VRB04KT CAVOK"
    },
    {
      "icao": "LRIA",
      "alert": "OK",
      "vis_m": 9999,
      "fzfg": false,
      "metar_trigger": false,
      "taf_trigger": false,
      "metar": "METAR LRIA 252300Z 25007KT CAVOK 18/14 Q1017",
      "taf": "TAF LRIA 252000Z 2521/2606 VRB04KT CAVOK"
    },
    {
      "icao": "LROP",
      "alert": "OK",
      "vis_m": 9999,
      "fzfg": false,
      "metar_trigger": false,
      "taf_trigger": false,
      "metar": "METAR LROP 252300Z 00000KT CAVOK 23/19 Q1016 NOSIG",
      "taf": "TAF LROP 251700Z 2518/2618 VRB04KT CAVOK"
    },
    {
      "icao": "LRSB",
      "alert": "OK",
      "vis_m": 9999,
      "fzfg": false,
      "metar_trigger": false,
      "taf_trigger": false,
      "metar": "METAR LRSB 252300Z COR 26007KT 9999 SCT075 21/15 Q1018",
      "taf": "TAF LRSB 251700Z 2518/2618 VRB04KT CAVOK"
    },
    {
      "icao": "LRSM",
      "alert": "OK",
      "vis_m": 9999,
      "fzfg": false,
      "metar_trigger": false,
      "taf_trigger": false,
      "metar": "METAR LRSM 252300Z AUTO 22003KT 9999 NCD 18/14 Q1017",
      "taf": "TAF LRSM 252000Z 2521/2606 32005KT CAVOK"
    },
    {
      "icao": "LRSV",
      "alert": "OK",
      "vis_m": 9999,
      "fzfg": false,
      "metar_trigger": false,
      "taf_trigger": false,
      "metar": "METAR LRSV 252300Z 29007KT CAVOK 21/11 Q1018",
      "taf": "TAF LRSV 252000Z 2521/2606 31006KT CAVOK"
    },
    {
      "icao": "LRTM",
      "alert": "OK",
      "vis_m": 9999,
      "fzfg": false,
      "metar_trigger": false,
      "taf_trigger": false,
      "metar": "METAR LRTM 252300Z VRB02KT CAVOK 16/15 Q1018",
      "taf": "TAF LRTM 252000Z 2521/2606 VRB04KT CAVOK"
    },
    {
      "icao": "LRTR",
      "alert": "OK",
      "vis_m": 9999,
      "fzfg": false,
      "metar_trigger": false,
      "taf_trigger": false,
      "metar": "METAR LRTR 252300Z 02004KT CAVOK 20/15 Q1017",
      "taf": "TAF LRTR 251700Z 2518/2618 04010KT CAVOK"
    },
    {
      "icao": "LTAC",
      "alert": "OK",
      "vis_m": 9999,
      "fzfg": false,
      "metar_trigger": false,
      "taf_trigger": false,
      "metar": "METAR LTAC 252250Z 05006KT CAVOK 17/11 Q1017 NOSIG RMK RWY21C 02006KT RWY03L 02004KT RWY21R 01007KT RWY03R 01006KT RWY21L 03005KT",
      "taf": "TAF LTAC 252240Z 2600/2624 03007KT CAVOK"
    },
    {
      "icao": "LTFM",
      "alert": "OK",
      "vis_m": 9999,
      "fzfg": false,
      "metar_trigger": false,
      "taf_trigger": false,
      "metar": "METAR LTFM 252250Z 35008KT 9999 SCT007 23/21 Q1015 NOSIG RMK RWY17L 34005KT 290V360 RWY34L 34006KT RWY16R 33003KT RWY36 36007KT RWY18 34009KT 280V360",
      "taf": "TAF LTFM 252240Z 2600/2706 03009KT 9999 SCT011"
    },
    {
      "icao": "LUKK",
      "alert": "OK",
      "vis_m": 9999,
      "fzfg": false,
      "metar_trigger": false,
      "taf_trigger": false,
      "metar": "METAR LUKK 252300Z 28002KT CAVOK 18/15 Q1016 NOSIG",
      "taf": "TAF LUKK 252302Z 2600/2624 VRB04KT CAVOK"
    },
    {
      "icao": "LWOH",
      "alert": "OK",
      "vis_m": null,
      "fzfg": false,
      "metar_trigger": false,
      "taf_trigger": false,
      "metar": "",
      "taf": "TAF LWOH 252035Z 2521/2621 34005KT 9999 FEW050"
    },
    {
      "icao": "LWSK",
      "alert": "OK",
      "vis_m": 9999,
      "fzfg": false,
      "metar_trigger": false,
      "taf_trigger": false,
      "metar": "METAR LWSK 252250Z VRB02KT 9999 FEW086 24/16 Q1017 NOSIG",
      "taf": ""
    },
    {
      "icao": "LYBE",
      "alert": "OK",
      "vis_m": 9999,
      "fzfg": false,
      "metar_trigger": false,
      "taf_trigger": false,
      "metar": "METAR LYBE 252300Z 24004KT 180V270 CAVOK 26/17 Q1017 NOSIG",
      "taf": "TAF LYBE 251700Z 2518/2618 30005KT CAVOK TX35/2614Z TN22/2603Z"
    },
    {
      "icao": "LYNI",
      "alert": "OK",
      "vis_m": 9999,
      "fzfg": false,
      "metar_trigger": false,
      "taf_trigger": false,
      "metar": "METAR LYNI 252300Z VRB01KT CAVOK 21/17 Q1017 NOSIG",
      "taf": "TAF LYNI 251700Z 2518/2618 05005KT CAVOK TX34/2614Z TN19/2603Z"
    },
    {
      "icao": "LYPG",
      "alert": "OK",
      "vis_m": 9999,
      "fzfg": false,
      "metar_trigger": false,
      "taf_trigger": false,
      "metar": "METAR LYPG 252300Z VRB01KT CAVOK 26/18 Q1015 NOSIG",
      "taf": "TAF LYPG 251700Z 2518/2618 36005KT 9999 FEW040 SCT060 TX36/2614Z TN20/2603Z"
    },
    {
      "icao": "LZIB",
      "alert": "OK",
      "vis_m": 9999,
      "fzfg": false,
      "metar_trigger": false,
      "taf_trigger": false,
      "metar": "METAR LZIB 252300Z 00000KT CAVOK 24/13 Q1018 NOSIG",
      "taf": ""
    },
    {
      "icao": "LZKZ",
      "alert": "OK",
      "vis_m": 9999,
      "fzfg": false,
      "metar_trigger": false,
      "taf_trigger": false,
      "metar": "METAR LZKZ 252300Z 36003KT CAVOK 20/14 Q1018 NOSIG",
      "taf": ""
    },
    {
      "icao": "LZTT",
      "alert": "OK",
      "vis_m": 9999,
      "fzfg": false,
      "metar_trigger": false,
      "taf_trigger": false,
      "metar": "METAR LZTT 252300Z 31006KT CAVOK 15/12 Q1021",
      "taf": ""
    },
    {
      "icao": "OEJN",
      "alert": "OK",
      "vis_m": 9999,
      "fzfg": false,
      "metar_trigger": false,
      "taf_trigger": false,
      "metar": "METAR OEJN 252300Z 35007KT CAVOK 32/11 Q1003 NOSIG",
      "taf": "TAF OEJN 252300Z 2600/2706 VRB03KT CAVOK"
    },
    {
      "icao": "OEMA",
      "alert": "OK",
      "vis_m": 9999,
      "fzfg": false,
      "metar_trigger": false,
      "taf_trigger": false,
      "metar": "METAR OEMA 252300Z 31007KT CAVOK 34/00 Q1009 NOSIG",
      "taf": "TAF OEMA 252300Z 2600/2706 VRB03KT CAVOK"
    },
    {
      "icao": "OJAI",
      "alert": "OK",
      "vis_m": 4000,
      "fzfg": false,
      "metar_trigger": false,
      "taf_trigger": false,
      "metar": "METAR OJAI 252300Z 11001KT 4000 HZ NSC 17/11 Q1013 NOSIG",
      "taf": "TAF OJAI 252300Z 2600/2706 28010KT 4000 HZ NSC"
    },
    {
      "icao": "OMAA",
      "alert": "OK",
      "vis_m": 9999,
      "fzfg": false,
      "metar_trigger": false,
      "taf_trigger": false,
      "metar": "METAR OMAA 252300Z 33004KT 250V050 CAVOK 32/21 Q0999 NOSIG",
      "taf": "TAF OMAA 252300Z 2600/2706 20005KT 8000 NSC"
    },
    {
      "icao": "OMDB",
      "alert": "OK",
      "vis_m": 9999,
      "fzfg": false,
      "metar_trigger": false,
      "taf_trigger": false,
      "metar": "METAR OMDB 252300Z VRB03KT CAVOK 33/24 Q0998 NOSIG",
      "taf": "TAF OMDB 252300Z 2600/2706 19008KT 7000 NSC"
    },
    {
      "icao": "UAAA",
      "alert": "OK",
      "vis_m": 9999,
      "fzfg": false,
      "metar_trigger": false,
      "taf_trigger": false,
      "metar": "METAR UAAA 252300Z 15002MPS 9999 FEW100 20/12 Q1010 NOSIG",
      "taf": "TAF UAAA 251707Z 2518/2618 17003MPS 9999 FEW100 TX35/2610Z TN18/2601Z"
    },
    {
      "icao": "UBBB",
      "alert": "OK",
      "vis_m": 9999,
      "fzfg": false,
      "metar_trigger": false,
      "taf_trigger": false,
      "metar": "METAR UBBB 252300Z 32006KT CAVOK 21/18 Q1008 NOSIG",
      "taf": "TAF UBBB 252301Z 2600/2624 36010KT 9999 SCT040 TX28/2610Z TN18/2601Z"
    },
    {
      "icao": "UDSG",
      "alert": "OK",
      "vis_m": 9999,
      "fzfg": false,
      "metar_trigger": false,
      "taf_trigger": false,
      "metar": "METAR UDSG 252300Z 36003KT 9999 FEW049 15/08 Q1017 NOSIG",
      "taf": "TAF UDSG 251700Z 2518/2618 36006KT 9999 FEW050"
    },
    {
      "icao": "UDYZ",
      "alert": "OK",
      "vis_m": 9999,
      "fzfg": false,
      "metar_trigger": false,
      "taf_trigger": false,
      "metar": "METAR UDYZ 252300Z 29003KT 190V360 9999 FEW043CB 20/13 Q1010 NOSIG",
      "taf": "TAF UDYZ 251700Z 2518/2618 04006KT 9999 FEW040"
    },
    {
      "icao": "UGKO",
      "alert": "OK",
      "vis_m": 9999,
      "fzfg": false,
      "metar_trigger": false,
      "taf_trigger": false,
      "metar": "METAR UGKO 252300Z AUTO 06003KT 9999 R25///// FEW052/// 20/18 Q1012 NOSIG",
      "taf": "TAF UGKO 252300Z 2600/2624 27007KT 9999 SCT030 BKN050 TX25/2612Z TN18/2602Z"
    }
  ]
}