{
  "ts_utc": "2026-03-18T13:00:43Z",
  "threshold_m": 150,
  "source": "stations_override.txt (ICAO list) + aviationweather.gov (METAR/TAF raw)",
  "station_count": 159,
  "stations": [
    {
      "icao": "BIKF",
      "alert": "OK",
      "vis_m": 9999,
      "fzfg": false,
      "metar_trigger": false,
      "taf_trigger": false,
      "metar": "METAR BIKF 181230Z 36007KT 330V030 9999 FEW018 BKN240 02/M04 Q1013",
      "taf": "TAF BIKF 181042Z 1812/1912 36010KT 9999 FEW018 BKN035 TX07/1912Z TN01/1812Z"
    },
    {
      "icao": "BKPR",
      "alert": "OK",
      "vis_m": null,
      "fzfg": false,
      "metar_trigger": false,
      "taf_trigger": false,
      "metar": "",
      "taf": "TAF BKPR 181130Z 1812/1912 05012KT 9999 SCT030 BKN050"
    },
    {
      "icao": "EBCI",
      "alert": "OK",
      "vis_m": 9999,
      "fzfg": false,
      "metar_trigger": false,
      "taf_trigger": false,
      "metar": "METAR EBCI 181250Z 10010KT 070V140 CAVOK 14/M03 Q1023 NOSIG",
      "taf": "TAF EBCI 181120Z 1812/1918 11010KT CAVOK"
    },
    {
      "icao": "EDDB",
      "alert": "OK",
      "vis_m": 9999,
      "fzfg": false,
      "metar_trigger": false,
      "taf_trigger": false,
      "metar": "METAR EDDB 181250Z AUTO 13008KT CAVOK 14/02 Q1030 NOSIG",
      "taf": "TAF EDDB 181100Z 1812/1912 09008KT CAVOK"
    },
    {
      "icao": "EDDH",
      "alert": "OK",
      "vis_m": 9999,
      "fzfg": false,
      "metar_trigger": false,
      "taf_trigger": false,
      "metar": "METAR EDDH 181250Z AUTO 16008KT 120V190 CAVOK 14/M01 Q1029 NOSIG",
      "taf": "TAF EDDH 181100Z 1812/1918 15009KT CAVOK"
    },
    {
      "icao": "EDDK",
      "alert": "OK",
      "vis_m": 9999,
      "fzfg": false,
      "metar_trigger": false,
      "taf_trigger": false,
      "metar": "METAR EDDK 181250Z AUTO 09009KT 060V130 CAVOK 15/M00 Q1025 NOSIG",
      "taf": "TAF EDDK 181100Z 1812/1918 11011KT CAVOK"
    },
    {
      "icao": "EDDN",
      "alert": "OK",
      "vis_m": 9999,
      "fzfg": false,
      "metar_trigger": false,
      "taf_trigger": false,
      "metar": "METAR EDDN 181250Z AUTO 07011KT 020V120 CAVOK 12/02 Q1024 NOSIG",
      "taf": "TAF EDDN 181100Z 1812/1912 11012KT CAVOK"
    },
    {
      "icao": "EDDS",
      "alert": "OK",
      "vis_m": 9999,
      "fzfg": false,
      "metar_trigger": false,
      "taf_trigger": false,
      "metar": "METAR EDDS 181250Z AUTO 10012KT 070V130 CAVOK 11/02 Q1021 TEMPO 08015G25KT",
      "taf": "TAF EDDS 181100Z 1812/1912 08013KT 9999 FEW040"
    },
    {
      "icao": "EDFH",
      "alert": "OK",
      "vis_m": 9999,
      "fzfg": false,
      "metar_trigger": false,
      "taf_trigger": false,
      "metar": "METAR EDFH 181250Z 08008G18KT 360V130 CAVOK 10/00 Q1023",
      "taf": "TAF EDFH 181100Z 1812/1912 09010KT CAVOK"
    },
    {
      "icao": "EDJA",
      "alert": "OK",
      "vis_m": 9999,
      "fzfg": false,
      "metar_trigger": false,
      "taf_trigger": false,
      "metar": "METAR EDJA 181250Z 06018KT 9999 FEW023 06/01 Q1020",
      "taf": "TAF EDJA 181100Z 1812/1821 06015G25KT 9999 SCT020"
    },
    {
      "icao": "EDLW",
      "alert": "OK",
      "vis_m": 9999,
      "fzfg": false,
      "metar_trigger": false,
      "taf_trigger": false,
      "metar": "METAR EDLW 181250Z 10008KT 060V140 CAVOK 14/M02 Q1026",
      "taf": "TAF EDLW 181100Z 1812/1912 09010KT CAVOK"
    },
    {
      "icao": "EDNY",
      "alert": "OK",
      "vis_m": 9999,
      "fzfg": false,
      "metar_trigger": false,
      "taf_trigger": false,
      "metar": "METAR EDNY 181250Z 05017KT CAVOK 10/01 Q1019",
      "taf": "TAF EDNY 181100Z 1812/1821 05015G25KT CAVOK"
    },
    {
      "icao": "EDSB",
      "alert": "OK",
      "vis_m": 9999,
      "fzfg": false,
      "metar_trigger": false,
      "taf_trigger": false,
      "metar": "METAR EDSB 181250Z 04021KT 020V080 CAVOK 13/02 Q1021",
      "taf": "TAF EDSB 181100Z 1812/1912 04015KT CAVOK"
    },
    {
      "icao": "EETN",
      "alert": "OK",
      "vis_m": 9999,
      "fzfg": false,
      "metar_trigger": false,
      "taf_trigger": false,
      "metar": "METAR EETN 181250Z 20009KT 170V230 9999 FEW015 06/02 Q1030 NOSIG",
      "taf": "TAF EETN 181130Z 1812/1912 20010KT 9999 BKN008"
    },
    {
      "icao": "EFTU",
      "alert": "OK",
      "vis_m": 9999,
      "fzfg": false,
      "metar_trigger": false,
      "taf_trigger": false,
      "metar": "METAR EFTU 181250Z AUTO 19011KT 9999 OVC004 02/01 Q1026",
      "taf": ""
    },
    {
      "icao": "EGBB",
      "alert": "OK",
      "vis_m": 9999,
      "fzfg": false,
      "metar_trigger": false,
      "taf_trigger": false,
      "metar": "METAR EGBB 181250Z 15009KT CAVOK 17/08 Q1021",
      "taf": "TAF EGBB 181055Z 1812/1912 14007KT CAVOK"
    },
    {
      "icao": "EGGP",
      "alert": "OK",
      "vis_m": 9999,
      "fzfg": false,
      "metar_trigger": false,
      "taf_trigger": false,
      "metar": "METAR EGGP 181250Z 11006KT CAVOK 15/09 Q1020",
      "taf": "TAF EGGP 181056Z 1812/1912 15006KT 9999 FEW030"
    },
    {
      "icao": "EGGW",
      "alert": "OK",
      "vis_m": 9999,
      "fzfg": false,
      "metar_trigger": false,
      "taf_trigger": false,
      "metar": "METAR EGGW 181250Z AUTO 14009KT 9999 NCD 16/06 Q1021",
      "taf": "TAF EGGW 181056Z 1812/1912 14010KT CAVOK"
    },
    {
      "icao": "EGKK",
      "alert": "OK",
      "vis_m": 9999,
      "fzfg": false,
      "metar_trigger": false,
      "taf_trigger": false,
      "metar": "METAR EGKK 181250Z 12007KT 090V150 CAVOK 16/05 Q1021",
      "taf": "TAF EGKK 181102Z 1812/1918 14010KT CAVOK"
    },
    {
      "icao": "EGNM",
      "alert": "OK",
      "vis_m": 9999,
      "fzfg": false,
      "metar_trigger": false,
      "taf_trigger": false,
      "metar": "METAR EGNM 181250Z 11005KT 060V150 CAVOK 14/08 Q1021",
      "taf": "TAF EGNM 181058Z 1812/1912 VRB03KT 9999 FEW030"
    },
    {
      "icao": "EGPD",
      "alert": "OK",
      "vis_m": 9999,
      "fzfg": false,
      "metar_trigger": false,
      "taf_trigger": false,
      "metar": "METAR EGPD 181250Z COR VRB03KT CAVOK 13/02 Q1021 NOSIG",
      "taf": "TAF EGPD 181053Z 1812/1912 VRB04KT 9999 FEW040"
    },
    {
      "icao": "EGPF",
      "alert": "OK",
      "vis_m": 9999,
      "fzfg": false,
      "metar_trigger": false,
      "taf_trigger": false,
      "metar": "METAR EGPF 181250Z AUTO 24003KT 190V320 9999 NCD 14/06 Q1022",
      "taf": "TAF EGPF 181104Z 1812/1912 VRB02KT 9999 FEW040"
    },
    {
      "icao": "EHBK",
      "alert": "OK",
      "vis_m": 9999,
      "fzfg": false,
      "metar_trigger": false,
      "taf_trigger": false,
      "metar": "METAR EHBK 181225Z AUTO 07011KT 040V120 9999 NCD 13/01 Q1024 NOSIG",
      "taf": "TAF EHBK 181052Z 1812/1918 09010KT CAVOK"
    },
    {
      "icao": "EHEH",
      "alert": "OK",
      "vis_m": 9999,
      "fzfg": false,
      "metar_trigger": false,
      "taf_trigger": false,
      "metar": "METAR EHEH 181225Z AUTO 13012KT 080V170 9999 OVC330 14/M01 Q1025 BLU NOSIG RMK TREND REMOTE BY EHWX",
      "taf": ""
    },
    {
      "icao": "EKBI",
      "alert": "OK",
      "vis_m": 9999,
      "fzfg": false,
      "metar_trigger": false,
      "taf_trigger": false,
      "metar": "METAR EKBI 181250Z AUTO 21010KT 9999 FEW036/// OVC046/// 13/04 Q1028",
      "taf": "TAF EKBI 181127Z 1812/1912 19010KT 9999 BKN030"
    },
    {
      "icao": "EKCH",
      "alert": "OK",
      "vis_m": 9999,
      "fzfg": false,
      "metar_trigger": false,
      "taf_trigger": false,
      "metar": "METAR EKCH 181250Z AUTO 17010KT 9999 NCD 08/01 Q1031 NOSIG",
      "taf": "TAF EKCH 181127Z 1812/1912 18010KT CAVOK"
    },
    {
      "icao": "ENAL",
      "alert": "OK",
      "vis_m": 9999,
      "fzfg": false,
      "metar_trigger": false,
      "taf_trigger": false,
      "metar": "METAR ENAL 181250Z 23030KT 9999 FEW045 SCT056 10/03 Q1013",
      "taf": "TAF ENAL 181100Z 1812/1821 22025KT 9999 FEW015 BKN030"
    },
    {
      "icao": "ENBR",
      "alert": "OK",
      "vis_m": 9000,
      "fzfg": false,
      "metar_trigger": false,
      "taf_trigger": false,
      "metar": "METAR ENBR 181250Z 17014KT 9000 BKN006 07/06 Q1022 TEMPO 4000 BR BKN004 RMK WIND 1200FT 20015KT",
      "taf": "TAF ENBR 181100Z 1812/1912 18008KT 8000 -RADZ BKN006"
    },
    {
      "icao": "ENGM",
      "alert": "OK",
      "vis_m": 9999,
      "fzfg": false,
      "metar_trigger": false,
      "taf_trigger": false,
      "metar": "METAR ENGM 181250Z 22016KT 9999 BKN007 06/04 Q1021 TEMPO BKN004",
      "taf": "TAF ENGM 181100Z 1812/1912 19012KT 7000 OVC002"
    },
    {
      "icao": "ENHD",
      "alert": "OK",
      "vis_m": 7000,
      "fzfg": false,
      "metar_trigger": false,
      "taf_trigger": false,
      "metar": "METAR ENHD 181250Z 18011KT 160V220 7000 SCT006 BKN009 08/06 Q1022",
      "taf": "TAF ENHD 181100Z 1812/1821 16009KT 6000 SCT004 BKN006"
    },
    {
      "icao": "ENTC",
      "alert": "OK",
      "vis_m": 9999,
      "fzfg": false,
      "metar_trigger": false,
      "taf_trigger": false,
      "metar": "METAR ENTC 181250Z 22018KT 9999 SCT065 06/01 Q0997 NOSIG RMK WIND 2600FT 21027KT",
      "taf": ""
    },
    {
      "icao": "ENTO",
      "alert": "OK",
      "vis_m": 5000,
      "fzfg": false,
      "metar_trigger": false,
      "taf_trigger": false,
      "metar": "METAR ENTO 181250Z 21017KT 5000 BR SCT003 OVC004 06/06 Q1024 NOSIG",
      "taf": "TAF ENTO 181100Z 1812/1912 21015KT 5000 -DZ BR OVC004"
    },
    {
      "icao": "ENVA",
      "alert": "OK",
      "vis_m": 9999,
      "fzfg": false,
      "metar_trigger": false,
      "taf_trigger": false,
      "metar": "METAR ENVA 181250Z 25008KT CAVOK 10/06 Q1011 NOSIG RMK WIND 670FT 28009KT",
      "taf": "TAF ENVA 181100Z 1812/1912 22008KT 9999 BKN040"
    },
    {
      "icao": "ENZV",
      "alert": "OK",
      "vis_m": 9999,
      "fzfg": false,
      "metar_trigger": false,
      "taf_trigger": false,
      "metar": "METAR ENZV 181250Z 17012KT 9999 SCT010 BKN036 OVC043 09/07 Q1023 TEMPO BKN008",
      "taf": "TAF ENZV 181100Z 1812/1912 16012KT 9999 SCT006 BKN020"
    },
    {
      "icao": "EPGD",
      "alert": "OK",
      "vis_m": 9999,
      "fzfg": false,
      "metar_trigger": false,
      "taf_trigger": false,
      "metar": "METAR EPGD 181230Z 04005KT 360V060 CAVOK 09/01 Q1032",
      "taf": "TAF EPGD 181130Z 1812/1912 VRB02KT CAVOK"
    },
    {
      "icao": "EPKK",
      "alert": "OK",
      "vis_m": 9999,
      "fzfg": false,
      "metar_trigger": false,
      "taf_trigger": false,
      "metar": "METAR EPKK 181230Z 07011KT 020V100 9999 FEW045 13/00 Q1027",
      "taf": "TAF EPKK 181130Z 1812/1912 07012KT 9999 FEW050"
    },
    {
      "icao": "EPKT",
      "alert": "OK",
      "vis_m": 9999,
      "fzfg": false,
      "metar_trigger": false,
      "taf_trigger": false,
      "metar": "METAR EPKT 181230Z 08011G22KT 030V110 CAVOK 12/M01 Q1028",
      "taf": "TAF EPKT 181130Z 1812/1912 08015KT CAVOK"
    },
    {
      "icao": "EPLB",
      "alert": "OK",
      "vis_m": 9999,
      "fzfg": false,
      "metar_trigger": false,
      "taf_trigger": false,
      "metar": "METAR EPLB 181230Z 05011KT CAVOK 13/M02 Q1029",
      "taf": "TAF EPLB 181130Z 1812/1912 04010KT CAVOK"
    },
    {
      "icao": "EPMO",
      "alert": "OK",
      "vis_m": 9999,
      "fzfg": false,
      "metar_trigger": false,
      "taf_trigger": false,
      "metar": "METAR EPMO 181230Z 01008KT 330V050 CAVOK 13/03 Q1030",
      "taf": "TAF EPMO 181130Z 1812/1912 03007KT CAVOK"
    },
    {
      "icao": "EPPO",
      "alert": "OK",
      "vis_m": 9999,
      "fzfg": false,
      "metar_trigger": false,
      "taf_trigger": false,
      "metar": "METAR EPPO 181230Z 09009KT CAVOK 13/01 Q1031",
      "taf": "TAF EPPO 181130Z 1812/1912 09008KT CAVOK"
    },
    {
      "icao": "EPRA",
      "alert": "OK",
      "vis_m": 9999,
      "fzfg": false,
      "metar_trigger": false,
      "taf_trigger": false,
      "metar": "METAR EPRA 181230Z 06013KT 030V090 CAVOK 13/M01 Q1029",
      "taf": "TAF EPRA 181130Z 1812/1821 08010KT CAVOK"
    },
    {
      "icao": "EPRZ",
      "alert": "OK",
      "vis_m": 9999,
      "fzfg": false,
      "metar_trigger": false,
      "taf_trigger": false,
      "metar": "METAR EPRZ 181230Z 04013KT CAVOK 13/M03 Q1027",
      "taf": "TAF EPRZ 181130Z 1812/1912 06011KT CAVOK"
    },
    {
      "icao": "EPSC",
      "alert": "OK",
      "vis_m": 9999,
      "fzfg": false,
      "metar_trigger": false,
      "taf_trigger": false,
      "metar": "METAR EPSC 181230Z VRB05KT CAVOK 13/00 Q1032",
      "taf": "TAF EPSC 181130Z 1812/1912 12005KT CAVOK"
    },
    {
      "icao": "EPSY",
      "alert": "OK",
      "vis_m": 9999,
      "fzfg": false,
      "metar_trigger": false,
      "taf_trigger": false,
      "metar": "METAR EPSY 181230Z 33005KT 250V040 CAVOK 12/02 Q1031",
      "taf": "TAF EPSY 181130Z 1812/1821 06006KT CAVOK"
    },
    {
      "icao": "EPWA",
      "alert": "OK",
      "vis_m": 9999,
      "fzfg": false,
      "metar_trigger": false,
      "taf_trigger": false,
      "metar": "METAR EPWA 181230Z 36006KT 310V050 CAVOK 14/01 Q1030 NOSIG",
      "taf": "TAF EPWA 181130Z 1812/1912 03006KT CAVOK"
    },
    {
      "icao": "EPWR",
      "alert": "OK",
      "vis_m": 9999,
      "fzfg": false,
      "metar_trigger": false,
      "taf_trigger": false,
      "metar": "METAR EPWR 181230Z 07009KT 030V100 9999 FEW038 14/04 Q1029",
      "taf": "TAF EPWR 181130Z 1812/1912 06008KT CAVOK"
    },
    {
      "icao": "ESGG",
      "alert": "OK",
      "vis_m": 9999,
      "fzfg": false,
      "metar_trigger": false,
      "taf_trigger": false,
      "metar": "METAR ESGG 181250Z 21017KT 9999 BKN032 06/01 Q1028",
      "taf": "TAF ESGG 181130Z 1812/1912 19014KT 9999 BKN030"
    },
    {
      "icao": "ESKN",
      "alert": "OK",
      "vis_m": 9999,
      "fzfg": false,
      "metar_trigger": false,
      "taf_trigger": false,
      "metar": "METAR ESKN 181250Z 24013KT 9999 BKN047 13/02 Q1027",
      "taf": "TAF ESKN 181130Z 1812/1912 21012KT CAVOK"
    },
    {
      "icao": "ESMS",
      "alert": "OK",
      "vis_m": 9999,
      "fzfg": false,
      "metar_trigger": false,
      "taf_trigger": false,
      "metar": "METAR ESMS 181250Z 23011KT CAVOK 10/M01 Q1031",
      "taf": "TAF ESMS 181127Z 1812/1912 20008KT CAVOK"
    },
    {
      "icao": "ESSA",
      "alert": "OK",
      "vis_m": 9999,
      "fzfg": false,
      "metar_trigger": false,
      "taf_trigger": false,
      "metar": "METAR ESSA 181250Z 23015KT 9999 FEW027 OVC035 09/02 Q1025 NOSIG",
      "taf": "TAF ESSA 181130Z 1812/1912 22012KT 9999 BKN040"
    },
    {
      "icao": "EYKA",
      "alert": "OK",
      "vis_m": 9999,
      "fzfg": false,
      "metar_trigger": false,
      "taf_trigger": false,
      "metar": "METAR EYKA 181250Z VRB04KT 9999 SCT036 11/01 Q1031",
      "taf": "TAF EYKA 181103Z 1812/1912 VRB03KT 9000 BKN035"
    },
    {
      "icao": "EYPA",
      "alert": "OK",
      "vis_m": 2700,
      "fzfg": false,
      "metar_trigger": false,
      "taf_trigger": false,
      "metar": "METAR EYPA 181250Z 31003KT 270V010 2700 BR BKN004 02/01 Q1033",
      "taf": "TAF EYPA 181102Z 1812/1912 VRB03KT 5000 BR OVC005"
    },
    {
      "icao": "EYVI",
      "alert": "OK",
      "vis_m": 9999,
      "fzfg": false,
      "metar_trigger": false,
      "taf_trigger": false,
      "metar": "METAR EYVI 181250Z 35004KT 320V030 CAVOK 10/02 Q1030 NOSIG",
      "taf": "TAF EYVI 181100Z 1812/1912 VRB04KT 9000 SCT045"
    },
    {
      "icao": "GCFV",
      "alert": "OK",
      "vis_m": 9999,
      "fzfg": false,
      "metar_trigger": false,
      "taf_trigger": false,
      "metar": "METAR GCFV 181230Z 21016G26KT 180V240 9999 FEW020 SCT035 23/12 Q1005",
      "taf": "TAF GCFV 180800Z 1809/1909 23018KT 9999 SCT025 TX22/1814Z TN15/1906Z"
    },
    {
      "icao": "GCLP",
      "alert": "OK",
      "vis_m": 9999,
      "fzfg": false,
      "metar_trigger": false,
      "taf_trigger": false,
      "metar": "METAR GCLP 181230Z 22015KT 190V260 9999 SCT030 BKN045 23/12 Q1005 NOSIG",
      "taf": "TAF GCLP 180800Z 1809/1909 22016KT 9999 SCT035 TX22/1814Z TN15/1906Z"
    },
    {
      "icao": "GCTS",
      "alert": "OK",
      "vis_m": 9999,
      "fzfg": false,
      "metar_trigger": false,
      "taf_trigger": false,
      "metar": "METAR GCTS 181230Z 29025KT 260V320 9999 FEW035 SCT080 22/08 Q1005 WS R25 NOSIG",
      "taf": "TAF GCTS 180800Z 1809/1909 27013KT 9999 SCT025 TX23/1814Z TN15/1906Z"
    },
    {
      "icao": "GMAD",
      "alert": "OK",
      "vis_m": 6000,
      "fzfg": false,
      "metar_trigger": false,
      "taf_trigger": false,
      "metar": "METAR GMAD 181230Z 02003KT 340V070 6000 NSC 22/14 Q1007 NOSIG",
      "taf": "TAF GMAD 181100Z 1812/1918 26010KT 9999 SCT020 SCT080"
    },
    {
      "icao": "GMMN",
      "alert": "OK",
      "vis_m": 9999,
      "fzfg": false,
      "metar_trigger": false,
      "taf_trigger": false,
      "metar": "METAR GMMN 181230Z 16008KT 120V190 CAVOK 21/14 Q1006 NOSIG",
      "taf": "TAF GMMN 181100Z 1812/1918 20008KT CAVOK"
    },
    {
      "icao": "GMMX",
      "alert": "OK",
      "vis_m": 8000,
      "fzfg": false,
      "metar_trigger": false,
      "taf_trigger": false,
      "metar": "METAR GMMX 181230Z VRB04KT 8000 NSC 24/11 Q1005 NOSIG",
      "taf": "TAF GMMX 181100Z 1812/1918 06006KT 8000 NSC"
    },
    {
      "icao": "HEGN",
      "alert": "OK",
      "vis_m": 6000,
      "fzfg": false,
      "metar_trigger": false,
      "taf_trigger": false,
      "metar": "METAR HEGN 181200Z 12017KT 6000 RA SCT020 SCT025 24/16 Q1000 NOSIG",
      "taf": "TAF HEGN 181100Z 1812/1918 12016KT 6000 SCT020"
    },
    {
      "icao": "HEMA",
      "alert": "OK",
      "vis_m": 9999,
      "fzfg": false,
      "metar_trigger": false,
      "taf_trigger": false,
      "metar": "METAR HEMA 181200Z 14020KT CAVOK 31/15 Q1001 NOSIG",
      "taf": "TAF HEMA 181130Z 1812/1918 13016KT 6000 SCT025"
    },
    {
      "icao": "HESH",
      "alert": "OK",
      "vis_m": 9999,
      "fzfg": false,
      "metar_trigger": false,
      "taf_trigger": false,
      "metar": "METAR HESH 181200Z 34008KT CAVOK 27/05 Q1003 NOSIG",
      "taf": "TAF HESH 181100Z 1812/1918 02014KT 9999 SCT025"
    },
    {
      "icao": "HESX",
      "alert": "OK",
      "vis_m": 9999,
      "fzfg": false,
      "metar_trigger": false,
      "taf_trigger": false,
      "metar": "METAR HESX 181200Z 36008KT 9999 SCT020 SCT025 22/09 Q1000 NOSIG",
      "taf": "TAF HESX 181130Z 1812/1918 26015G25KT 9999 SCT030 BKN100"
    },
    {
      "icao": "LATI",
      "alert": "OK",
      "vis_m": 9999,
      "fzfg": false,
      "metar_trigger": false,
      "taf_trigger": false,
      "metar": "METAR LATI 181250Z VRB05KT 9999 FEW045 OVC061 15/02 Q1009 NOSIG",
      "taf": "TAF LATI 181100Z 1812/1912 16012KT 9999 -RA SCT040 BKN070 TX16/1812Z TN08/1904Z"
    },
    {
      "icao": "LBPD",
      "alert": "OK",
      "vis_m": 9999,
      "fzfg": false,
      "metar_trigger": false,
      "taf_trigger": false,
      "metar": "METAR LBPD 181230Z AUTO 31004KT 290V360 9999 -SHRA SCT030/// BKN036/// OVC059/// 07/04 Q1019 NOSIG",
      "taf": "TAF LBPD 181100Z 1812/1912 16010KT 8000 -RA SCT020 OVC030"
    },
    {
      "icao": "LBSF",
      "alert": "OK",
      "vis_m": 9999,
      "fzfg": false,
      "metar_trigger": false,
      "taf_trigger": false,
      "metar": "METAR LBSF 181230Z 14014KT 9999 FEW028 BKN077 OVC087 07/00 Q1018 NOSIG",
      "taf": "TAF LBSF 181100Z 1812/1912 12016KT 9999 SCT030 OVC040"
    },
    {
      "icao": "LBWN",
      "alert": "OK",
      "vis_m": 9999,
      "fzfg": false,
      "metar_trigger": false,
      "taf_trigger": false,
      "metar": "METAR LBWN 181230Z 09017KT 9999 SCT045 11/02 Q1019 NOSIG",
      "taf": "TAF LBWN 181100Z 1812/1912 04014KT 9999 SCT040"
    },
    {
      "icao": "LCLK",
      "alert": "OK",
      "vis_m": 8000,
      "fzfg": false,
      "metar_trigger": false,
      "taf_trigger": false,
      "metar": "METAR LCLK 181230Z 04017KT 8000 NSC 21/14 Q1006 NOSIG",
      "taf": "TAF LCLK 181130Z 1812/1912 04016KT CAVOK"
    },
    {
      "icao": "LCPH",
      "alert": "OK",
      "vis_m": 9999,
      "fzfg": false,
      "metar_trigger": false,
      "taf_trigger": false,
      "metar": "METAR LCPH 181230Z VRB02KT 9999 FEW025 21/10 Q1002 NOSIG",
      "taf": "TAF LCPH 181130Z 1812/1912 13013KT CAVOK"
    },
    {
      "icao": "LEAL",
      "alert": "OK",
      "vis_m": 9999,
      "fzfg": false,
      "metar_trigger": false,
      "taf_trigger": false,
      "metar": "METAR LEAL 181230Z 09007KT CAVOK 18/11 Q1009 NOSIG",
      "taf": "TAF LEAL 181100Z 1812/1912 07010KT CAVOK TX20/1812Z TN11/1907Z"
    },
    {
      "icao": "LEBB",
      "alert": "OK",
      "vis_m": 9999,
      "fzfg": false,
      "metar_trigger": false,
      "taf_trigger": false,
      "metar": "METAR LEBB 181230Z 28009KT 240V320 CAVOK 21/11 Q1006 NOSIG",
      "taf": ""
    },
    {
      "icao": "LEBL",
      "alert": "OK",
      "vis_m": 9999,
      "fzfg": false,
      "metar_trigger": false,
      "taf_trigger": false,
      "metar": "METAR LEBL 181230Z 09009KT 9999 FEW015 15/11 Q1010 NOSIG",
      "taf": "TAF LEBL 181100Z 1812/1912 10009KT 9999 FEW010 TX16/1812Z TN10/1906Z"
    },
    {
      "icao": "LECH",
      "alert": "OK",
      "vis_m": 9000,
      "fzfg": false,
      "metar_trigger": false,
      "taf_trigger": false,
      "metar": "METAR LECH 181230Z AUTO 10009KT 070V140 9000 NCD 17/09 Q1009",
      "taf": "TAF LECH 181100Z 1812/1912 11006KT CAVOK TX20/1812Z TN06/1907Z"
    },
    {
      "icao": "LEMD",
      "alert": "OK",
      "vis_m": 9999,
      "fzfg": false,
      "metar_trigger": false,
      "taf_trigger": false,
      "metar": "METAR LEMD 181230Z 08004KT 360V160 CAVOK 16/M01 Q1008 NOSIG",
      "taf": "TAF LEMD 181100Z 1812/1918 VRB04KT CAVOK TX20/1815Z TN04/1906Z"
    },
    {
      "icao": "LEMG",
      "alert": "OK",
      "vis_m": 9999,
      "fzfg": false,
      "metar_trigger": false,
      "taf_trigger": false,
      "metar": "METAR LEMG 181230Z 15009KT 110V170 CAVOK 18/07 Q1009 NOSIG",
      "taf": "TAF LEMG 181100Z 1812/1912 13010KT CAVOK TX20/1813Z TN10/1906Z"
    },
    {
      "icao": "LEVC",
      "alert": "OK",
      "vis_m": 9999,
      "fzfg": false,
      "metar_trigger": false,
      "taf_trigger": false,
      "metar": "METAR LEVC 181230Z 13005KT 080V180 CAVOK 18/08 Q1009 NOSIG",
      "taf": "TAF LEVC 181100Z 1812/1912 09008KT CAVOK TX20/1812Z TN10/1907Z"
    },
    {
      "icao": "LEXJ",
      "alert": "OK",
      "vis_m": 9999,
      "fzfg": false,
      "metar_trigger": false,
      "taf_trigger": false,
      "metar": "METAR LEXJ 181230Z 01005KT 340V050 CAVOK 18/07 Q1006",
      "taf": "TAF LEXJ 180800Z 1809/1909 27009KT CAVOK TX20/1812Z TN08/1907Z"
    },
    {
      "icao": "LEZG",
      "alert": "OK",
      "vis_m": 9999,
      "fzfg": false,
      "metar_trigger": false,
      "taf_trigger": false,
      "metar": "METAR LEZG 181230Z 09005KT 040V150 CAVOK 18/06 Q1008 NOSIG",
      "taf": "TAF LEZG 181100Z 1812/1912 10008KT CAVOK TX22/1814Z TN08/1907Z"
    },
    {
      "icao": "LEZL",
      "alert": "OK",
      "vis_m": 9999,
      "fzfg": false,
      "metar_trigger": false,
      "taf_trigger": false,
      "metar": "METAR LEZL 181230Z 22009KT 160V250 9999 BKN045 20/10 Q1007 NOSIG",
      "taf": "TAF LEZL 180800Z 1809/1909 VRB03KT 9999 FEW030 TX25/1815Z TN12/1907Z"
    },
    {
      "icao": "LFBD",
      "alert": "OK",
      "vis_m": 9999,
      "fzfg": false,
      "metar_trigger": false,
      "taf_trigger": false,
      "metar": "METAR LFBD 181230Z AUTO 07007KT 020V110 CAVOK 21/07 Q1008 NOSIG",
      "taf": "TAF LFBD 181100Z 1812/1918 10010KT CAVOK TX22/1815Z TN09/1905Z"
    },
    {
      "icao": "LFLL",
      "alert": "OK",
      "vis_m": 9999,
      "fzfg": false,
      "metar_trigger": false,
      "taf_trigger": false,
      "metar": "METAR LFLL 181230Z 28005KT 190V340 9999 FEW028 12/05 Q1013 NOSIG",
      "taf": "TAF LFLL 181100Z 1812/1918 VRB03KT CAVOK"
    },
    {
      "icao": "LFLS",
      "alert": "OK",
      "vis_m": 9999,
      "fzfg": false,
      "metar_trigger": false,
      "taf_trigger": false,
      "metar": "METAR LFLS 181230Z AUTO 36006KT 320V060 CAVOK 12/02 Q1012 NOSIG",
      "taf": "TAF LFLS 180800Z 1809/1909 VRB03KT CAVOK"
    },
    {
      "icao": "LFMN",
      "alert": "OK",
      "vis_m": 9999,
      "fzfg": false,
      "metar_trigger": false,
      "taf_trigger": false,
      "metar": "METAR LFMN 181230Z 03006KT 350V070 CAVOK 13/06 Q1015 NOSIG",
      "taf": ""
    },
    {
      "icao": "LFOB",
      "alert": "OK",
      "vis_m": 9999,
      "fzfg": false,
      "metar_trigger": false,
      "taf_trigger": false,
      "metar": "METAR LFOB 181230Z AUTO 08017KT CAVOK 14/01 Q1020 TEMPO 09014G25KT",
      "taf": "TAF LFOB 181100Z 1812/1912 08008KT CAVOK"
    },
    {
      "icao": "LFPO",
      "alert": "OK",
      "vis_m": 9999,
      "fzfg": false,
      "metar_trigger": false,
      "taf_trigger": false,
      "metar": "METAR LFPO 181230Z 09018KT CAVOK 15/M01 Q1018 NOSIG",
      "taf": "TAF LFPO 181100Z 1812/1918 07008KT CAVOK"
    },
    {
      "icao": "LFSB",
      "alert": "OK",
      "vis_m": 9999,
      "fzfg": false,
      "metar_trigger": false,
      "taf_trigger": false,
      "metar": "METAR LFSB 181230Z AUTO 13011KT 090V170 9999 FEW012 15/M01 Q1017 NOSIG",
      "taf": "TAF LFSB 181100Z 1812/1912 10010KT CAVOK"
    },
    {
      "icao": "LGAV",
      "alert": "OK",
      "vis_m": 9999,
      "fzfg": false,
      "metar_trigger": false,
      "taf_trigger": false,
      "metar": "METAR LGAV 181250Z 01020KT 9999 FEW020 SCT040 BKN070 13/09 Q1009 NOSIG",
      "taf": "TAF LGAV 181100Z 1812/1912 03015KT 9999 FEW020 SCT035 BKN070"
    },
    {
      "icao": "LGTS",
      "alert": "OK",
      "vis_m": 9999,
      "fzfg": false,
      "metar_trigger": false,
      "taf_trigger": false,
      "metar": "METAR LGTS 181250Z 11007KT 9999 SCT025 12/03 Q1015 NOSIG",
      "taf": "TAF LGTS 181100Z 1812/1912 14013KT 9999 BKN025"
    },
    {
      "icao": "LHBP",
      "alert": "OK",
      "vis_m": 9999,
      "fzfg": false,
      "metar_trigger": false,
      "taf_trigger": false,
      "metar": "METAR LHBP 181230Z 07014G24KT 040V100 CAVOK 16/M02 Q1022 NOSIG",
      "taf": "TAF LHBP 181115Z 1812/1912 07015G26KT CAVOK"
    },
    {
      "icao": "LHDC",
      "alert": "OK",
      "vis_m": 9999,
      "fzfg": false,
      "metar_trigger": false,
      "taf_trigger": false,
      "metar": "METAR LHDC 181215Z AUTO 07011KT 030V110 CAVOK 16/M02 Q1021 NOSIG",
      "taf": "TAF LHDC 181115Z 1812/1821 07012KT CAVOK"
    },
    {
      "icao": "LIBD",
      "alert": "OK",
      "vis_m": 9999,
      "fzfg": false,
      "metar_trigger": false,
      "taf_trigger": false,
      "metar": "METAR LIBD 181250Z 02006KT 300V060 9999 SCT030 11/06 Q1009",
      "taf": "TAF LIBD 181100Z 1812/1912 02008KT 9999 SCT030"
    },
    {
      "icao": "LIBG",
      "alert": "OK",
      "vis_m": 9999,
      "fzfg": false,
      "metar_trigger": false,
      "taf_trigger": false,
      "metar": "METAR LIBG 181150Z 14003KT 040V200 9999 SCT020 13/06 Q1009",
      "taf": "TAF LIBG 181100Z 1812/1821 VRB06KT 9999 SCT025"
    },
    {
      "icao": "LIBP",
      "alert": "OK",
      "vis_m": 9999,
      "fzfg": false,
      "metar_trigger": false,
      "taf_trigger": false,
      "metar": "METAR LIBP 181250Z AUTO 28006KT 240V300 9999 -RA OVC031/// 09/07 Q1010",
      "taf": "TAF LIBP 181100Z 1812/1912 28010KT 9999 BKN020"
    },
    {
      "icao": "LIBR",
      "alert": "OK",
      "vis_m": 9999,
      "fzfg": false,
      "metar_trigger": false,
      "taf_trigger": false,
      "metar": "METAR LIBR 181250Z 01003KT 340V050 9999 SCT015 11/07 Q1009",
      "taf": "TAF LIBR 181100Z 1812/1912 02008KT 9999 BKN030"
    },
    {
      "icao": "LICA",
      "alert": "OK",
      "vis_m": 9999,
      "fzfg": false,
      "metar_trigger": false,
      "taf_trigger": false,
      "metar": "METAR LICA 181250Z AUTO 29009KT 9999 FEW029/// BKN069/// BKN088/// 12/05 Q1009",
      "taf": "TAF LICA 181100Z 1812/1912 29012KT 9999 SCT040"
    },
    {
      "icao": "LICC",
      "alert": "OK",
      "vis_m": 6000,
      "fzfg": false,
      "metar_trigger": false,
      "taf_trigger": false,
      "metar": "METAR LICC 181250Z VRB02KT 6000 -RA SCT015 BKN040 13/11 Q1009 RESHRA",
      "taf": "TAF LICC 181100Z 1812/1912 09010KT 9999 BKN030"
    },
    {
      "icao": "LICJ",
      "alert": "OK",
      "vis_m": 9999,
      "fzfg": false,
      "metar_trigger": false,
      "taf_trigger": false,
      "metar": "METAR LICJ 181250Z 01008KT 9999 FEW020 15/07 Q1010",
      "taf": "TAF LICJ 181100Z 1812/1912 32014KT 9999 SCT020"
    },
    {
      "icao": "LIMC",
      "alert": "OK",
      "vis_m": 9999,
      "fzfg": false,
      "metar_trigger": false,
      "taf_trigger": false,
      "metar": "METAR LIMC 181250Z 12008KT 100V160 9999 BKN080 14/M02 Q1018 NOSIG",
      "taf": "TAF LIMC 181100Z 1812/1918 VRB06KT 9999 SCT050"
    },
    {
      "icao": "LIME",
      "alert": "OK",
      "vis_m": 9999,
      "fzfg": false,
      "metar_trigger": false,
      "taf_trigger": false,
      "metar": "METAR LIME 181250Z 18004KT 130V230 9999 SCT085 13/M01 Q1018 NOSIG",
      "taf": "TAF LIME 181100Z 1812/1912 14010KT 9999 SCT050"
    },
    {
      "icao": "LIMF",
      "alert": "OK",
      "vis_m": 9999,
      "fzfg": false,
      "metar_trigger": false,
      "taf_trigger": false,
      "metar": "METAR LIMF 181250Z 25005KT 220V300 9999 BKN080 12/02 Q1019",
      "taf": "TAF LIMF 181100Z 1812/1912 32010KT 9999 BKN040"
    },
    {
      "icao": "LIMJ",
      "alert": "OK",
      "vis_m": 9999,
      "fzfg": false,
      "metar_trigger": false,
      "taf_trigger": false,
      "metar": "METAR LIMJ 181250Z 02013KT 340V060 9999 FEW035 BKN070 14/M00 Q1016",
      "taf": "TAF LIMJ 181100Z 1812/1912 03018G28KT 9999 SCT020"
    },
    {
      "icao": "LIPE",
      "alert": "OK",
      "vis_m": 9999,
      "fzfg": false,
      "metar_trigger": false,
      "taf_trigger": false,
      "metar": "METAR LIPE 181250Z 04010G20KT 340V080 9999 -RA BKN045 11/05 Q1017",
      "taf": "TAF LIPE 181100Z 1812/1912 04013KT 9999 BKN050"
    },
    {
      "icao": "LIPH",
      "alert": "OK",
      "vis_m": 9999,
      "fzfg": false,
      "metar_trigger": false,
      "taf_trigger": false,
      "metar": "METAR LIPH 181250Z 05011KT 010V070 CAVOK 14/02 Q1017",
      "taf": "TAF LIPH 181100Z 1812/1912 07013KT 9999 SCT060"
    },
    {
      "icao": "LIPQ",
      "alert": "OK",
      "vis_m": 9999,
      "fzfg": false,
      "metar_trigger": false,
      "taf_trigger": false,
      "metar": "METAR LIPQ 181250Z AUTO 07009KT 040V100 9999 FEW069/// BKN130/// 13/00 Q1017",
      "taf": "TAF LIPQ 181100Z 1812/1912 05015KT 9999 FEW060 SCT090"
    },
    {
      "icao": "LIPR",
      "alert": "OK",
      "vis_m": 8000,
      "fzfg": false,
      "metar_trigger": false,
      "taf_trigger": false,
      "metar": "METAR LIPR 181250Z 07004KT 040V100 8000 -RA FEW015 SCT025 BKN035 10/08 Q1014",
      "taf": "TAF LIPR 181100Z 1812/1912 04015G25KT 9999 BKN040"
    },
    {
      "icao": "LIPX",
      "alert": "OK",
      "vis_m": 9999,
      "fzfg": false,
      "metar_trigger": false,
      "taf_trigger": false,
      "metar": "METAR LIPX 181250Z 06013KT 9999 FEW085 15/00 Q1017",
      "taf": "TAF LIPX 181100Z 1812/1912 08015KT 9999 SCT030"
    },
    {
      "icao": "LIPY",
      "alert": "OK",
      "vis_m": 9999,
      "fzfg": false,
      "metar_trigger": false,
      "taf_trigger": false,
      "metar": "METAR LIPY 181250Z AUTO 06008KT 030V090 9999 RA SCT014/// OVC033/// 10/08 Q1013",
      "taf": "TAF LIPY 181100Z 1812/1912 03014KT 9999 BKN040"
    },
    {
      "icao": "LIPZ",
      "alert": "OK",
      "vis_m": 9999,
      "fzfg": false,
      "metar_trigger": false,
      "taf_trigger": false,
      "metar": "METAR LIPZ 181250Z 06019KT CAVOK 14/02 Q1017 NOSIG",
      "taf": "TAF LIPZ 181100Z 1812/1918 06017KT 9999 SCT060"
    },
    {
      "icao": "LIRF",
      "alert": "OK",
      "vis_m": 9999,
      "fzfg": false,
      "metar_trigger": false,
      "taf_trigger": false,
      "metar": "METAR LIRF 181250Z 36012KT 9999 SCT050 13/04 Q1009 NOSIG",
      "taf": "TAF LIRF 181100Z 1812/1918 01014KT 9999 FEW050"
    },
    {
      "icao": "LIRN",
      "alert": "OK",
      "vis_m": 9999,
      "fzfg": false,
      "metar_trigger": false,
      "taf_trigger": false,
      "metar": "METAR LIRN 181250Z VRB02KT 9999 -RA FEW020 BKN040 11/03 Q1009 NOSIG",
      "taf": "TAF LIRN 181100Z 1812/1912 03008KT 9999 SCT040"
    },
    {
      "icao": "LIRP",
      "alert": "OK",
      "vis_m": 9999,
      "fzfg": false,
      "metar_trigger": false,
      "taf_trigger": false,
      "metar": "METAR LIRP 181245Z 04007KT 9999 FEW050 BKN060 13/01 Q1014 NOSIG",
      "taf": "TAF LIRP 181100Z 1812/1912 05013KT 9999 FEW040"
    },
    {
      "icao": "LIRZ",
      "alert": "OK",
      "vis_m": 9999,
      "fzfg": false,
      "metar_trigger": false,
      "taf_trigger": false,
      "metar": "METAR LIRZ 181250Z AUTO 05014KT 9999 FEW028/// SCT064/// BKN100/// 11/05 Q1011",
      "taf": "TAF LIRZ 181100Z 1812/1912 02014KT 9999 FEW030"
    },
    {
      "icao": "LJLJ",
      "alert": "OK",
      "vis_m": 9999,
      "fzfg": false,
      "metar_trigger": false,
      "taf_trigger": false,
      "metar": "METAR LJLJ 181230Z 07011KT 9999 BKN040 12/00 Q1019 NOSIG",
      "taf": "TAF LJLJ 181100Z 1812/1912 10010KT 9999 FEW020 BKN045"
    },
    {
      "icao": "LKMT",
      "alert": "OK",
      "vis_m": 9999,
      "fzfg": false,
      "metar_trigger": false,
      "taf_trigger": false,
      "metar": "METAR LKMT 181230Z 06019KT CAVOK 13/M01 Q1026 NOSIG",
      "taf": "TAF LKMT 181100Z 1812/1912 05010KT CAVOK"
    },
    {
      "icao": "LKPR",
      "alert": "OK",
      "vis_m": 9999,
      "fzfg": false,
      "metar_trigger": false,
      "taf_trigger": false,
      "metar": "METAR LKPR 181230Z 09016KT 9999 FEW047 13/02 Q1026 NOSIG",
      "taf": "TAF LKPR 181100Z 1812/1918 08014KT CAVOK"
    },
    {
      "icao": "LLBG",
      "alert": "OK",
      "vis_m": 9999,
      "fzfg": false,
      "metar_trigger": false,
      "taf_trigger": false,
      "metar": "METAR LLBG 181250Z 17015KT CAVOK 29/01 Q1002 NOSIG RMK FEW100",
      "taf": "TAF LLBG 181105Z 1812/1912 14008KT CAVOK TX29/1812Z TN12/1903Z"
    },
    {
      "icao": "LMML",
      "alert": "OK",
      "vis_m": 9999,
      "fzfg": false,
      "metar_trigger": false,
      "taf_trigger": false,
      "metar": "METAR LMML 181245Z 29015KT 260V320 9999 FEW024 18/11 Q1009 NOSIG",
      "taf": "TAF LMML 181100Z 1812/1912 29016KT 9999 FEW020"
    },
    {
      "icao": "LOWW",
      "alert": "OK",
      "vis_m": 9999,
      "fzfg": false,
      "metar_trigger": false,
      "taf_trigger": false,
      "metar": "METAR LOWW 181250Z 04006KT 340V100 CAVOK 16/01 Q1023 NOSIG",
      "taf": "TAF LOWW 181121Z 1812/1918 36005KT CAVOK TX16/1814Z TN02/1904Z"
    },
    {
      "icao": "LPFR",
      "alert": "OK",
      "vis_m": 9999,
      "fzfg": false,
      "metar_trigger": false,
      "taf_trigger": false,
      "metar": "METAR LPFR 181230Z 15014KT 9999 SCT012 FEW018CB 18/15 Q1005",
      "taf": "TAF LPFR 181100Z 1812/1912 17015KT 9999 SCT015 SCT030"
    },
    {
      "icao": "LPMA",
      "alert": "OK",
      "vis_m": 9999,
      "fzfg": false,
      "metar_trigger": false,
      "taf_trigger": false,
      "metar": "METAR LPMA 181230Z 02011KT 350V050 9999 BKN013 FEW018CB 15/07 Q0999",
      "taf": "TAF LPMA 181100Z 1812/1912 34010KT 9999 SCT015"
    },
    {
      "icao": "LPPR",
      "alert": "OK",
      "vis_m": 9999,
      "fzfg": false,
      "metar_trigger": false,
      "taf_trigger": false,
      "metar": "METAR LPPR 181230Z 14011KT 100V160 9999 FEW018 SCT040 18/11 Q1004",
      "taf": "TAF LPPR 181100Z 1812/1912 14012KT 9999 FEW018 SCT040"
    },
    {
      "icao": "LPPS",
      "alert": "OK",
      "vis_m": 9999,
      "fzfg": false,
      "metar_trigger": false,
      "taf_trigger": false,
      "metar": "METAR LPPS 181230Z 30014KT 9999 VCSH SCT014 FEW018CB 14/08 Q1000",
      "taf": "TAF LPPS 181100Z 1812/1918 27018KT 9999 SCT015 SCT030"
    },
    {
      "icao": "LPPT",
      "alert": "OK",
      "vis_m": 9999,
      "fzfg": false,
      "metar_trigger": false,
      "taf_trigger": false,
      "metar": "METAR LPPT 181230Z 15011KT 120V190 9999 FEW018CB SCT026 18/12 Q1003",
      "taf": "TAF LPPT 181100Z 1812/1918 14012KT 9999 SCT015 SCT035"
    },
    {
      "icao": "LQBK",
      "alert": "OK",
      "vis_m": 9999,
      "fzfg": false,
      "metar_trigger": false,
      "taf_trigger": false,
      "metar": "METAR LQBK 181230Z 05016KT CAVOK 11/M02 Q1018 NOSIG",
      "taf": "TAF LQBK 181100Z 1812/1912 36007KT 9999 FEW035 TX13/1813Z TN03/1905Z"
    },
    {
      "icao": "LQSA",
      "alert": "OK",
      "vis_m": 9999,
      "fzfg": false,
      "metar_trigger": false,
      "taf_trigger": false,
      "metar": "METAR LQSA 181230Z 11010KT 9999 BKN040 07/00 Q1015 NOSIG",
      "taf": "TAF LQSA 181100Z 1812/1912 33005KT 9999 BKN050 TX07/1813Z TNM01/1905Z"
    },
    {
      "icao": "LQTZ",
      "alert": "OK",
      "vis_m": 9999,
      "fzfg": false,
      "metar_trigger": false,
      "taf_trigger": false,
      "metar": "METAR LQTZ 181230Z 09018KT 060V120 9999 FEW060 12/M03 Q1017",
      "taf": "TAF LQTZ 181100Z 1812/1912 10012KT 9999 SCT013 BKN030 TX11/1813Z TN01/1905Z"
    },
    {
      "icao": "LRBC",
      "alert": "OK",
      "vis_m": 9999,
      "fzfg": false,
      "metar_trigger": false,
      "taf_trigger": false,
      "metar": "METAR LRBC 181230Z 03011KT 9999 BKN058 10/M03 Q1023",
      "taf": "TAF LRBC 181100Z 1812/1821 36012KT 9999 BKN060"
    },
    {
      "icao": "LRBS",
      "alert": "OK",
      "vis_m": 9999,
      "fzfg": false,
      "metar_trigger": false,
      "taf_trigger": false,
      "metar": "METAR LRBS 181230Z 04012KT 010V090 CAVOK 12/M01 Q1021 NOSIG",
      "taf": "TAF LRBS 181100Z 1812/1912 06018KT CAVOK"
    },
    {
      "icao": "LRBV",
      "alert": "OK",
      "vis_m": 9999,
      "fzfg": false,
      "metar_trigger": false,
      "taf_trigger": false,
      "metar": "METAR LRBV 181230Z 06016KT 9999 FEW065 11/M04 Q1021",
      "taf": "TAF LRBV 181100Z 1812/1821 06016KT CAVOK"
    },
    {
      "icao": "LRCL",
      "alert": "OK",
      "vis_m": 9999,
      "fzfg": false,
      "metar_trigger": false,
      "taf_trigger": false,
      "metar": "METAR LRCL 181230Z 10006KT 030V200 CAVOK 14/M04 Q1021",
      "taf": "TAF LRCL 181100Z 1812/1821 10008KT CAVOK"
    },
    {
      "icao": "LRCV",
      "alert": "OK",
      "vis_m": 9999,
      "fzfg": false,
      "metar_trigger": false,
      "taf_trigger": false,
      "metar": "METAR LRCV 181230Z 08017KT 9999 FEW049 12/M01 Q1020",
      "taf": "TAF LRCV 181100Z 1812/1821 09018KT CAVOK"
    },
    {
      "icao": "LRIA",
      "alert": "OK",
      "vis_m": 9999,
      "fzfg": false,
      "metar_trigger": false,
      "taf_trigger": false,
      "metar": "METAR LRIA 181230Z 36008KT 9999 FEW048 10/M01 Q1024",
      "taf": "TAF LRIA 181100Z 1812/1821 03008KT CAVOK"
    },
    {
      "icao": "LROP",
      "alert": "OK",
      "vis_m": 9999,
      "fzfg": false,
      "metar_trigger": false,
      "taf_trigger": false,
      "metar": "METAR LROP 181230Z 08017KT CAVOK 13/M06 Q1021 NOSIG",
      "taf": "TAF LROP 181100Z 1812/1912 06018KT CAVOK"
    },
    {
      "icao": "LRSB",
      "alert": "OK",
      "vis_m": 9999,
      "fzfg": false,
      "metar_trigger": false,
      "taf_trigger": false,
      "metar": "METAR LRSB 181230Z 10009KT 060V140 CAVOK 12/M04 Q1020",
      "taf": "TAF LRSB 181100Z 1812/1912 12015KT CAVOK"
    },
    {
      "icao": "LRSM",
      "alert": "OK",
      "vis_m": 9999,
      "fzfg": false,
      "metar_trigger": false,
      "taf_trigger": false,
      "metar": "METAR LRSM 181230Z 07011KT 040V120 CAVOK 16/M04 Q1021",
      "taf": "TAF LRSM 181100Z 1812/1821 VRB04KT CAVOK"
    },
    {
      "icao": "LRSV",
      "alert": "OK",
      "vis_m": 9999,
      "fzfg": false,
      "metar_trigger": false,
      "taf_trigger": false,
      "metar": "METAR LRSV 181230Z 36010KT 330V030 9999 SCT038 08/M01 Q1024",
      "taf": "TAF LRSV 181100Z 1812/1821 02010KT 9999 SCT035"
    },
    {
      "icao": "LRTM",
      "alert": "OK",
      "vis_m": 9999,
      "fzfg": false,
      "metar_trigger": false,
      "taf_trigger": false,
      "metar": "METAR LRTM 181230Z 03004KT 310V080 CAVOK 14/M04 Q1020",
      "taf": "TAF LRTM 181100Z 1812/1821 VRB04KT CAVOK"
    },
    {
      "icao": "LRTR",
      "alert": "OK",
      "vis_m": 9999,
      "fzfg": false,
      "metar_trigger": false,
      "taf_trigger": false,
      "metar": "METAR LRTR 181230Z 10016KT CAVOK 15/M02 Q1020 NOSIG",
      "taf": "TAF LRTR 181100Z 1812/1912 08010KT CAVOK"
    },
    {
      "icao": "LTAC",
      "alert": "OK",
      "vis_m": 9999,
      "fzfg": false,
      "metar_trigger": false,
      "taf_trigger": false,
      "metar": "METAR LTAC 181250Z 14006KT 100V170 9999 SCT040 BKN100 15/M00 Q1011 NOSIG",
      "taf": "TAF LTAC 181040Z 1812/1912 VRB02KT 9999 SCT040 BKN080"
    },
    {
      "icao": "LTFM",
      "alert": "OK",
      "vis_m": 9999,
      "fzfg": false,
      "metar_trigger": false,
      "taf_trigger": false,
      "metar": "METAR LTFM 181250Z 04020KT 9999 SCT013 BKN023 08/05 Q1016 NOSIG",
      "taf": "TAF LTFM 181040Z 1812/1918 04018G28KT 9999 SCT011 BKN023"
    },
    {
      "icao": "LUKK",
      "alert": "OK",
      "vis_m": 9999,
      "fzfg": false,
      "metar_trigger": false,
      "taf_trigger": false,
      "metar": "METAR LUKK 181230Z 02010KT 350V050 9999 BKN043 09/M01 Q1023 NOSIG",
      "taf": "TAF LUKK 181117Z 1812/1912 02010KT 9999 BKN030"
    },
    {
      "icao": "LWOH",
      "alert": "OK",
      "vis_m": 9999,
      "fzfg": false,
      "metar_trigger": false,
      "taf_trigger": false,
      "metar": "METAR LWOH 181250Z 07010KT 020V090 9999 SCT020 BKN037 07/01 Q1012",
      "taf": "TAF LWOH 181145Z 1812/1912 04010KT 9999 SCT020 BKN035 BKN090"
    },
    {
      "icao": "LWSK",
      "alert": "OK",
      "vis_m": 9999,
      "fzfg": false,
      "metar_trigger": false,
      "taf_trigger": false,
      "metar": "METAR LWSK 181250Z 11005KT 070V160 9999 SCT050 BKN085 13/01 Q1014 NOSIG",
      "taf": "TAF LWSK 181145Z 1812/1912 13010KT 9999 SCT040 BKN075"
    },
    {
      "icao": "LYBE",
      "alert": "OK",
      "vis_m": 9999,
      "fzfg": false,
      "metar_trigger": false,
      "taf_trigger": false,
      "metar": "METAR LYBE 181230Z 10018KT CAVOK 14/M03 Q1019 NOSIG",
      "taf": "TAF LYBE 181100Z 1812/1912 10016KT CAVOK TX14/1813Z TN03/1905Z"
    },
    {
      "icao": "LYNI",
      "alert": "OK",
      "vis_m": 9999,
      "fzfg": false,
      "metar_trigger": false,
      "taf_trigger": false,
      "metar": "METAR LYNI 181230Z 10013KT 070V130 9999 FEW047 BKN070 12/M04 Q1016 NOSIG",
      "taf": "TAF LYNI 181100Z 1812/1912 11012KT 9999 BKN080 TX13/1814Z TN04/1905Z"
    },
    {
      "icao": "LYPG",
      "alert": "OK",
      "vis_m": 9999,
      "fzfg": false,
      "metar_trigger": false,
      "taf_trigger": false,
      "metar": "METAR LYPG 181230Z 23006KT 9999 SCT050 BKN080 15/05 Q1010 NOSIG",
      "taf": "TAF LYPG 181100Z 1812/1912 21006KT 9999 FEW040 BKN090 TX15/1813Z TN05/1904Z"
    },
    {
      "icao": "LZIB",
      "alert": "OK",
      "vis_m": 9999,
      "fzfg": false,
      "metar_trigger": false,
      "taf_trigger": false,
      "metar": "METAR LZIB 181230Z 07011KT CAVOK 16/M01 Q1023 NOSIG",
      "taf": "TAF LZIB 181115Z 1812/1912 07010KT CAVOK"
    },
    {
      "icao": "LZKZ",
      "alert": "OK",
      "vis_m": 9999,
      "fzfg": false,
      "metar_trigger": false,
      "taf_trigger": false,
      "metar": "METAR LZKZ 181230Z 01015KT CAVOK 14/M03 Q1023 NOSIG",
      "taf": "TAF LZKZ 181115Z 1812/1912 01015KT CAVOK"
    },
    {
      "icao": "LZTT",
      "alert": "OK",
      "vis_m": 9999,
      "fzfg": false,
      "metar_trigger": false,
      "taf_trigger": false,
      "metar": "METAR LZTT 181230Z 07017KT 9999 FEW043 12/M03 Q1024 NOSIG",
      "taf": "TAF LZTT 181115Z 1812/1912 07015KT 9999 FEW040"
    },
    {
      "icao": "OEJN",
      "alert": "OK",
      "vis_m": 8000,
      "fzfg": false,
      "metar_trigger": false,
      "taf_trigger": false,
      "metar": "METAR OEJN 181200Z 21008KT 8000 FEW040 32/17 Q1003 NOSIG",
      "taf": "TAF OEJN 181100Z 1812/1918 19015KT 7000 FEW040"
    },
    {
      "icao": "OEMA",
      "alert": "OK",
      "vis_m": 9999,
      "fzfg": false,
      "metar_trigger": false,
      "taf_trigger": false,
      "metar": "METAR OEMA 181200Z VRB03KT 9999 BKN040 33/03 Q1010 NOSIG",
      "taf": "TAF OEMA 181100Z 1812/1918 27015KT 7000 SCT045"
    },
    {
      "icao": "OJAI",
      "alert": "OK",
      "vis_m": 4000,
      "fzfg": false,
      "metar_trigger": false,
      "taf_trigger": false,
      "metar": "METAR OJAI 181200Z 12020KT 4000 BLDU NSC 25/M04 Q1007 NOSIG",
      "taf": "TAF OJAI 181100Z 1812/1918 13018KT 4000 BLDU NSC"
    },
    {
      "icao": "OMAA",
      "alert": "OK",
      "vis_m": null,
      "fzfg": false,
      "metar_trigger": false,
      "taf_trigger": false,
      "metar": "",
      "taf": ""
    },
    {
      "icao": "OMDB",
      "alert": "OK",
      "vis_m": null,
      "fzfg": false,
      "metar_trigger": false,
      "taf_trigger": false,
      "metar": "",
      "taf": ""
    },
    {
      "icao": "UAAA",
      "alert": "OK",
      "vis_m": 9999,
      "fzfg": false,
      "metar_trigger": false,
      "taf_trigger": false,
      "metar": "METAR UAAA 181230Z 35003MPS 320V020 9999 NSC 10/M01 Q1017 NOSIG",
      "taf": "TAF UAAA 181103Z 1812/1912 18003MPS 9999 SCT100 TX14/1909Z TNM00/1901Z"
    },
    {
      "icao": "UBBB",
      "alert": "OK",
      "vis_m": 8000,
      "fzfg": false,
      "metar_trigger": false,
      "taf_trigger": false,
      "metar": "METAR UBBB 181230Z 32010KT 8000 SCT040 12/02 Q1020 NOSIG",
      "taf": "TAF UBBB 181052Z 1812/1912 34012KT CAVOK TX13/1812Z TN05/1901Z"
    },
    {
      "icao": "UDSG",
      "alert": "OK",
      "vis_m": 9999,
      "fzfg": false,
      "metar_trigger": false,
      "taf_trigger": false,
      "metar": "METAR UDSG 181230Z 29006KT 9999 FEW049 08/M02 Q1018 NOSIG",
      "taf": "TAF UDSG 181100Z 1812/1912 VRB06KT 9999 FEW050"
    },
    {
      "icao": "UDYZ",
      "alert": "OK",
      "vis_m": 9999,
      "fzfg": false,
      "metar_trigger": false,
      "taf_trigger": false,
      "metar": "METAR UDYZ 181230Z 19002KT 9999 FEW046 16/M02 Q1016 NOSIG",
      "taf": "TAF UDYZ 181100Z 1812/1912 24006KT 9999 FEW040"
    },
    {
      "icao": "UGKO",
      "alert": "OK",
      "vis_m": 9999,
      "fzfg": false,
      "metar_trigger": false,
      "taf_trigger": false,
      "metar": "METAR UGKO 181230Z 04003KT 350V130 CAVOK 20/M01 Q1015 NOSIG",
      "taf": "TAF UGKO 181100Z 1812/1912 09007KT CAVOK TX21/1911Z TN09/1818Z"
    }
  ]
}