{
  "ts_utc": "2026-06-14T18:50:24Z",
  "threshold_m": 150,
  "source": "stations_override.txt (ICAO list) + aviationweather.gov (METAR/TAF raw)",
  "station_count": 159,
  "stations": [
    {
      "icao": "BIKF",
      "alert": "OK",
      "vis_m": 9999,
      "fzfg": false,
      "metar_trigger": false,
      "taf_trigger": false,
      "metar": "METAR BIKF 141830Z 23005KT 190V260 9999 BKN018 13/08 Q1024",
      "taf": "TAF BIKF 141651Z 1418/1518 27007KT 9999 SCT020 BKN040 TX14/1418Z TN08/1504Z"
    },
    {
      "icao": "BKPR",
      "alert": "OK",
      "vis_m": 9999,
      "fzfg": false,
      "metar_trigger": false,
      "taf_trigger": false,
      "metar": "METAR BKPR 141830Z 24016KT CAVOK 24/10 Q1013 NOSIG",
      "taf": "TAF BKPR 141730Z 1418/1518 24010KT CAVOK"
    },
    {
      "icao": "EBCI",
      "alert": "OK",
      "vis_m": 9999,
      "fzfg": false,
      "metar_trigger": false,
      "taf_trigger": false,
      "metar": "METAR EBCI 141820Z 34007KT 310V010 9999 FEW040 16/08 Q1019 NOSIG",
      "taf": "TAF EBCI 141700Z 1418/1524 33008KT 9999 FEW035"
    },
    {
      "icao": "EDDB",
      "alert": "OK",
      "vis_m": 9999,
      "fzfg": false,
      "metar_trigger": false,
      "taf_trigger": false,
      "metar": "METAR EDDB 141820Z AUTO 30013KT CAVOK 16/08 Q1009 NOSIG",
      "taf": "TAF EDDB 141700Z 1418/1518 28015G25KT CAVOK"
    },
    {
      "icao": "EDDH",
      "alert": "OK",
      "vis_m": 9999,
      "fzfg": false,
      "metar_trigger": false,
      "taf_trigger": false,
      "metar": "METAR EDDH 141820Z AUTO 28012KT 250V330 9999 -SHRA SCT022 BKN039 BKN048 FEW///TCU 14/09 Q1011 TEMPO 28015G25KT 4500 SHRA BKN020TCU",
      "taf": "TAF EDDH 141700Z 1418/1524 29012G22KT 9999 BKN025"
    },
    {
      "icao": "EDDK",
      "alert": "OK",
      "vis_m": 9999,
      "fzfg": false,
      "metar_trigger": false,
      "taf_trigger": false,
      "metar": "METAR EDDK 141820Z AUTO 32012KT 290V360 9999 SCT044 17/08 Q1017 NOSIG",
      "taf": "TAF EDDK 141700Z 1418/1524 30013KT CAVOK"
    },
    {
      "icao": "EDDN",
      "alert": "OK",
      "vis_m": 9999,
      "fzfg": false,
      "metar_trigger": false,
      "taf_trigger": false,
      "metar": "METAR EDDN 141820Z AUTO 32014KT CAVOK 17/06 Q1015 NOSIG",
      "taf": "TAF EDDN 141700Z 1418/1518 30010KT 9999 SCT045"
    },
    {
      "icao": "EDDS",
      "alert": "OK",
      "vis_m": 9999,
      "fzfg": false,
      "metar_trigger": false,
      "taf_trigger": false,
      "metar": "METAR EDDS 141820Z AUTO 33010KT CAVOK 19/08 Q1015 NOSIG",
      "taf": "TAF EDDS 141700Z 1418/1518 30010KT CAVOK"
    },
    {
      "icao": "EDFH",
      "alert": "OK",
      "vis_m": 9999,
      "fzfg": false,
      "metar_trigger": false,
      "taf_trigger": false,
      "metar": "METAR EDFH 141820Z 32008KT 9999 FEW043 15/07 Q1017",
      "taf": "TAF EDFH 141700Z 1418/1518 30010KT CAVOK"
    },
    {
      "icao": "EDJA",
      "alert": "OK",
      "vis_m": 9999,
      "fzfg": false,
      "metar_trigger": false,
      "taf_trigger": false,
      "metar": "METAR EDJA 141820Z 33009KT CAVOK 18/08 Q1015",
      "taf": "TAF EDJA 141700Z 1418/1503 32010KT CAVOK"
    },
    {
      "icao": "EDLW",
      "alert": "OK",
      "vis_m": 9999,
      "fzfg": false,
      "metar_trigger": false,
      "taf_trigger": false,
      "metar": "METAR EDLW 141820Z 27006KT 220V330 9999 SCT038 16/08 Q1016",
      "taf": "TAF EDLW 141700Z 1418/1518 27007KT CAVOK"
    },
    {
      "icao": "EDNY",
      "alert": "OK",
      "vis_m": 9999,
      "fzfg": false,
      "metar_trigger": false,
      "taf_trigger": false,
      "metar": "METAR EDNY 141820Z AUTO 27003KT 200V340 9999 // BKN190/// BKN220/// 22/06 Q1015",
      "taf": "TAF EDNY 141700Z 1418/1503 26010KT CAVOK"
    },
    {
      "icao": "EDSB",
      "alert": "OK",
      "vis_m": 9999,
      "fzfg": false,
      "metar_trigger": false,
      "taf_trigger": false,
      "metar": "METAR EDSB 141820Z 35005KT CAVOK 20/08 Q1016",
      "taf": "TAF EDSB 141700Z 1418/1518 29006KT CAVOK"
    },
    {
      "icao": "EETN",
      "alert": "OK",
      "vis_m": 9999,
      "fzfg": false,
      "metar_trigger": false,
      "taf_trigger": false,
      "metar": "METAR EETN 141820Z 12005KT 9999 FEW048 14/11 Q0999 NOSIG",
      "taf": "TAF EETN 141730Z 1418/1518 10007KT 9999 SCT025"
    },
    {
      "icao": "EFTU",
      "alert": "OK",
      "vis_m": 9999,
      "fzfg": false,
      "metar_trigger": false,
      "taf_trigger": false,
      "metar": "METAR EFTU 141820Z AUTO 10009KT 9999 -SHRA NSC 13/10 Q1000",
      "taf": "TAF EFTU 141724Z 1418/1518 12007KT 9999 SCT040"
    },
    {
      "icao": "EGBB",
      "alert": "OK",
      "vis_m": 9999,
      "fzfg": false,
      "metar_trigger": false,
      "taf_trigger": false,
      "metar": "METAR EGBB 141820Z 02006KT 350V050 9999 FEW040 18/08 Q1019",
      "taf": "TAF EGBB 141655Z 1418/1518 01006KT 9999 FEW045"
    },
    {
      "icao": "EGGP",
      "alert": "OK",
      "vis_m": 9999,
      "fzfg": false,
      "metar_trigger": false,
      "taf_trigger": false,
      "metar": "METAR EGGP 141820Z 24005KT 180V260 CAVOK 16/09 Q1019",
      "taf": "TAF EGGP 141657Z 1418/1518 28005KT 9999 SCT030"
    },
    {
      "icao": "EGGW",
      "alert": "OK",
      "vis_m": 9999,
      "fzfg": false,
      "metar_trigger": false,
      "taf_trigger": false,
      "metar": "METAR EGGW 141820Z AUTO 03006KT 350V070 9999 FEW042 18/09 Q1019",
      "taf": "TAF EGGW 141657Z 1418/1518 04007KT 9999 FEW030"
    },
    {
      "icao": "EGKK",
      "alert": "OK",
      "vis_m": 9999,
      "fzfg": false,
      "metar_trigger": false,
      "taf_trigger": false,
      "metar": "METAR EGKK 141820Z 36007KT 320V030 CAVOK 20/09 Q1018",
      "taf": "TAF EGKK 141701Z 1418/1524 31010KT 9999 FEW035"
    },
    {
      "icao": "EGNM",
      "alert": "OK",
      "vis_m": 9999,
      "fzfg": false,
      "metar_trigger": false,
      "taf_trigger": false,
      "metar": "METAR EGNM 141820Z 03008KT 9999 FEW030 14/08 Q1020",
      "taf": "TAF EGNM 141658Z 1418/1518 03008KT 9999 FEW030"
    },
    {
      "icao": "EGPD",
      "alert": "OK",
      "vis_m": 9999,
      "fzfg": false,
      "metar_trigger": false,
      "taf_trigger": false,
      "metar": "METAR EGPD 141820Z COR AUTO 33015KT 9999 BKN024 OVC030 11/07 Q1021 NOSIG",
      "taf": "TAF EGPD 141655Z 1418/1518 34012KT 9999 SCT020"
    },
    {
      "icao": "EGPF",
      "alert": "OK",
      "vis_m": 9999,
      "fzfg": false,
      "metar_trigger": false,
      "taf_trigger": false,
      "metar": "METAR EGPF 141820Z AUTO 08005KT 020V110 9999 NCD 18/09 Q1020",
      "taf": "TAF EGPF 141701Z 1418/1518 08008KT 9999 SCT045"
    },
    {
      "icao": "EHBK",
      "alert": "OK",
      "vis_m": 9999,
      "fzfg": false,
      "metar_trigger": false,
      "taf_trigger": false,
      "metar": "METAR EHBK 141825Z AUTO 32007KT 280V010 9999 NSC 16/08 Q1017 NOSIG",
      "taf": "TAF EHBK 141702Z 1418/1524 30010KT CAVOK"
    },
    {
      "icao": "EHEH",
      "alert": "OK",
      "vis_m": 9999,
      "fzfg": false,
      "metar_trigger": false,
      "taf_trigger": false,
      "metar": "METAR EHEH 141825Z AUTO 29006KT 240V350 9999 BKN045 BKN052 15/08 Q1018 BLU NOSIG RMK TREND REMOTE BY EHWX",
      "taf": "TAF EHEH 141712Z 1418/1524 29008KT 9999 FEW035 BKN050"
    },
    {
      "icao": "EKBI",
      "alert": "OK",
      "vis_m": 9999,
      "fzfg": false,
      "metar_trigger": false,
      "taf_trigger": false,
      "metar": "METAR EKBI 141820Z AUTO 28013KT 9999 BKN019/// 14/10 Q1008",
      "taf": "TAF EKBI 141727Z 1418/1518 28015KT 9999 BKN025"
    },
    {
      "icao": "EKCH",
      "alert": "OK",
      "vis_m": 9999,
      "fzfg": false,
      "metar_trigger": false,
      "taf_trigger": false,
      "metar": "METAR EKCH 141820Z AUTO 30014KT 9999 SCT031/// 16/09 Q1004 TEMPO SCT020CB",
      "taf": "TAF EKCH 141727Z 1418/1518 30013KT 9999 BKN020"
    },
    {
      "icao": "ENAL",
      "alert": "OK",
      "vis_m": 9999,
      "fzfg": false,
      "metar_trigger": false,
      "taf_trigger": false,
      "metar": "METAR ENAL 141820Z 02014KT 9999 SCT013 BKN025 10/07 Q1015",
      "taf": "TAF ENAL 141700Z 1418/1503 02012KT 9999 FEW020 BKN030"
    },
    {
      "icao": "ENBR",
      "alert": "OK",
      "vis_m": 9999,
      "fzfg": false,
      "metar_trigger": false,
      "taf_trigger": false,
      "metar": "METAR ENBR 141820Z 32014KT CAVOK 14/07 Q1009 NOSIG RMK WIND 1200FT 34033KT",
      "taf": "TAF ENBR 141700Z 1418/1518 32015KT CAVOK"
    },
    {
      "icao": "ENGM",
      "alert": "OK",
      "vis_m": 9999,
      "fzfg": false,
      "metar_trigger": false,
      "taf_trigger": false,
      "metar": "METAR ENGM 141820Z 01014KT CAVOK 14/02 Q1003 NOSIG",
      "taf": "TAF ENGM 141700Z 1418/1518 34008KT 9999 SCT040"
    },
    {
      "icao": "ENHD",
      "alert": "OK",
      "vis_m": 9999,
      "fzfg": false,
      "metar_trigger": false,
      "taf_trigger": false,
      "metar": "METAR ENHD 141820Z 34024KT CAVOK 13/09 Q1008",
      "taf": ""
    },
    {
      "icao": "ENTC",
      "alert": "OK",
      "vis_m": 9999,
      "fzfg": false,
      "metar_trigger": false,
      "taf_trigger": false,
      "metar": "METAR ENTC 141820Z 03015KT CAVOK 13/06 Q1014 TEMPO 03005KT RMK WIND 2600FT 10018KT",
      "taf": "TAF ENTC 141700Z 1418/1518 03012KT 9999 FEW050"
    },
    {
      "icao": "ENTO",
      "alert": "OK",
      "vis_m": 9999,
      "fzfg": false,
      "metar_trigger": false,
      "taf_trigger": false,
      "metar": "METAR ENTO 141820Z 26004KT 220V290 9999 FEW020 14/12 Q1003 NOSIG",
      "taf": "TAF ENTO 141700Z 1418/1518 34008KT 9999 SCT040"
    },
    {
      "icao": "ENVA",
      "alert": "OK",
      "vis_m": 9999,
      "fzfg": false,
      "metar_trigger": false,
      "taf_trigger": false,
      "metar": "METAR ENVA 141820Z 30012KT 9999 SCT033 BKN039 11/06 Q1011 RMK WIND 670FT 31022KT",
      "taf": "TAF ENVA 141700Z 1418/1518 29015KT 9999 BKN035"
    },
    {
      "icao": "ENZV",
      "alert": "OK",
      "vis_m": 9999,
      "fzfg": false,
      "metar_trigger": false,
      "taf_trigger": false,
      "metar": "METAR ENZV 141820Z 32017KT CAVOK 15/10 Q1007 NOSIG",
      "taf": "TAF ENZV 141700Z 1418/1518 32015KT CAVOK"
    },
    {
      "icao": "EPGD",
      "alert": "OK",
      "vis_m": 9999,
      "fzfg": false,
      "metar_trigger": false,
      "taf_trigger": false,
      "metar": "METAR EPGD 141830Z 26012KT 9999 FEW027 BKN040 14/09 Q1001",
      "taf": "TAF EPGD 141730Z 1418/1518 26015KT 9999 SCT030"
    },
    {
      "icao": "EPKK",
      "alert": "OK",
      "vis_m": 9999,
      "fzfg": false,
      "metar_trigger": false,
      "taf_trigger": false,
      "metar": "METAR EPKK 141830Z 29008KT 9999 FEW058 12/08 Q1009",
      "taf": "TAF EPKK 141730Z 1418/1518 25010KT 9999 BKN050"
    },
    {
      "icao": "EPKT",
      "alert": "OK",
      "vis_m": 9999,
      "fzfg": false,
      "metar_trigger": false,
      "taf_trigger": false,
      "metar": "METAR EPKT 141830Z 26006KT 9999 FEW030CB 11/09 Q1010 RESHRA",
      "taf": "TAF EPKT 141730Z 1418/1518 27012KT 9999 SCT040"
    },
    {
      "icao": "EPLB",
      "alert": "OK",
      "vis_m": 9999,
      "fzfg": false,
      "metar_trigger": false,
      "taf_trigger": false,
      "metar": "METAR EPLB 141830Z COR 24009KT 9999 FEW045CB 12/09 Q1007",
      "taf": "TAF EPLB 141730Z 1418/1518 27010KT 9999 SCT030"
    },
    {
      "icao": "EPMO",
      "alert": "OK",
      "vis_m": 9999,
      "fzfg": false,
      "metar_trigger": false,
      "taf_trigger": false,
      "metar": "METAR EPMO 141830Z 22007KT CAVOK 12/10 Q1005",
      "taf": "TAF EPMO 141730Z 1418/1518 25010KT 9999 SCT040"
    },
    {
      "icao": "EPPO",
      "alert": "OK",
      "vis_m": 9999,
      "fzfg": false,
      "metar_trigger": false,
      "taf_trigger": false,
      "metar": "METAR EPPO 141830Z 26011KT 9999 FEW043CB 13/11 Q1006",
      "taf": "TAF EPPO 141730Z 1418/1518 27012KT 9999 SCT025"
    },
    {
      "icao": "EPRA",
      "alert": "OK",
      "vis_m": 9999,
      "fzfg": false,
      "metar_trigger": false,
      "taf_trigger": false,
      "metar": "METAR EPRA 141830Z 27013KT 9999 FEW040 13/08 Q1006",
      "taf": "TAF EPRA 141730Z 1418/1503 25012KT 9999 SCT040"
    },
    {
      "icao": "EPRZ",
      "alert": "OK",
      "vis_m": 9999,
      "fzfg": false,
      "metar_trigger": false,
      "taf_trigger": false,
      "metar": "METAR EPRZ 141830Z 26009KT 9999 BKN030CB 14/09 Q1008",
      "taf": "TAF EPRZ 141730Z 1418/1518 27012KT 9999 SCT040"
    },
    {
      "icao": "EPSC",
      "alert": "OK",
      "vis_m": 9999,
      "fzfg": false,
      "metar_trigger": false,
      "taf_trigger": false,
      "metar": "METAR EPSC 141830Z 26010KT 9999 FEW024 BKN034TCU 13/12 Q1005",
      "taf": "TAF EPSC 141730Z 1418/1518 26012KT 9999 BKN035"
    },
    {
      "icao": "EPSY",
      "alert": "OK",
      "vis_m": 9999,
      "fzfg": false,
      "metar_trigger": false,
      "taf_trigger": false,
      "metar": "METAR EPSY 141830Z 24007KT 9999 SCT028 13/09 Q1003",
      "taf": "TAF EPSY 141730Z 1418/1503 25008KT 9999 SCT040"
    },
    {
      "icao": "EPWA",
      "alert": "OK",
      "vis_m": 9999,
      "fzfg": false,
      "metar_trigger": false,
      "taf_trigger": false,
      "metar": "METAR EPWA 141830Z 23005KT 9999 FEW040CB 12/10 Q1005 NOSIG",
      "taf": "TAF EPWA 141730Z 1418/1518 25010KT 9999 BKN030"
    },
    {
      "icao": "EPWR",
      "alert": "OK",
      "vis_m": 9999,
      "fzfg": false,
      "metar_trigger": false,
      "taf_trigger": false,
      "metar": "METAR EPWR 141830Z 26008KT 9999 -SHRA FEW030CB BKN045 14/10 Q1009",
      "taf": "TAF EPWR 141730Z 1418/1518 27013KT 9999 SCT040"
    },
    {
      "icao": "ESGG",
      "alert": "OK",
      "vis_m": 9999,
      "fzfg": false,
      "metar_trigger": false,
      "taf_trigger": false,
      "metar": "METAR ESGG 141820Z 28007KT CAVOK 12/10 Q1002",
      "taf": "TAF ESGG 141730Z 1418/1518 32005KT CAVOK"
    },
    {
      "icao": "ESKN",
      "alert": "OK",
      "vis_m": 4100,
      "fzfg": false,
      "metar_trigger": false,
      "taf_trigger": false,
      "metar": "METAR ESKN 141820Z 28005KT 240V310 4100 RA FEW003 SCT011 BKN015 11/10 Q0996",
      "taf": "TAF ESKN 141730Z 1418/1518 27008KT 9999 -RA FEW025 BKN040"
    },
    {
      "icao": "ESMS",
      "alert": "OK",
      "vis_m": 9999,
      "fzfg": false,
      "metar_trigger": false,
      "taf_trigger": false,
      "metar": "METAR ESMS 141820Z 31013KT 9999 SCT024 15/10 Q1003",
      "taf": "TAF ESMS 141727Z 1418/1518 31008KT 9999 BKN020"
    },
    {
      "icao": "ESSA",
      "alert": "OK",
      "vis_m": 9999,
      "fzfg": false,
      "metar_trigger": false,
      "taf_trigger": false,
      "metar": "METAR ESSA 141820Z 14007KT 9999 SCT028 BKN057 12/07 Q0996 TEMPO 4000 SHRA BKN025CB",
      "taf": "TAF ESSA 141730Z 1418/1518 22010KT 9999 -RA SCT014 BKN045"
    },
    {
      "icao": "EYKA",
      "alert": "OK",
      "vis_m": 9999,
      "fzfg": false,
      "metar_trigger": false,
      "taf_trigger": false,
      "metar": "METAR EYKA 141820Z 22005KT 190V250 9999 -SHRA FEW036CB 11/10 Q1001",
      "taf": "TAF EYKA 141710Z 1418/1518 VRB03KT 9000 BKN025"
    },
    {
      "icao": "EYPA",
      "alert": "OK",
      "vis_m": 9999,
      "fzfg": false,
      "metar_trigger": false,
      "taf_trigger": false,
      "metar": "METAR EYPA 141820Z 25003KT 200V340 9999 SCT014CB SCT045 13/11 Q0999",
      "taf": "TAF EYPA 141710Z 1418/1518 VRB03KT 9000 BKN025"
    },
    {
      "icao": "EYVI",
      "alert": "OK",
      "vis_m": 9999,
      "fzfg": false,
      "metar_trigger": false,
      "taf_trigger": false,
      "metar": "METAR EYVI 141820Z 17005KT 9999 BKN054CB 11/10 Q1002 NOSIG",
      "taf": "TAF EYVI 141712Z 1418/1518 VRB03KT 9000 BKN025"
    },
    {
      "icao": "GCFV",
      "alert": "OK",
      "vis_m": 9999,
      "fzfg": false,
      "metar_trigger": false,
      "taf_trigger": false,
      "metar": "METAR GCFV 141830Z 01015KT 9999 FEW020 24/16 Q1018",
      "taf": "TAF GCFV 141400Z 1415/1515 02014KT 9999 FEW020 TX24/1514Z TN19/1506Z"
    },
    {
      "icao": "GCLP",
      "alert": "OK",
      "vis_m": 9999,
      "fzfg": false,
      "metar_trigger": false,
      "taf_trigger": false,
      "metar": "METAR GCLP 141830Z 01026KT 9999 FEW030 23/16 Q1018 NOSIG",
      "taf": "TAF GCLP 141400Z 1415/1515 01023KT 9999 FEW030 TX24/1514Z TN18/1506Z"
    },
    {
      "icao": "GCTS",
      "alert": "OK",
      "vis_m": 9999,
      "fzfg": false,
      "metar_trigger": false,
      "taf_trigger": false,
      "metar": "METAR GCTS 141830Z 08021KT 9999 FEW025 22/16 Q1019 WS R07 NOSIG",
      "taf": "TAF GCTS 141400Z 1415/1515 10020KT 9999 FEW020 TX25/1514Z TN18/1506Z"
    },
    {
      "icao": "GMAD",
      "alert": "OK",
      "vis_m": 8000,
      "fzfg": false,
      "metar_trigger": false,
      "taf_trigger": false,
      "metar": "METAR GMAD 141830Z 19016KT 8000 NSC 22/16 Q1014 NOSIG",
      "taf": "TAF GMAD 141700Z 1418/1524 19014KT 8000 NSC"
    },
    {
      "icao": "GMMN",
      "alert": "OK",
      "vis_m": 9999,
      "fzfg": false,
      "metar_trigger": false,
      "taf_trigger": false,
      "metar": "METAR GMMN 141830Z 32009KT 290V360 9999 FEW016 23/17 Q1018 NOSIG",
      "taf": "TAF GMMN 141700Z 1418/1524 32010KT CAVOK"
    },
    {
      "icao": "GMMX",
      "alert": "OK",
      "vis_m": 9999,
      "fzfg": false,
      "metar_trigger": false,
      "taf_trigger": false,
      "metar": "METAR GMMX 141830Z 33007KT 290V360 9999 FEW033 33/10 Q1016 NOSIG",
      "taf": "TAF GMMX 141700Z 1418/1524 06006KT 8000 NSC"
    },
    {
      "icao": "HEGN",
      "alert": "OK",
      "vis_m": 9999,
      "fzfg": false,
      "metar_trigger": false,
      "taf_trigger": false,
      "metar": "METAR HEGN 141800Z 32006KT CAVOK 36/06 Q1007 NOSIG",
      "taf": "TAF HEGN 141700Z 1418/1524 31014KT CAVOK"
    },
    {
      "icao": "HEMA",
      "alert": "OK",
      "vis_m": 9999,
      "fzfg": false,
      "metar_trigger": false,
      "taf_trigger": false,
      "metar": "METAR HEMA 141800Z 29004KT CAVOK 33/07 Q1007 NOSIG",
      "taf": "TAF HEMA 141700Z 1418/1524 30014KT CAVOK"
    },
    {
      "icao": "HESH",
      "alert": "OK",
      "vis_m": 9999,
      "fzfg": false,
      "metar_trigger": false,
      "taf_trigger": false,
      "metar": "METAR HESH 141800Z 18006KT CAVOK 32/16 Q1006 NOSIG",
      "taf": "TAF HESH 141700Z 1418/1524 35012KT CAVOK"
    },
    {
      "icao": "HESX",
      "alert": "OK",
      "vis_m": 9999,
      "fzfg": false,
      "metar_trigger": false,
      "taf_trigger": false,
      "metar": "METAR HESX 141800Z 35010KT CAVOK 25/14 Q1012 NOSIG",
      "taf": "TAF HESX 141700Z 1418/1524 35010KT CAVOK"
    },
    {
      "icao": "LATI",
      "alert": "OK",
      "vis_m": null,
      "fzfg": false,
      "metar_trigger": false,
      "taf_trigger": false,
      "metar": "",
      "taf": "TAF LATI 141700Z 1418/1518 VRB05KT CAVOK TX32/1512Z TN15/1504Z"
    },
    {
      "icao": "LBPD",
      "alert": "OK",
      "vis_m": 9999,
      "fzfg": false,
      "metar_trigger": false,
      "taf_trigger": false,
      "metar": "METAR LBPD 141830Z AUTO 15005KT 100V210 9999 NCD 23/10 Q1011 NOSIG",
      "taf": "TAF LBPD 141700Z 1418/1518 28013KT 9999 SCT070"
    },
    {
      "icao": "LBSF",
      "alert": "OK",
      "vis_m": 9999,
      "fzfg": false,
      "metar_trigger": false,
      "taf_trigger": false,
      "metar": "METAR LBSF 141830Z AUTO 19005KT 170V230 9999 NCD 22/11 Q1013 NOSIG",
      "taf": "TAF LBSF 141700Z 1418/1518 10010KT 9999 SCT060"
    },
    {
      "icao": "LBWN",
      "alert": "OK",
      "vis_m": 9999,
      "fzfg": false,
      "metar_trigger": false,
      "taf_trigger": false,
      "metar": "METAR LBWN 141830Z AUTO 14004KT 9999 NCD 21/16 Q1011 NOSIG",
      "taf": "TAF LBWN 141700Z 1418/1518 VRB03KT CAVOK"
    },
    {
      "icao": "LCLK",
      "alert": "OK",
      "vis_m": 9999,
      "fzfg": false,
      "metar_trigger": false,
      "taf_trigger": false,
      "metar": "METAR LCLK 141830Z 22009KT CAVOK 24/21 Q1009 NOSIG",
      "taf": "TAF LCLK 141730Z 1418/1518 21010KT 9999 FEW020"
    },
    {
      "icao": "LCPH",
      "alert": "OK",
      "vis_m": 9999,
      "fzfg": false,
      "metar_trigger": false,
      "taf_trigger": false,
      "metar": "METAR LCPH 141830Z 32009KT 9999 FEW020 24/20 Q1009 NOSIG",
      "taf": "TAF LCPH 141730Z 1418/1518 33010KT 9999 SCT017"
    },
    {
      "icao": "LEAL",
      "alert": "OK",
      "vis_m": 9999,
      "fzfg": false,
      "metar_trigger": false,
      "taf_trigger": false,
      "metar": "METAR LEAL 141830Z 13004KT 090V190 9999 FEW018 25/20 Q1013 NOSIG",
      "taf": "TAF LEAL 141700Z 1418/1518 14010KT CAVOK TX30/1512Z TN21/1506Z"
    },
    {
      "icao": "LEBB",
      "alert": "OK",
      "vis_m": 9999,
      "fzfg": false,
      "metar_trigger": false,
      "taf_trigger": false,
      "metar": "METAR LEBB 141830Z 30004KT 270V330 CAVOK 27/15 Q1014 NOSIG",
      "taf": "TAF LEBB 141700Z 1418/1518 29009KT CAVOK TX28/1418Z TN18/1505Z"
    },
    {
      "icao": "LEBL",
      "alert": "OK",
      "vis_m": 9999,
      "fzfg": false,
      "metar_trigger": false,
      "taf_trigger": false,
      "metar": "METAR LEBL 141830Z 29002KT 9999 FEW040 27/13 Q1013 NOSIG",
      "taf": "TAF LEBL 141700Z 1418/1518 12008KT 9999 FEW025 TX29/1512Z TN21/1506Z"
    },
    {
      "icao": "LECH",
      "alert": "OK",
      "vis_m": 9999,
      "fzfg": false,
      "metar_trigger": false,
      "taf_trigger": false,
      "metar": "METAR LECH 141830Z AUTO 12006KT CAVOK 26/09 Q1014",
      "taf": "TAF LECH 141700Z 1418/1518 15010KT CAVOK TX32/1513Z TN16/1506Z"
    },
    {
      "icao": "LEMD",
      "alert": "OK",
      "vis_m": 8000,
      "fzfg": false,
      "metar_trigger": false,
      "taf_trigger": false,
      "metar": "METAR LEMD 141830Z 20009KT 130V250 8000 TSRA FEW055 SCT100CB 26/12 Q1013 WS R32L WS R32R NOSIG",
      "taf": "TAF LEMD 141700Z 1418/1524 VRB04KT 9999 FEW080 TX32/1516Z TN16/1505Z"
    },
    {
      "icao": "LEMG",
      "alert": "OK",
      "vis_m": 9999,
      "fzfg": false,
      "metar_trigger": false,
      "taf_trigger": false,
      "metar": "METAR LEMG 141830Z 02006KT 290V100 CAVOK 27/17 Q1013 NOSIG",
      "taf": "TAF LEMG 141700Z 1418/1518 13010KT 9999 FEW040 TX35/1513Z TN21/1505Z"
    },
    {
      "icao": "LEVC",
      "alert": "OK",
      "vis_m": 9999,
      "fzfg": false,
      "metar_trigger": false,
      "taf_trigger": false,
      "metar": "METAR LEVC 141830Z 07006KT 030V090 CAVOK 27/11 Q1013 NOSIG",
      "taf": "TAF LEVC 141700Z 1418/1518 12010KT CAVOK TX32/1512Z TN19/1506Z"
    },
    {
      "icao": "LEXJ",
      "alert": "OK",
      "vis_m": 9999,
      "fzfg": false,
      "metar_trigger": false,
      "taf_trigger": false,
      "metar": "METAR LEXJ 141830Z 00000KT 9999 FEW080CB 26/17 Q1013",
      "taf": "TAF LEXJ 141400Z 1415/1515 29009KT CAVOK TX30/1415Z TN17/1506Z"
    },
    {
      "icao": "LEZG",
      "alert": "OK",
      "vis_m": 9999,
      "fzfg": false,
      "metar_trigger": false,
      "taf_trigger": false,
      "metar": "METAR LEZG 141830Z 32005KT CAVOK 32/05 Q1012 NOSIG",
      "taf": "TAF LEZG 141700Z 1418/1518 09005KT CAVOK TX37/1515Z TN21/1506Z"
    },
    {
      "icao": "LEZL",
      "alert": "OK",
      "vis_m": 9999,
      "fzfg": false,
      "metar_trigger": false,
      "taf_trigger": false,
      "metar": "METAR LEZL 141830Z 22013KT 190V250 CAVOK 26/17 Q1015 NOSIG",
      "taf": "TAF LEZL 141400Z 1415/1515 22009KT CAVOK TX35/1515Z TN18/1506Z"
    },
    {
      "icao": "LFBD",
      "alert": "OK",
      "vis_m": 9999,
      "fzfg": false,
      "metar_trigger": false,
      "taf_trigger": false,
      "metar": "METAR LFBD 141830Z AUTO 11010KT CAVOK 32/06 Q1013 NOSIG",
      "taf": "TAF LFBD 141700Z 1418/1524 10008KT CAVOK TX35/1514Z TN21/1504Z"
    },
    {
      "icao": "LFLL",
      "alert": "OK",
      "vis_m": 9999,
      "fzfg": false,
      "metar_trigger": false,
      "taf_trigger": false,
      "metar": "METAR LFLL 141830Z 02007KT CAVOK 26/11 Q1015 NOSIG",
      "taf": "TAF LFLL 141700Z 1418/1524 36010KT CAVOK"
    },
    {
      "icao": "LFLS",
      "alert": "OK",
      "vis_m": 9999,
      "fzfg": false,
      "metar_trigger": false,
      "taf_trigger": false,
      "metar": "METAR LFLS 141830Z AUTO 36012KT CAVOK 25/08 Q1015 BECMG 09005KT",
      "taf": "TAF LFLS 141400Z 1415/1515 36012KT CAVOK"
    },
    {
      "icao": "LFMN",
      "alert": "OK",
      "vis_m": 9999,
      "fzfg": false,
      "metar_trigger": false,
      "taf_trigger": false,
      "metar": "METAR LFMN 141830Z 11004KT 9999 FEW017 BKN020 21/17 Q1013 NOSIG",
      "taf": "TAF LFMN 141400Z 1415/1521 11008KT 9999 SCT020"
    },
    {
      "icao": "LFOB",
      "alert": "OK",
      "vis_m": 9999,
      "fzfg": false,
      "metar_trigger": false,
      "taf_trigger": false,
      "metar": "METAR LFOB 141830Z AUTO 01009KT CAVOK 19/11 Q1018 NOSIG",
      "taf": "TAF LFOB 141700Z 1418/1518 35008KT CAVOK"
    },
    {
      "icao": "LFPO",
      "alert": "OK",
      "vis_m": 9999,
      "fzfg": false,
      "metar_trigger": false,
      "taf_trigger": false,
      "metar": "METAR LFPO 141830Z AUTO 34007KT CAVOK 25/08 Q1017 NOSIG",
      "taf": "TAF LFPO 141700Z 1418/1524 34006KT CAVOK"
    },
    {
      "icao": "LFSB",
      "alert": "OK",
      "vis_m": 9999,
      "fzfg": false,
      "metar_trigger": false,
      "taf_trigger": false,
      "metar": "METAR LFSB 141830Z AUTO 27008KT CAVOK 23/06 Q1015 NOSIG",
      "taf": ""
    },
    {
      "icao": "LGAV",
      "alert": "OK",
      "vis_m": 9999,
      "fzfg": false,
      "metar_trigger": false,
      "taf_trigger": false,
      "metar": "METAR LGAV 141820Z 23005KT CAVOK 22/15 Q1014 NOSIG",
      "taf": "TAF LGAV 141700Z 1418/1518 VRB05KT 9999 FEW020"
    },
    {
      "icao": "LGTS",
      "alert": "OK",
      "vis_m": 9999,
      "fzfg": false,
      "metar_trigger": false,
      "taf_trigger": false,
      "metar": "METAR LGTS 141820Z 17011KT 9999 FEW025 25/14 Q1012 NOSIG",
      "taf": "TAF LGTS 141700Z 1418/1518 VRB03KT CAVOK"
    },
    {
      "icao": "LHBP",
      "alert": "OK",
      "vis_m": 9999,
      "fzfg": false,
      "metar_trigger": false,
      "taf_trigger": false,
      "metar": "METAR LHBP 141830Z 33010KT CAVOK 20/06 Q1011 NOSIG",
      "taf": "TAF LHBP 141715Z 1418/1518 32012KT CAVOK"
    },
    {
      "icao": "LHDC",
      "alert": "OK",
      "vis_m": 9999,
      "fzfg": false,
      "metar_trigger": false,
      "taf_trigger": false,
      "metar": "METAR LHDC 141815Z AUTO 26008KT CAVOK 21/11 Q1009 NOSIG",
      "taf": ""
    },
    {
      "icao": "LIBD",
      "alert": "OK",
      "vis_m": 9999,
      "fzfg": false,
      "metar_trigger": false,
      "taf_trigger": false,
      "metar": "METAR LIBD 141820Z 23010KT CAVOK 29/10 Q1011",
      "taf": "TAF LIBD 141700Z 1418/1518 12012KT CAVOK"
    },
    {
      "icao": "LIBG",
      "alert": "OK",
      "vis_m": 9999,
      "fzfg": false,
      "metar_trigger": false,
      "taf_trigger": false,
      "metar": "METAR LIBG 141820Z AUTO 19004KT 9999 NCD 25/14 Q1013",
      "taf": "TAF LIBG 141700Z 1418/1518 VRB05KT CAVOK"
    },
    {
      "icao": "LIBP",
      "alert": "OK",
      "vis_m": 9999,
      "fzfg": false,
      "metar_trigger": false,
      "taf_trigger": false,
      "metar": "METAR LIBP 141820Z AUTO VRB01KT 9999 NCD 29/09 Q1010",
      "taf": "TAF LIBP 141700Z 1418/1518 VRB05KT CAVOK"
    },
    {
      "icao": "LIBR",
      "alert": "OK",
      "vis_m": 9999,
      "fzfg": false,
      "metar_trigger": false,
      "taf_trigger": false,
      "metar": "METAR LIBR 141820Z 19010KT CAVOK 27/11 Q1012",
      "taf": "TAF LIBR 141700Z 1418/1518 12010KT CAVOK"
    },
    {
      "icao": "LICA",
      "alert": "OK",
      "vis_m": 9999,
      "fzfg": false,
      "metar_trigger": false,
      "taf_trigger": false,
      "metar": "METAR LICA 141820Z AUTO 22004KT 9999 NCD 23/19 Q1014",
      "taf": "TAF LICA 141700Z 1418/1518 25010KT CAVOK"
    },
    {
      "icao": "LICC",
      "alert": "OK",
      "vis_m": 9999,
      "fzfg": false,
      "metar_trigger": false,
      "taf_trigger": false,
      "metar": "METAR LICC 141820Z 04008KT CAVOK 26/17 Q1014",
      "taf": "TAF LICC 141700Z 1418/1518 08010KT CAVOK"
    },
    {
      "icao": "LICJ",
      "alert": "OK",
      "vis_m": 9999,
      "fzfg": false,
      "metar_trigger": false,
      "taf_trigger": false,
      "metar": "METAR LICJ 141820Z 04006KT CAVOK 25/20 Q1014",
      "taf": "TAF LICJ 141700Z 1418/1518 VRB05KT CAVOK"
    },
    {
      "icao": "LIMC",
      "alert": "OK",
      "vis_m": 9999,
      "fzfg": false,
      "metar_trigger": false,
      "taf_trigger": false,
      "metar": "METAR LIMC 141820Z 22007KT 190V260 CAVOK 27/17 Q1010 NOSIG",
      "taf": "TAF LIMC 141700Z 1418/1524 22010KT CAVOK"
    },
    {
      "icao": "LIME",
      "alert": "OK",
      "vis_m": 9999,
      "fzfg": false,
      "metar_trigger": false,
      "taf_trigger": false,
      "metar": "METAR LIME 141820Z 27014KT CAVOK 28/15 Q1009 NOSIG",
      "taf": "TAF LIME 141700Z 1418/1518 26010KT CAVOK"
    },
    {
      "icao": "LIMF",
      "alert": "OK",
      "vis_m": 9999,
      "fzfg": false,
      "metar_trigger": false,
      "taf_trigger": false,
      "metar": "METAR LIMF 141820Z 14005KT CAVOK 28/19 Q1010",
      "taf": "TAF LIMF 141700Z 1418/1518 VRB05KT CAVOK"
    },
    {
      "icao": "LIMJ",
      "alert": "OK",
      "vis_m": 9999,
      "fzfg": false,
      "metar_trigger": false,
      "taf_trigger": false,
      "metar": "METAR LIMJ 141820Z VRB02KT 9999 FEW025 22/18 Q1013",
      "taf": "TAF LIMJ 141700Z 1418/1518 17011KT CAVOK"
    },
    {
      "icao": "LIPE",
      "alert": "OK",
      "vis_m": 9999,
      "fzfg": false,
      "metar_trigger": false,
      "taf_trigger": false,
      "metar": "METAR LIPE 141820Z 19005KT CAVOK 29/10 Q1008",
      "taf": "TAF LIPE 141700Z 1418/1518 23010KT CAVOK"
    },
    {
      "icao": "LIPH",
      "alert": "OK",
      "vis_m": 9999,
      "fzfg": false,
      "metar_trigger": false,
      "taf_trigger": false,
      "metar": "METAR LIPH 141820Z 13007KT CAVOK 25/19 Q1008",
      "taf": "TAF LIPH 141700Z 1418/1518 14008KT 9999 FEW030"
    },
    {
      "icao": "LIPQ",
      "alert": "OK",
      "vis_m": 9999,
      "fzfg": false,
      "metar_trigger": false,
      "taf_trigger": false,
      "metar": "METAR LIPQ 141820Z 17005KT CAVOK 24/19 Q1009",
      "taf": "TAF LIPQ 141700Z 1418/1518 VRB05KT 9999 FEW060"
    },
    {
      "icao": "LIPR",
      "alert": "OK",
      "vis_m": 9999,
      "fzfg": false,
      "metar_trigger": false,
      "taf_trigger": false,
      "metar": "METAR LIPR 141820Z 25007KT CAVOK 29/12 Q1009",
      "taf": "TAF LIPR 141700Z 1418/1518 24012KT CAVOK"
    },
    {
      "icao": "LIPX",
      "alert": "OK",
      "vis_m": 9999,
      "fzfg": false,
      "metar_trigger": false,
      "taf_trigger": false,
      "metar": "METAR LIPX 141820Z 24006KT CAVOK 29/17 Q1008",
      "taf": "TAF LIPX 141700Z 1418/1518 26012KT CAVOK"
    },
    {
      "icao": "LIPY",
      "alert": "OK",
      "vis_m": 9999,
      "fzfg": false,
      "metar_trigger": false,
      "taf_trigger": false,
      "metar": "METAR LIPY 141820Z AUTO 22010KT 9999 NCD 29/08 Q1010",
      "taf": "TAF LIPY 141700Z 1418/1518 25013KT CAVOK"
    },
    {
      "icao": "LIPZ",
      "alert": "OK",
      "vis_m": 9999,
      "fzfg": false,
      "metar_trigger": false,
      "taf_trigger": false,
      "metar": "METAR LIPZ 141820Z 13008KT CAVOK 24/19 Q1009 NOSIG",
      "taf": "TAF LIPZ 141700Z 1418/1524 15010KT 9999 FEW020"
    },
    {
      "icao": "LIRF",
      "alert": "OK",
      "vis_m": 9999,
      "fzfg": false,
      "metar_trigger": false,
      "taf_trigger": false,
      "metar": "METAR LIRF 141820Z 20007KT CAVOK 25/14 Q1013 NOSIG",
      "taf": "TAF LIRF 141700Z 1418/1524 17010KT CAVOK"
    },
    {
      "icao": "LIRN",
      "alert": "OK",
      "vis_m": 9999,
      "fzfg": false,
      "metar_trigger": false,
      "taf_trigger": false,
      "metar": "METAR LIRN 141820Z 20005KT 160V230 CAVOK 24/19 Q1015 NOSIG",
      "taf": "TAF LIRN 141700Z 1418/1518 20010KT CAVOK"
    },
    {
      "icao": "LIRP",
      "alert": "OK",
      "vis_m": 9999,
      "fzfg": false,
      "metar_trigger": false,
      "taf_trigger": false,
      "metar": "METAR LIRP 141815Z 28008KT CAVOK 25/10 Q1013 NOSIG",
      "taf": "TAF LIRP 141700Z 1418/1518 29012KT CAVOK"
    },
    {
      "icao": "LIRZ",
      "alert": "OK",
      "vis_m": 9999,
      "fzfg": false,
      "metar_trigger": false,
      "taf_trigger": false,
      "metar": "METAR LIRZ 141820Z AUTO 22010KT 9999 NCD 26/09 Q1013",
      "taf": "TAF LIRZ 141700Z 1418/1518 22012KT CAVOK"
    },
    {
      "icao": "LJLJ",
      "alert": "OK",
      "vis_m": 9999,
      "fzfg": false,
      "metar_trigger": false,
      "taf_trigger": false,
      "metar": "METAR LJLJ 141830Z 14004KT 050V180 9999 FEW050 23/15 Q1010 NOSIG",
      "taf": "TAF LJLJ 141700Z 1418/1518 26005KT 9999 FEW050"
    },
    {
      "icao": "LKMT",
      "alert": "OK",
      "vis_m": 9999,
      "fzfg": false,
      "metar_trigger": false,
      "taf_trigger": false,
      "metar": "METAR LKMT 141830Z 26009KT CAVOK 16/07 Q1011 NOSIG",
      "taf": "TAF LKMT 141700Z 1418/1518 24008KT CAVOK"
    },
    {
      "icao": "LKPR",
      "alert": "OK",
      "vis_m": 9999,
      "fzfg": false,
      "metar_trigger": false,
      "taf_trigger": false,
      "metar": "METAR LKPR 141830Z 28014KT 9999 FEW043TCU 15/06 Q1012 NOSIG",
      "taf": "TAF LKPR 141700Z 1418/1524 27010KT CAVOK"
    },
    {
      "icao": "LLBG",
      "alert": "OK",
      "vis_m": 9999,
      "fzfg": false,
      "metar_trigger": false,
      "taf_trigger": false,
      "metar": "METAR LLBG 141820Z 30006KT 9999 SCT025 24/19 Q1011 NOSIG",
      "taf": "TAF LLBG 141701Z 1418/1518 32006KT 9999 SCT025 TX29/1511Z TN21/1503Z"
    },
    {
      "icao": "LMML",
      "alert": "OK",
      "vis_m": 9999,
      "fzfg": false,
      "metar_trigger": false,
      "taf_trigger": false,
      "metar": "METAR LMML 141845Z 19005KT 150V230 CAVOK 22/20 Q1016 NOSIG",
      "taf": "TAF LMML 141700Z 1418/1518 22008KT 9999 FEW015"
    },
    {
      "icao": "LOWW",
      "alert": "OK",
      "vis_m": 9999,
      "fzfg": false,
      "metar_trigger": false,
      "taf_trigger": false,
      "metar": "METAR LOWW 141820Z 33007KT CAVOK 19/06 Q1012 NOSIG",
      "taf": "TAF LOWW 141715Z 1418/1524 29015KT 9999 FEW050 TX22/1514Z TN14/1503Z"
    },
    {
      "icao": "LPFR",
      "alert": "OK",
      "vis_m": 9999,
      "fzfg": false,
      "metar_trigger": false,
      "taf_trigger": false,
      "metar": "METAR LPFR 141830Z 25009KT 9999 FEW020 21/19 Q1015",
      "taf": "TAF LPFR 141700Z 1418/1518 21010KT 9999 SCT020"
    },
    {
      "icao": "LPMA",
      "alert": "OK",
      "vis_m": 9999,
      "fzfg": false,
      "metar_trigger": false,
      "taf_trigger": false,
      "metar": "METAR LPMA 141830Z VRB06KT 9999 FEW016 23/13 Q1021",
      "taf": "TAF LPMA 141700Z 1418/1518 34012KT 9999 FEW015"
    },
    {
      "icao": "LPPR",
      "alert": "OK",
      "vis_m": 8000,
      "fzfg": false,
      "metar_trigger": false,
      "taf_trigger": false,
      "metar": "METAR LPPR 141830Z 33007KT 8000 OVC004 19/17 Q1016",
      "taf": "TAF LPPR 141700Z 1418/1518 28005KT 0400 FG VV001"
    },
    {
      "icao": "LPPS",
      "alert": "OK",
      "vis_m": 9999,
      "fzfg": false,
      "metar_trigger": false,
      "taf_trigger": false,
      "metar": "METAR LPPS 141830Z 33012KT 9999 SCT014 21/16 Q1022",
      "taf": "TAF LPPS 141700Z 1418/1524 36012KT 9999 FEW015 BKN030"
    },
    {
      "icao": "LPPT",
      "alert": "OK",
      "vis_m": 9999,
      "fzfg": false,
      "metar_trigger": false,
      "taf_trigger": false,
      "metar": "METAR LPPT 141830Z 31012KT 9999 FEW016 20/15 Q1016",
      "taf": "TAF LPPT 141700Z 1418/1524 30010KT CAVOK"
    },
    {
      "icao": "LQBK",
      "alert": "OK",
      "vis_m": 9999,
      "fzfg": false,
      "metar_trigger": false,
      "taf_trigger": false,
      "metar": "METAR LQBK 141830Z 18004KT 150V230 CAVOK 25/10 Q1010 NOSIG",
      "taf": "TAF LQBK 141700Z 1418/1518 28006KT CAVOK TX27/1418Z TN15/1503Z"
    },
    {
      "icao": "LQSA",
      "alert": "OK",
      "vis_m": 9999,
      "fzfg": false,
      "metar_trigger": false,
      "taf_trigger": false,
      "metar": "METAR LQSA 141830Z 32005KT 280V360 CAVOK 23/09 Q1012 NOSIG",
      "taf": "TAF LQSA 141700Z 1418/1518 VRB02KT CAVOK TX26/1512Z TN13/1503Z"
    },
    {
      "icao": "LQTZ",
      "alert": "OK",
      "vis_m": 9999,
      "fzfg": false,
      "metar_trigger": false,
      "taf_trigger": false,
      "metar": "METAR LQTZ 141830Z 31008KT CAVOK 26/12 Q1010",
      "taf": "TAF LQTZ 141700Z 1418/1518 03005KT 9999 SCT040 TX26/1418Z TN15/1503Z"
    },
    {
      "icao": "LRBC",
      "alert": "OK",
      "vis_m": 9999,
      "fzfg": false,
      "metar_trigger": false,
      "taf_trigger": false,
      "metar": "METAR LRBC 141830Z 25006KT CAVOK 19/13 Q1009",
      "taf": ""
    },
    {
      "icao": "LRBS",
      "alert": "OK",
      "vis_m": 9999,
      "fzfg": false,
      "metar_trigger": false,
      "taf_trigger": false,
      "metar": "METAR LRBS 141830Z 06008KT CAVOK 20/14 Q1010 NOSIG",
      "taf": "TAF LRBS 141700Z 1418/1518 27006KT CAVOK"
    },
    {
      "icao": "LRBV",
      "alert": "OK",
      "vis_m": 9999,
      "fzfg": false,
      "metar_trigger": false,
      "taf_trigger": false,
      "metar": "METAR LRBV 141830Z 05004KT 9999 SCT087 15/14 Q1012",
      "taf": ""
    },
    {
      "icao": "LRCL",
      "alert": "OK",
      "vis_m": 9999,
      "fzfg": false,
      "metar_trigger": false,
      "taf_trigger": false,
      "metar": "METAR LRCL 141830Z 27007KT 240V320 9999 FEW040CB 18/12 Q1011",
      "taf": ""
    },
    {
      "icao": "LRCV",
      "alert": "OK",
      "vis_m": 9999,
      "fzfg": false,
      "metar_trigger": false,
      "taf_trigger": false,
      "metar": "METAR LRCV 141830Z 19006KT CAVOK 23/14 Q1009",
      "taf": ""
    },
    {
      "icao": "LRIA",
      "alert": "OK",
      "vis_m": 9999,
      "fzfg": false,
      "metar_trigger": false,
      "taf_trigger": false,
      "metar": "METAR LRIA 141830Z 21005KT 160V280 CAVOK 21/12 Q1007",
      "taf": ""
    },
    {
      "icao": "LROP",
      "alert": "OK",
      "vis_m": 9999,
      "fzfg": false,
      "metar_trigger": false,
      "taf_trigger": false,
      "metar": "METAR LROP 141830Z 08005KT CAVOK 19/15 Q1011 NOSIG",
      "taf": "TAF LROP 141700Z 1418/1518 27006KT CAVOK"
    },
    {
      "icao": "LRSB",
      "alert": "OK",
      "vis_m": 9999,
      "fzfg": false,
      "metar_trigger": false,
      "taf_trigger": false,
      "metar": "METAR LRSB 141830Z 27011KT 9999 -SHRA FEW045CB SCT060 BKN075 16/14 Q1012",
      "taf": "TAF LRSB 141700Z 1418/1518 VRB04KT 9999 SCT045 SCT070"
    },
    {
      "icao": "LRSM",
      "alert": "OK",
      "vis_m": 9999,
      "fzfg": false,
      "metar_trigger": false,
      "taf_trigger": false,
      "metar": "METAR LRSM 141830Z AUTO 24007KT 9999 FEW070/// 19/11 Q1008",
      "taf": ""
    },
    {
      "icao": "LRSV",
      "alert": "OK",
      "vis_m": 9999,
      "fzfg": false,
      "metar_trigger": false,
      "taf_trigger": false,
      "metar": "METAR LRSV 141830Z 32010KT CAVOK 16/13 Q1007",
      "taf": ""
    },
    {
      "icao": "LRTM",
      "alert": "OK",
      "vis_m": 9999,
      "fzfg": false,
      "metar_trigger": false,
      "taf_trigger": false,
      "metar": "METAR LRTM 141830Z 21004KT 9999 FEW035 18/15 Q1011",
      "taf": ""
    },
    {
      "icao": "LRTR",
      "alert": "OK",
      "vis_m": 9999,
      "fzfg": false,
      "metar_trigger": false,
      "taf_trigger": false,
      "metar": "METAR LRTR 141830Z 05003KT 020V090 9999 FEW045CB 17/17 Q1011",
      "taf": "TAF LRTR 141700Z 1418/1518 02012KT 9999 SCT010 SCT045CB"
    },
    {
      "icao": "LTAC",
      "alert": "OK",
      "vis_m": 9999,
      "fzfg": false,
      "metar_trigger": false,
      "taf_trigger": false,
      "metar": "METAR LTAC 141820Z 05006KT 010V090 9999 SCT040 15/10 Q1015 NOSIG RMK RWY21C 36005KT 340V050 RWY03L 03006KT RWY21R 36005KT RWY03R 03006KT RWY21L 06003KT",
      "taf": "TAF LTAC 141640Z 1418/1518 VRB02KT 9999 SCT040"
    },
    {
      "icao": "LTFM",
      "alert": "OK",
      "vis_m": 9999,
      "fzfg": false,
      "metar_trigger": false,
      "taf_trigger": false,
      "metar": "METAR LTFM 141820Z 20006KT CAVOK 22/11 Q1013 NOSIG RMK RWY17L 21007KT RWY34L 18004KT RWY16R 21005KT RWY36 22006KT RWY18 21008KT",
      "taf": "TAF LTFM 141640Z 1418/1524 21008KT CAVOK"
    },
    {
      "icao": "LUKK",
      "alert": "OK",
      "vis_m": 9999,
      "fzfg": false,
      "metar_trigger": false,
      "taf_trigger": false,
      "metar": "METAR LUKK 141830Z 21007KT CAVOK 18/12 Q1008 NOSIG",
      "taf": "TAF LUKK 141717Z 1418/1518 26009KT 9999 SCT040"
    },
    {
      "icao": "LWOH",
      "alert": "OK",
      "vis_m": 9999,
      "fzfg": false,
      "metar_trigger": false,
      "taf_trigger": false,
      "metar": "METAR LWOH 141820Z VRB02KT 9999 FEW040 20/15 Q1016",
      "taf": "TAF LWOH 141730Z 1418/1518 32006KT CAVOK"
    },
    {
      "icao": "LWSK",
      "alert": "OK",
      "vis_m": null,
      "fzfg": false,
      "metar_trigger": false,
      "taf_trigger": false,
      "metar": "",
      "taf": "TAF LWSK 141730Z 1418/1518 VRB02KT CAVOK"
    },
    {
      "icao": "LYBE",
      "alert": "OK",
      "vis_m": 4000,
      "fzfg": false,
      "metar_trigger": false,
      "taf_trigger": false,
      "metar": "METAR LYBE 141830Z 34023G38KT 4000 TSRA SCT025CB 20/16 Q1010 TEMPO 35040KT 1000 TSGR BKN015CB BKN025",
      "taf": "TAF LYBE 141700Z 1418/1518 01012KT 9999 SCT045 TX27/1418Z TN16/1503Z"
    },
    {
      "icao": "LYNI",
      "alert": "OK",
      "vis_m": 9999,
      "fzfg": false,
      "metar_trigger": false,
      "taf_trigger": false,
      "metar": "METAR LYNI 141830Z 16003KT 120V190 9999 FEW050 23/11 Q1010 NOSIG",
      "taf": "TAF LYNI 141700Z 1418/1518 17007KT CAVOK TX27/1513Z TN15/1504Z"
    },
    {
      "icao": "LYPG",
      "alert": "OK",
      "vis_m": 9999,
      "fzfg": false,
      "metar_trigger": false,
      "taf_trigger": false,
      "metar": "METAR LYPG 141830Z 14006KT 100V170 CAVOK 24/15 Q1012 NOSIG",
      "taf": "TAF LYPG 141700Z 1418/1518 VRB02KT CAVOK TX30/1514Z TN19/1503Z"
    },
    {
      "icao": "LZIB",
      "alert": "OK",
      "vis_m": 9999,
      "fzfg": false,
      "metar_trigger": false,
      "taf_trigger": false,
      "metar": "METAR LZIB 141830Z 32011KT 300V010 CAVOK 20/04 Q1011 NOSIG",
      "taf": "TAF LZIB 141715Z 1418/1518 31012KT CAVOK"
    },
    {
      "icao": "LZKZ",
      "alert": "OK",
      "vis_m": 9999,
      "fzfg": false,
      "metar_trigger": false,
      "taf_trigger": false,
      "metar": "METAR LZKZ 141830Z 02011KT CAVOK 17/08 Q1009 NOSIG",
      "taf": "TAF LZKZ 141715Z 1418/1518 36008KT CAVOK"
    },
    {
      "icao": "LZTT",
      "alert": "OK",
      "vis_m": 9999,
      "fzfg": false,
      "metar_trigger": false,
      "taf_trigger": false,
      "metar": "METAR LZTT 141830Z 28010KT 9999 FEW060 13/03 Q1009",
      "taf": "TAF LZTT 141715Z 1418/1518 28014KT 9999 FEW060"
    },
    {
      "icao": "OEJN",
      "alert": "OK",
      "vis_m": 9999,
      "fzfg": false,
      "metar_trigger": false,
      "taf_trigger": false,
      "metar": "METAR OEJN 141800Z 02008KT CAVOK 33/16 Q1005 NOSIG",
      "taf": "TAF OEJN 141700Z 1418/1524 01005KT CAVOK"
    },
    {
      "icao": "OEMA",
      "alert": "OK",
      "vis_m": 9999,
      "fzfg": false,
      "metar_trigger": false,
      "taf_trigger": false,
      "metar": "METAR OEMA 141800Z 29005KT CAVOK 39/M05 Q1009 NOSIG",
      "taf": "TAF OEMA 141700Z 1418/1524 VRB03KT CAVOK"
    },
    {
      "icao": "OJAI",
      "alert": "OK",
      "vis_m": 5000,
      "fzfg": false,
      "metar_trigger": false,
      "taf_trigger": false,
      "metar": "METAR OJAI 141800Z 29007KT 5000 HZ NSC 22/10 Q1013 NOSIG",
      "taf": "TAF OJAI 141700Z 1418/1524 31012KT 5000 HZ NSC"
    },
    {
      "icao": "OMAA",
      "alert": "OK",
      "vis_m": 9999,
      "fzfg": false,
      "metar_trigger": false,
      "taf_trigger": false,
      "metar": "METAR OMAA 141830Z 03005KT CAVOK 32/26 Q1002 NOSIG",
      "taf": "TAF OMAA 141700Z 1418/1600 02007KT 8000 NSC"
    },
    {
      "icao": "OMDB",
      "alert": "OK",
      "vis_m": 8000,
      "fzfg": false,
      "metar_trigger": false,
      "taf_trigger": false,
      "metar": "METAR OMDB 141830Z 03003KT 350V120 8000 NSC 33/26 Q1002 NOSIG",
      "taf": "TAF OMDB 141700Z 1418/1600 VRB02KT 8000 NSC"
    },
    {
      "icao": "UAAA",
      "alert": "OK",
      "vis_m": 9999,
      "fzfg": false,
      "metar_trigger": false,
      "taf_trigger": false,
      "metar": "METAR UAAA 141830Z 16003MPS 9999 SCT050CB BKN200 23/13 Q1008 NOSIG",
      "taf": "TAF UAAA 141702Z 1418/1518 18002G07MPS 9999 SCT050CB BKN100 TX35/1509Z TN20/1500Z"
    },
    {
      "icao": "UBBB",
      "alert": "OK",
      "vis_m": 9999,
      "fzfg": false,
      "metar_trigger": false,
      "taf_trigger": false,
      "metar": "METAR UBBB 141830Z 25014KT 9999 SCT060CB 26/17 Q1006 TEMPO TS RMK OBS TS S 20KM MOV NE 20KMH NC",
      "taf": "TAF UBBB 141716Z 1418/1518 31010KT 9999 FEW050CB TX25/1510Z TN19/1500Z"
    },
    {
      "icao": "UDSG",
      "alert": "OK",
      "vis_m": 9999,
      "fzfg": false,
      "metar_trigger": false,
      "taf_trigger": false,
      "metar": "METAR UDSG 141830Z 17001KT 9999 FEW049CB 11/10 Q1016 NOSIG",
      "taf": "TAF UDSG 141700Z 1418/1518 03006KT 9999 SCT040"
    },
    {
      "icao": "UDYZ",
      "alert": "OK",
      "vis_m": 9999,
      "fzfg": false,
      "metar_trigger": false,
      "taf_trigger": false,
      "metar": "METAR UDYZ 141830Z 32003KT 9999 FEW043CB 17/11 Q1011 NOSIG",
      "taf": "TAF UDYZ 141700Z 1418/1518 04006KT 9999 SCT040"
    },
    {
      "icao": "UGKO",
      "alert": "OK",
      "vis_m": 9999,
      "fzfg": false,
      "metar_trigger": false,
      "taf_trigger": false,
      "metar": "METAR UGKO 141830Z 22010KT 9999 SCT024CB OVC062 19/16 Q1011 NOSIG",
      "taf": "TAF UGKO 141700Z 1418/1518 26010KT 9999 BKN050 TX24/1511Z TN17/1501Z"
    }
  ]
}