{
  "ts_utc": "2026-04-14T04:50:49Z",
  "threshold_m": 150,
  "source": "stations_override.txt (ICAO list) + aviationweather.gov (METAR/TAF raw)",
  "station_count": 159,
  "stations": [
    {
      "icao": "BIKF",
      "alert": "OK",
      "vis_m": 9999,
      "fzfg": false,
      "metar_trigger": false,
      "taf_trigger": false,
      "metar": "METAR BIKF 140430Z 07009KT 9999 FEW020 BKN034 BKN080 04/02 Q1001",
      "taf": "TAF BIKF 140437Z 1406/1506 09012KT 9999 -SHRA SCT018 BKN027 TX07/1415Z TN03/1406Z"
    },
    {
      "icao": "BKPR",
      "alert": "OK",
      "vis_m": 9999,
      "fzfg": false,
      "metar_trigger": false,
      "taf_trigger": false,
      "metar": "METAR BKPR 140430Z 18003KT 130V230 9999 SCT090 09/07 Q1017 NOSIG",
      "taf": "TAF BKPR 132330Z 1400/1424 15008KT 9999 SCT050"
    },
    {
      "icao": "EBCI",
      "alert": "OK",
      "vis_m": 200,
      "fzfg": false,
      "metar_trigger": false,
      "taf_trigger": false,
      "metar": "METAR EBCI 140420Z VRB02KT 0200 R24/0500N FG BKN001 06/05 Q1018 TEMPO 0100 FG BKN001",
      "taf": "TAF EBCI 132310Z 1400/1506 30004KT CAVOK"
    },
    {
      "icao": "EDDB",
      "alert": "OK",
      "vis_m": 9999,
      "fzfg": false,
      "metar_trigger": false,
      "taf_trigger": false,
      "metar": "METAR EDDB 140420Z AUTO 07005KT CAVOK 08/01 Q1014 NOSIG",
      "taf": "TAF EDDB 132300Z 1400/1424 09009KT 9999 SCT030"
    },
    {
      "icao": "EDDH",
      "alert": "OK",
      "vis_m": 4100,
      "fzfg": false,
      "metar_trigger": false,
      "taf_trigger": false,
      "metar": "METAR EDDH 140420Z AUTO VRB01KT 4100 -RA BR FEW006 BKN017 08/07 Q1014 TEMPO 2500 BKN007",
      "taf": "TAF EDDH 132300Z 1400/1506 VRB03KT 9999 BKN040"
    },
    {
      "icao": "EDDK",
      "alert": "OK",
      "vis_m": 450,
      "fzfg": false,
      "metar_trigger": false,
      "taf_trigger": false,
      "metar": "METAR EDDK 140420Z AUTO VRB01KT 0450 0250 R31R/0600D R06/0600N FG VV003 02/02 Q1018 BECMG 4000 BR",
      "taf": ""
    },
    {
      "icao": "EDDN",
      "alert": "OK",
      "vis_m": 6000,
      "fzfg": false,
      "metar_trigger": false,
      "taf_trigger": false,
      "metar": "METAR EDDN 140420Z AUTO 29007KT 6000 -RA OVC007 08/07 Q1015 TEMPO 4000 RADZ BKN004",
      "taf": "TAF EDDN 132300Z 1400/1424 30007KT 9999 BKN030"
    },
    {
      "icao": "EDDS",
      "alert": "OK",
      "vis_m": 9999,
      "fzfg": false,
      "metar_trigger": false,
      "taf_trigger": false,
      "metar": "METAR EDDS 140420Z AUTO 30008KT 9999 OVC010 07/06 Q1016 BECMG BKN015",
      "taf": "TAF EDDS 132300Z 1400/1424 31006KT 9999 SCT008 OVC014"
    },
    {
      "icao": "EDFH",
      "alert": "OK",
      "vis_m": 500,
      "fzfg": false,
      "metar_trigger": false,
      "taf_trigger": false,
      "metar": "METAR EDFH 140420Z 32005KT 0500 R21/0400N FG VV/// 04/04 Q1016",
      "taf": "TAF EDFH 132300Z 1400/1424 30005KT 9999 SCT003 BKN015"
    },
    {
      "icao": "EDJA",
      "alert": "OK",
      "vis_m": 9999,
      "fzfg": false,
      "metar_trigger": false,
      "taf_trigger": false,
      "metar": "METAR EDJA 140420Z 27005KT 9999 SCT006 BKN008 OVC013 07/06 Q1015",
      "taf": "TAF EDJA 140200Z 1403/1412 28005KT 4000 BR BKN003"
    },
    {
      "icao": "EDLW",
      "alert": "OK",
      "vis_m": 5000,
      "fzfg": false,
      "metar_trigger": false,
      "taf_trigger": false,
      "metar": "METAR EDLW 140420Z 23005KT 5000 BR NSC 04/04 Q1017",
      "taf": "TAF EDLW 140330Z 1404/1424 28004KT 6000 NSC"
    },
    {
      "icao": "EDNY",
      "alert": "OK",
      "vis_m": 9999,
      "fzfg": false,
      "metar_trigger": false,
      "taf_trigger": false,
      "metar": "METAR EDNY 140420Z 26004KT 9999 FEW006 SCT016 OVC023 07/06 Q1016",
      "taf": "TAF EDNY 140200Z 1403/1412 VRB03KT 9000 BKN005"
    },
    {
      "icao": "EDSB",
      "alert": "OK",
      "vis_m": 9999,
      "fzfg": false,
      "metar_trigger": false,
      "taf_trigger": false,
      "metar": "METAR EDSB 140420Z 24004KT 210V280 9999 FEW025 BKN038 08/06 Q1017",
      "taf": ""
    },
    {
      "icao": "EETN",
      "alert": "OK",
      "vis_m": 9999,
      "fzfg": false,
      "metar_trigger": false,
      "taf_trigger": false,
      "metar": "METAR EETN 140420Z 09002KT CAVOK 01/00 Q1033 NOSIG",
      "taf": "TAF EETN 132330Z 1400/1424 12007KT CAVOK"
    },
    {
      "icao": "EFTU",
      "alert": "OK",
      "vis_m": 9999,
      "fzfg": false,
      "metar_trigger": false,
      "taf_trigger": false,
      "metar": "METAR EFTU 140420Z AUTO 09003KT CAVOK M01/M02 Q1033",
      "taf": "TAF EFTU 140231Z 1403/1503 07002KT CAVOK"
    },
    {
      "icao": "EGBB",
      "alert": "OK",
      "vis_m": 9999,
      "fzfg": false,
      "metar_trigger": false,
      "taf_trigger": false,
      "metar": "METAR EGBB 140420Z 15004KT CAVOK 01/00 Q1015",
      "taf": "TAF EGBB 132256Z 1400/1424 16003KT 9999 FEW030"
    },
    {
      "icao": "EGGP",
      "alert": "OK",
      "vis_m": 9999,
      "fzfg": false,
      "metar_trigger": false,
      "taf_trigger": false,
      "metar": "METAR EGGP 140420Z 11003KT CAVOK 04/03 Q1014",
      "taf": "TAF EGGP 132258Z 1400/1424 VRB03KT CAVOK"
    },
    {
      "icao": "EGGW",
      "alert": "OK",
      "vis_m": 9000,
      "fzfg": false,
      "metar_trigger": false,
      "taf_trigger": false,
      "metar": "METAR EGGW 140420Z AUTO 20003KT 9000 NCD 02/02 Q1016",
      "taf": "TAF EGGW 132302Z 1400/1424 19003KT 9999 FEW025"
    },
    {
      "icao": "EGKK",
      "alert": "OK",
      "vis_m": 9999,
      "fzfg": false,
      "metar_trigger": false,
      "taf_trigger": false,
      "metar": "METAR EGKK 140420Z VRB01KT 9999 1800W PRFG NSC 01/01 Q1017",
      "taf": "TAF EGKK 132259Z 1400/1506 VRB03KT 9999 SCT045"
    },
    {
      "icao": "EGNM",
      "alert": "OK",
      "vis_m": 9999,
      "fzfg": false,
      "metar_trigger": false,
      "taf_trigger": false,
      "metar": "METAR EGNM 140420Z 18003KT CAVOK 03/01 Q1014",
      "taf": "TAF EGNM 132258Z 1400/1424 VRB03KT CAVOK"
    },
    {
      "icao": "EGPD",
      "alert": "OK",
      "vis_m": 4900,
      "fzfg": true,
      "metar_trigger": false,
      "taf_trigger": false,
      "metar": "METAR EGPD 140420Z AUTO VRB02KT 4900 BR BKN001 01/00 Q1014 TEMPO 0300 FZFG",
      "taf": "TAF EGPD 132255Z 1400/1424 17010KT 9999 FEW008"
    },
    {
      "icao": "EGPF",
      "alert": "OK",
      "vis_m": 5000,
      "fzfg": false,
      "metar_trigger": false,
      "taf_trigger": false,
      "metar": "METAR EGPF 140420Z 24001KT 5000 R05/0600D MIFG FEW005 M02/M02 Q1014",
      "taf": ""
    },
    {
      "icao": "EHBK",
      "alert": "OK",
      "vis_m": 6000,
      "fzfg": false,
      "metar_trigger": false,
      "taf_trigger": false,
      "metar": "METAR EHBK 140425Z AUTO 20005KT 6000 NCD 04/03 Q1017 NOSIG",
      "taf": "TAF EHBK 132249Z 1400/1506 24003KT CAVOK"
    },
    {
      "icao": "EHEH",
      "alert": "OK",
      "vis_m": 200,
      "fzfg": false,
      "metar_trigger": false,
      "taf_trigger": false,
      "metar": "METAR EHEH 140425Z AUTO 20002KT 0200 FG NCD 03/02 Q1017 RED",
      "taf": "TAF EHEH 132323Z 1400/1506 21002KT 0400 FG NSC"
    },
    {
      "icao": "EKBI",
      "alert": "OK",
      "vis_m": 9999,
      "fzfg": false,
      "metar_trigger": false,
      "taf_trigger": false,
      "metar": "METAR EKBI 140420Z AUTO 10006KT 9999 -RA FEW014/// OVC026/// 05/04 Q1015",
      "taf": "TAF EKBI 140227Z 1403/1503 09012KT 7000 -RA FEW008 BKN025"
    },
    {
      "icao": "EKCH",
      "alert": "OK",
      "vis_m": 9999,
      "fzfg": false,
      "metar_trigger": false,
      "taf_trigger": false,
      "metar": "METAR EKCH 140420Z AUTO 10011KT 9999 OVC084/// 08/01 Q1017 NOSIG",
      "taf": "TAF EKCH 140227Z 1403/1503 09012KT CAVOK"
    },
    {
      "icao": "ENAL",
      "alert": "OK",
      "vis_m": 9999,
      "fzfg": false,
      "metar_trigger": false,
      "taf_trigger": false,
      "metar": "METAR ENAL 140420Z 05006KT 9999 FEW059 07/04 Q1021",
      "taf": "TAF ENAL 140200Z 1403/1412 07008KT 9999 FEW055"
    },
    {
      "icao": "ENBR",
      "alert": "OK",
      "vis_m": 9999,
      "fzfg": false,
      "metar_trigger": false,
      "taf_trigger": false,
      "metar": "METAR ENBR 140420Z 08005KT 040V100 9999 -RA SCT042 BKN053 05/04 Q1020 NOSIG RMK WIND 1200FT 11012KT",
      "taf": "TAF ENBR 132300Z 1400/1424 13008KT 9999 -RA FEW012 BKN030"
    },
    {
      "icao": "ENGM",
      "alert": "OK",
      "vis_m": 9999,
      "fzfg": false,
      "metar_trigger": false,
      "taf_trigger": false,
      "metar": "METAR ENGM 140420Z 07006KT 040V110 CAVOK 04/M03 Q1025 NOSIG",
      "taf": "TAF ENGM 132300Z 1400/1424 11008KT CAVOK"
    },
    {
      "icao": "ENHD",
      "alert": "OK",
      "vis_m": 9999,
      "fzfg": false,
      "metar_trigger": false,
      "taf_trigger": false,
      "metar": "METAR ENHD 140420Z 08007KT 9999 -DZ FEW027 SCT048 06/04 Q1019",
      "taf": "TAF ENHD 140200Z 1403/1412 11008KT 9999 -RA BKN040"
    },
    {
      "icao": "ENTC",
      "alert": "OK",
      "vis_m": 9999,
      "fzfg": false,
      "metar_trigger": false,
      "taf_trigger": false,
      "metar": "METAR ENTC 140420Z VRB01KT CAVOK 01/M03 Q1031 RMK WIND 2600FT 19008KT",
      "taf": "TAF ENTC 132300Z 1400/1424 VRB03KT CAVOK"
    },
    {
      "icao": "ENTO",
      "alert": "OK",
      "vis_m": 9999,
      "fzfg": false,
      "metar_trigger": false,
      "taf_trigger": false,
      "metar": "METAR ENTO 140420Z 03006KT CAVOK 05/M01 Q1023 NOSIG",
      "taf": "TAF ENTO 132300Z 1400/1424 08008KT 9999 BKN040"
    },
    {
      "icao": "ENVA",
      "alert": "OK",
      "vis_m": 9999,
      "fzfg": false,
      "metar_trigger": false,
      "taf_trigger": false,
      "metar": "METAR ENVA 140420Z 10011KT CAVOK 09/M00 Q1026 NOSIG RMK WIND 670FT 11014KT",
      "taf": "TAF ENVA 132300Z 1400/1424 11008KT CAVOK"
    },
    {
      "icao": "ENZV",
      "alert": "OK",
      "vis_m": 9999,
      "fzfg": false,
      "metar_trigger": false,
      "taf_trigger": false,
      "metar": "METAR ENZV 140420Z 08006KT 9999 -RA NSC 07/02 Q1018 TEMPO RA BKN014",
      "taf": "TAF ENZV 132300Z 1400/1424 13008KT 9999 SCT030"
    },
    {
      "icao": "EPGD",
      "alert": "OK",
      "vis_m": 9999,
      "fzfg": false,
      "metar_trigger": false,
      "taf_trigger": false,
      "metar": "METAR EPGD 140430Z 10012KT CAVOK 05/M01 Q1021",
      "taf": "TAF EPGD 132330Z 1400/1424 11011KT CAVOK"
    },
    {
      "icao": "EPKK",
      "alert": "OK",
      "vis_m": 9999,
      "fzfg": false,
      "metar_trigger": false,
      "taf_trigger": false,
      "metar": "METAR EPKK 140430Z 04005KT 010V100 9999 BKN067 08/M01 Q1017",
      "taf": "TAF EPKK 140230Z 1403/1503 06010KT 9999 BKN060"
    },
    {
      "icao": "EPKT",
      "alert": "OK",
      "vis_m": 9999,
      "fzfg": false,
      "metar_trigger": false,
      "taf_trigger": false,
      "metar": "METAR EPKT 140430Z 10006KT CAVOK 07/M01 Q1017",
      "taf": "TAF EPKT 132330Z 1400/1424 11012KT CAVOK"
    },
    {
      "icao": "EPLB",
      "alert": "OK",
      "vis_m": 9999,
      "fzfg": false,
      "metar_trigger": false,
      "taf_trigger": false,
      "metar": "METAR EPLB 140430Z 10008KT CAVOK 04/M00 Q1022",
      "taf": "TAF EPLB 132330Z 1400/1424 10008KT CAVOK"
    },
    {
      "icao": "EPMO",
      "alert": "OK",
      "vis_m": 9999,
      "fzfg": false,
      "metar_trigger": false,
      "taf_trigger": false,
      "metar": "METAR EPMO 140430Z 08011KT CAVOK 06/M01 Q1021",
      "taf": "TAF EPMO 132330Z 1400/1424 09008KT CAVOK"
    },
    {
      "icao": "EPPO",
      "alert": "OK",
      "vis_m": 9999,
      "fzfg": false,
      "metar_trigger": false,
      "taf_trigger": false,
      "metar": "METAR EPPO 140430Z 09013KT CAVOK 09/M01 Q1016",
      "taf": "TAF EPPO 132330Z 1400/1424 10012KT CAVOK"
    },
    {
      "icao": "EPRA",
      "alert": "OK",
      "vis_m": 9999,
      "fzfg": false,
      "metar_trigger": false,
      "taf_trigger": false,
      "metar": "METAR EPRA 140430Z 12012KT CAVOK 07/M01 Q1020",
      "taf": "TAF EPRA 140230Z 1403/1412 12012KT CAVOK"
    },
    {
      "icao": "EPRZ",
      "alert": "OK",
      "vis_m": 9999,
      "fzfg": false,
      "metar_trigger": false,
      "taf_trigger": false,
      "metar": "METAR EPRZ 140430Z 09012KT CAVOK 07/M00 Q1019",
      "taf": "TAF EPRZ 132330Z 1400/1424 09014KT CAVOK"
    },
    {
      "icao": "EPSC",
      "alert": "OK",
      "vis_m": 9999,
      "fzfg": false,
      "metar_trigger": false,
      "taf_trigger": false,
      "metar": "METAR EPSC 140430Z 10011KT CAVOK 10/M01 Q1016",
      "taf": "TAF EPSC 132330Z 1400/1424 10012KT CAVOK"
    },
    {
      "icao": "EPSY",
      "alert": "OK",
      "vis_m": 9999,
      "fzfg": false,
      "metar_trigger": false,
      "taf_trigger": false,
      "metar": "METAR EPSY 140430Z 08005KT 040V120 CAVOK 04/M01 Q1023",
      "taf": "TAF EPSY 140230Z 1403/1412 11008KT CAVOK"
    },
    {
      "icao": "EPWA",
      "alert": "OK",
      "vis_m": 9999,
      "fzfg": false,
      "metar_trigger": false,
      "taf_trigger": false,
      "metar": "METAR EPWA 140430Z 10014KT CAVOK 08/M01 Q1021 NOSIG",
      "taf": "TAF EPWA 140230Z 1403/1503 11014KT CAVOK"
    },
    {
      "icao": "EPWR",
      "alert": "OK",
      "vis_m": 9999,
      "fzfg": false,
      "metar_trigger": false,
      "taf_trigger": false,
      "metar": "METAR EPWR 140430Z 13011KT CAVOK 09/01 Q1015",
      "taf": "TAF EPWR 140230Z 1403/1503 13010KT CAVOK"
    },
    {
      "icao": "ESGG",
      "alert": "OK",
      "vis_m": 9999,
      "fzfg": false,
      "metar_trigger": false,
      "taf_trigger": false,
      "metar": "METAR ESGG 140420Z 10008KT CAVOK 06/M01 Q1020",
      "taf": "TAF ESGG 140230Z 1403/1503 10009KT CAVOK"
    },
    {
      "icao": "ESKN",
      "alert": "OK",
      "vis_m": 9999,
      "fzfg": false,
      "metar_trigger": false,
      "taf_trigger": false,
      "metar": "METAR ESKN 140420Z 07005KT CAVOK 03/01 Q1028",
      "taf": "TAF ESKN 140230Z 1403/1503 08008KT CAVOK"
    },
    {
      "icao": "ESMS",
      "alert": "OK",
      "vis_m": 9999,
      "fzfg": false,
      "metar_trigger": false,
      "taf_trigger": false,
      "metar": "METAR ESMS 140420Z 10013KT CAVOK 08/00 Q1018",
      "taf": "TAF ESMS 140227Z 1403/1503 09015KT CAVOK"
    },
    {
      "icao": "ESSA",
      "alert": "OK",
      "vis_m": 9999,
      "fzfg": false,
      "metar_trigger": false,
      "taf_trigger": false,
      "metar": "METAR ESSA 140420Z 07009KT CAVOK 01/00 Q1030 NOSIG",
      "taf": "TAF ESSA 140230Z 1403/1503 08007KT CAVOK"
    },
    {
      "icao": "EYKA",
      "alert": "OK",
      "vis_m": 9999,
      "fzfg": false,
      "metar_trigger": false,
      "taf_trigger": false,
      "metar": "METAR EYKA 140420Z 07004KT CAVOK 04/01 Q1028",
      "taf": "TAF EYKA 132300Z 1400/1424 VRB05KT 9000 NSC"
    },
    {
      "icao": "EYPA",
      "alert": "OK",
      "vis_m": 9999,
      "fzfg": false,
      "metar_trigger": false,
      "taf_trigger": false,
      "metar": "METAR EYPA 140420Z 11007KT CAVOK 05/M00 Q1027",
      "taf": "TAF EYPA 132300Z 1400/1424 VRB05KT 9000 NSC"
    },
    {
      "icao": "EYVI",
      "alert": "OK",
      "vis_m": 9999,
      "fzfg": false,
      "metar_trigger": false,
      "taf_trigger": false,
      "metar": "METAR EYVI 140420Z 36001KT CAVOK 00/M02 Q1028 NOSIG",
      "taf": "TAF EYVI 132300Z 1400/1424 VRB05KT 9000 NSC"
    },
    {
      "icao": "GCFV",
      "alert": "OK",
      "vis_m": 9999,
      "fzfg": false,
      "metar_trigger": false,
      "taf_trigger": false,
      "metar": "METAR GCFV 140430Z AUTO 01019KT 9999 OVC025 17/11 Q1018",
      "taf": "TAF GCFV 140200Z 1403/1503 02016KT 9999 FEW025 TX23/1414Z TN16/1406Z"
    },
    {
      "icao": "GCLP",
      "alert": "OK",
      "vis_m": 9999,
      "fzfg": false,
      "metar_trigger": false,
      "taf_trigger": false,
      "metar": "METAR GCLP 140430Z 01021KT 9999 FEW030 BKN037 17/10 Q1019 NOSIG",
      "taf": "TAF GCLP 140200Z 1403/1503 01024KT 9999 SCT035 TX22/1414Z TN15/1406Z"
    },
    {
      "icao": "GCTS",
      "alert": "OK",
      "vis_m": 9999,
      "fzfg": false,
      "metar_trigger": false,
      "taf_trigger": false,
      "metar": "METAR GCTS 140430Z 05011KT 020V080 9999 BKN030 16/10 Q1019 NOSIG",
      "taf": "TAF GCTS 140200Z 1403/1503 03009KT 9999 FEW030 TX23/1414Z TN15/1406Z"
    },
    {
      "icao": "GMAD",
      "alert": "OK",
      "vis_m": 9999,
      "fzfg": false,
      "metar_trigger": false,
      "taf_trigger": false,
      "metar": "METAR GMAD 140430Z 13003KT CAVOK 11/10 Q1014 NOSIG",
      "taf": "TAF GMAD 132300Z 1400/1506 10003KT CAVOK"
    },
    {
      "icao": "GMMN",
      "alert": "OK",
      "vis_m": 9999,
      "fzfg": false,
      "metar_trigger": false,
      "taf_trigger": false,
      "metar": "METAR GMMN 140330Z 07005KT CAVOK 08/06 Q1022 NOSIG",
      "taf": "TAF GMMN 132300Z 1400/1506 08006KT CAVOK"
    },
    {
      "icao": "GMMX",
      "alert": "OK",
      "vis_m": 9999,
      "fzfg": false,
      "metar_trigger": false,
      "taf_trigger": false,
      "metar": "METAR GMMX 140430Z 08007KT CAVOK 09/07 Q1019 NOSIG",
      "taf": "TAF GMMX 132300Z 1400/1506 06006KT CAVOK"
    },
    {
      "icao": "HEGN",
      "alert": "OK",
      "vis_m": 9999,
      "fzfg": false,
      "metar_trigger": false,
      "taf_trigger": false,
      "metar": "METAR HEGN 140400Z 31008KT CAVOK 19/04 Q1016 NOSIG",
      "taf": "TAF HEGN 132300Z 1400/1506 29012KT CAVOK"
    },
    {
      "icao": "HEMA",
      "alert": "OK",
      "vis_m": 9999,
      "fzfg": false,
      "metar_trigger": false,
      "taf_trigger": false,
      "metar": "METAR HEMA 140400Z 32014KT CAVOK 22/03 Q1014 NOSIG",
      "taf": "TAF HEMA 132300Z 1400/1506 30014KT CAVOK"
    },
    {
      "icao": "HESH",
      "alert": "OK",
      "vis_m": 9999,
      "fzfg": false,
      "metar_trigger": false,
      "taf_trigger": false,
      "metar": "METAR HESH 140400Z 35012KT CAVOK 21/13 Q1015 NOSIG",
      "taf": "TAF HESH 132300Z 1400/1506 32010KT CAVOK"
    },
    {
      "icao": "HESX",
      "alert": "OK",
      "vis_m": 9999,
      "fzfg": false,
      "metar_trigger": false,
      "taf_trigger": false,
      "metar": "METAR HESX 140400Z 04005KT CAVOK 13/10 Q1017 NOSIG",
      "taf": "TAF HESX 132300Z 1400/1506 01010KT CAVOK"
    },
    {
      "icao": "LATI",
      "alert": "OK",
      "vis_m": 9999,
      "fzfg": false,
      "metar_trigger": false,
      "taf_trigger": false,
      "metar": "METAR LATI 140450Z 17003KT 9999 BKN100 12/08 Q1013 NOSIG",
      "taf": "TAF LATI 132300Z 1400/1424 VRB05KT CAVOK TX26/1412Z TN10/1404Z"
    },
    {
      "icao": "LBPD",
      "alert": "OK",
      "vis_m": 9999,
      "fzfg": false,
      "metar_trigger": false,
      "taf_trigger": false,
      "metar": "METAR LBPD 140430Z AUTO 15004KT 9999 BKN200/// 05/05 Q1023 NOSIG",
      "taf": "TAF LBPD 132300Z 1400/1424 VRB04KT 9999 SCT070"
    },
    {
      "icao": "LBSF",
      "alert": "OK",
      "vis_m": 9999,
      "fzfg": false,
      "metar_trigger": false,
      "taf_trigger": false,
      "metar": "METAR LBSF 140430Z 08014KT 9999 FEW032 BKN039 07/01 Q1021 NOSIG",
      "taf": "TAF LBSF 132300Z 1400/1424 11012KT 9999 SCT070"
    },
    {
      "icao": "LBWN",
      "alert": "OK",
      "vis_m": 9999,
      "fzfg": false,
      "metar_trigger": false,
      "taf_trigger": false,
      "metar": "METAR LBWN 140430Z 18002KT 9999 SCT021 07/07 Q1024 NOSIG",
      "taf": "TAF LBWN 132300Z 1400/1424 11008KT 9999 SCT020"
    },
    {
      "icao": "LCLK",
      "alert": "OK",
      "vis_m": 9999,
      "fzfg": false,
      "metar_trigger": false,
      "taf_trigger": false,
      "metar": "METAR LCLK 140430Z 31006KT 290V360 CAVOK 13/11 Q1021 NOSIG",
      "taf": "TAF LCLK 132330Z 1400/1500 31007KT CAVOK"
    },
    {
      "icao": "LCPH",
      "alert": "OK",
      "vis_m": 9999,
      "fzfg": false,
      "metar_trigger": false,
      "taf_trigger": false,
      "metar": "METAR LCPH 140430Z 08006KT 010V080 CAVOK 13/08 Q1021 NOSIG",
      "taf": "TAF LCPH 132330Z 1400/1500 04008KT CAVOK"
    },
    {
      "icao": "LEAL",
      "alert": "OK",
      "vis_m": 9999,
      "fzfg": false,
      "metar_trigger": false,
      "taf_trigger": false,
      "metar": "METAR LEAL 140430Z 29011KT 270V330 9999 FEW035 14/03 Q1017 NOSIG",
      "taf": "TAF LEAL 132300Z 1400/1424 27007KT 9999 FEW030 TX22/1413Z TN10/1406Z"
    },
    {
      "icao": "LEBB",
      "alert": "OK",
      "vis_m": 9999,
      "fzfg": false,
      "metar_trigger": false,
      "taf_trigger": false,
      "metar": "METAR LEBB 140430Z 09005KT 070V130 9999 BKN039 OVC055 10/07 Q1020 NOSIG",
      "taf": "TAF LEBB 132300Z 1400/1424 13005KT 9999 BKN040 TX15/1413Z TN06/1400Z"
    },
    {
      "icao": "LEBL",
      "alert": "OK",
      "vis_m": 9999,
      "fzfg": false,
      "metar_trigger": false,
      "taf_trigger": false,
      "metar": "METAR LEBL 140430Z 33010KT CAVOK 10/07 Q1014 NOSIG",
      "taf": "TAF LEBL 132300Z 1400/1424 VRB04KT 9999 FEW030 TX17/1412Z TN09/1406Z"
    },
    {
      "icao": "LECH",
      "alert": "OK",
      "vis_m": 9999,
      "fzfg": false,
      "metar_trigger": false,
      "taf_trigger": false,
      "metar": "METAR LECH 140430Z AUTO 33018G28KT CAVOK 11/M01 Q1015",
      "taf": "TAF LECH 132300Z 1400/1424 34009KT 9999 FEW030 TX23/1414Z TN07/1406Z"
    },
    {
      "icao": "LEMD",
      "alert": "OK",
      "vis_m": 9999,
      "fzfg": false,
      "metar_trigger": false,
      "taf_trigger": false,
      "metar": "METAR LEMD 140430Z VRB02KT 9999 SCT060 05/02 Q1020 NOSIG",
      "taf": "TAF LEMD 132300Z 1400/1506 VRB03KT CAVOK TX21/1416Z TN04/1406Z"
    },
    {
      "icao": "LEMG",
      "alert": "OK",
      "vis_m": 9999,
      "fzfg": false,
      "metar_trigger": false,
      "taf_trigger": false,
      "metar": "METAR LEMG 140430Z 28011KT CAVOK 13/06 Q1020 NOSIG",
      "taf": "TAF LEMG 132300Z 1400/1424 31012KT CAVOK TX23/1414Z TN13/1407Z"
    },
    {
      "icao": "LEVC",
      "alert": "OK",
      "vis_m": 9999,
      "fzfg": false,
      "metar_trigger": false,
      "taf_trigger": false,
      "metar": "METAR LEVC 140430Z 27008KT CAVOK 11/02 Q1017 NOSIG",
      "taf": "TAF LEVC 132300Z 1400/1424 29007KT 9999 FEW030 TX23/1413Z TN08/1406Z"
    },
    {
      "icao": "LEXJ",
      "alert": "OK",
      "vis_m": 8000,
      "fzfg": false,
      "metar_trigger": false,
      "taf_trigger": false,
      "metar": "METAR LEXJ 140430Z VRB02KT 8000 OVC060 11/09 Q1019",
      "taf": "TAF LEXJ 140200Z 1403/1503 20009KT 9999 BKN040 TX17/1412Z TN10/1403Z"
    },
    {
      "icao": "LEZG",
      "alert": "OK",
      "vis_m": 9999,
      "fzfg": false,
      "metar_trigger": false,
      "taf_trigger": false,
      "metar": "METAR LEZG 140430Z 26005KT 200V340 CAVOK 08/02 Q1018 NOSIG",
      "taf": ""
    },
    {
      "icao": "LEZL",
      "alert": "OK",
      "vis_m": 9999,
      "fzfg": false,
      "metar_trigger": false,
      "taf_trigger": false,
      "metar": "METAR LEZL 140430Z 12002KT CAVOK 10/08 Q1022 NOSIG",
      "taf": "TAF LEZL 140200Z 1403/1503 26005KT CAVOK TX25/1415Z TN10/1407Z"
    },
    {
      "icao": "LFBD",
      "alert": "OK",
      "vis_m": 9999,
      "fzfg": false,
      "metar_trigger": false,
      "taf_trigger": false,
      "metar": "METAR LFBD 140430Z AUTO 00000KT CAVOK 04/03 Q1020 TEMPO 1500 MIFG",
      "taf": "TAF LFBD 132300Z 1400/1506 VRB02KT CAVOK TX19/1414Z TN03/1406Z"
    },
    {
      "icao": "LFLL",
      "alert": "OK",
      "vis_m": 9999,
      "fzfg": false,
      "metar_trigger": false,
      "taf_trigger": false,
      "metar": "METAR LFLL 140430Z 34008KT CAVOK 07/06 Q1017 NOSIG",
      "taf": "TAF LFLL 132300Z 1400/1506 34005KT 9999 FEW013 BKN100"
    },
    {
      "icao": "LFLS",
      "alert": "OK",
      "vis_m": 9999,
      "fzfg": false,
      "metar_trigger": false,
      "taf_trigger": false,
      "metar": "METAR LFLS 140430Z AUTO 36005KT 9999 BKN012 BKN056 BKN180 06/04 Q1016 TEMPO BKN009",
      "taf": "TAF LFLS 140200Z 1403/1503 36010KT 9999 BKN045"
    },
    {
      "icao": "LFMN",
      "alert": "OK",
      "vis_m": 9999,
      "fzfg": false,
      "metar_trigger": false,
      "taf_trigger": false,
      "metar": "METAR LFMN 140430Z 33011KT 9999 FEW100 14/08 Q1007 NOSIG",
      "taf": "TAF LFMN 140200Z 1403/1509 33010KT CAVOK"
    },
    {
      "icao": "LFOB",
      "alert": "OK",
      "vis_m": 750,
      "fzfg": true,
      "metar_trigger": false,
      "taf_trigger": false,
      "metar": "METAR LFOB 140430Z AUTO 00000KT 0750 0550 R30/0800U R12/P5000 FZFG VV/// M01/M01 Q1018 NOSIG",
      "taf": ""
    },
    {
      "icao": "LFPO",
      "alert": "OK",
      "vis_m": 9999,
      "fzfg": false,
      "metar_trigger": false,
      "taf_trigger": false,
      "metar": "METAR LFPO 140430Z VRB01KT CAVOK 03/02 Q1018 NOSIG",
      "taf": "TAF LFPO 132300Z 1400/1506 28004KT CAVOK"
    },
    {
      "icao": "LFSB",
      "alert": "OK",
      "vis_m": 9999,
      "fzfg": false,
      "metar_trigger": false,
      "taf_trigger": false,
      "metar": "METAR LFSB 140430Z AUTO 17002KT 9999 FEW006 OVC029 07/06 Q1017 NOSIG",
      "taf": ""
    },
    {
      "icao": "LGAV",
      "alert": "OK",
      "vis_m": 9999,
      "fzfg": false,
      "metar_trigger": false,
      "taf_trigger": false,
      "metar": "METAR LGAV 140420Z 35002KT 9999 FEW025 11/06 Q1020 NOSIG",
      "taf": "TAF LGAV 132300Z 1400/1424 VRB05KT 9999 FEW020 SCT070"
    },
    {
      "icao": "LGTS",
      "alert": "OK",
      "vis_m": 9999,
      "fzfg": false,
      "metar_trigger": false,
      "taf_trigger": false,
      "metar": "METAR LGTS 140420Z 11005KT 9999 FEW018 10/07 Q1020 NOSIG",
      "taf": "TAF LGTS 132300Z 1400/1424 12008KT 9999 FEW025"
    },
    {
      "icao": "LHBP",
      "alert": "OK",
      "vis_m": 9999,
      "fzfg": false,
      "metar_trigger": false,
      "taf_trigger": false,
      "metar": "METAR LHBP 140430Z 09008KT CAVOK 10/00 Q1016 NOSIG",
      "taf": "TAF LHBP 132315Z 1400/1424 07011KT CAVOK"
    },
    {
      "icao": "LHDC",
      "alert": "OK",
      "vis_m": 9999,
      "fzfg": false,
      "metar_trigger": false,
      "taf_trigger": false,
      "metar": "METAR LHDC 140415Z AUTO 06005KT CAVOK 08/03 Q1017 NOSIG",
      "taf": "TAF LHDC 140215Z 1403/1412 VRB03KT CAVOK"
    },
    {
      "icao": "LIBD",
      "alert": "OK",
      "vis_m": 6000,
      "fzfg": false,
      "metar_trigger": false,
      "taf_trigger": false,
      "metar": "METAR LIBD 140420Z 17004KT 140V200 6000 FEW030 17/14 Q1008",
      "taf": "TAF LIBD 132300Z 1400/1424 16015KT 9999 BKN030"
    },
    {
      "icao": "LIBG",
      "alert": "OK",
      "vis_m": null,
      "fzfg": false,
      "metar_trigger": false,
      "taf_trigger": false,
      "metar": "",
      "taf": ""
    },
    {
      "icao": "LIBP",
      "alert": "OK",
      "vis_m": 4400,
      "fzfg": false,
      "metar_trigger": false,
      "taf_trigger": false,
      "metar": "METAR LIBP 140420Z AUTO 25003KT 4400 BR FEW024/// BKN100/// 11/11 Q1007",
      "taf": "TAF LIBP 132300Z 1400/1424 VRB05KT 9999 BKN040"
    },
    {
      "icao": "LIBR",
      "alert": "OK",
      "vis_m": 8000,
      "fzfg": false,
      "metar_trigger": false,
      "taf_trigger": false,
      "metar": "METAR LIBR 140420Z 18010KT 8000 OVC020 17/14 Q1010",
      "taf": "TAF LIBR 132300Z 1400/1424 16015KT 8000 BKN020"
    },
    {
      "icao": "LICA",
      "alert": "OK",
      "vis_m": 9000,
      "fzfg": false,
      "metar_trigger": false,
      "taf_trigger": false,
      "metar": "METAR LICA 140420Z AUTO 04007KT 9000 NCD 14/13 Q1009",
      "taf": "TAF LICA 132300Z 1400/1424 VRB05KT 9999 FEW040"
    },
    {
      "icao": "LICC",
      "alert": "OK",
      "vis_m": 2000,
      "fzfg": false,
      "metar_trigger": false,
      "taf_trigger": false,
      "metar": "METAR LICC 140420Z 24003KT 190V260 2000 BR SCT020 13/10 Q1008",
      "taf": "TAF LICC 132300Z 1400/1424 VRB05KT 7000 FEW020"
    },
    {
      "icao": "LICJ",
      "alert": "OK",
      "vis_m": 9999,
      "fzfg": false,
      "metar_trigger": false,
      "taf_trigger": false,
      "metar": "METAR LICJ 140420Z 20003KT CAVOK 16/11 Q1008",
      "taf": "TAF LICJ 132300Z 1400/1424 20010KT 7000 FEW040"
    },
    {
      "icao": "LIMC",
      "alert": "OK",
      "vis_m": 9999,
      "fzfg": false,
      "metar_trigger": false,
      "taf_trigger": false,
      "metar": "METAR LIMC 140420Z 31003KT 270V340 9999 -RA BKN070 12/11 Q1010 NOSIG",
      "taf": "TAF LIMC 132300Z 1401/1506 VRB05KT 9999 BKN040"
    },
    {
      "icao": "LIME",
      "alert": "OK",
      "vis_m": 8000,
      "fzfg": false,
      "metar_trigger": false,
      "taf_trigger": false,
      "metar": "METAR LIME 140420Z VRB02KT 8000 -RA SCT025 BKN060 12/12 Q1010 NOSIG",
      "taf": "TAF LIME 132300Z 1400/1424 VRB05KT 8000 BKN040"
    },
    {
      "icao": "LIMF",
      "alert": "OK",
      "vis_m": 9999,
      "fzfg": false,
      "metar_trigger": false,
      "taf_trigger": false,
      "metar": "METAR LIMF 140420Z 27004KT 220V330 9999 OVC050 12/09 Q1011",
      "taf": "TAF LIMF 132300Z 1400/1424 36010KT 8000 BKN030"
    },
    {
      "icao": "LIMJ",
      "alert": "OK",
      "vis_m": 9999,
      "fzfg": false,
      "metar_trigger": false,
      "taf_trigger": false,
      "metar": "METAR LIMJ 140350Z 06007KT 9999 BKN070 16/10 Q1007",
      "taf": "TAF LIMJ 132300Z 1400/1424 05015KT 9999 SCT060"
    },
    {
      "icao": "LIPE",
      "alert": "OK",
      "vis_m": 7000,
      "fzfg": false,
      "metar_trigger": false,
      "taf_trigger": false,
      "metar": "METAR LIPE 140350Z 06003KT 340V130 7000 BKN005 13/12 Q1008",
      "taf": "TAF LIPE 132300Z 1400/1424 07008KT 6000 RA SCT008 BKN025"
    },
    {
      "icao": "LIPH",
      "alert": "OK",
      "vis_m": null,
      "fzfg": false,
      "metar_trigger": false,
      "taf_trigger": false,
      "metar": "",
      "taf": "TAF LIPH 132300Z 1400/1424 04010KT 6000 RA SCT060"
    },
    {
      "icao": "LIPQ",
      "alert": "OK",
      "vis_m": 9999,
      "fzfg": false,
      "metar_trigger": false,
      "taf_trigger": false,
      "metar": "METAR LIPQ 140420Z AUTO 08009KT 9999 RA OVC067/// 13/10 Q1009",
      "taf": "TAF LIPQ 132300Z 1400/1424 08008KT 9999 SCT060"
    },
    {
      "icao": "LIPR",
      "alert": "OK",
      "vis_m": 3900,
      "fzfg": false,
      "metar_trigger": false,
      "taf_trigger": false,
      "metar": "METAR LIPR 140420Z AUTO 31004KT 3900 BR SCT018/// BKN100/// 13/13 Q1007",
      "taf": "TAF LIPR 132300Z 1400/1424 32008KT 8000 BKN030"
    },
    {
      "icao": "LIPX",
      "alert": "OK",
      "vis_m": 9999,
      "fzfg": false,
      "metar_trigger": false,
      "taf_trigger": false,
      "metar": "METAR LIPX 140420Z 08003KT 020V110 9999 -RA BKN050 13/11 Q1009",
      "taf": "TAF LIPX 132300Z 1400/1424 08014KT 9999 BKN040"
    },
    {
      "icao": "LIPY",
      "alert": "OK",
      "vis_m": 9999,
      "fzfg": false,
      "metar_trigger": false,
      "taf_trigger": false,
      "metar": "METAR LIPY 140420Z AUTO 00000KT 9999 OVC008/// 15/14 Q1007",
      "taf": "TAF LIPY 132300Z 1400/1424 VRB05KT 8000 BKN015"
    },
    {
      "icao": "LIPZ",
      "alert": "OK",
      "vis_m": 9000,
      "fzfg": false,
      "metar_trigger": false,
      "taf_trigger": false,
      "metar": "METAR LIPZ 140420Z 04008KT 9000 -RA SCT055 BKN070 13/11 Q1009 NOSIG",
      "taf": "TAF LIPZ 132300Z 1400/1506 05010KT 9999 BKN040"
    },
    {
      "icao": "LIRF",
      "alert": "OK",
      "vis_m": 7000,
      "fzfg": false,
      "metar_trigger": false,
      "taf_trigger": false,
      "metar": "METAR LIRF 140420Z 15012KT 130V190 7000 SCT007 SCT015 16/15 Q1006 NOSIG",
      "taf": "TAF LIRF 132300Z 1400/1506 15013KT 9999 SCT030"
    },
    {
      "icao": "LIRN",
      "alert": "OK",
      "vis_m": 8000,
      "fzfg": false,
      "metar_trigger": false,
      "taf_trigger": false,
      "metar": "METAR LIRN 140420Z 17004KT 080V250 8000 FEW020 SCT030 16/13 Q1008 NOSIG",
      "taf": "TAF LIRN 132300Z 1400/1424 VRB05KT 9999 SCT040"
    },
    {
      "icao": "LIRP",
      "alert": "OK",
      "vis_m": 9999,
      "fzfg": false,
      "metar_trigger": false,
      "taf_trigger": false,
      "metar": "METAR LIRP 140345Z 12001KT 9999 -RA BKN050 13/12 Q1004 NOSIG",
      "taf": "TAF LIRP 132300Z 1400/1424 08004KT 9999 FEW025 BKN060"
    },
    {
      "icao": "LIRZ",
      "alert": "OK",
      "vis_m": 9999,
      "fzfg": false,
      "metar_trigger": false,
      "taf_trigger": false,
      "metar": "METAR LIRZ 140420Z AUTO 03003KT 9999 SCT003/// BKN059/// BKN095/// 12/12 Q1007",
      "taf": "TAF LIRZ 132300Z 1400/1424 VRB05KT 9999 SCT040"
    },
    {
      "icao": "LJLJ",
      "alert": "OK",
      "vis_m": 9999,
      "fzfg": false,
      "metar_trigger": false,
      "taf_trigger": false,
      "metar": "METAR LJLJ 140430Z 28004KT 240V300 9999 -RA BKN050 OVC075 09/08 Q1012 NOSIG",
      "taf": "TAF LJLJ 132300Z 1400/1500 VRB02KT 9999 BKN050"
    },
    {
      "icao": "LKMT",
      "alert": "OK",
      "vis_m": 9999,
      "fzfg": false,
      "metar_trigger": false,
      "taf_trigger": false,
      "metar": "METAR LKMT 140430Z VRB02KT CAVOK 06/05 Q1016 NOSIG",
      "taf": "TAF LKMT 132300Z 1400/1424 VRB02KT CAVOK"
    },
    {
      "icao": "LKPR",
      "alert": "OK",
      "vis_m": 9999,
      "fzfg": false,
      "metar_trigger": false,
      "taf_trigger": false,
      "metar": "METAR LKPR 140430Z 10005KT CAVOK 08/03 Q1013 NOSIG",
      "taf": "TAF LKPR 140200Z 1403/1509 12004KT CAVOK"
    },
    {
      "icao": "LLBG",
      "alert": "OK",
      "vis_m": 9999,
      "fzfg": false,
      "metar_trigger": false,
      "taf_trigger": false,
      "metar": "METAR LLBG 140420Z VRB02KT CAVOK 11/07 Q1020 NOSIG",
      "taf": "TAF LLBG 132324Z 1400/1424 VRB04KT CAVOK TX28/1412Z TN12/1403Z"
    },
    {
      "icao": "LMML",
      "alert": "OK",
      "vis_m": 7000,
      "fzfg": false,
      "metar_trigger": false,
      "taf_trigger": false,
      "metar": "METAR LMML 140445Z 30005KT 7000 NSC 14/13 Q1008 NOSIG",
      "taf": "TAF LMML 132300Z 1400/1424 21005KT 4000 BR FEW003"
    },
    {
      "icao": "LOWW",
      "alert": "OK",
      "vis_m": 9999,
      "fzfg": false,
      "metar_trigger": false,
      "taf_trigger": false,
      "metar": "METAR LOWW 140420Z 06003KT 030V100 CAVOK 10/M00 Q1015 NOSIG",
      "taf": "TAF LOWW 140215Z 1403/1509 13007KT CAVOK TX17/1414Z TN09/1404Z"
    },
    {
      "icao": "LPFR",
      "alert": "OK",
      "vis_m": 9999,
      "fzfg": false,
      "metar_trigger": false,
      "taf_trigger": false,
      "metar": "METAR LPFR 140430Z 34009KT CAVOK 12/09 Q1022",
      "taf": "TAF LPFR 132300Z 1400/1424 32007KT CAVOK"
    },
    {
      "icao": "LPMA",
      "alert": "OK",
      "vis_m": 9999,
      "fzfg": false,
      "metar_trigger": false,
      "taf_trigger": false,
      "metar": "METAR LPMA 140430Z 02012KT 360V060 9999 SCT016 15/09 Q1024",
      "taf": "TAF LPMA 132300Z 1400/1424 02010KT 9999 SCT015"
    },
    {
      "icao": "LPPR",
      "alert": "OK",
      "vis_m": 7000,
      "fzfg": false,
      "metar_trigger": false,
      "taf_trigger": false,
      "metar": "METAR LPPR 140430Z 18007KT 7000 -DZRA SCT003 BKN005 13/12 Q1021",
      "taf": "TAF LPPR 132300Z 1400/1424 17008KT 9999 SCT008 BKN016"
    },
    {
      "icao": "LPPS",
      "alert": "OK",
      "vis_m": 9999,
      "fzfg": false,
      "metar_trigger": false,
      "taf_trigger": false,
      "metar": "METAR LPPS 140430Z 06009KT 020V090 9999 FEW015 BKN030 14/09 Q1024",
      "taf": "TAF LPPS 132300Z 1400/1506 03010KT 9999 FEW015 BKN030"
    },
    {
      "icao": "LPPT",
      "alert": "OK",
      "vis_m": 9999,
      "fzfg": false,
      "metar_trigger": false,
      "taf_trigger": false,
      "metar": "METAR LPPT 140430Z 30004KT 9999 FEW010 BKN012 14/13 Q1023",
      "taf": "TAF LPPT 132300Z 1400/1506 VRB05KT 9999 SCT008 BKN012"
    },
    {
      "icao": "LQBK",
      "alert": "OK",
      "vis_m": 9999,
      "fzfg": false,
      "metar_trigger": false,
      "taf_trigger": false,
      "metar": "METAR LQBK 140430Z 28003KT CAVOK 10/07 Q1011 NOSIG",
      "taf": "TAF LQBK 132300Z 1400/1424 08007KT 9999 SCT040 TX18/1413Z TN09/1404Z"
    },
    {
      "icao": "LQSA",
      "alert": "OK",
      "vis_m": 9999,
      "fzfg": false,
      "metar_trigger": false,
      "taf_trigger": false,
      "metar": "METAR LQSA 140430Z 13012KT 9999 BKN050 16/05 Q1012 NOSIG",
      "taf": "TAF LQSA 132300Z 1400/1424 14007KT 9999 SCT055 TX20/1413Z TN10/1404Z"
    },
    {
      "icao": "LQTZ",
      "alert": "OK",
      "vis_m": 9999,
      "fzfg": false,
      "metar_trigger": false,
      "taf_trigger": false,
      "metar": "METAR LQTZ 140430Z 10007KT CAVOK 14/08 Q1012",
      "taf": "TAF LQTZ 132300Z 1400/1424 15005KT CAVOK TX20/1413Z TN08/1404Z"
    },
    {
      "icao": "LRBC",
      "alert": "OK",
      "vis_m": 9999,
      "fzfg": false,
      "metar_trigger": false,
      "taf_trigger": false,
      "metar": "METAR LRBC 140430Z 00000KT CAVOK 05/03 Q1025",
      "taf": "TAF LRBC 140200Z 1403/1412 VRB03KT CAVOK"
    },
    {
      "icao": "LRBS",
      "alert": "OK",
      "vis_m": 9999,
      "fzfg": false,
      "metar_trigger": false,
      "taf_trigger": false,
      "metar": "METAR LRBS 140430Z 06007KT CAVOK 06/05 Q1024 NOSIG",
      "taf": "TAF LRBS 132300Z 1400/1424 07010KT CAVOK"
    },
    {
      "icao": "LRBV",
      "alert": "OK",
      "vis_m": 9999,
      "fzfg": false,
      "metar_trigger": false,
      "taf_trigger": false,
      "metar": "METAR LRBV 140430Z 31005KT 280V350 9999 FEW085 05/01 Q1021",
      "taf": "TAF LRBV 140200Z 1403/1412 VRB04KT 9999 BKN055"
    },
    {
      "icao": "LRCL",
      "alert": "OK",
      "vis_m": 9999,
      "fzfg": false,
      "metar_trigger": false,
      "taf_trigger": false,
      "metar": "METAR LRCL 140430Z 00000KT CAVOK 07/03 Q1020",
      "taf": "TAF LRCL 140200Z 1403/1412 12008KT CAVOK"
    },
    {
      "icao": "LRCV",
      "alert": "OK",
      "vis_m": 9999,
      "fzfg": false,
      "metar_trigger": false,
      "taf_trigger": false,
      "metar": "METAR LRCV 140430Z 09016KT CAVOK 08/03 Q1021",
      "taf": "TAF LRCV 140200Z 1403/1412 08014KT CAVOK"
    },
    {
      "icao": "LRIA",
      "alert": "OK",
      "vis_m": 9999,
      "fzfg": false,
      "metar_trigger": false,
      "taf_trigger": false,
      "metar": "METAR LRIA 140430Z 08006KT CAVOK 04/01 Q1025",
      "taf": "TAF LRIA 140200Z 1403/1412 10008KT CAVOK"
    },
    {
      "icao": "LROP",
      "alert": "OK",
      "vis_m": 9999,
      "fzfg": false,
      "metar_trigger": false,
      "taf_trigger": false,
      "metar": "METAR LROP 140430Z 06010KT CAVOK 06/04 Q1024 NOSIG",
      "taf": "TAF LROP 132300Z 1400/1424 08010KT CAVOK"
    },
    {
      "icao": "LRSB",
      "alert": "OK",
      "vis_m": 9999,
      "fzfg": false,
      "metar_trigger": false,
      "taf_trigger": false,
      "metar": "METAR LRSB 140430Z 24003KT CAVOK 06/04 Q1019",
      "taf": "TAF LRSB 132300Z 1400/1424 15009KT CAVOK"
    },
    {
      "icao": "LRSM",
      "alert": "OK",
      "vis_m": 9999,
      "fzfg": false,
      "metar_trigger": false,
      "taf_trigger": false,
      "metar": "METAR LRSM 140430Z AUTO 14009KT 9999 FEW090/// BKN110/// 11/01 Q1019",
      "taf": "TAF LRSM 140200Z 1403/1412 12008KT CAVOK"
    },
    {
      "icao": "LRSV",
      "alert": "OK",
      "vis_m": 9999,
      "fzfg": false,
      "metar_trigger": false,
      "taf_trigger": false,
      "metar": "METAR LRSV 140430Z 15010KT CAVOK 04/01 Q1023",
      "taf": "TAF LRSV 140200Z 1403/1412 13009KT CAVOK"
    },
    {
      "icao": "LRTM",
      "alert": "OK",
      "vis_m": 9999,
      "fzfg": false,
      "metar_trigger": false,
      "taf_trigger": false,
      "metar": "METAR LRTM 140430Z 09009KT CAVOK 09/02 Q1020",
      "taf": "TAF LRTM 140200Z 1403/1412 09009KT CAVOK"
    },
    {
      "icao": "LRTR",
      "alert": "OK",
      "vis_m": 9999,
      "fzfg": false,
      "metar_trigger": false,
      "taf_trigger": false,
      "metar": "METAR LRTR 140430Z 09008KT CAVOK 10/03 Q1016",
      "taf": "TAF LRTR 132300Z 1400/1424 09010KT CAVOK"
    },
    {
      "icao": "LTAC",
      "alert": "OK",
      "vis_m": 9999,
      "fzfg": false,
      "metar_trigger": false,
      "taf_trigger": false,
      "metar": "METAR LTAC 140420Z VRB01KT 9999 FEW040 BKN080 01/M02 Q1022 NOSIG RMK RWY21C VRB01KT RWY03L 00000KT RWY21R 00000KT RWY03R 00000KT RWY21L 00000KT",
      "taf": "TAF LTAC 132240Z 1400/1424 VRB02KT CAVOK"
    },
    {
      "icao": "LTFM",
      "alert": "OK",
      "vis_m": 9999,
      "fzfg": false,
      "metar_trigger": false,
      "taf_trigger": false,
      "metar": "METAR LTFM 140350Z 09008KT CAVOK 08/06 Q1023 NOSIG RMK RWY17L 10004KT RWY34L 08007KT RWY16R 10003KT RWY36 10008KT 050V110 RWY18 10006KT",
      "taf": "TAF LTFM 132240Z 1400/1506 10008KT CAVOK"
    },
    {
      "icao": "LUKK",
      "alert": "OK",
      "vis_m": 9999,
      "fzfg": false,
      "metar_trigger": false,
      "taf_trigger": false,
      "metar": "METAR LUKK 140430Z VRB03KT CAVOK 01/M00 Q1026 NOSIG",
      "taf": "TAF LUKK 132326Z 1400/1424 VRB04KT 4000 BR NSC"
    },
    {
      "icao": "LWOH",
      "alert": "OK",
      "vis_m": 9999,
      "fzfg": false,
      "metar_trigger": false,
      "taf_trigger": false,
      "metar": "METAR LWOH 140450Z VRB02KT 9999 FEW035 08/06 Q1017",
      "taf": "TAF LWOH 140230Z 1403/1503 31006KT 9999 FEW040"
    },
    {
      "icao": "LWSK",
      "alert": "OK",
      "vis_m": 9999,
      "fzfg": false,
      "metar_trigger": false,
      "taf_trigger": false,
      "metar": "METAR LWSK 140450Z 04003KT 9999 FEW049 07/05 Q1019 NOSIG",
      "taf": "TAF LWSK 140230Z 1403/1503 VRB02KT 9999 FEW050 SCT090"
    },
    {
      "icao": "LYBE",
      "alert": "OK",
      "vis_m": 9999,
      "fzfg": false,
      "metar_trigger": false,
      "taf_trigger": false,
      "metar": "METAR LYBE 140430Z 12016KT CAVOK 12/05 Q1015 NOSIG",
      "taf": "TAF LYBE 132300Z 1400/1424 13017KT CAVOK TX16/1413Z TN12/1404Z"
    },
    {
      "icao": "LYNI",
      "alert": "OK",
      "vis_m": 9999,
      "fzfg": false,
      "metar_trigger": false,
      "taf_trigger": false,
      "metar": "METAR LYNI 140430Z 10017KT 9999 BKN040 OVC085 13/04 Q1017 NOSIG",
      "taf": "TAF LYNI 132300Z 1400/1424 11007KT CAVOK TX19/1413Z TN11/1404Z"
    },
    {
      "icao": "LYPG",
      "alert": "OK",
      "vis_m": 9999,
      "fzfg": false,
      "metar_trigger": false,
      "taf_trigger": false,
      "metar": "METAR LYPG 140430Z VRB01KT 9999 FEW050 BKN070 15/10 Q1013 NOSIG",
      "taf": "TAF LYPG 132300Z 1400/1424 36005KT 9999 SCT040 BKN080 TX23/1413Z TN12/1404Z"
    },
    {
      "icao": "LZIB",
      "alert": "OK",
      "vis_m": 9999,
      "fzfg": false,
      "metar_trigger": false,
      "taf_trigger": false,
      "metar": "METAR LZIB 140430Z 03008KT CAVOK 10/M01 Q1015 NOSIG",
      "taf": "TAF LZIB 132315Z 1400/1500 07007KT CAVOK"
    },
    {
      "icao": "LZKZ",
      "alert": "OK",
      "vis_m": 9999,
      "fzfg": false,
      "metar_trigger": false,
      "taf_trigger": false,
      "metar": "METAR LZKZ 140430Z 34006KT CAVOK 10/02 Q1018 NOSIG",
      "taf": "TAF LZKZ 132315Z 1400/1500 04006KT CAVOK"
    },
    {
      "icao": "LZTT",
      "alert": "OK",
      "vis_m": 9999,
      "fzfg": false,
      "metar_trigger": false,
      "taf_trigger": false,
      "metar": "METAR LZTT 140430Z 29002KT 9999 OVC079 04/M00 Q1018",
      "taf": "TAF LZTT 132315Z 1400/1500 VRB02KT CAVOK"
    },
    {
      "icao": "OEJN",
      "alert": "OK",
      "vis_m": 9999,
      "fzfg": false,
      "metar_trigger": false,
      "taf_trigger": false,
      "metar": "METAR OEJN 140400Z 33006KT 9999 FEW040 26/14 Q1011 NOSIG",
      "taf": "TAF OEJN 132300Z 1400/1506 35005KT 7000 SCT040"
    },
    {
      "icao": "OEMA",
      "alert": "OK",
      "vis_m": 9999,
      "fzfg": false,
      "metar_trigger": false,
      "taf_trigger": false,
      "metar": "METAR OEMA 140400Z 02003KT CAVOK 23/M03 Q1018 NOSIG",
      "taf": "TAF OEMA 132300Z 1400/1506 06008KT 7000 FEW040"
    },
    {
      "icao": "OJAI",
      "alert": "OK",
      "vis_m": null,
      "fzfg": false,
      "metar_trigger": false,
      "taf_trigger": false,
      "metar": "",
      "taf": ""
    },
    {
      "icao": "OMAA",
      "alert": "OK",
      "vis_m": null,
      "fzfg": false,
      "metar_trigger": false,
      "taf_trigger": false,
      "metar": "",
      "taf": ""
    },
    {
      "icao": "OMDB",
      "alert": "OK",
      "vis_m": null,
      "fzfg": false,
      "metar_trigger": false,
      "taf_trigger": false,
      "metar": "",
      "taf": ""
    },
    {
      "icao": "UAAA",
      "alert": "OK",
      "vis_m": 9999,
      "fzfg": false,
      "metar_trigger": false,
      "taf_trigger": false,
      "metar": "METAR UAAA 140430Z 02003MPS 310V060 9999 SCT200 18/00 Q1020 NOSIG",
      "taf": "TAF UAAA 132302Z 1400/1424 22003MPS 9999 FEW050CB SCT100 TX22/1409Z TN06/1401Z"
    },
    {
      "icao": "UBBB",
      "alert": "OK",
      "vis_m": 9999,
      "fzfg": false,
      "metar_trigger": false,
      "taf_trigger": false,
      "metar": "METAR UBBB 140430Z 28006KT 9999 FEW040CB SCT040 10/08 Q1020 NOSIG",
      "taf": "TAF UBBB 132302Z 1400/1424 33010KT 9999 SCT012 BKN040 TX14/1410Z TN09/1401Z"
    },
    {
      "icao": "UDSG",
      "alert": "OK",
      "vis_m": 9999,
      "fzfg": false,
      "metar_trigger": false,
      "taf_trigger": false,
      "metar": "METAR UDSG 140430Z 27001KT 9999 FEW046 M01/M05 Q1021 NOSIG",
      "taf": "TAF UDSG 132258Z 1400/1424 24006KT 9999 SCT050"
    },
    {
      "icao": "UDYZ",
      "alert": "OK",
      "vis_m": 9999,
      "fzfg": false,
      "metar_trigger": false,
      "taf_trigger": false,
      "metar": "METAR UDYZ 140430Z 06003KT 9999 SCT043CB 03/00 Q1021 NOSIG",
      "taf": "TAF UDYZ 132300Z 1400/1424 20006KT 9999 BKN030"
    },
    {
      "icao": "UGKO",
      "alert": "OK",
      "vis_m": 9999,
      "fzfg": false,
      "metar_trigger": false,
      "taf_trigger": false,
      "metar": "METAR UGKO 140430Z VRB02KT 9999 SCT022 BKN030 06/04 Q1024 NOSIG",
      "taf": "TAF UGKO 132300Z 1400/1424 25007KT 9999 SCT023 OVC045 TX13/1411Z TN05/1403Z"
    }
  ]
}