{
  "ts_utc": "2026-07-03T18:53:54Z",
  "threshold_m": 150,
  "source": "stations_override.txt (ICAO list) + aviationweather.gov (METAR/TAF raw)",
  "station_count": 159,
  "stations": [
    {
      "icao": "BIKF",
      "alert": "OK",
      "vis_m": 9999,
      "fzfg": false,
      "metar_trigger": false,
      "taf_trigger": false,
      "metar": "METAR BIKF 031830Z 30009KT 280V340 9999 SCT037 BKN180 12/04 Q1005",
      "taf": "TAF BIKF 031626Z 0318/0418 33012KT 9999 SCT030 TX12/0415Z TN05/0404Z"
    },
    {
      "icao": "BKPR",
      "alert": "OK",
      "vis_m": 9999,
      "fzfg": false,
      "metar_trigger": false,
      "taf_trigger": false,
      "metar": "METAR BKPR 031830Z 35007KT 9999 BKN065 22/16 Q1019 NOSIG",
      "taf": "TAF BKPR 031730Z 0318/0418 33008KT 9999 FEW050"
    },
    {
      "icao": "EBCI",
      "alert": "OK",
      "vis_m": 9999,
      "fzfg": false,
      "metar_trigger": false,
      "taf_trigger": false,
      "metar": "METAR EBCI 031820Z 35009KT CAVOK 21/09 Q1027 NOSIG",
      "taf": "TAF EBCI 031701Z 0318/0424 34007KT CAVOK"
    },
    {
      "icao": "EDDB",
      "alert": "OK",
      "vis_m": 9999,
      "fzfg": false,
      "metar_trigger": false,
      "taf_trigger": false,
      "metar": "METAR EDDB 031820Z AUTO 30015KT 9999 FEW046 20/10 Q1021 TEMPO 29015G25KT",
      "taf": "TAF EDDB 031700Z 0318/0418 30015G25KT CAVOK"
    },
    {
      "icao": "EDDH",
      "alert": "OK",
      "vis_m": 9999,
      "fzfg": false,
      "metar_trigger": false,
      "taf_trigger": false,
      "metar": "METAR EDDH 031820Z AUTO 29014KT 260V330 9999 BKN034 OVC040 16/10 Q1024 BECMG 29008KT",
      "taf": "TAF EDDH 031700Z 0318/0424 30015G25KT 9999 SCT030"
    },
    {
      "icao": "EDDK",
      "alert": "OK",
      "vis_m": 9999,
      "fzfg": false,
      "metar_trigger": false,
      "taf_trigger": false,
      "metar": "METAR EDDK 031820Z AUTO 30010KT 260V330 CAVOK 22/09 Q1025 NOSIG",
      "taf": "TAF EDDK 031700Z 0318/0424 32009KT CAVOK"
    },
    {
      "icao": "EDDN",
      "alert": "OK",
      "vis_m": 9999,
      "fzfg": false,
      "metar_trigger": false,
      "taf_trigger": false,
      "metar": "METAR EDDN 031820Z AUTO 33010KT 300V360 CAVOK 22/08 Q1024 BECMG 33005KT",
      "taf": "TAF EDDN 031700Z 0318/0418 32008KT CAVOK"
    },
    {
      "icao": "EDDS",
      "alert": "OK",
      "vis_m": 9999,
      "fzfg": false,
      "metar_trigger": false,
      "taf_trigger": false,
      "metar": "METAR EDDS 031820Z AUTO 33007KT 310V010 CAVOK 24/03 Q1025 NOSIG",
      "taf": "TAF EDDS 031700Z 0318/0418 33007KT CAVOK"
    },
    {
      "icao": "EDFH",
      "alert": "OK",
      "vis_m": 9999,
      "fzfg": false,
      "metar_trigger": false,
      "taf_trigger": false,
      "metar": "METAR EDFH 031820Z 03006KT 350V050 CAVOK 22/07 Q1026",
      "taf": "TAF EDFH 031700Z 0318/0418 32006KT CAVOK"
    },
    {
      "icao": "EDJA",
      "alert": "OK",
      "vis_m": 9999,
      "fzfg": false,
      "metar_trigger": false,
      "taf_trigger": false,
      "metar": "METAR EDJA 031820Z 02007KT 330V030 CAVOK 22/06 Q1026",
      "taf": "TAF EDJA 031700Z 0318/0403 35004KT CAVOK"
    },
    {
      "icao": "EDLW",
      "alert": "OK",
      "vis_m": 9999,
      "fzfg": false,
      "metar_trigger": false,
      "taf_trigger": false,
      "metar": "METAR EDLW 031820Z 29005KT 240V030 CAVOK 21/09 Q1025",
      "taf": "TAF EDLW 031700Z 0318/0418 30007KT CAVOK"
    },
    {
      "icao": "EDNY",
      "alert": "OK",
      "vis_m": 9999,
      "fzfg": false,
      "metar_trigger": false,
      "taf_trigger": false,
      "metar": "METAR EDNY 031820Z 20005KT CAVOK 24/13 Q1024",
      "taf": "TAF EDNY 031700Z 0318/0403 VRB03KT CAVOK"
    },
    {
      "icao": "EDSB",
      "alert": "OK",
      "vis_m": 9999,
      "fzfg": false,
      "metar_trigger": false,
      "taf_trigger": false,
      "metar": "METAR EDSB 031820Z VRB01KT CAVOK 26/07 Q1024",
      "taf": "TAF EDSB 031700Z 0318/0418 02004KT CAVOK"
    },
    {
      "icao": "EETN",
      "alert": "OK",
      "vis_m": 9999,
      "fzfg": false,
      "metar_trigger": false,
      "taf_trigger": false,
      "metar": "METAR EETN 031850Z 17004KT 9999 FEW030CB SCT048 16/14 Q1003 NOSIG",
      "taf": "TAF EETN 031730Z 0318/0418 15005KT 9999 SCT030"
    },
    {
      "icao": "EFTU",
      "alert": "OK",
      "vis_m": 9999,
      "fzfg": false,
      "metar_trigger": false,
      "taf_trigger": false,
      "metar": "METAR EFTU 031850Z AUTO VRB01KT 9999 FEW039 //////CB 15/14 Q1002",
      "taf": "TAF EFTU 031734Z 0318/0418 21006KT 9999 BKN030 FEW040CB"
    },
    {
      "icao": "EGBB",
      "alert": "OK",
      "vis_m": 9999,
      "fzfg": false,
      "metar_trigger": false,
      "taf_trigger": false,
      "metar": "METAR EGBB 031820Z 27009KT CAVOK 24/08 Q1026",
      "taf": "TAF EGBB 031659Z 0318/0418 26010KT 9999 FEW045"
    },
    {
      "icao": "EGGP",
      "alert": "OK",
      "vis_m": 9999,
      "fzfg": false,
      "metar_trigger": false,
      "taf_trigger": false,
      "metar": "METAR EGGP 031820Z 23009KT 190V250 CAVOK 20/10 Q1025",
      "taf": "TAF EGGP 031656Z 0318/0418 27010KT 9999 FEW035"
    },
    {
      "icao": "EGGW",
      "alert": "OK",
      "vis_m": 9999,
      "fzfg": false,
      "metar_trigger": false,
      "taf_trigger": false,
      "metar": "METAR EGGW 031820Z AUTO 27015KT 9999 NCD 24/06 Q1026",
      "taf": "TAF EGGW 031653Z 0318/0418 29008KT 9999 FEW040"
    },
    {
      "icao": "EGKK",
      "alert": "OK",
      "vis_m": 9999,
      "fzfg": false,
      "metar_trigger": false,
      "taf_trigger": false,
      "metar": "METAR EGKK 031820Z 21008KT 190V250 CAVOK 23/12 Q1027",
      "taf": "TAF EGKK 031652Z 0318/0424 25009KT 9999 FEW030"
    },
    {
      "icao": "EGNM",
      "alert": "OK",
      "vis_m": 9999,
      "fzfg": false,
      "metar_trigger": false,
      "taf_trigger": false,
      "metar": "METAR EGNM 031820Z 26012KT 9999 FEW031 18/12 Q1025",
      "taf": "TAF EGNM 031655Z 0318/0418 25012KT 9999 SCT030"
    },
    {
      "icao": "EGPD",
      "alert": "OK",
      "vis_m": 9999,
      "fzfg": false,
      "metar_trigger": false,
      "taf_trigger": false,
      "metar": "METAR EGPD 031820Z AUTO 32011KT 9999 NCD 19/10 Q1020",
      "taf": "TAF EGPD 031657Z 0318/0418 33007KT 9999 FEW040"
    },
    {
      "icao": "EGPF",
      "alert": "OK",
      "vis_m": 9999,
      "fzfg": false,
      "metar_trigger": false,
      "taf_trigger": false,
      "metar": "METAR EGPF 031820Z AUTO 22007KT 9999 SCT014/// BKN025/// BKN032/// //////TCU 14/12 Q1023",
      "taf": ""
    },
    {
      "icao": "EHBK",
      "alert": "OK",
      "vis_m": 9999,
      "fzfg": false,
      "metar_trigger": false,
      "taf_trigger": false,
      "metar": "METAR EHBK 031825Z AUTO 32007KT 280V360 9999 NSC 21/10 Q1026 NOSIG",
      "taf": "TAF EHBK 031713Z 0318/0424 32010KT CAVOK"
    },
    {
      "icao": "EHEH",
      "alert": "OK",
      "vis_m": 9999,
      "fzfg": false,
      "metar_trigger": false,
      "taf_trigger": false,
      "metar": "METAR EHEH 031825Z AUTO 34006KT 290V030 9999 OVC280 18/09 Q1027 BLU NOSIG RMK TREND REMOTE BY EHWX",
      "taf": "TAF EHEH 031717Z 0318/0424 32008KT CAVOK"
    },
    {
      "icao": "EKBI",
      "alert": "OK",
      "vis_m": 9999,
      "fzfg": false,
      "metar_trigger": false,
      "taf_trigger": false,
      "metar": "METAR EKBI 031820Z AUTO 28016KT 9999 OVC022/// 14/09 Q1020",
      "taf": "TAF EKBI 031727Z 0318/0418 28022KT 9999 SCT025"
    },
    {
      "icao": "EKCH",
      "alert": "OK",
      "vis_m": 9999,
      "fzfg": false,
      "metar_trigger": false,
      "taf_trigger": false,
      "metar": "METAR EKCH 031820Z AUTO 28022KT 9999 BKN032/// 16/09 Q1016 TEMPO 28022G30KT",
      "taf": "TAF EKCH 031727Z 0318/0418 28020KT 9999 BKN025"
    },
    {
      "icao": "ENAL",
      "alert": "OK",
      "vis_m": 9999,
      "fzfg": false,
      "metar_trigger": false,
      "taf_trigger": false,
      "metar": "METAR ENAL 031820Z 24011KT 9999 SCT030 BKN047 13/09 Q1015",
      "taf": "TAF ENAL 031700Z 0318/0403 28008KT 9999 SCT009 BKN020"
    },
    {
      "icao": "ENBR",
      "alert": "OK",
      "vis_m": 9999,
      "fzfg": false,
      "metar_trigger": false,
      "taf_trigger": false,
      "metar": "METAR ENBR 031820Z 26005KT 210V300 9999 FEW020 SCT038 BKN045 12/08 Q1019 TEMPO BKN014 RMK WIND 1200FT 27010KT",
      "taf": "TAF ENBR 031700Z 0318/0418 24007KT 9999 FEW010 BKN025"
    },
    {
      "icao": "ENGM",
      "alert": "OK",
      "vis_m": 9999,
      "fzfg": false,
      "metar_trigger": false,
      "taf_trigger": false,
      "metar": "METAR ENGM 031820Z VRB02KT 9999 VCSH FEW040CB 16/11 Q1011 NOSIG",
      "taf": "TAF ENGM 031700Z 0318/0418 32006KT 9999 FEW030"
    },
    {
      "icao": "ENHD",
      "alert": "OK",
      "vis_m": 9999,
      "fzfg": false,
      "metar_trigger": false,
      "taf_trigger": false,
      "metar": "METAR ENHD 031820Z 29011KT 9999 FEW017 BKN040 14/09 Q1020",
      "taf": "TAF ENHD 031400Z 0315/0322 32015KT 9999 SCT022 BKN035"
    },
    {
      "icao": "ENTC",
      "alert": "OK",
      "vis_m": 9999,
      "fzfg": false,
      "metar_trigger": false,
      "taf_trigger": false,
      "metar": "METAR ENTC 031820Z 03012KT 9999 SCT063 13/08 Q1008 RMK WIND 2600FT 17012KT",
      "taf": "TAF ENTC 031700Z 0318/0418 02010KT 9999 FEW060"
    },
    {
      "icao": "ENTO",
      "alert": "OK",
      "vis_m": 9999,
      "fzfg": false,
      "metar_trigger": false,
      "taf_trigger": false,
      "metar": "METAR ENTO 031820Z 31004KT 9999 FEW013 SCT040 20/12 Q1011 NOSIG",
      "taf": "TAF ENTO 031700Z 0318/0418 32012KT 9999 FEW040"
    },
    {
      "icao": "ENVA",
      "alert": "OK",
      "vis_m": 9999,
      "fzfg": false,
      "metar_trigger": false,
      "taf_trigger": false,
      "metar": "METAR ENVA 031820Z 29018KT 9999 FEW015CB BKN028 13/10 Q1014 TEMPO SHRA BKN020CB RMK WIND 670FT 29019KT",
      "taf": "TAF ENVA 031700Z 0318/0418 26020KT 9999 SCT015 BKN018"
    },
    {
      "icao": "ENZV",
      "alert": "OK",
      "vis_m": 9999,
      "fzfg": false,
      "metar_trigger": false,
      "taf_trigger": false,
      "metar": "METAR ENZV 031820Z 30014KT 9999 FEW018 BKN035 14/09 Q1020 NOSIG",
      "taf": "TAF ENZV 031700Z 0318/0418 31012KT 9999 FEW015 BKN035"
    },
    {
      "icao": "EPGD",
      "alert": "OK",
      "vis_m": 9999,
      "fzfg": false,
      "metar_trigger": false,
      "taf_trigger": false,
      "metar": "METAR EPGD 031830Z 27021G35KT 9999 BKN013 14/11 Q1014",
      "taf": "TAF EPGD 031730Z 0318/0418 25015KT 9999 SCT015"
    },
    {
      "icao": "EPKK",
      "alert": "OK",
      "vis_m": 9999,
      "fzfg": false,
      "metar_trigger": false,
      "taf_trigger": false,
      "metar": "METAR EPKK 031830Z 28007KT CAVOK 19/06 Q1020",
      "taf": "TAF EPKK 031730Z 0318/0418 30013KT 9999 FEW060"
    },
    {
      "icao": "EPKT",
      "alert": "OK",
      "vis_m": 9999,
      "fzfg": false,
      "metar_trigger": false,
      "taf_trigger": false,
      "metar": "METAR EPKT 031830Z 29008KT CAVOK 18/06 Q1020",
      "taf": "TAF EPKT 031730Z 0318/0418 30015KT CAVOK"
    },
    {
      "icao": "EPLB",
      "alert": "OK",
      "vis_m": 9999,
      "fzfg": false,
      "metar_trigger": false,
      "taf_trigger": false,
      "metar": "METAR EPLB 031830Z 31008KT CAVOK 20/07 Q1016",
      "taf": "TAF EPLB 031730Z 0318/0418 29014KT CAVOK"
    },
    {
      "icao": "EPMO",
      "alert": "OK",
      "vis_m": 9999,
      "fzfg": false,
      "metar_trigger": false,
      "taf_trigger": false,
      "metar": "METAR EPMO 031830Z 29005KT CAVOK 19/08 Q1016",
      "taf": "TAF EPMO 031730Z 0318/0418 29012KT CAVOK"
    },
    {
      "icao": "EPPO",
      "alert": "OK",
      "vis_m": 9999,
      "fzfg": false,
      "metar_trigger": false,
      "taf_trigger": false,
      "metar": "METAR EPPO 031830Z 28012KT CAVOK 19/07 Q1018",
      "taf": "TAF EPPO 031730Z 0318/0418 29016KT CAVOK"
    },
    {
      "icao": "EPRA",
      "alert": "OK",
      "vis_m": 9999,
      "fzfg": false,
      "metar_trigger": false,
      "taf_trigger": false,
      "metar": "METAR EPRA 031830Z 30006KT 260V330 CAVOK 20/05 Q1017",
      "taf": "TAF EPRA 031730Z 0318/0403 28010KT CAVOK"
    },
    {
      "icao": "EPRZ",
      "alert": "OK",
      "vis_m": 9999,
      "fzfg": false,
      "metar_trigger": false,
      "taf_trigger": false,
      "metar": "METAR EPRZ 031830Z 29007KT CAVOK 21/06 Q1018",
      "taf": "TAF EPRZ 031730Z 0318/0418 30012KT CAVOK"
    },
    {
      "icao": "EPSC",
      "alert": "OK",
      "vis_m": 9999,
      "fzfg": false,
      "metar_trigger": false,
      "taf_trigger": false,
      "metar": "METAR EPSC 031830Z 28015KT 9999 FEW047 18/07 Q1018",
      "taf": "TAF EPSC 031730Z 0318/0418 28015KT 9999 SCT040"
    },
    {
      "icao": "EPSY",
      "alert": "OK",
      "vis_m": 9999,
      "fzfg": false,
      "metar_trigger": false,
      "taf_trigger": false,
      "metar": "METAR EPSY 031830Z 26012KT 220V310 CAVOK 17/08 Q1015",
      "taf": "TAF EPSY 031730Z 0318/0403 27012KT 9999 SCT040"
    },
    {
      "icao": "EPWA",
      "alert": "OK",
      "vis_m": 9999,
      "fzfg": false,
      "metar_trigger": false,
      "taf_trigger": false,
      "metar": "METAR EPWA 031830Z 30008KT CAVOK 20/07 Q1016 NOSIG",
      "taf": "TAF EPWA 031730Z 0318/0418 29012KT CAVOK"
    },
    {
      "icao": "EPWR",
      "alert": "OK",
      "vis_m": 9999,
      "fzfg": false,
      "metar_trigger": false,
      "taf_trigger": false,
      "metar": "METAR EPWR 031830Z 28013KT CAVOK 20/08 Q1020",
      "taf": "TAF EPWR 031730Z 0318/0418 28018KT CAVOK"
    },
    {
      "icao": "ESGG",
      "alert": "OK",
      "vis_m": 9999,
      "fzfg": false,
      "metar_trigger": false,
      "taf_trigger": false,
      "metar": "METAR ESGG 031820Z 29011KT 9999 FEW088 19/12 Q1011",
      "taf": "TAF ESGG 031730Z 0318/0418 29012KT CAVOK"
    },
    {
      "icao": "ESKN",
      "alert": "OK",
      "vis_m": 9999,
      "fzfg": false,
      "metar_trigger": false,
      "taf_trigger": false,
      "metar": "METAR ESKN 031820Z 33013G25KT 300V010 9999 SCT016 BKN051 16/14 Q1005",
      "taf": "TAF ESKN 031730Z 0318/0418 32010KT 9999 SCT015 BKN040"
    },
    {
      "icao": "ESMS",
      "alert": "OK",
      "vis_m": 9999,
      "fzfg": false,
      "metar_trigger": false,
      "taf_trigger": false,
      "metar": "METAR ESMS 031820Z 28019KT 9999 BKN028 16/10 Q1015",
      "taf": "TAF ESMS 031727Z 0318/0418 28020KT 9999 BKN025"
    },
    {
      "icao": "ESSA",
      "alert": "OK",
      "vis_m": 9999,
      "fzfg": false,
      "metar_trigger": false,
      "taf_trigger": false,
      "metar": "METAR ESSA 031820Z 32012KT 9999 SCT014 BKN061 14/11 Q1004 TEMPO SCT050CB",
      "taf": "TAF ESSA 031730Z 0318/0418 33012KT 9999 BKN030"
    },
    {
      "icao": "EYKA",
      "alert": "OK",
      "vis_m": 9999,
      "fzfg": false,
      "metar_trigger": false,
      "taf_trigger": false,
      "metar": "METAR EYKA 031850Z 26012KT 9999 -SHRA FEW018 SCT024 BKN032CB 15/13 Q1010",
      "taf": "TAF EYKA 031706Z 0318/0418 25010KT 8000 SCT015 BKN030"
    },
    {
      "icao": "EYPA",
      "alert": "OK",
      "vis_m": 9999,
      "fzfg": false,
      "metar_trigger": false,
      "taf_trigger": false,
      "metar": "METAR EYPA 031850Z 27011G24KT 220V310 9999 OVC014 17/15 Q1006",
      "taf": "TAF EYPA 031700Z 0318/0418 28008G18KT 8000 BKN010 BKN020"
    },
    {
      "icao": "EYVI",
      "alert": "OK",
      "vis_m": 9999,
      "fzfg": false,
      "metar_trigger": false,
      "taf_trigger": false,
      "metar": "METAR EYVI 031850Z 26009KT 9999 FEW027 16/12 Q1011 NOSIG",
      "taf": "TAF EYVI 031708Z 0318/0418 24010KT 8000 SCT035"
    },
    {
      "icao": "GCFV",
      "alert": "OK",
      "vis_m": 9999,
      "fzfg": false,
      "metar_trigger": false,
      "taf_trigger": false,
      "metar": "METAR GCFV 031830Z 15007KT 9999 FEW020 24/20 Q1014",
      "taf": "TAF GCFV 031400Z 0315/0415 12006KT 9999 FEW020 TX27/0414Z TN21/0406Z"
    },
    {
      "icao": "GCLP",
      "alert": "OK",
      "vis_m": 9999,
      "fzfg": false,
      "metar_trigger": false,
      "taf_trigger": false,
      "metar": "METAR GCLP 031830Z 04011KT 9999 FEW020 25/19 Q1015 NOSIG",
      "taf": "TAF GCLP 031400Z 0315/0415 07010KT 9999 FEW020 TX27/0414Z TN21/0406Z"
    },
    {
      "icao": "GCTS",
      "alert": "OK",
      "vis_m": 9999,
      "fzfg": false,
      "metar_trigger": false,
      "taf_trigger": false,
      "metar": "METAR GCTS 031830Z 09010KT 060V120 9999 FEW030 25/19 Q1015 WS R07 NOSIG",
      "taf": "TAF GCTS 031400Z 0315/0415 18006KT 9999 SCT030 TX27/0414Z TN22/0406Z"
    },
    {
      "icao": "GMAD",
      "alert": "OK",
      "vis_m": 6000,
      "fzfg": false,
      "metar_trigger": false,
      "taf_trigger": false,
      "metar": "METAR GMAD 031830Z 27010KT 240V300 6000 BKN020 SCT026TCU 23/20 Q1015 NOSIG",
      "taf": "TAF GMAD 031700Z 0318/0424 22008KT 6000 SCT020 SCT100"
    },
    {
      "icao": "GMMN",
      "alert": "OK",
      "vis_m": 9999,
      "fzfg": false,
      "metar_trigger": false,
      "taf_trigger": false,
      "metar": "METAR GMMN 031830Z 35007KT CAVOK 36/16 Q1014 NOSIG",
      "taf": "TAF GMMN 031700Z 0318/0424 35008KT CAVOK"
    },
    {
      "icao": "GMMX",
      "alert": "OK",
      "vis_m": 8000,
      "fzfg": false,
      "metar_trigger": false,
      "taf_trigger": false,
      "metar": "METAR GMMX 031830Z 14009KT 8000 SCT033 FEW040CB BKN080 38/13 Q1016 NOSIG",
      "taf": "TAF GMMX 031700Z 0318/0424 24006KT 8000 SCT033 SCT080"
    },
    {
      "icao": "HEGN",
      "alert": "OK",
      "vis_m": 9999,
      "fzfg": false,
      "metar_trigger": false,
      "taf_trigger": false,
      "metar": "METAR HEGN 031800Z 33015KT CAVOK 33/12 Q1006 NOSIG",
      "taf": "TAF HEGN 031700Z 0318/0424 33015KT CAVOK"
    },
    {
      "icao": "HEMA",
      "alert": "OK",
      "vis_m": 9999,
      "fzfg": false,
      "metar_trigger": false,
      "taf_trigger": false,
      "metar": "METAR HEMA 031800Z 33007KT CAVOK 31/17 Q1006 NOSIG",
      "taf": "TAF HEMA 031700Z 0318/0424 32012KT CAVOK"
    },
    {
      "icao": "HESH",
      "alert": "OK",
      "vis_m": 9999,
      "fzfg": false,
      "metar_trigger": false,
      "taf_trigger": false,
      "metar": "METAR HESH 031800Z 34010KT CAVOK 36/11 Q1005 NOSIG",
      "taf": "TAF HESH 031700Z 0318/0424 36015KT CAVOK"
    },
    {
      "icao": "HESX",
      "alert": "OK",
      "vis_m": 9999,
      "fzfg": false,
      "metar_trigger": false,
      "taf_trigger": false,
      "metar": "METAR HESX 031800Z 36008KT CAVOK 29/17 Q1010 NOSIG",
      "taf": "TAF HESX 031700Z 0318/0424 35010KT CAVOK"
    },
    {
      "icao": "LATI",
      "alert": "OK",
      "vis_m": 9999,
      "fzfg": false,
      "metar_trigger": false,
      "taf_trigger": false,
      "metar": "METAR LATI 031850Z 35007KT 300V030 CAVOK 28/16 Q1012 NOSIG",
      "taf": "TAF LATI 031700Z 0318/0418 VRB05KT CAVOK TX36/0412Z TN21/0404Z"
    },
    {
      "icao": "LBPD",
      "alert": "OK",
      "vis_m": 9999,
      "fzfg": false,
      "metar_trigger": false,
      "taf_trigger": false,
      "metar": "METAR LBPD 031830Z AUTO 28015KT 250V310 9999 BKN055/// BKN064/// OVC081/// 24/19 Q1012 TEMPO VRB16G30KT 5000 TSRA SCT030CB",
      "taf": "TAF LBPD 031700Z 0318/0418 29014KT 9999 SCT050"
    },
    {
      "icao": "LBSF",
      "alert": "OK",
      "vis_m": 9999,
      "fzfg": false,
      "metar_trigger": false,
      "taf_trigger": false,
      "metar": "METAR LBSF 031830Z AUTO 29012KT 9999 FEW085/// 22/16 Q1016 NOSIG",
      "taf": "TAF LBSF 031700Z 0318/0418 30012KT 9999 SCT050"
    },
    {
      "icao": "LBWN",
      "alert": "OK",
      "vis_m": 9999,
      "fzfg": false,
      "metar_trigger": false,
      "taf_trigger": false,
      "metar": "METAR LBWN 031830Z AUTO VRB02KT 9999 NCD 25/17 Q1010 NOSIG",
      "taf": "TAF LBWN 031700Z 0318/0418 34010KT 9999 SCT030 SCT045"
    },
    {
      "icao": "LCLK",
      "alert": "OK",
      "vis_m": 9999,
      "fzfg": false,
      "metar_trigger": false,
      "taf_trigger": false,
      "metar": "METAR LCLK 031830Z 22008KT CAVOK 27/24 Q1006 NOSIG",
      "taf": "TAF LCLK 031730Z 0318/0418 22006KT CAVOK"
    },
    {
      "icao": "LCPH",
      "alert": "OK",
      "vis_m": 9999,
      "fzfg": false,
      "metar_trigger": false,
      "taf_trigger": false,
      "metar": "METAR LCPH 031830Z 31008KT 9999 SCT015 25/23 Q1006 TEMPO BKN014",
      "taf": "TAF LCPH 031730Z 0318/0418 34007KT 9999 SCT016"
    },
    {
      "icao": "LEAL",
      "alert": "OK",
      "vis_m": 9999,
      "fzfg": false,
      "metar_trigger": false,
      "taf_trigger": false,
      "metar": "METAR LEAL 031830Z 19006KT 130V240 CAVOK 30/15 Q1022 NOSIG",
      "taf": "TAF LEAL 031700Z 0318/0418 15009KT CAVOK TX33/0412Z TN21/0406Z"
    },
    {
      "icao": "LEBB",
      "alert": "OK",
      "vis_m": 9999,
      "fzfg": false,
      "metar_trigger": false,
      "taf_trigger": false,
      "metar": "METAR LEBB 031830Z 35005KT 270V060 9999 FEW018 SCT027 23/19 Q1028 NOSIG",
      "taf": "TAF LEBB 031700Z 0318/0418 VRB03KT 9999 SCT025 BKN030 TX29/0412Z TN18/0401Z"
    },
    {
      "icao": "LEBL",
      "alert": "OK",
      "vis_m": 9999,
      "fzfg": false,
      "metar_trigger": false,
      "taf_trigger": false,
      "metar": "METAR LEBL 031830Z 21009KT CAVOK 27/20 Q1021 NOSIG",
      "taf": "TAF LEBL 031700Z 0318/0418 20009KT CAVOK TX30/0413Z TN24/0406Z"
    },
    {
      "icao": "LECH",
      "alert": "OK",
      "vis_m": 9999,
      "fzfg": false,
      "metar_trigger": false,
      "taf_trigger": false,
      "metar": "METAR LECH 031830Z AUTO 18006KT 150V210 CAVOK 28/13 Q1022",
      "taf": "TAF LECH 031700Z 0318/0418 22008KT CAVOK TX33/0412Z TN19/0406Z"
    },
    {
      "icao": "LEMD",
      "alert": "OK",
      "vis_m": 9999,
      "fzfg": false,
      "metar_trigger": false,
      "taf_trigger": false,
      "metar": "METAR LEMD 031830Z 13004KT 080V160 CAVOK 36/03 Q1021 NOSIG",
      "taf": "TAF LEMD 031700Z 0318/0424 VRB04KT CAVOK TX39/0416Z TN20/0405Z"
    },
    {
      "icao": "LEMG",
      "alert": "OK",
      "vis_m": 9999,
      "fzfg": false,
      "metar_trigger": false,
      "taf_trigger": false,
      "metar": "METAR LEMG 031830Z 12006KT 080V150 CAVOK 27/17 Q1022 NOSIG",
      "taf": "TAF LEMG 031700Z 0318/0418 12011KT 9999 FEW035 TX31/0414Z TN21/0405Z"
    },
    {
      "icao": "LEVC",
      "alert": "OK",
      "vis_m": 9999,
      "fzfg": false,
      "metar_trigger": false,
      "taf_trigger": false,
      "metar": "METAR LEVC 031830Z 08006KT 040V110 CAVOK 31/17 Q1020 NOSIG",
      "taf": "TAF LEVC 031700Z 0318/0418 13009KT CAVOK TX34/0412Z TN22/0406Z"
    },
    {
      "icao": "LEXJ",
      "alert": "OK",
      "vis_m": 9999,
      "fzfg": false,
      "metar_trigger": false,
      "taf_trigger": false,
      "metar": "METAR LEXJ 031830Z VRB04KT 9999 SCT030 22/19 Q1028",
      "taf": "TAF LEXJ 031400Z 0315/0415 05009KT 9999 FEW020 BKN030 TX28/0412Z TN18/0405Z"
    },
    {
      "icao": "LEZG",
      "alert": "OK",
      "vis_m": 9999,
      "fzfg": false,
      "metar_trigger": false,
      "taf_trigger": false,
      "metar": "METAR LEZG 031830Z 30022KT 270V330 CAVOK 28/15 Q1022 NOSIG",
      "taf": "TAF LEZG 031700Z 0318/0418 30015KT CAVOK TX36/0414Z TN19/0406Z"
    },
    {
      "icao": "LEZL",
      "alert": "OK",
      "vis_m": 9999,
      "fzfg": false,
      "metar_trigger": false,
      "taf_trigger": false,
      "metar": "METAR LEZL 031830Z 22010KT 180V250 CAVOK 37/13 Q1016 NOSIG",
      "taf": "TAF LEZL 031400Z 0315/0415 10009KT CAVOK TX41/0315Z TN25/0405Z"
    },
    {
      "icao": "LFBD",
      "alert": "OK",
      "vis_m": 9999,
      "fzfg": false,
      "metar_trigger": false,
      "taf_trigger": false,
      "metar": "METAR LFBD 031830Z AUTO 30010KT CAVOK 27/17 Q1026 NOSIG",
      "taf": "TAF LFBD 031700Z 0318/0424 30010KT CAVOK TX35/0415Z TN17/0405Z"
    },
    {
      "icao": "LFLL",
      "alert": "OK",
      "vis_m": 9999,
      "fzfg": false,
      "metar_trigger": false,
      "taf_trigger": false,
      "metar": "METAR LFLL 031830Z 35014KT CAVOK 28/08 Q1023 NOSIG",
      "taf": "TAF LFLL 031700Z 0318/0424 35012KT CAVOK"
    },
    {
      "icao": "LFLS",
      "alert": "OK",
      "vis_m": 9999,
      "fzfg": false,
      "metar_trigger": false,
      "taf_trigger": false,
      "metar": "METAR LFLS 031830Z AUTO 35015KT CAVOK 27/09 Q1023 BECMG 35005KT",
      "taf": "TAF LFLS 031400Z 0315/0415 35015KT CAVOK"
    },
    {
      "icao": "LFMN",
      "alert": "OK",
      "vis_m": 9999,
      "fzfg": false,
      "metar_trigger": false,
      "taf_trigger": false,
      "metar": "METAR LFMN 031830Z 23009KT 9999 FEW120 29/18 Q1018 NOSIG",
      "taf": "TAF LFMN 031400Z 0315/0421 19006KT CAVOK"
    },
    {
      "icao": "LFOB",
      "alert": "OK",
      "vis_m": 9999,
      "fzfg": false,
      "metar_trigger": false,
      "taf_trigger": false,
      "metar": "METAR LFOB 031830Z AUTO 31010KT CAVOK 24/08 Q1027 NOSIG",
      "taf": "TAF LFOB 031700Z 0318/0418 33010KT CAVOK"
    },
    {
      "icao": "LFPO",
      "alert": "OK",
      "vis_m": 9999,
      "fzfg": false,
      "metar_trigger": false,
      "taf_trigger": false,
      "metar": "METAR LFPO 031830Z AUTO 34008KT 310V030 CAVOK 27/08 Q1026 NOSIG",
      "taf": "TAF LFPO 031700Z 0318/0424 33008KT CAVOK"
    },
    {
      "icao": "LFSB",
      "alert": "OK",
      "vis_m": 9999,
      "fzfg": false,
      "metar_trigger": false,
      "taf_trigger": false,
      "metar": "METAR LFSB 031830Z AUTO 01007KT 340V040 9999 FEW016 26/08 Q1024 NOSIG",
      "taf": "TAF LFSB 031700Z 0318/0418 35008KT CAVOK"
    },
    {
      "icao": "LGAV",
      "alert": "OK",
      "vis_m": 9999,
      "fzfg": false,
      "metar_trigger": false,
      "taf_trigger": false,
      "metar": "METAR LGAV 031820Z 25002KT 9999 FEW025 28/18 Q1011 NOSIG",
      "taf": "TAF LGAV 031700Z 0318/0418 06010KT 9999 FEW025"
    },
    {
      "icao": "LGTS",
      "alert": "OK",
      "vis_m": 9999,
      "fzfg": false,
      "metar_trigger": false,
      "taf_trigger": false,
      "metar": "METAR LGTS 031820Z 36011KT 9999 FEW025 30/17 Q1009 NOSIG",
      "taf": "TAF LGTS 031700Z 0318/0418 33013KT 9999 FEW030"
    },
    {
      "icao": "LHBP",
      "alert": "OK",
      "vis_m": 9999,
      "fzfg": false,
      "metar_trigger": false,
      "taf_trigger": false,
      "metar": "METAR LHBP 031830Z 32013KT CAVOK 24/04 Q1018 NOSIG",
      "taf": "TAF LHBP 031715Z 0318/0418 31014G26KT CAVOK"
    },
    {
      "icao": "LHDC",
      "alert": "OK",
      "vis_m": 9999,
      "fzfg": false,
      "metar_trigger": false,
      "taf_trigger": false,
      "metar": "METAR LHDC 031815Z AUTO 03012KT 360V070 CAVOK 24/12 Q1016",
      "taf": "TAF LHDC 031415Z 0315/0324 35012G22KT CAVOK"
    },
    {
      "icao": "LIBD",
      "alert": "OK",
      "vis_m": 9999,
      "fzfg": false,
      "metar_trigger": false,
      "taf_trigger": false,
      "metar": "METAR LIBD 031820Z 34009KT 310V020 CAVOK 28/18 Q1014",
      "taf": "TAF LIBD 031700Z 0318/0418 35010KT 9999 FEW030"
    },
    {
      "icao": "LIBG",
      "alert": "OK",
      "vis_m": 9999,
      "fzfg": false,
      "metar_trigger": false,
      "taf_trigger": false,
      "metar": "METAR LIBG 031820Z AUTO 35009KT 9999 NCD 28/16 Q1013",
      "taf": "TAF LIBG 031700Z 0318/0418 35015KT 9999 FEW030"
    },
    {
      "icao": "LIBP",
      "alert": "OK",
      "vis_m": 9999,
      "fzfg": false,
      "metar_trigger": false,
      "taf_trigger": false,
      "metar": "METAR LIBP 031820Z AUTO 31003KT 280V340 9999 FEW078/// 27/16 Q1017",
      "taf": "TAF LIBP 031700Z 0318/0418 01010KT 9999 FEW040"
    },
    {
      "icao": "LIBR",
      "alert": "OK",
      "vis_m": 9999,
      "fzfg": false,
      "metar_trigger": false,
      "taf_trigger": false,
      "metar": "METAR LIBR 031820Z 34012KT CAVOK 28/22 Q1013",
      "taf": "TAF LIBR 031700Z 0318/0418 33013KT 9999 FEW030"
    },
    {
      "icao": "LICA",
      "alert": "OK",
      "vis_m": 9999,
      "fzfg": false,
      "metar_trigger": false,
      "taf_trigger": false,
      "metar": "METAR LICA 031820Z AUTO 25006KT 9999 BKN071/// 27/22 Q1014",
      "taf": "TAF LICA 031700Z 0318/0418 25010KT 9999 FEW030"
    },
    {
      "icao": "LICC",
      "alert": "OK",
      "vis_m": 9999,
      "fzfg": false,
      "metar_trigger": false,
      "taf_trigger": false,
      "metar": "METAR LICC 031820Z 20002KT 9999 FEW040 25/19 Q1013",
      "taf": "TAF LICC 031700Z 0318/0418 VRB05KT 9999 FEW040"
    },
    {
      "icao": "LICJ",
      "alert": "OK",
      "vis_m": 9999,
      "fzfg": false,
      "metar_trigger": false,
      "taf_trigger": false,
      "metar": "METAR LICJ 031820Z 03011KT 9999 FEW030 27/21 Q1014",
      "taf": "TAF LICJ 031700Z 0318/0418 01010KT 9999 FEW030"
    },
    {
      "icao": "LIMC",
      "alert": "OK",
      "vis_m": 9999,
      "fzfg": false,
      "metar_trigger": false,
      "taf_trigger": false,
      "metar": "METAR LIMC 031820Z 24006KT 210V270 CAVOK 31/12 Q1018 NOSIG",
      "taf": "TAF LIMC 031700Z 0318/0424 VRB05KT 9999 FEW070"
    },
    {
      "icao": "LIME",
      "alert": "OK",
      "vis_m": 9999,
      "fzfg": false,
      "metar_trigger": false,
      "taf_trigger": false,
      "metar": "METAR LIME 031820Z 19004KT 140V230 CAVOK 30/14 Q1018 NOSIG",
      "taf": "TAF LIME 031700Z 0318/0418 VRB05KT 9999 FEW070"
    },
    {
      "icao": "LIMF",
      "alert": "OK",
      "vis_m": 9999,
      "fzfg": false,
      "metar_trigger": false,
      "taf_trigger": false,
      "metar": "METAR LIMF 031820Z 20004KT 150V230 CAVOK 31/11 Q1018",
      "taf": "TAF LIMF 031700Z 0318/0418 VRB05KT 9999 FEW090"
    },
    {
      "icao": "LIMJ",
      "alert": "OK",
      "vis_m": 9999,
      "fzfg": false,
      "metar_trigger": false,
      "taf_trigger": false,
      "metar": "METAR LIMJ 031820Z 12002KT CAVOK 27/21 Q1017",
      "taf": "TAF LIMJ 031700Z 0318/0418 VRB05KT CAVOK"
    },
    {
      "icao": "LIPE",
      "alert": "OK",
      "vis_m": 9999,
      "fzfg": false,
      "metar_trigger": false,
      "taf_trigger": false,
      "metar": "METAR LIPE 031820Z 07004KT CAVOK 30/13 Q1017",
      "taf": "TAF LIPE 031700Z 0318/0418 VRB05KT CAVOK"
    },
    {
      "icao": "LIPH",
      "alert": "OK",
      "vis_m": 9999,
      "fzfg": false,
      "metar_trigger": false,
      "taf_trigger": false,
      "metar": "METAR LIPH 031820Z 15004KT 110V170 CAVOK 30/15 Q1017",
      "taf": "TAF LIPH 031700Z 0318/0418 VRB05KT 9999 FEW030"
    },
    {
      "icao": "LIPQ",
      "alert": "OK",
      "vis_m": 9999,
      "fzfg": false,
      "metar_trigger": false,
      "taf_trigger": false,
      "metar": "METAR LIPQ 031820Z AUTO 31004KT 9999 NCD 29/16 Q1017",
      "taf": "TAF LIPQ 031700Z 0318/0418 VRB05KT CAVOK"
    },
    {
      "icao": "LIPR",
      "alert": "OK",
      "vis_m": 9999,
      "fzfg": false,
      "metar_trigger": false,
      "taf_trigger": false,
      "metar": "METAR LIPR 031820Z 36003KT 320V030 CAVOK 28/17 Q1017",
      "taf": "TAF LIPR 031700Z 0318/0418 VRB05KT CAVOK"
    },
    {
      "icao": "LIPX",
      "alert": "OK",
      "vis_m": 9999,
      "fzfg": false,
      "metar_trigger": false,
      "taf_trigger": false,
      "metar": "METAR LIPX 031820Z 19003KT 160V230 CAVOK 29/17 Q1017",
      "taf": "TAF LIPX 031700Z 0318/0418 VRB05KT 9999 FEW080"
    },
    {
      "icao": "LIPY",
      "alert": "OK",
      "vis_m": 9999,
      "fzfg": false,
      "metar_trigger": false,
      "taf_trigger": false,
      "metar": "METAR LIPY 031820Z AUTO 33005KT 9999 NCD 27/18 Q1017",
      "taf": "TAF LIPY 031700Z 0318/0418 35010KT CAVOK"
    },
    {
      "icao": "LIPZ",
      "alert": "OK",
      "vis_m": 9999,
      "fzfg": false,
      "metar_trigger": false,
      "taf_trigger": false,
      "metar": "METAR LIPZ 031820Z 14004KT CAVOK 29/15 Q1017 NOSIG",
      "taf": "TAF LIPZ 031700Z 0318/0424 VRB05KT CAVOK"
    },
    {
      "icao": "LIRF",
      "alert": "OK",
      "vis_m": 9999,
      "fzfg": false,
      "metar_trigger": false,
      "taf_trigger": false,
      "metar": "METAR LIRF 031820Z 27009KT CAVOK 27/21 Q1014 NOSIG",
      "taf": "TAF LIRF 031700Z 0318/0424 30014KT CAVOK"
    },
    {
      "icao": "LIRN",
      "alert": "OK",
      "vis_m": 9999,
      "fzfg": false,
      "metar_trigger": false,
      "taf_trigger": false,
      "metar": "METAR LIRN 031820Z 06008KT 9999 FEW060 30/15 Q1015 NOSIG",
      "taf": "TAF LIRN 031700Z 0318/0418 VRB05KT 9999 FEW030"
    },
    {
      "icao": "LIRP",
      "alert": "OK",
      "vis_m": 9999,
      "fzfg": false,
      "metar_trigger": false,
      "taf_trigger": false,
      "metar": "METAR LIRP 031815Z 33008KT 9999 FEW040 30/15 Q1017 NOSIG",
      "taf": "TAF LIRP 031700Z 0318/0418 32012KT 9999 FEW035"
    },
    {
      "icao": "LIRZ",
      "alert": "OK",
      "vis_m": 9999,
      "fzfg": false,
      "metar_trigger": false,
      "taf_trigger": false,
      "metar": "METAR LIRZ 031820Z AUTO 03013KT 9999 NCD 27/11 Q1017",
      "taf": "TAF LIRZ 031700Z 0318/0418 02013KT CAVOK"
    },
    {
      "icao": "LJLJ",
      "alert": "OK",
      "vis_m": 9999,
      "fzfg": false,
      "metar_trigger": false,
      "taf_trigger": false,
      "metar": "METAR LJLJ 031830Z 02006KT 9999 FEW070 23/14 Q1020 NOSIG",
      "taf": "TAF LJLJ 031700Z 0318/0418 07006KT 9999 FEW070"
    },
    {
      "icao": "LKMT",
      "alert": "OK",
      "vis_m": 9999,
      "fzfg": false,
      "metar_trigger": false,
      "taf_trigger": false,
      "metar": "METAR LKMT 031830Z 35004KT CAVOK 18/08 Q1021 NOSIG",
      "taf": "TAF LKMT 031700Z 0318/0418 32008KT CAVOK"
    },
    {
      "icao": "LKPR",
      "alert": "OK",
      "vis_m": 9999,
      "fzfg": false,
      "metar_trigger": false,
      "taf_trigger": false,
      "metar": "METAR LKPR 031830Z 30013KT CAVOK 19/07 Q1023 NOSIG",
      "taf": "TAF LKPR 031700Z 0318/0424 32010KT CAVOK"
    },
    {
      "icao": "LLBG",
      "alert": "OK",
      "vis_m": 9999,
      "fzfg": false,
      "metar_trigger": false,
      "taf_trigger": false,
      "metar": "METAR LLBG 031850Z 28004KT 9999 SCT023 27/21 Q1009 NOSIG",
      "taf": "TAF LLBG 031702Z 0318/0418 VRB04KT 9999 SCT022 TX30/0412Z TN24/0403Z"
    },
    {
      "icao": "LMML",
      "alert": "OK",
      "vis_m": 9999,
      "fzfg": false,
      "metar_trigger": false,
      "taf_trigger": false,
      "metar": "METAR LMML 031845Z 27007KT 240V310 9999 FEW020 25/20 Q1014 NOSIG",
      "taf": "TAF LMML 031700Z 0318/0418 30011KT 9999 FEW020"
    },
    {
      "icao": "LOWW",
      "alert": "OK",
      "vis_m": 9999,
      "fzfg": false,
      "metar_trigger": false,
      "taf_trigger": false,
      "metar": "METAR LOWW 031820Z 35010KT CAVOK 24/07 Q1020 NOSIG",
      "taf": "TAF LOWW 031732Z 0318/0424 33015KT CAVOK TX26/0414Z TN15/0403Z"
    },
    {
      "icao": "LPFR",
      "alert": "OK",
      "vis_m": 9999,
      "fzfg": false,
      "metar_trigger": false,
      "taf_trigger": false,
      "metar": "METAR LPFR 031830Z 10007KT CAVOK 29/19 Q1017",
      "taf": "TAF LPFR 031700Z 0318/0418 09010KT CAVOK"
    },
    {
      "icao": "LPMA",
      "alert": "OK",
      "vis_m": 9999,
      "fzfg": false,
      "metar_trigger": false,
      "taf_trigger": false,
      "metar": "METAR LPMA 031830Z 15004KT 130V200 9999 FEW010 24/20 Q1015",
      "taf": "TAF LPMA 031700Z 0318/0418 VRB05KT 9999 FEW015"
    },
    {
      "icao": "LPPR",
      "alert": "OK",
      "vis_m": 9999,
      "fzfg": false,
      "metar_trigger": false,
      "taf_trigger": false,
      "metar": "METAR LPPR 031830Z 34009KT CAVOK 35/13 Q1018",
      "taf": "TAF LPPR 031700Z 0318/0418 33010KT CAVOK"
    },
    {
      "icao": "LPPS",
      "alert": "OK",
      "vis_m": 9999,
      "fzfg": false,
      "metar_trigger": false,
      "taf_trigger": false,
      "metar": "METAR LPPS 031830Z 34011KT 9999 FEW008 24/20 Q1016",
      "taf": "TAF LPPS 031700Z 0318/0424 35013KT 9999 SCT008 SCT015"
    },
    {
      "icao": "LPPT",
      "alert": "OK",
      "vis_m": 9999,
      "fzfg": false,
      "metar_trigger": false,
      "taf_trigger": false,
      "metar": "METAR LPPT 031830Z 30011KT CAVOK 32/14 Q1018 NOSIG",
      "taf": "TAF LPPT 031700Z 0318/0424 32010KT CAVOK"
    },
    {
      "icao": "LQBK",
      "alert": "OK",
      "vis_m": 9999,
      "fzfg": false,
      "metar_trigger": false,
      "taf_trigger": false,
      "metar": "METAR LQBK 031830Z 30004KT CAVOK 25/15 Q1019 NOSIG",
      "taf": "TAF LQBK 031700Z 0318/0418 29005KT CAVOK TX28/0413Z TN14/0403Z"
    },
    {
      "icao": "LQSA",
      "alert": "OK",
      "vis_m": 9999,
      "fzfg": false,
      "metar_trigger": false,
      "taf_trigger": false,
      "metar": "METAR LQSA 031830Z 32003KT CAVOK 22/13 Q1019 NOSIG",
      "taf": "TAF LQSA 031700Z 0318/0418 29005KT 9999 SCT055 TX27/0413Z TN13/0403Z"
    },
    {
      "icao": "LQTZ",
      "alert": "OK",
      "vis_m": 9999,
      "fzfg": false,
      "metar_trigger": false,
      "taf_trigger": false,
      "metar": "METAR LQTZ 031830Z 33004KT CAVOK 24/16 Q1018",
      "taf": "TAF LQTZ 031700Z 0318/0418 27005KT CAVOK TX26/0413Z TN14/0403Z"
    },
    {
      "icao": "LRBC",
      "alert": "OK",
      "vis_m": 9999,
      "fzfg": false,
      "metar_trigger": false,
      "taf_trigger": false,
      "metar": "METAR LRBC 031830Z 33015KT 9999 BKN054 19/13 Q1014",
      "taf": "TAF LRBC 031700Z 0318/0403 35014KT 9999 SCT040"
    },
    {
      "icao": "LRBS",
      "alert": "OK",
      "vis_m": 9999,
      "fzfg": false,
      "metar_trigger": false,
      "taf_trigger": false,
      "metar": "METAR LRBS 031830Z 35003KT 290V040 CAVOK 24/17 Q1011 NOSIG",
      "taf": "TAF LRBS 031700Z 0318/0418 VRB04KT 9999 SCT045"
    },
    {
      "icao": "LRBV",
      "alert": "OK",
      "vis_m": 9999,
      "fzfg": false,
      "metar_trigger": false,
      "taf_trigger": false,
      "metar": "METAR LRBV 031830Z 28010KT 240V310 9999 -SHRA FEW019 SCT035CB BKN059 19/17 Q1016",
      "taf": "TAF LRBV 031700Z 0318/0403 30009KT 9999 SCT045"
    },
    {
      "icao": "LRCL",
      "alert": "OK",
      "vis_m": 9999,
      "fzfg": false,
      "metar_trigger": false,
      "taf_trigger": false,
      "metar": "METAR LRCL 031830Z 33007KT 310V010 9999 FEW067TCU 23/13 Q1015",
      "taf": "TAF LRCL 031700Z 0318/0403 32010KT 9999 SCT045"
    },
    {
      "icao": "LRCV",
      "alert": "OK",
      "vis_m": 9999,
      "fzfg": false,
      "metar_trigger": false,
      "taf_trigger": false,
      "metar": "METAR LRCV 031830Z 31007KT CAVOK 24/19 Q1013",
      "taf": "TAF LRCV 031700Z 0318/0403 31009KT 9999 SCT045"
    },
    {
      "icao": "LRIA",
      "alert": "OK",
      "vis_m": 9999,
      "fzfg": false,
      "metar_trigger": false,
      "taf_trigger": false,
      "metar": "METAR LRIA 031830Z 30011KT CAVOK 22/14 Q1013",
      "taf": "TAF LRIA 031700Z 0318/0403 31015KT 9999 SCT045"
    },
    {
      "icao": "LROP",
      "alert": "OK",
      "vis_m": 9999,
      "fzfg": false,
      "metar_trigger": false,
      "taf_trigger": false,
      "metar": "METAR LROP 031830Z 33008KT 9999 FEW040 24/19 Q1011 NOSIG",
      "taf": "TAF LROP 031700Z 0318/0418 VRB04KT 9999 SCT045"
    },
    {
      "icao": "LRSB",
      "alert": "OK",
      "vis_m": 9999,
      "fzfg": false,
      "metar_trigger": false,
      "taf_trigger": false,
      "metar": "METAR LRSB 031830Z 14003KT 110V170 9999 FEW055 SCT075 18/17 Q1016",
      "taf": "TAF LRSB 031700Z 0318/0418 27007KT 9999 FEW040CB"
    },
    {
      "icao": "LRSM",
      "alert": "OK",
      "vis_m": 9999,
      "fzfg": false,
      "metar_trigger": false,
      "taf_trigger": false,
      "metar": "METAR LRSM 031830Z AUTO 34011KT 9999 FEW085/// BKN100/// 23/13 Q1015",
      "taf": "TAF LRSM 031400Z 0315/0324 34015KT CAVOK"
    },
    {
      "icao": "LRSV",
      "alert": "OK",
      "vis_m": 9999,
      "fzfg": false,
      "metar_trigger": false,
      "taf_trigger": false,
      "metar": "METAR LRSV 031830Z 26008KT CAVOK 16/15 Q1015",
      "taf": "TAF LRSV 031700Z 0318/0403 30016KT 9999 SCT035"
    },
    {
      "icao": "LRTM",
      "alert": "OK",
      "vis_m": 9999,
      "fzfg": false,
      "metar_trigger": false,
      "taf_trigger": false,
      "metar": "METAR LRTM 031830Z VRB02KT CAVOK 20/19 Q1015",
      "taf": "TAF LRTM 031700Z 0318/0403 VRB04KT 9999 SCT040"
    },
    {
      "icao": "LRTR",
      "alert": "OK",
      "vis_m": 9999,
      "fzfg": false,
      "metar_trigger": false,
      "taf_trigger": false,
      "metar": "METAR LRTR 031830Z 33006KT CAVOK 26/13 Q1015",
      "taf": "TAF LRTR 031700Z 0318/0418 35008KT CAVOK"
    },
    {
      "icao": "LTAC",
      "alert": "OK",
      "vis_m": 9999,
      "fzfg": false,
      "metar_trigger": false,
      "taf_trigger": false,
      "metar": "METAR LTAC 031820Z 03011KT CAVOK 23/10 Q1012 NOSIG",
      "taf": "TAF LTAC 031640Z 0318/0418 VRB02KT CAVOK"
    },
    {
      "icao": "LTFM",
      "alert": "OK",
      "vis_m": 9999,
      "fzfg": false,
      "metar_trigger": false,
      "taf_trigger": false,
      "metar": "METAR LTFM 031820Z 01005KT 290V040 CAVOK 27/19 Q1010 NOSIG",
      "taf": "TAF LTFM 031640Z 0318/0424 VRB02KT CAVOK"
    },
    {
      "icao": "LUKK",
      "alert": "OK",
      "vis_m": 9999,
      "fzfg": false,
      "metar_trigger": false,
      "taf_trigger": false,
      "metar": "METAR LUKK 031830Z 32007KT 9999 SCT034CB 25/18 Q1011 NOSIG",
      "taf": "TAF LUKK 031704Z 0318/0418 33012KT 9999 SCT030"
    },
    {
      "icao": "LWOH",
      "alert": "OK",
      "vis_m": 9999,
      "fzfg": false,
      "metar_trigger": false,
      "taf_trigger": false,
      "metar": "METAR LWOH 031850Z 32008KT 9999 FEW035 SCT090 22/16 Q1017",
      "taf": "TAF LWOH 031710Z 0318/0418 34010KT 9999 FEW035 SCT090"
    },
    {
      "icao": "LWSK",
      "alert": "OK",
      "vis_m": 9999,
      "fzfg": false,
      "metar_trigger": false,
      "taf_trigger": false,
      "metar": "METAR LWSK 031850Z 35015KT 9999 BKN050 25/15 Q1016 NOSIG",
      "taf": "TAF LWSK 031710Z 0318/0418 35016KT 9999 SCT060"
    },
    {
      "icao": "LYBE",
      "alert": "OK",
      "vis_m": 9999,
      "fzfg": false,
      "metar_trigger": false,
      "taf_trigger": false,
      "metar": "METAR LYBE 031830Z 32012KT CAVOK 27/13 Q1016 NOSIG",
      "taf": "TAF LYBE 031700Z 0318/0418 32008KT CAVOK TX28/0318Z TN16/0403Z"
    },
    {
      "icao": "LYNI",
      "alert": "OK",
      "vis_m": 9999,
      "fzfg": false,
      "metar_trigger": false,
      "taf_trigger": false,
      "metar": "METAR LYNI 031830Z 00000KT CAVOK 24/16 Q1016 NOSIG",
      "taf": "TAF LYNI 031700Z 0318/0418 30008KT 9999 SCT030 BKN050 TX26/0413Z TN18/0403Z"
    },
    {
      "icao": "LYPG",
      "alert": "OK",
      "vis_m": 9999,
      "fzfg": false,
      "metar_trigger": false,
      "taf_trigger": false,
      "metar": "METAR LYPG 031830Z 01015KT 340V040 9999 FEW050 29/13 Q1013 TEMPO 36025KT",
      "taf": "TAF LYPG 031700Z 0318/0418 36017KT CAVOK TX33/0413Z TN25/0403Z"
    },
    {
      "icao": "LZIB",
      "alert": "OK",
      "vis_m": 9999,
      "fzfg": false,
      "metar_trigger": false,
      "taf_trigger": false,
      "metar": "METAR LZIB 031830Z 35013KT CAVOK 23/07 Q1020 NOSIG",
      "taf": "TAF LZIB 031715Z 0318/0418 33010KT CAVOK"
    },
    {
      "icao": "LZKZ",
      "alert": "OK",
      "vis_m": 9999,
      "fzfg": false,
      "metar_trigger": false,
      "taf_trigger": false,
      "metar": "METAR LZKZ 031830Z 36016KT CAVOK 22/06 Q1017 NOSIG",
      "taf": "TAF LZKZ 031715Z 0318/0418 02014KT CAVOK"
    },
    {
      "icao": "LZTT",
      "alert": "OK",
      "vis_m": 9999,
      "fzfg": false,
      "metar_trigger": false,
      "taf_trigger": false,
      "metar": "METAR LZTT 031830Z 14004KT 060V210 9999 FEW056 16/05 Q1019",
      "taf": "TAF LZTT 031715Z 0318/0418 27007KT 9999 FEW060"
    },
    {
      "icao": "OEJN",
      "alert": "OK",
      "vis_m": 9999,
      "fzfg": false,
      "metar_trigger": false,
      "taf_trigger": false,
      "metar": "METAR OEJN 031800Z 33009KT CAVOK 34/19 Q1004 NOSIG",
      "taf": "TAF OEJN 031700Z 0318/0424 36005KT 7000 NSC"
    },
    {
      "icao": "OEMA",
      "alert": "OK",
      "vis_m": 9999,
      "fzfg": false,
      "metar_trigger": false,
      "taf_trigger": false,
      "metar": "METAR OEMA 031800Z 28011G21KT CAVOK 41/04 Q1009 NOSIG",
      "taf": "TAF OEMA 031700Z 0318/0424 29006KT CAVOK"
    },
    {
      "icao": "OJAI",
      "alert": "OK",
      "vis_m": 4000,
      "fzfg": false,
      "metar_trigger": false,
      "taf_trigger": false,
      "metar": "METAR OJAI 031800Z 30012KT 4000 DU NSC 25/13 Q1013 NOSIG",
      "taf": "TAF OJAI 031648Z 0318/0424 29012KT 4000 DU NSC"
    },
    {
      "icao": "OMAA",
      "alert": "OK",
      "vis_m": 8000,
      "fzfg": false,
      "metar_trigger": false,
      "taf_trigger": false,
      "metar": "METAR OMAA 031830Z 36002KT 8000 NSC 33/28 Q0999 NOSIG",
      "taf": "TAF OMAA 031700Z 0318/0500 VRB02KT 7000 NSC"
    },
    {
      "icao": "OMDB",
      "alert": "OK",
      "vis_m": 9999,
      "fzfg": false,
      "metar_trigger": false,
      "taf_trigger": false,
      "metar": "METAR OMDB 031830Z 01005KT 330V060 CAVOK 37/25 Q0999 NOSIG",
      "taf": "TAF OMDB 031700Z 0318/0500 04005KT 8000 NSC"
    },
    {
      "icao": "UAAA",
      "alert": "OK",
      "vis_m": 150,
      "fzfg": false,
      "metar_trigger": false,
      "taf_trigger": false,
      "metar": "SPECI UAAA 031846Z 02002MPS 320V060 0150 R23L/0550 FG VV002 15/15 Q1010 NOSIG RMK QBB060",
      "taf": ""
    },
    {
      "icao": "UBBB",
      "alert": "OK",
      "vis_m": 9999,
      "fzfg": false,
      "metar_trigger": false,
      "taf_trigger": false,
      "metar": "METAR UBBB 031830Z 17006KT CAVOK 24/20 Q1007 NOSIG",
      "taf": "TAF UBBB 031658Z 0318/0418 16005KT 9999 SCT040 TX31/0410Z TN20/0401Z"
    },
    {
      "icao": "UDSG",
      "alert": "OK",
      "vis_m": 9999,
      "fzfg": false,
      "metar_trigger": false,
      "taf_trigger": false,
      "metar": "METAR UDSG 031830Z 05008KT 9999 VCTS -SHRA BKN036CB 15/13 Q1017 NOSIG",
      "taf": "TAF UDSG 031700Z 0318/0418 03006KT 9999 SCT040"
    },
    {
      "icao": "UDYZ",
      "alert": "OK",
      "vis_m": 9999,
      "fzfg": false,
      "metar_trigger": false,
      "taf_trigger": false,
      "metar": "METAR UDYZ 031830Z 03016KT 9999 -TSRA OVC043CB 24/16 Q1007 NOSIG",
      "taf": "TAF UDYZ 031700Z 0318/0418 04006KT 9999 SCT040"
    },
    {
      "icao": "UGKO",
      "alert": "OK",
      "vis_m": 9999,
      "fzfg": false,
      "metar_trigger": false,
      "taf_trigger": false,
      "metar": "METAR UGKO 031830Z 25006KT 9999 SCT037 BKN064 23/21 Q1008 NOSIG",
      "taf": "TAF UGKO 031700Z 0318/0418 26007KT 9999 SCT030 BKN050 TX28/0412Z TN20/0402Z"
    }
  ]
}