{
  "ts_utc": "2026-03-22T23:14:04Z",
  "threshold_m": 150,
  "source": "stations_override.txt (ICAO list) + aviationweather.gov (METAR/TAF raw)",
  "station_count": 159,
  "stations": [
    {
      "icao": "BIKF",
      "alert": "OK",
      "vis_m": 9999,
      "fzfg": false,
      "metar_trigger": false,
      "taf_trigger": false,
      "metar": "METAR BIKF 222300Z 25020KT 9999 DRSN FEW022 SCT040 M02/M08 Q1000",
      "taf": "TAF BIKF 222259Z 2300/2400 24018KT 9999 -SHSN SCT010 BKN025 TX01/2316Z TNM04/2301Z"
    },
    {
      "icao": "BKPR",
      "alert": "OK",
      "vis_m": 9999,
      "fzfg": false,
      "metar_trigger": false,
      "taf_trigger": false,
      "metar": "METAR BKPR 222300Z 35009KT 9999 BKN065 06/02 Q1013 NOSIG",
      "taf": "TAF BKPR 221730Z 2218/2318 02008KT 9999 SCT050"
    },
    {
      "icao": "EBCI",
      "alert": "OK",
      "vis_m": 9999,
      "fzfg": false,
      "metar_trigger": false,
      "taf_trigger": false,
      "metar": "METAR EBCI 222250Z 03002KT CAVOK 07/01 Q1016 NOSIG",
      "taf": "TAF EBCI 221705Z 2218/2324 05005KT 9999 FEW045"
    },
    {
      "icao": "EDDB",
      "alert": "OK",
      "vis_m": 9999,
      "fzfg": false,
      "metar_trigger": false,
      "taf_trigger": false,
      "metar": "METAR EDDB 222250Z AUTO 06005KT CAVOK 05/M00 Q1017 NOSIG",
      "taf": "TAF EDDB 221700Z 2218/2318 07004KT CAVOK"
    },
    {
      "icao": "EDDH",
      "alert": "OK",
      "vis_m": 9999,
      "fzfg": false,
      "metar_trigger": false,
      "taf_trigger": false,
      "metar": "METAR EDDH 222250Z AUTO 06003KT CAVOK 03/00 Q1017 NOSIG",
      "taf": "TAF EDDH 221700Z 2218/2324 VRB03KT CAVOK"
    },
    {
      "icao": "EDDK",
      "alert": "OK",
      "vis_m": 9999,
      "fzfg": false,
      "metar_trigger": false,
      "taf_trigger": false,
      "metar": "METAR EDDK 222250Z AUTO 04004KT 010V070 CAVOK 05/01 Q1015 NOSIG",
      "taf": "TAF EDDK 221700Z 2218/2324 VRB03KT CAVOK"
    },
    {
      "icao": "EDDN",
      "alert": "OK",
      "vis_m": 9999,
      "fzfg": false,
      "metar_trigger": false,
      "taf_trigger": false,
      "metar": "METAR EDDN 222250Z AUTO VRB02KT CAVOK 07/01 Q1014",
      "taf": "TAF EDDN 221700Z 2218/2318 07007KT CAVOK"
    },
    {
      "icao": "EDDS",
      "alert": "OK",
      "vis_m": 9999,
      "fzfg": false,
      "metar_trigger": false,
      "taf_trigger": false,
      "metar": "METAR EDDS 222250Z AUTO VRB01KT CAVOK 03/M01 Q1013",
      "taf": "TAF EDDS 221700Z 2218/2318 05005KT CAVOK"
    },
    {
      "icao": "EDFH",
      "alert": "OK",
      "vis_m": 9999,
      "fzfg": false,
      "metar_trigger": false,
      "taf_trigger": false,
      "metar": "METAR EDFH 222250Z 01003KT CAVOK 06/M03 Q1014",
      "taf": "TAF EDFH 221700Z 2218/2318 06005KT CAVOK"
    },
    {
      "icao": "EDJA",
      "alert": "OK",
      "vis_m": 9999,
      "fzfg": false,
      "metar_trigger": false,
      "taf_trigger": false,
      "metar": "METAR EDJA 222250Z AUTO VRB01KT 9999 // BKN069/// BKN140/// 00/M02 Q1012",
      "taf": "TAF EDJA 221700Z 2218/2303 06006KT CAVOK"
    },
    {
      "icao": "EDLW",
      "alert": "OK",
      "vis_m": 9999,
      "fzfg": false,
      "metar_trigger": false,
      "taf_trigger": false,
      "metar": "METAR EDLW 222250Z AUTO VRB02KT 9999 // BKN080/// 07/00 Q1015",
      "taf": "TAF EDLW 221700Z 2218/2318 06006KT CAVOK"
    },
    {
      "icao": "EDNY",
      "alert": "OK",
      "vis_m": 9999,
      "fzfg": false,
      "metar_trigger": false,
      "taf_trigger": false,
      "metar": "METAR EDNY 222250Z AUTO 04002KT 9999 // FEW071/// 04/M00 Q1013",
      "taf": "TAF EDNY 221700Z 2218/2303 03009KT CAVOK"
    },
    {
      "icao": "EDSB",
      "alert": "OK",
      "vis_m": 9999,
      "fzfg": false,
      "metar_trigger": false,
      "taf_trigger": false,
      "metar": "METAR EDSB 222250Z 00000KT CAVOK 05/02 Q1013",
      "taf": "TAF EDSB 221700Z 2218/2318 02008KT CAVOK"
    },
    {
      "icao": "EETN",
      "alert": "OK",
      "vis_m": 9999,
      "fzfg": false,
      "metar_trigger": false,
      "taf_trigger": false,
      "metar": "METAR EETN 222250Z 21008KT CAVOK 02/M02 Q1017",
      "taf": "TAF EETN 221730Z 2218/2318 20008KT CAVOK"
    },
    {
      "icao": "EFTU",
      "alert": "OK",
      "vis_m": 9999,
      "fzfg": false,
      "metar_trigger": false,
      "taf_trigger": false,
      "metar": "METAR EFTU 222250Z AUTO 21007KT CAVOK 02/M01 Q1012",
      "taf": "TAF EFTU 222021Z 2221/2321 21009KT CAVOK"
    },
    {
      "icao": "EGBB",
      "alert": "OK",
      "vis_m": 9999,
      "fzfg": false,
      "metar_trigger": false,
      "taf_trigger": false,
      "metar": "METAR EGBB 222250Z 35004KT 9999 BKN029 09/06 Q1019",
      "taf": "TAF EGBB 221655Z 2218/2318 34008KT 9999 SCT025"
    },
    {
      "icao": "EGGP",
      "alert": "OK",
      "vis_m": 9999,
      "fzfg": false,
      "metar_trigger": false,
      "taf_trigger": false,
      "metar": "METAR EGGP 222250Z 31004KT CAVOK 07/03 Q1020",
      "taf": "TAF EGGP 222257Z 2300/2324 33008KT 9999 FEW020"
    },
    {
      "icao": "EGGW",
      "alert": "OK",
      "vis_m": 9999,
      "fzfg": false,
      "metar_trigger": false,
      "taf_trigger": false,
      "metar": "METAR EGGW 222250Z AUTO 33004KT 9999 NCD 07/02 Q1018",
      "taf": "TAF EGGW 222301Z 2300/2324 34004KT CAVOK"
    },
    {
      "icao": "EGKK",
      "alert": "OK",
      "vis_m": 9000,
      "fzfg": false,
      "metar_trigger": false,
      "taf_trigger": false,
      "metar": "METAR EGKK 222250Z VRB01KT 9000 NSC 07/04 Q1018",
      "taf": "TAF EGKK 222256Z 2300/2406 VRB04KT 8000 FEW030"
    },
    {
      "icao": "EGNM",
      "alert": "OK",
      "vis_m": 9999,
      "fzfg": false,
      "metar_trigger": false,
      "taf_trigger": false,
      "metar": "METAR EGNM 222220Z 32008KT 9999 FEW039 06/05 Q1018",
      "taf": "TAF EGNM 222257Z 2300/2324 30010KT 9999 FEW020 SCT040"
    },
    {
      "icao": "EGPD",
      "alert": "OK",
      "vis_m": 9999,
      "fzfg": false,
      "metar_trigger": false,
      "taf_trigger": false,
      "metar": "METAR EGPD 222250Z COR AUTO 29007KT 9999 NCD 05/01 Q1017 NOSIG",
      "taf": "TAF EGPD 222259Z 2300/2324 27009KT 9999 FEW040"
    },
    {
      "icao": "EGPF",
      "alert": "OK",
      "vis_m": 9999,
      "fzfg": false,
      "metar_trigger": false,
      "taf_trigger": false,
      "metar": "METAR EGPF 222250Z AUTO 26003KT 9999 FEW031 04/01 Q1020",
      "taf": "TAF EGPF 222258Z 2300/2324 VRB03KT 9999 FEW030"
    },
    {
      "icao": "EHBK",
      "alert": "OK",
      "vis_m": 9999,
      "fzfg": false,
      "metar_trigger": false,
      "taf_trigger": false,
      "metar": "METAR EHBK 222255Z AUTO 01003KT 9999 NCD 08/02 Q1015",
      "taf": "TAF EHBK 221714Z 2218/2324 12005KT CAVOK"
    },
    {
      "icao": "EHEH",
      "alert": "OK",
      "vis_m": 9999,
      "fzfg": false,
      "metar_trigger": false,
      "taf_trigger": false,
      "metar": "METAR EHEH 222255Z AUTO 33002KT 9999 NCD 03/01 Q1015 BLU RMK TREND REMOTE BY EHWX",
      "taf": "TAF EHEH 221717Z 2218/2324 VRB04KT CAVOK"
    },
    {
      "icao": "EKBI",
      "alert": "OK",
      "vis_m": 9999,
      "fzfg": false,
      "metar_trigger": false,
      "taf_trigger": false,
      "metar": "METAR EKBI 222250Z AUTO 10002KT 9999 NCD M00/M03 Q1017",
      "taf": "TAF EKBI 222027Z 2221/2321 15005KT CAVOK"
    },
    {
      "icao": "EKCH",
      "alert": "OK",
      "vis_m": 9999,
      "fzfg": false,
      "metar_trigger": false,
      "taf_trigger": false,
      "metar": "METAR EKCH 222250Z AUTO 17006KT 9999 NCD 03/01 Q1018 NOSIG",
      "taf": "TAF EKCH 222027Z 2221/2321 16005KT CAVOK"
    },
    {
      "icao": "ENAL",
      "alert": "OK",
      "vis_m": 9999,
      "fzfg": false,
      "metar_trigger": false,
      "taf_trigger": false,
      "metar": "METAR ENAL 222250Z 23031KT 9999 SCT030 05/M01 Q1002",
      "taf": "TAF ENAL 222000Z 2221/2306 23038G50KT 9999 -SHRA FEW015 BKN035"
    },
    {
      "icao": "ENBR",
      "alert": "OK",
      "vis_m": 9999,
      "fzfg": false,
      "metar_trigger": false,
      "taf_trigger": false,
      "metar": "METAR ENBR 222250Z 25011KT 9999 FEW013 03/00 Q1011 RMK WIND 1200FT 27018KT",
      "taf": "TAF ENBR 221700Z 2218/2318 18008KT 9999 -SHRA FEW015 SCT025"
    },
    {
      "icao": "ENGM",
      "alert": "OK",
      "vis_m": 9999,
      "fzfg": false,
      "metar_trigger": false,
      "taf_trigger": false,
      "metar": "METAR ENGM 222250Z 22012KT 9999 BKN010 03/01 Q1008",
      "taf": "TAF ENGM 221700Z 2218/2318 19015KT 9999 BKN012"
    },
    {
      "icao": "ENHD",
      "alert": "OK",
      "vis_m": 9999,
      "fzfg": false,
      "metar_trigger": false,
      "taf_trigger": false,
      "metar": "METAR ENHD 222250Z AUTO 26016KT 9999 FEW025/// SCT029/// BKN043/// 06/03 Q1013",
      "taf": ""
    },
    {
      "icao": "ENTC",
      "alert": "OK",
      "vis_m": 9999,
      "fzfg": false,
      "metar_trigger": false,
      "taf_trigger": false,
      "metar": "METAR ENTC 222250Z AUTO 20023KT 9999 SCT042/// BKN054/// 04/M00 Q0984 RMK WIND 2600FT 19046KT",
      "taf": ""
    },
    {
      "icao": "ENTO",
      "alert": "OK",
      "vis_m": 4100,
      "fzfg": false,
      "metar_trigger": false,
      "taf_trigger": false,
      "metar": "METAR ENTO 222250Z 21011KT 4100 BR BKN004 04/04 Q1011",
      "taf": "TAF ENTO 221700Z 2218/2318 21018KT 8000 SCT003 BKN006"
    },
    {
      "icao": "ENVA",
      "alert": "OK",
      "vis_m": 9999,
      "fzfg": false,
      "metar_trigger": false,
      "taf_trigger": false,
      "metar": "METAR ENVA 222250Z 19007KT 9999 FEW050 04/00 Q1000 RMK WIND 670FT 22014KT",
      "taf": ""
    },
    {
      "icao": "ENZV",
      "alert": "OK",
      "vis_m": 9999,
      "fzfg": false,
      "metar_trigger": false,
      "taf_trigger": false,
      "metar": "METAR ENZV 222250Z VRB05KT CAVOK 04/03 Q1014",
      "taf": "TAF ENZV 221700Z 2218/2318 21008KT 1500 DZRA BR OVC005"
    },
    {
      "icao": "EPGD",
      "alert": "OK",
      "vis_m": 9999,
      "fzfg": false,
      "metar_trigger": false,
      "taf_trigger": false,
      "metar": "METAR EPGD 222300Z VRB02KT CAVOK 01/M00 Q1019",
      "taf": "TAF EPGD 221730Z 2218/2318 07004KT CAVOK"
    },
    {
      "icao": "EPKK",
      "alert": "OK",
      "vis_m": 9999,
      "fzfg": false,
      "metar_trigger": false,
      "taf_trigger": false,
      "metar": "METAR EPKK 222300Z 03006KT CAVOK 07/M01 Q1017",
      "taf": "TAF EPKK 222030Z 2221/2321 06006KT CAVOK"
    },
    {
      "icao": "EPKT",
      "alert": "OK",
      "vis_m": 9999,
      "fzfg": false,
      "metar_trigger": false,
      "taf_trigger": false,
      "metar": "METAR EPKT 222300Z 10007KT CAVOK 06/M00 Q1017",
      "taf": "TAF EPKT 221730Z 2218/2318 08003KT CAVOK"
    },
    {
      "icao": "EPLB",
      "alert": "OK",
      "vis_m": 9999,
      "fzfg": false,
      "metar_trigger": false,
      "taf_trigger": false,
      "metar": "METAR EPLB 222300Z 05002KT CAVOK 01/M03 Q1019",
      "taf": "TAF EPLB 221730Z 2218/2318 10005KT CAVOK"
    },
    {
      "icao": "EPMO",
      "alert": "OK",
      "vis_m": 9999,
      "fzfg": false,
      "metar_trigger": false,
      "taf_trigger": false,
      "metar": "METAR EPMO 222300Z 09006KT CAVOK 05/M00 Q1019",
      "taf": "TAF EPMO 221730Z 2218/2318 08006KT CAVOK"
    },
    {
      "icao": "EPPO",
      "alert": "OK",
      "vis_m": 9999,
      "fzfg": false,
      "metar_trigger": false,
      "taf_trigger": false,
      "metar": "METAR EPPO 222300Z 10006KT CAVOK 09/01 Q1017",
      "taf": "TAF EPPO 221730Z 2218/2318 08005KT CAVOK"
    },
    {
      "icao": "EPRA",
      "alert": "OK",
      "vis_m": 9999,
      "fzfg": false,
      "metar_trigger": false,
      "taf_trigger": false,
      "metar": "METAR EPRA 222300Z 12006KT CAVOK 05/M03 Q1019",
      "taf": "TAF EPRA 222030Z 2221/2306 12006KT CAVOK"
    },
    {
      "icao": "EPRZ",
      "alert": "OK",
      "vis_m": 9999,
      "fzfg": false,
      "metar_trigger": false,
      "taf_trigger": false,
      "metar": "METAR EPRZ 222300Z 07007KT CAVOK 05/M03 Q1018",
      "taf": "TAF EPRZ 221730Z 2218/2318 08006KT CAVOK"
    },
    {
      "icao": "EPSC",
      "alert": "OK",
      "vis_m": 9999,
      "fzfg": false,
      "metar_trigger": false,
      "taf_trigger": false,
      "metar": "METAR EPSC 222300Z VRB01KT CAVOK 02/M01 Q1018",
      "taf": "TAF EPSC 221730Z 2218/2318 13005KT CAVOK"
    },
    {
      "icao": "EPSY",
      "alert": "OK",
      "vis_m": 9999,
      "fzfg": false,
      "metar_trigger": false,
      "taf_trigger": false,
      "metar": "METAR EPSY 222300Z 02003KT CAVOK 01/M02 Q1020",
      "taf": "TAF EPSY 222030Z 2221/2306 VRB02KT CAVOK"
    },
    {
      "icao": "EPWA",
      "alert": "OK",
      "vis_m": 9999,
      "fzfg": false,
      "metar_trigger": false,
      "taf_trigger": false,
      "metar": "METAR EPWA 222300Z 11003KT CAVOK 05/M01 Q1019 NOSIG",
      "taf": "TAF EPWA 222030Z 2221/2321 11005KT CAVOK"
    },
    {
      "icao": "EPWR",
      "alert": "OK",
      "vis_m": 9999,
      "fzfg": false,
      "metar_trigger": false,
      "taf_trigger": false,
      "metar": "METAR EPWR 222300Z 14001KT CAVOK 06/02 Q1016",
      "taf": "TAF EPWR 222030Z 2221/2321 VRB02KT CAVOK"
    },
    {
      "icao": "ESGG",
      "alert": "OK",
      "vis_m": 9999,
      "fzfg": false,
      "metar_trigger": false,
      "taf_trigger": false,
      "metar": "METAR ESGG 222250Z 20010KT CAVOK 02/M01 Q1015",
      "taf": "TAF ESGG 222030Z 2221/2321 19008KT CAVOK"
    },
    {
      "icao": "ESKN",
      "alert": "OK",
      "vis_m": 9999,
      "fzfg": false,
      "metar_trigger": false,
      "taf_trigger": false,
      "metar": "METAR ESKN 222250Z 22010KT CAVOK 04/M02 Q1014",
      "taf": "TAF ESKN 222030Z 2221/2321 24008KT CAVOK"
    },
    {
      "icao": "ESMS",
      "alert": "OK",
      "vis_m": 9999,
      "fzfg": false,
      "metar_trigger": false,
      "taf_trigger": false,
      "metar": "METAR ESMS 222250Z 13004KT CAVOK 01/M02 Q1018",
      "taf": "TAF ESMS 222027Z 2221/2321 13005KT CAVOK"
    },
    {
      "icao": "ESSA",
      "alert": "OK",
      "vis_m": 9999,
      "fzfg": false,
      "metar_trigger": false,
      "taf_trigger": false,
      "metar": "METAR ESSA 222250Z 24015KT CAVOK 03/M00 Q1012 NOSIG",
      "taf": "TAF ESSA 222030Z 2221/2321 22012KT CAVOK"
    },
    {
      "icao": "EYKA",
      "alert": "OK",
      "vis_m": 9999,
      "fzfg": false,
      "metar_trigger": false,
      "taf_trigger": false,
      "metar": "METAR EYKA 222250Z VRB02KT CAVOK M00/M02 Q1021",
      "taf": "TAF EYKA 222300Z 2300/2324 VRB04KT 9000 NSC"
    },
    {
      "icao": "EYPA",
      "alert": "OK",
      "vis_m": 9999,
      "fzfg": false,
      "metar_trigger": false,
      "taf_trigger": false,
      "metar": "METAR EYPA 222250Z 17002KT CAVOK 01/M01 Q1020",
      "taf": "TAF EYPA 222300Z 2300/2324 VRB05KT 9000 NSC"
    },
    {
      "icao": "EYVI",
      "alert": "OK",
      "vis_m": 9999,
      "fzfg": false,
      "metar_trigger": false,
      "taf_trigger": false,
      "metar": "METAR EYVI 222250Z 00000KT CAVOK 03/M03 Q1021 NOSIG",
      "taf": "TAF EYVI 222300Z 2300/2324 VRB05KT 5000 MIFG BR NSC"
    },
    {
      "icao": "GCFV",
      "alert": "OK",
      "vis_m": 9999,
      "fzfg": false,
      "metar_trigger": false,
      "taf_trigger": false,
      "metar": "METAR GCFV 222300Z 20007KT 160V250 9999 SCT025 BKN033 19/14 Q1006",
      "taf": "TAF GCFV 222000Z 2221/2321 19014KT 9999 SCT025 TX21/2314Z TN16/2306Z"
    },
    {
      "icao": "GCLP",
      "alert": "OK",
      "vis_m": 9999,
      "fzfg": false,
      "metar_trigger": false,
      "taf_trigger": false,
      "metar": "METAR GCLP 222300Z 20009KT 9999 SCT022 17/15 Q1005 NOSIG",
      "taf": "TAF GCLP 222000Z 2221/2321 20017KT 9999 SCT025 TX21/2314Z TN15/2306Z"
    },
    {
      "icao": "GCTS",
      "alert": "OK",
      "vis_m": 9999,
      "fzfg": false,
      "metar_trigger": false,
      "taf_trigger": false,
      "metar": "METAR GCTS 222300Z 28004KT 250V320 9999 -RA FEW025 BKN055 16/14 Q1005 BECMG NSW",
      "taf": "TAF GCTS 222000Z 2221/2321 25008KT 9999 BKN030 TX20/2314Z TN15/2306Z"
    },
    {
      "icao": "GMAD",
      "alert": "OK",
      "vis_m": 9999,
      "fzfg": false,
      "metar_trigger": false,
      "taf_trigger": false,
      "metar": "METAR GMAD 222300Z 00000KT 9999 VCTS SCT030TCU FEW040CB BKN083 16/15 Q1008 TEMPO 4000 RA",
      "taf": "TAF GMAD 221700Z 2218/2324 20008KT 8000 SCT020TCU SCT080"
    },
    {
      "icao": "GMMN",
      "alert": "OK",
      "vis_m": 9999,
      "fzfg": false,
      "metar_trigger": false,
      "taf_trigger": false,
      "metar": "METAR GMMN 222300Z VRB02KT 9999 FEW040 12/10 Q1009 NOSIG",
      "taf": "TAF GMMN 221700Z 2218/2324 26012KT 9999 SCT020TCU BKN080"
    },
    {
      "icao": "GMMX",
      "alert": "OK",
      "vis_m": 8000,
      "fzfg": false,
      "metar_trigger": false,
      "taf_trigger": false,
      "metar": "METAR GMMX 222300Z 04004KT 010V070 8000 TS BKN020 FEW030CB 15/13 Q1009 NOSIG",
      "taf": "TAF GMMX 221700Z 2218/2324 06006KT 8000 SCT020 BKN080"
    },
    {
      "icao": "HEGN",
      "alert": "OK",
      "vis_m": 9999,
      "fzfg": false,
      "metar_trigger": false,
      "taf_trigger": false,
      "metar": "METAR HEGN 222200Z 24003KT CAVOK 18/08 Q1009 NOSIG",
      "taf": "TAF HEGN 222300Z 2300/2406 27010KT CAVOK"
    },
    {
      "icao": "HEMA",
      "alert": "OK",
      "vis_m": 9999,
      "fzfg": false,
      "metar_trigger": false,
      "taf_trigger": false,
      "metar": "METAR HEMA 222200Z 12004KT CAVOK 20/14 Q1008 NOSIG",
      "taf": "TAF HEMA 222300Z 2300/2406 13010KT CAVOK"
    },
    {
      "icao": "HESH",
      "alert": "OK",
      "vis_m": 9999,
      "fzfg": false,
      "metar_trigger": false,
      "taf_trigger": false,
      "metar": "METAR HESH 222200Z 34003KT CAVOK 20/08 Q1009 NOSIG",
      "taf": "TAF HESH 222300Z 2300/2406 18008KT CAVOK"
    },
    {
      "icao": "HESX",
      "alert": "OK",
      "vis_m": 9999,
      "fzfg": false,
      "metar_trigger": false,
      "taf_trigger": false,
      "metar": "METAR HESX 222200Z 04005KT CAVOK 12/08 Q1011 NOSIG",
      "taf": "TAF HESX 222300Z 2300/2406 04007KT CAVOK"
    },
    {
      "icao": "LATI",
      "alert": "OK",
      "vis_m": 9999,
      "fzfg": false,
      "metar_trigger": false,
      "taf_trigger": false,
      "metar": "METAR LATI 222250Z 15003KT 9999 FEW092 BKN110 09/04 Q1012 NOSIG",
      "taf": "TAF LATI 222300Z 2300/2324 VRB05KT 9999 FEW050 BKN080 TX17/2312Z TN07/2304Z"
    },
    {
      "icao": "LBPD",
      "alert": "OK",
      "vis_m": 9999,
      "fzfg": false,
      "metar_trigger": false,
      "taf_trigger": false,
      "metar": "METAR LBPD 222300Z AUTO 12005KT 9999 OVC039/// 07/05 Q1015",
      "taf": "TAF LBPD 221700Z 2218/2318 13010KT 9999 SCT030 BKN050"
    },
    {
      "icao": "LBSF",
      "alert": "OK",
      "vis_m": 9999,
      "fzfg": false,
      "metar_trigger": false,
      "taf_trigger": false,
      "metar": "METAR LBSF 222300Z AUTO 21002KT 9999 FEW028/// BKN074/// 05/01 Q1015 NOSIG",
      "taf": "TAF LBSF 221700Z 2218/2318 VRB04KT 9999 SCT025 BKN050"
    },
    {
      "icao": "LBWN",
      "alert": "OK",
      "vis_m": 9999,
      "fzfg": false,
      "metar_trigger": false,
      "taf_trigger": false,
      "metar": "METAR LBWN 222300Z AUTO 35009KT 9999 -SHRA OVC028/// 07/05 Q1014 NOSIG",
      "taf": "TAF LBWN 221700Z 2218/2318 01012KT 9999 BKN020 OVC040"
    },
    {
      "icao": "LCLK",
      "alert": "OK",
      "vis_m": 9999,
      "fzfg": false,
      "metar_trigger": false,
      "taf_trigger": false,
      "metar": "METAR LCLK 222300Z VRB03KT 9999 SCT060 10/09 Q1008 NOSIG",
      "taf": "TAF LCLK 221730Z 2218/2318 31006KT 9999 FEW030 SCT045"
    },
    {
      "icao": "LCPH",
      "alert": "OK",
      "vis_m": 9999,
      "fzfg": false,
      "metar_trigger": false,
      "taf_trigger": false,
      "metar": "METAR LCPH 222300Z 06004KT 010V080 9999 FEW028 SCT035 12/10 Q1008 NOSIG",
      "taf": "TAF LCPH 221730Z 2218/2318 31010KT 9999 FEW020 SCT030 BKN040"
    },
    {
      "icao": "LEAL",
      "alert": "OK",
      "vis_m": 9999,
      "fzfg": false,
      "metar_trigger": false,
      "taf_trigger": false,
      "metar": "METAR LEAL 222300Z VRB02KT CAVOK 11/09 Q1012 NOSIG",
      "taf": "TAF LEAL 221700Z 2218/2318 VRB04KT 9999 FEW030 TX18/2312Z TN07/2306Z"
    },
    {
      "icao": "LEBB",
      "alert": "OK",
      "vis_m": 9999,
      "fzfg": false,
      "metar_trigger": false,
      "taf_trigger": false,
      "metar": "METAR LEBB 222300Z AUTO 32004KT 280V350 9999 SCT023 BKN031 OVC037 12/09 Q1016",
      "taf": ""
    },
    {
      "icao": "LEBL",
      "alert": "OK",
      "vis_m": 9000,
      "fzfg": false,
      "metar_trigger": false,
      "taf_trigger": false,
      "metar": "METAR LEBL 222300Z 08002KT 9000 -RA FEW023 SCT059 13/13 Q1012 NOSIG",
      "taf": "TAF LEBL 221700Z 2218/2318 22012KT 9999 FEW020 TX16/2312Z TN10/2306Z"
    },
    {
      "icao": "LECH",
      "alert": "OK",
      "vis_m": 8000,
      "fzfg": false,
      "metar_trigger": false,
      "taf_trigger": false,
      "metar": "METAR LECH 222300Z AUTO 18005KT 130V300 8000 NSC 09/07 Q1012",
      "taf": "TAF LECH 221700Z 2218/2318 VRB04KT 9999 FEW030 TX16/2312Z TN05/2306Z"
    },
    {
      "icao": "LEMD",
      "alert": "OK",
      "vis_m": 9999,
      "fzfg": false,
      "metar_trigger": false,
      "taf_trigger": false,
      "metar": "METAR LEMD 222300Z 01003KT 340V060 CAVOK 10/M01 Q1012 NOSIG",
      "taf": "TAF LEMD 221700Z 2218/2324 VRB04KT CAVOK TX18/2316Z TN03/2306Z"
    },
    {
      "icao": "LEMG",
      "alert": "OK",
      "vis_m": 9999,
      "fzfg": false,
      "metar_trigger": false,
      "taf_trigger": false,
      "metar": "METAR LEMG 222300Z 28004KT 250V310 9999 FEW020 11/09 Q1013 NOSIG",
      "taf": "TAF LEMG 221700Z 2218/2318 13004KT CAVOK TX19/2313Z TN11/2306Z"
    },
    {
      "icao": "LEVC",
      "alert": "OK",
      "vis_m": 9999,
      "fzfg": false,
      "metar_trigger": false,
      "taf_trigger": false,
      "metar": "METAR LEVC 222300Z 28003KT CAVOK 09/07 Q1012 NOSIG",
      "taf": "TAF LEVC 221700Z 2218/2318 12010KT CAVOK TX18/2312Z TN06/2306Z"
    },
    {
      "icao": "LEXJ",
      "alert": "OK",
      "vis_m": 9999,
      "fzfg": false,
      "metar_trigger": false,
      "taf_trigger": false,
      "metar": "METAR LEXJ 222300Z AUTO 33004KT 280V020 9999 OVC030 10/06 Q1017",
      "taf": "TAF LEXJ 222000Z 2221/2321 30008KT 9999 FEW015 SCT025 TX16/2314Z TN09/2307Z"
    },
    {
      "icao": "LEZG",
      "alert": "OK",
      "vis_m": 9999,
      "fzfg": false,
      "metar_trigger": false,
      "taf_trigger": false,
      "metar": "METAR LEZG 222300Z 30020KT CAVOK 11/04 Q1012 NOSIG",
      "taf": ""
    },
    {
      "icao": "LEZL",
      "alert": "OK",
      "vis_m": 9999,
      "fzfg": false,
      "metar_trigger": false,
      "taf_trigger": false,
      "metar": "METAR LEZL 222300Z 10003KT 070V150 CAVOK 14/13 Q1011 NOSIG",
      "taf": "TAF LEZL 222000Z 2221/2321 18005KT CAVOK TX25/2315Z TN10/2307Z"
    },
    {
      "icao": "LFBD",
      "alert": "OK",
      "vis_m": 9999,
      "fzfg": false,
      "metar_trigger": false,
      "taf_trigger": false,
      "metar": "METAR LFBD 222300Z AUTO 31002KT 9999 4700 NSC 07/05 Q1014 NOSIG",
      "taf": "TAF LFBD 221700Z 2218/2324 33010KT CAVOK TX18/2314Z TN06/2306Z"
    },
    {
      "icao": "LFLL",
      "alert": "OK",
      "vis_m": 9999,
      "fzfg": false,
      "metar_trigger": false,
      "taf_trigger": false,
      "metar": "METAR LFLL 222300Z 16002KT CAVOK 07/05 Q1015 NOSIG",
      "taf": "TAF LFLL 221700Z 2218/2324 14006KT 9999 SCT040"
    },
    {
      "icao": "LFLS",
      "alert": "OK",
      "vis_m": 9999,
      "fzfg": false,
      "metar_trigger": false,
      "taf_trigger": false,
      "metar": "METAR LFLS 222300Z AUTO 08004KT 9999 SCT014 BKN020 OVC035 05/04 Q1015",
      "taf": ""
    },
    {
      "icao": "LFMN",
      "alert": "OK",
      "vis_m": 9999,
      "fzfg": false,
      "metar_trigger": false,
      "taf_trigger": false,
      "metar": "METAR LFMN 222300Z 33008KT 9999 BKN100 09/04 Q1014 NOSIG",
      "taf": "TAF LFMN 222000Z 2221/2403 34010KT 9999 OVC100"
    },
    {
      "icao": "LFOB",
      "alert": "OK",
      "vis_m": 5000,
      "fzfg": false,
      "metar_trigger": false,
      "taf_trigger": false,
      "metar": "METAR LFOB 222300Z AUTO 28006KT 5000 BR NSC 03/03 Q1017 NOSIG",
      "taf": "TAF LFOB 221700Z 2218/2318 02006KT CAVOK"
    },
    {
      "icao": "LFPO",
      "alert": "OK",
      "vis_m": 9999,
      "fzfg": false,
      "metar_trigger": false,
      "taf_trigger": false,
      "metar": "METAR LFPO 222300Z 01004KT CAVOK 09/04 Q1016 NOSIG",
      "taf": "TAF LFPO 221700Z 2218/2324 03006KT 9999 FEW050"
    },
    {
      "icao": "LFSB",
      "alert": "OK",
      "vis_m": 9999,
      "fzfg": false,
      "metar_trigger": false,
      "taf_trigger": false,
      "metar": "METAR LFSB 222300Z AUTO 00000KT CAVOK 04/02 Q1014 NOSIG",
      "taf": "TAF LFSB 221700Z 2218/2318 36005KT 9999 FEW040"
    },
    {
      "icao": "LGAV",
      "alert": "OK",
      "vis_m": 9999,
      "fzfg": false,
      "metar_trigger": false,
      "taf_trigger": false,
      "metar": "METAR LGAV 222250Z 36008KT 9999 SCT020 SCT070 11/05 Q1013 NOSIG",
      "taf": "TAF LGAV 222300Z 2300/2324 01013KT 9999 SCT020 SCT070"
    },
    {
      "icao": "LGTS",
      "alert": "OK",
      "vis_m": 9999,
      "fzfg": false,
      "metar_trigger": false,
      "taf_trigger": false,
      "metar": "METAR LGTS 222250Z VRB03KT 9999 -RA BKN025 10/06 Q1014 NOSIG",
      "taf": "TAF LGTS 222300Z 2300/2324 VRB03KT 9999 SCT025"
    },
    {
      "icao": "LHBP",
      "alert": "OK",
      "vis_m": 9999,
      "fzfg": false,
      "metar_trigger": false,
      "taf_trigger": false,
      "metar": "METAR LHBP 222300Z VRB02KT CAVOK 09/M00 Q1015 NOSIG",
      "taf": "TAF LHBP 221715Z 2218/2318 06005KT CAVOK"
    },
    {
      "icao": "LHDC",
      "alert": "OK",
      "vis_m": 9999,
      "fzfg": false,
      "metar_trigger": false,
      "taf_trigger": false,
      "metar": "METAR LHDC 222245Z AUTO 09008KT CAVOK 08/M01 Q1015",
      "taf": "TAF LHDC 221715Z 2218/2303 08005KT CAVOK"
    },
    {
      "icao": "LIBD",
      "alert": "OK",
      "vis_m": 9999,
      "fzfg": false,
      "metar_trigger": false,
      "taf_trigger": false,
      "metar": "METAR LIBD 222250Z 21004KT 100V260 CAVOK 07/05 Q1013",
      "taf": "TAF LIBD 221700Z 2218/2318 VRB05KT 9999 SCT050"
    },
    {
      "icao": "LIBG",
      "alert": "OK",
      "vis_m": null,
      "fzfg": false,
      "metar_trigger": false,
      "taf_trigger": false,
      "metar": "",
      "taf": "TAF LIBG 221700Z 2218/2303 VRB05KT 9999 SCT040"
    },
    {
      "icao": "LIBP",
      "alert": "OK",
      "vis_m": 9999,
      "fzfg": false,
      "metar_trigger": false,
      "taf_trigger": false,
      "metar": "METAR LIBP 222250Z AUTO 24004KT 9999 OVC073/// 09/07 Q1014",
      "taf": "TAF LIBP 221700Z 2218/2318 VRB05KT 9999 SCT060"
    },
    {
      "icao": "LIBR",
      "alert": "OK",
      "vis_m": 9999,
      "fzfg": false,
      "metar_trigger": false,
      "taf_trigger": false,
      "metar": "METAR LIBR 222250Z 26003KT CAVOK 10/07 Q1012",
      "taf": "TAF LIBR 221700Z 2218/2318 VRB05KT 9999 SCT040"
    },
    {
      "icao": "LICA",
      "alert": "OK",
      "vis_m": 9999,
      "fzfg": false,
      "metar_trigger": false,
      "taf_trigger": false,
      "metar": "METAR LICA 222250Z AUTO 09006KT 9999 NCD 07/05 Q1012",
      "taf": "TAF LICA 221700Z 2218/2318 07010KT 9999 SCT050"
    },
    {
      "icao": "LICC",
      "alert": "OK",
      "vis_m": 9999,
      "fzfg": false,
      "metar_trigger": false,
      "taf_trigger": false,
      "metar": "METAR LICC 222250Z 23002KT 9999 FEW020 BKN060 12/09 Q1012",
      "taf": "TAF LICC 221700Z 2218/2318 12010KT 9999 SCT020"
    },
    {
      "icao": "LICJ",
      "alert": "OK",
      "vis_m": 9999,
      "fzfg": false,
      "metar_trigger": false,
      "taf_trigger": false,
      "metar": "METAR LICJ 222250Z 19004KT CAVOK 11/07 Q1012",
      "taf": "TAF LICJ 221700Z 2218/2318 VRB05KT 9999 BKN060"
    },
    {
      "icao": "LIMC",
      "alert": "OK",
      "vis_m": 9999,
      "fzfg": false,
      "metar_trigger": false,
      "taf_trigger": false,
      "metar": "METAR LIMC 222250Z 36003KT 330V040 9999 BKN080 07/02 Q1015 NOSIG",
      "taf": "TAF LIMC 221700Z 2218/2324 VRB05KT 9999 BKN050"
    },
    {
      "icao": "LIME",
      "alert": "OK",
      "vis_m": 9999,
      "fzfg": false,
      "metar_trigger": false,
      "taf_trigger": false,
      "metar": "METAR LIME 222250Z AUTO 01004KT 9999 BKN110/// 09/01 Q1015",
      "taf": "TAF LIME 221700Z 2218/2318 VRB05KT 9999 SCT060"
    },
    {
      "icao": "LIMF",
      "alert": "OK",
      "vis_m": 9999,
      "fzfg": false,
      "metar_trigger": false,
      "taf_trigger": false,
      "metar": "METAR LIMF 222250Z VRB01KT 9999 OVC080 06/01 Q1015",
      "taf": "TAF LIMF 221700Z 2218/2318 VRB05KT 8000 BKN040"
    },
    {
      "icao": "LIMJ",
      "alert": "OK",
      "vis_m": 9999,
      "fzfg": false,
      "metar_trigger": false,
      "taf_trigger": false,
      "metar": "METAR LIMJ 222250Z AUTO 04012KT 9999 NCD 10/03 Q1014",
      "taf": "TAF LIMJ 221700Z 2218/2318 36014KT 9999 FEW050"
    },
    {
      "icao": "LIPE",
      "alert": "OK",
      "vis_m": 9999,
      "fzfg": false,
      "metar_trigger": false,
      "taf_trigger": false,
      "metar": "METAR LIPE 222250Z 19003KT CAVOK 07/03 Q1015",
      "taf": "TAF LIPE 221700Z 2218/2318 VRB05KT 9999 FEW050"
    },
    {
      "icao": "LIPH",
      "alert": "OK",
      "vis_m": 9999,
      "fzfg": false,
      "metar_trigger": false,
      "taf_trigger": false,
      "metar": "METAR LIPH 222250Z AUTO 03002KT 9999 BKN095/// 10/00 Q1014",
      "taf": "TAF LIPH 221700Z 2218/2318 04007KT 9999 SCT060"
    },
    {
      "icao": "LIPQ",
      "alert": "OK",
      "vis_m": 9999,
      "fzfg": false,
      "metar_trigger": false,
      "taf_trigger": false,
      "metar": "METAR LIPQ 222250Z AUTO 01004KT 9999 BKN180/// 08/00 Q1014",
      "taf": "TAF LIPQ 221700Z 2218/2318 04006KT 9999 SCT060"
    },
    {
      "icao": "LIPR",
      "alert": "OK",
      "vis_m": 9999,
      "fzfg": false,
      "metar_trigger": false,
      "taf_trigger": false,
      "metar": "METAR LIPR 222250Z AUTO 05005KT 020V090 9999 BKN056/// 10/05 Q1014",
      "taf": "TAF LIPR 221700Z 2218/2318 VRB05KT 9999 SCT040"
    },
    {
      "icao": "LIPX",
      "alert": "OK",
      "vis_m": 9999,
      "fzfg": false,
      "metar_trigger": false,
      "taf_trigger": false,
      "metar": "METAR LIPX 222250Z 34006KT CAVOK 07/M01 Q1015",
      "taf": "TAF LIPX 221700Z 2218/2318 VRB05KT 9999 SCT070"
    },
    {
      "icao": "LIPY",
      "alert": "OK",
      "vis_m": 9999,
      "fzfg": false,
      "metar_trigger": false,
      "taf_trigger": false,
      "metar": "METAR LIPY 222250Z AUTO 17004KT 120V200 9999 FEW031/// SCT038/// BKN069/// 08/05 Q1014",
      "taf": "TAF LIPY 221700Z 2218/2318 VRB05KT 9999 SCT060"
    },
    {
      "icao": "LIPZ",
      "alert": "OK",
      "vis_m": 9999,
      "fzfg": false,
      "metar_trigger": false,
      "taf_trigger": false,
      "metar": "METAR LIPZ 222250Z 03006KT CAVOK 09/01 Q1014 NOSIG",
      "taf": "TAF LIPZ 221700Z 2218/2324 03007KT 9999 SCT060"
    },
    {
      "icao": "LIRF",
      "alert": "OK",
      "vis_m": 9999,
      "fzfg": false,
      "metar_trigger": false,
      "taf_trigger": false,
      "metar": "METAR LIRF 222250Z VRB02KT CAVOK 09/06 Q1012 NOSIG",
      "taf": "TAF LIRF 221700Z 2218/2324 17010KT CAVOK"
    },
    {
      "icao": "LIRN",
      "alert": "OK",
      "vis_m": 9999,
      "fzfg": false,
      "metar_trigger": false,
      "taf_trigger": false,
      "metar": "METAR LIRN 222250Z 35002KT CAVOK 10/04 Q1012 NOSIG",
      "taf": "TAF LIRN 221700Z 2218/2318 VRB05KT 9999 FEW040"
    },
    {
      "icao": "LIRP",
      "alert": "OK",
      "vis_m": 9999,
      "fzfg": false,
      "metar_trigger": false,
      "taf_trigger": false,
      "metar": "METAR LIRP 222245Z VRB01KT CAVOK 07/03 Q1013 NOSIG",
      "taf": "TAF LIRP 221700Z 2218/2318 09005KT CAVOK"
    },
    {
      "icao": "LIRZ",
      "alert": "OK",
      "vis_m": 9999,
      "fzfg": false,
      "metar_trigger": false,
      "taf_trigger": false,
      "metar": "METAR LIRZ 222250Z AUTO 01009KT 9999 NCD 05/02 Q1013",
      "taf": "TAF LIRZ 221700Z 2218/2318 10010KT 9999 BKN070"
    },
    {
      "icao": "LJLJ",
      "alert": "OK",
      "vis_m": 9999,
      "fzfg": false,
      "metar_trigger": false,
      "taf_trigger": false,
      "metar": "METAR LJLJ 222300Z 30006KT 9999 BKN050 04/M00 Q1015 NOSIG",
      "taf": "TAF LJLJ 222300Z 2300/2400 35005KT 9999 FEW050"
    },
    {
      "icao": "LKMT",
      "alert": "OK",
      "vis_m": 9999,
      "fzfg": false,
      "metar_trigger": false,
      "taf_trigger": false,
      "metar": "METAR LKMT 222300Z 23002KT CAVOK 02/M02 Q1016 NOSIG",
      "taf": "TAF LKMT 221700Z 2218/2318 15004KT CAVOK"
    },
    {
      "icao": "LKPR",
      "alert": "OK",
      "vis_m": 9999,
      "fzfg": false,
      "metar_trigger": false,
      "taf_trigger": false,
      "metar": "METAR LKPR 222300Z 15005KT CAVOK 06/M01 Q1015 NOSIG",
      "taf": "TAF LKPR 222000Z 2221/2403 14004KT CAVOK"
    },
    {
      "icao": "LLBG",
      "alert": "OK",
      "vis_m": 9999,
      "fzfg": false,
      "metar_trigger": false,
      "taf_trigger": false,
      "metar": "METAR LLBG 222250Z VRB03KT CAVOK 13/08 Q1011 NOSIG",
      "taf": "TAF LLBG 222301Z 2300/2324 VRB03KT 9999 FEW040 TX20/2312Z TN09/2303Z"
    },
    {
      "icao": "LMML",
      "alert": "OK",
      "vis_m": 9000,
      "fzfg": false,
      "metar_trigger": false,
      "taf_trigger": false,
      "metar": "METAR LMML 222245Z 26005KT 9000 -SHRA SCT014 BKN047 12/11 Q1012 BECMG 9999",
      "taf": "TAF LMML 222300Z 2300/2324 VRB05KT 9999 SCT018"
    },
    {
      "icao": "LOWW",
      "alert": "OK",
      "vis_m": 9999,
      "fzfg": false,
      "metar_trigger": false,
      "taf_trigger": false,
      "metar": "METAR LOWW 222250Z 36003KT CAVOK 05/M02 Q1015 NOSIG",
      "taf": "TAF LOWW 222015Z 2221/2403 VRB04KT 9999 FEW050 TX15/2313Z TN02/2305Z"
    },
    {
      "icao": "LPFR",
      "alert": "OK",
      "vis_m": 9999,
      "fzfg": false,
      "metar_trigger": false,
      "taf_trigger": false,
      "metar": "METAR LPFR 222300Z 32005KT 9999 FEW040 14/11 Q1012",
      "taf": "TAF LPFR 221700Z 2218/2318 14008KT 9999 FEW020"
    },
    {
      "icao": "LPMA",
      "alert": "OK",
      "vis_m": 9999,
      "fzfg": false,
      "metar_trigger": false,
      "taf_trigger": false,
      "metar": "METAR LPMA 222300Z 02015KT 9999 SCT015 FEW018CB 16/13 Q1008",
      "taf": "TAF LPMA 221700Z 2218/2318 03012KT 9999 SCT016 SCT030"
    },
    {
      "icao": "LPPR",
      "alert": "OK",
      "vis_m": 8000,
      "fzfg": false,
      "metar_trigger": false,
      "taf_trigger": false,
      "metar": "METAR LPPR 222300Z 19003KT 8000 NSC 10/10 Q1012",
      "taf": "TAF LPPR 221700Z 2218/2318 30007KT 9999 FEW004"
    },
    {
      "icao": "LPPS",
      "alert": "OK",
      "vis_m": 9999,
      "fzfg": false,
      "metar_trigger": false,
      "taf_trigger": false,
      "metar": "METAR LPPS 222300Z 06015KT 9999 SCT013 FEW018CB 16/13 Q1008",
      "taf": "TAF LPPS 221700Z 2218/2324 06015KT 9999 SCT013"
    },
    {
      "icao": "LPPT",
      "alert": "OK",
      "vis_m": 9999,
      "fzfg": false,
      "metar_trigger": false,
      "taf_trigger": false,
      "metar": "METAR LPPT 222300Z 31007KT CAVOK 15/11 Q1012",
      "taf": "TAF LPPT 221700Z 2218/2324 05007KT 9999 FEW030"
    },
    {
      "icao": "LQBK",
      "alert": "OK",
      "vis_m": 9999,
      "fzfg": false,
      "metar_trigger": false,
      "taf_trigger": false,
      "metar": "METAR LQBK 222300Z VRB01KT CAVOK 03/01 Q1014 NOSIG",
      "taf": "TAF LQBK 222300Z 2300/2324 34005KT CAVOK TX15/2313Z TN01/2305Z"
    },
    {
      "icao": "LQSA",
      "alert": "OK",
      "vis_m": 9999,
      "fzfg": false,
      "metar_trigger": false,
      "taf_trigger": false,
      "metar": "METAR LQSA 222300Z VRB03KT 9999 SCT070 06/01 Q1012",
      "taf": "TAF LQSA 222300Z 2300/2324 VRB02KT 9999 SCT060 TX10/2314Z TN03/2305Z"
    },
    {
      "icao": "LQTZ",
      "alert": "OK",
      "vis_m": 9999,
      "fzfg": false,
      "metar_trigger": false,
      "taf_trigger": false,
      "metar": "METAR LQTZ 222300Z VRB02KT CAVOK 03/01 Q1013",
      "taf": "TAF LQTZ 222300Z 2300/2324 32005KT 9999 SCT060 TX15/2313Z TN01/2305Z"
    },
    {
      "icao": "LRBC",
      "alert": "OK",
      "vis_m": 9999,
      "fzfg": false,
      "metar_trigger": false,
      "taf_trigger": false,
      "metar": "METAR LRBC 222300Z COR 03003KT 010V070 9999 OVC060 08/01 Q1018",
      "taf": "TAF LRBC 222000Z 2221/2306 VRB04KT 9999 OVC050"
    },
    {
      "icao": "LRBS",
      "alert": "OK",
      "vis_m": 9999,
      "fzfg": false,
      "metar_trigger": false,
      "taf_trigger": false,
      "metar": "METAR LRBS 222300Z 35004KT 310V040 CAVOK 08/03 Q1016 NOSIG",
      "taf": "TAF LRBS 221700Z 2218/2318 08012KT 9999 BKN045"
    },
    {
      "icao": "LRBV",
      "alert": "OK",
      "vis_m": 9999,
      "fzfg": false,
      "metar_trigger": false,
      "taf_trigger": false,
      "metar": "METAR LRBV 222300Z AUTO 15004KT 9999 -RA OVC043/// 05/00 Q1017 RERA",
      "taf": "TAF LRBV 222000Z 2221/2306 08006KT 9999 SCT035 BKN060"
    },
    {
      "icao": "LRCL",
      "alert": "OK",
      "vis_m": 9999,
      "fzfg": false,
      "metar_trigger": false,
      "taf_trigger": false,
      "metar": "METAR LRCL 222300Z 36001KT CAVOK 02/M02 Q1017",
      "taf": "TAF LRCL 222000Z 2221/2306 VRB04KT CAVOK"
    },
    {
      "icao": "LRCV",
      "alert": "OK",
      "vis_m": 9999,
      "fzfg": false,
      "metar_trigger": false,
      "taf_trigger": false,
      "metar": "METAR LRCV 222300Z 16003KT 9999 BKN035 BKN040 06/04 Q1017",
      "taf": "TAF LRCV 222000Z 2221/2306 12006KT 9999 SCT020 BKN030"
    },
    {
      "icao": "LRIA",
      "alert": "OK",
      "vis_m": 9999,
      "fzfg": false,
      "metar_trigger": false,
      "taf_trigger": false,
      "metar": "METAR LRIA 222300Z 04006KT CAVOK 08/M01 Q1018",
      "taf": "TAF LRIA 222000Z 2221/2306 36006KT CAVOK"
    },
    {
      "icao": "LROP",
      "alert": "OK",
      "vis_m": 9999,
      "fzfg": false,
      "metar_trigger": false,
      "taf_trigger": false,
      "metar": "METAR LROP 222300Z 35007KT 320V050 CAVOK 08/00 Q1016 NOSIG",
      "taf": "TAF LROP 221700Z 2218/2318 08012KT 9999 BKN045"
    },
    {
      "icao": "LRSB",
      "alert": "OK",
      "vis_m": 9999,
      "fzfg": false,
      "metar_trigger": false,
      "taf_trigger": false,
      "metar": "METAR LRSB 222300Z 24004KT CAVOK 03/M02 Q1016",
      "taf": "TAF LRSB 221700Z 2218/2318 11008KT 9999 BKN055"
    },
    {
      "icao": "LRSM",
      "alert": "OK",
      "vis_m": 9999,
      "fzfg": false,
      "metar_trigger": false,
      "taf_trigger": false,
      "metar": "METAR LRSM 222300Z AUTO 12005KT 9999 NCD 08/M04 Q1017",
      "taf": "TAF LRSM 221400Z 2215/2224 07006KT CAVOK"
    },
    {
      "icao": "LRSV",
      "alert": "OK",
      "vis_m": 9999,
      "fzfg": false,
      "metar_trigger": false,
      "taf_trigger": false,
      "metar": "METAR LRSV 222300Z 35005KT CAVOK 05/M02 Q1018",
      "taf": "TAF LRSV 222000Z 2221/2306 VRB04KT CAVOK"
    },
    {
      "icao": "LRTM",
      "alert": "OK",
      "vis_m": 9999,
      "fzfg": false,
      "metar_trigger": false,
      "taf_trigger": false,
      "metar": "METAR LRTM 222300Z AUTO 06003KT 9999 NCD 03/M02 Q1017",
      "taf": "TAF LRTM 221400Z 2215/2224 13006KT 9999 SCT040"
    },
    {
      "icao": "LRTR",
      "alert": "OK",
      "vis_m": 9999,
      "fzfg": false,
      "metar_trigger": false,
      "taf_trigger": false,
      "metar": "METAR LRTR 222300Z 10005KT CAVOK 05/03 Q1016",
      "taf": "TAF LRTR 221700Z 2218/2318 VRB04KT CAVOK"
    },
    {
      "icao": "LTAC",
      "alert": "OK",
      "vis_m": 9999,
      "fzfg": false,
      "metar_trigger": false,
      "taf_trigger": false,
      "metar": "METAR LTAC 222250Z 09005KT 030V100 9999 SCT040 BKN100 06/05 Q1008 NOSIG RMK RWY21C 05005KT RWY03L 07004KT RWY21R 02006KT RWY03R VRB02KT RWY21L 08004KT",
      "taf": "TAF LTAC 222240Z 2300/2324 VRB02KT 9999 SCT040 BKN100"
    },
    {
      "icao": "LTFM",
      "alert": "OK",
      "vis_m": 1600,
      "fzfg": false,
      "metar_trigger": false,
      "taf_trigger": false,
      "metar": "METAR LTFM 222250Z 34014KT 1600 -RA BR BKN002 BKN018 07/07 Q1012 NOSIG RMK RWY17L 34013KT RWY34L 34014KT RWY16R 34011KT RWY36 34014KT RWY18 35015KT",
      "taf": "TAF LTFM 222240Z 2300/2406 03014KT 1600 BR BKN004 BKN020"
    },
    {
      "icao": "LUKK",
      "alert": "OK",
      "vis_m": 9999,
      "fzfg": false,
      "metar_trigger": false,
      "taf_trigger": false,
      "metar": "METAR LUKK 222300Z 02005KT CAVOK 08/M00 Q1017 NOSIG",
      "taf": "TAF LUKK 222303Z 2300/2324 03006KT 9999 SCT045"
    },
    {
      "icao": "LWOH",
      "alert": "OK",
      "vis_m": null,
      "fzfg": false,
      "metar_trigger": false,
      "taf_trigger": false,
      "metar": "",
      "taf": "TAF LWOH 222030Z 2221/2321 34006KT 9999 -RA SCT020 BKN040"
    },
    {
      "icao": "LWSK",
      "alert": "OK",
      "vis_m": 9999,
      "fzfg": false,
      "metar_trigger": false,
      "taf_trigger": false,
      "metar": "METAR LWSK 222250Z 19003KT 170V260 9999 -RA FEW036 BKN070 08/07 Q1014 NOSIG",
      "taf": "TAF LWSK 222030Z 2221/2321 VRB02KT 9999 SCT040 BKN070"
    },
    {
      "icao": "LYBE",
      "alert": "OK",
      "vis_m": 9999,
      "fzfg": false,
      "metar_trigger": false,
      "taf_trigger": false,
      "metar": "METAR LYBE 222300Z 10010KT CAVOK 07/02 Q1015 NOSIG",
      "taf": "TAF LYBE 221700Z 2218/2318 10010KT CAVOK TX15/2313Z TN06/2305Z"
    },
    {
      "icao": "LYNI",
      "alert": "OK",
      "vis_m": 9999,
      "fzfg": false,
      "metar_trigger": false,
      "taf_trigger": false,
      "metar": "METAR LYNI 222300Z 10007KT CAVOK 08/01 Q1015 NOSIG",
      "taf": "TAF LYNI 221700Z 2218/2318 06009KT 9999 BKN070 TX14/2313Z TN03/2305Z"
    },
    {
      "icao": "LYPG",
      "alert": "OK",
      "vis_m": 9999,
      "fzfg": false,
      "metar_trigger": false,
      "taf_trigger": false,
      "metar": "METAR LYPG 222300Z 03002KT 9999 FEW090 11/02 Q1012 NOSIG",
      "taf": "TAF LYPG 221700Z 2218/2318 35005KT 9999 BKN090 TX17/2313Z TN08/2304Z"
    },
    {
      "icao": "LZIB",
      "alert": "OK",
      "vis_m": 9999,
      "fzfg": false,
      "metar_trigger": false,
      "taf_trigger": false,
      "metar": "METAR LZIB 222300Z 03004KT CAVOK 05/M02 Q1016 NOSIG",
      "taf": ""
    },
    {
      "icao": "LZKZ",
      "alert": "OK",
      "vis_m": 9999,
      "fzfg": false,
      "metar_trigger": false,
      "taf_trigger": false,
      "metar": "METAR LZKZ 222300Z 03006KT 360V060 CAVOK 08/M02 Q1016 NOSIG",
      "taf": ""
    },
    {
      "icao": "LZTT",
      "alert": "OK",
      "vis_m": 9999,
      "fzfg": false,
      "metar_trigger": false,
      "taf_trigger": false,
      "metar": "METAR LZTT 222300Z 28005KT 9999 FEW082 01/M02 Q1016",
      "taf": ""
    },
    {
      "icao": "OEJN",
      "alert": "OK",
      "vis_m": 9999,
      "fzfg": false,
      "metar_trigger": false,
      "taf_trigger": false,
      "metar": "METAR OEJN 222300Z 10004KT CAVOK 24/06 Q1008 NOSIG",
      "taf": "TAF OEJN 222300Z 2300/2406 VRB03KT CAVOK"
    },
    {
      "icao": "OEMA",
      "alert": "OK",
      "vis_m": 9999,
      "fzfg": false,
      "metar_trigger": false,
      "taf_trigger": false,
      "metar": "METAR OEMA 222300Z 18004KT CAVOK 21/M02 Q1013 NOSIG",
      "taf": "TAF OEMA 222300Z 2300/2406 VRB03KT CAVOK"
    },
    {
      "icao": "OJAI",
      "alert": "OK",
      "vis_m": 4000,
      "fzfg": false,
      "metar_trigger": false,
      "taf_trigger": false,
      "metar": "METAR OJAI 222300Z 35003KT 4000 BR NSC 06/05 Q1012 NOSIG",
      "taf": "TAF OJAI 222300Z 2300/2406 24012KT 4000 BR FEW025TCU SCT030"
    },
    {
      "icao": "OMAA",
      "alert": "OK",
      "vis_m": null,
      "fzfg": false,
      "metar_trigger": false,
      "taf_trigger": false,
      "metar": "",
      "taf": ""
    },
    {
      "icao": "OMDB",
      "alert": "OK",
      "vis_m": null,
      "fzfg": false,
      "metar_trigger": false,
      "taf_trigger": false,
      "metar": "",
      "taf": ""
    },
    {
      "icao": "UAAA",
      "alert": "OK",
      "vis_m": 9999,
      "fzfg": false,
      "metar_trigger": false,
      "taf_trigger": false,
      "metar": "METAR UAAA 222300Z VRB01MPS 9999 SCT100 BKN200 07/02 Q1013 NOSIG",
      "taf": "TAF UAAA 221702Z 2218/2318 19002MPS 3100 FU SCT050 BKN100 TX18/2309Z TN04/2301Z"
    },
    {
      "icao": "UBBB",
      "alert": "OK",
      "vis_m": 9999,
      "fzfg": false,
      "metar_trigger": false,
      "taf_trigger": false,
      "metar": "METAR UBBB 222300Z 35008KT CAVOK 08/07 Q1012 NOSIG",
      "taf": "TAF UBBB 221708Z 2218/2318 33006KT 9999 FEW015 TX14/2310Z TN06/2301Z"
    },
    {
      "icao": "UDSG",
      "alert": "OK",
      "vis_m": 9999,
      "fzfg": false,
      "metar_trigger": false,
      "taf_trigger": false,
      "metar": "METAR UDSG 222300Z 03004KT 330V050 9999 -RA OVC033 04/04 Q1010 NOSIG",
      "taf": "TAF UDSG 221700Z 2218/2318 36006KT 9999 BKN040"
    },
    {
      "icao": "UDYZ",
      "alert": "OK",
      "vis_m": 9999,
      "fzfg": false,
      "metar_trigger": false,
      "taf_trigger": false,
      "metar": "METAR UDYZ 222300Z 11008KT 9999 SCT043CB 11/07 Q1009 NOSIG",
      "taf": "TAF UDYZ 221700Z 2218/2318 04006KT 9999 BKN040"
    },
    {
      "icao": "UGKO",
      "alert": "OK",
      "vis_m": 9999,
      "fzfg": false,
      "metar_trigger": false,
      "taf_trigger": false,
      "metar": "METAR UGKO 222300Z VRB01KT 9999 OVC009 09/08 Q1009 NOSIG",
      "taf": "TAF UGKO 222300Z 2300/2324 26006KT 9999 SCT012 BKN022 TX16/2311Z TN08/2303Z"
    }
  ]
}