{
  "ts_utc": "2026-06-04T13:39:12Z",
  "threshold_m": 150,
  "source": "stations_override.txt (ICAO list) + aviationweather.gov (METAR/TAF raw)",
  "station_count": 159,
  "stations": [
    {
      "icao": "BIKF",
      "alert": "OK",
      "vis_m": 9999,
      "fzfg": false,
      "metar_trigger": false,
      "taf_trigger": false,
      "metar": "METAR BIKF 041330Z 03006KT 330V070 9999 FEW012 BKN070 12/09 Q0988",
      "taf": "TAF BIKF 041335Z 0415/0515 36005KT 9999 SCT015 BKN025 TX13/0415Z TN09/0502Z"
    },
    {
      "icao": "BKPR",
      "alert": "OK",
      "vis_m": 9999,
      "fzfg": false,
      "metar_trigger": false,
      "taf_trigger": false,
      "metar": "METAR BKPR 041330Z 04007KT 350V070 9999 SCT050 BKN080 21/12 Q1012 NOSIG",
      "taf": "TAF BKPR 041130Z 0412/0512 03008KT 9999 SCT040 SCT080"
    },
    {
      "icao": "EBCI",
      "alert": "OK",
      "vis_m": 9999,
      "fzfg": false,
      "metar_trigger": false,
      "taf_trigger": false,
      "metar": "METAR EBCI 041320Z 23010KT 9999 -SHRA FEW015CB 13/11 Q1003 TEMPO 21015G35KT 3000 TSRA BKN013",
      "taf": "TAF EBCI 041100Z 0412/0518 24014KT 9999 BKN020"
    },
    {
      "icao": "EDDB",
      "alert": "OK",
      "vis_m": 9999,
      "fzfg": false,
      "metar_trigger": false,
      "taf_trigger": false,
      "metar": "METAR EDDB 041320Z AUTO 22015KT 190V260 9999 FEW049 24/13 Q1004 NOSIG",
      "taf": ""
    },
    {
      "icao": "EDDH",
      "alert": "OK",
      "vis_m": 9999,
      "fzfg": false,
      "metar_trigger": false,
      "taf_trigger": false,
      "metar": "METAR EDDH 041320Z AUTO 17010KT 130V200 9999 SHRA FEW036 FEW///CB 19/13 Q1000 TEMPO 20020G35KT 4000 TSRA",
      "taf": "TAF EDDH 041100Z 0412/0518 20011KT 9999 BKN030"
    },
    {
      "icao": "EDDK",
      "alert": "OK",
      "vis_m": 9999,
      "fzfg": false,
      "metar_trigger": false,
      "taf_trigger": false,
      "metar": "METAR EDDK 041320Z AUTO 17007KT CAVOK 17/13 Q1003 TEMPO 23020G30KT SHRA",
      "taf": "TAF EDDK 041100Z 0412/0518 21013KT 9999 SCT030"
    },
    {
      "icao": "EDDN",
      "alert": "OK",
      "vis_m": 9999,
      "fzfg": false,
      "metar_trigger": false,
      "taf_trigger": false,
      "metar": "METAR EDDN 041320Z AUTO 26006KT 210V320 9999 FEW044 23/12 Q1007 NOSIG",
      "taf": "TAF EDDN 041100Z 0412/0512 20010KT 9999 SCT030"
    },
    {
      "icao": "EDDS",
      "alert": "OK",
      "vis_m": 9999,
      "fzfg": false,
      "metar_trigger": false,
      "taf_trigger": false,
      "metar": "METAR EDDS 041320Z AUTO 22011KT 160V280 CAVOK 21/10 Q1008 TEMPO 24015G25KT",
      "taf": "TAF EDDS 041100Z 0412/0512 22010KT 9999 BKN040"
    },
    {
      "icao": "EDFH",
      "alert": "OK",
      "vis_m": 9999,
      "fzfg": false,
      "metar_trigger": false,
      "taf_trigger": false,
      "metar": "METAR EDFH 041320Z 23010G20KT 190V260 9999 -SHRA FEW010 SCT054TCU 16/11 Q1005",
      "taf": "TAF EDFH 041100Z 0412/0512 23015G25KT 9999 SCT015 BKN025"
    },
    {
      "icao": "EDJA",
      "alert": "OK",
      "vis_m": 9999,
      "fzfg": false,
      "metar_trigger": false,
      "taf_trigger": false,
      "metar": "METAR EDJA 041320Z 28010KT 9999 SCT038 SCT046 20/12 Q1008",
      "taf": "TAF EDJA 041100Z 0412/0421 22009KT CAVOK"
    },
    {
      "icao": "EDLW",
      "alert": "OK",
      "vis_m": 9999,
      "fzfg": false,
      "metar_trigger": false,
      "taf_trigger": false,
      "metar": "METAR EDLW 041320Z COR 20010KT 9999 -RA FEW013 BKN038 17/14 Q1002",
      "taf": "TAF EDLW 041100Z 0412/0512 20013KT 9999 BKN030"
    },
    {
      "icao": "EDNY",
      "alert": "OK",
      "vis_m": 9999,
      "fzfg": false,
      "metar_trigger": false,
      "taf_trigger": false,
      "metar": "METAR EDNY 041320Z 27004KT 210V350 9999 FEW040 22/12 Q1009",
      "taf": "TAF EDNY 041100Z 0412/0421 24007KT 9999 SCT040"
    },
    {
      "icao": "EDSB",
      "alert": "OK",
      "vis_m": 9999,
      "fzfg": false,
      "metar_trigger": false,
      "taf_trigger": false,
      "metar": "METAR EDSB 041320Z 21013KT 9999 -SHRA SCT048TCU BKN074 20/11 Q1007",
      "taf": "TAF EDSB 041100Z 0412/0512 21012KT 9999 SCT035"
    },
    {
      "icao": "EETN",
      "alert": "OK",
      "vis_m": 9999,
      "fzfg": false,
      "metar_trigger": false,
      "taf_trigger": false,
      "metar": "METAR EETN 041320Z 17012KT CAVOK 26/08 Q1011 NOSIG",
      "taf": "TAF EETN 041130Z 0412/0512 16010KT CAVOK"
    },
    {
      "icao": "EFTU",
      "alert": "OK",
      "vis_m": 9999,
      "fzfg": false,
      "metar_trigger": false,
      "taf_trigger": false,
      "metar": "METAR EFTU 041320Z AUTO 16019KT 120V200 CAVOK 23/06 Q1010",
      "taf": "TAF EFTU 041123Z 0412/0512 18015KT CAVOK"
    },
    {
      "icao": "EGBB",
      "alert": "OK",
      "vis_m": 9999,
      "fzfg": false,
      "metar_trigger": false,
      "taf_trigger": false,
      "metar": "METAR EGBB 041320Z 27013KT 230V300 9999 SCT038 BKN045 17/08 Q0996",
      "taf": "TAF EGBB 041055Z 0412/0512 26012KT 9999 FEW015 SCT030"
    },
    {
      "icao": "EGGP",
      "alert": "OK",
      "vis_m": 9999,
      "fzfg": false,
      "metar_trigger": false,
      "taf_trigger": false,
      "metar": "METAR EGGP 041320Z 26021KT 9999 VCSH FEW025 SCT031CB 16/10 Q0994",
      "taf": "TAF EGGP 041102Z 0412/0512 27018KT 9999 SCT025"
    },
    {
      "icao": "EGGW",
      "alert": "OK",
      "vis_m": 9999,
      "fzfg": false,
      "metar_trigger": false,
      "taf_trigger": false,
      "metar": "METAR EGGW 041320Z AUTO 24017KT 9999 BKN029/// BKN043/// //////TCU 17/10 Q0996",
      "taf": "TAF EGGW 041101Z 0412/0512 26018G28KT 9999 SCT020"
    },
    {
      "icao": "EGKK",
      "alert": "OK",
      "vis_m": 9999,
      "fzfg": false,
      "metar_trigger": false,
      "taf_trigger": false,
      "metar": "METAR EGKK 041320Z 24007KT 9999 4000NW -SHRA FEW020CB SCT025 BKN036 15/12 Q0999 RESHRA",
      "taf": "TAF EGKK 041059Z 0412/0518 23014KT 9999 SCT025"
    },
    {
      "icao": "EGNM",
      "alert": "OK",
      "vis_m": 9999,
      "fzfg": false,
      "metar_trigger": false,
      "taf_trigger": false,
      "metar": "METAR EGNM 041320Z 26021G36KT 9999 -SHRA SCT015 BKN022 13/10 Q0992",
      "taf": "TAF EGNM 041101Z 0412/0512 25013KT 9999 FEW015 SCT025"
    },
    {
      "icao": "EGPD",
      "alert": "OK",
      "vis_m": 9999,
      "fzfg": false,
      "metar_trigger": false,
      "taf_trigger": false,
      "metar": "METAR EGPD 041320Z 16007KT 9999 -SHRA FEW015CB BKN026 14/12 Q0984 TEMPO 3000 +SHRA BKN014",
      "taf": "TAF EGPD 041054Z 0412/0512 14005KT 9999 FEW020 SCT030"
    },
    {
      "icao": "EGPF",
      "alert": "OK",
      "vis_m": 9999,
      "fzfg": false,
      "metar_trigger": false,
      "taf_trigger": false,
      "metar": "METAR EGPF 041320Z AUTO 26018KT 9999 BKN016 14/11 Q0988",
      "taf": "TAF EGPF 041104Z 0412/0512 27012KT 9999 BKN025"
    },
    {
      "icao": "EHBK",
      "alert": "OK",
      "vis_m": 9999,
      "fzfg": false,
      "metar_trigger": false,
      "taf_trigger": false,
      "metar": "METAR EHBK 041325Z AUTO 21013KT 170V240 9999 TS FEW015CB 15/12 Q1002 BECMG NSW SCT025",
      "taf": "TAF EHBK 041117Z 0412/0518 21015G25KT 9999 BKN025"
    },
    {
      "icao": "EHEH",
      "alert": "OK",
      "vis_m": 9999,
      "fzfg": false,
      "metar_trigger": false,
      "taf_trigger": false,
      "metar": "METAR EHEH 041325Z AUTO 21009KT 190V270 9999 FEW023 OVC100 17/13 Q1000 BLU TEMPO 23012G25KT FEW020CB",
      "taf": "TAF EHEH 041137Z 0412/0518 21012KT 9999 BKN040"
    },
    {
      "icao": "EKBI",
      "alert": "OK",
      "vis_m": 9999,
      "fzfg": false,
      "metar_trigger": false,
      "taf_trigger": false,
      "metar": "METAR EKBI 041321Z 19007KT 160V220 9999 FEW022TCU BKN025 BKN070 16/12 Q0998",
      "taf": "TAF EKBI 041127Z 0412/0512 21012KT 9999 SCT025"
    },
    {
      "icao": "EKCH",
      "alert": "OK",
      "vis_m": 9999,
      "fzfg": false,
      "metar_trigger": false,
      "taf_trigger": false,
      "metar": "METAR EKCH 041320Z AUTO 17012KT 9999 NCD 18/14 Q1002 TEMPO FEW020CB",
      "taf": ""
    },
    {
      "icao": "ENAL",
      "alert": "OK",
      "vis_m": 9999,
      "fzfg": false,
      "metar_trigger": false,
      "taf_trigger": false,
      "metar": "METAR ENAL 041320Z 28004KT 250V320 9999 FEW042 SCT057 20/10 Q0991",
      "taf": "TAF ENAL 041100Z 0412/0421 VRB07KT 9999 FEW050"
    },
    {
      "icao": "ENBR",
      "alert": "OK",
      "vis_m": 9999,
      "fzfg": false,
      "metar_trigger": false,
      "taf_trigger": false,
      "metar": "METAR ENBR 041320Z 14012KT 9999 VCSH SCT025CB BKN041 14/10 Q0992 TEMPO 3000 SHRA SCT007 BKN015CB RMK WIND 1200FT 14015KT",
      "taf": ""
    },
    {
      "icao": "ENGM",
      "alert": "OK",
      "vis_m": 9999,
      "fzfg": false,
      "metar_trigger": false,
      "taf_trigger": false,
      "metar": "METAR ENGM 041320Z 17011KT 9999 SHRA FEW013CB SCT026 BKN030 14/12 Q0999 TEMPO 3000 TSRA BKN014",
      "taf": "TAF ENGM 041100Z 0412/0512 15008KT 9999 -SHRA BKN015"
    },
    {
      "icao": "ENHD",
      "alert": "OK",
      "vis_m": 9999,
      "fzfg": false,
      "metar_trigger": false,
      "taf_trigger": false,
      "metar": "METAR ENHD 041320Z 17018KT 140V200 9999 SCT014 BKN017 16/11 Q0992",
      "taf": "TAF ENHD 041100Z 0412/0421 16015KT 9999 -SHRA FEW015 BKN025"
    },
    {
      "icao": "ENTC",
      "alert": "OK",
      "vis_m": 9999,
      "fzfg": false,
      "metar_trigger": false,
      "taf_trigger": false,
      "metar": "METAR ENTC 041320Z 01010KT CAVOK 22/11 Q1003 NOSIG RMK WIND 2600FT 15010KT",
      "taf": ""
    },
    {
      "icao": "ENTO",
      "alert": "OK",
      "vis_m": 9999,
      "fzfg": false,
      "metar_trigger": false,
      "taf_trigger": false,
      "metar": "METAR ENTO 041320Z 17015KT 9999 -SHRA VV006 15/15 Q0998 RERA TEMPO 4000 SHRA BKN003 SCT020CB",
      "taf": "TAF ENTO 041100Z 0412/0512 18010KT 3000 BR BKN004"
    },
    {
      "icao": "ENVA",
      "alert": "OK",
      "vis_m": 9999,
      "fzfg": false,
      "metar_trigger": false,
      "taf_trigger": false,
      "metar": "METAR ENVA 041320Z 15010KT 110V180 CAVOK 22/10 Q0997 TEMPO16015G25KT RMK WIND 670FT 16026KT",
      "taf": "TAF ENVA 041100Z 0412/0512 14012KT 9999 FEW050"
    },
    {
      "icao": "ENZV",
      "alert": "OK",
      "vis_m": 9999,
      "fzfg": false,
      "metar_trigger": false,
      "taf_trigger": false,
      "metar": "METAR ENZV 041320Z 17017KT 9999 SCT020CB BKN031 16/11 Q0993 TEMPO 17018G28KT",
      "taf": "TAF ENZV 041100Z 0412/0512 16012KT 9999 SCT018 BKN025"
    },
    {
      "icao": "EPGD",
      "alert": "OK",
      "vis_m": 9999,
      "fzfg": false,
      "metar_trigger": false,
      "taf_trigger": false,
      "metar": "METAR EPGD 041330Z 17012KT 140V210 CAVOK 24/10 Q1006",
      "taf": "TAF EPGD 041130Z 0412/0512 20010KT 9999 SCT045"
    },
    {
      "icao": "EPKK",
      "alert": "OK",
      "vis_m": 9999,
      "fzfg": false,
      "metar_trigger": false,
      "taf_trigger": false,
      "metar": "METAR EPKK 041330Z 20004KT 100V220 9999 BKN018 18/13 Q1011",
      "taf": "TAF EPKK 041130Z 0412/0512 VRB02KT 9999 BKN026"
    },
    {
      "icao": "EPKT",
      "alert": "OK",
      "vis_m": 9999,
      "fzfg": false,
      "metar_trigger": false,
      "taf_trigger": false,
      "metar": "METAR EPKT 041330Z 15006KT 110V220 9999 FEW031 20/12 Q1010",
      "taf": "TAF EPKT 041130Z 0412/0512 18006KT 9999 SCT030"
    },
    {
      "icao": "EPLB",
      "alert": "OK",
      "vis_m": 9999,
      "fzfg": false,
      "metar_trigger": false,
      "taf_trigger": false,
      "metar": "METAR EPLB 041330Z 24006KT 9999 FEW015 BKN017 OVC023 20/17 Q1011",
      "taf": "TAF EPLB 041130Z 0412/0512 11004KT 9999 BKN010"
    },
    {
      "icao": "EPMO",
      "alert": "OK",
      "vis_m": 9999,
      "fzfg": false,
      "metar_trigger": false,
      "taf_trigger": false,
      "metar": "METAR EPMO 041330Z 16005KT 080V220 9999 FEW020 20/14 Q1010",
      "taf": "TAF EPMO 041130Z 0412/0512 22005KT 9999 BKN040"
    },
    {
      "icao": "EPPO",
      "alert": "OK",
      "vis_m": 9999,
      "fzfg": false,
      "metar_trigger": false,
      "taf_trigger": false,
      "metar": "METAR EPPO 041330Z 18010KT CAVOK 24/10 Q1007",
      "taf": "TAF EPPO 041130Z 0412/0512 20010KT 9999 SCT048"
    },
    {
      "icao": "EPRA",
      "alert": "OK",
      "vis_m": 9999,
      "fzfg": false,
      "metar_trigger": false,
      "taf_trigger": false,
      "metar": "METAR EPRA 041330Z VRB01KT 9999 BKN016 17/13 Q1011",
      "taf": "TAF EPRA 041130Z 0412/0421 28005KT 9999 BKN014"
    },
    {
      "icao": "EPRZ",
      "alert": "OK",
      "vis_m": 9999,
      "fzfg": false,
      "metar_trigger": false,
      "taf_trigger": false,
      "metar": "METAR EPRZ 041330Z 27003KT 250V310 9999 BKN025 22/15 Q1011",
      "taf": "TAF EPRZ 041130Z 0412/0512 VRB02KT 9999 BKN026"
    },
    {
      "icao": "EPSC",
      "alert": "OK",
      "vis_m": 9999,
      "fzfg": false,
      "metar_trigger": false,
      "taf_trigger": false,
      "metar": "METAR EPSC 041330Z 18010KT 140V210 9999 FEW041 23/13 Q1004",
      "taf": "TAF EPSC 041130Z 0412/0512 19013KT 9999 BKN045"
    },
    {
      "icao": "EPSY",
      "alert": "OK",
      "vis_m": 9999,
      "fzfg": false,
      "metar_trigger": false,
      "taf_trigger": false,
      "metar": "METAR EPSY 041330Z 17005KT 130V220 9999 SCT034 17/14 Q1010",
      "taf": ""
    },
    {
      "icao": "EPWA",
      "alert": "OK",
      "vis_m": 9999,
      "fzfg": false,
      "metar_trigger": false,
      "taf_trigger": false,
      "metar": "METAR EPWA 041330Z 13003KT 060V190 9999 SCT035 18/14 Q1010 NOSIG",
      "taf": ""
    },
    {
      "icao": "EPWR",
      "alert": "OK",
      "vis_m": 9999,
      "fzfg": false,
      "metar_trigger": false,
      "taf_trigger": false,
      "metar": "METAR EPWR 041330Z 19009KT 150V220 CAVOK 25/10 Q1007",
      "taf": "TAF EPWR 041130Z 0412/0512 19010KT CAVOK"
    },
    {
      "icao": "ESGG",
      "alert": "OK",
      "vis_m": 9999,
      "fzfg": false,
      "metar_trigger": false,
      "taf_trigger": false,
      "metar": "METAR ESGG 041320Z 18012KT 9999 BKN021CB 17/12 Q1000",
      "taf": "TAF ESGG 041130Z 0412/0512 18015KT 9999 BKN020"
    },
    {
      "icao": "ESKN",
      "alert": "OK",
      "vis_m": 4100,
      "fzfg": false,
      "metar_trigger": false,
      "taf_trigger": false,
      "metar": "METAR ESKN 041320Z 14008KT 4100 DZ SCT003 BKN005 14/14 Q1005",
      "taf": "TAF ESKN 041130Z 0412/0512 14010KT 9999 -RA BKN030"
    },
    {
      "icao": "ESMS",
      "alert": "OK",
      "vis_m": 9999,
      "fzfg": false,
      "metar_trigger": false,
      "taf_trigger": false,
      "metar": "METAR ESMS 041320Z 18010KT 9999 FEW024 19/15 Q1002",
      "taf": "TAF ESMS 041127Z 0412/0512 17012KT 9999 SCT025"
    },
    {
      "icao": "ESSA",
      "alert": "OK",
      "vis_m": 9999,
      "fzfg": false,
      "metar_trigger": false,
      "taf_trigger": false,
      "metar": "METAR ESSA 041320Z 14011KT 9999 -RA FEW020 BKN068 16/12 Q1006 NOSIG",
      "taf": ""
    },
    {
      "icao": "EYKA",
      "alert": "OK",
      "vis_m": 9999,
      "fzfg": false,
      "metar_trigger": false,
      "taf_trigger": false,
      "metar": "METAR EYKA 041320Z 15012KT 110V170 CAVOK 21/12 Q1011",
      "taf": "TAF EYKA 041113Z 0412/0512 15010KT 9000 SCT045"
    },
    {
      "icao": "EYPA",
      "alert": "OK",
      "vis_m": 9999,
      "fzfg": false,
      "metar_trigger": false,
      "taf_trigger": false,
      "metar": "METAR EYPA 041320Z 19014KT 9999 FEW035 OVC044 18/14 Q1009",
      "taf": "TAF EYPA 041114Z 0412/0512 16010KT 7000 SCT005 BKN015"
    },
    {
      "icao": "EYVI",
      "alert": "OK",
      "vis_m": 9999,
      "fzfg": false,
      "metar_trigger": false,
      "taf_trigger": false,
      "metar": "METAR EYVI 041320Z 14012KT 100V170 CAVOK 20/12 Q1013 NOSIG",
      "taf": "TAF EYVI 041100Z 0412/0512 14010KT 9000 BKN040"
    },
    {
      "icao": "GCFV",
      "alert": "OK",
      "vis_m": 9999,
      "fzfg": false,
      "metar_trigger": false,
      "taf_trigger": false,
      "metar": "METAR GCFV 041330Z 02018KT 340V050 9999 FEW025 28/16 Q1018",
      "taf": "TAF GCFV 040800Z 0409/0509 03016KT 9999 SCT025 TX26/0414Z TN19/0506Z"
    },
    {
      "icao": "GCLP",
      "alert": "OK",
      "vis_m": 9999,
      "fzfg": false,
      "metar_trigger": false,
      "taf_trigger": false,
      "metar": "METAR GCLP 041330Z 01027KT 9999 FEW020 26/16 Q1019 NOSIG",
      "taf": "TAF GCLP 040800Z 0409/0509 36025KT 9999 SCT025 TX26/0414Z TN18/0506Z"
    },
    {
      "icao": "GCTS",
      "alert": "OK",
      "vis_m": 9999,
      "fzfg": false,
      "metar_trigger": false,
      "taf_trigger": false,
      "metar": "METAR GCTS 041330Z 08021KT 020V100 9999 FEW030 28/17 Q1019 WS R07 NOSIG",
      "taf": "TAF GCTS 040800Z 0409/0509 09015KT 9999 FEW020 TX28/0414Z TN18/0506Z"
    },
    {
      "icao": "GMAD",
      "alert": "OK",
      "vis_m": 6000,
      "fzfg": false,
      "metar_trigger": false,
      "taf_trigger": false,
      "metar": "METAR GMAD 041330Z 24009KT 210V270 6000 BKN016 24/17 Q1012 NOSIG",
      "taf": "TAF GMAD 041100Z 0412/0518 26010KT 8000 SCT016"
    },
    {
      "icao": "GMMN",
      "alert": "OK",
      "vis_m": 9999,
      "fzfg": false,
      "metar_trigger": false,
      "taf_trigger": false,
      "metar": "METAR GMMN 041330Z 35014KT 310V030 9999 SCT020 26/19 Q1016 NOSIG",
      "taf": "TAF GMMN 041100Z 0412/0518 36013KT 9999 SCT020"
    },
    {
      "icao": "GMMX",
      "alert": "OK",
      "vis_m": 9999,
      "fzfg": false,
      "metar_trigger": false,
      "taf_trigger": false,
      "metar": "METAR GMMX 041330Z 06009KT 020V110 CAVOK 34/11 Q1015 NOSIG",
      "taf": "TAF GMMX 041100Z 0412/0518 36006KT CAVOK"
    },
    {
      "icao": "HEGN",
      "alert": "OK",
      "vis_m": 9999,
      "fzfg": false,
      "metar_trigger": false,
      "taf_trigger": false,
      "metar": "METAR HEGN 041300Z 01012KT CAVOK 39/03 Q1009 NOSIG",
      "taf": "TAF HEGN 041100Z 0412/0518 35015KT CAVOK"
    },
    {
      "icao": "HEMA",
      "alert": "OK",
      "vis_m": 9999,
      "fzfg": false,
      "metar_trigger": false,
      "taf_trigger": false,
      "metar": "METAR HEMA 041300Z 34015KT CAVOK 35/10 Q1010 NOSIG",
      "taf": "TAF HEMA 041100Z 0412/0518 01010G20KT CAVOK"
    },
    {
      "icao": "HESH",
      "alert": "OK",
      "vis_m": 9999,
      "fzfg": false,
      "metar_trigger": false,
      "taf_trigger": false,
      "metar": "METAR HESH 041300Z 06007KT CAVOK 38/10 Q1009 NOSIG",
      "taf": "TAF HESH 041100Z 0412/0518 12015KT CAVOK"
    },
    {
      "icao": "HESX",
      "alert": "OK",
      "vis_m": 9999,
      "fzfg": false,
      "metar_trigger": false,
      "taf_trigger": false,
      "metar": "METAR HESX 041300Z 05007KT CAVOK 35/10 Q1012 NOSIG",
      "taf": "TAF HESX 041100Z 0412/0518 33010KT CAVOK"
    },
    {
      "icao": "LATI",
      "alert": "OK",
      "vis_m": 9999,
      "fzfg": false,
      "metar_trigger": false,
      "taf_trigger": false,
      "metar": "METAR LATI 041320Z 29009KT 240V340 9999 SCT028 SCT070 24/16 Q1012 NOSIG",
      "taf": "TAF LATI 041100Z 0412/0512 32012KT 9999 SCT040 TX28/0512Z TN15/0504Z"
    },
    {
      "icao": "LBPD",
      "alert": "OK",
      "vis_m": 9999,
      "fzfg": false,
      "metar_trigger": false,
      "taf_trigger": false,
      "metar": "METAR LBPD 041330Z AUTO 13009KT 9999 -SHRA FEW033/// SCT053/// OVC110/// 22/19 Q1010 TEMPO SHRA FEW030TCU",
      "taf": "TAF LBPD 041100Z 0412/0512 30010KT 9999 BKN050"
    },
    {
      "icao": "LBSF",
      "alert": "OK",
      "vis_m": 9999,
      "fzfg": false,
      "metar_trigger": false,
      "taf_trigger": false,
      "metar": "METAR LBSF 041330Z 04005KT 350V120 9999 FEW030 SCT060 20/14 Q1012 NOSIG",
      "taf": "TAF LBSF 041100Z 0412/0512 30010KT 9999 BKN050"
    },
    {
      "icao": "LBWN",
      "alert": "OK",
      "vis_m": 9999,
      "fzfg": false,
      "metar_trigger": false,
      "taf_trigger": false,
      "metar": "METAR LBWN 041330Z 12011KT 9999 FEW030TCU SCT044 21/21 Q1009 TEMPO 4000 TSRA FEW030CB",
      "taf": "TAF LBWN 041100Z 0412/0512 12010KT 9999 SCT040"
    },
    {
      "icao": "LCLK",
      "alert": "OK",
      "vis_m": 9999,
      "fzfg": false,
      "metar_trigger": false,
      "taf_trigger": false,
      "metar": "METAR LCLK 041330Z 20014KT 9999 FEW035 28/19 Q1012 NOSIG",
      "taf": "TAF LCLK 041130Z 0412/0512 20016KT 9999 FEW025"
    },
    {
      "icao": "LCPH",
      "alert": "OK",
      "vis_m": 9999,
      "fzfg": false,
      "metar_trigger": false,
      "taf_trigger": false,
      "metar": "METAR LCPH 041330Z AUTO 31012KT 260V320 9999 NCD 26/20 Q1014 NOSIG",
      "taf": "TAF LCPH 041130Z 0412/0512 29015KT 9999 FEW020"
    },
    {
      "icao": "LEAL",
      "alert": "OK",
      "vis_m": 9999,
      "fzfg": false,
      "metar_trigger": false,
      "taf_trigger": false,
      "metar": "METAR LEAL 041330Z 16010KT 110V230 CAVOK 28/20 Q1010 NOSIG",
      "taf": "TAF LEAL 041100Z 0412/0512 18010KT CAVOK TX29/0412Z TN20/0506Z"
    },
    {
      "icao": "LEBB",
      "alert": "OK",
      "vis_m": 9999,
      "fzfg": false,
      "metar_trigger": false,
      "taf_trigger": false,
      "metar": "METAR LEBB 041330Z 30007KT 9999 -RA FEW013 SCT028 BKN044 17/14 Q1017 TEMPO 3000 RA",
      "taf": "TAF LEBB 041100Z 0412/0512 29009KT 9999 FEW010 BKN030 TX19/0512Z TN13/0506Z"
    },
    {
      "icao": "LEBL",
      "alert": "OK",
      "vis_m": 9999,
      "fzfg": false,
      "metar_trigger": false,
      "taf_trigger": false,
      "metar": "METAR LEBL 041330Z 20011KT 170V230 9999 SCT015 BKN023 23/21 Q1011 NOSIG",
      "taf": "TAF LEBL 041100Z 0412/0512 21010KT 9999 BKN020 TX25/0412Z TN18/0506Z"
    },
    {
      "icao": "LECH",
      "alert": "OK",
      "vis_m": 9999,
      "fzfg": false,
      "metar_trigger": false,
      "taf_trigger": false,
      "metar": "METAR LECH 041330Z AUTO 09010KT 060V130 CAVOK 25/18 Q1010",
      "taf": "TAF LECH 041100Z 0412/0512 10007KT 9999 FEW040 TX30/0413Z TN14/0506Z"
    },
    {
      "icao": "LEMD",
      "alert": "OK",
      "vis_m": 9999,
      "fzfg": false,
      "metar_trigger": false,
      "taf_trigger": false,
      "metar": "METAR LEMD 041330Z 25015G26KT 220V300 CAVOK 29/04 Q1012 NOSIG",
      "taf": "TAF LEMD 041100Z 0412/0518 24010KT CAVOK TX30/0414Z TN10/0505Z"
    },
    {
      "icao": "LEMG",
      "alert": "OK",
      "vis_m": 9999,
      "fzfg": false,
      "metar_trigger": false,
      "taf_trigger": false,
      "metar": "METAR LEMG 041330Z 10012KT 070V140 9999 FEW020 27/18 Q1012 NOSIG",
      "taf": "TAF LEMG 041100Z 0412/0512 14010KT CAVOK TX27/0414Z TN19/0506Z"
    },
    {
      "icao": "LEVC",
      "alert": "OK",
      "vis_m": 9999,
      "fzfg": false,
      "metar_trigger": false,
      "taf_trigger": false,
      "metar": "METAR LEVC 041330Z COR 11012KT 070V140 9999 FEW030 31/18 Q1007 WS ALL RWY NOSIG",
      "taf": "TAF LEVC 041100Z 0412/0512 25007KT CAVOK TX37/0412Z TN19/0506Z"
    },
    {
      "icao": "LEXJ",
      "alert": "OK",
      "vis_m": 9999,
      "fzfg": false,
      "metar_trigger": false,
      "taf_trigger": false,
      "metar": "METAR LEXJ 041330Z 31015KT 9999 SCT036 BKN042 BKN050 17/12 Q1017",
      "taf": "TAF LEXJ 040800Z 0409/0509 28009KT 9000 FEW020 BKN040 TX18/0414Z TN12/0505Z"
    },
    {
      "icao": "LEZG",
      "alert": "OK",
      "vis_m": 9999,
      "fzfg": false,
      "metar_trigger": false,
      "taf_trigger": false,
      "metar": "METAR LEZG 041330Z 34020G30KT 310V010 9999 FEW055 26/12 Q1012 NOSIG",
      "taf": "TAF LEZG 041100Z 0412/0512 32014KT CAVOK TX29/0415Z TN13/0506Z"
    },
    {
      "icao": "LEZL",
      "alert": "OK",
      "vis_m": 9999,
      "fzfg": false,
      "metar_trigger": false,
      "taf_trigger": false,
      "metar": "METAR LEZL 041330Z 28007KT 210V330 CAVOK 32/10 Q1013 NOSIG",
      "taf": "TAF LEZL 040800Z 0409/0509 29009KT CAVOK TX35/0415Z TN17/0506Z"
    },
    {
      "icao": "LFBD",
      "alert": "OK",
      "vis_m": 9999,
      "fzfg": false,
      "metar_trigger": false,
      "taf_trigger": false,
      "metar": "METAR LFBD 041330Z AUTO 26012KT 230V300 9999 FEW023 SCT072 BKN082 19/14 Q1014 TEMPO 29015G25KT 3000 SHRA BKN025TCU",
      "taf": "TAF LFBD 041100Z 0412/0518 28010KT 9999 BKN030 TX21/0515Z TN12/0505Z"
    },
    {
      "icao": "LFLL",
      "alert": "OK",
      "vis_m": 9000,
      "fzfg": false,
      "metar_trigger": false,
      "taf_trigger": false,
      "metar": "METAR LFLL 041330Z 15005KT 120V180 9000 -RA FEW008 BKN033 OVC080 15/13 Q1014 NOSIG",
      "taf": "TAF LFLL 041100Z 0412/0518 VRB04KT 9999 -RA FEW025 SCT040"
    },
    {
      "icao": "LFLS",
      "alert": "OK",
      "vis_m": 9000,
      "fzfg": false,
      "metar_trigger": false,
      "taf_trigger": false,
      "metar": "METAR LFLS 041330Z AUTO 12008KT 9000 RA FEW010/// OVC058/// ///TCU 14/13 Q1014 TEMPO 2000 RA BKN008 OVC020",
      "taf": ""
    },
    {
      "icao": "LFMN",
      "alert": "OK",
      "vis_m": 9999,
      "fzfg": false,
      "metar_trigger": false,
      "taf_trigger": false,
      "metar": "METAR LFMN 041330Z 12008KT CAVOK 23/17 Q1011 NOSIG",
      "taf": "TAF LFMN 040800Z 0409/0515 09010KT CAVOK"
    },
    {
      "icao": "LFOB",
      "alert": "OK",
      "vis_m": 9999,
      "fzfg": false,
      "metar_trigger": false,
      "taf_trigger": false,
      "metar": "METAR LFOB 041330Z AUTO 25008KT 9999 ///CB 15/11 Q1004 TEMPO 24020G30KT 4000 SHRA BKN012 BKN016TCU BKN025",
      "taf": "TAF LFOB 041100Z 0412/0512 20012KT 9999 BKN020"
    },
    {
      "icao": "LFPO",
      "alert": "OK",
      "vis_m": 9999,
      "fzfg": false,
      "metar_trigger": false,
      "taf_trigger": false,
      "metar": "METAR LFPO 041330Z 24017KT 9999 FEW033CB 22/08 Q1005 TEMPO 4000 SHRA SCT030CB",
      "taf": "TAF LFPO 041100Z 0412/0518 22012G22KT 9999 SCT030"
    },
    {
      "icao": "LFSB",
      "alert": "OK",
      "vis_m": 9999,
      "fzfg": false,
      "metar_trigger": false,
      "taf_trigger": false,
      "metar": "METAR LFSB 041330Z AUTO 24009KT 210V270 9999 RA FEW052/// BKN068/// OVC086/// ///TCU 14/11 Q1012 TEMPO 26015G30KT 4000 RA FEW035CB",
      "taf": "TAF LFSB 041100Z 0412/0512 26010KT 9999 SCT040 BKN090"
    },
    {
      "icao": "LGAV",
      "alert": "OK",
      "vis_m": 9999,
      "fzfg": false,
      "metar_trigger": false,
      "taf_trigger": false,
      "metar": "METAR LGAV 041320Z 21010KT 9999 FEW020 30/10 Q1010 NOSIG",
      "taf": "TAF LGAV 041100Z 0412/0512 20014KT 9999 SCT020 SCT060"
    },
    {
      "icao": "LGTS",
      "alert": "OK",
      "vis_m": 9999,
      "fzfg": false,
      "metar_trigger": false,
      "taf_trigger": false,
      "metar": "METAR LGTS 041320Z 03005KT 9999 -RA VCTS FEW018CB FEW020TCU SCT030 20/19 Q1011 NOSIG",
      "taf": "TAF LGTS 041100Z 0412/0512 VRB03KT 9999 SCT030"
    },
    {
      "icao": "LHBP",
      "alert": "OK",
      "vis_m": 9999,
      "fzfg": false,
      "metar_trigger": false,
      "taf_trigger": false,
      "metar": "METAR LHBP 041330Z 27005KT 230V320 9999 FEW036 BKN065 23/15 Q1010 NOSIG",
      "taf": "TAF LHBP 041115Z 0412/0512 32007KT 9999 SCT025 BKN050"
    },
    {
      "icao": "LHDC",
      "alert": "OK",
      "vis_m": 9999,
      "fzfg": false,
      "metar_trigger": false,
      "taf_trigger": false,
      "metar": "METAR LHDC 041315Z AUTO 22010KT 160V260 9999 FEW042 26/15 Q1009 NOSIG",
      "taf": "TAF LHDC 041115Z 0412/0421 21009KT 9999 SCT035"
    },
    {
      "icao": "LIBD",
      "alert": "OK",
      "vis_m": 9999,
      "fzfg": false,
      "metar_trigger": false,
      "taf_trigger": false,
      "metar": "METAR LIBD 041320Z 01010KT 330V050 CAVOK 22/17 Q1012",
      "taf": "TAF LIBD 041100Z 0412/0512 34013KT 9999 SCT020"
    },
    {
      "icao": "LIBG",
      "alert": "OK",
      "vis_m": 9999,
      "fzfg": false,
      "metar_trigger": false,
      "taf_trigger": false,
      "metar": "METAR LIBG 041320Z AUTO 36011KT 9999 NCD 27/11 Q1011",
      "taf": "TAF LIBG 041100Z 0412/0512 34012KT 9999 FEW050"
    },
    {
      "icao": "LIBP",
      "alert": "OK",
      "vis_m": 9999,
      "fzfg": false,
      "metar_trigger": false,
      "taf_trigger": false,
      "metar": "METAR LIBP 041320Z AUTO 09011KT 050V110 9999 NCD 25/13 Q1012",
      "taf": "TAF LIBP 041100Z 0412/0512 09010KT CAVOK"
    },
    {
      "icao": "LIBR",
      "alert": "OK",
      "vis_m": 9999,
      "fzfg": false,
      "metar_trigger": false,
      "taf_trigger": false,
      "metar": "METAR LIBR 041320Z 36013KT 330V030 9999 FEW020 23/17 Q1012",
      "taf": "TAF LIBR 041100Z 0412/0512 35014KT 9999 SCT030"
    },
    {
      "icao": "LICA",
      "alert": "OK",
      "vis_m": 9999,
      "fzfg": false,
      "metar_trigger": false,
      "taf_trigger": false,
      "metar": "METAR LICA 041320Z AUTO 23012KT 9999 NCD 25/18 Q1013",
      "taf": "TAF LICA 041100Z 0412/0512 27012KT 9999 FEW020"
    },
    {
      "icao": "LICC",
      "alert": "OK",
      "vis_m": 9999,
      "fzfg": false,
      "metar_trigger": false,
      "taf_trigger": false,
      "metar": "METAR LICC 041320Z 08014KT CAVOK 26/16 Q1012",
      "taf": "TAF LICC 041100Z 0412/0512 10012KT CAVOK"
    },
    {
      "icao": "LICJ",
      "alert": "OK",
      "vis_m": 9999,
      "fzfg": false,
      "metar_trigger": false,
      "taf_trigger": false,
      "metar": "METAR LICJ 041320Z 04016KT CAVOK 25/20 Q1012",
      "taf": "TAF LICJ 041100Z 0412/0512 02013KT CAVOK"
    },
    {
      "icao": "LIMC",
      "alert": "OK",
      "vis_m": 9999,
      "fzfg": false,
      "metar_trigger": false,
      "taf_trigger": false,
      "metar": "METAR LIMC 041320Z 28004KT 250V320 9999 SCT055 BKN070 23/15 Q1011 NOSIG",
      "taf": "TAF LIMC 041100Z 0412/0518 15008KT 9999 SCT030"
    },
    {
      "icao": "LIME",
      "alert": "OK",
      "vis_m": 9999,
      "fzfg": false,
      "metar_trigger": false,
      "taf_trigger": false,
      "metar": "METAR LIME 041320Z 12007KT 080V170 9999 SCT050 24/14 Q1011 NOSIG",
      "taf": "TAF LIME 041100Z 0412/0512 12008KT 9999 SCT030"
    },
    {
      "icao": "LIMF",
      "alert": "OK",
      "vis_m": 9999,
      "fzfg": false,
      "metar_trigger": false,
      "taf_trigger": false,
      "metar": "METAR LIMF 041320Z 05007KT 9999 FEW030 BKN070 23/12 Q1011",
      "taf": "TAF LIMF 041100Z 0412/0512 VRB05KT 9999 SCT030"
    },
    {
      "icao": "LIMJ",
      "alert": "OK",
      "vis_m": 9999,
      "fzfg": false,
      "metar_trigger": false,
      "taf_trigger": false,
      "metar": "METAR LIMJ 041320Z 15006KT 9999 FEW022 SCT035 22/17 Q1011",
      "taf": "TAF LIMJ 041100Z 0412/0512 15015KT 9999 SCT020"
    },
    {
      "icao": "LIPE",
      "alert": "OK",
      "vis_m": 9999,
      "fzfg": false,
      "metar_trigger": false,
      "taf_trigger": false,
      "metar": "METAR LIPE 041320Z 08010KT 050V110 9999 BKN055 27/16 Q1009",
      "taf": "TAF LIPE 041100Z 0412/0512 10010KT CAVOK"
    },
    {
      "icao": "LIPH",
      "alert": "OK",
      "vis_m": 9999,
      "fzfg": false,
      "metar_trigger": false,
      "taf_trigger": false,
      "metar": "METAR LIPH 041320Z 15006KT 120V200 9999 FEW040 25/13 Q1011",
      "taf": "TAF LIPH 041100Z 0412/0512 16010KT 9999 FEW020"
    },
    {
      "icao": "LIPQ",
      "alert": "OK",
      "vis_m": 9999,
      "fzfg": false,
      "metar_trigger": false,
      "taf_trigger": false,
      "metar": "METAR LIPQ 041320Z AUTO 26005KT 220V300 9999 NCD 25/09 Q1011",
      "taf": "TAF LIPQ 041100Z 0412/0512 21010KT 9999 SCT060"
    },
    {
      "icao": "LIPR",
      "alert": "OK",
      "vis_m": 9999,
      "fzfg": false,
      "metar_trigger": false,
      "taf_trigger": false,
      "metar": "METAR LIPR 041320Z 11014KT 9999 FEW040 23/17 Q1010",
      "taf": "TAF LIPR 041100Z 0412/0512 10013KT CAVOK"
    },
    {
      "icao": "LIPX",
      "alert": "OK",
      "vis_m": 9999,
      "fzfg": false,
      "metar_trigger": false,
      "taf_trigger": false,
      "metar": "METAR LIPX 041320Z 09008KT 070V150 9999 FEW040 25/14 Q1010",
      "taf": "TAF LIPX 041100Z 0412/0512 12008KT 9999 SCT030"
    },
    {
      "icao": "LIPY",
      "alert": "OK",
      "vis_m": 9999,
      "fzfg": false,
      "metar_trigger": false,
      "taf_trigger": false,
      "metar": "METAR LIPY 041320Z AUTO 11006KT 060V180 9999 NCD 27/14 Q1011",
      "taf": "TAF LIPY 041100Z 0412/0512 13012KT CAVOK"
    },
    {
      "icao": "LIPZ",
      "alert": "OK",
      "vis_m": 9999,
      "fzfg": false,
      "metar_trigger": false,
      "taf_trigger": false,
      "metar": "METAR LIPZ 041320Z 15004KT 100V220 CAVOK 23/13 Q1011 NOSIG",
      "taf": "TAF LIPZ 041100Z 0412/0518 15010KT 9999 FEW030"
    },
    {
      "icao": "LIRF",
      "alert": "OK",
      "vis_m": 9999,
      "fzfg": false,
      "metar_trigger": false,
      "taf_trigger": false,
      "metar": "METAR LIRF 041320Z 22011KT CAVOK 25/17 Q1012 NOSIG",
      "taf": "TAF LIRF 041100Z 0412/0518 24012KT CAVOK"
    },
    {
      "icao": "LIRN",
      "alert": "OK",
      "vis_m": 9999,
      "fzfg": false,
      "metar_trigger": false,
      "taf_trigger": false,
      "metar": "METAR LIRN 041320Z 17009KT 140V210 9999 FEW050 25/17 Q1013 NOSIG",
      "taf": "TAF LIRN 041100Z 0412/0512 23010KT CAVOK"
    },
    {
      "icao": "LIRP",
      "alert": "OK",
      "vis_m": 9999,
      "fzfg": false,
      "metar_trigger": false,
      "taf_trigger": false,
      "metar": "METAR LIRP 041315Z 24012KT 9999 FEW030 27/14 Q1011 NOSIG",
      "taf": "TAF LIRP 041100Z 0412/0512 27008KT 9999 FEW030"
    },
    {
      "icao": "LIRZ",
      "alert": "OK",
      "vis_m": 9999,
      "fzfg": false,
      "metar_trigger": false,
      "taf_trigger": false,
      "metar": "METAR LIRZ 041320Z AUTO 23008KT 170V260 9999 FEW065/// 28/12 Q1011",
      "taf": "TAF LIRZ 041100Z 0412/0512 20010KT 9999 SCT030"
    },
    {
      "icao": "LJLJ",
      "alert": "OK",
      "vis_m": 9999,
      "fzfg": false,
      "metar_trigger": false,
      "taf_trigger": false,
      "metar": "METAR LJLJ 041330Z 23010KT 190V280 9999 FEW050 BKN200 23/12 Q1011 NOSIG",
      "taf": ""
    },
    {
      "icao": "LKMT",
      "alert": "OK",
      "vis_m": 9999,
      "fzfg": false,
      "metar_trigger": false,
      "taf_trigger": false,
      "metar": "METAR LKMT 041330Z VRB03KT CAVOK 22/11 Q1010 NOSIG",
      "taf": "TAF LKMT 041100Z 0412/0512 VRB02KT CAVOK"
    },
    {
      "icao": "LKPR",
      "alert": "OK",
      "vis_m": 9999,
      "fzfg": false,
      "metar_trigger": false,
      "taf_trigger": false,
      "metar": "METAR LKPR 041330Z 17008KT CAVOK 23/12 Q1008 NOSIG",
      "taf": "TAF LKPR 041100Z 0412/0518 24008KT CAVOK"
    },
    {
      "icao": "LLBG",
      "alert": "OK",
      "vis_m": 9999,
      "fzfg": false,
      "metar_trigger": false,
      "taf_trigger": false,
      "metar": "METAR LLBG 041320Z 33013KT CAVOK 31/07 Q1013 NOSIG",
      "taf": "TAF LLBG 041107Z 0412/0512 34010KT CAVOK TX32/0412Z TN19/0503Z"
    },
    {
      "icao": "LMML",
      "alert": "OK",
      "vis_m": 9999,
      "fzfg": false,
      "metar_trigger": false,
      "taf_trigger": false,
      "metar": "METAR LMML 041315Z 02004KT 340V080 CAVOK 28/18 Q1013 NOSIG",
      "taf": "TAF LMML 041100Z 0412/0512 VRB07KT CAVOK"
    },
    {
      "icao": "LOWW",
      "alert": "OK",
      "vis_m": 9999,
      "fzfg": false,
      "metar_trigger": false,
      "taf_trigger": false,
      "metar": "METAR LOWW 041320Z 08005KT 030V130 9999 FEW050 24/10 Q1010 BECMG 16008KT",
      "taf": "TAF LOWW 041115Z 0412/0518 VRB03KT CAVOK TX25/0414Z TN15/0512Z"
    },
    {
      "icao": "LPFR",
      "alert": "OK",
      "vis_m": 9999,
      "fzfg": false,
      "metar_trigger": false,
      "taf_trigger": false,
      "metar": "METAR LPFR 041330Z 25016KT CAVOK 24/16 Q1015",
      "taf": "TAF LPFR 041100Z 0412/0512 31010KT CAVOK"
    },
    {
      "icao": "LPMA",
      "alert": "OK",
      "vis_m": 9999,
      "fzfg": false,
      "metar_trigger": false,
      "taf_trigger": false,
      "metar": "METAR LPMA 041330Z 01020KT 330V030 9999 FEW013 24/18 Q1022",
      "taf": "TAF LPMA 041100Z 0412/0512 36013KT 9999 SCT015"
    },
    {
      "icao": "LPPR",
      "alert": "OK",
      "vis_m": 9999,
      "fzfg": false,
      "metar_trigger": false,
      "taf_trigger": false,
      "metar": "METAR LPPR 041330Z 31014KT 9999 SCT020 19/12 Q1019",
      "taf": "TAF LPPR 041100Z 0412/0512 32015KT 9999 SCT035"
    },
    {
      "icao": "LPPS",
      "alert": "OK",
      "vis_m": 9999,
      "fzfg": false,
      "metar_trigger": false,
      "taf_trigger": false,
      "metar": "METAR LPPS 041330Z 36014KT 9999 FEW006 SCT010 BKN025 22/18 Q1024",
      "taf": "TAF LPPS 041100Z 0412/0518 01017KT 9999 SCT015 SCT030"
    },
    {
      "icao": "LPPT",
      "alert": "OK",
      "vis_m": 9999,
      "fzfg": false,
      "metar_trigger": false,
      "taf_trigger": false,
      "metar": "METAR LPPT 041330Z 34015KT 310V010 9999 SCT036 21/11 Q1019",
      "taf": "TAF LPPT 041100Z 0412/0518 33015KT 9999 SCT035"
    },
    {
      "icao": "LQBK",
      "alert": "OK",
      "vis_m": 9999,
      "fzfg": false,
      "metar_trigger": false,
      "taf_trigger": false,
      "metar": "METAR LQBK 041330Z VRB02KT 9999 SCT047 24/10 Q1012 NOSIG",
      "taf": "TAF LQBK 041100Z 0412/0512 32005KT 9999 SCT045 TX24/0414Z TN12/0504Z"
    },
    {
      "icao": "LQSA",
      "alert": "OK",
      "vis_m": 9999,
      "fzfg": false,
      "metar_trigger": false,
      "taf_trigger": false,
      "metar": "METAR LQSA 041330Z 14003KT 110V180 9999 BKN060 19/10 Q1014 NOSIG",
      "taf": "TAF LQSA 041100Z 0412/0512 VRB02KT 9999 BKN050 TX25/0512Z TN10/0504Z"
    },
    {
      "icao": "LQTZ",
      "alert": "OK",
      "vis_m": 9999,
      "fzfg": false,
      "metar_trigger": false,
      "taf_trigger": false,
      "metar": "METAR LQTZ 041330Z VRB02KT 9999 OVC060 20/14 Q1013",
      "taf": "TAF LQTZ 041100Z 0412/0512 32005KT 9999 SCT040 TX21/0414Z TN11/0504Z"
    },
    {
      "icao": "LRBC",
      "alert": "OK",
      "vis_m": 9999,
      "fzfg": false,
      "metar_trigger": false,
      "taf_trigger": false,
      "metar": "METAR LRBC 041330Z 16012KT 9999 FEW035CB SCT055 24/17 Q1011",
      "taf": "TAF LRBC 041100Z 0412/0421 16010KT 9999 BKN025"
    },
    {
      "icao": "LRBS",
      "alert": "OK",
      "vis_m": 9999,
      "fzfg": false,
      "metar_trigger": false,
      "taf_trigger": false,
      "metar": "METAR LRBS 041330Z 30005KT 270V030 CAVOK 26/14 Q1010 NOSIG",
      "taf": "TAF LRBS 041100Z 0412/0512 VRB04KT CAVOK"
    },
    {
      "icao": "LRBV",
      "alert": "OK",
      "vis_m": 9999,
      "fzfg": false,
      "metar_trigger": false,
      "taf_trigger": false,
      "metar": "METAR LRBV 041330Z VRB02KT 9999 FEW080 19/14 Q1012",
      "taf": "TAF LRBV 041100Z 0412/0421 VRB04KT 9999 BKN040"
    },
    {
      "icao": "LRCL",
      "alert": "OK",
      "vis_m": 9999,
      "fzfg": false,
      "metar_trigger": false,
      "taf_trigger": false,
      "metar": "METAR LRCL 041330Z 13005KT 080V170 CAVOK 26/11 Q1009",
      "taf": "TAF LRCL 041100Z 0412/0421 VRB04KT 9999 SCT040"
    },
    {
      "icao": "LRCV",
      "alert": "OK",
      "vis_m": 9999,
      "fzfg": false,
      "metar_trigger": false,
      "taf_trigger": false,
      "metar": "METAR LRCV 041330Z 06005KT 030V110 9999 SCT025 FEW040CB 22/18 Q1010",
      "taf": "TAF LRCV 041100Z 0412/0421 VRB04KT 9999 BKN030"
    },
    {
      "icao": "LRIA",
      "alert": "OK",
      "vis_m": 9999,
      "fzfg": false,
      "metar_trigger": false,
      "taf_trigger": false,
      "metar": "METAR LRIA 041330Z 11010KT 9999 SCT031 24/17 Q1011",
      "taf": "TAF LRIA 041100Z 0412/0421 11007KT 9999 BKN020"
    },
    {
      "icao": "LROP",
      "alert": "OK",
      "vis_m": 9999,
      "fzfg": false,
      "metar_trigger": false,
      "taf_trigger": false,
      "metar": "METAR LROP 041330Z 32006KT 290V350 9999 FEW050TCU 25/16 Q1010 NOSIG",
      "taf": "TAF LROP 041100Z 0412/0512 VRB04KT CAVOK"
    },
    {
      "icao": "LRSB",
      "alert": "OK",
      "vis_m": 9999,
      "fzfg": false,
      "metar_trigger": false,
      "taf_trigger": false,
      "metar": "METAR LRSB 041330Z 27009KT 240V300 9999 SCT036TCU BKN070 24/16 Q1010",
      "taf": "TAF LRSB 041100Z 0412/0512 VRB04KT CAVOK"
    },
    {
      "icao": "LRSM",
      "alert": "OK",
      "vis_m": 9999,
      "fzfg": false,
      "metar_trigger": false,
      "taf_trigger": false,
      "metar": "METAR LRSM 041330Z 31006KT 240V350 CAVOK 28/16 Q1009",
      "taf": "TAF LRSM 041100Z 0412/0421 27008KT 9999 BKN045"
    },
    {
      "icao": "LRSV",
      "alert": "OK",
      "vis_m": 9999,
      "fzfg": false,
      "metar_trigger": false,
      "taf_trigger": false,
      "metar": "METAR LRSV 041330Z 12012KT 9999 SCT024 22/17 Q1012",
      "taf": "TAF LRSV 041100Z 0412/0421 11008KT 9999 BKN020"
    },
    {
      "icao": "LRTM",
      "alert": "OK",
      "vis_m": 9999,
      "fzfg": false,
      "metar_trigger": false,
      "taf_trigger": false,
      "metar": "METAR LRTM 041330Z 15003KT 080V230 9999 FEW048 26/16 Q1010",
      "taf": "TAF LRTM 041100Z 0412/0421 VRB04KT 9999 SCT040"
    },
    {
      "icao": "LRTR",
      "alert": "OK",
      "vis_m": 9999,
      "fzfg": false,
      "metar_trigger": false,
      "taf_trigger": false,
      "metar": "METAR LRTR 041330Z 21006KT 160V250 9999 BKN015 BKN020 18/16 Q1012",
      "taf": "TAF LRTR 041100Z 0412/0512 22008KT 9999 BKN010 OVC020"
    },
    {
      "icao": "LTAC",
      "alert": "OK",
      "vis_m": 9999,
      "fzfg": false,
      "metar_trigger": false,
      "taf_trigger": false,
      "metar": "SPECI LTAC 041331Z 27007KT 230V300 9999 -SHRA FEW025CB SCT040 26/12 Q1014 TEMPO -TSRA",
      "taf": "TAF LTAC 041040Z 0412/0512 24009KT 9999 SCT040 SCT100"
    },
    {
      "icao": "LTFM",
      "alert": "OK",
      "vis_m": 9999,
      "fzfg": false,
      "metar_trigger": false,
      "taf_trigger": false,
      "metar": "METAR LTFM 041320Z 21011KT CAVOK 31/10 Q1010 NOSIG RMK RWY17L 21012KT 180V240 RWY34L 22010KT RWY16R 21010KT 170V230 RWY36 23009KT 200V260 RWY18 22013G27KT 180V240",
      "taf": "TAF LTFM 041040Z 0412/0518 21013KT CAVOK"
    },
    {
      "icao": "LUKK",
      "alert": "OK",
      "vis_m": 9999,
      "fzfg": false,
      "metar_trigger": false,
      "taf_trigger": false,
      "metar": "METAR LUKK 041330Z 12005KT 040V190 9999 FEW028 23/17 Q1013 NOSIG",
      "taf": "TAF LUKK 041055Z 0412/0512 15008KT 9999 SCT040"
    },
    {
      "icao": "LWOH",
      "alert": "OK",
      "vis_m": 9999,
      "fzfg": false,
      "metar_trigger": false,
      "taf_trigger": false,
      "metar": "METAR LWOH 041320Z 12007KT 090V200 9999 BKN040 18/13 Q1012",
      "taf": "TAF LWOH 041120Z 0412/0512 18010KT 9999 FEW020 SCT040"
    },
    {
      "icao": "LWSK",
      "alert": "OK",
      "vis_m": 9999,
      "fzfg": false,
      "metar_trigger": false,
      "taf_trigger": false,
      "metar": "METAR LWSK 041320Z 03005KT 330V100 9999 SCT050 24/13 Q1010 NOSIG",
      "taf": "TAF LWSK 041120Z 0412/0512 01010KT 9999 SCT050"
    },
    {
      "icao": "LYBE",
      "alert": "OK",
      "vis_m": 9999,
      "fzfg": false,
      "metar_trigger": false,
      "taf_trigger": false,
      "metar": "METAR LYBE 041330Z 26006KT 190V320 9999 BKN025 21/14 Q1012 NOSIG",
      "taf": "TAF LYBE 041100Z 0412/0512 26008KT 9999 BKN030 TX27/0512Z TN13/0503Z"
    },
    {
      "icao": "LYNI",
      "alert": "OK",
      "vis_m": 9999,
      "fzfg": false,
      "metar_trigger": false,
      "taf_trigger": false,
      "metar": "METAR LYNI 041330Z 33010KT 290V010 9999 FEW035 23/15 Q1011 NOSIG",
      "taf": "TAF LYNI 041100Z 0412/0512 32015KT 9999 SCT050 TX26/0512Z TN09/0503Z"
    },
    {
      "icao": "LYPG",
      "alert": "OK",
      "vis_m": 9999,
      "fzfg": false,
      "metar_trigger": false,
      "taf_trigger": false,
      "metar": "METAR LYPG 041330Z VRB03KT 9999 SCT030 25/15 Q1010 NOSIG",
      "taf": "TAF LYPG 041100Z 0412/0512 16008KT 9999 FEW030 TX27/0413Z TN18/0504Z"
    },
    {
      "icao": "LZIB",
      "alert": "OK",
      "vis_m": 9999,
      "fzfg": false,
      "metar_trigger": false,
      "taf_trigger": false,
      "metar": "METAR LZIB 041330Z VRB01KT CAVOK 25/09 Q1009 NOSIG",
      "taf": "TAF LZIB 041115Z 0412/0512 31008KT CAVOK"
    },
    {
      "icao": "LZKZ",
      "alert": "OK",
      "vis_m": 9999,
      "fzfg": false,
      "metar_trigger": false,
      "taf_trigger": false,
      "metar": "METAR LZKZ 041330Z 15005KT 9999 -SHRA FEW030CB 24/16 Q1009 NOSIG",
      "taf": "TAF LZKZ 041115Z 0412/0512 02006KT CAVOK"
    },
    {
      "icao": "LZTT",
      "alert": "OK",
      "vis_m": 9999,
      "fzfg": false,
      "metar_trigger": false,
      "taf_trigger": false,
      "metar": "METAR LZTT 041330Z 05004KT 010V090 9999 FEW018 SCT036 BKN060 18/14 Q1011 NOSIG",
      "taf": "TAF LZTT 041115Z 0412/0512 VRB02KT 9999 FEW010 SCT020 BKN045"
    },
    {
      "icao": "OEJN",
      "alert": "OK",
      "vis_m": 9999,
      "fzfg": false,
      "metar_trigger": false,
      "taf_trigger": false,
      "metar": "METAR OEJN 041300Z 24009KT CAVOK 35/20 Q1007 NOSIG",
      "taf": "TAF OEJN 041100Z 0412/0518 27010KT CAVOK"
    },
    {
      "icao": "OEMA",
      "alert": "OK",
      "vis_m": 9999,
      "fzfg": false,
      "metar_trigger": false,
      "taf_trigger": false,
      "metar": "METAR OEMA 041300Z 20004KT 9999 FEW040 44/M05 Q1011 NOSIG",
      "taf": "TAF OEMA 041100Z 0412/0518 27010KT 7000 NSC"
    },
    {
      "icao": "OJAI",
      "alert": "OK",
      "vis_m": 5000,
      "fzfg": false,
      "metar_trigger": false,
      "taf_trigger": false,
      "metar": "METAR OJAI 041300Z 27012KT 5000 HZ NSC 31/06 Q1016 NOSIG",
      "taf": "TAF OJAI 041100Z 0412/0518 30010KT 5000 HZ NSC"
    },
    {
      "icao": "OMAA",
      "alert": "OK",
      "vis_m": 9999,
      "fzfg": false,
      "metar_trigger": false,
      "taf_trigger": false,
      "metar": "METAR OMAA 041330Z 30013KT CAVOK 39/16 Q1000 NOSIG",
      "taf": "TAF OMAA 041100Z 0412/0518 31012KT 8000 NSC"
    },
    {
      "icao": "OMDB",
      "alert": "OK",
      "vis_m": 9999,
      "fzfg": false,
      "metar_trigger": false,
      "taf_trigger": false,
      "metar": "METAR OMDB 041330Z 27006KT 240V320 CAVOK 38/20 Q0999 NOSIG",
      "taf": "TAF OMDB 041100Z 0412/0518 28013KT 8000 NSC"
    },
    {
      "icao": "UAAA",
      "alert": "OK",
      "vis_m": 9999,
      "fzfg": false,
      "metar_trigger": false,
      "taf_trigger": false,
      "metar": "METAR UAAA 041330Z 15002MPS 9999 SCT050CB BKN100 28/09 Q1011 NOSIG",
      "taf": "TAF UAAA 041104Z 0412/0512 20003MPS 9999 SCT050CB BKN100 TX27/0509Z TN18/0501Z"
    },
    {
      "icao": "UBBB",
      "alert": "OK",
      "vis_m": 9999,
      "fzfg": false,
      "metar_trigger": false,
      "taf_trigger": false,
      "metar": "METAR UBBB 041330Z 16012KT CAVOK 24/07 Q1014 NOSIG",
      "taf": "TAF UBBB 041045Z 0412/0512 15012KT CAVOK TX24/0410Z TN15/0500Z"
    },
    {
      "icao": "UDSG",
      "alert": "OK",
      "vis_m": 9999,
      "fzfg": false,
      "metar_trigger": false,
      "taf_trigger": false,
      "metar": "METAR UDSG 041330Z 05003KT 010V090 9999 FEW043CB 19/08 Q1018 NOSIG",
      "taf": "TAF UDSG 041058Z 0412/0512 24006KT 9999 SCT050"
    },
    {
      "icao": "UDYZ",
      "alert": "OK",
      "vis_m": 9999,
      "fzfg": false,
      "metar_trigger": false,
      "taf_trigger": false,
      "metar": "METAR UDYZ 041330Z 33003KT 280V050 9999 SCT043CB 28/07 Q1013 NOSIG",
      "taf": "TAF UDYZ 041100Z 0412/0512 19006KT 9999 SCT040"
    },
    {
      "icao": "UGKO",
      "alert": "OK",
      "vis_m": 9999,
      "fzfg": false,
      "metar_trigger": false,
      "taf_trigger": false,
      "metar": "METAR UGKO 041330Z 29007KT 240V340 CAVOK 28/13 Q1011 NOSIG",
      "taf": "TAF UGKO 041100Z 0412/0512 26007KT CAVOK TX30/0511Z TN13/0502Z"
    }
  ]
}