{
  "ts_utc": "2026-06-10T06:05:18Z",
  "threshold_m": 150,
  "source": "stations_override.txt (ICAO list) + aviationweather.gov (METAR/TAF raw)",
  "station_count": 159,
  "stations": [
    {
      "icao": "BIKF",
      "alert": "OK",
      "vis_m": 9999,
      "fzfg": false,
      "metar_trigger": false,
      "taf_trigger": false,
      "metar": "METAR BIKF 100600Z 06005KT 9999 BKN049 BKN062 09/06 Q1004",
      "taf": "TAF BIKF 100451Z 1006/1106 07010KT 9999 -SHRA FEW010 BKN030 TX12/1020Z TN06/1103Z"
    },
    {
      "icao": "BKPR",
      "alert": "OK",
      "vis_m": 9999,
      "fzfg": false,
      "metar_trigger": false,
      "taf_trigger": false,
      "metar": "METAR BKPR 100600Z VRB02KT CAVOK 19/13 Q1017 NOSIG",
      "taf": "TAF BKPR 100530Z 1006/1106 20008KT 9999 FEW050"
    },
    {
      "icao": "EBCI",
      "alert": "OK",
      "vis_m": 9999,
      "fzfg": false,
      "metar_trigger": false,
      "taf_trigger": false,
      "metar": "METAR EBCI 100550Z 23008KT CAVOK 11/08 Q1017 NOSIG",
      "taf": "TAF EBCI 100510Z 1006/1112 24008KT 9999 FEW030TCU SCT040"
    },
    {
      "icao": "EDDB",
      "alert": "OK",
      "vis_m": 9999,
      "fzfg": false,
      "metar_trigger": false,
      "taf_trigger": false,
      "metar": "METAR EDDB 100550Z AUTO 19003KT 140V240 CAVOK 15/09 Q1017 NOSIG",
      "taf": "TAF EDDB 100500Z 1006/1106 20006KT 9999 FEW040"
    },
    {
      "icao": "EDDH",
      "alert": "OK",
      "vis_m": 9999,
      "fzfg": false,
      "metar_trigger": false,
      "taf_trigger": false,
      "metar": "METAR EDDH 100550Z AUTO 23008KT CAVOK 13/09 Q1014 NOSIG",
      "taf": "TAF EDDH 100500Z 1006/1112 23005KT 9999 SCT035"
    },
    {
      "icao": "EDDK",
      "alert": "OK",
      "vis_m": 9999,
      "fzfg": false,
      "metar_trigger": false,
      "taf_trigger": false,
      "metar": "METAR EDDK 100550Z AUTO 11003KT 070V140 CAVOK 11/08 Q1017 NOSIG",
      "taf": "TAF EDDK 100500Z 1006/1112 24007KT 9999 SCT035"
    },
    {
      "icao": "EDDN",
      "alert": "OK",
      "vis_m": 9999,
      "fzfg": false,
      "metar_trigger": false,
      "taf_trigger": false,
      "metar": "METAR EDDN 100550Z AUTO VRB01KT CAVOK 12/09 Q1018 NOSIG",
      "taf": "TAF EDDN 100500Z 1006/1106 VRB03KT CAVOK"
    },
    {
      "icao": "EDDS",
      "alert": "OK",
      "vis_m": 9999,
      "fzfg": false,
      "metar_trigger": false,
      "taf_trigger": false,
      "metar": "METAR EDDS 100550Z AUTO 09002KT CAVOK 13/10 Q1017 NOSIG",
      "taf": "TAF EDDS 100500Z 1006/1106 VRB03KT CAVOK"
    },
    {
      "icao": "EDFH",
      "alert": "OK",
      "vis_m": 9999,
      "fzfg": false,
      "metar_trigger": false,
      "taf_trigger": false,
      "metar": "METAR EDFH 100550Z 27004KT 230V310 9999 FEW020 10/07 Q1018",
      "taf": "TAF EDFH 100500Z 1006/1106 26006KT 9999 SCT020"
    },
    {
      "icao": "EDJA",
      "alert": "OK",
      "vis_m": 9999,
      "fzfg": false,
      "metar_trigger": false,
      "taf_trigger": false,
      "metar": "METAR EDJA 100550Z 10004KT 9999 -RA FEW021 SCT053 11/10 Q1018",
      "taf": "TAF EDJA 100500Z 1006/1015 01004KT 9999 SCT008 OVC035"
    },
    {
      "icao": "EDLW",
      "alert": "OK",
      "vis_m": 9999,
      "fzfg": false,
      "metar_trigger": false,
      "taf_trigger": false,
      "metar": "METAR EDLW 100550Z 21009KT CAVOK 12/08 Q1016",
      "taf": "TAF EDLW 100500Z 1006/1106 23010KT 9999 SCT030"
    },
    {
      "icao": "EDNY",
      "alert": "OK",
      "vis_m": 9999,
      "fzfg": false,
      "metar_trigger": false,
      "taf_trigger": false,
      "metar": "METAR EDNY 100550Z 18004KT 9999 -RA SCT010 BKN029 13/12 Q1018",
      "taf": "TAF EDNY 100500Z 1006/1015 VRB03KT 9999 BKN013"
    },
    {
      "icao": "EDSB",
      "alert": "OK",
      "vis_m": 9999,
      "fzfg": false,
      "metar_trigger": false,
      "taf_trigger": false,
      "metar": "METAR EDSB 100550Z 22003KT CAVOK 13/09 Q1018",
      "taf": "TAF EDSB 100500Z 1006/1106 VRB03KT CAVOK"
    },
    {
      "icao": "EETN",
      "alert": "OK",
      "vis_m": 9999,
      "fzfg": false,
      "metar_trigger": false,
      "taf_trigger": false,
      "metar": "METAR EETN 100550Z 24012KT 9999 SCT011 BKN025 BKN038 15/13 Q1009 NOSIG",
      "taf": "TAF EETN 100530Z 1006/1106 23010KT 9999 SCT020"
    },
    {
      "icao": "EFTU",
      "alert": "OK",
      "vis_m": 9999,
      "fzfg": false,
      "metar_trigger": false,
      "taf_trigger": false,
      "metar": "METAR EFTU 100550Z AUTO 23009KT 9999 BKN009 15/12 Q1006",
      "taf": "TAF EFTU 100524Z 1006/1106 22012G22KT 9999 SCT015"
    },
    {
      "icao": "EGBB",
      "alert": "OK",
      "vis_m": 9999,
      "fzfg": false,
      "metar_trigger": false,
      "taf_trigger": false,
      "metar": "METAR EGBB 100550Z 25005KT 220V280 CAVOK 10/06 Q1015",
      "taf": "TAF EGBB 100452Z 1006/1106 24006KT 9999 SCT040"
    },
    {
      "icao": "EGGP",
      "alert": "OK",
      "vis_m": 9999,
      "fzfg": false,
      "metar_trigger": false,
      "taf_trigger": false,
      "metar": "METAR EGGP 100550Z 23005KT 190V250 9999 -RA BKN033 09/08 Q1014",
      "taf": "TAF EGGP 100455Z 1006/1106 24008KT 9999 SCT040"
    },
    {
      "icao": "EGGW",
      "alert": "OK",
      "vis_m": 9999,
      "fzfg": false,
      "metar_trigger": false,
      "taf_trigger": false,
      "metar": "METAR EGGW 100550Z AUTO 21003KT 170V250 9999 NCD 09/07 Q1015",
      "taf": "TAF EGGW 100455Z 1006/1106 25012KT 9999 SCT020"
    },
    {
      "icao": "EGKK",
      "alert": "OK",
      "vis_m": 9999,
      "fzfg": false,
      "metar_trigger": false,
      "taf_trigger": false,
      "metar": "METAR EGKK 100550Z 23007KT CAVOK 10/08 Q1016",
      "taf": "TAF EGKK 100454Z 1006/1112 24009KT 9999 FEW045"
    },
    {
      "icao": "EGNM",
      "alert": "OK",
      "vis_m": 9999,
      "fzfg": false,
      "metar_trigger": false,
      "taf_trigger": false,
      "metar": "METAR EGNM 100550Z 26006KT 9999 -SHRA SCT018CB BKN032 06/06 Q1012",
      "taf": "TAF EGNM 100454Z 1006/1106 25005KT 9999 SCT020"
    },
    {
      "icao": "EGPD",
      "alert": "OK",
      "vis_m": 9999,
      "fzfg": false,
      "metar_trigger": false,
      "taf_trigger": false,
      "metar": "METAR EGPD 100550Z COR 27006KT CAVOK 10/05 Q1009 NOSIG",
      "taf": "TAF EGPD 100453Z 1006/1106 26003KT 9999 SCT045"
    },
    {
      "icao": "EGPF",
      "alert": "OK",
      "vis_m": 9999,
      "fzfg": false,
      "metar_trigger": false,
      "taf_trigger": false,
      "metar": "METAR EGPF 100550Z AUTO 26006KT 230V300 9999 BKN048 11/08 Q1011",
      "taf": "TAF EGPF 100456Z 1006/1106 24006KT 9999 FEW018 SCT030"
    },
    {
      "icao": "EHBK",
      "alert": "OK",
      "vis_m": 9999,
      "fzfg": false,
      "metar_trigger": false,
      "taf_trigger": false,
      "metar": "METAR EHBK 100555Z AUTO 19009KT 150V220 9999 SCT016 OVC022 11/08 Q1017 NOSIG",
      "taf": "TAF EHBK 100505Z 1006/1112 21008KT CAVOK"
    },
    {
      "icao": "EHEH",
      "alert": "OK",
      "vis_m": 9999,
      "fzfg": false,
      "metar_trigger": false,
      "taf_trigger": false,
      "metar": "METAR EHEH 100555Z AUTO 22008KT 180V250 9999 OVC027 12/10 Q1016 BLU TEMPO FEW012 SCT015",
      "taf": "TAF EHEH 092345Z 1000/1106 21007KT CAVOK"
    },
    {
      "icao": "EKBI",
      "alert": "OK",
      "vis_m": 9999,
      "fzfg": false,
      "metar_trigger": false,
      "taf_trigger": false,
      "metar": "METAR EKBI 100550Z 20005KT 170V230 9999 SCT020CB BKN040 10/09 Q1011",
      "taf": "TAF EKBI 100527Z 1006/1106 19008KT 9999 BKN040"
    },
    {
      "icao": "EKCH",
      "alert": "OK",
      "vis_m": 9999,
      "fzfg": false,
      "metar_trigger": false,
      "taf_trigger": false,
      "metar": "METAR EKCH 100550Z AUTO 22013KT 190V250 9999 SCT018/// 13/09 Q1013 NOSIG",
      "taf": "TAF EKCH 100527Z 1006/1106 23012KT 9999 SCT030"
    },
    {
      "icao": "ENAL",
      "alert": "OK",
      "vis_m": 9999,
      "fzfg": false,
      "metar_trigger": false,
      "taf_trigger": false,
      "metar": "METAR ENAL 100550Z 23020KT 9999 -DZRA BKN021 10/07 Q1000",
      "taf": "TAF ENAL 100500Z 1006/1015 22020KT 9999 -SHRA FEW015 BKN030"
    },
    {
      "icao": "ENBR",
      "alert": "OK",
      "vis_m": 9999,
      "fzfg": false,
      "metar_trigger": false,
      "taf_trigger": false,
      "metar": "METAR ENBR 100550Z 17009KT 9999 FEW007 SCT010 BKN045 10/09 Q1004 NOSIG RMK WIND 1200FT 19010KT",
      "taf": "TAF ENBR 100500Z 1006/1106 18010KT 9999 SCT012 BKN025"
    },
    {
      "icao": "ENGM",
      "alert": "OK",
      "vis_m": 9999,
      "fzfg": false,
      "metar_trigger": false,
      "taf_trigger": false,
      "metar": "METAR ENGM 100550Z 22009KT CAVOK 11/05 Q1002 NOSIG",
      "taf": "TAF ENGM 100500Z 1006/1106 22010KT CAVOK"
    },
    {
      "icao": "ENHD",
      "alert": "OK",
      "vis_m": 9999,
      "fzfg": false,
      "metar_trigger": false,
      "taf_trigger": false,
      "metar": "METAR ENHD 100550Z 15005KT 120V190 9999 FEW014CB SCT018 BKN025 12/09 Q1005",
      "taf": "TAF ENHD 100500Z 1006/1015 19010KT 9999 FEW015 SCT025"
    },
    {
      "icao": "ENTC",
      "alert": "OK",
      "vis_m": 9999,
      "fzfg": false,
      "metar_trigger": false,
      "taf_trigger": false,
      "metar": "METAR ENTC 100550Z VRB02KT CAVOK 16/10 Q1008 NOSIG RMK WIND 2600FT 16011KT",
      "taf": "TAF ENTC 100500Z 1006/1106 03006KT CAVOK"
    },
    {
      "icao": "ENTO",
      "alert": "OK",
      "vis_m": 9999,
      "fzfg": false,
      "metar_trigger": false,
      "taf_trigger": false,
      "metar": "METAR ENTO 100550Z 23009KT CAVOK 12/06 Q1005 NOSIG",
      "taf": "TAF ENTO 100500Z 1006/1106 23012KT CAVOK"
    },
    {
      "icao": "ENVA",
      "alert": "OK",
      "vis_m": 9999,
      "fzfg": false,
      "metar_trigger": false,
      "taf_trigger": false,
      "metar": "METAR ENVA 100550Z VRB02KT 9999 -RA SCT045 BKN056 13/11 Q0998 BECMG 27012KT TEMPO 4000 SHRA BKN012 SCT020CB RMK WIND 670FT 15006KT",
      "taf": "TAF ENVA 100500Z 1006/1106 27012KT 9999 BKN050"
    },
    {
      "icao": "ENZV",
      "alert": "OK",
      "vis_m": 9999,
      "fzfg": false,
      "metar_trigger": false,
      "taf_trigger": false,
      "metar": "METAR ENZV 100550Z 17005KT 9999 -RA FEW017CB BKN045 09/08 Q1006 TEMPO SHRA FEW009 BKN014CB",
      "taf": "TAF ENZV 100500Z 1006/1106 18007KT 9999 FEW015 SCT030"
    },
    {
      "icao": "EPGD",
      "alert": "OK",
      "vis_m": 9999,
      "fzfg": false,
      "metar_trigger": false,
      "taf_trigger": false,
      "metar": "METAR EPGD 100600Z 23005KT 190V250 CAVOK 13/10 Q1017",
      "taf": "TAF EPGD 100530Z 1006/1106 22006KT CAVOK"
    },
    {
      "icao": "EPKK",
      "alert": "OK",
      "vis_m": 9999,
      "fzfg": false,
      "metar_trigger": false,
      "taf_trigger": false,
      "metar": "METAR EPKK 100600Z 10003KT 080V140 9999 -RA SCT020 OVC054 14/13 Q1018",
      "taf": "TAF EPKK 100530Z 1006/1106 VRB02KT 9999 BKN040"
    },
    {
      "icao": "EPKT",
      "alert": "OK",
      "vis_m": 9999,
      "fzfg": false,
      "metar_trigger": false,
      "taf_trigger": false,
      "metar": "METAR EPKT 100600Z 04004KT 9999 -RA FEW023 14/12 Q1018",
      "taf": ""
    },
    {
      "icao": "EPLB",
      "alert": "OK",
      "vis_m": 9999,
      "fzfg": false,
      "metar_trigger": false,
      "taf_trigger": false,
      "metar": "METAR EPLB 100600Z VRB02KT 9999 -RA FEW011 16/15 Q1017",
      "taf": "TAF EPLB 100530Z 1006/1106 30006KT 9999 BKN030"
    },
    {
      "icao": "EPMO",
      "alert": "OK",
      "vis_m": 9999,
      "fzfg": false,
      "metar_trigger": false,
      "taf_trigger": false,
      "metar": "METAR EPMO 100600Z 35003KT 290V030 9999 FEW010 15/13 Q1018",
      "taf": "TAF EPMO 100530Z 1006/1106 31004KT CAVOK"
    },
    {
      "icao": "EPPO",
      "alert": "OK",
      "vis_m": 9999,
      "fzfg": false,
      "metar_trigger": false,
      "taf_trigger": false,
      "metar": "METAR EPPO 100600Z 20002KT CAVOK 14/10 Q1018",
      "taf": "TAF EPPO 100530Z 1006/1106 VRB02KT CAVOK"
    },
    {
      "icao": "EPRA",
      "alert": "OK",
      "vis_m": 9999,
      "fzfg": false,
      "metar_trigger": false,
      "taf_trigger": false,
      "metar": "METAR EPRA 100600Z 01006KT 340V050 9999 FEW012 16/13 Q1018",
      "taf": "TAF EPRA 100530Z 1006/1015 36006KT CAVOK"
    },
    {
      "icao": "EPRZ",
      "alert": "OK",
      "vis_m": 9999,
      "fzfg": false,
      "metar_trigger": false,
      "taf_trigger": false,
      "metar": "METAR EPRZ 100600Z 33007KT 9999 FEW016CB BKN040 17/14 Q1018",
      "taf": "TAF EPRZ 100530Z 1006/1106 30005KT 9999 BKN040"
    },
    {
      "icao": "EPSC",
      "alert": "OK",
      "vis_m": 9999,
      "fzfg": false,
      "metar_trigger": false,
      "taf_trigger": false,
      "metar": "METAR EPSC 100600Z 21005KT 160V260 CAVOK 13/09 Q1016",
      "taf": "TAF EPSC 100530Z 1006/1106 20006KT 9999 SCT035"
    },
    {
      "icao": "EPSY",
      "alert": "OK",
      "vis_m": 9999,
      "fzfg": false,
      "metar_trigger": false,
      "taf_trigger": false,
      "metar": "METAR EPSY 100600Z 36006KT 320V040 CAVOK 15/09 Q1018",
      "taf": "TAF EPSY 100530Z 1006/1015 33006KT CAVOK"
    },
    {
      "icao": "EPWA",
      "alert": "OK",
      "vis_m": 9999,
      "fzfg": false,
      "metar_trigger": false,
      "taf_trigger": false,
      "metar": "METAR EPWA 100600Z 33004KT 290V030 CAVOK 16/13 Q1018 NOSIG",
      "taf": "TAF EPWA 100530Z 1006/1106 32005KT CAVOK"
    },
    {
      "icao": "EPWR",
      "alert": "OK",
      "vis_m": 9999,
      "fzfg": false,
      "metar_trigger": false,
      "taf_trigger": false,
      "metar": "METAR EPWR 100600Z 30002KT CAVOK 14/11 Q1018",
      "taf": "TAF EPWR 100530Z 1006/1106 29005KT CAVOK"
    },
    {
      "icao": "ESGG",
      "alert": "OK",
      "vis_m": 9999,
      "fzfg": false,
      "metar_trigger": false,
      "taf_trigger": false,
      "metar": "METAR ESGG 100550Z 21012KT 9999 BKN018TCU 12/08 Q1008",
      "taf": "TAF ESGG 100530Z 1006/1106 23012KT 9999 BKN015"
    },
    {
      "icao": "ESKN",
      "alert": "OK",
      "vis_m": 9999,
      "fzfg": false,
      "metar_trigger": false,
      "taf_trigger": false,
      "metar": "METAR ESKN 100550Z 21013KT 9999 FEW018 13/09 Q1008",
      "taf": "TAF ESKN 100530Z 1006/1106 22013KT 9999 FEW015"
    },
    {
      "icao": "ESMS",
      "alert": "OK",
      "vis_m": 9999,
      "fzfg": false,
      "metar_trigger": false,
      "taf_trigger": false,
      "metar": "METAR ESMS 100550Z 24014KT 9999 FEW022 13/08 Q1013",
      "taf": "TAF ESMS 100527Z 1006/1106 20010KT 9999 FEW030"
    },
    {
      "icao": "ESSA",
      "alert": "OK",
      "vis_m": 9999,
      "fzfg": false,
      "metar_trigger": false,
      "taf_trigger": false,
      "metar": "METAR ESSA 100550Z 23014KT 9999 BKN016 BKN024 11/08 Q1006 NOSIG",
      "taf": "TAF ESSA 100530Z 1006/1106 23014KT 9999 BKN017"
    },
    {
      "icao": "EYKA",
      "alert": "OK",
      "vis_m": 9999,
      "fzfg": false,
      "metar_trigger": false,
      "taf_trigger": false,
      "metar": "METAR EYKA 100550Z 29007KT 250V340 9999 FEW019 SCT024 15/12 Q1016",
      "taf": "TAF EYKA 100500Z 1006/1106 VRB03KT 9000 SCT030"
    },
    {
      "icao": "EYPA",
      "alert": "OK",
      "vis_m": 9999,
      "fzfg": false,
      "metar_trigger": false,
      "taf_trigger": false,
      "metar": "METAR EYPA 100550Z VRB05KT 9999 FEW022 16/11 Q1015",
      "taf": "TAF EYPA 100500Z 1006/1106 VRB03KT 9000 SCT020"
    },
    {
      "icao": "EYVI",
      "alert": "OK",
      "vis_m": 9999,
      "fzfg": false,
      "metar_trigger": false,
      "taf_trigger": false,
      "metar": "METAR EYVI 100550Z 31007KT 270V330 9999 FEW043 14/12 Q1016 NOSIG",
      "taf": "TAF EYVI 100500Z 1006/1106 31010KT 9000 SCT010 BKN015"
    },
    {
      "icao": "GCFV",
      "alert": "OK",
      "vis_m": 9999,
      "fzfg": false,
      "metar_trigger": false,
      "taf_trigger": false,
      "metar": "METAR GCFV 100530Z 03016KT 9999 BKN022 19/14 Q1016",
      "taf": "TAF GCFV 100200Z 1003/1103 03014KT 9999 BKN020 TX24/1014Z TN19/1006Z"
    },
    {
      "icao": "GCLP",
      "alert": "OK",
      "vis_m": 9999,
      "fzfg": false,
      "metar_trigger": false,
      "taf_trigger": false,
      "metar": "METAR GCLP 100530Z 36020KT 9999 BKN025 20/16 Q1016 NOSIG",
      "taf": "TAF GCLP 100200Z 1003/1103 01023KT 9999 BKN020 TX24/1014Z TN19/1006Z"
    },
    {
      "icao": "GCTS",
      "alert": "OK",
      "vis_m": 9999,
      "fzfg": false,
      "metar_trigger": false,
      "taf_trigger": false,
      "metar": "METAR GCTS 100530Z 06013KT 9999 BKN020 20/15 Q1016 NOSIG",
      "taf": "TAF GCTS 100200Z 1003/1103 05018KT 9999 FEW025 TX26/1014Z TN19/1006Z"
    },
    {
      "icao": "GMAD",
      "alert": "OK",
      "vis_m": 6000,
      "fzfg": false,
      "metar_trigger": false,
      "taf_trigger": false,
      "metar": "METAR GMAD 100600Z 21005KT 180V240 6000 OVC006 19/16 Q1014 NOSIG",
      "taf": "TAF GMAD 100500Z 1006/1112 16005KT 6000 BKN006"
    },
    {
      "icao": "GMMN",
      "alert": "OK",
      "vis_m": 9999,
      "fzfg": false,
      "metar_trigger": false,
      "taf_trigger": false,
      "metar": "METAR GMMN 100600Z VRB02KT 9999 SCT013 14/12 Q1015 NOSIG",
      "taf": "TAF GMMN 100500Z 1006/1112 VRB02KT 9999 SCT010"
    },
    {
      "icao": "GMMX",
      "alert": "OK",
      "vis_m": 9999,
      "fzfg": false,
      "metar_trigger": false,
      "taf_trigger": false,
      "metar": "METAR GMMX 100600Z 25007KT CAVOK 17/14 Q1015 NOSIG",
      "taf": "TAF GMMX 100500Z 1006/1112 30006KT CAVOK"
    },
    {
      "icao": "HEGN",
      "alert": "OK",
      "vis_m": 9999,
      "fzfg": false,
      "metar_trigger": false,
      "taf_trigger": false,
      "metar": "METAR HEGN 100500Z 36010KT CAVOK 32/12 Q1009 NOSIG",
      "taf": "TAF HEGN 100500Z 1006/1112 02014KT CAVOK"
    },
    {
      "icao": "HEMA",
      "alert": "OK",
      "vis_m": 9999,
      "fzfg": false,
      "metar_trigger": false,
      "taf_trigger": false,
      "metar": "METAR HEMA 100500Z 29009KT CAVOK 31/03 Q1008 NOSIG",
      "taf": "TAF HEMA 100500Z 1006/1112 36015KT CAVOK"
    },
    {
      "icao": "HESH",
      "alert": "OK",
      "vis_m": 9999,
      "fzfg": false,
      "metar_trigger": false,
      "taf_trigger": false,
      "metar": "METAR HESH 100500Z 36010KT CAVOK 31/12 Q1009 NOSIG",
      "taf": "TAF HESH 100500Z 1006/1112 03012KT CAVOK"
    },
    {
      "icao": "HESX",
      "alert": "OK",
      "vis_m": 3000,
      "fzfg": false,
      "metar_trigger": false,
      "taf_trigger": false,
      "metar": "METAR HESX 100500Z 34007KT 3000 BR NSC 22/19 Q1011 NOSIG",
      "taf": "TAF HESX 100500Z 1006/1112 34009KT CAVOK"
    },
    {
      "icao": "LATI",
      "alert": "OK",
      "vis_m": 9999,
      "fzfg": false,
      "metar_trigger": false,
      "taf_trigger": false,
      "metar": "METAR LATI 100550Z VRB02KT CAVOK 24/17 Q1014 NOSIG",
      "taf": "TAF LATI 100500Z 1006/1106 VRB03KT CAVOK TX31/1012Z TN17/1104Z"
    },
    {
      "icao": "LBPD",
      "alert": "OK",
      "vis_m": 9999,
      "fzfg": false,
      "metar_trigger": false,
      "taf_trigger": false,
      "metar": "METAR LBPD 100600Z AUTO 00000KT 9999 NCD 21/16 Q1016 NOSIG",
      "taf": "TAF LBPD 100500Z 1006/1106 VRB03KT 9999 SCT070"
    },
    {
      "icao": "LBSF",
      "alert": "OK",
      "vis_m": 9999,
      "fzfg": false,
      "metar_trigger": false,
      "taf_trigger": false,
      "metar": "METAR LBSF 100600Z 12004KT 090V160 CAVOK 19/15 Q1017 NOSIG",
      "taf": "TAF LBSF 100500Z 1006/1106 11008KT 9999 SCT060"
    },
    {
      "icao": "LBWN",
      "alert": "OK",
      "vis_m": 9999,
      "fzfg": false,
      "metar_trigger": false,
      "taf_trigger": false,
      "metar": "METAR LBWN 100600Z VRB01KT CAVOK 22/15 Q1015 NOSIG",
      "taf": "TAF LBWN 100500Z 1006/1106 VRB04KT CAVOK"
    },
    {
      "icao": "LCLK",
      "alert": "OK",
      "vis_m": 9000,
      "fzfg": false,
      "metar_trigger": false,
      "taf_trigger": false,
      "metar": "METAR LCLK 100600Z 16006KT 130V190 9000 FEW010 26/22 Q1009 NOSIG",
      "taf": "TAF LCLK 100530Z 1006/1106 21005KT 9999 FEW009"
    },
    {
      "icao": "LCPH",
      "alert": "OK",
      "vis_m": 9999,
      "fzfg": false,
      "metar_trigger": false,
      "taf_trigger": false,
      "metar": "METAR LCPH 100600Z 24004KT 9999 FEW016 24/20 Q1009 NOSIG",
      "taf": "TAF LCPH 100530Z 1006/1106 04006KT 9999 FEW010"
    },
    {
      "icao": "LEAL",
      "alert": "OK",
      "vis_m": 9999,
      "fzfg": false,
      "metar_trigger": false,
      "taf_trigger": false,
      "metar": "METAR LEAL 100530Z 06006KT 020V080 CAVOK 24/20 Q1016 NOSIG",
      "taf": "TAF LEAL 100500Z 1006/1106 08010KT 9999 FEW010 TX28/1012Z TN21/1006Z"
    },
    {
      "icao": "LEBB",
      "alert": "OK",
      "vis_m": 9999,
      "fzfg": false,
      "metar_trigger": false,
      "taf_trigger": false,
      "metar": "METAR LEBB 100530Z 07003KT 020V100 9999 FEW034 13/12 Q1024 NOSIG",
      "taf": "TAF LEBB 100500Z 1006/1106 34009KT 9999 SCT030 BKN050 TX20/1013Z TN13/1104Z"
    },
    {
      "icao": "LEBL",
      "alert": "OK",
      "vis_m": 9999,
      "fzfg": false,
      "metar_trigger": false,
      "taf_trigger": false,
      "metar": "METAR LEBL 100530Z 28003KT 250V330 9999 FEW062 21/18 Q1017 NOSIG",
      "taf": "TAF LEBL 100500Z 1006/1106 VRB04KT 9999 FEW020 TX24/1012Z TN19/1006Z"
    },
    {
      "icao": "LECH",
      "alert": "OK",
      "vis_m": 9999,
      "fzfg": false,
      "metar_trigger": false,
      "taf_trigger": false,
      "metar": "METAR LECH 100530Z AUTO 03005KT CAVOK 17/11 Q1019",
      "taf": "TAF LECH 100500Z 1006/1106 VRB04KT 9999 FEW020 TX28/1013Z TN16/1006Z"
    },
    {
      "icao": "LEMD",
      "alert": "OK",
      "vis_m": 9999,
      "fzfg": false,
      "metar_trigger": false,
      "taf_trigger": false,
      "metar": "METAR LEMD 100530Z VRB01KT CAVOK 14/08 Q1019 NOSIG",
      "taf": "TAF LEMD 100500Z 1006/1112 04004KT CAVOK TX32/1016Z TN15/1105Z"
    },
    {
      "icao": "LEMG",
      "alert": "OK",
      "vis_m": 9999,
      "fzfg": false,
      "metar_trigger": false,
      "taf_trigger": false,
      "metar": "METAR LEMG 100530Z 29004KT 9999 FEW015 BKN024 20/18 Q1016 NOSIG",
      "taf": "TAF LEMG 100500Z 1006/1106 29005KT 9999 FEW010 TX27/1014Z TN19/1006Z"
    },
    {
      "icao": "LEVC",
      "alert": "OK",
      "vis_m": 9999,
      "fzfg": false,
      "metar_trigger": false,
      "taf_trigger": false,
      "metar": "METAR LEVC 100530Z 03005KT 330V070 9999 FEW018 OVC043 22/15 Q1018 NOSIG",
      "taf": "TAF LEVC 100500Z 1006/1106 03008KT 9999 FEW020 TX25/1012Z TN18/1006Z"
    },
    {
      "icao": "LEXJ",
      "alert": "OK",
      "vis_m": 9999,
      "fzfg": false,
      "metar_trigger": false,
      "taf_trigger": false,
      "metar": "METAR LEXJ 100530Z 22007KT 9999 FEW050 13/11 Q1024",
      "taf": "TAF LEXJ 100200Z 1003/1103 23007KT 9999 BKN035 TX18/1015Z TN12/1005Z"
    },
    {
      "icao": "LEZG",
      "alert": "OK",
      "vis_m": 9999,
      "fzfg": false,
      "metar_trigger": false,
      "taf_trigger": false,
      "metar": "METAR LEZG 100530Z 29014KT 270V330 CAVOK 14/06 Q1021 NOSIG",
      "taf": "TAF LEZG 100500Z 1006/1106 31018KT CAVOK TX25/1015Z TN13/1006Z"
    },
    {
      "icao": "LEZL",
      "alert": "OK",
      "vis_m": 9999,
      "fzfg": false,
      "metar_trigger": false,
      "taf_trigger": false,
      "metar": "METAR LEZL 100530Z VRB02KT CAVOK 19/15 Q1015 NOSIG",
      "taf": "TAF LEZL 100200Z 1003/1103 23009KT CAVOK TX37/1015Z TN19/1007Z"
    },
    {
      "icao": "LFBD",
      "alert": "OK",
      "vis_m": 9999,
      "fzfg": false,
      "metar_trigger": false,
      "taf_trigger": false,
      "metar": "METAR LFBD 100600Z AUTO 21005KT 9999 ///TCU 13/11 Q1023 TEMPO 4000 SHRA",
      "taf": "TAF LFBD 100500Z 1006/1112 VRB03KT CAVOK TX23/1112Z TN10/1104Z"
    },
    {
      "icao": "LFLL",
      "alert": "OK",
      "vis_m": 9999,
      "fzfg": false,
      "metar_trigger": false,
      "taf_trigger": false,
      "metar": "METAR LFLL 100600Z VRB01KT CAVOK 15/08 Q1019 NOSIG",
      "taf": "TAF LFLL 100500Z 1006/1112 VRB03KT CAVOK"
    },
    {
      "icao": "LFLS",
      "alert": "OK",
      "vis_m": 9999,
      "fzfg": false,
      "metar_trigger": false,
      "taf_trigger": false,
      "metar": "METAR LFLS 100600Z AUTO VRB02KT CAVOK 13/06 Q1019 NOSIG",
      "taf": "TAF LFLS 100200Z 1003/1103 VRB03KT CAVOK"
    },
    {
      "icao": "LFMN",
      "alert": "OK",
      "vis_m": 9999,
      "fzfg": false,
      "metar_trigger": false,
      "taf_trigger": false,
      "metar": "METAR LFMN 100600Z VRB02KT 9999 FEW016 BKN150 22/17 Q1011 NOSIG",
      "taf": "TAF LFMN 100200Z 1003/1109 VRB05KT CAVOK"
    },
    {
      "icao": "LFOB",
      "alert": "OK",
      "vis_m": 9999,
      "fzfg": false,
      "metar_trigger": false,
      "taf_trigger": false,
      "metar": "METAR LFOB 100600Z AUTO 24008KT 210V270 CAVOK 12/09 Q1019 NOSIG",
      "taf": "TAF LFOB 100500Z 1006/1106 26008KT CAVOK"
    },
    {
      "icao": "LFPO",
      "alert": "OK",
      "vis_m": 9999,
      "fzfg": false,
      "metar_trigger": false,
      "taf_trigger": false,
      "metar": "METAR LFPO 100600Z 32006KT CAVOK 12/09 Q1019 NOSIG",
      "taf": "TAF LFPO 100500Z 1006/1112 28006KT 9999 FEW015 BKN050"
    },
    {
      "icao": "LFSB",
      "alert": "OK",
      "vis_m": 9999,
      "fzfg": false,
      "metar_trigger": false,
      "taf_trigger": false,
      "metar": "METAR LFSB 100600Z AUTO 25003KT CAVOK 13/09 Q1018 TEMPO FEW050TCU",
      "taf": "TAF LFSB 100500Z 1006/1106 26005KT CAVOK"
    },
    {
      "icao": "LGAV",
      "alert": "OK",
      "vis_m": 9999,
      "fzfg": false,
      "metar_trigger": false,
      "taf_trigger": false,
      "metar": "METAR LGAV 100550Z 36009KT CAVOK 27/11 Q1014 NOSIG",
      "taf": "TAF LGAV 100500Z 1006/1106 03014KT 9999 FEW025"
    },
    {
      "icao": "LGTS",
      "alert": "OK",
      "vis_m": 9999,
      "fzfg": false,
      "metar_trigger": false,
      "taf_trigger": false,
      "metar": "METAR LGTS 100550Z VRB01KT CAVOK 25/18 Q1014 NOSIG",
      "taf": "TAF LGTS 100500Z 1006/1106 VRB03KT 9999 FEW030"
    },
    {
      "icao": "LHBP",
      "alert": "OK",
      "vis_m": 9999,
      "fzfg": false,
      "metar_trigger": false,
      "taf_trigger": false,
      "metar": "METAR LHBP 100600Z 36005KT 340V040 9999 VCSH FEW060CB BKN080 20/15 Q1015 NOSIG",
      "taf": "TAF LHBP 100515Z 1006/1106 10004KT CAVOK"
    },
    {
      "icao": "LHDC",
      "alert": "OK",
      "vis_m": 9999,
      "fzfg": false,
      "metar_trigger": false,
      "taf_trigger": false,
      "metar": "METAR LHDC 100545Z AUTO 08006KT 030V120 CAVOK 22/13 Q1014 NOSIG",
      "taf": "TAF LHDC 100515Z 1006/1015 08007KT CAVOK"
    },
    {
      "icao": "LIBD",
      "alert": "OK",
      "vis_m": 9999,
      "fzfg": false,
      "metar_trigger": false,
      "taf_trigger": false,
      "metar": "METAR LIBD 100550Z VRB02KT CAVOK 26/15 Q1013",
      "taf": "TAF LIBD 100500Z 1006/1106 VRB05KT CAVOK"
    },
    {
      "icao": "LIBG",
      "alert": "OK",
      "vis_m": 9999,
      "fzfg": false,
      "metar_trigger": false,
      "taf_trigger": false,
      "metar": "METAR LIBG 100550Z AUTO VRB02KT 9999 NCD 24/19 Q1014",
      "taf": "TAF LIBG 100500Z 1006/1106 VRB04KT CAVOK"
    },
    {
      "icao": "LIBP",
      "alert": "OK",
      "vis_m": 9999,
      "fzfg": false,
      "metar_trigger": false,
      "taf_trigger": false,
      "metar": "METAR LIBP 100550Z AUTO 23005KT 9999 NCD 25/16 Q1012",
      "taf": "TAF LIBP 100500Z 1006/1106 22005KT CAVOK"
    },
    {
      "icao": "LIBR",
      "alert": "OK",
      "vis_m": 9999,
      "fzfg": false,
      "metar_trigger": false,
      "taf_trigger": false,
      "metar": "METAR LIBR 100550Z 23004KT CAVOK 24/18 Q1013",
      "taf": "TAF LIBR 100500Z 1006/1106 20005KT CAVOK"
    },
    {
      "icao": "LICA",
      "alert": "OK",
      "vis_m": 9999,
      "fzfg": false,
      "metar_trigger": false,
      "taf_trigger": false,
      "metar": "METAR LICA 100550Z AUTO VRB01KT 9999 FEW018/// 24/19 Q1015",
      "taf": "TAF LICA 100500Z 1006/1106 VRB05KT 9999 SCT020"
    },
    {
      "icao": "LICC",
      "alert": "OK",
      "vis_m": 9999,
      "fzfg": false,
      "metar_trigger": false,
      "taf_trigger": false,
      "metar": "METAR LICC 100550Z 23004KT CAVOK 23/17 Q1014",
      "taf": "TAF LICC 100500Z 1006/1106 VRB05KT CAVOK"
    },
    {
      "icao": "LICJ",
      "alert": "OK",
      "vis_m": 9999,
      "fzfg": false,
      "metar_trigger": false,
      "taf_trigger": false,
      "metar": "METAR LICJ 100550Z VRB01KT CAVOK 24/17 Q1014",
      "taf": "TAF LICJ 100500Z 1006/1106 VRB05KT CAVOK"
    },
    {
      "icao": "LIMC",
      "alert": "OK",
      "vis_m": 9999,
      "fzfg": false,
      "metar_trigger": false,
      "taf_trigger": false,
      "metar": "METAR LIMC 100550Z 35005KT 9999 BKN020 19/16 Q1011 NOSIG",
      "taf": "TAF LIMC 100500Z 1006/1112 VRB05KT 9999 SCT040"
    },
    {
      "icao": "LIME",
      "alert": "OK",
      "vis_m": 9999,
      "fzfg": false,
      "metar_trigger": false,
      "taf_trigger": false,
      "metar": "METAR LIME 100550Z 15004KT 9999 SCT015 OVC030 20/16 Q1011 NOSIG",
      "taf": "TAF LIME 100500Z 1006/1106 VRB05KT 9999 SCT040"
    },
    {
      "icao": "LIMF",
      "alert": "OK",
      "vis_m": 9999,
      "fzfg": false,
      "metar_trigger": false,
      "taf_trigger": false,
      "metar": "METAR LIMF 100550Z VRB02KT 9999 SCT020 BKN035 20/18 Q1011",
      "taf": "TAF LIMF 100500Z 1006/1106 VRB04KT 9999 SCT050"
    },
    {
      "icao": "LIMJ",
      "alert": "OK",
      "vis_m": 9999,
      "fzfg": false,
      "metar_trigger": false,
      "taf_trigger": false,
      "metar": "METAR LIMJ 100550Z 13020KT 9999 FEW013 BKN023 22/19 Q1010",
      "taf": "TAF LIMJ 100500Z 1006/1106 15015KT 9999 SCT040"
    },
    {
      "icao": "LIPE",
      "alert": "OK",
      "vis_m": 9999,
      "fzfg": false,
      "metar_trigger": false,
      "taf_trigger": false,
      "metar": "METAR LIPE 100550Z VRB02KT CAVOK 23/18 Q1010",
      "taf": "TAF LIPE 100500Z 1006/1106 VRB05KT CAVOK"
    },
    {
      "icao": "LIPH",
      "alert": "OK",
      "vis_m": 9999,
      "fzfg": false,
      "metar_trigger": false,
      "taf_trigger": false,
      "metar": "METAR LIPH 100550Z 05010KT 010V080 9999 BKN030 BKN080 21/16 Q1011",
      "taf": "TAF LIPH 100500Z 1006/1106 04008KT 9999 BKN080"
    },
    {
      "icao": "LIPQ",
      "alert": "OK",
      "vis_m": 9999,
      "fzfg": false,
      "metar_trigger": false,
      "taf_trigger": false,
      "metar": "METAR LIPQ 100550Z AUTO 11007KT 9999 BKN073/// OVC100/// 22/15 Q1012",
      "taf": "TAF LIPQ 100500Z 1006/1106 07010KT 9999 BKN100"
    },
    {
      "icao": "LIPR",
      "alert": "OK",
      "vis_m": 9999,
      "fzfg": false,
      "metar_trigger": false,
      "taf_trigger": false,
      "metar": "METAR LIPR 100550Z 21008KT 9999 SCT070 24/12 Q1011",
      "taf": "TAF LIPR 100500Z 1006/1106 VRB05KT CAVOK"
    },
    {
      "icao": "LIPX",
      "alert": "OK",
      "vis_m": 9999,
      "fzfg": false,
      "metar_trigger": false,
      "taf_trigger": false,
      "metar": "METAR LIPX 100550Z 09007KT 050V130 9999 FEW040 24/17 Q1010",
      "taf": "TAF LIPX 100500Z 1006/1106 10010KT 9999 SCT050"
    },
    {
      "icao": "LIPY",
      "alert": "OK",
      "vis_m": 9999,
      "fzfg": false,
      "metar_trigger": false,
      "taf_trigger": false,
      "metar": "METAR LIPY 100550Z AUTO 25004KT 9999 BKN130/// 24/16 Q1011",
      "taf": "TAF LIPY 100500Z 1006/1106 VRB05KT CAVOK"
    },
    {
      "icao": "LIPZ",
      "alert": "OK",
      "vis_m": 9999,
      "fzfg": false,
      "metar_trigger": false,
      "taf_trigger": false,
      "metar": "METAR LIPZ 100550Z 05013KT 9999 FEW030 21/17 Q1011 NOSIG",
      "taf": "TAF LIPZ 100500Z 1006/1112 04013KT 9999 SCT070"
    },
    {
      "icao": "LIRF",
      "alert": "OK",
      "vis_m": 9999,
      "fzfg": false,
      "metar_trigger": false,
      "taf_trigger": false,
      "metar": "METAR LIRF 100550Z VRB02KT 9999 SCT010 22/20 Q1014 NOSIG",
      "taf": "TAF LIRF 100500Z 1006/1112 VRB05KT CAVOK"
    },
    {
      "icao": "LIRN",
      "alert": "OK",
      "vis_m": 9999,
      "fzfg": false,
      "metar_trigger": false,
      "taf_trigger": false,
      "metar": "METAR LIRN 100550Z VRB02KT CAVOK 23/14 Q1015 NOSIG",
      "taf": "TAF LIRN 100500Z 1006/1106 VRB05KT CAVOK"
    },
    {
      "icao": "LIRP",
      "alert": "OK",
      "vis_m": 9999,
      "fzfg": false,
      "metar_trigger": false,
      "taf_trigger": false,
      "metar": "METAR LIRP 100545Z 10003KT CAVOK 19/15 Q1013 NOSIG",
      "taf": "TAF LIRP 092300Z 1000/1024 10004KT 9999 FEW030"
    },
    {
      "icao": "LIRZ",
      "alert": "OK",
      "vis_m": 9999,
      "fzfg": false,
      "metar_trigger": false,
      "taf_trigger": false,
      "metar": "METAR LIRZ 100550Z AUTO 34003KT 290V030 9999 FEW150/// 20/15 Q1014",
      "taf": "TAF LIRZ 100500Z 1006/1106 VRB05KT CAVOK"
    },
    {
      "icao": "LJLJ",
      "alert": "OK",
      "vis_m": 9999,
      "fzfg": false,
      "metar_trigger": false,
      "taf_trigger": false,
      "metar": "METAR LJLJ 100530Z 10003KT 050V150 9999 FEW003 FEW020TCU BKN033 15/14 Q1016 NOSIG",
      "taf": "TAF LJLJ 100500Z 1006/1106 13010KT 9999 FEW015 BKN030 OVC040"
    },
    {
      "icao": "LKMT",
      "alert": "OK",
      "vis_m": 9999,
      "fzfg": false,
      "metar_trigger": false,
      "taf_trigger": false,
      "metar": "METAR LKMT 100600Z 07007KT 9999 -RA NSC 14/12 Q1018 NOSIG",
      "taf": "TAF LKMT 100500Z 1006/1106 02006KT 9999 -RA FEW030"
    },
    {
      "icao": "LKPR",
      "alert": "OK",
      "vis_m": 9999,
      "fzfg": false,
      "metar_trigger": false,
      "taf_trigger": false,
      "metar": "METAR LKPR 100600Z VRB02KT CAVOK 13/12 Q1017 NOSIG",
      "taf": "TAF LKPR 100500Z 1006/1112 20008KT CAVOK"
    },
    {
      "icao": "LLBG",
      "alert": "OK",
      "vis_m": 9999,
      "fzfg": false,
      "metar_trigger": false,
      "taf_trigger": false,
      "metar": "METAR LLBG 100550Z VRB02KT 9999 FEW020 26/16 Q1011 NOSIG",
      "taf": "TAF LLBG 100504Z 1006/1106 VRB04KT CAVOK TX30/1011Z TN20/1104Z"
    },
    {
      "icao": "LMML",
      "alert": "OK",
      "vis_m": 9999,
      "fzfg": false,
      "metar_trigger": false,
      "taf_trigger": false,
      "metar": "METAR LMML 100545Z 23003KT 200V280 CAVOK 25/22 Q1014 NOSIG",
      "taf": "TAF LMML 100500Z 1006/1106 VRB07KT 9999 FEW015"
    },
    {
      "icao": "LOWW",
      "alert": "OK",
      "vis_m": 9999,
      "fzfg": false,
      "metar_trigger": false,
      "taf_trigger": false,
      "metar": "METAR LOWW 100550Z 32007KT 9999 -RA FEW050 15/12 Q1018 NOSIG",
      "taf": "TAF LOWW 100515Z 1006/1112 32010KT 9999 FEW030 SCT050 TX18/1011Z TN11/1102Z"
    },
    {
      "icao": "LPFR",
      "alert": "OK",
      "vis_m": 9999,
      "fzfg": false,
      "metar_trigger": false,
      "taf_trigger": false,
      "metar": "METAR LPFR 100530Z 06008KT 010V120 CAVOK 23/09 Q1014",
      "taf": "TAF LPFR 100500Z 1006/1106 03010KT CAVOK"
    },
    {
      "icao": "LPMA",
      "alert": "OK",
      "vis_m": 9999,
      "fzfg": false,
      "metar_trigger": false,
      "taf_trigger": false,
      "metar": "METAR LPMA 100530Z 01015G26KT 340V040 9999 FEW015 18/11 Q1021",
      "taf": "TAF LPMA 100500Z 1006/1106 01017KT 9999 SCT015"
    },
    {
      "icao": "LPPR",
      "alert": "OK",
      "vis_m": 9999,
      "fzfg": false,
      "metar_trigger": false,
      "taf_trigger": false,
      "metar": "METAR LPPR 100530Z 35003KT 320V050 CAVOK 13/07 Q1021",
      "taf": "TAF LPPR 100500Z 1006/1106 36005KT CAVOK"
    },
    {
      "icao": "LPPS",
      "alert": "OK",
      "vis_m": 9999,
      "fzfg": false,
      "metar_trigger": false,
      "taf_trigger": false,
      "metar": "METAR LPPS 100530Z 04013KT 360V070 9999 SCT015 SCT030 17/12 Q1022",
      "taf": "TAF LPPS 100500Z 1006/1112 02015KT 9999 SCT014 SCT030"
    },
    {
      "icao": "LPPT",
      "alert": "OK",
      "vis_m": 9999,
      "fzfg": false,
      "metar_trigger": false,
      "taf_trigger": false,
      "metar": "METAR LPPT 100530Z 32011G22KT 290V350 CAVOK 16/10 Q1018",
      "taf": "TAF LPPT 100500Z 1006/1112 33017KT CAVOK"
    },
    {
      "icao": "LQBK",
      "alert": "OK",
      "vis_m": 9999,
      "fzfg": false,
      "metar_trigger": false,
      "taf_trigger": false,
      "metar": "METAR LQBK 100530Z VRB03KT 9999 BKN012 OVC030 18/14 Q1016 NOSIG",
      "taf": "TAF LQBK 100500Z 1006/1106 06005KT 9999 SCT040 TX26/1013Z TN13/1103Z"
    },
    {
      "icao": "LQSA",
      "alert": "OK",
      "vis_m": 9999,
      "fzfg": false,
      "metar_trigger": false,
      "taf_trigger": false,
      "metar": "METAR LQSA 100530Z VRB02KT CAVOK 16/13 Q1016 NOSIG",
      "taf": "TAF LQSA 100500Z 1006/1106 VRB02KT CAVOK TX30/1013Z TN13/1103Z"
    },
    {
      "icao": "LQTZ",
      "alert": "OK",
      "vis_m": 9999,
      "fzfg": false,
      "metar_trigger": false,
      "taf_trigger": false,
      "metar": "METAR LQTZ 100530Z 30007KT 9999 SCT022 19/18 Q1015",
      "taf": "TAF LQTZ 100500Z 1006/1106 07005KT CAVOK TX27/1013Z TN14/1103Z"
    },
    {
      "icao": "LRBC",
      "alert": "OK",
      "vis_m": 9999,
      "fzfg": false,
      "metar_trigger": false,
      "taf_trigger": false,
      "metar": "METAR LRBC 100530Z VRB03KT CAVOK 21/16 Q1016",
      "taf": "TAF LRBC 100500Z 1006/1015 VRB04KT CAVOK"
    },
    {
      "icao": "LRBS",
      "alert": "OK",
      "vis_m": 9999,
      "fzfg": false,
      "metar_trigger": false,
      "taf_trigger": false,
      "metar": "METAR LRBS 100530Z 03003KT 360V060 CAVOK 22/18 Q1015 NOSIG",
      "taf": "TAF LRBS 100500Z 1006/1106 VRB04KT CAVOK"
    },
    {
      "icao": "LRBV",
      "alert": "OK",
      "vis_m": 9999,
      "fzfg": false,
      "metar_trigger": false,
      "taf_trigger": false,
      "metar": "METAR LRBV 100530Z VRB02KT CAVOK 17/12 Q1017",
      "taf": "TAF LRBV 100500Z 1006/1015 VRB04KT CAVOK"
    },
    {
      "icao": "LRCL",
      "alert": "OK",
      "vis_m": 9999,
      "fzfg": false,
      "metar_trigger": false,
      "taf_trigger": false,
      "metar": "METAR LRCL 100530Z 09004KT CAVOK 17/12 Q1016",
      "taf": "TAF LRCL 100500Z 1006/1015 VRB04KT CAVOK"
    },
    {
      "icao": "LRCV",
      "alert": "OK",
      "vis_m": 9999,
      "fzfg": false,
      "metar_trigger": false,
      "taf_trigger": false,
      "metar": "METAR LRCV 100530Z 08008KT CAVOK 21/17 Q1015",
      "taf": "TAF LRCV 100500Z 1006/1015 09008KT CAVOK"
    },
    {
      "icao": "LRIA",
      "alert": "OK",
      "vis_m": 9999,
      "fzfg": false,
      "metar_trigger": false,
      "taf_trigger": false,
      "metar": "METAR LRIA 100530Z VRB02KT CAVOK 21/15 Q1016",
      "taf": "TAF LRIA 100500Z 1006/1015 VRB04KT CAVOK"
    },
    {
      "icao": "LROP",
      "alert": "OK",
      "vis_m": 9999,
      "fzfg": false,
      "metar_trigger": false,
      "taf_trigger": false,
      "metar": "METAR LROP 100530Z 02003KT 340V070 CAVOK 23/19 Q1015 NOSIG",
      "taf": "TAF LROP 100500Z 1006/1106 VRB04KT CAVOK"
    },
    {
      "icao": "LRSB",
      "alert": "OK",
      "vis_m": 9999,
      "fzfg": false,
      "metar_trigger": false,
      "taf_trigger": false,
      "metar": "METAR LRSB 100530Z VRB02KT CAVOK 20/14 Q1016",
      "taf": "TAF LRSB 100500Z 1006/1106 VRB04KT CAVOK"
    },
    {
      "icao": "LRSM",
      "alert": "OK",
      "vis_m": 9999,
      "fzfg": false,
      "metar_trigger": false,
      "taf_trigger": false,
      "metar": "METAR LRSM 100530Z 09005KT CAVOK 22/13 Q1014",
      "taf": "TAF LRSM 100500Z 1006/1015 13006KT CAVOK"
    },
    {
      "icao": "LRSV",
      "alert": "OK",
      "vis_m": 9999,
      "fzfg": false,
      "metar_trigger": false,
      "taf_trigger": false,
      "metar": "METAR LRSV 100530Z 31005KT 270V350 CAVOK 21/14 Q1016",
      "taf": "TAF LRSV 100500Z 1006/1015 VRB04KT CAVOK"
    },
    {
      "icao": "LRTM",
      "alert": "OK",
      "vis_m": 9999,
      "fzfg": false,
      "metar_trigger": false,
      "taf_trigger": false,
      "metar": "METAR LRTM 100530Z 06003KT 020V100 CAVOK 18/14 Q1016",
      "taf": "TAF LRTM 100500Z 1006/1015 VRB04KT CAVOK"
    },
    {
      "icao": "LRTR",
      "alert": "OK",
      "vis_m": 9999,
      "fzfg": false,
      "metar_trigger": false,
      "taf_trigger": false,
      "metar": "METAR LRTR 100530Z 10010KT CAVOK 22/14 Q1014",
      "taf": "TAF LRTR 100500Z 1006/1106 12008KT CAVOK"
    },
    {
      "icao": "LTAC",
      "alert": "OK",
      "vis_m": 9999,
      "fzfg": false,
      "metar_trigger": false,
      "taf_trigger": false,
      "metar": "METAR LTAC 100550Z 01007KT 340V040 9999 SCT040 BKN100 16/15 Q1016 NOSIG RMK RWY21C 01009KT RWY03L 01007KT 330V030 RWY21R 36008KT RWY03R 35005KT 310V010 RWY21L 01009KT",
      "taf": "TAF LTAC 100440Z 1006/1106 VRB02KT 9999 SCT040 BKN100"
    },
    {
      "icao": "LTFM",
      "alert": "OK",
      "vis_m": 9999,
      "fzfg": false,
      "metar_trigger": false,
      "taf_trigger": false,
      "metar": "METAR LTFM 100550Z 06011KT 030V090 9999 SCT013 22/17 Q1015 NOSIG RMK RWY17L 06011KT RWY34L 06009KT 020V080 RWY16R 05011KT RWY36 07012KT 020V080 RWY18 07010KT",
      "taf": "TAF LTFM 100440Z 1006/1112 05014KT 9999 SCT014"
    },
    {
      "icao": "LUKK",
      "alert": "OK",
      "vis_m": 9999,
      "fzfg": false,
      "metar_trigger": false,
      "taf_trigger": false,
      "metar": "METAR LUKK 100600Z VRB02KT CAVOK 22/16 Q1016 NOSIG",
      "taf": "TAF LUKK 100516Z 1006/1106 VRB06KT CAVOK"
    },
    {
      "icao": "LWOH",
      "alert": "OK",
      "vis_m": 9999,
      "fzfg": false,
      "metar_trigger": false,
      "taf_trigger": false,
      "metar": "METAR LWOH 100550Z VRB01KT CAVOK 19/15 Q1018",
      "taf": "TAF LWOH 100525Z 1006/1106 16006KT 9999 FEW040"
    },
    {
      "icao": "LWSK",
      "alert": "OK",
      "vis_m": 9999,
      "fzfg": false,
      "metar_trigger": false,
      "taf_trigger": false,
      "metar": "METAR LWSK 100550Z VRB02KT CAVOK 22/14 Q1016 NOSIG",
      "taf": "TAF LWSK 100525Z 1006/1106 VRB02KT CAVOK"
    },
    {
      "icao": "LYBE",
      "alert": "OK",
      "vis_m": 9999,
      "fzfg": false,
      "metar_trigger": false,
      "taf_trigger": false,
      "metar": "METAR LYBE 100530Z 22005KT CAVOK 20/15 Q1014 NOSIG",
      "taf": "TAF LYBE 100500Z 1006/1106 27006KT CAVOK TX33/1013Z TN17/1103Z"
    },
    {
      "icao": "LYNI",
      "alert": "OK",
      "vis_m": 9999,
      "fzfg": false,
      "metar_trigger": false,
      "taf_trigger": false,
      "metar": "METAR LYNI 100530Z 18003KT 120V270 CAVOK 18/13 Q1015 NOSIG",
      "taf": "TAF LYNI 100500Z 1006/1106 18005KT CAVOK TX32/1013Z TN15/1103Z"
    },
    {
      "icao": "LYPG",
      "alert": "OK",
      "vis_m": 9999,
      "fzfg": false,
      "metar_trigger": false,
      "taf_trigger": false,
      "metar": "METAR LYPG 100530Z 00000KT CAVOK 23/16 Q1014 NOSIG",
      "taf": "TAF LYPG 100500Z 1006/1106 16005KT 9999 FEW040 TX33/1014Z TN20/1103Z"
    },
    {
      "icao": "LZIB",
      "alert": "OK",
      "vis_m": 9999,
      "fzfg": false,
      "metar_trigger": false,
      "taf_trigger": false,
      "metar": "METAR LZIB 100600Z 30009KT 9999 -RA FEW011 16/12 Q1016 NOSIG",
      "taf": "TAF LZIB 100515Z 1006/1106 31009KT 9999 FEW030"
    },
    {
      "icao": "LZKZ",
      "alert": "OK",
      "vis_m": 9999,
      "fzfg": false,
      "metar_trigger": false,
      "taf_trigger": false,
      "metar": "METAR LZKZ 100600Z 01016KT 9999 FEW018 20/15 Q1016 NOSIG",
      "taf": "TAF LZKZ 100515Z 1006/1106 02010KT 9999 FEW040"
    },
    {
      "icao": "LZTT",
      "alert": "OK",
      "vis_m": 9999,
      "fzfg": false,
      "metar_trigger": false,
      "taf_trigger": false,
      "metar": "METAR LZTT 100600Z 08007KT 9999 BKN005 BKN013 BKN018 14/14 Q1018 NOSIG",
      "taf": ""
    },
    {
      "icao": "OEJN",
      "alert": "OK",
      "vis_m": 9999,
      "fzfg": false,
      "metar_trigger": false,
      "taf_trigger": false,
      "metar": "METAR OEJN 100600Z 33006KT CAVOK 32/21 Q1007 NOSIG",
      "taf": "TAF OEJN 100500Z 1006/1112 30015KT CAVOK"
    },
    {
      "icao": "OEMA",
      "alert": "OK",
      "vis_m": 9999,
      "fzfg": false,
      "metar_trigger": false,
      "taf_trigger": false,
      "metar": "METAR OEMA 100600Z VRB02KT CAVOK 36/01 Q1014 NOSIG",
      "taf": "TAF OEMA 100500Z 1006/1112 27010KT CAVOK"
    },
    {
      "icao": "OJAI",
      "alert": "OK",
      "vis_m": 5000,
      "fzfg": false,
      "metar_trigger": false,
      "taf_trigger": false,
      "metar": "METAR OJAI 100500Z 00000KT 5000 HZ NSC 21/08 Q1013 NOSIG",
      "taf": "TAF OJAI 100500Z 1006/1112 VRB02KT 5000 HZ NSC"
    },
    {
      "icao": "OMAA",
      "alert": "OK",
      "vis_m": 9999,
      "fzfg": false,
      "metar_trigger": false,
      "taf_trigger": false,
      "metar": "METAR OMAA 100600Z 27009KT 240V300 CAVOK 37/16 Q1003 NOSIG",
      "taf": "TAF OMAA 100500Z 1006/1112 30013KT 8000 NSC"
    },
    {
      "icao": "OMDB",
      "alert": "OK",
      "vis_m": 9999,
      "fzfg": false,
      "metar_trigger": false,
      "taf_trigger": false,
      "metar": "METAR OMDB 100600Z 23008KT 190V260 CAVOK 36/20 Q1002 BECMG 29013KT",
      "taf": "TAF OMDB 100500Z 1006/1112 21008KT CAVOK"
    },
    {
      "icao": "UAAA",
      "alert": "OK",
      "vis_m": 9999,
      "fzfg": false,
      "metar_trigger": false,
      "taf_trigger": false,
      "metar": "METAR UAAA 100530Z 05004MPS 010V090 9999 FEW050 SCT100 28/10 Q1014 NOSIG",
      "taf": "TAF UAAA 100502Z 1006/1106 03003G08MPS 9999 FEW050CB SCT100 TX31/1010Z TN17/1101Z"
    },
    {
      "icao": "UBBB",
      "alert": "OK",
      "vis_m": 9999,
      "fzfg": false,
      "metar_trigger": false,
      "taf_trigger": false,
      "metar": "METAR UBBB 100600Z 17008KT CAVOK 27/08 Q1015 NOSIG",
      "taf": "TAF UBBB 100456Z 1006/1106 16010KT 9999 SCT040 TX29/1010Z TN19/1100Z"
    },
    {
      "icao": "UDSG",
      "alert": "OK",
      "vis_m": 9999,
      "fzfg": false,
      "metar_trigger": false,
      "taf_trigger": false,
      "metar": "METAR UDSG 100530Z 24001KT 9999 FEW049 18/09 Q1020 NOSIG",
      "taf": "TAF UDSG 100500Z 1006/1106 24006KT 9999 SCT050"
    },
    {
      "icao": "UDYZ",
      "alert": "OK",
      "vis_m": 9999,
      "fzfg": false,
      "metar_trigger": false,
      "taf_trigger": false,
      "metar": "METAR UDYZ 100530Z 12003KT 9999 FEW046 22/12 Q1016 NOSIG",
      "taf": "TAF UDYZ 100500Z 1006/1106 24006KT 9999 FEW040 1006/1012 VRB16KT SCT040CB"
    },
    {
      "icao": "UGKO",
      "alert": "OK",
      "vis_m": 9999,
      "fzfg": false,
      "metar_trigger": false,
      "taf_trigger": false,
      "metar": "METAR UGKO 100530Z VRB02KT CAVOK 23/16 Q1012 NOSIG",
      "taf": "TAF UGKO 100500Z 1006/1106 26007KT CAVOK TX29/1011Z TN17/1102Z"
    }
  ]
}