{
  "ts_utc": "2026-01-08T02:56:52Z",
  "threshold_m": 150,
  "source": "stations_override.txt (ICAO list) + aviationweather.gov (METAR/TAF raw)",
  "station_count": 159,
  "stations": [
    {
      "icao": "BIKF",
      "alert": "OK",
      "vis_m": 9999,
      "fzfg": false,
      "metar_trigger": false,
      "taf_trigger": false,
      "metar": "METAR BIKF 080230Z 08020KT CAVOK 00/M06 Q0999",
      "taf": "TAF BIKF 080108Z 0803/0903 07015KT 9999 FEW045 TX02/0816Z TNM03/0903Z"
    },
    {
      "icao": "BKPR",
      "alert": "OK",
      "vis_m": 1200,
      "fzfg": false,
      "metar_trigger": false,
      "taf_trigger": false,
      "metar": "METAR BKPR 080230Z 35021KT 1200 R17/P2000N R35/0800D SN BKN010 OVC025 M04/M05 Q1003 NOSIG",
      "taf": "TAF BKPR 072330Z 0800/0824 34012KT 9999 SCT020 BKN040"
    },
    {
      "icao": "EBCI",
      "alert": "OK",
      "vis_m": 7000,
      "fzfg": false,
      "metar_trigger": false,
      "taf_trigger": false,
      "metar": "METAR EBCI 080250Z 20011KT 7000 SCT007 BKN030 01/M01 Q1007 NOSIG",
      "taf": "TAF EBCI 072300Z 0800/0906 21007KT 9999 SCT030"
    },
    {
      "icao": "EDDB",
      "alert": "OK",
      "vis_m": 9999,
      "fzfg": false,
      "metar_trigger": false,
      "taf_trigger": false,
      "metar": "METAR EDDB 080250Z AUTO 12005KT CAVOK M10/M12 Q1010 NOSIG",
      "taf": "TAF EDDB 072300Z 0800/0824 13006KT 9999 SCT030 BKN040"
    },
    {
      "icao": "EDDH",
      "alert": "OK",
      "vis_m": 9999,
      "fzfg": false,
      "metar_trigger": false,
      "taf_trigger": false,
      "metar": "METAR EDDH 080250Z AUTO 15010KT 9999 OVC013 M02/M04 Q1005 TEMPO OVC009",
      "taf": "TAF EDDH 072300Z 0800/0906 15012KT 9999 BKN020"
    },
    {
      "icao": "EDDK",
      "alert": "OK",
      "vis_m": 9999,
      "fzfg": false,
      "metar_trigger": false,
      "taf_trigger": false,
      "metar": "METAR EDDK 080250Z AUTO 20008KT 9999 FEW024 01/M02 Q1007 NOSIG",
      "taf": "TAF EDDK 072300Z 0800/0906 16008KT 9999 OVC020"
    },
    {
      "icao": "EDDN",
      "alert": "OK",
      "vis_m": 9000,
      "fzfg": false,
      "metar_trigger": false,
      "taf_trigger": false,
      "metar": "METAR EDDN 080250Z AUTO 13006KT 9000 -SN OVC013 M05/M07 Q1010",
      "taf": "TAF EDDN 072300Z 0800/0824 13007KT 9999 FEW010 BKN020"
    },
    {
      "icao": "EDDS",
      "alert": "OK",
      "vis_m": 9999,
      "fzfg": false,
      "metar_trigger": false,
      "taf_trigger": false,
      "metar": "METAR EDDS 080250Z AUTO 23005KT 160V310 9999 BKN020 M01/M05 Q1009 RESHSN",
      "taf": "TAF EDDS 072300Z 0800/0824 18004KT 9999 OVC020"
    },
    {
      "icao": "EDFH",
      "alert": "OK",
      "vis_m": 2800,
      "fzfg": false,
      "metar_trigger": false,
      "taf_trigger": false,
      "metar": "METAR EDFH 080250Z 23008KT 180V270 2800 -FZRA BR OVC001 M02/M02 Q1007",
      "taf": "TAF EDFH 072300Z 0800/0824 24010KT 9999 OVC008"
    },
    {
      "icao": "EDJA",
      "alert": "OK",
      "vis_m": 9999,
      "fzfg": false,
      "metar_trigger": false,
      "taf_trigger": false,
      "metar": "METAR EDJA 080250Z AUTO 23014G26KT 9999 // BKN012/// OVC027/// M04/M06 Q1010",
      "taf": "TAF EDJA 080200Z 0803/0812 23012KT 9999 SCT009 BKN035"
    },
    {
      "icao": "EDLW",
      "alert": "OK",
      "vis_m": 9999,
      "fzfg": false,
      "metar_trigger": false,
      "taf_trigger": false,
      "metar": "METAR EDLW 080250Z AUTO 20013KT 9999 // SCT017/// OVC020/// 01/M01 Q1005",
      "taf": "TAF EDLW 071700Z 0718/0818 18015G25KT 9999 BKN020"
    },
    {
      "icao": "EDNY",
      "alert": "OK",
      "vis_m": 9999,
      "fzfg": false,
      "metar_trigger": false,
      "taf_trigger": false,
      "metar": "METAR EDNY 080250Z AUTO 23005KT 9999 // OVC026/// M02/M04 Q1012",
      "taf": "TAF EDNY 080200Z 0803/0812 23008KT 9999 SCT015 BKN025"
    },
    {
      "icao": "EDSB",
      "alert": "OK",
      "vis_m": 9000,
      "fzfg": false,
      "metar_trigger": false,
      "taf_trigger": false,
      "metar": "METAR EDSB 080250Z AUTO 20011KT 9000 // FEW013/// BKN022/// OVC028/// M01/M02 Q1011",
      "taf": ""
    },
    {
      "icao": "EETN",
      "alert": "OK",
      "vis_m": 9999,
      "fzfg": false,
      "metar_trigger": false,
      "taf_trigger": false,
      "metar": "METAR EETN 080250Z 13003KT 9999 OVC031 M07/M09 Q1018",
      "taf": "TAF EETN 072330Z 0800/0824 VRB02KT 9999 OVC020"
    },
    {
      "icao": "EFTU",
      "alert": "OK",
      "vis_m": 9999,
      "fzfg": false,
      "metar_trigger": false,
      "taf_trigger": false,
      "metar": "METAR EFTU 080250Z AUTO 10009KT 9999 BKN036 M09/M12 Q1017",
      "taf": "TAF EFTU 080223Z 0803/0903 10009KT 9999 OVC035"
    },
    {
      "icao": "EGBB",
      "alert": "OK",
      "vis_m": 5000,
      "fzfg": false,
      "metar_trigger": false,
      "taf_trigger": false,
      "metar": "METAR EGBB 080250Z 18002KT 5000 BR FEW006 SCT020 OVC025 02/01 Q1004 RERA REDZ",
      "taf": ""
    },
    {
      "icao": "EGGP",
      "alert": "OK",
      "vis_m": 8000,
      "fzfg": false,
      "metar_trigger": false,
      "taf_trigger": false,
      "metar": "METAR EGGP 080250Z AUTO VRB01KT 8000 -RA OVC001/// 02/01 Q1004",
      "taf": ""
    },
    {
      "icao": "EGGW",
      "alert": "OK",
      "vis_m": 9999,
      "fzfg": false,
      "metar_trigger": false,
      "taf_trigger": false,
      "metar": "METAR EGGW 080250Z AUTO 27004KT 9999 -RA SCT040 02/00 Q1004",
      "taf": ""
    },
    {
      "icao": "EGKK",
      "alert": "OK",
      "vis_m": 9999,
      "fzfg": false,
      "metar_trigger": false,
      "taf_trigger": false,
      "metar": "METAR EGKK 080250Z VRB01KT 9999 BKN032 02/02 Q1005",
      "taf": "TAF EGKK 072253Z 0800/0906 20004KT 9999 FEW035"
    },
    {
      "icao": "EGNM",
      "alert": "OK",
      "vis_m": null,
      "fzfg": false,
      "metar_trigger": false,
      "taf_trigger": false,
      "metar": "",
      "taf": "TAF EGNM 071656Z 0718/0818 25012KT 9999 FEW015"
    },
    {
      "icao": "EGPD",
      "alert": "OK",
      "vis_m": 8000,
      "fzfg": false,
      "metar_trigger": false,
      "taf_trigger": false,
      "metar": "METAR EGPD 080250Z COR AUTO VRB01KT 8000 -RASN FEW024/// OVC040/// //////TCU 00/M00 Q1002 TEMPO RA",
      "taf": ""
    },
    {
      "icao": "EGPF",
      "alert": "OK",
      "vis_m": 7000,
      "fzfg": false,
      "metar_trigger": false,
      "taf_trigger": false,
      "metar": "METAR EGPF 080250Z AUTO 05002KT 7000 NCD M03/M03 Q1003",
      "taf": "TAF EGPF 072254Z 0800/0824 VRB04KT 9999 FEW040"
    },
    {
      "icao": "EHBK",
      "alert": "OK",
      "vis_m": 9999,
      "fzfg": false,
      "metar_trigger": false,
      "taf_trigger": false,
      "metar": "METAR EHBK 080225Z AUTO 19012KT 9999 BKN043 M00/M02 Q1006",
      "taf": "TAF EHBK 072321Z 0800/0906 20014KT 9999 OVC015"
    },
    {
      "icao": "EHEH",
      "alert": "OK",
      "vis_m": 9999,
      "fzfg": false,
      "metar_trigger": false,
      "taf_trigger": false,
      "metar": "METAR EHEH 080225Z AUTO 21010KT 9999 BKN030 OVC034 02/M00 Q1005 BLU",
      "taf": "TAF EHEH 072330Z 0800/0906 21014KT 9999 SCT025"
    },
    {
      "icao": "EKBI",
      "alert": "OK",
      "vis_m": 8000,
      "fzfg": false,
      "metar_trigger": false,
      "taf_trigger": false,
      "metar": "METAR EKBI 080250Z AUTO 15007KT 8000 OVC006/// M02/M03 Q1003",
      "taf": "TAF EKBI 080227Z 0803/0903 16009KT 9999 SCT008 BKN010"
    },
    {
      "icao": "EKCH",
      "alert": "OK",
      "vis_m": 9999,
      "fzfg": false,
      "metar_trigger": false,
      "taf_trigger": false,
      "metar": "METAR EKCH 080250Z AUTO 16015KT 9999 BKN017/// M01/M04 Q1007 TEMPO 17015G25KT",
      "taf": "TAF EKCH 080227Z 0803/0903 17015KT 9999 BKN016"
    },
    {
      "icao": "ENAL",
      "alert": "OK",
      "vis_m": 9999,
      "fzfg": false,
      "metar_trigger": false,
      "taf_trigger": false,
      "metar": "METAR ENAL 080250Z AUTO 14012KT 9999 NCD M04/M10 Q1005",
      "taf": "TAF ENAL 080200Z 0803/0812 13012KT CAVOK"
    },
    {
      "icao": "ENBR",
      "alert": "OK",
      "vis_m": 9999,
      "fzfg": false,
      "metar_trigger": false,
      "taf_trigger": false,
      "metar": "METAR ENBR 080250Z AUTO 07002KT 9999 NCD M11/M15 Q1004 RMK WIND 1200FT 02003KT",
      "taf": "TAF ENBR 072300Z 0800/0824 06005KT CAVOK"
    },
    {
      "icao": "ENGM",
      "alert": "OK",
      "vis_m": 3900,
      "fzfg": false,
      "metar_trigger": false,
      "taf_trigger": false,
      "metar": "METAR ENGM 080250Z 36007KT 3900 -SN SCT026 OVC034 M07/M08 Q0999",
      "taf": "TAF ENGM 072300Z 0800/0824 02013KT 3000 -SN OVC014"
    },
    {
      "icao": "ENHD",
      "alert": "OK",
      "vis_m": 9999,
      "fzfg": false,
      "metar_trigger": false,
      "taf_trigger": false,
      "metar": "METAR ENHD 080250Z AUTO 09005KT 9999 NCD M13/M15 Q1004",
      "taf": "TAF ENHD 080200Z 0803/0812 07005KT CAVOK"
    },
    {
      "icao": "ENTC",
      "alert": "OK",
      "vis_m": 9999,
      "fzfg": false,
      "metar_trigger": false,
      "taf_trigger": false,
      "metar": "METAR ENTC 080250Z AUTO 18015KT 9999 NCD M09/M14 Q1021 REDZ RESN RMK WIND 2600FT 18030KT",
      "taf": ""
    },
    {
      "icao": "ENTO",
      "alert": "OK",
      "vis_m": 9999,
      "fzfg": false,
      "metar_trigger": false,
      "taf_trigger": false,
      "metar": "METAR ENTO 080250Z AUTO 33006KT 9999 NCD M09/M11 Q1001",
      "taf": "TAF ENTO 072300Z 0800/0824 36012KT 3000 -SN BKN015"
    },
    {
      "icao": "ENVA",
      "alert": "OK",
      "vis_m": 9999,
      "fzfg": false,
      "metar_trigger": false,
      "taf_trigger": false,
      "metar": "METAR ENVA 080250Z AUTO 07012KT 9999 NCD M07/M13 Q1008 RMK WIND 670FT 08014KT",
      "taf": "TAF ENVA 072300Z 0800/0824 10008KT 9999 -SN SCT050"
    },
    {
      "icao": "ENZV",
      "alert": "OK",
      "vis_m": 9999,
      "fzfg": false,
      "metar_trigger": false,
      "taf_trigger": false,
      "metar": "METAR ENZV 080250Z AUTO 16002KT 9999 NCD M14/M16 Q1004",
      "taf": "TAF ENZV 072300Z 0800/0824 05005KT CAVOK"
    },
    {
      "icao": "EPGD",
      "alert": "OK",
      "vis_m": 2300,
      "fzfg": false,
      "metar_trigger": false,
      "taf_trigger": false,
      "metar": "METAR EPGD 080230Z 19004KT 150V210 2300 BR OVC002 M09/M10 Q1013",
      "taf": "TAF EPGD 072330Z 0800/0824 17005KT 6000 OVC002"
    },
    {
      "icao": "EPKK",
      "alert": "OK",
      "vis_m": 4000,
      "fzfg": false,
      "metar_trigger": false,
      "taf_trigger": false,
      "metar": "METAR EPKK 080230Z 00000KT 4000 -SN BR BKN026 M06/M08 Q1009",
      "taf": "TAF EPKK 080230Z 0803/0903 VRB02KT 5000 -SN BR FEW008 BKN030"
    },
    {
      "icao": "EPKT",
      "alert": "OK",
      "vis_m": 3800,
      "fzfg": false,
      "metar_trigger": false,
      "taf_trigger": false,
      "metar": "METAR EPKT 080230Z 01005KT 3800 -SN BR FEW006 M07/M09 Q1009",
      "taf": "TAF EPKT 072330Z 0800/0824 34005KT 8000 -SN SCT012 BKN018"
    },
    {
      "icao": "EPLB",
      "alert": "OK",
      "vis_m": 4600,
      "fzfg": false,
      "metar_trigger": false,
      "taf_trigger": false,
      "metar": "METAR EPLB 080230Z 01006KT 4600 -SN BR SCT028 OVC032 M06/M06 Q1009",
      "taf": "TAF EPLB 072330Z 0800/0824 03010KT 4000 -SN BR OVC030"
    },
    {
      "icao": "EPMO",
      "alert": "OK",
      "vis_m": 2800,
      "fzfg": false,
      "metar_trigger": false,
      "taf_trigger": false,
      "metar": "METAR EPMO 080230Z 35002KT 2800 BR OVC002 M13/M14 Q1013",
      "taf": "TAF EPMO 072330Z 0800/0824 VRB02KT 3500 BR NSC"
    },
    {
      "icao": "EPPO",
      "alert": "OK",
      "vis_m": 5000,
      "fzfg": false,
      "metar_trigger": false,
      "taf_trigger": false,
      "metar": "METAR EPPO 080230Z 11005KT 5000 BR OVC009 M07/M09 Q1012",
      "taf": "TAF EPPO 072330Z 0800/0824 14006KT 5000 BR OVC006"
    },
    {
      "icao": "EPRA",
      "alert": "OK",
      "vis_m": 4500,
      "fzfg": false,
      "metar_trigger": false,
      "taf_trigger": false,
      "metar": "METAR EPRA 080230Z 36005KT 4500 BR SCT005 OVC025 M09/M11 Q1010",
      "taf": "TAF EPRA 080230Z 0803/0812 36006KT 5000 BR BKN025"
    },
    {
      "icao": "EPRZ",
      "alert": "OK",
      "vis_m": 1600,
      "fzfg": false,
      "metar_trigger": false,
      "taf_trigger": false,
      "metar": "METAR EPRZ 080230Z 35007KT 1600 -SN BR OVC020 M05/M06 Q1007",
      "taf": "TAF EPRZ 072330Z 0800/0824 02007KT 4000 -SN BR BKN006"
    },
    {
      "icao": "EPSC",
      "alert": "OK",
      "vis_m": 5000,
      "fzfg": false,
      "metar_trigger": false,
      "taf_trigger": false,
      "metar": "METAR EPSC 080230Z 12011KT 5000 BR NSC M09/M10 Q1011",
      "taf": "TAF EPSC 072330Z 0800/0824 13008KT CAVOK"
    },
    {
      "icao": "EPSY",
      "alert": "OK",
      "vis_m": 300,
      "fzfg": true,
      "metar_trigger": false,
      "taf_trigger": false,
      "metar": "METAR EPSY 080230Z 01004KT 0300 R01/0300N FZFG VV001 M12/M13 Q1013",
      "taf": "TAF EPSY 080230Z 0803/0812 VRB02KT 0500 FZFG OVC001"
    },
    {
      "icao": "EPWA",
      "alert": "OK",
      "vis_m": 4000,
      "fzfg": false,
      "metar_trigger": false,
      "taf_trigger": false,
      "metar": "METAR EPWA 080230Z 33005KT 4000 BR FEW004 M10/M11 Q1012 NOSIG",
      "taf": "TAF EPWA 080230Z 0803/0903 35004KT 4000 BR NSC"
    },
    {
      "icao": "EPWR",
      "alert": "OK",
      "vis_m": 4500,
      "fzfg": false,
      "metar_trigger": false,
      "taf_trigger": false,
      "metar": "METAR EPWR 080230Z 28001KT 4500 BR BKN024 M09/M10 Q1012",
      "taf": "TAF EPWR 080230Z 0803/0903 VRB02KT 4000 BR BKN022"
    },
    {
      "icao": "ESGG",
      "alert": "OK",
      "vis_m": 1800,
      "fzfg": false,
      "metar_trigger": false,
      "taf_trigger": false,
      "metar": "METAR ESGG 080250Z 16011KT 1800 -SN VV015 M03/M04 Q1003",
      "taf": "TAF ESGG 080230Z 0803/0903 16013KT 7000 -SN SCT010 BKN015"
    },
    {
      "icao": "ESKN",
      "alert": "OK",
      "vis_m": 9999,
      "fzfg": false,
      "metar_trigger": false,
      "taf_trigger": false,
      "metar": "METAR ESKN 080250Z 18008KT 9999 BKN027 M00/M03 Q1010",
      "taf": "TAF ESKN 080230Z 0803/0903 18010KT 9999 OVC035"
    },
    {
      "icao": "ESMS",
      "alert": "OK",
      "vis_m": 9999,
      "fzfg": false,
      "metar_trigger": false,
      "taf_trigger": false,
      "metar": "METAR ESMS 080250Z 16011KT CAVOK M03/M06 Q1007",
      "taf": "TAF ESMS 080227Z 0803/0903 17012KT 9999 FEW016"
    },
    {
      "icao": "ESSA",
      "alert": "OK",
      "vis_m": 9999,
      "fzfg": false,
      "metar_trigger": false,
      "taf_trigger": false,
      "metar": "METAR ESSA 080250Z 15010KT CAVOK M01/M02 Q1010 NOSIG",
      "taf": "TAF ESSA 080230Z 0803/0903 15006KT 9999 BKN020"
    },
    {
      "icao": "EYKA",
      "alert": "OK",
      "vis_m": 3100,
      "fzfg": false,
      "metar_trigger": false,
      "taf_trigger": false,
      "metar": "METAR EYKA 080250Z VRB02KT 3100 BR OVC002 M09/M10 Q1016",
      "taf": "TAF EYKA 072316Z 0800/0824 VRB03KT 3000 BR OVC002"
    },
    {
      "icao": "EYPA",
      "alert": "OK",
      "vis_m": 2300,
      "fzfg": false,
      "metar_trigger": false,
      "taf_trigger": false,
      "metar": "METAR EYPA 080250Z 11004KT 2300 BR OVC002 M08/M09 Q1016",
      "taf": "TAF EYPA 072325Z 0800/0824 VRB03KT 1500 BR OVC002"
    },
    {
      "icao": "EYVI",
      "alert": "OK",
      "vis_m": 8000,
      "fzfg": false,
      "metar_trigger": false,
      "taf_trigger": false,
      "metar": "METAR EYVI 080250Z 06009KT 8000 OVC003 M08/M09 Q1014 NOSIG",
      "taf": "TAF EYVI 072314Z 0800/0824 VRB03KT 5000 BR OVC002"
    },
    {
      "icao": "GCFV",
      "alert": "OK",
      "vis_m": 9999,
      "fzfg": false,
      "metar_trigger": false,
      "taf_trigger": false,
      "metar": "METAR GCFV 080230Z AUTO 04019KT 9999 FEW038 17/10 Q1029",
      "taf": "TAF GCFV 080200Z 0803/0903 05018KT 9999 SCT035 TX20/0814Z TN14/0806Z"
    },
    {
      "icao": "GCLP",
      "alert": "OK",
      "vis_m": 9999,
      "fzfg": false,
      "metar_trigger": false,
      "taf_trigger": false,
      "metar": "METAR GCLP 080230Z 04016KT 9999 FEW035 BKN045 17/10 Q1029 NOSIG",
      "taf": "TAF GCLP 080200Z 0803/0903 04016KT 9999 BKN035 TX20/0814Z TN14/0806Z"
    },
    {
      "icao": "GCTS",
      "alert": "OK",
      "vis_m": 9999,
      "fzfg": false,
      "metar_trigger": false,
      "taf_trigger": false,
      "metar": "METAR GCTS 080230Z 07023KT 9999 SCT040 17/08 Q1028 NOSIG",
      "taf": "TAF GCTS 080200Z 0803/0903 05020KT 9999 SCT040 TX23/0814Z TN16/0806Z"
    },
    {
      "icao": "GMAD",
      "alert": "OK",
      "vis_m": 9999,
      "fzfg": false,
      "metar_trigger": false,
      "taf_trigger": false,
      "metar": "METAR GMAD 080230Z 09005KT CAVOK 07/06 Q1029 NOSIG",
      "taf": "TAF GMAD 072300Z 0800/0906 07006KT CAVOK"
    },
    {
      "icao": "GMMN",
      "alert": "OK",
      "vis_m": 9999,
      "fzfg": false,
      "metar_trigger": false,
      "taf_trigger": false,
      "metar": "METAR GMMN 080230Z 13005KT CAVOK 05/03 Q1031 NOSIG",
      "taf": "TAF GMMN 072300Z 0800/0906 16005KT CAVOK"
    },
    {
      "icao": "GMMX",
      "alert": "OK",
      "vis_m": 9999,
      "fzfg": false,
      "metar_trigger": false,
      "taf_trigger": false,
      "metar": "METAR GMMX 080230Z 11003KT CAVOK 05/03 Q1030 NOSIG",
      "taf": "TAF GMMX 072300Z 0800/0906 22006KT 8000 NSC"
    },
    {
      "icao": "HEGN",
      "alert": "OK",
      "vis_m": 9999,
      "fzfg": false,
      "metar_trigger": false,
      "taf_trigger": false,
      "metar": "METAR HEGN 080200Z 28004KT CAVOK 15/06 Q1019 NOSIG",
      "taf": "TAF HEGN 072300Z 0800/0906 28010KT CAVOK"
    },
    {
      "icao": "HEMA",
      "alert": "OK",
      "vis_m": 9999,
      "fzfg": false,
      "metar_trigger": false,
      "taf_trigger": false,
      "metar": "METAR HEMA 080200Z 30010KT CAVOK 20/08 Q1018 NOSIG",
      "taf": "TAF HEMA 072300Z 0800/0906 29012KT 6000 NSC"
    },
    {
      "icao": "HESH",
      "alert": "OK",
      "vis_m": 9999,
      "fzfg": false,
      "metar_trigger": false,
      "taf_trigger": false,
      "metar": "METAR HESH 080200Z 33005KT CAVOK 19/13 Q1020 NOSIG",
      "taf": "TAF HESH 072300Z 0800/0906 32009KT CAVOK"
    },
    {
      "icao": "HESX",
      "alert": "OK",
      "vis_m": 6000,
      "fzfg": false,
      "metar_trigger": false,
      "taf_trigger": false,
      "metar": "METAR HESX 080200Z 21004KT 6000 NSC 10/07 Q1019 NOSIG",
      "taf": "TAF HESX 072300Z 0800/0906 13007KT 6000 NSC"
    },
    {
      "icao": "LATI",
      "alert": "OK",
      "vis_m": 9999,
      "fzfg": false,
      "metar_trigger": false,
      "taf_trigger": false,
      "metar": "METAR LATI 080250Z 25006KT 210V290 9999 -RA FEW020 SCT035 BKN066 10/05 Q1003 NOSIG",
      "taf": "TAF LATI 072300Z 0800/0824 17008KT 9999 -RA SCT025 OVC050 TX09/0805Z TN02/0823Z"
    },
    {
      "icao": "LBPD",
      "alert": "OK",
      "vis_m": 1700,
      "fzfg": false,
      "metar_trigger": false,
      "taf_trigger": false,
      "metar": "METAR LBPD 080230Z AUTO 27005KT 220V310 1700 1200NE R30/1400N BR FEW001/// BKN004/// OVC059/// 09/09 Q0996",
      "taf": "TAF LBPD 072300Z 0800/0824 VRB04KT 1500 BR SCT040 BKN060"
    },
    {
      "icao": "LBSF",
      "alert": "OK",
      "vis_m": 9999,
      "fzfg": false,
      "metar_trigger": false,
      "taf_trigger": false,
      "metar": "METAR LBSF 080230Z AUTO 28022KT 9999 FEW009/// OVC020/// M01/M02 Q0998 REFZRA TEMPO 28026G36KT 5000 SN SCT005 BKN010",
      "taf": "TAF LBSF 072300Z 0800/0824 28014G30KT 3000 SNRA SCT005 BKN010 OVC015"
    },
    {
      "icao": "LBWN",
      "alert": "OK",
      "vis_m": 9999,
      "fzfg": false,
      "metar_trigger": false,
      "taf_trigger": false,
      "metar": "METAR LBWN 080230Z AUTO 12009KT 9999 SCT034/// 13/11 Q0999 NOSIG",
      "taf": "TAF LBWN 072300Z 0800/0824 12010KT 9999 SCT015 BKN025"
    },
    {
      "icao": "LCLK",
      "alert": "OK",
      "vis_m": 9999,
      "fzfg": false,
      "metar_trigger": false,
      "taf_trigger": false,
      "metar": "METAR LCLK 080230Z 31006KT CAVOK 13/11 Q1019 NOSIG",
      "taf": "TAF LCLK 072330Z 0800/0900 32006KT 9999 FEW025"
    },
    {
      "icao": "LCPH",
      "alert": "OK",
      "vis_m": 9999,
      "fzfg": false,
      "metar_trigger": false,
      "taf_trigger": false,
      "metar": "METAR LCPH 080230Z AUTO 09006KT 9999 NCD 14/00 Q1018 NOSIG",
      "taf": "TAF LCPH 072330Z 0800/0900 07007KT 9999 FEW025"
    },
    {
      "icao": "LEAL",
      "alert": "OK",
      "vis_m": 9999,
      "fzfg": false,
      "metar_trigger": false,
      "taf_trigger": false,
      "metar": "METAR LEAL 080230Z 30013KT 260V320 CAVOK 10/02 Q1027 NOSIG",
      "taf": "TAF LEAL 072300Z 0800/0824 29010KT CAVOK TX16/0814Z TN07/0806Z"
    },
    {
      "icao": "LEBB",
      "alert": "OK",
      "vis_m": 9999,
      "fzfg": false,
      "metar_trigger": false,
      "taf_trigger": false,
      "metar": "METAR LEBB 080230Z AUTO VRB02KT 9999 BKN036 BKN047 BKN060 12/08 Q1024",
      "taf": "TAF LEBB 072300Z 0800/0824 22009KT 9999 SCT020 BKN050 TX14/0814Z TN08/0803Z"
    },
    {
      "icao": "LEBL",
      "alert": "OK",
      "vis_m": 9999,
      "fzfg": false,
      "metar_trigger": false,
      "taf_trigger": false,
      "metar": "METAR LEBL 080230Z 33008KT 9999 FEW015 04/01 Q1021 NOSIG",
      "taf": "TAF LEBL 072300Z 0800/0824 33008KT 9999 FEW020 TX15/0813Z TN04/0806Z"
    },
    {
      "icao": "LECH",
      "alert": "OK",
      "vis_m": 9000,
      "fzfg": false,
      "metar_trigger": false,
      "taf_trigger": false,
      "metar": "METAR LECH 080230Z AUTO 29007KT 240V320 9000 NSC 08/01 Q1023",
      "taf": ""
    },
    {
      "icao": "LEMD",
      "alert": "OK",
      "vis_m": 3000,
      "fzfg": false,
      "metar_trigger": false,
      "taf_trigger": false,
      "metar": "SPECI LEMD 080239Z VRB02KT 3000 0900 BR BCFG OVC002 01/01 Q1028 NOSIG",
      "taf": ""
    },
    {
      "icao": "LEMG",
      "alert": "OK",
      "vis_m": 9999,
      "fzfg": false,
      "metar_trigger": false,
      "taf_trigger": false,
      "metar": "METAR LEMG 080230Z 26009KT 230V290 9999 FEW043 09/05 Q1030 NOSIG",
      "taf": "TAF LEMG 072300Z 0800/0824 29012KT 9999 SCT035 TX16/0814Z TN06/0806Z"
    },
    {
      "icao": "LEVC",
      "alert": "OK",
      "vis_m": 9999,
      "fzfg": false,
      "metar_trigger": false,
      "taf_trigger": false,
      "metar": "METAR LEVC 080230Z 24011KT CAVOK 08/01 Q1025 NOSIG",
      "taf": "TAF LEVC 072300Z 0800/0824 25010KT CAVOK TX15/0814Z TN06/0806Z"
    },
    {
      "icao": "LEXJ",
      "alert": "OK",
      "vis_m": 7000,
      "fzfg": false,
      "metar_trigger": false,
      "taf_trigger": false,
      "metar": "METAR LEXJ 080230Z AUTO 24008KT 210V280 7000 FEW032 SCT046 BKN085 11/06 Q1024",
      "taf": "TAF LEXJ 080200Z 0803/0903 24009KT 9999 SCT030 BKN060 TX15/0813Z TN08/0806Z"
    },
    {
      "icao": "LEZG",
      "alert": "OK",
      "vis_m": 9999,
      "fzfg": false,
      "metar_trigger": false,
      "taf_trigger": false,
      "metar": "METAR LEZG 080230Z 26006KT 9999 BKN045 08/03 Q1024 NOSIG",
      "taf": "TAF LEZG 072300Z 0800/0824 30007KT 9999 FEW030 TX12/0815Z TN05/0806Z"
    },
    {
      "icao": "LEZL",
      "alert": "OK",
      "vis_m": 8000,
      "fzfg": false,
      "metar_trigger": false,
      "taf_trigger": false,
      "metar": "METAR LEZL 080230Z AUTO 08003KT 8000 OVC029 09/08 Q1031",
      "taf": "TAF LEZL 080200Z 0803/0903 04004KT 9999 SCT020 TX14/0815Z TN05/0807Z"
    },
    {
      "icao": "LFBD",
      "alert": "OK",
      "vis_m": 9999,
      "fzfg": false,
      "metar_trigger": false,
      "taf_trigger": false,
      "metar": "METAR LFBD 080230Z AUTO 28018KT 9999 -RADZ OVC009/// ///TCU 12/11 Q1017 TEMPO 27015G25KT 3000 RA BKN007 OVC020",
      "taf": ""
    },
    {
      "icao": "LFLL",
      "alert": "OK",
      "vis_m": 9999,
      "fzfg": false,
      "metar_trigger": false,
      "taf_trigger": false,
      "metar": "METAR LFLL 080230Z 18006KT 9999 -SN BKN040 00/M03 Q1016 TEMPO 4000",
      "taf": ""
    },
    {
      "icao": "LFLS",
      "alert": "OK",
      "vis_m": 9999,
      "fzfg": false,
      "metar_trigger": false,
      "taf_trigger": false,
      "metar": "METAR LFLS 080230Z AUTO 10005KT 9999 FEW047 OVC064 M01/M03 Q1016 TEMPO 1200 SN BKN008",
      "taf": "TAF LFLS 080200Z 0803/0903 08005KT 9999 OVC050"
    },
    {
      "icao": "LFMN",
      "alert": "OK",
      "vis_m": 9999,
      "fzfg": false,
      "metar_trigger": false,
      "taf_trigger": false,
      "metar": "METAR LFMN 080230Z 32011KT CAVOK 02/M06 Q1011 NOSIG",
      "taf": "TAF LFMN 080200Z 0803/0909 33010KT CAVOK"
    },
    {
      "icao": "LFOB",
      "alert": "OK",
      "vis_m": 4400,
      "fzfg": false,
      "metar_trigger": false,
      "taf_trigger": false,
      "metar": "METAR LFOB 080230Z AUTO VRB03KT 4400 -DZ BR OVC003 03/03 Q1007 TEMPO FZRA BKN005 OVC008",
      "taf": "TAF LFOB 072300Z 0800/0824 22006KT 9999 OVC008"
    },
    {
      "icao": "LFPO",
      "alert": "OK",
      "vis_m": 2500,
      "fzfg": false,
      "metar_trigger": false,
      "taf_trigger": false,
      "metar": "METAR LFPO 080230Z AUTO 18006KT 2500 1100 R02/P2000 R25/P2000 R07/P2000 R24/P2000 R06/P2000 -DZ BR OVC003 02/02 Q1009 TEMPO 7000 VV///",
      "taf": ""
    },
    {
      "icao": "LFSB",
      "alert": "OK",
      "vis_m": 9999,
      "fzfg": false,
      "metar_trigger": false,
      "taf_trigger": false,
      "metar": "METAR LFSB 080230Z AUTO 21003KT 9999 FEW037 SCT054 BKN066 M02/M03 Q1013 NOSIG",
      "taf": ""
    },
    {
      "icao": "LGAV",
      "alert": "OK",
      "vis_m": 9999,
      "fzfg": false,
      "metar_trigger": false,
      "taf_trigger": false,
      "metar": "METAR LGAV 080250Z 22011KT 9999 SCT025 17/13 Q1005 NOSIG",
      "taf": "TAF LGAV 072300Z 0800/0824 20018G30KT 9999 FEW020 SCT030"
    },
    {
      "icao": "LGTS",
      "alert": "OK",
      "vis_m": 9999,
      "fzfg": false,
      "metar_trigger": false,
      "taf_trigger": false,
      "metar": "METAR LGTS 080250Z 17007KT 9999 FEW025 12/12 Q0999 NOSIG",
      "taf": "TAF LGTS 072300Z 0800/0824 16012KT 9999 SCT025"
    },
    {
      "icao": "LHBP",
      "alert": "OK",
      "vis_m": 9999,
      "fzfg": false,
      "metar_trigger": false,
      "taf_trigger": false,
      "metar": "METAR LHBP 080230Z 30009KT CAVOK M05/M08 Q1007 NOSIG",
      "taf": "TAF LHBP 072315Z 0800/0824 33006KT CAVOK"
    },
    {
      "icao": "LHDC",
      "alert": "OK",
      "vis_m": 3500,
      "fzfg": false,
      "metar_trigger": false,
      "taf_trigger": false,
      "metar": "METAR LHDC 080215Z AUTO 30005KT 3500 -SN BR OVC034 M04/M05 Q1005",
      "taf": ""
    },
    {
      "icao": "LIBD",
      "alert": "OK",
      "vis_m": 9000,
      "fzfg": false,
      "metar_trigger": false,
      "taf_trigger": false,
      "metar": "METAR LIBD 080250Z 28015G25KT 9000 -RA BKN030 03/02 Q1008",
      "taf": "TAF LIBD 072300Z 0800/0824 28018G28KT 7000 BKN020"
    },
    {
      "icao": "LIBG",
      "alert": "OK",
      "vis_m": null,
      "fzfg": false,
      "metar_trigger": false,
      "taf_trigger": false,
      "metar": "",
      "taf": "TAF LIBG 071700Z 0718/0803 32012KT 9999 SCT020"
    },
    {
      "icao": "LIBP",
      "alert": "OK",
      "vis_m": 9999,
      "fzfg": false,
      "metar_trigger": false,
      "taf_trigger": false,
      "metar": "METAR LIBP 080250Z AUTO 27006KT 9999 NCD 03/M04 Q1012",
      "taf": "TAF LIBP 072300Z 0800/0824 VRB05KT 9999 BKN030"
    },
    {
      "icao": "LIBR",
      "alert": "OK",
      "vis_m": 9999,
      "fzfg": false,
      "metar_trigger": false,
      "taf_trigger": false,
      "metar": "METAR LIBR 080250Z 28013KT CAVOK 05/02 Q1006",
      "taf": "TAF LIBR 072300Z 0800/0824 33018KT 9999 SCT030"
    },
    {
      "icao": "LICA",
      "alert": "OK",
      "vis_m": 9999,
      "fzfg": false,
      "metar_trigger": false,
      "taf_trigger": false,
      "metar": "METAR LICA 080250Z AUTO 28031KT 9999 FEW053/// 11/01 Q1009",
      "taf": "TAF LICA 072300Z 0800/0824 28020G32KT 7000 BKN020"
    },
    {
      "icao": "LICC",
      "alert": "OK",
      "vis_m": 9999,
      "fzfg": false,
      "metar_trigger": false,
      "taf_trigger": false,
      "metar": "METAR LICC 080250Z 25009KT CAVOK 07/03 Q1014",
      "taf": "TAF LICC 072300Z 0800/0824 27018KT 9999 FEW060"
    },
    {
      "icao": "LICJ",
      "alert": "OK",
      "vis_m": 9999,
      "fzfg": false,
      "metar_trigger": false,
      "taf_trigger": false,
      "metar": "METAR LICJ 080250Z 28023KT 9999 FEW030 SCT040 13/04 Q1015",
      "taf": "TAF LICJ 072300Z 0800/0824 28025G35KT 9999 SCT020"
    },
    {
      "icao": "LIMC",
      "alert": "OK",
      "vis_m": 9999,
      "fzfg": false,
      "metar_trigger": false,
      "taf_trigger": false,
      "metar": "METAR LIMC 080250Z 35004KT CAVOK M08/M09 Q1011 NOSIG",
      "taf": "TAF LIMC 072300Z 0800/0906 VRB04KT CAVOK"
    },
    {
      "icao": "LIME",
      "alert": "OK",
      "vis_m": 9999,
      "fzfg": false,
      "metar_trigger": false,
      "taf_trigger": false,
      "metar": "METAR LIME 080250Z 34002KT CAVOK M05/M09 Q1011 NOSIG",
      "taf": "TAF LIME 072300Z 0800/0824 VRB04KT CAVOK"
    },
    {
      "icao": "LIMF",
      "alert": "OK",
      "vis_m": 7000,
      "fzfg": false,
      "metar_trigger": false,
      "taf_trigger": false,
      "metar": "METAR LIMF 080250Z AUTO 33003KT 7000 NCD M04/M07 Q1011",
      "taf": "TAF LIMF 072300Z 0800/0824 VRB03KT CAVOK"
    },
    {
      "icao": "LIMJ",
      "alert": "OK",
      "vis_m": 9999,
      "fzfg": false,
      "metar_trigger": false,
      "taf_trigger": false,
      "metar": "METAR LIMJ 080250Z 06005KT CAVOK 04/M08 Q1011",
      "taf": "TAF LIMJ 072300Z 0800/0824 04010KT 9999 FEW050"
    },
    {
      "icao": "LIPE",
      "alert": "OK",
      "vis_m": 9999,
      "fzfg": false,
      "metar_trigger": false,
      "taf_trigger": false,
      "metar": "METAR LIPE 080250Z 20008KT CAVOK M03/M07 Q1012",
      "taf": "TAF LIPE 072300Z 0800/0824 VRB05KT 9999 FEW030"
    },
    {
      "icao": "LIPH",
      "alert": "OK",
      "vis_m": 9999,
      "fzfg": false,
      "metar_trigger": false,
      "taf_trigger": false,
      "metar": "METAR LIPH 080250Z AUTO 36002KT 9999 NCD M04/M07 Q1012",
      "taf": "TAF LIPH 072300Z 0800/0824 VRB05KT CAVOK"
    },
    {
      "icao": "LIPQ",
      "alert": "OK",
      "vis_m": 9999,
      "fzfg": false,
      "metar_trigger": false,
      "taf_trigger": false,
      "metar": "METAR LIPQ 080250Z AUTO 05004KT 9999 NCD M04/M08 Q1012",
      "taf": "TAF LIPQ 072300Z 0800/0824 VRB05KT 9999 SCT070"
    },
    {
      "icao": "LIPR",
      "alert": "OK",
      "vis_m": 9999,
      "fzfg": false,
      "metar_trigger": false,
      "taf_trigger": false,
      "metar": "METAR LIPR 080250Z AUTO 21003KT 9999 NCD M04/M06 Q1012",
      "taf": "TAF LIPR 072300Z 0800/0824 25008KT 9999 SCT030"
    },
    {
      "icao": "LIPX",
      "alert": "OK",
      "vis_m": 200,
      "fzfg": true,
      "metar_trigger": false,
      "taf_trigger": false,
      "metar": "METAR LIPX 080250Z VRB02KT 0200 R04/0350N FZFG VV001 M04/M04 Q1012",
      "taf": "TAF LIPX 072300Z 0800/0824 VRB05KT 2000 BR NSC"
    },
    {
      "icao": "LIPY",
      "alert": "OK",
      "vis_m": 9999,
      "fzfg": false,
      "metar_trigger": false,
      "taf_trigger": false,
      "metar": "METAR LIPY 080250Z AUTO 26007KT 9999 NCD 01/M04 Q1011",
      "taf": "TAF LIPY 072300Z 0800/0824 32014KT 9999 SCT030"
    },
    {
      "icao": "LIPZ",
      "alert": "OK",
      "vis_m": 9999,
      "fzfg": false,
      "metar_trigger": false,
      "taf_trigger": false,
      "metar": "METAR LIPZ 080250Z 02005KT CAVOK M05/M08 Q1012 NOSIG",
      "taf": "TAF LIPZ 072300Z 0800/0906 VRB05KT CAVOK"
    },
    {
      "icao": "LIRF",
      "alert": "OK",
      "vis_m": 9999,
      "fzfg": false,
      "metar_trigger": false,
      "taf_trigger": false,
      "metar": "METAR LIRF 080250Z VRB02KT CAVOK M00/M04 Q1012 NOSIG",
      "taf": "TAF LIRF 072300Z 0800/0906 34008KT CAVOK"
    },
    {
      "icao": "LIRN",
      "alert": "OK",
      "vis_m": 9999,
      "fzfg": false,
      "metar_trigger": false,
      "taf_trigger": false,
      "metar": "METAR LIRN 080250Z 33004KT 290V360 CAVOK 04/00 Q1010 NOSIG",
      "taf": "TAF LIRN 072300Z 0800/0824 27010KT 9999 SCT020"
    },
    {
      "icao": "LIRP",
      "alert": "OK",
      "vis_m": 9999,
      "fzfg": false,
      "metar_trigger": false,
      "taf_trigger": false,
      "metar": "METAR LIRP 080215Z 12007KT CAVOK M02/M03 Q1011 NOSIG",
      "taf": "TAF LIRP 072300Z 0800/0824 10006KT CAVOK"
    },
    {
      "icao": "LIRZ",
      "alert": "OK",
      "vis_m": 9999,
      "fzfg": false,
      "metar_trigger": false,
      "taf_trigger": false,
      "metar": "METAR LIRZ 080250Z AUTO 04005KT 9999 NCD M03/M05 Q1012",
      "taf": "TAF LIRZ 072300Z 0800/0824 VRB05KT 9999 FEW060"
    },
    {
      "icao": "LJLJ",
      "alert": "OK",
      "vis_m": 9999,
      "fzfg": false,
      "metar_trigger": false,
      "taf_trigger": false,
      "metar": "METAR LJLJ 080230Z VRB02KT 9999 BKN020 M06/M07 Q1010 NOSIG",
      "taf": "TAF LJLJ 072300Z 0800/0900 VRB02KT 9999 SCT010 OVC030"
    },
    {
      "icao": "LKMT",
      "alert": "OK",
      "vis_m": 6000,
      "fzfg": false,
      "metar_trigger": false,
      "taf_trigger": false,
      "metar": "METAR LKMT 080230Z 02003KT 6000 -SN OVC020 M06/M07 Q1010 NOSIG",
      "taf": "TAF LKMT 072300Z 0800/0824 02008KT 9999 OVC022"
    },
    {
      "icao": "LKPR",
      "alert": "OK",
      "vis_m": 9999,
      "fzfg": false,
      "metar_trigger": false,
      "taf_trigger": false,
      "metar": "METAR LKPR 080230Z 17006KT 9999 FEW030 M11/M12 Q1009 NOSIG",
      "taf": "TAF LKPR 080200Z 0803/0909 20006KT CAVOK"
    },
    {
      "icao": "LLBG",
      "alert": "OK",
      "vis_m": 9999,
      "fzfg": false,
      "metar_trigger": false,
      "taf_trigger": false,
      "metar": "METAR LLBG 080250Z VRB02KT CAVOK 11/07 Q1019 NOSIG",
      "taf": "TAF LLBG 072314Z 0800/0824 VRB04KT CAVOK"
    },
    {
      "icao": "LMML",
      "alert": "OK",
      "vis_m": 9999,
      "fzfg": false,
      "metar_trigger": false,
      "taf_trigger": false,
      "metar": "METAR LMML 080245Z 29028G43KT 9999 -SHRA FEW020TCU 11/05 Q1017 NOSIG",
      "taf": "TAF LMML 072300Z 0800/0824 29025G35KT 9999 SCT025"
    },
    {
      "icao": "LOWW",
      "alert": "OK",
      "vis_m": 9999,
      "fzfg": false,
      "metar_trigger": false,
      "taf_trigger": false,
      "metar": "METAR LOWW 080250Z 32012KT CAVOK M07/M11 Q1011 NOSIG",
      "taf": "TAF LOWW 080215Z 0803/0909 33010KT 9999 FEW050 TXM02/0814Z TNM08/0804Z"
    },
    {
      "icao": "LPFR",
      "alert": "OK",
      "vis_m": 9999,
      "fzfg": false,
      "metar_trigger": false,
      "taf_trigger": false,
      "metar": "METAR LPFR 080230Z 04004KT 020V090 CAVOK 05/04 Q1031",
      "taf": "TAF LPFR 072300Z 0800/0824 VRB05KT CAVOK"
    },
    {
      "icao": "LPMA",
      "alert": "OK",
      "vis_m": 9999,
      "fzfg": false,
      "metar_trigger": false,
      "taf_trigger": false,
      "metar": "METAR LPMA 080230Z 36008KT 330V030 9999 SCT015 16/09 Q1033",
      "taf": "TAF LPMA 072300Z 0800/0824 01008KT 9999 SCT015"
    },
    {
      "icao": "LPPR",
      "alert": "OK",
      "vis_m": 9999,
      "fzfg": false,
      "metar_trigger": false,
      "taf_trigger": false,
      "metar": "METAR LPPR 080230Z 12007KT 9999 FEW014 BKN030 08/06 Q1030",
      "taf": "TAF LPPR 072300Z 0800/0824 11005KT 9999 FEW015 SCT030"
    },
    {
      "icao": "LPPS",
      "alert": "OK",
      "vis_m": 9999,
      "fzfg": false,
      "metar_trigger": false,
      "taf_trigger": false,
      "metar": "METAR LPPS 080230Z 02005KT 340V060 9999 SCT015 14/11 Q1033",
      "taf": "TAF LPPS 072300Z 0800/0906 04007KT 9999 SCT015"
    },
    {
      "icao": "LPPT",
      "alert": "OK",
      "vis_m": 9999,
      "fzfg": false,
      "metar_trigger": false,
      "taf_trigger": false,
      "metar": "METAR LPPT 080230Z 29002KT 9999 BKN026 09/07 Q1031",
      "taf": "TAF LPPT 072300Z 0800/0906 VRB02KT 9999 FEW025"
    },
    {
      "icao": "LQBK",
      "alert": "OK",
      "vis_m": 9999,
      "fzfg": false,
      "metar_trigger": false,
      "taf_trigger": false,
      "metar": "METAR LQBK 080230Z 29005KT 9999 OVC020 M04/M06 Q1011 NOSIG",
      "taf": "TAF LQBK 072300Z 0800/0824 23006KT 9999 SCT010 BKN025 TXM03/0813Z TNM09/0824Z"
    },
    {
      "icao": "LQSA",
      "alert": "OK",
      "vis_m": 9999,
      "fzfg": false,
      "metar_trigger": false,
      "taf_trigger": false,
      "metar": "METAR LQSA 080230Z 33005KT 9999 SCT020 OVC030 M05/M06 Q1007",
      "taf": "TAF LQSA 072300Z 0800/0824 29005KT 7000 -SN SCT012 OVC030 TXM03/0813Z TNM07/0806Z"
    },
    {
      "icao": "LQTZ",
      "alert": "OK",
      "vis_m": 4400,
      "fzfg": false,
      "metar_trigger": false,
      "taf_trigger": false,
      "metar": "METAR LQTZ 080230Z 28004KT 4400 -SN BR BKN008 OVC026 M04/M04 Q1009",
      "taf": "TAF LQTZ 072300Z 0800/0824 27007KT 9999 SCT015 BKN030 TXM02/0813Z TNM08/0824Z"
    },
    {
      "icao": "LRBC",
      "alert": "OK",
      "vis_m": 6000,
      "fzfg": false,
      "metar_trigger": false,
      "taf_trigger": false,
      "metar": "METAR LRBC 080230Z 34008KT 6000 -FZRA OVC007 M01/M03 Q1002",
      "taf": "TAF LRBC 080200Z 0803/0812 34008KT 5000 -FZRA BR BKN005 OVC020"
    },
    {
      "icao": "LRBS",
      "alert": "OK",
      "vis_m": 3000,
      "fzfg": false,
      "metar_trigger": false,
      "taf_trigger": false,
      "metar": "METAR LRBS 080230Z 08020KT 3000 +SHRA BKN004 SCT040CB 01/01 Q0999 NOSIG",
      "taf": "TAF LRBS 072300Z 0800/0824 07015KT 9999 OVC005"
    },
    {
      "icao": "LRBV",
      "alert": "OK",
      "vis_m": 6000,
      "fzfg": false,
      "metar_trigger": false,
      "taf_trigger": false,
      "metar": "METAR LRBV 080230Z AUTO 30008KT 6000 RASN OVC005/// 01/00 Q0998 RERA REUP",
      "taf": "TAF LRBV 080200Z 0803/0812 30010KT 5000 -SN OVC005"
    },
    {
      "icao": "LRCL",
      "alert": "OK",
      "vis_m": 2000,
      "fzfg": false,
      "metar_trigger": false,
      "taf_trigger": false,
      "metar": "METAR LRCL 080230Z 26007KT 240V300 2000 SN BR OVC013 M03/M03 Q1001",
      "taf": "TAF LRCL 080200Z 0803/0812 27010KT 3000 SN BR BKN005 BKN035"
    },
    {
      "icao": "LRCV",
      "alert": "OK",
      "vis_m": 8000,
      "fzfg": false,
      "metar_trigger": false,
      "taf_trigger": false,
      "metar": "METAR LRCV 080230Z 29009KT 8000 -FZDZ OVC002 M00/M00 Q1000",
      "taf": "TAF LRCV 080200Z 0803/0812 VRB04KT 5000 -FZDZ BR BKN005 OVC015"
    },
    {
      "icao": "LRIA",
      "alert": "OK",
      "vis_m": 6000,
      "fzfg": false,
      "metar_trigger": false,
      "taf_trigger": false,
      "metar": "METAR LRIA 080230Z 31005KT 6000 -FZRA OVC003 M01/M01 Q1003",
      "taf": "TAF LRIA 080200Z 0803/0812 31006KT 5000 BR OVC005"
    },
    {
      "icao": "LROP",
      "alert": "OK",
      "vis_m": 3500,
      "fzfg": false,
      "metar_trigger": false,
      "taf_trigger": false,
      "metar": "METAR LROP 080230Z 08016KT 3500 SHRASN SCT004 BKN020CB OVC040 01/01 Q0999 RESHRASN NOSIG",
      "taf": "TAF LROP 072300Z 0800/0824 07015KT 9999 OVC005"
    },
    {
      "icao": "LRSB",
      "alert": "OK",
      "vis_m": 4500,
      "fzfg": false,
      "metar_trigger": false,
      "taf_trigger": false,
      "metar": "METAR LRSB 080230Z 29008KT 4500 -SN BR SCT010 OVC025 M02/M03 Q1000",
      "taf": "TAF LRSB 072300Z 0800/0824 33004KT 5000 -FZRA OVC005"
    },
    {
      "icao": "LRSM",
      "alert": "OK",
      "vis_m": 1600,
      "fzfg": false,
      "metar_trigger": false,
      "taf_trigger": false,
      "metar": "METAR LRSM 080230Z AUTO 29007KT 1600 R19/1700D SN VV006 M04/M05 Q1003",
      "taf": "TAF LRSM 080200Z 0803/0812 30006KT 3000 -SN BR BKN010 OVC030"
    },
    {
      "icao": "LRSV",
      "alert": "OK",
      "vis_m": 4000,
      "fzfg": false,
      "metar_trigger": false,
      "taf_trigger": false,
      "metar": "METAR LRSV 080230Z 35008KT 4000 -FZRA BR OVC005 M04/M04 Q1002",
      "taf": "TAF LRSV 080200Z 0803/0812 34008KT 5000 -FZRA BR BKN005 OVC010"
    },
    {
      "icao": "LRTM",
      "alert": "OK",
      "vis_m": 3300,
      "fzfg": false,
      "metar_trigger": false,
      "taf_trigger": false,
      "metar": "METAR LRTM 080230Z AUTO 25008KT 3300 R25////// -SN FEW005/// BKN008/// OVC013/// M02/M03 Q1001",
      "taf": "TAF LRTM 080200Z 0803/0812 25008KT 3000 SN BKN005 BKN035"
    },
    {
      "icao": "LRTR",
      "alert": "OK",
      "vis_m": 2500,
      "fzfg": false,
      "metar_trigger": false,
      "taf_trigger": false,
      "metar": "METAR LRTR 080230Z 29010KT 2500 -SN BR FEW003 BKN015 OVC030 M04/M04 Q1007",
      "taf": "TAF LRTR 072300Z 0800/0824 32008KT 3000 -SN BR BKN010 OVC040"
    },
    {
      "icao": "LTAC",
      "alert": "OK",
      "vis_m": 3300,
      "fzfg": false,
      "metar_trigger": false,
      "taf_trigger": false,
      "metar": "METAR LTAC 080250Z 05004KT 020V080 3300 -RA BR BKN025 BKN080 03/02 Q1016 NOSIG",
      "taf": "TAF LTAC 072240Z 0800/0824 VRB02KT 9999 SCT040 BKN100"
    },
    {
      "icao": "LTFM",
      "alert": "OK",
      "vis_m": 9999,
      "fzfg": false,
      "metar_trigger": false,
      "taf_trigger": false,
      "metar": "METAR LTFM 080250Z 20026KT 9999 SCT040 BKN080 16/10 Q1003 RESHRA NOSIG",
      "taf": "TAF LTFM 072240Z 0800/0906 19022G32KT 9999 -SHRA SCT040 BKN080"
    },
    {
      "icao": "LUKK",
      "alert": "OK",
      "vis_m": 2600,
      "fzfg": false,
      "metar_trigger": false,
      "taf_trigger": false,
      "metar": "METAR LUKK 080230Z 01006KT 2600 -DZ BR OVC002 01/01 Q1003 TEMPO 1000 BR",
      "taf": "TAF LUKK 072301Z 0800/0824 04005KT 4000 -DZ BR OVC003"
    },
    {
      "icao": "LWOH",
      "alert": "OK",
      "vis_m": null,
      "fzfg": false,
      "metar_trigger": false,
      "taf_trigger": false,
      "metar": "",
      "taf": "TAF LWOH 080215Z 0803/0903 19012KT 9999 RA SCT015 OVC035"
    },
    {
      "icao": "LWSK",
      "alert": "OK",
      "vis_m": 9999,
      "fzfg": false,
      "metar_trigger": false,
      "taf_trigger": false,
      "metar": "METAR LWSK 080250Z 03015KT 9999 DZ SCT015 OVC035 01/M01 Q1001 NOSIG",
      "taf": "TAF LWSK 080215Z 0803/0903 36012KT 9999 SCT015 OVC035"
    },
    {
      "icao": "LYBE",
      "alert": "OK",
      "vis_m": 4000,
      "fzfg": false,
      "metar_trigger": false,
      "taf_trigger": false,
      "metar": "METAR LYBE 080230Z 29008KT 4000 -SN SCT005 BKN015 M04/M05 Q1009 TEMPO 2500 SN BKN005 BKN025",
      "taf": "TAF LYBE 072300Z 0800/0824 29010KT 5000 -SN BKN008 OVC027 TXM04/0800Z TNM08/0824Z"
    },
    {
      "icao": "LYNI",
      "alert": "OK",
      "vis_m": 9999,
      "fzfg": false,
      "metar_trigger": false,
      "taf_trigger": false,
      "metar": "METAR LYNI 080230Z 30008KT 260V320 9999 FEW008 BKN015 OVC090 M03/M04 Q1006 NOSIG",
      "taf": "TAF LYNI 072300Z 0800/0824 32012KT 7000 -SN BKN010 BKN030 OVC070 TXM02/0813Z TNM08/0821Z"
    },
    {
      "icao": "LYPG",
      "alert": "OK",
      "vis_m": 9999,
      "fzfg": false,
      "metar_trigger": false,
      "taf_trigger": false,
      "metar": "METAR LYPG 080230Z 16006KT 9999 -RA FEW020 SCT040 OVC070 08/07 Q1001 NOSIG",
      "taf": "TAF LYPG 072300Z 0800/0824 36005KT 9999 SCT040 OVC070 TX08/0800Z TN00/0824Z"
    },
    {
      "icao": "LZIB",
      "alert": "OK",
      "vis_m": 9999,
      "fzfg": false,
      "metar_trigger": false,
      "taf_trigger": false,
      "metar": "METAR LZIB 080230Z 32009KT 9999 FEW025 M05/M10 Q1010 NOSIG",
      "taf": "TAF LZIB 072315Z 0800/0900 33007KT 9999 SCT028"
    },
    {
      "icao": "LZKZ",
      "alert": "OK",
      "vis_m": 9999,
      "fzfg": false,
      "metar_trigger": false,
      "taf_trigger": false,
      "metar": "METAR LZKZ 080230Z 36015KT 9999 -SN BKN021 M03/M08 Q1004 NOSIG",
      "taf": "TAF LZKZ 072315Z 0800/0900 36025KT 9999 DRSN NSC"
    },
    {
      "icao": "LZTT",
      "alert": "OK",
      "vis_m": 9999,
      "fzfg": false,
      "metar_trigger": false,
      "taf_trigger": false,
      "metar": "METAR LZTT 080230Z 22003KT 9999 OVC016 M08/M10 Q1003",
      "taf": ""
    },
    {
      "icao": "OEJN",
      "alert": "OK",
      "vis_m": 9999,
      "fzfg": false,
      "metar_trigger": false,
      "taf_trigger": false,
      "metar": "METAR OEJN 080200Z 30005KT CAVOK 23/17 Q1016 NOSIG",
      "taf": "TAF OEJN 072300Z 0800/0906 VRB03KT 7000 NSC"
    },
    {
      "icao": "OEMA",
      "alert": "OK",
      "vis_m": 9999,
      "fzfg": false,
      "metar_trigger": false,
      "taf_trigger": false,
      "metar": "METAR OEMA 080200Z 00000KT CAVOK 15/00 Q1024 NOSIG",
      "taf": "TAF OEMA 072300Z 0800/0906 09010KT CAVOK"
    },
    {
      "icao": "OJAI",
      "alert": "OK",
      "vis_m": null,
      "fzfg": false,
      "metar_trigger": false,
      "taf_trigger": false,
      "metar": "",
      "taf": "TAF OJAI 072300Z 0800/0906 12010KT 5000 HZ NSC"
    },
    {
      "icao": "OMAA",
      "alert": "OK",
      "vis_m": 9999,
      "fzfg": false,
      "metar_trigger": false,
      "taf_trigger": false,
      "metar": "METAR OMAA 080200Z 19004KT 9999 SCT040 15/12 Q1020 NOSIG",
      "taf": "TAF OMAA 072300Z 0800/0906 VRB02KT 8000 NSC"
    },
    {
      "icao": "OMDB",
      "alert": "OK",
      "vis_m": 9999,
      "fzfg": false,
      "metar_trigger": false,
      "taf_trigger": false,
      "metar": "METAR OMDB 080230Z 21003KT 150V220 CAVOK 16/09 Q1021 NOSIG",
      "taf": "TAF OMDB 072300Z 0800/0906 12005KT 8000 NSC"
    },
    {
      "icao": "UAAA",
      "alert": "OK",
      "vis_m": 1400,
      "fzfg": false,
      "metar_trigger": false,
      "taf_trigger": false,
      "metar": "METAR UAAA 080230Z 00000MPS 1400 R23L/1400D BR OVC003 M06/M07 Q1032 NOSIG RMK QBB110",
      "taf": "TAF UAAA 072305Z 0800/0824 24003MPS 1100 BR FU BKN003 OVC011 TXM00/0809Z TNM07/0801Z"
    },
    {
      "icao": "UBBB",
      "alert": "OK",
      "vis_m": 150,
      "fzfg": false,
      "metar_trigger": false,
      "taf_trigger": false,
      "metar": "METAR UBBB 080230Z 14006KT 0150 R16/0500 R17/0750 FG VV001 05/05 Q1019 NOSIG",
      "taf": "TAF UBBB 072259Z 0800/0824 17005KT 0300 FG VV002 TX09/0810Z TN04/0803Z"
    },
    {
      "icao": "UDSG",
      "alert": "OK",
      "vis_m": 5000,
      "fzfg": false,
      "metar_trigger": false,
      "taf_trigger": false,
      "metar": "METAR UDSG 080230Z 03001KT 5000 BR NSC M11/M12 Q1024 NOSIG",
      "taf": "TAF UDSG 072258Z 0800/0824 VRB06KT 5000 BR FEW040"
    },
    {
      "icao": "UDYZ",
      "alert": "OK",
      "vis_m": 2200,
      "fzfg": false,
      "metar_trigger": false,
      "taf_trigger": false,
      "metar": "METAR UDYZ 080230Z VRB01KT 2200 BR NSC M09/M11 Q1027 NOSIG",
      "taf": "TAF UDYZ 072300Z 0800/0824 VRB04KT 1200 BR FEW040"
    },
    {
      "icao": "UGKO",
      "alert": "OK",
      "vis_m": 9999,
      "fzfg": false,
      "metar_trigger": false,
      "taf_trigger": false,
      "metar": "METAR UGKO 080230Z 09012KT 9999 SCT019 BKN089 09/M01 Q1017 NOSIG",
      "taf": "TAF UGKO 072300Z 0800/0824 07010KT CAVOK TX18/0812Z TN06/0804Z"
    }
  ]
}