{
  "ts_utc": "2026-02-19T17:00:41Z",
  "threshold_m": 150,
  "source": "stations_override.txt (ICAO list) + aviationweather.gov (METAR/TAF raw)",
  "station_count": 159,
  "stations": [
    {
      "icao": "BIKF",
      "alert": "OK",
      "vis_m": 9999,
      "fzfg": false,
      "metar_trigger": false,
      "taf_trigger": false,
      "metar": "METAR BIKF 191630Z 07009KT CAVOK 01/M07 Q1009",
      "taf": "TAF BIKF 191631Z 1918/2018 05012KT CAVOK TX01/2015Z TNM03/2006Z"
    },
    {
      "icao": "BKPR",
      "alert": "OK",
      "vis_m": null,
      "fzfg": false,
      "metar_trigger": false,
      "taf_trigger": false,
      "metar": "",
      "taf": "TAF BKPR 191130Z 1912/2012 16008KT 9999 SCT050"
    },
    {
      "icao": "EBCI",
      "alert": "OK",
      "vis_m": 9999,
      "fzfg": false,
      "metar_trigger": false,
      "taf_trigger": false,
      "metar": "METAR EBCI 191650Z 10005KT 350V140 9999 SCT011 BKN030 07/05 Q1002 TEMPO BKN010",
      "taf": "TAF EBCI 191114Z 1912/2018 10006KT 9999 SCT009 BKN012"
    },
    {
      "icao": "EDDB",
      "alert": "OK",
      "vis_m": 9999,
      "fzfg": false,
      "metar_trigger": false,
      "taf_trigger": false,
      "metar": "METAR EDDB 191650Z AUTO 07006KT CAVOK M03/M07 Q1014 NOSIG",
      "taf": "TAF EDDB 191100Z 1912/2012 09007KT CAVOK"
    },
    {
      "icao": "EDDH",
      "alert": "OK",
      "vis_m": 9999,
      "fzfg": false,
      "metar_trigger": false,
      "taf_trigger": false,
      "metar": "METAR EDDH 191650Z AUTO 08010KT CAVOK M02/M07 Q1015 NOSIG",
      "taf": "TAF EDDH 191100Z 1912/2018 09012KT CAVOK"
    },
    {
      "icao": "EDDK",
      "alert": "OK",
      "vis_m": 9999,
      "fzfg": false,
      "metar_trigger": false,
      "taf_trigger": false,
      "metar": "METAR EDDK 191650Z AUTO 11008KT 080V150 9999 BKN033 04/00 Q1005 NOSIG",
      "taf": "TAF EDDK 191100Z 1912/2018 10012KT 9999 SCT040"
    },
    {
      "icao": "EDDN",
      "alert": "OK",
      "vis_m": 3600,
      "fzfg": false,
      "metar_trigger": false,
      "taf_trigger": false,
      "metar": "METAR EDDN 191650Z AUTO 01002KT 3600 -SN BR FEW020 SCT025 00/M00 Q1005 RESN TEMPO 5000",
      "taf": "TAF EDDN 191100Z 1912/2012 07005KT 9999 FEW007 BKN025"
    },
    {
      "icao": "EDDS",
      "alert": "OK",
      "vis_m": 9999,
      "fzfg": false,
      "metar_trigger": false,
      "taf_trigger": false,
      "metar": "METAR EDDS 191650Z AUTO 07005KT 050V110 9999 FEW009 BKN029 OVC046 04/02 Q1002 NOSIG",
      "taf": "TAF EDDS 191100Z 1912/2012 09006KT 9999 BKN045"
    },
    {
      "icao": "EDFH",
      "alert": "OK",
      "vis_m": 300,
      "fzfg": true,
      "metar_trigger": false,
      "taf_trigger": false,
      "metar": "METAR EDFH 191620Z 11008KT 080V140 0300 R21/0750N FZFG VV/// M00/M00 Q1002",
      "taf": ""
    },
    {
      "icao": "EDJA",
      "alert": "OK",
      "vis_m": 4500,
      "fzfg": false,
      "metar_trigger": false,
      "taf_trigger": false,
      "metar": "METAR EDJA 191650Z 05002KT 4500 -DZ SCT002 BKN019 OVC027 02/01 Q1002",
      "taf": "TAF EDJA 191400Z 1915/1924 VRB03KT 8000 SCT003 BKN015"
    },
    {
      "icao": "EDLW",
      "alert": "OK",
      "vis_m": 9999,
      "fzfg": false,
      "metar_trigger": false,
      "taf_trigger": false,
      "metar": "METAR EDLW 191650Z 05013KT CAVOK 03/M02 Q1006",
      "taf": "TAF EDLW 191100Z 1912/2012 07013KT 9999 SCT040"
    },
    {
      "icao": "EDNY",
      "alert": "OK",
      "vis_m": 8000,
      "fzfg": false,
      "metar_trigger": false,
      "taf_trigger": false,
      "metar": "METAR EDNY 191650Z VRB01KT 8000 -RA FEW021 OVC026 05/04 Q1003",
      "taf": "TAF EDNY 191400Z 1915/1924 10005KT 8000 FEW008 BKN035"
    },
    {
      "icao": "EDSB",
      "alert": "OK",
      "vis_m": 9999,
      "fzfg": false,
      "metar_trigger": false,
      "taf_trigger": false,
      "metar": "METAR EDSB 191650Z 01008KT 9999 -RA BKN025 OVC036 06/04 Q1002",
      "taf": "TAF EDSB 191100Z 1912/2012 01005KT 9999 BKN006 BKN045"
    },
    {
      "icao": "EETN",
      "alert": "OK",
      "vis_m": 8000,
      "fzfg": false,
      "metar_trigger": false,
      "taf_trigger": false,
      "metar": "METAR EETN 191650Z 01005KT 330V060 8000 -SN OVC012 M10/M12 Q1011 NOSIG",
      "taf": "TAF EETN 191130Z 1912/2012 05010KT 9000 BKN012 BKN030"
    },
    {
      "icao": "EFTU",
      "alert": "OK",
      "vis_m": 9999,
      "fzfg": false,
      "metar_trigger": false,
      "taf_trigger": false,
      "metar": "METAR EFTU 191650Z AUTO 01003KT 330V050 CAVOK M11/M14 Q1013",
      "taf": "TAF EFTU 191432Z 1915/2015 01003KT CAVOK"
    },
    {
      "icao": "EGBB",
      "alert": "OK",
      "vis_m": 9999,
      "fzfg": false,
      "metar_trigger": false,
      "taf_trigger": false,
      "metar": "METAR EGBB 191650Z 30007KT 9999 SCT012 BKN027 04/02 Q1007",
      "taf": ""
    },
    {
      "icao": "EGGP",
      "alert": "OK",
      "vis_m": 9999,
      "fzfg": false,
      "metar_trigger": false,
      "taf_trigger": false,
      "metar": "METAR EGGP 191650Z 29008KT 9999 FEW019 BKN027 05/02 Q1008",
      "taf": "TAF EGGP 191102Z 1912/2012 VRB04KT 9999 SCT025"
    },
    {
      "icao": "EGGW",
      "alert": "OK",
      "vis_m": 8000,
      "fzfg": false,
      "metar_trigger": false,
      "taf_trigger": false,
      "metar": "METAR EGGW 191650Z AUTO 33009KT 8000 BKN005 BKN011 BKN015 04/03 Q1006",
      "taf": ""
    },
    {
      "icao": "EGKK",
      "alert": "OK",
      "vis_m": 9999,
      "fzfg": false,
      "metar_trigger": false,
      "taf_trigger": false,
      "metar": "METAR EGKK 191650Z 32008KT 9999 SCT010 BKN018 05/04 Q1006",
      "taf": ""
    },
    {
      "icao": "EGNM",
      "alert": "OK",
      "vis_m": 3000,
      "fzfg": false,
      "metar_trigger": false,
      "taf_trigger": false,
      "metar": "METAR EGNM 191650Z VRB01KT 3000 -DZ BR SCT003 OVC005 03/02 Q1007",
      "taf": ""
    },
    {
      "icao": "EGPD",
      "alert": "OK",
      "vis_m": 9999,
      "fzfg": false,
      "metar_trigger": false,
      "taf_trigger": false,
      "metar": "METAR EGPD 191650Z COR 17013KT 9999 BKN024 05/01 Q1007 NOSIG",
      "taf": "TAF EGPD 191058Z 1912/2012 16012KT 9999 SCT030"
    },
    {
      "icao": "EGPF",
      "alert": "OK",
      "vis_m": 9999,
      "fzfg": false,
      "metar_trigger": false,
      "taf_trigger": false,
      "metar": "METAR EGPF 191650Z AUTO 18007KT 9999 -RA OVC027 06/02 Q1007",
      "taf": "TAF EGPF 191104Z 1912/2012 09009KT 9999 FEW015 SCT025"
    },
    {
      "icao": "EHBK",
      "alert": "OK",
      "vis_m": 9999,
      "fzfg": false,
      "metar_trigger": false,
      "taf_trigger": false,
      "metar": "METAR EHBK 191655Z AUTO 10015KT 070V130 9999 OVC037 05/02 Q1003 NOSIG",
      "taf": "TAF EHBK 191118Z 1912/2018 09012KT 9999 OVC030"
    },
    {
      "icao": "EHEH",
      "alert": "OK",
      "vis_m": 9999,
      "fzfg": false,
      "metar_trigger": false,
      "taf_trigger": false,
      "metar": "METAR EHEH 191625Z AUTO 09006KT 060V120 9999 FEW023 OVC200 04/02 Q1004 BLU NOSIG",
      "taf": "TAF EHEH 191124Z 1912/2018 08011KT 6000 -RA SCT006 BKN008"
    },
    {
      "icao": "EKBI",
      "alert": "OK",
      "vis_m": 9999,
      "fzfg": false,
      "metar_trigger": false,
      "taf_trigger": false,
      "metar": "METAR EKBI 191650Z AUTO 08006KT 9999 NCD M05/M08 Q1016",
      "taf": "TAF EKBI 191427Z 1915/2015 08008KT CAVOK"
    },
    {
      "icao": "EKCH",
      "alert": "OK",
      "vis_m": 9999,
      "fzfg": false,
      "metar_trigger": false,
      "taf_trigger": false,
      "metar": "METAR EKCH 191650Z AUTO 35003KT 9999 NCD M03/M08 Q1018 NOSIG",
      "taf": "TAF EKCH 191427Z 1915/2015 01008KT CAVOK"
    },
    {
      "icao": "ENAL",
      "alert": "OK",
      "vis_m": 9999,
      "fzfg": false,
      "metar_trigger": false,
      "taf_trigger": false,
      "metar": "METAR ENAL 191650Z 19011KT 9999 NSC 04/M04 Q1009",
      "taf": "TAF ENAL 191400Z 1915/1924 20012KT 9999 FEW040 BKN050"
    },
    {
      "icao": "ENBR",
      "alert": "OK",
      "vis_m": 9999,
      "fzfg": false,
      "metar_trigger": false,
      "taf_trigger": false,
      "metar": "METAR ENBR 191650Z 17011KT CAVOK 00/M05 Q1014 NOSIG RMK WIND 1200FT 17021KT",
      "taf": "TAF ENBR 191100Z 1912/2012 16010KT CAVOK"
    },
    {
      "icao": "ENGM",
      "alert": "OK",
      "vis_m": 9999,
      "fzfg": false,
      "metar_trigger": false,
      "taf_trigger": false,
      "metar": "METAR ENGM 191650Z 00000KT CAVOK M11/M13 Q1014 NOSIG",
      "taf": "TAF ENGM 191100Z 1912/2012 20005KT CAVOK"
    },
    {
      "icao": "ENHD",
      "alert": "OK",
      "vis_m": 9999,
      "fzfg": false,
      "metar_trigger": false,
      "taf_trigger": false,
      "metar": "METAR ENHD 191650Z 15008KT CAVOK M00/M04 Q1015",
      "taf": "TAF ENHD 191400Z 1915/1923 17015KT CAVOK"
    },
    {
      "icao": "ENTC",
      "alert": "OK",
      "vis_m": 9999,
      "fzfg": false,
      "metar_trigger": false,
      "taf_trigger": false,
      "metar": "METAR ENTC 191650Z 19006KT 140V240 CAVOK M07/M11 Q1010 NOSIG RMK WIND 2600FT 18016KT",
      "taf": "TAF ENTC 191100Z 1912/2012 22009KT 9999 FEW015 SCT040"
    },
    {
      "icao": "ENTO",
      "alert": "OK",
      "vis_m": 9999,
      "fzfg": false,
      "metar_trigger": false,
      "taf_trigger": false,
      "metar": "METAR ENTO 191650Z 20006KT CAVOK M06/M08 Q1016 NOSIG",
      "taf": ""
    },
    {
      "icao": "ENVA",
      "alert": "OK",
      "vis_m": 9999,
      "fzfg": false,
      "metar_trigger": false,
      "taf_trigger": false,
      "metar": "METAR ENVA 191650Z 17008KT 130V190 9999 SCT049 00/M06 Q1008 NOSIG RMK WIND 670FT 19020KT",
      "taf": ""
    },
    {
      "icao": "ENZV",
      "alert": "OK",
      "vis_m": 9999,
      "fzfg": false,
      "metar_trigger": false,
      "taf_trigger": false,
      "metar": "METAR ENZV 191650Z 15006KT CAVOK M00/M07 Q1015 NOSIG",
      "taf": "TAF ENZV 191100Z 1912/2012 15008KT CAVOK"
    },
    {
      "icao": "EPGD",
      "alert": "OK",
      "vis_m": 9999,
      "fzfg": false,
      "metar_trigger": false,
      "taf_trigger": false,
      "metar": "METAR EPGD 191630Z 30007KT 9999 FEW031 BKN043 M06/M08 Q1014",
      "taf": "TAF EPGD 191130Z 1912/2012 29010KT 9999 BKN025"
    },
    {
      "icao": "EPKK",
      "alert": "OK",
      "vis_m": 7000,
      "fzfg": false,
      "metar_trigger": false,
      "taf_trigger": false,
      "metar": "METAR EPKK 191630Z 05008KT 7000 OVC021 M01/M05 Q1011",
      "taf": "TAF EPKK 191430Z 1915/2015 05008KT 6000 FEW016 SCT024"
    },
    {
      "icao": "EPKT",
      "alert": "OK",
      "vis_m": 9999,
      "fzfg": false,
      "metar_trigger": false,
      "taf_trigger": false,
      "metar": "METAR EPKT 191630Z 07006KT CAVOK M02/M07 Q1011",
      "taf": "TAF EPKT 191130Z 1912/2012 06004KT 9999 FEW024"
    },
    {
      "icao": "EPLB",
      "alert": "OK",
      "vis_m": 9999,
      "fzfg": false,
      "metar_trigger": false,
      "taf_trigger": false,
      "metar": "METAR EPLB 191630Z 36005KT 9999 FEW005 M05/M08 Q1013",
      "taf": "TAF EPLB 191130Z 1912/2012 27006KT 9999 SCT025"
    },
    {
      "icao": "EPMO",
      "alert": "OK",
      "vis_m": 9999,
      "fzfg": false,
      "metar_trigger": false,
      "taf_trigger": false,
      "metar": "METAR EPMO 191630Z 26002KT 9999 BKN033 M03/M07 Q1014",
      "taf": "TAF EPMO 191130Z 1912/2012 25005KT 9999 SCT030"
    },
    {
      "icao": "EPPO",
      "alert": "OK",
      "vis_m": 9999,
      "fzfg": false,
      "metar_trigger": false,
      "taf_trigger": false,
      "metar": "METAR EPPO 191630Z 03006KT 9999 SCT034 M02/M09 Q1014",
      "taf": "TAF EPPO 191130Z 1912/2012 06010KT CAVOK"
    },
    {
      "icao": "EPRA",
      "alert": "OK",
      "vis_m": 9999,
      "fzfg": false,
      "metar_trigger": false,
      "taf_trigger": false,
      "metar": "METAR EPRA 191630Z 35003KT CAVOK M04/M10 Q1013",
      "taf": "TAF EPRA 191430Z 1915/1924 36006KT 9999 SCT040"
    },
    {
      "icao": "EPRZ",
      "alert": "OK",
      "vis_m": 9999,
      "fzfg": false,
      "metar_trigger": false,
      "taf_trigger": false,
      "metar": "METAR EPRZ 191630Z 08006KT 9999 OVC024 M02/M06 Q1012",
      "taf": "TAF EPRZ 191130Z 1912/2012 08005KT 9999 SCT040"
    },
    {
      "icao": "EPSC",
      "alert": "OK",
      "vis_m": 9999,
      "fzfg": false,
      "metar_trigger": false,
      "taf_trigger": false,
      "metar": "METAR EPSC 191630Z 01003KT 320V040 9999 FEW026 M01/M06 Q1015",
      "taf": "TAF EPSC 191130Z 1912/2012 VRB03KT 9999 SCT030"
    },
    {
      "icao": "EPSY",
      "alert": "OK",
      "vis_m": 9999,
      "fzfg": false,
      "metar_trigger": false,
      "taf_trigger": false,
      "metar": "METAR EPSY 191630Z VRB03KT 9999 SCT021 BKN030 M02/M07 Q1013",
      "taf": "TAF EPSY 191430Z 1915/1924 28006KT 9999 BKN030"
    },
    {
      "icao": "EPWA",
      "alert": "OK",
      "vis_m": 9999,
      "fzfg": false,
      "metar_trigger": false,
      "taf_trigger": false,
      "metar": "METAR EPWA 191630Z 29004KT 9999 BKN030 M05/M09 Q1014 NOSIG",
      "taf": "TAF EPWA 191430Z 1915/2015 28005KT 9999 SCT030"
    },
    {
      "icao": "EPWR",
      "alert": "OK",
      "vis_m": 9999,
      "fzfg": false,
      "metar_trigger": false,
      "taf_trigger": false,
      "metar": "METAR EPWR 191630Z 04004KT CAVOK M02/M06 Q1013",
      "taf": "TAF EPWR 191430Z 1915/2015 07008KT CAVOK"
    },
    {
      "icao": "ESGG",
      "alert": "OK",
      "vis_m": 9999,
      "fzfg": false,
      "metar_trigger": false,
      "taf_trigger": false,
      "metar": "METAR ESGG 191650Z 04003KT CAVOK M05/M08 Q1016",
      "taf": "TAF ESGG 191430Z 1915/2015 VRB03KT CAVOK"
    },
    {
      "icao": "ESKN",
      "alert": "OK",
      "vis_m": 9999,
      "fzfg": false,
      "metar_trigger": false,
      "taf_trigger": false,
      "metar": "METAR ESKN 191650Z 29005KT CAVOK M08/M10 Q1016",
      "taf": "TAF ESKN 191430Z 1915/2015 28006KT CAVOK"
    },
    {
      "icao": "ESMS",
      "alert": "OK",
      "vis_m": 9999,
      "fzfg": false,
      "metar_trigger": false,
      "taf_trigger": false,
      "metar": "METAR ESMS 191650Z 30003KT CAVOK M04/M09 Q1016",
      "taf": "TAF ESMS 191427Z 1915/2015 04006KT CAVOK"
    },
    {
      "icao": "ESSA",
      "alert": "OK",
      "vis_m": 9999,
      "fzfg": false,
      "metar_trigger": false,
      "taf_trigger": false,
      "metar": "METAR ESSA 191650Z 27004KT CAVOK M09/M13 Q1015 NOSIG",
      "taf": "TAF ESSA 191430Z 1915/2015 30005KT CAVOK"
    },
    {
      "icao": "EYKA",
      "alert": "OK",
      "vis_m": 9000,
      "fzfg": false,
      "metar_trigger": false,
      "taf_trigger": false,
      "metar": "METAR EYKA 191650Z 29005KT 240V340 9000 -SN SCT043 M04/M06 Q1010",
      "taf": "TAF EYKA 191100Z 1912/2012 28010KT 8000 SCT010 BKN015"
    },
    {
      "icao": "EYPA",
      "alert": "OK",
      "vis_m": 9999,
      "fzfg": false,
      "metar_trigger": false,
      "taf_trigger": false,
      "metar": "METAR EYPA 191650Z 01006KT 330V030 9999 -SHSN BKN051CB M04/M08 Q1012",
      "taf": "TAF EYPA 191100Z 1912/2012 VRB04KT 5000 SN SCT005 BKN015"
    },
    {
      "icao": "EYVI",
      "alert": "OK",
      "vis_m": 4100,
      "fzfg": false,
      "metar_trigger": false,
      "taf_trigger": false,
      "metar": "METAR EYVI 191650Z 27005KT 4100 SN BR BKN037 M05/M07 Q1009 TEMPO 1500 SN",
      "taf": "TAF EYVI 191103Z 1912/2012 29010KT 5000 SN BKN015"
    },
    {
      "icao": "GCFV",
      "alert": "OK",
      "vis_m": 9999,
      "fzfg": false,
      "metar_trigger": false,
      "taf_trigger": false,
      "metar": "METAR GCFV 191630Z 04019KT 9999 FEW022 19/13 Q1021",
      "taf": "TAF GCFV 191400Z 1915/2015 04018KT 9999 FEW025 TX21/2014Z TN16/2006Z"
    },
    {
      "icao": "GCLP",
      "alert": "OK",
      "vis_m": 9999,
      "fzfg": false,
      "metar_trigger": false,
      "taf_trigger": false,
      "metar": "METAR GCLP 191630Z 03021KT 9999 FEW025 20/13 Q1021 NOSIG",
      "taf": "TAF GCLP 191400Z 1915/2015 02020KT 9999 SCT025 TX20/2014Z TN16/2006Z"
    },
    {
      "icao": "GCTS",
      "alert": "OK",
      "vis_m": 9999,
      "fzfg": false,
      "metar_trigger": false,
      "taf_trigger": false,
      "metar": "METAR GCTS 191630Z 07020KT 9999 FEW020 21/12 Q1021 WS R07 NOSIG",
      "taf": "TAF GCTS 191400Z 1915/2015 08022KT 9999 FEW020 TX24/2014Z TN16/2006Z"
    },
    {
      "icao": "GMAD",
      "alert": "OK",
      "vis_m": 8000,
      "fzfg": false,
      "metar_trigger": false,
      "taf_trigger": false,
      "metar": "METAR GMAD 191630Z 26009KT 8000 NSC 19/15 Q1018 NOSIG",
      "taf": "TAF GMAD 191100Z 1912/2018 24010KT 6000 BKN016"
    },
    {
      "icao": "GMMN",
      "alert": "OK",
      "vis_m": 9999,
      "fzfg": false,
      "metar_trigger": false,
      "taf_trigger": false,
      "metar": "METAR GMMN 191630Z 02014KT 9999 SCT020 16/12 Q1024 NOSIG",
      "taf": "TAF GMMN 191100Z 1912/2018 05008KT 9999 SCT020"
    },
    {
      "icao": "GMMX",
      "alert": "OK",
      "vis_m": 8000,
      "fzfg": false,
      "metar_trigger": false,
      "taf_trigger": false,
      "metar": "METAR GMMX 191630Z 09010KT 8000 NSC 20/12 Q1021 NOSIG",
      "taf": "TAF GMMX 191100Z 1912/2018 06006KT CAVOK"
    },
    {
      "icao": "HEGN",
      "alert": "OK",
      "vis_m": 9999,
      "fzfg": false,
      "metar_trigger": false,
      "taf_trigger": false,
      "metar": "METAR HEGN 191600Z 35013KT CAVOK 21/05 Q1017 NOSIG",
      "taf": "TAF HEGN 191100Z 1912/2018 34012G22KT CAVOK"
    },
    {
      "icao": "HEMA",
      "alert": "OK",
      "vis_m": 9999,
      "fzfg": false,
      "metar_trigger": false,
      "taf_trigger": false,
      "metar": "METAR HEMA 191600Z 35013KT CAVOK 22/09 Q1016 NOSIG",
      "taf": "TAF HEMA 191100Z 1912/2018 35012G22KT CAVOK"
    },
    {
      "icao": "HESH",
      "alert": "OK",
      "vis_m": 9999,
      "fzfg": false,
      "metar_trigger": false,
      "taf_trigger": false,
      "metar": "METAR HESH 191600Z 36012KT CAVOK 21/10 Q1016 NOSIG",
      "taf": "TAF HESH 191100Z 1912/2018 02014KT CAVOK"
    },
    {
      "icao": "HESX",
      "alert": "OK",
      "vis_m": 9999,
      "fzfg": false,
      "metar_trigger": false,
      "taf_trigger": false,
      "metar": "METAR HESX 191600Z 02012KT 9999 SCT020 16/08 Q1020 NOSIG",
      "taf": "TAF HESX 191110Z 1912/2018 02010KT 9999 SCT025"
    },
    {
      "icao": "LATI",
      "alert": "OK",
      "vis_m": 9999,
      "fzfg": false,
      "metar_trigger": false,
      "taf_trigger": false,
      "metar": "METAR LATI 191650Z 15007KT 9999 SCT074 13/03 Q1013 NOSIG",
      "taf": "TAF LATI 191100Z 1912/2012 15015KT 9999 SCT040 BKN070 TX16/1912Z TN07/2005Z"
    },
    {
      "icao": "LBPD",
      "alert": "OK",
      "vis_m": 9999,
      "fzfg": false,
      "metar_trigger": false,
      "taf_trigger": false,
      "metar": "METAR LBPD 191630Z AUTO VRB02KT 9999 FEW250/// 07/02 Q1015 NOSIG",
      "taf": "TAF LBPD 191100Z 1912/2012 VRB04KT CAVOK"
    },
    {
      "icao": "LBSF",
      "alert": "OK",
      "vis_m": 9999,
      "fzfg": false,
      "metar_trigger": false,
      "taf_trigger": false,
      "metar": "METAR LBSF 191630Z AUTO 07012KT 9999 BKN076/// 06/M02 Q1013 NOSIG",
      "taf": "TAF LBSF 191100Z 1912/2012 VRB03KT CAVOK"
    },
    {
      "icao": "LBWN",
      "alert": "OK",
      "vis_m": 9999,
      "fzfg": false,
      "metar_trigger": false,
      "taf_trigger": false,
      "metar": "METAR LBWN 191630Z 10007KT CAVOK 05/00 Q1017 NOSIG",
      "taf": "TAF LBWN 191100Z 1912/2012 28008KT CAVOK"
    },
    {
      "icao": "LCLK",
      "alert": "OK",
      "vis_m": 9999,
      "fzfg": false,
      "metar_trigger": false,
      "taf_trigger": false,
      "metar": "METAR LCLK 191630Z 08010KT 9999 SCT030 SCT050 17/12 Q1020 NOSIG",
      "taf": "TAF LCLK 191130Z 1912/2012 06009KT 9999 FEW025"
    },
    {
      "icao": "LCPH",
      "alert": "OK",
      "vis_m": 9999,
      "fzfg": false,
      "metar_trigger": false,
      "taf_trigger": false,
      "metar": "METAR LCPH 191630Z 35005KT 9999 FEW035 13/07 Q1021 NOSIG",
      "taf": "TAF LCPH 191130Z 1912/2012 29014KT 9999 FEW025"
    },
    {
      "icao": "LEAL",
      "alert": "OK",
      "vis_m": 9999,
      "fzfg": false,
      "metar_trigger": false,
      "taf_trigger": false,
      "metar": "METAR LEAL 191630Z 30017G27KT CAVOK 19/M02 Q1020 NOSIG",
      "taf": "TAF LEAL 191100Z 1912/2012 30015KT 9999 FEW030 TX19/1913Z TN09/2006Z"
    },
    {
      "icao": "LEBB",
      "alert": "OK",
      "vis_m": 9000,
      "fzfg": false,
      "metar_trigger": false,
      "taf_trigger": false,
      "metar": "METAR LEBB 191630Z 27011KT 230V300 9000 SCT040 BKN055 11/06 Q1023 TEMPO RA",
      "taf": ""
    },
    {
      "icao": "LEBL",
      "alert": "OK",
      "vis_m": 9999,
      "fzfg": false,
      "metar_trigger": false,
      "taf_trigger": false,
      "metar": "METAR LEBL 191630Z COR 29018G30KT 260V320 9999 FEW050 15/02 Q1013 NOSIG",
      "taf": "TAF LEBL 191100Z 1912/2012 29012KT CAVOK TX17/1913Z TN09/2006Z"
    },
    {
      "icao": "LECH",
      "alert": "OK",
      "vis_m": 9999,
      "fzfg": false,
      "metar_trigger": false,
      "taf_trigger": false,
      "metar": "METAR LECH 191630Z AUTO 30011KT 230V350 CAVOK 14/M04 Q1018",
      "taf": ""
    },
    {
      "icao": "LEMD",
      "alert": "OK",
      "vis_m": 9999,
      "fzfg": false,
      "metar_trigger": false,
      "taf_trigger": false,
      "metar": "METAR LEMD 191630Z 27015KT 9999 FEW060 11/M01 Q1022 NOSIG",
      "taf": "TAF LEMD 191100Z 1912/2018 29010KT CAVOK TX13/1915Z TNM00/2006Z"
    },
    {
      "icao": "LEMG",
      "alert": "OK",
      "vis_m": 9999,
      "fzfg": false,
      "metar_trigger": false,
      "taf_trigger": false,
      "metar": "METAR LEMG 191630Z 30016KT CAVOK 15/04 Q1023 NOSIG",
      "taf": "TAF LEMG 191100Z 1912/2012 32016KT CAVOK TX17/1914Z TN11/2007Z"
    },
    {
      "icao": "LEVC",
      "alert": "OK",
      "vis_m": 9999,
      "fzfg": false,
      "metar_trigger": false,
      "taf_trigger": false,
      "metar": "METAR LEVC 191630Z 28014KT 9999 FEW035 18/M02 Q1018 NOSIG",
      "taf": "TAF LEVC 191100Z 1912/2012 28013KT 9999 FEW035 TX19/1914Z TN08/2006Z"
    },
    {
      "icao": "LEXJ",
      "alert": "OK",
      "vis_m": 1400,
      "fzfg": false,
      "metar_trigger": false,
      "taf_trigger": false,
      "metar": "SPECI LEXJ 191654Z 31021G32KT 280V350 1400 R29/1900D R11/P2000 +SHRA BR SCT027 BKN039TCU 10/07 Q1024",
      "taf": ""
    },
    {
      "icao": "LEZG",
      "alert": "OK",
      "vis_m": 9999,
      "fzfg": false,
      "metar_trigger": false,
      "taf_trigger": false,
      "metar": "METAR LEZG 191630Z 31016G27KT 280V340 CAVOK 14/00 Q1020 NOSIG",
      "taf": "TAF LEZG 191100Z 1912/2012 30015KT 9999 FEW040 TX14/1914Z TN07/2006Z"
    },
    {
      "icao": "LEZL",
      "alert": "OK",
      "vis_m": 9999,
      "fzfg": false,
      "metar_trigger": false,
      "taf_trigger": false,
      "metar": "METAR LEZL 191630Z 03005KT 350V070 CAVOK 18/05 Q1025 NOSIG",
      "taf": "TAF LEZL 191400Z 1915/2015 36007KT CAVOK TX18/1915Z TN06/2007Z"
    },
    {
      "icao": "LFBD",
      "alert": "OK",
      "vis_m": 9999,
      "fzfg": false,
      "metar_trigger": false,
      "taf_trigger": false,
      "metar": "METAR LFBD 191630Z AUTO 29024KT 9999 BKN026/// BKN036/// OVC049/// ///CB 12/07 Q1014 TEMPO 3000 SHRA BECMG 26015G25KT",
      "taf": ""
    },
    {
      "icao": "LFLL",
      "alert": "OK",
      "vis_m": 4000,
      "fzfg": false,
      "metar_trigger": false,
      "taf_trigger": false,
      "metar": "METAR LFLL 191630Z 19011KT 4000 SHRA SCT020CB BKN033TCU BKN040 09/06 Q1003 TEMPO 29015G35KT 2000 +SHRA SCT020TCU BKN030TCU",
      "taf": "TAF LFLL 191100Z 1912/2018 20012KT 9999 FEW030TCU OVC035"
    },
    {
      "icao": "LFLS",
      "alert": "OK",
      "vis_m": 9999,
      "fzfg": false,
      "metar_trigger": false,
      "taf_trigger": false,
      "metar": "METAR LFLS 191630Z AUTO 16006KT 130V190 9999 BKN043 OVC050 08/05 Q1003 TEMPO 27012G25KT 3000 SHRA FEW025CB BKN025TCU",
      "taf": "TAF LFLS 191400Z 1915/2015 20010KT 9999 BKN035"
    },
    {
      "icao": "LFMN",
      "alert": "OK",
      "vis_m": 9999,
      "fzfg": false,
      "metar_trigger": false,
      "taf_trigger": false,
      "metar": "METAR LFMN 191630Z 25029KT CAVOK 14/05 Q1000 NOSIG",
      "taf": ""
    },
    {
      "icao": "LFOB",
      "alert": "OK",
      "vis_m": 9999,
      "fzfg": false,
      "metar_trigger": false,
      "taf_trigger": false,
      "metar": "METAR LFOB 191630Z AUTO 31015KT 9999 OVC008 08/07 Q1003 TEMPO 3500 SHRA BKN007 BKN012 SCT030TCU",
      "taf": "TAF LFOB 191100Z 1912/2012 26010KT 9999 SCT016 OVC030"
    },
    {
      "icao": "LFPO",
      "alert": "OK",
      "vis_m": 8000,
      "fzfg": false,
      "metar_trigger": false,
      "taf_trigger": false,
      "metar": "METAR LFPO 191630Z 33012KT 300V010 8000 FEW015TCU BKN015 BKN073 10/08 Q1002 TEMPO 4000 -SHRA BKN012TCU",
      "taf": "TAF LFPO 191100Z 1912/2018 28010KT 8000 BKN015 BKN030"
    },
    {
      "icao": "LFSB",
      "alert": "OK",
      "vis_m": 9999,
      "fzfg": false,
      "metar_trigger": false,
      "taf_trigger": false,
      "metar": "METAR LFSB 191630Z AUTO 16004KT 9999 FEW027/// BKN035/// OVC048/// ///TCU 08/05 Q1001 TEMPO SHRA BECMG 23010KT",
      "taf": "TAF LFSB 191100Z 1912/2012 23010KT 9999 SCT025 BKN040"
    },
    {
      "icao": "LGAV",
      "alert": "OK",
      "vis_m": 9999,
      "fzfg": false,
      "metar_trigger": false,
      "taf_trigger": false,
      "metar": "METAR LGAV 191650Z 21007KT CAVOK 12/05 Q1019 NOSIG",
      "taf": "TAF LGAV 191100Z 1912/2012 20010KT 9999 FEW025"
    },
    {
      "icao": "LGTS",
      "alert": "OK",
      "vis_m": 9999,
      "fzfg": false,
      "metar_trigger": false,
      "taf_trigger": false,
      "metar": "METAR LGTS 191650Z 11006KT 9999 FEW020 12/04 Q1017 NOSIG",
      "taf": "TAF LGTS 191100Z 1912/2012 14013KT 9999 FEW030"
    },
    {
      "icao": "LHBP",
      "alert": "OK",
      "vis_m": 4900,
      "fzfg": false,
      "metar_trigger": false,
      "taf_trigger": false,
      "metar": "SPECI LHBP 191651Z 06005KT 030V090 4900 RA BKN004 OVC040 02/01 Q1007 TEMPO 6000 -RA",
      "taf": ""
    },
    {
      "icao": "LHDC",
      "alert": "OK",
      "vis_m": 9999,
      "fzfg": false,
      "metar_trigger": false,
      "taf_trigger": false,
      "metar": "METAR LHDC 191615Z AUTO 07009KT CAVOK 04/03 Q1008 TEMPO RA",
      "taf": "TAF LHDC 191415Z 1915/1924 10009KT 9999 RA OVC025"
    },
    {
      "icao": "LIBD",
      "alert": "OK",
      "vis_m": 9999,
      "fzfg": false,
      "metar_trigger": false,
      "taf_trigger": false,
      "metar": "METAR LIBD 191650Z 16012G23KT 9999 FEW025 14/11 Q1006",
      "taf": "TAF LIBD 191100Z 1912/2012 17016G30KT 9999 SCT040"
    },
    {
      "icao": "LIBG",
      "alert": "OK",
      "vis_m": 9999,
      "fzfg": false,
      "metar_trigger": false,
      "taf_trigger": false,
      "metar": "METAR LIBG 191550Z 16017KT 9999 SCT015 SCT025 15/12 Q1008",
      "taf": "TAF LIBG 191400Z 1915/1924 17018G32KT 9999 SCT020"
    },
    {
      "icao": "LIBP",
      "alert": "OK",
      "vis_m": 9999,
      "fzfg": false,
      "metar_trigger": false,
      "taf_trigger": false,
      "metar": "METAR LIBP 191650Z AUTO 29006KT 260V330 9999 RA OVC066/// 14/10 Q1000",
      "taf": "TAF LIBP 191100Z 1912/2012 22012KT 9999 SCT050"
    },
    {
      "icao": "LIBR",
      "alert": "OK",
      "vis_m": 9999,
      "fzfg": false,
      "metar_trigger": false,
      "taf_trigger": false,
      "metar": "METAR LIBR 191650Z 18017KT 9999 SCT025 14/10 Q1009",
      "taf": "TAF LIBR 191100Z 1912/2012 18020G33KT 9999 SCT025"
    },
    {
      "icao": "LICA",
      "alert": "OK",
      "vis_m": 9999,
      "fzfg": false,
      "metar_trigger": false,
      "taf_trigger": false,
      "metar": "METAR LICA 191650Z AUTO 05005KT 9999 NCD 15/11 Q1009",
      "taf": "TAF LICA 191100Z 1912/2012 VRB06KT 9999 FEW025"
    },
    {
      "icao": "LICC",
      "alert": "OK",
      "vis_m": 9999,
      "fzfg": false,
      "metar_trigger": false,
      "taf_trigger": false,
      "metar": "METAR LICC 191650Z 26012KT 9999 FEW035 17/13 Q1010",
      "taf": "TAF LICC 191100Z 1912/2012 26011KT 9999 FEW040"
    },
    {
      "icao": "LICJ",
      "alert": "OK",
      "vis_m": 9000,
      "fzfg": false,
      "metar_trigger": false,
      "taf_trigger": false,
      "metar": "METAR LICJ 191650Z 23021KT 9000 VCSH SCT040 16/11 Q1010",
      "taf": "TAF LICJ 191100Z 1912/2012 22022G32KT 9999 SCT035"
    },
    {
      "icao": "LIMC",
      "alert": "OK",
      "vis_m": 9999,
      "fzfg": false,
      "metar_trigger": false,
      "taf_trigger": false,
      "metar": "METAR LIMC 191650Z 25003KT 9999 SCT020 07/04 Q0999 NOSIG",
      "taf": "TAF LIMC 191100Z 1912/2018 35010KT 9999 BKN025"
    },
    {
      "icao": "LIME",
      "alert": "OK",
      "vis_m": 9999,
      "fzfg": false,
      "metar_trigger": false,
      "taf_trigger": false,
      "metar": "METAR LIME 191650Z AUTO VRB01KT 9999 NCD 05/04 Q0999",
      "taf": "TAF LIME 191100Z 1912/2012 31010KT 7000 BKN030"
    },
    {
      "icao": "LIMF",
      "alert": "OK",
      "vis_m": 9999,
      "fzfg": false,
      "metar_trigger": false,
      "taf_trigger": false,
      "metar": "METAR LIMF 191650Z 06002KT CAVOK 08/02 Q0999",
      "taf": "TAF LIMF 191100Z 1912/2012 VRB05KT 8000 BKN020"
    },
    {
      "icao": "LIMJ",
      "alert": "OK",
      "vis_m": 9999,
      "fzfg": false,
      "metar_trigger": false,
      "taf_trigger": false,
      "metar": "METAR LIMJ 191650Z 13006KT 9999 SCT030 12/06 Q1000",
      "taf": "TAF LIMJ 191100Z 1912/2012 05015KT 9999 SCT020"
    },
    {
      "icao": "LIPE",
      "alert": "OK",
      "vis_m": 9999,
      "fzfg": false,
      "metar_trigger": false,
      "taf_trigger": false,
      "metar": "METAR LIPE 191650Z 26007KT 9999 FEW030 08/04 Q1000",
      "taf": "TAF LIPE 191100Z 1912/2012 29014KT 9999 SCT040"
    },
    {
      "icao": "LIPH",
      "alert": "OK",
      "vis_m": 9999,
      "fzfg": false,
      "metar_trigger": false,
      "taf_trigger": false,
      "metar": "METAR LIPH 191650Z 25009KT 220V280 9999 FEW015 09/06 Q0998",
      "taf": "TAF LIPH 191100Z 1912/2012 06012KT 7000 BKN020"
    },
    {
      "icao": "LIPQ",
      "alert": "OK",
      "vis_m": 9999,
      "fzfg": false,
      "metar_trigger": false,
      "taf_trigger": false,
      "metar": "METAR LIPQ 191650Z AUTO 17006KT 9999 SCT017/// BKN020/// BKN031/// 12/09 Q0999",
      "taf": "TAF LIPQ 191100Z 1912/2012 15016KT 7000 RA SCT010 BKN030"
    },
    {
      "icao": "LIPR",
      "alert": "OK",
      "vis_m": 9999,
      "fzfg": false,
      "metar_trigger": false,
      "taf_trigger": false,
      "metar": "METAR LIPR 191650Z 03006KT 360V080 9999 FEW060 09/06 Q1000",
      "taf": "TAF LIPR 191100Z 1912/2012 22016KT 9999 SCT040"
    },
    {
      "icao": "LIPX",
      "alert": "OK",
      "vis_m": 8000,
      "fzfg": false,
      "metar_trigger": false,
      "taf_trigger": false,
      "metar": "METAR LIPX 191650Z 30009KT 8000 -RA FEW008 BKN040 06/05 Q0999",
      "taf": "TAF LIPX 191100Z 1912/2012 26013KT 4000 RA BKN030"
    },
    {
      "icao": "LIPY",
      "alert": "OK",
      "vis_m": 9999,
      "fzfg": false,
      "metar_trigger": false,
      "taf_trigger": false,
      "metar": "METAR LIPY 191650Z AUTO 17005KT 9999 OVC099/// 11/07 Q1000",
      "taf": "TAF LIPY 191100Z 1912/2012 15010KT 9999 SCT040"
    },
    {
      "icao": "LIPZ",
      "alert": "OK",
      "vis_m": 9999,
      "fzfg": false,
      "metar_trigger": false,
      "taf_trigger": false,
      "metar": "METAR LIPZ 191650Z 24011KT 9999 FEW015 SCT070 09/06 Q0999 NOSIG",
      "taf": "TAF LIPZ 191100Z 1912/2018 17018G32KT 7000 SCT020"
    },
    {
      "icao": "LIRF",
      "alert": "OK",
      "vis_m": 9999,
      "fzfg": false,
      "metar_trigger": false,
      "taf_trigger": false,
      "metar": "METAR LIRF 191650Z 26014KT 9999 FEW030 13/09 Q1002 NOSIG",
      "taf": "TAF LIRF 191100Z 1912/2018 18022G35KT 9999 FEW025"
    },
    {
      "icao": "LIRN",
      "alert": "OK",
      "vis_m": 3000,
      "fzfg": false,
      "metar_trigger": false,
      "taf_trigger": false,
      "metar": "METAR LIRN 191650Z 20014G26KT 160V220 3000 RA SCT025 BKN050 13/12 Q1004 NOSIG",
      "taf": "TAF LIRN 191100Z 1912/2012 19022G32KT 9999 SCT030"
    },
    {
      "icao": "LIRP",
      "alert": "OK",
      "vis_m": 9999,
      "fzfg": false,
      "metar_trigger": false,
      "taf_trigger": false,
      "metar": "METAR LIRP 191645Z 25004KT 9999 BKN030 12/09 Q1001 NOSIG",
      "taf": "TAF LIRP 191100Z 1912/2012 27013KT 9999 SCT025 BKN035"
    },
    {
      "icao": "LIRZ",
      "alert": "OK",
      "vis_m": 9999,
      "fzfg": false,
      "metar_trigger": false,
      "taf_trigger": false,
      "metar": "METAR LIRZ 191650Z AUTO 15007KT 9999 FEW031/// BKN094/// 08/07 Q1002",
      "taf": "TAF LIRZ 191100Z 1912/2012 19013KT 9999 SCT035"
    },
    {
      "icao": "LJLJ",
      "alert": "OK",
      "vis_m": 4000,
      "fzfg": false,
      "metar_trigger": false,
      "taf_trigger": false,
      "metar": "METAR LJLJ 191630Z 15003KT 120V200 4000 RA BR FEW002 BKN020 BKN035 06/05 Q1000 NOSIG",
      "taf": "TAF LJLJ 191100Z 1912/2012 VRB02KT 6000 -RA SCT002 BKN015 OVC025"
    },
    {
      "icao": "LKMT",
      "alert": "OK",
      "vis_m": 1700,
      "fzfg": false,
      "metar_trigger": false,
      "taf_trigger": false,
      "metar": "METAR LKMT 191630Z 01008KT 1700 BR BKN046 M01/M02 Q1010 NOSIG",
      "taf": "TAF LKMT 191100Z 1912/2012 03008KT 1600 BR BKN006 OVC010"
    },
    {
      "icao": "LKPR",
      "alert": "OK",
      "vis_m": 9999,
      "fzfg": false,
      "metar_trigger": false,
      "taf_trigger": false,
      "metar": "METAR LKPR 191630Z 08009KT CAVOK M00/M03 Q1007 NOSIG",
      "taf": "TAF LKPR 191400Z 1915/2021 08009KT CAVOK"
    },
    {
      "icao": "LLBG",
      "alert": "OK",
      "vis_m": 9999,
      "fzfg": false,
      "metar_trigger": false,
      "taf_trigger": false,
      "metar": "METAR LLBG 191650Z 34004KT CAVOK 17/08 Q1021 NOSIG RMK FEW055",
      "taf": "TAF LLBG 191104Z 1912/2012 30010KT 9999 FEW040"
    },
    {
      "icao": "LMML",
      "alert": "OK",
      "vis_m": 9999,
      "fzfg": false,
      "metar_trigger": false,
      "taf_trigger": false,
      "metar": "METAR LMML 191645Z 22011KT CAVOK 17/13 Q1012 NOSIG",
      "taf": "TAF LMML 191100Z 1912/2012 18015KT CAVOK"
    },
    {
      "icao": "LOWW",
      "alert": "OK",
      "vis_m": 4500,
      "fzfg": false,
      "metar_trigger": false,
      "taf_trigger": false,
      "metar": "METAR LOWW 191650Z 02004KT 4500 -SN SCT002 BKN004 00/M00 Q1007 RESN TEMPO 1500 SN",
      "taf": ""
    },
    {
      "icao": "LPFR",
      "alert": "OK",
      "vis_m": 9999,
      "fzfg": false,
      "metar_trigger": false,
      "taf_trigger": false,
      "metar": "METAR LPFR 191630Z 01009KT CAVOK 17/05 Q1026",
      "taf": "TAF LPFR 191100Z 1912/2012 36010KT CAVOK"
    },
    {
      "icao": "LPMA",
      "alert": "OK",
      "vis_m": 9999,
      "fzfg": false,
      "metar_trigger": false,
      "taf_trigger": false,
      "metar": "METAR LPMA 191630Z 03011KT 9999 SCT018 18/09 Q1026",
      "taf": "TAF LPMA 191100Z 1912/2012 03010KT 9999 SCT016"
    },
    {
      "icao": "LPPR",
      "alert": "OK",
      "vis_m": 9999,
      "fzfg": false,
      "metar_trigger": false,
      "taf_trigger": false,
      "metar": "METAR LPPR 191630Z 32009KT 290V350 9999 FEW025 13/06 Q1028",
      "taf": "TAF LPPR 191100Z 1912/2012 35010KT 9999 SCT035"
    },
    {
      "icao": "LPPS",
      "alert": "OK",
      "vis_m": 9999,
      "fzfg": false,
      "metar_trigger": false,
      "taf_trigger": false,
      "metar": "METAR LPPS 191630Z 11009KT 9999 FEW015 18/10 Q1026",
      "taf": "TAF LPPS 191100Z 1912/2018 08010KT 9999 SCT015"
    },
    {
      "icao": "LPPT",
      "alert": "OK",
      "vis_m": 9999,
      "fzfg": false,
      "metar_trigger": false,
      "taf_trigger": false,
      "metar": "METAR LPPT 191630Z 34012KT 9999 FEW038 14/06 Q1028",
      "taf": "TAF LPPT 191100Z 1912/2018 34010KT 9999 SCT035"
    },
    {
      "icao": "LQBK",
      "alert": "OK",
      "vis_m": 9999,
      "fzfg": false,
      "metar_trigger": false,
      "taf_trigger": false,
      "metar": "METAR LQBK 191630Z 07004KT 040V110 CAVOK 14/05 Q1002 NOSIG",
      "taf": ""
    },
    {
      "icao": "LQSA",
      "alert": "OK",
      "vis_m": 9999,
      "fzfg": false,
      "metar_trigger": false,
      "taf_trigger": false,
      "metar": "METAR LQSA 191630Z 16013KT 9999 SCT040 BKN055 09/04 Q1006 NOSIG",
      "taf": "TAF LQSA 191100Z 1912/2012 14013KT 9999 BKN045 TX11/1913Z TN04/2006Z"
    },
    {
      "icao": "LQTZ",
      "alert": "OK",
      "vis_m": 9999,
      "fzfg": false,
      "metar_trigger": false,
      "taf_trigger": false,
      "metar": "METAR LQTZ 191630Z 18008KT 140V220 9999 FEW050 12/03 Q1004",
      "taf": "TAF LQTZ 191100Z 1912/2012 09006KT CAVOK TX16/1914Z TN06/2005Z"
    },
    {
      "icao": "LRBC",
      "alert": "OK",
      "vis_m": 7000,
      "fzfg": false,
      "metar_trigger": false,
      "taf_trigger": false,
      "metar": "METAR LRBC 191630Z 16010KT 7000 NSC M02/M03 Q1014",
      "taf": "TAF LRBC 191400Z 1915/1924 17012KT CAVOK"
    },
    {
      "icao": "LRBS",
      "alert": "OK",
      "vis_m": 9999,
      "fzfg": false,
      "metar_trigger": false,
      "taf_trigger": false,
      "metar": "METAR LRBS 191630Z 00000KT CAVOK 02/M02 Q1016 NOSIG",
      "taf": "TAF LRBS 191100Z 1912/2012 25006KT CAVOK"
    },
    {
      "icao": "LRBV",
      "alert": "OK",
      "vis_m": 9999,
      "fzfg": false,
      "metar_trigger": false,
      "taf_trigger": false,
      "metar": "METAR LRBV 191630Z 14008KT CAVOK 02/M05 Q1011",
      "taf": "TAF LRBV 191400Z 1915/1924 13006KT CAVOK"
    },
    {
      "icao": "LRCL",
      "alert": "OK",
      "vis_m": 9999,
      "fzfg": false,
      "metar_trigger": false,
      "taf_trigger": false,
      "metar": "METAR LRCL 191630Z 09007KT CAVOK 03/M01 Q1010",
      "taf": "TAF LRCL 191400Z 1915/1924 12010KT CAVOK"
    },
    {
      "icao": "LRCV",
      "alert": "OK",
      "vis_m": 9999,
      "fzfg": false,
      "metar_trigger": false,
      "taf_trigger": false,
      "metar": "METAR LRCV 191630Z 09009KT CAVOK 04/00 Q1013",
      "taf": "TAF LRCV 191400Z 1915/1924 13010KT CAVOK"
    },
    {
      "icao": "LRIA",
      "alert": "OK",
      "vis_m": 9999,
      "fzfg": false,
      "metar_trigger": false,
      "taf_trigger": false,
      "metar": "METAR LRIA 191630Z 11012KT CAVOK 01/M02 Q1014",
      "taf": "TAF LRIA 191400Z 1915/1924 09010KT CAVOK"
    },
    {
      "icao": "LROP",
      "alert": "OK",
      "vis_m": 9999,
      "fzfg": false,
      "metar_trigger": false,
      "taf_trigger": false,
      "metar": "METAR LROP 191630Z 14003KT CAVOK 02/M03 Q1016 NOSIG",
      "taf": "TAF LROP 191100Z 1912/2012 25006KT CAVOK"
    },
    {
      "icao": "LRSB",
      "alert": "OK",
      "vis_m": 9999,
      "fzfg": false,
      "metar_trigger": false,
      "taf_trigger": false,
      "metar": "METAR LRSB 191630Z 15006KT CAVOK 05/M03 Q1009",
      "taf": "TAF LRSB 191100Z 1912/2012 12007KT CAVOK"
    },
    {
      "icao": "LRSM",
      "alert": "OK",
      "vis_m": 9999,
      "fzfg": false,
      "metar_trigger": false,
      "taf_trigger": false,
      "metar": "METAR LRSM 191630Z 05004KT 9999 OVC040 04/01 Q1010",
      "taf": "TAF LRSM 191400Z 1915/1924 14006KT 9999 BKN035"
    },
    {
      "icao": "LRSV",
      "alert": "OK",
      "vis_m": 9999,
      "fzfg": false,
      "metar_trigger": false,
      "taf_trigger": false,
      "metar": "METAR LRSV 191630Z 10010KT CAVOK 00/M03 Q1011",
      "taf": "TAF LRSV 191400Z 1915/1924 10008KT CAVOK"
    },
    {
      "icao": "LRTM",
      "alert": "OK",
      "vis_m": 9999,
      "fzfg": false,
      "metar_trigger": false,
      "taf_trigger": false,
      "metar": "METAR LRTM 191630Z 07007KT CAVOK 03/M00 Q1011",
      "taf": "TAF LRTM 191400Z 1915/1924 08007KT CAVOK"
    },
    {
      "icao": "LRTR",
      "alert": "OK",
      "vis_m": 9999,
      "fzfg": false,
      "metar_trigger": false,
      "taf_trigger": false,
      "metar": "METAR LRTR 191630Z 16010KT CAVOK 09/02 Q1008",
      "taf": "TAF LRTR 191100Z 1912/2012 10012KT CAVOK"
    },
    {
      "icao": "LTAC",
      "alert": "OK",
      "vis_m": 9999,
      "fzfg": false,
      "metar_trigger": false,
      "taf_trigger": false,
      "metar": "METAR LTAC 191650Z 19004KT CAVOK 03/M05 Q1022 NOSIG RMK RWY21C 15005KT RWY03L 20004KT RWY21R 18004KT 130V200 RWY03R 00000KT RWY21L 16004KT",
      "taf": "TAF LTAC 191040Z 1912/2012 VRB02KT 9999 SCT040"
    },
    {
      "icao": "LTFM",
      "alert": "OK",
      "vis_m": 9999,
      "fzfg": false,
      "metar_trigger": false,
      "taf_trigger": false,
      "metar": "METAR LTFM 191650Z 20009KT CAVOK 08/02 Q1020 NOSIG RMK RWY17L 21008KT RWY34L 18007KT RWY16R 21005KT RWY36 22008KT RWY18 23011KT",
      "taf": "TAF LTFM 191040Z 1912/2018 20013KT 9999 FEW030"
    },
    {
      "icao": "LUKK",
      "alert": "OK",
      "vis_m": 9999,
      "fzfg": false,
      "metar_trigger": false,
      "taf_trigger": false,
      "metar": "METAR LUKK 191630Z 19004KT 170V230 CAVOK 00/M03 Q1016 NOSIG",
      "taf": "TAF LUKK 191128Z 1912/2012 26008KT 9999 SCT020"
    },
    {
      "icao": "LWOH",
      "alert": "OK",
      "vis_m": 9999,
      "fzfg": false,
      "metar_trigger": false,
      "taf_trigger": false,
      "metar": "METAR LWOH 191650Z 15016KT 9999 BKN040 09/04 Q1013",
      "taf": ""
    },
    {
      "icao": "LWSK",
      "alert": "OK",
      "vis_m": 9999,
      "fzfg": false,
      "metar_trigger": false,
      "taf_trigger": false,
      "metar": "METAR LWSK 191650Z VRB02KT 9999 BKN073 07/01 Q1014 NOSIG",
      "taf": ""
    },
    {
      "icao": "LYBE",
      "alert": "OK",
      "vis_m": 9999,
      "fzfg": false,
      "metar_trigger": false,
      "taf_trigger": false,
      "metar": "METAR LYBE 191630Z 12012KT CAVOK 11/02 Q1007 NOSIG",
      "taf": "TAF LYBE 191100Z 1912/2012 16012KT CAVOK TX14/1913Z TN06/2005Z"
    },
    {
      "icao": "LYNI",
      "alert": "OK",
      "vis_m": 9999,
      "fzfg": false,
      "metar_trigger": false,
      "taf_trigger": false,
      "metar": "METAR LYNI 191630Z 16004KT 130V190 9999 FEW060 09/M00 Q1012 NOSIG",
      "taf": "TAF LYNI 191100Z 1912/2012 18012KT CAVOK TX12/1913Z TN04/2005Z"
    },
    {
      "icao": "LYPG",
      "alert": "OK",
      "vis_m": 8000,
      "fzfg": false,
      "metar_trigger": false,
      "taf_trigger": false,
      "metar": "METAR LYPG 191630Z 34007KT 8000 -RA FEW020 SCT040 OVC070 08/08 Q1012 NOSIG",
      "taf": "TAF LYPG 191100Z 1912/2012 16008KT 9999 FEW027 SCT040 BKN070 TX12/1918Z TN07/2006Z"
    },
    {
      "icao": "LZIB",
      "alert": "OK",
      "vis_m": 3200,
      "fzfg": false,
      "metar_trigger": false,
      "taf_trigger": false,
      "metar": "METAR LZIB 191630Z 03008KT 3200 -SNRA BR BKN004 00/00 Q1007 TEMPO 2000 -SN BR",
      "taf": ""
    },
    {
      "icao": "LZKZ",
      "alert": "OK",
      "vis_m": 1400,
      "fzfg": false,
      "metar_trigger": false,
      "taf_trigger": false,
      "metar": "METAR LZKZ 191630Z 02006KT 1400 R01/P2000N -SN BR OVC018 00/00 Q1010 TEMPO 2500 -SN BR",
      "taf": "TAF LZKZ 191115Z 1912/2012 VRB02KT 9999 FEW005 BKN025"
    },
    {
      "icao": "LZTT",
      "alert": "OK",
      "vis_m": 4500,
      "fzfg": false,
      "metar_trigger": false,
      "taf_trigger": false,
      "metar": "METAR LZTT 191630Z 14003KT 4500 -SN BR FEW004 SCT012 OVC036 M02/M02 Q1007 NOSIG",
      "taf": "TAF LZTT 191115Z 1912/2012 16005KT 9999 FEW015 BKN040"
    },
    {
      "icao": "OEJN",
      "alert": "OK",
      "vis_m": 9999,
      "fzfg": false,
      "metar_trigger": false,
      "taf_trigger": false,
      "metar": "METAR OEJN 191600Z 34013KT CAVOK 27/18 Q1012 NOSIG",
      "taf": "TAF OEJN 191100Z 1912/2018 33010KT CAVOK"
    },
    {
      "icao": "OEMA",
      "alert": "OK",
      "vis_m": 9999,
      "fzfg": false,
      "metar_trigger": false,
      "taf_trigger": false,
      "metar": "METAR OEMA 191600Z 32004KT CAVOK 30/M02 Q1015 NOSIG",
      "taf": "TAF OEMA 191100Z 1912/2018 30008KT CAVOK"
    },
    {
      "icao": "OJAI",
      "alert": "OK",
      "vis_m": 5000,
      "fzfg": false,
      "metar_trigger": false,
      "taf_trigger": false,
      "metar": "METAR OJAI 191600Z 31005KT 5000 HZ BKN030 12/05 Q1022 NOSIG",
      "taf": "TAF OJAI 191035Z 1912/2018 28010KT 5000 HZ FEW030"
    },
    {
      "icao": "OMAA",
      "alert": "OK",
      "vis_m": 9999,
      "fzfg": false,
      "metar_trigger": false,
      "taf_trigger": false,
      "metar": "METAR OMAA 191630Z 01008KT CAVOK 25/12 Q1016 NOSIG",
      "taf": "TAF OMAA 191100Z 1912/2018 35011KT 8000 NSC"
    },
    {
      "icao": "OMDB",
      "alert": "OK",
      "vis_m": 9999,
      "fzfg": false,
      "metar_trigger": false,
      "taf_trigger": false,
      "metar": "METAR OMDB 191630Z 04009KT 010V080 CAVOK 26/12 Q1016 NOSIG",
      "taf": "TAF OMDB 191700Z 1918/2100 08005KT CAVOK"
    },
    {
      "icao": "UAAA",
      "alert": "OK",
      "vis_m": 9999,
      "fzfg": false,
      "metar_trigger": false,
      "taf_trigger": false,
      "metar": "METAR UAAA 191630Z 21003MPS 9999 SCT100 15/01 Q1018 NOSIG",
      "taf": "TAF UAAA 191102Z 1912/2012 20003MPS 4000 BR FU FEW050 SCT100 TX12/2009Z TN03/2003Z"
    },
    {
      "icao": "UBBB",
      "alert": "OK",
      "vis_m": 9999,
      "fzfg": false,
      "metar_trigger": false,
      "taf_trigger": false,
      "metar": "METAR UBBB 191630Z 32022G32KT CAVOK 09/05 Q1013 NOSIG",
      "taf": ""
    },
    {
      "icao": "UDSG",
      "alert": "OK",
      "vis_m": 9999,
      "fzfg": false,
      "metar_trigger": false,
      "taf_trigger": false,
      "metar": "METAR UDSG 191630Z 36006KT 9999 SCT049 M00/M06 Q1019 NOSIG",
      "taf": ""
    },
    {
      "icao": "UDYZ",
      "alert": "OK",
      "vis_m": 9999,
      "fzfg": false,
      "metar_trigger": false,
      "taf_trigger": false,
      "metar": "METAR UDYZ 191630Z 25008KT 9999 SCT043CB 09/M01 Q1016 NOSIG",
      "taf": "TAF UDYZ 191100Z 1912/2012 25006KT 9999 SCT040"
    },
    {
      "icao": "UGKO",
      "alert": "OK",
      "vis_m": 8000,
      "fzfg": false,
      "metar_trigger": false,
      "taf_trigger": false,
      "metar": "METAR UGKO 191630Z 25007KT 8000 -RA SCT008 BKN024 04/03 Q1027 NOSIG",
      "taf": "TAF UGKO 191100Z 1912/2012 25007KT 9000 OVC050 TX19/2011Z TN02/2003Z"
    }
  ]
}