{
  "ts_utc": "2026-07-20T18:15:16Z",
  "threshold_m": 150,
  "source": "stations_override.txt (ICAO list) + aviationweather.gov (METAR/TAF raw)",
  "station_count": 159,
  "stations": [
    {
      "icao": "BIKF",
      "alert": "OK",
      "vis_m": 7000,
      "fzfg": false,
      "metar_trigger": false,
      "taf_trigger": false,
      "metar": "METAR BIKF 201800Z 24015KT 7000 BR OVC002 11/11 Q1024",
      "taf": "TAF BIKF 201618Z 2018/2118 23015KT 3000 -DZ BR OVC004 TX11/2115Z TN10/2106Z"
    },
    {
      "icao": "BKPR",
      "alert": "OK",
      "vis_m": 9999,
      "fzfg": false,
      "metar_trigger": false,
      "taf_trigger": false,
      "metar": "METAR BKPR 201800Z 21006KT 9999 FEW030 19/16 Q1020 RETS NOSIG",
      "taf": "TAF BKPR 201730Z 2018/2118 35008KT 9999 SCT050"
    },
    {
      "icao": "EBCI",
      "alert": "OK",
      "vis_m": 9999,
      "fzfg": false,
      "metar_trigger": false,
      "taf_trigger": false,
      "metar": "METAR EBCI 201750Z 36010KT 340V040 CAVOK 20/08 Q1024 NOSIG",
      "taf": "TAF EBCI 201700Z 2018/2124 01007KT 9999 FEW045"
    },
    {
      "icao": "EDDB",
      "alert": "OK",
      "vis_m": 9999,
      "fzfg": false,
      "metar_trigger": false,
      "taf_trigger": false,
      "metar": "METAR EDDB 201750Z AUTO 33011KT 280V360 9999 BKN029 BKN037 BKN047 18/12 Q1018 NOSIG",
      "taf": "TAF EDDB 201700Z 2018/2118 30013G23KT 9999 SCT030"
    },
    {
      "icao": "EDDH",
      "alert": "OK",
      "vis_m": 9999,
      "fzfg": false,
      "metar_trigger": false,
      "taf_trigger": false,
      "metar": "METAR EDDH 201750Z AUTO 29011KT 9999 FEW028 18/13 Q1021 NOSIG",
      "taf": "TAF EDDH 201700Z 2018/2124 31010KT 9999 FEW030"
    },
    {
      "icao": "EDDK",
      "alert": "OK",
      "vis_m": 9999,
      "fzfg": false,
      "metar_trigger": false,
      "taf_trigger": false,
      "metar": "METAR EDDK 201750Z AUTO VRB02KT CAVOK 19/10 Q1023 NOSIG",
      "taf": "TAF EDDK 201700Z 2018/2124 34006KT CAVOK"
    },
    {
      "icao": "EDDN",
      "alert": "OK",
      "vis_m": 9999,
      "fzfg": false,
      "metar_trigger": false,
      "taf_trigger": false,
      "metar": "METAR EDDN 201750Z AUTO 32009KT CAVOK 19/05 Q1021 NOSIG",
      "taf": "TAF EDDN 201700Z 2018/2118 33006KT CAVOK"
    },
    {
      "icao": "EDDS",
      "alert": "OK",
      "vis_m": 9999,
      "fzfg": false,
      "metar_trigger": false,
      "taf_trigger": false,
      "metar": "METAR EDDS 201750Z AUTO 36006KT 320V040 CAVOK 21/04 Q1021 NOSIG",
      "taf": "TAF EDDS 201700Z 2018/2118 36008KT CAVOK"
    },
    {
      "icao": "EDFH",
      "alert": "OK",
      "vis_m": 9999,
      "fzfg": false,
      "metar_trigger": false,
      "taf_trigger": false,
      "metar": "METAR EDFH 201750Z 01009KT 340V040 CAVOK 16/08 Q1024",
      "taf": "TAF EDFH 201700Z 2018/2118 01007KT CAVOK"
    },
    {
      "icao": "EDJA",
      "alert": "OK",
      "vis_m": 9999,
      "fzfg": false,
      "metar_trigger": false,
      "taf_trigger": false,
      "metar": "METAR EDJA 201750Z 03010KT CAVOK 20/07 Q1021",
      "taf": "TAF EDJA 201700Z 2018/2103 02006KT CAVOK"
    },
    {
      "icao": "EDLW",
      "alert": "OK",
      "vis_m": 9999,
      "fzfg": false,
      "metar_trigger": false,
      "taf_trigger": false,
      "metar": "METAR EDLW 201750Z VRB02KT CAVOK 19/07 Q1023",
      "taf": "TAF EDLW 201700Z 2018/2118 VRB03KT CAVOK"
    },
    {
      "icao": "EDNY",
      "alert": "OK",
      "vis_m": 9999,
      "fzfg": false,
      "metar_trigger": false,
      "taf_trigger": false,
      "metar": "METAR EDNY 201750Z VRB01KT CAVOK 23/11 Q1019",
      "taf": "TAF EDNY 201700Z 2018/2103 02005KT CAVOK"
    },
    {
      "icao": "EDSB",
      "alert": "OK",
      "vis_m": null,
      "fzfg": false,
      "metar_trigger": false,
      "taf_trigger": false,
      "metar": "",
      "taf": "TAF EDSB 201100Z 2012/2112 01012KT CAVOK"
    },
    {
      "icao": "EETN",
      "alert": "OK",
      "vis_m": 9999,
      "fzfg": false,
      "metar_trigger": false,
      "taf_trigger": false,
      "metar": "METAR EETN 201750Z 07013KT CAVOK 17/10 Q1013 NOSIG",
      "taf": "TAF EETN 201730Z 2018/2118 07016G26KT 9999 BKN025"
    },
    {
      "icao": "EFTU",
      "alert": "OK",
      "vis_m": 9999,
      "fzfg": false,
      "metar_trigger": false,
      "taf_trigger": false,
      "metar": "METAR EFTU 201750Z AUTO 06005KT 020V080 CAVOK 18/08 Q1016",
      "taf": "TAF EFTU 201727Z 2018/2118 05008KT CAVOK"
    },
    {
      "icao": "EGBB",
      "alert": "OK",
      "vis_m": 9999,
      "fzfg": false,
      "metar_trigger": false,
      "taf_trigger": false,
      "metar": "METAR EGBB 201750Z 34008KT CAVOK 25/09 Q1026",
      "taf": "TAF EGBB 201703Z 2018/2118 02010KT 9999 FEW045"
    },
    {
      "icao": "EGGP",
      "alert": "OK",
      "vis_m": 9999,
      "fzfg": false,
      "metar_trigger": false,
      "taf_trigger": false,
      "metar": "METAR EGGP 201750Z 30009KT CAVOK 19/12 Q1028",
      "taf": "TAF EGGP 201655Z 2018/2118 29008KT 9999 FEW040"
    },
    {
      "icao": "EGGW",
      "alert": "OK",
      "vis_m": 9999,
      "fzfg": false,
      "metar_trigger": false,
      "taf_trigger": false,
      "metar": "METAR EGGW 201750Z AUTO 02005KT 340V070 9999 NCD 23/06 Q1026",
      "taf": "TAF EGGW 201703Z 2018/2118 03007KT CAVOK"
    },
    {
      "icao": "EGKK",
      "alert": "OK",
      "vis_m": 9999,
      "fzfg": false,
      "metar_trigger": false,
      "taf_trigger": false,
      "metar": "METAR EGKK 201750Z 10007KT 040V210 CAVOK 24/08 Q1025",
      "taf": "TAF EGKK 201702Z 2018/2124 19004KT CAVOK"
    },
    {
      "icao": "EGNM",
      "alert": "OK",
      "vis_m": 9999,
      "fzfg": false,
      "metar_trigger": false,
      "taf_trigger": false,
      "metar": "METAR EGNM 201750Z 08008KT 040V110 CAVOK 21/10 Q1027",
      "taf": "TAF EGNM 201652Z 2018/2118 04005KT 9999 FEW030"
    },
    {
      "icao": "EGPD",
      "alert": "OK",
      "vis_m": 9999,
      "fzfg": false,
      "metar_trigger": false,
      "taf_trigger": false,
      "metar": "METAR EGPD 201750Z AUTO 35010KT 330V040 9999 SCT021 BKN027 18/12 Q1028",
      "taf": "TAF EGPD 201653Z 2018/2118 34010KT 9999 SCT025"
    },
    {
      "icao": "EGPF",
      "alert": "OK",
      "vis_m": 9999,
      "fzfg": false,
      "metar_trigger": false,
      "taf_trigger": false,
      "metar": "METAR EGPF 201750Z AUTO 29009KT 9999 NCD 23/14 Q1027",
      "taf": "TAF EGPF 201657Z 2018/2118 VRB03KT 9999 FEW040"
    },
    {
      "icao": "EHBK",
      "alert": "OK",
      "vis_m": 9999,
      "fzfg": false,
      "metar_trigger": false,
      "taf_trigger": false,
      "metar": "METAR EHBK 201755Z AUTO 35007KT 310V040 9999 NSC 21/08 Q1023 NOSIG",
      "taf": "TAF EHBK 201700Z 2018/2124 36007KT CAVOK"
    },
    {
      "icao": "EHEH",
      "alert": "OK",
      "vis_m": 9999,
      "fzfg": false,
      "metar_trigger": false,
      "taf_trigger": false,
      "metar": "METAR EHEH 201755Z AUTO 34006KT 280V040 9999 NCD 21/08 Q1023 BLU NOSIG RMK TREND REMOTE BY EHWX",
      "taf": "TAF EHEH 201750Z 2018/2124 33006KT 9999 FEW040"
    },
    {
      "icao": "EKBI",
      "alert": "OK",
      "vis_m": 9999,
      "fzfg": false,
      "metar_trigger": false,
      "taf_trigger": false,
      "metar": "METAR EKBI 201750Z AUTO 32012KT 9999 NCD 20/05 Q1021",
      "taf": "TAF EKBI 201727Z 2018/2118 35012KT 9999 FEW040"
    },
    {
      "icao": "EKCH",
      "alert": "OK",
      "vis_m": 9999,
      "fzfg": false,
      "metar_trigger": false,
      "taf_trigger": false,
      "metar": "METAR EKCH 201750Z AUTO 33011KT 310V030 9999 FEW100/// 20/08 Q1017 NOSIG",
      "taf": "TAF EKCH 201727Z 2018/2118 35015KT 9999 SCT030"
    },
    {
      "icao": "ENAL",
      "alert": "OK",
      "vis_m": 9999,
      "fzfg": false,
      "metar_trigger": false,
      "taf_trigger": false,
      "metar": "METAR ENAL 201750Z 35007KT 310V020 CAVOK 14/10 Q1025",
      "taf": "TAF ENAL 201700Z 2018/2103 34006KT 9999 FEW020"
    },
    {
      "icao": "ENBR",
      "alert": "OK",
      "vis_m": 9999,
      "fzfg": false,
      "metar_trigger": false,
      "taf_trigger": false,
      "metar": "METAR ENBR 201750Z 32011KT CAVOK 14/09 Q1023 NOSIG RMK WIND 1200FT 34017KT",
      "taf": "TAF ENBR 201700Z 2018/2118 32009KT 9999 FEW010"
    },
    {
      "icao": "ENGM",
      "alert": "OK",
      "vis_m": 9999,
      "fzfg": false,
      "metar_trigger": false,
      "taf_trigger": false,
      "metar": "METAR ENGM 201750Z 03003KT 310V070 CAVOK 22/04 Q1020 NOSIG",
      "taf": "TAF ENGM 201700Z 2018/2118 36005KT CAVOK"
    },
    {
      "icao": "ENHD",
      "alert": "OK",
      "vis_m": 9999,
      "fzfg": false,
      "metar_trigger": false,
      "taf_trigger": false,
      "metar": "METAR ENHD 201750Z 35014KT CAVOK 14/10 Q1024",
      "taf": "TAF ENHD 201400Z 2015/2022 34015KT CAVOK"
    },
    {
      "icao": "ENTC",
      "alert": "OK",
      "vis_m": 9999,
      "fzfg": false,
      "metar_trigger": false,
      "taf_trigger": false,
      "metar": "METAR ENTC 201750Z 02006KT 9999 SCT051 11/05 Q1019 NOSIG RMK WIND 2600FT 19013KT",
      "taf": "TAF ENTC 201700Z 2018/2118 26003KT 9999 FEW020 SCT050"
    },
    {
      "icao": "ENTO",
      "alert": "OK",
      "vis_m": 9999,
      "fzfg": false,
      "metar_trigger": false,
      "taf_trigger": false,
      "metar": "METAR ENTO 201750Z 07003KT 030V120 CAVOK 22/05 Q1020 NOSIG",
      "taf": "TAF ENTO 201700Z 2018/2118 28005KT CAVOK"
    },
    {
      "icao": "ENVA",
      "alert": "OK",
      "vis_m": 9999,
      "fzfg": false,
      "metar_trigger": false,
      "taf_trigger": false,
      "metar": "METAR ENVA 201750Z 26014KT CAVOK 16/09 Q1023 NOSIG RMK WIND 670FT 27013KT",
      "taf": "TAF ENVA 201700Z 2018/2118 27016KT CAVOK"
    },
    {
      "icao": "ENZV",
      "alert": "OK",
      "vis_m": 9999,
      "fzfg": false,
      "metar_trigger": false,
      "taf_trigger": false,
      "metar": "METAR ENZV 201750Z 32012KT CAVOK 15/07 Q1023 NOSIG",
      "taf": "TAF ENZV 201700Z 2018/2118 32012KT CAVOK"
    },
    {
      "icao": "EPGD",
      "alert": "OK",
      "vis_m": 9999,
      "fzfg": false,
      "metar_trigger": false,
      "taf_trigger": false,
      "metar": "METAR EPGD 201800Z 19002KT 9999 -SHRA SCT011 SCT027TCU 14/13 Q1010",
      "taf": "TAF EPGD 201730Z 2018/2118 30005KT 9999 BKN030"
    },
    {
      "icao": "EPKK",
      "alert": "OK",
      "vis_m": 9999,
      "fzfg": false,
      "metar_trigger": false,
      "taf_trigger": false,
      "metar": "METAR EPKK 201800Z 30007KT CAVOK 20/07 Q1017",
      "taf": "TAF EPKK 201730Z 2018/2118 24008KT CAVOK"
    },
    {
      "icao": "EPKT",
      "alert": "OK",
      "vis_m": 9999,
      "fzfg": false,
      "metar_trigger": false,
      "taf_trigger": false,
      "metar": "METAR EPKT 201800Z 30009KT CAVOK 17/08 Q1017",
      "taf": "TAF EPKT 201730Z 2018/2118 28010KT CAVOK"
    },
    {
      "icao": "EPLB",
      "alert": "OK",
      "vis_m": 9999,
      "fzfg": false,
      "metar_trigger": false,
      "taf_trigger": false,
      "metar": "METAR EPLB 201800Z 31009KT CAVOK 20/09 Q1015",
      "taf": "TAF EPLB 201730Z 2018/2118 24007KT CAVOK"
    },
    {
      "icao": "EPMO",
      "alert": "OK",
      "vis_m": 9999,
      "fzfg": false,
      "metar_trigger": false,
      "taf_trigger": false,
      "metar": "METAR EPMO 201800Z 22011KT CAVOK 17/13 Q1014",
      "taf": "TAF EPMO 201730Z 2018/2118 23007KT 9999 SCT040"
    },
    {
      "icao": "EPPO",
      "alert": "OK",
      "vis_m": 9999,
      "fzfg": false,
      "metar_trigger": false,
      "taf_trigger": false,
      "metar": "METAR EPPO 201800Z 27011KT 9999 BKN017 16/14 Q1015",
      "taf": "TAF EPPO 201730Z 2018/2118 27010KT 9999 BKN030"
    },
    {
      "icao": "EPRA",
      "alert": "OK",
      "vis_m": 9999,
      "fzfg": false,
      "metar_trigger": false,
      "taf_trigger": false,
      "metar": "METAR EPRA 201800Z 22005KT 190V260 CAVOK 17/10 Q1016",
      "taf": "TAF EPRA 201730Z 2018/2103 26010KT 9999 SCT040"
    },
    {
      "icao": "EPRZ",
      "alert": "OK",
      "vis_m": 9999,
      "fzfg": false,
      "metar_trigger": false,
      "taf_trigger": false,
      "metar": "METAR EPRZ 201800Z 28005KT CAVOK 22/07 Q1016",
      "taf": "TAF EPRZ 201730Z 2018/2118 27008KT CAVOK"
    },
    {
      "icao": "EPSC",
      "alert": "OK",
      "vis_m": 9999,
      "fzfg": false,
      "metar_trigger": false,
      "taf_trigger": false,
      "metar": "METAR EPSC 201800Z 32010KT 9999 -RA FEW006 SCT009 BKN027 14/14 Q1016",
      "taf": "TAF EPSC 201730Z 2018/2118 33012KT 9999 BKN025"
    },
    {
      "icao": "EPSY",
      "alert": "OK",
      "vis_m": 9999,
      "fzfg": false,
      "metar_trigger": false,
      "taf_trigger": false,
      "metar": "METAR EPSY 201800Z 22007KT CAVOK 16/11 Q1012",
      "taf": "TAF EPSY 201730Z 2018/2103 23008KT CAVOK"
    },
    {
      "icao": "EPWA",
      "alert": "OK",
      "vis_m": 9999,
      "fzfg": false,
      "metar_trigger": false,
      "taf_trigger": false,
      "metar": "METAR EPWA 201800Z 22005KT 190V250 9999 SCT046 17/12 Q1014 NOSIG",
      "taf": "TAF EPWA 201730Z 2018/2118 23007KT 9999 SCT040"
    },
    {
      "icao": "EPWR",
      "alert": "OK",
      "vis_m": 9999,
      "fzfg": false,
      "metar_trigger": false,
      "taf_trigger": false,
      "metar": "METAR EPWR 201800Z 26010KT 9999 FEW029TCU SCT042 18/13 Q1017",
      "taf": "TAF EPWR 201730Z 2018/2118 27010KT CAVOK"
    },
    {
      "icao": "ESGG",
      "alert": "OK",
      "vis_m": 9999,
      "fzfg": false,
      "metar_trigger": false,
      "taf_trigger": false,
      "metar": "METAR ESGG 201750Z 01012KT CAVOK 19/05 Q1019",
      "taf": "TAF ESGG 201730Z 2018/2118 02015G25KT CAVOK"
    },
    {
      "icao": "ESKN",
      "alert": "OK",
      "vis_m": 9999,
      "fzfg": false,
      "metar_trigger": false,
      "taf_trigger": false,
      "metar": "METAR ESKN 201750Z 01009KT 330V050 CAVOK 17/03 Q1018",
      "taf": "TAF ESKN 201730Z 2018/2118 01007KT CAVOK"
    },
    {
      "icao": "ESMS",
      "alert": "OK",
      "vis_m": 9999,
      "fzfg": false,
      "metar_trigger": false,
      "taf_trigger": false,
      "metar": "METAR ESMS 201750Z 05007KT 010V070 CAVOK 18/08 Q1017",
      "taf": "TAF ESMS 201727Z 2018/2118 35010KT 9999 SCT030"
    },
    {
      "icao": "ESSA",
      "alert": "OK",
      "vis_m": 9999,
      "fzfg": false,
      "metar_trigger": false,
      "taf_trigger": false,
      "metar": "METAR ESSA 201750Z 02014KT CAVOK 15/03 Q1018 NOSIG",
      "taf": "TAF ESSA 201730Z 2018/2118 03015G25KT CAVOK"
    },
    {
      "icao": "EYKA",
      "alert": "OK",
      "vis_m": 9999,
      "fzfg": false,
      "metar_trigger": false,
      "taf_trigger": false,
      "metar": "METAR EYKA 201750Z 26009KT 9999 FEW036 18/12 Q1011",
      "taf": "TAF EYKA 201700Z 2018/2118 VRB05KT 9000 SCT035"
    },
    {
      "icao": "EYPA",
      "alert": "OK",
      "vis_m": 9999,
      "fzfg": false,
      "metar_trigger": false,
      "taf_trigger": false,
      "metar": "METAR EYPA 201750Z 25004KT 190V310 9999 SCT019 16/12 Q1010",
      "taf": "TAF EYPA 201717Z 2018/2118 VRB03KT 9000 SCT010 BKN020"
    },
    {
      "icao": "EYVI",
      "alert": "OK",
      "vis_m": 9999,
      "fzfg": false,
      "metar_trigger": false,
      "taf_trigger": false,
      "metar": "METAR EYVI 201750Z 23007KT CAVOK 17/12 Q1011 NOSIG",
      "taf": "TAF EYVI 201700Z 2018/2118 VRB03KT 9000 NSC"
    },
    {
      "icao": "GCFV",
      "alert": "OK",
      "vis_m": 9999,
      "fzfg": false,
      "metar_trigger": false,
      "taf_trigger": false,
      "metar": "METAR GCFV 201800Z 04018KT 9999 FEW020 25/20 Q1015",
      "taf": "TAF GCFV 201400Z 2015/2115 04020KT 9999 FEW020 TX27/2114Z TN22/2106Z"
    },
    {
      "icao": "GCLP",
      "alert": "OK",
      "vis_m": 9999,
      "fzfg": false,
      "metar_trigger": false,
      "taf_trigger": false,
      "metar": "METAR GCLP 201800Z 01028KT 9999 SCT025 26/19 Q1016 NOSIG",
      "taf": "TAF GCLP 201400Z 2015/2115 02027KT 9999 FEW025 TX28/2114Z TN22/2106Z"
    },
    {
      "icao": "GCTS",
      "alert": "OK",
      "vis_m": 9999,
      "fzfg": false,
      "metar_trigger": false,
      "taf_trigger": false,
      "metar": "METAR GCTS 201800Z 08016KT 040V110 CAVOK 28/18 Q1016 WS R07 NOSIG",
      "taf": "TAF GCTS 201400Z 2015/2115 08022KT 9999 FEW020 TX30/2114Z TN22/2106Z"
    },
    {
      "icao": "GMAD",
      "alert": "OK",
      "vis_m": 8000,
      "fzfg": false,
      "metar_trigger": false,
      "taf_trigger": false,
      "metar": "METAR GMAD 201800Z 21008KT 8000 NSC 30/18 Q1010 NOSIG",
      "taf": "TAF GMAD 201700Z 2018/2124 18006KT 8000 NSC"
    },
    {
      "icao": "GMMN",
      "alert": "OK",
      "vis_m": 9999,
      "fzfg": false,
      "metar_trigger": false,
      "taf_trigger": false,
      "metar": "METAR GMMN 201800Z 02013KT 350V050 CAVOK 25/19 Q1016 NOSIG",
      "taf": "TAF GMMN 201700Z 2018/2124 04014KT CAVOK"
    },
    {
      "icao": "GMMX",
      "alert": "OK",
      "vis_m": 8000,
      "fzfg": false,
      "metar_trigger": false,
      "taf_trigger": false,
      "metar": "METAR GMMX 201800Z 33009KT 290V360 8000 NSC 36/18 Q1014 NOSIG",
      "taf": "TAF GMMX 201700Z 2018/2124 32006KT 8000 NSC"
    },
    {
      "icao": "HEGN",
      "alert": "OK",
      "vis_m": 9999,
      "fzfg": false,
      "metar_trigger": false,
      "taf_trigger": false,
      "metar": "METAR HEGN 201700Z 35012KT CAVOK 38/07 Q1007 NOSIG",
      "taf": "TAF HEGN 201700Z 2018/2124 34013KT CAVOK"
    },
    {
      "icao": "HEMA",
      "alert": "OK",
      "vis_m": 9999,
      "fzfg": false,
      "metar_trigger": false,
      "taf_trigger": false,
      "metar": "METAR HEMA 201700Z 36008KT CAVOK 34/14 Q1007 NOSIG",
      "taf": "TAF HEMA 201700Z 2018/2124 35008G20KT CAVOK"
    },
    {
      "icao": "HESH",
      "alert": "OK",
      "vis_m": 9999,
      "fzfg": false,
      "metar_trigger": false,
      "taf_trigger": false,
      "metar": "METAR HESH 201700Z 36008KT CAVOK 39/10 Q1005 NOSIG",
      "taf": "TAF HESH 201700Z 2018/2124 35012KT CAVOK"
    },
    {
      "icao": "HESX",
      "alert": "OK",
      "vis_m": 9999,
      "fzfg": false,
      "metar_trigger": false,
      "taf_trigger": false,
      "metar": "METAR HESX 201700Z 03008KT CAVOK 34/16 Q1009 NOSIG",
      "taf": "TAF HESX 201700Z 2018/2124 36010KT CAVOK"
    },
    {
      "icao": "LATI",
      "alert": "OK",
      "vis_m": 9999,
      "fzfg": false,
      "metar_trigger": false,
      "taf_trigger": false,
      "metar": "METAR LATI 201750Z 30003KT 250V340 CAVOK 31/14 Q1013 NOSIG",
      "taf": "TAF LATI 201700Z 2018/2118 VRB03KT CAVOK TX38/2110Z TN22/2104Z"
    },
    {
      "icao": "LBPD",
      "alert": "OK",
      "vis_m": 9999,
      "fzfg": false,
      "metar_trigger": false,
      "taf_trigger": false,
      "metar": "METAR LBPD 201800Z AUTO 12011KT 9999 SCT110/// OVC150/// 30/19 Q1014 NOSIG",
      "taf": "TAF LBPD 201700Z 2018/2118 10010KT 9999 SCT070"
    },
    {
      "icao": "LBSF",
      "alert": "OK",
      "vis_m": 9999,
      "fzfg": false,
      "metar_trigger": false,
      "taf_trigger": false,
      "metar": "METAR LBSF 201800Z AUTO 31008KT 280V010 9999 -SHRA FEW037 //////CB 20/17 Q1019 RETSRA NOSIG",
      "taf": "TAF LBSF 201700Z 2018/2118 30010KT 9999 SCT060"
    },
    {
      "icao": "LBWN",
      "alert": "OK",
      "vis_m": 9999,
      "fzfg": false,
      "metar_trigger": false,
      "taf_trigger": false,
      "metar": "METAR LBWN 201800Z AUTO 14004KT 090V180 9999 NCD 24/19 Q1014 NOSIG",
      "taf": "TAF LBWN 201700Z 2018/2118 VRB03KT 9999 SCT045"
    },
    {
      "icao": "LCLK",
      "alert": "OK",
      "vis_m": 9999,
      "fzfg": false,
      "metar_trigger": false,
      "taf_trigger": false,
      "metar": "METAR LCLK 201800Z 32003KT 290V010 CAVOK 32/22 Q1007 NOSIG",
      "taf": "TAF LCLK 201730Z 2018/2118 28005KT CAVOK"
    },
    {
      "icao": "LCPH",
      "alert": "OK",
      "vis_m": 9999,
      "fzfg": false,
      "metar_trigger": false,
      "taf_trigger": false,
      "metar": "METAR LCPH 201800Z 32008KT 9999 FEW012 29/25 Q1008 NOSIG",
      "taf": "TAF LCPH 201730Z 2018/2118 30010KT 9999 FEW012"
    },
    {
      "icao": "LEAL",
      "alert": "OK",
      "vis_m": 9999,
      "fzfg": false,
      "metar_trigger": false,
      "taf_trigger": false,
      "metar": "METAR LEAL 201800Z VRB02KT CAVOK 31/27 Q1013 NOSIG",
      "taf": "TAF LEAL 201700Z 2018/2118 VRB04KT 9999 FEW015 TX35/2116Z TN25/2106Z"
    },
    {
      "icao": "LEBB",
      "alert": "OK",
      "vis_m": 9999,
      "fzfg": false,
      "metar_trigger": false,
      "taf_trigger": false,
      "metar": "METAR LEBB 201800Z 31009KT 280V340 CAVOK 26/19 Q1017 NOSIG",
      "taf": "TAF LEBB 201700Z 2018/2118 28009KT 9999 FEW025 TX30/2112Z TN19/2105Z"
    },
    {
      "icao": "LEBL",
      "alert": "OK",
      "vis_m": 9999,
      "fzfg": false,
      "metar_trigger": false,
      "taf_trigger": false,
      "metar": "SPECI LEBL 201810Z VRB02KT 9999 FEW030 FEW060CB 28/26 Q1012 RESHRA BECMG NSC",
      "taf": "TAF LEBL 201700Z 2018/2118 21008KT 9999 SCT060 TX33/2113Z TN25/2105Z"
    },
    {
      "icao": "LECH",
      "alert": "OK",
      "vis_m": 9999,
      "fzfg": false,
      "metar_trigger": false,
      "taf_trigger": false,
      "metar": "METAR LECH 201800Z AUTO 10006KT 060V160 CAVOK 29/23 Q1014",
      "taf": "TAF LECH 201700Z 2018/2118 VRB04KT 9999 BKN010 TX36/2113Z TN22/2106Z"
    },
    {
      "icao": "LEMD",
      "alert": "OK",
      "vis_m": 9999,
      "fzfg": false,
      "metar_trigger": false,
      "taf_trigger": false,
      "metar": "METAR LEMD 201800Z 24011KT 220V280 CAVOK 35/03 Q1015 NOSIG",
      "taf": "TAF LEMD 201700Z 2018/2124 VRB04KT CAVOK TX38/2116Z TN18/2105Z"
    },
    {
      "icao": "LEMG",
      "alert": "OK",
      "vis_m": 9999,
      "fzfg": false,
      "metar_trigger": false,
      "taf_trigger": false,
      "metar": "METAR LEMG 201800Z 10004KT CAVOK 28/17 Q1011 NOSIG",
      "taf": "TAF LEMG 201700Z 2018/2118 14010KT CAVOK TX36/2114Z TN24/2105Z"
    },
    {
      "icao": "LEVC",
      "alert": "OK",
      "vis_m": 9999,
      "fzfg": false,
      "metar_trigger": false,
      "taf_trigger": false,
      "metar": "METAR LEVC 201800Z 08006G16KT 030V120 CAVOK 31/25 Q1012 NOSIG",
      "taf": "TAF LEVC 201700Z 2018/2118 VRB04KT 9999 FEW015 TX34/2113Z TN25/2106Z"
    },
    {
      "icao": "LEXJ",
      "alert": "OK",
      "vis_m": 9999,
      "fzfg": false,
      "metar_trigger": false,
      "taf_trigger": false,
      "metar": "METAR LEXJ 201800Z 04005KT 340V100 CAVOK 24/18 Q1018",
      "taf": "TAF LEXJ 201400Z 2015/2115 05009KT CAVOK TX28/2110Z TN20/2103Z"
    },
    {
      "icao": "LEZG",
      "alert": "OK",
      "vis_m": 9999,
      "fzfg": false,
      "metar_trigger": false,
      "taf_trigger": false,
      "metar": "METAR LEZG 201800Z 25009KT 220V280 CAVOK 41/00 Q1010 NOSIG",
      "taf": "TAF LEZG 201700Z 2018/2118 27014KT CAVOK TX39/2114Z TN23/2106Z"
    },
    {
      "icao": "LEZL",
      "alert": "OK",
      "vis_m": 9999,
      "fzfg": false,
      "metar_trigger": false,
      "taf_trigger": false,
      "metar": "METAR LEZL 201800Z 22009KT 190V250 CAVOK 34/14 Q1013 NOSIG",
      "taf": "TAF LEZL 201400Z 2015/2115 23010KT CAVOK TX37/2015Z TN21/2105Z"
    },
    {
      "icao": "LFBD",
      "alert": "OK",
      "vis_m": 9999,
      "fzfg": false,
      "metar_trigger": false,
      "taf_trigger": false,
      "metar": "METAR LFBD 201800Z AUTO 01012KT CAVOK 31/08 Q1015 NOSIG",
      "taf": "TAF LFBD 201700Z 2018/2124 03010KT CAVOK TX33/2115Z TN19/2105Z"
    },
    {
      "icao": "LFLL",
      "alert": "OK",
      "vis_m": 9999,
      "fzfg": false,
      "metar_trigger": false,
      "taf_trigger": false,
      "metar": "METAR LFLL 201800Z 36012KT CAVOK 26/06 Q1017 NOSIG",
      "taf": "TAF LFLL 201700Z 2018/2124 35011KT CAVOK"
    },
    {
      "icao": "LFLS",
      "alert": "OK",
      "vis_m": 9999,
      "fzfg": false,
      "metar_trigger": false,
      "taf_trigger": false,
      "metar": "METAR LFLS 201800Z AUTO 35011KT CAVOK 26/08 Q1017 NOSIG",
      "taf": "TAF LFLS 201400Z 2015/2115 35010KT CAVOK"
    },
    {
      "icao": "LFMN",
      "alert": "OK",
      "vis_m": 9999,
      "fzfg": false,
      "metar_trigger": false,
      "taf_trigger": false,
      "metar": "METAR LFMN 201800Z 11010KT 9999 FEW025 29/24 Q1012 NOSIG",
      "taf": "TAF LFMN 201400Z 2015/2121 14006KT 9999 FEW016"
    },
    {
      "icao": "LFOB",
      "alert": "OK",
      "vis_m": 9999,
      "fzfg": false,
      "metar_trigger": false,
      "taf_trigger": false,
      "metar": "METAR LFOB 201800Z AUTO 02013KT CAVOK 22/07 Q1023 NOSIG",
      "taf": "TAF LFOB 201700Z 2018/2118 03010KT CAVOK"
    },
    {
      "icao": "LFPO",
      "alert": "OK",
      "vis_m": 9999,
      "fzfg": false,
      "metar_trigger": false,
      "taf_trigger": false,
      "metar": "METAR LFPO 201800Z AUTO 04012KT CAVOK 23/07 Q1022 NOSIG",
      "taf": "TAF LFPO 201700Z 2018/2124 04010KT CAVOK"
    },
    {
      "icao": "LFSB",
      "alert": "OK",
      "vis_m": 9999,
      "fzfg": false,
      "metar_trigger": false,
      "taf_trigger": false,
      "metar": "METAR LFSB 201800Z AUTO 35011KT CAVOK 24/07 Q1019 NOSIG",
      "taf": "TAF LFSB 201700Z 2018/2118 36008KT CAVOK"
    },
    {
      "icao": "LGAV",
      "alert": "OK",
      "vis_m": 9999,
      "fzfg": false,
      "metar_trigger": false,
      "taf_trigger": false,
      "metar": "METAR LGAV 201750Z 02004KT CAVOK 31/16 Q1013 NOSIG",
      "taf": "TAF LGAV 201700Z 2018/2118 03010KT 9999 FEW025"
    },
    {
      "icao": "LGTS",
      "alert": "OK",
      "vis_m": 9999,
      "fzfg": false,
      "metar_trigger": false,
      "taf_trigger": false,
      "metar": "METAR LGTS 201750Z 14007KT 9999 FEW025 32/19 Q1011 NOSIG",
      "taf": "TAF LGTS 201700Z 2018/2118 18013KT 9999 FEW030"
    },
    {
      "icao": "LHBP",
      "alert": "OK",
      "vis_m": 9999,
      "fzfg": false,
      "metar_trigger": false,
      "taf_trigger": false,
      "metar": "METAR LHBP 201800Z 32009KT CAVOK 26/09 Q1017 NOSIG",
      "taf": "TAF LHBP 201715Z 2018/2118 30006KT CAVOK"
    },
    {
      "icao": "LHDC",
      "alert": "OK",
      "vis_m": 9999,
      "fzfg": false,
      "metar_trigger": false,
      "taf_trigger": false,
      "metar": "METAR LHDC 201745Z AUTO 28008KT CAVOK 27/04 Q1016 NOSIG",
      "taf": "TAF LHDC 201415Z 2015/2024 28009KT CAVOK"
    },
    {
      "icao": "LIBD",
      "alert": "OK",
      "vis_m": 9999,
      "fzfg": false,
      "metar_trigger": false,
      "taf_trigger": false,
      "metar": "METAR LIBD 201750Z VRB02KT CAVOK 30/22 Q1012",
      "taf": "TAF LIBD 201700Z 2018/2118 26007KT CAVOK"
    },
    {
      "icao": "LIBG",
      "alert": "OK",
      "vis_m": 9999,
      "fzfg": false,
      "metar_trigger": false,
      "taf_trigger": false,
      "metar": "METAR LIBG 201750Z 24004KT CAVOK 33/22 Q1012",
      "taf": "TAF LIBG 201100Z 2012/2112 22010KT CAVOK"
    },
    {
      "icao": "LIBP",
      "alert": "OK",
      "vis_m": 9999,
      "fzfg": false,
      "metar_trigger": false,
      "taf_trigger": false,
      "metar": "METAR LIBP 201750Z AUTO 02004KT 320V060 9999 BKN180/// 29/23 Q1014",
      "taf": "TAF LIBP 201700Z 2018/2118 VRB05KT CAVOK"
    },
    {
      "icao": "LIBR",
      "alert": "OK",
      "vis_m": 9999,
      "fzfg": false,
      "metar_trigger": false,
      "taf_trigger": false,
      "metar": "METAR LIBR 201750Z VRB02KT CAVOK 30/27 Q1011",
      "taf": "TAF LIBR 201700Z 2018/2118 24006KT CAVOK"
    },
    {
      "icao": "LICA",
      "alert": "OK",
      "vis_m": 9999,
      "fzfg": false,
      "metar_trigger": false,
      "taf_trigger": false,
      "metar": "METAR LICA 201750Z AUTO 20004KT 150V280 9999 NCD 30/20 Q1014",
      "taf": "TAF LICA 201700Z 2018/2118 VRB05KT CAVOK"
    },
    {
      "icao": "LICC",
      "alert": "OK",
      "vis_m": 9999,
      "fzfg": false,
      "metar_trigger": false,
      "taf_trigger": false,
      "metar": "METAR LICC 201750Z 09004KT CAVOK 34/17 Q1013",
      "taf": "TAF LICC 201700Z 2018/2118 09012KT CAVOK"
    },
    {
      "icao": "LICJ",
      "alert": "OK",
      "vis_m": 9999,
      "fzfg": false,
      "metar_trigger": false,
      "taf_trigger": false,
      "metar": "METAR LICJ 201750Z VRB02KT CAVOK 30/27 Q1014",
      "taf": "TAF LICJ 201700Z 2018/2118 VRB05KT CAVOK"
    },
    {
      "icao": "LIMC",
      "alert": "OK",
      "vis_m": 9999,
      "fzfg": false,
      "metar_trigger": false,
      "taf_trigger": false,
      "metar": "METAR LIMC 201750Z 14003KT 100V190 CAVOK 30/13 Q1013 NOSIG",
      "taf": "TAF LIMC 201700Z 2018/2124 VRB05KT 9999 FEW050"
    },
    {
      "icao": "LIME",
      "alert": "OK",
      "vis_m": 9999,
      "fzfg": false,
      "metar_trigger": false,
      "taf_trigger": false,
      "metar": "METAR LIME 201750Z 14007KT CAVOK 27/17 Q1014 NOSIG",
      "taf": "TAF LIME 201700Z 2018/2118 VRB05KT 9999 SCT030"
    },
    {
      "icao": "LIMF",
      "alert": "OK",
      "vis_m": 9999,
      "fzfg": false,
      "metar_trigger": false,
      "taf_trigger": false,
      "metar": "METAR LIMF 201750Z 07006KT CAVOK 29/18 Q1014",
      "taf": "TAF LIMF 201700Z 2018/2118 VRB05KT 9999 SCT030"
    },
    {
      "icao": "LIMJ",
      "alert": "OK",
      "vis_m": 9999,
      "fzfg": false,
      "metar_trigger": false,
      "taf_trigger": false,
      "metar": "METAR LIMJ 201750Z 22003KT CAVOK 29/24 Q1012",
      "taf": "TAF LIMJ 201700Z 2018/2118 VRB05KT 9999 SCT030"
    },
    {
      "icao": "LIPE",
      "alert": "OK",
      "vis_m": 9999,
      "fzfg": false,
      "metar_trigger": false,
      "taf_trigger": false,
      "metar": "METAR LIPE 201750Z 08008KT CAVOK 28/20 Q1013",
      "taf": "TAF LIPE 201700Z 2018/2118 11010KT CAVOK"
    },
    {
      "icao": "LIPH",
      "alert": "OK",
      "vis_m": 9999,
      "fzfg": false,
      "metar_trigger": false,
      "taf_trigger": false,
      "metar": "METAR LIPH 201750Z 14004KT CAVOK 28/17 Q1013",
      "taf": "TAF LIPH 201700Z 2018/2118 VRB05KT 9999 SCT030"
    },
    {
      "icao": "LIPQ",
      "alert": "OK",
      "vis_m": 9999,
      "fzfg": false,
      "metar_trigger": false,
      "taf_trigger": false,
      "metar": "METAR LIPQ 201750Z AUTO VRB02KT 9999 NCD 29/15 Q1013",
      "taf": "TAF LIPQ 201700Z 2018/2118 VRB05KT CAVOK"
    },
    {
      "icao": "LIPR",
      "alert": "OK",
      "vis_m": 9999,
      "fzfg": false,
      "metar_trigger": false,
      "taf_trigger": false,
      "metar": "METAR LIPR 201750Z 11008KT CAVOK 26/21 Q1013",
      "taf": "TAF LIPR 201700Z 2018/2118 22006KT CAVOK"
    },
    {
      "icao": "LIPX",
      "alert": "OK",
      "vis_m": 9999,
      "fzfg": false,
      "metar_trigger": false,
      "taf_trigger": false,
      "metar": "METAR LIPX 201750Z 14005KT CAVOK 28/16 Q1013",
      "taf": "TAF LIPX 201700Z 2018/2118 10010KT 9999 FEW040"
    },
    {
      "icao": "LIPY",
      "alert": "OK",
      "vis_m": 9999,
      "fzfg": false,
      "metar_trigger": false,
      "taf_trigger": false,
      "metar": "METAR LIPY 201750Z AUTO 07006KT 040V100 9999 NCD 27/19 Q1014",
      "taf": "TAF LIPY 201700Z 2018/2118 23006KT CAVOK"
    },
    {
      "icao": "LIPZ",
      "alert": "OK",
      "vis_m": 9999,
      "fzfg": false,
      "metar_trigger": false,
      "taf_trigger": false,
      "metar": "METAR LIPZ 201750Z 16003KT 130V190 CAVOK 27/18 Q1013 NOSIG",
      "taf": "TAF LIPZ 201700Z 2018/2124 03008KT 9999 FEW030"
    },
    {
      "icao": "LIRF",
      "alert": "OK",
      "vis_m": 9999,
      "fzfg": false,
      "metar_trigger": false,
      "taf_trigger": false,
      "metar": "METAR LIRF 201750Z 25006KT 230V290 CAVOK 30/25 Q1013 NOSIG",
      "taf": "TAF LIRF 201700Z 2018/2124 VRB05KT CAVOK"
    },
    {
      "icao": "LIRN",
      "alert": "OK",
      "vis_m": 9999,
      "fzfg": false,
      "metar_trigger": false,
      "taf_trigger": false,
      "metar": "METAR LIRN 201750Z 19006KT CAVOK 30/23 Q1014 NOSIG",
      "taf": "TAF LIRN 201700Z 2018/2118 VRB05KT CAVOK"
    },
    {
      "icao": "LIRP",
      "alert": "OK",
      "vis_m": 9999,
      "fzfg": false,
      "metar_trigger": false,
      "taf_trigger": false,
      "metar": "METAR LIRP 201745Z 28007KT CAVOK 29/24 Q1013 NOSIG",
      "taf": "TAF LIRP 201700Z 2018/2118 24008KT CAVOK"
    },
    {
      "icao": "LIRZ",
      "alert": "OK",
      "vis_m": 9999,
      "fzfg": false,
      "metar_trigger": false,
      "taf_trigger": false,
      "metar": "METAR LIRZ 201750Z AUTO 30008KT 270V330 9999 SCT087/// 36/12 Q1013",
      "taf": "TAF LIRZ 201700Z 2018/2118 28012KT 9999 FEW040"
    },
    {
      "icao": "LJLJ",
      "alert": "OK",
      "vis_m": 9999,
      "fzfg": false,
      "metar_trigger": false,
      "taf_trigger": false,
      "metar": "METAR LJLJ 201800Z 12006KT 9999 FEW050 23/14 Q1018 NOSIG",
      "taf": "TAF LJLJ 201700Z 2018/2118 12005KT 9999 FEW050"
    },
    {
      "icao": "LKMT",
      "alert": "OK",
      "vis_m": 9999,
      "fzfg": false,
      "metar_trigger": false,
      "taf_trigger": false,
      "metar": "METAR LKMT 201800Z 29007KT CAVOK 20/06 Q1018 NOSIG",
      "taf": "TAF LKMT 201700Z 2018/2118 23006KT CAVOK"
    },
    {
      "icao": "LKPR",
      "alert": "OK",
      "vis_m": 9999,
      "fzfg": false,
      "metar_trigger": false,
      "taf_trigger": false,
      "metar": "METAR LKPR 201800Z 32012KT CAVOK 18/08 Q1020 NOSIG",
      "taf": "TAF LKPR 201700Z 2018/2124 32012KT CAVOK"
    },
    {
      "icao": "LLBG",
      "alert": "OK",
      "vis_m": 9999,
      "fzfg": false,
      "metar_trigger": false,
      "taf_trigger": false,
      "metar": "METAR LLBG 201750Z 33004KT 9999 FEW020 29/22 Q1010 NOSIG",
      "taf": "TAF LLBG 201705Z 2018/2118 VRB03KT CAVOK TX33/2111Z TN23/2103Z"
    },
    {
      "icao": "LMML",
      "alert": "OK",
      "vis_m": 9999,
      "fzfg": false,
      "metar_trigger": false,
      "taf_trigger": false,
      "metar": "METAR LMML 201745Z 25008KT CAVOK 36/11 Q1014 NOSIG",
      "taf": "TAF LMML 201700Z 2018/2118 27006KT CAVOK"
    },
    {
      "icao": "LOWW",
      "alert": "OK",
      "vis_m": 9999,
      "fzfg": false,
      "metar_trigger": false,
      "taf_trigger": false,
      "metar": "METAR LOWW 201750Z 33004KT 290V360 CAVOK 25/07 Q1017 NOSIG",
      "taf": "TAF LOWW 201715Z 2018/2124 27010KT CAVOK TX24/2018Z TN12/2103Z"
    },
    {
      "icao": "LPFR",
      "alert": "OK",
      "vis_m": 9999,
      "fzfg": false,
      "metar_trigger": false,
      "taf_trigger": false,
      "metar": "METAR LPFR 201800Z 26012KT CAVOK 25/18 Q1014",
      "taf": "TAF LPFR 201700Z 2018/2118 24012KT CAVOK"
    },
    {
      "icao": "LPMA",
      "alert": "OK",
      "vis_m": 9999,
      "fzfg": false,
      "metar_trigger": false,
      "taf_trigger": false,
      "metar": "METAR LPMA 201800Z 02013KT 340V050 9999 FEW015 25/18 Q1021",
      "taf": "TAF LPMA 201700Z 2018/2118 02012KT 9999 SCT015"
    },
    {
      "icao": "LPPR",
      "alert": "OK",
      "vis_m": 9992,
      "fzfg": false,
      "metar_trigger": false,
      "taf_trigger": false,
      "metar": "METAR LPPR 201800Z 26004KT 210V320 9992 FEW015 23/18 Q1016",
      "taf": "TAF LPPR 201700Z 2018/2118 26008KT 9999 SCT015"
    },
    {
      "icao": "LPPS",
      "alert": "OK",
      "vis_m": 9999,
      "fzfg": false,
      "metar_trigger": false,
      "taf_trigger": false,
      "metar": "METAR LPPS 201800Z 01013KT 9999 FEW015 24/18 Q1021",
      "taf": "TAF LPPS 201700Z 2018/2124 01012KT 9999 SCT015"
    },
    {
      "icao": "LPPT",
      "alert": "OK",
      "vis_m": 9999,
      "fzfg": false,
      "metar_trigger": false,
      "taf_trigger": false,
      "metar": "METAR LPPT 201800Z 30007KT 250V340 9999 FEW030 24/16 Q1017 NOSIG",
      "taf": "TAF LPPT 201700Z 2018/2124 31010KT 9999 FEW030"
    },
    {
      "icao": "LQBK",
      "alert": "OK",
      "vis_m": 9999,
      "fzfg": false,
      "metar_trigger": false,
      "taf_trigger": false,
      "metar": "METAR LQBK 201800Z 05003KT CAVOK 23/12 Q1017 NOSIG",
      "taf": "TAF LQBK 201700Z 2018/2118 15006KT CAVOK TX26/2113Z TN16/2103Z"
    },
    {
      "icao": "LQSA",
      "alert": "OK",
      "vis_m": 9999,
      "fzfg": false,
      "metar_trigger": false,
      "taf_trigger": false,
      "metar": "METAR LQSA 201800Z VRB02KT CAVOK 22/17 Q1018 NOSIG",
      "taf": "TAF LQSA 201700Z 2018/2118 VRB02KT CAVOK TX25/2111Z TN16/2103Z"
    },
    {
      "icao": "LQTZ",
      "alert": "OK",
      "vis_m": 9999,
      "fzfg": false,
      "metar_trigger": false,
      "taf_trigger": false,
      "metar": "METAR LQTZ 201800Z 12002KT CAVOK 20/20 Q1018",
      "taf": "TAF LQTZ 201700Z 2018/2118 09005KT CAVOK TX25/2114Z TN13/2103Z"
    },
    {
      "icao": "LRBC",
      "alert": "OK",
      "vis_m": 9999,
      "fzfg": false,
      "metar_trigger": false,
      "taf_trigger": false,
      "metar": "METAR LRBC 201800Z 31005KT 9999 FEW017 SCT048 21/19 Q1016",
      "taf": "TAF LRBC 201700Z 2018/2103 34007KT 9999 SCT045"
    },
    {
      "icao": "LRBS",
      "alert": "OK",
      "vis_m": 9999,
      "fzfg": false,
      "metar_trigger": false,
      "taf_trigger": false,
      "metar": "METAR LRBS 201800Z 04003KT 360V070 9999 FEW050CB 24/19 Q1014 NOSIG",
      "taf": "TAF LRBS 201700Z 2018/2118 06008KT CAVOK"
    },
    {
      "icao": "LRBV",
      "alert": "OK",
      "vis_m": 9999,
      "fzfg": false,
      "metar_trigger": false,
      "taf_trigger": false,
      "metar": "METAR LRBV 201800Z 22007KT 9999 FEW030 20/18 Q1018",
      "taf": "TAF LRBV 201700Z 2018/2103 VRB04KT CAVOK"
    },
    {
      "icao": "LRCL",
      "alert": "OK",
      "vis_m": 9999,
      "fzfg": false,
      "metar_trigger": false,
      "taf_trigger": false,
      "metar": "METAR LRCL 201800Z 33004KT CAVOK 23/11 Q1017",
      "taf": "TAF LRCL 201700Z 2018/2103 VRB04KT CAVOK"
    },
    {
      "icao": "LRCV",
      "alert": "OK",
      "vis_m": 9999,
      "fzfg": false,
      "metar_trigger": false,
      "taf_trigger": false,
      "metar": "METAR LRCV 201800Z 27011KT CAVOK 26/15 Q1015",
      "taf": "TAF LRCV 201700Z 2018/2103 27012KT CAVOK"
    },
    {
      "icao": "LRIA",
      "alert": "OK",
      "vis_m": 9999,
      "fzfg": false,
      "metar_trigger": false,
      "taf_trigger": false,
      "metar": "METAR LRIA 201800Z 34009KT CAVOK 23/16 Q1016",
      "taf": "TAF LRIA 201700Z 2018/2103 31008KT 9999 FEW045"
    },
    {
      "icao": "LROP",
      "alert": "OK",
      "vis_m": 9999,
      "fzfg": false,
      "metar_trigger": false,
      "taf_trigger": false,
      "metar": "METAR LROP 201800Z 06005KT 020V080 CAVOK 24/20 Q1014 NOSIG",
      "taf": "TAF LROP 201700Z 2018/2118 06008KT CAVOK"
    },
    {
      "icao": "LRSB",
      "alert": "OK",
      "vis_m": 9999,
      "fzfg": false,
      "metar_trigger": false,
      "taf_trigger": false,
      "metar": "METAR LRSB 201800Z 26008KT CAVOK 22/12 Q1017",
      "taf": "TAF LRSB 201700Z 2018/2118 28010KT CAVOK"
    },
    {
      "icao": "LRSM",
      "alert": "OK",
      "vis_m": 9999,
      "fzfg": false,
      "metar_trigger": false,
      "taf_trigger": false,
      "metar": "METAR LRSM 201800Z AUTO 13004KT 9999 FEW075/// 24/13 Q1015",
      "taf": "TAF LRSM 201400Z 2015/2024 VRB04KT 9999 BKN045"
    },
    {
      "icao": "LRSV",
      "alert": "OK",
      "vis_m": 9999,
      "fzfg": false,
      "metar_trigger": false,
      "taf_trigger": false,
      "metar": "METAR LRSV 201800Z 24005KT CAVOK 19/16 Q1017",
      "taf": "TAF LRSV 201700Z 2018/2103 VRB04KT 9999 BKN020"
    },
    {
      "icao": "LRTM",
      "alert": "OK",
      "vis_m": 9999,
      "fzfg": false,
      "metar_trigger": false,
      "taf_trigger": false,
      "metar": "METAR LRTM 201800Z 35002KT CAVOK 24/18 Q1016",
      "taf": "TAF LRTM 201700Z 2018/2103 VRB04KT CAVOK"
    },
    {
      "icao": "LRTR",
      "alert": "OK",
      "vis_m": 9999,
      "fzfg": false,
      "metar_trigger": false,
      "taf_trigger": false,
      "metar": "METAR LRTR 201800Z 28003KT CAVOK 27/06 Q1016",
      "taf": "TAF LRTR 201700Z 2018/2118 VRB04KT CAVOK"
    },
    {
      "icao": "LTAC",
      "alert": "OK",
      "vis_m": 9999,
      "fzfg": false,
      "metar_trigger": false,
      "taf_trigger": false,
      "metar": "METAR LTAC 201750Z 05007KT CAVOK 26/11 Q1015 NOSIG RMK RWY21C 05006KT 020V080 RWY03L 04007KT RWY21R 02006KT 330V060 RWY03R 03009KT RWY21L 05004KT",
      "taf": "TAF LTAC 201640Z 2018/2118 VRB02KT CAVOK"
    },
    {
      "icao": "LTFM",
      "alert": "OK",
      "vis_m": 9999,
      "fzfg": false,
      "metar_trigger": false,
      "taf_trigger": false,
      "metar": "METAR LTFM 201750Z 07011KT CAVOK 25/19 Q1014 NOSIG RMK RWY17L 08008KT RWY34L 07012KT RWY16R 07009KT RWY36 07010KT RWY18 08009KT",
      "taf": "TAF LTFM 201640Z 2018/2124 06012KT CAVOK"
    },
    {
      "icao": "LUKK",
      "alert": "OK",
      "vis_m": 9999,
      "fzfg": false,
      "metar_trigger": false,
      "taf_trigger": false,
      "metar": "METAR LUKK 201800Z 33005KT CAVOK 24/19 Q1014 NOSIG",
      "taf": "TAF LUKK 201703Z 2018/2118 VRB05KT CAVOK"
    },
    {
      "icao": "LWOH",
      "alert": "OK",
      "vis_m": 9999,
      "fzfg": false,
      "metar_trigger": false,
      "taf_trigger": false,
      "metar": "METAR LWOH 201750Z VRB02KT CAVOK 29/15 Q1017",
      "taf": "TAF LWOH 201740Z 2018/2118 33006KT 9999 FEW040"
    },
    {
      "icao": "LWSK",
      "alert": "OK",
      "vis_m": 9999,
      "fzfg": false,
      "metar_trigger": false,
      "taf_trigger": false,
      "metar": "METAR LWSK 201750Z 34024G40KT 9999 FEW040TCU SCT050 BKN070 26/15 Q1019 TEMPO VRB15G30KT 5000 TSRA FEW035CB SCT050",
      "taf": "TAF LWSK 201740Z 2018/2118 02010KT 9999 FEW040"
    },
    {
      "icao": "LYBE",
      "alert": "OK",
      "vis_m": 9999,
      "fzfg": false,
      "metar_trigger": false,
      "taf_trigger": false,
      "metar": "METAR LYBE 201800Z 23007KT CAVOK 22/15 Q1017 NOSIG",
      "taf": "TAF LYBE 201700Z 2018/2118 26006KT CAVOK TX30/2113Z TN18/2103Z"
    },
    {
      "icao": "LYNI",
      "alert": "OK",
      "vis_m": 9999,
      "fzfg": false,
      "metar_trigger": false,
      "taf_trigger": false,
      "metar": "METAR LYNI 201800Z 09012KT 9999 -SHRA FEW017 FEW040TCU SCT050 20/19 Q1016 RESHRA BECMG NSC",
      "taf": "TAF LYNI 201700Z 2018/2118 04004KT CAVOK TX31/2113Z TN17/2103Z"
    },
    {
      "icao": "LYPG",
      "alert": "OK",
      "vis_m": 9999,
      "fzfg": false,
      "metar_trigger": false,
      "taf_trigger": false,
      "metar": "METAR LYPG 201800Z 20009KT 9999 FEW050 33/17 Q1011 NOSIG",
      "taf": "TAF LYPG 201700Z 2018/2118 35005KT CAVOK TX37/2113Z TN23/2103Z"
    },
    {
      "icao": "LZIB",
      "alert": "OK",
      "vis_m": 9999,
      "fzfg": false,
      "metar_trigger": false,
      "taf_trigger": false,
      "metar": "METAR LZIB 201800Z 36006KT CAVOK 24/10 Q1017 NOSIG",
      "taf": "TAF LZIB 201715Z 2018/2118 34007KT CAVOK"
    },
    {
      "icao": "LZKZ",
      "alert": "OK",
      "vis_m": 9999,
      "fzfg": false,
      "metar_trigger": false,
      "taf_trigger": false,
      "metar": "METAR LZKZ 201800Z 36010KT CAVOK 24/10 Q1016 NOSIG",
      "taf": "TAF LZKZ 201715Z 2018/2118 VRB02KT CAVOK"
    },
    {
      "icao": "LZTT",
      "alert": "OK",
      "vis_m": 9999,
      "fzfg": false,
      "metar_trigger": false,
      "taf_trigger": false,
      "metar": "METAR LZTT 201800Z 27009KT 9999 SCT063 17/07 Q1018",
      "taf": "TAF LZTT 201715Z 2018/2118 27009KT 9999 SCT050"
    },
    {
      "icao": "OEJN",
      "alert": "OK",
      "vis_m": 9999,
      "fzfg": false,
      "metar_trigger": false,
      "taf_trigger": false,
      "metar": "METAR OEJN 201800Z 35014KT CAVOK 35/20 Q1002 NOSIG",
      "taf": "TAF OEJN 201700Z 2018/2124 35006KT CAVOK"
    },
    {
      "icao": "OEMA",
      "alert": "OK",
      "vis_m": 9999,
      "fzfg": false,
      "metar_trigger": false,
      "taf_trigger": false,
      "metar": "METAR OEMA 201800Z 30015KT CAVOK 41/M04 Q1008 NOSIG",
      "taf": "TAF OEMA 201700Z 2018/2124 28012KT CAVOK"
    },
    {
      "icao": "OJAI",
      "alert": "OK",
      "vis_m": 5000,
      "fzfg": false,
      "metar_trigger": false,
      "taf_trigger": false,
      "metar": "METAR OJAI 201800Z 26005KT 5000 HZ NSC 29/13 Q1014 NOSIG",
      "taf": "TAF OJAI 201700Z 2018/2124 29010KT 5000 HZ NSC"
    },
    {
      "icao": "OMAA",
      "alert": "OK",
      "vis_m": 9999,
      "fzfg": false,
      "metar_trigger": false,
      "taf_trigger": false,
      "metar": "METAR OMAA 201800Z 07003KT CAVOK 37/20 Q0997 NOSIG",
      "taf": "TAF OMAA 201700Z 2018/2200 03006KT 8000 NSC"
    },
    {
      "icao": "OMDB",
      "alert": "OK",
      "vis_m": 9999,
      "fzfg": false,
      "metar_trigger": false,
      "taf_trigger": false,
      "metar": "METAR OMDB 201800Z 16004KT 130V190 CAVOK 38/21 Q0996 NOSIG",
      "taf": "TAF OMDB 201700Z 2018/2200 13005KT 8000 NSC"
    },
    {
      "icao": "UAAA",
      "alert": "OK",
      "vis_m": 9999,
      "fzfg": false,
      "metar_trigger": false,
      "taf_trigger": false,
      "metar": "METAR UAAA 201800Z 17003MPS 9999 SCT050CB BKN100 30/13 Q1001 NOSIG",
      "taf": "TAF UAAA 201703Z 2018/2118 19002MPS 9999 SCT050CB BKN100 TX34/2110Z TN25/2100Z"
    },
    {
      "icao": "UBBB",
      "alert": "OK",
      "vis_m": 9999,
      "fzfg": false,
      "metar_trigger": false,
      "taf_trigger": false,
      "metar": "METAR UBBB 201800Z 34010KT CAVOK 25/20 Q1014 NOSIG",
      "taf": "TAF UBBB 201715Z 2018/2118 33012KT 9999 FEW015 TX31/2110Z TN21/2101Z"
    },
    {
      "icao": "UDSG",
      "alert": "OK",
      "vis_m": 9999,
      "fzfg": false,
      "metar_trigger": false,
      "taf_trigger": false,
      "metar": "METAR UDSG 201800Z 07009KT 9999 NSC 20/13 Q1021 NOSIG",
      "taf": "TAF UDSG 201658Z 2018/2118 VRB06KT 9999 FEW050"
    },
    {
      "icao": "UDYZ",
      "alert": "OK",
      "vis_m": 9999,
      "fzfg": false,
      "metar_trigger": false,
      "taf_trigger": false,
      "metar": "METAR UDYZ 201800Z 03018KT 9999 NSC 28/13 Q1013 NOSIG",
      "taf": "TAF UDYZ 201700Z 2018/2118 07006KT 9999 FEW040"
    },
    {
      "icao": "UGKO",
      "alert": "OK",
      "vis_m": 9999,
      "fzfg": false,
      "metar_trigger": false,
      "taf_trigger": false,
      "metar": "METAR UGKO 201800Z 26005KT 9999 BKN045 24/19 Q1013 NOSIG",
      "taf": "TAF UGKO 201700Z 2018/2118 25007KT CAVOK TX30/2111Z TN19/2102Z"
    }
  ]
}