{
  "ts_utc": "2026-06-10T13:51:10Z",
  "threshold_m": 150,
  "source": "stations_override.txt (ICAO list) + aviationweather.gov (METAR/TAF raw)",
  "station_count": 159,
  "stations": [
    {
      "icao": "BIKF",
      "alert": "OK",
      "vis_m": 9999,
      "fzfg": false,
      "metar_trigger": false,
      "taf_trigger": false,
      "metar": "METAR BIKF 101330Z 28008KT 9999 VCSH FEW019TCU BKN026 12/06 Q1005",
      "taf": "TAF BIKF 101010Z 1012/1112 07008KT 9999 FEW020 BKN040 TX13/1112Z TN05/1104Z"
    },
    {
      "icao": "BKPR",
      "alert": "OK",
      "vis_m": 9999,
      "fzfg": false,
      "metar_trigger": false,
      "taf_trigger": false,
      "metar": "METAR BKPR 101330Z VRB06KT 9999 FEW030TCU SCT040 29/12 Q1014 NOSIG",
      "taf": "TAF BKPR 101130Z 1012/1112 20008KT 9999 SCT050"
    },
    {
      "icao": "EBCI",
      "alert": "OK",
      "vis_m": 9999,
      "fzfg": false,
      "metar_trigger": false,
      "taf_trigger": false,
      "metar": "METAR EBCI 101320Z 24009KT 210V280 9999 FEW034 15/06 Q1018 TEMPO 26015G25KT 3500 SHRA SCT020CB",
      "taf": "TAF EBCI 101100Z 1012/1118 26008KT 9999 SCT035"
    },
    {
      "icao": "EDDB",
      "alert": "OK",
      "vis_m": 9999,
      "fzfg": false,
      "metar_trigger": false,
      "taf_trigger": false,
      "metar": "METAR EDDB 101320Z AUTO 08005KT 040V130 CAVOK 19/10 Q1015 NOSIG",
      "taf": ""
    },
    {
      "icao": "EDDH",
      "alert": "OK",
      "vis_m": 9999,
      "fzfg": false,
      "metar_trigger": false,
      "taf_trigger": false,
      "metar": "METAR EDDH 101320Z AUTO 28012G24KT 240V300 9999 SHRA FEW034 FEW///CB 14/06 Q1015 TEMPO 24020G35KT TSRA",
      "taf": "TAF EDDH 101100Z 1012/1118 23012KT 9999 SCT040"
    },
    {
      "icao": "EDDK",
      "alert": "OK",
      "vis_m": 9999,
      "fzfg": false,
      "metar_trigger": false,
      "taf_trigger": false,
      "metar": "METAR EDDK 101320Z AUTO 24010KT 210V290 CAVOK 19/05 Q1016 NOSIG",
      "taf": "TAF EDDK 101100Z 1012/1118 26009KT 9999 SCT045"
    },
    {
      "icao": "EDDN",
      "alert": "OK",
      "vis_m": 9999,
      "fzfg": false,
      "metar_trigger": false,
      "taf_trigger": false,
      "metar": "METAR EDDN 101320Z AUTO 19009KT 160V220 9999 FEW043 16/08 Q1017 TEMPO SHRA BKN040TCU",
      "taf": "TAF EDDN 101100Z 1012/1112 21005KT 9999 FEW040"
    },
    {
      "icao": "EDDS",
      "alert": "OK",
      "vis_m": 9999,
      "fzfg": false,
      "metar_trigger": false,
      "taf_trigger": false,
      "metar": "METAR EDDS 101320Z AUTO 26007KT 220V290 9999 SHRA FEW016 BKN048 SCT///TCU 12/09 Q1018 TEMPO NSW",
      "taf": "TAF EDDS 101100Z 1012/1112 25005KT 9999 FEW045"
    },
    {
      "icao": "EDFH",
      "alert": "OK",
      "vis_m": 9999,
      "fzfg": false,
      "metar_trigger": false,
      "taf_trigger": false,
      "metar": "METAR EDFH 101320Z 24008KT 200V280 9999 SCT027 14/08 Q1018",
      "taf": "TAF EDFH 101100Z 1012/1112 26007KT 9999 FEW030"
    },
    {
      "icao": "EDJA",
      "alert": "OK",
      "vis_m": 9999,
      "fzfg": false,
      "metar_trigger": false,
      "taf_trigger": false,
      "metar": "METAR EDJA 101320Z 32011KT 280V340 9999 FEW025 SCT056 13/08 Q1019",
      "taf": "TAF EDJA 101100Z 1012/1021 09005KT 9999 SCT020 BKN040"
    },
    {
      "icao": "EDLW",
      "alert": "OK",
      "vis_m": 9999,
      "fzfg": false,
      "metar_trigger": false,
      "taf_trigger": false,
      "metar": "METAR EDLW 101320Z 23011KT 9999 SCT046 17/08 Q1016",
      "taf": "TAF EDLW 101100Z 1012/1112 24010KT 9999 SCT045"
    },
    {
      "icao": "EDNY",
      "alert": "OK",
      "vis_m": 9999,
      "fzfg": false,
      "metar_trigger": false,
      "taf_trigger": false,
      "metar": "METAR EDNY 101320Z 06007KT 9999 SHRA BKN020 BKN049 OVC058 10/09 Q1019",
      "taf": "TAF EDNY 101100Z 1012/1021 VRB03KT 9999 SCT015 BKN040"
    },
    {
      "icao": "EDSB",
      "alert": "OK",
      "vis_m": 9999,
      "fzfg": false,
      "metar_trigger": false,
      "taf_trigger": false,
      "metar": "METAR EDSB 101320Z 27005KT 170V320 9999 -SHRA FEW047 12/10 Q1020",
      "taf": "TAF EDSB 101100Z 1012/1112 23006KT 9999 FEW045"
    },
    {
      "icao": "EETN",
      "alert": "OK",
      "vis_m": 9999,
      "fzfg": false,
      "metar_trigger": false,
      "taf_trigger": false,
      "metar": "METAR EETN 101320Z 27015KT 9999 SCT046 18/08 Q1015 NOSIG",
      "taf": "TAF EETN 101130Z 1012/1112 26014KT CAVOK"
    },
    {
      "icao": "EFTU",
      "alert": "OK",
      "vis_m": 9999,
      "fzfg": false,
      "metar_trigger": false,
      "taf_trigger": false,
      "metar": "METAR EFTU 101320Z AUTO 23017KT 9999 FEW031 17/07 Q1012",
      "taf": "TAF EFTU 101125Z 1012/1112 23015KT 9999 BKN030"
    },
    {
      "icao": "EGBB",
      "alert": "OK",
      "vis_m": 9999,
      "fzfg": false,
      "metar_trigger": false,
      "taf_trigger": false,
      "metar": "METAR EGBB 101320Z COR 22005KT 170V270 9999 SCT025 SCT045 15/07 Q1015",
      "taf": "TAF EGBB 101058Z 1012/1112 24007KT 9999 FEW020 SCT030"
    },
    {
      "icao": "EGGP",
      "alert": "OK",
      "vis_m": 9999,
      "fzfg": false,
      "metar_trigger": false,
      "taf_trigger": false,
      "metar": "METAR EGGP 101320Z 28014KT 9999 VCSH FEW026 SCT046CB 14/09 Q1015",
      "taf": "TAF EGGP 101056Z 1012/1112 29012KT 9999 SCT040"
    },
    {
      "icao": "EGGW",
      "alert": "OK",
      "vis_m": 9999,
      "fzfg": false,
      "metar_trigger": false,
      "taf_trigger": false,
      "metar": "METAR EGGW 101320Z AUTO 24010KT 220V280 9999 FEW037 15/08 Q1016",
      "taf": "TAF EGGW 101058Z 1012/1112 28012KT 9999 SCT030"
    },
    {
      "icao": "EGKK",
      "alert": "OK",
      "vis_m": 9999,
      "fzfg": false,
      "metar_trigger": false,
      "taf_trigger": false,
      "metar": "METAR EGKK 101320Z 23015KT 9999 FEW029 SCT040 16/08 Q1017",
      "taf": "TAF EGKK 101054Z 1012/1118 28010KT 9999 SCT040"
    },
    {
      "icao": "EGNM",
      "alert": "OK",
      "vis_m": 9999,
      "fzfg": false,
      "metar_trigger": false,
      "taf_trigger": false,
      "metar": "METAR EGNM 101320Z 29015KT 9999 FEW021CB SCT042 14/05 Q1013",
      "taf": "TAF EGNM 101057Z 1012/1112 27009KT 9999 SCT030"
    },
    {
      "icao": "EGPD",
      "alert": "OK",
      "vis_m": 9999,
      "fzfg": false,
      "metar_trigger": false,
      "taf_trigger": false,
      "metar": "METAR EGPD 101320Z 12006KT 060V230 9999 VCTS VCSH SCT033CB SCT044 13/07 Q1010 TEMPO 4000 +SHRA",
      "taf": ""
    },
    {
      "icao": "EGPF",
      "alert": "OK",
      "vis_m": 9999,
      "fzfg": false,
      "metar_trigger": false,
      "taf_trigger": false,
      "metar": "METAR EGPF 101320Z AUTO 24013KT 9999 -RA SCT033/// BKN046/// //////CB 13/09 Q1012",
      "taf": ""
    },
    {
      "icao": "EHBK",
      "alert": "OK",
      "vis_m": 9999,
      "fzfg": false,
      "metar_trigger": false,
      "taf_trigger": false,
      "metar": "METAR EHBK 101325Z AUTO 21012KT 180V240 9999 FEW024CB 16/10 Q1017 TEMPO 6000 SHRA FEW020CB",
      "taf": "TAF EHBK 101119Z 1012/1118 25010KT 9999 BKN035"
    },
    {
      "icao": "EHEH",
      "alert": "OK",
      "vis_m": 9999,
      "fzfg": false,
      "metar_trigger": false,
      "taf_trigger": false,
      "metar": "METAR EHEH 101325Z AUTO 25007KT 220V320 9999 SCT063 OVC071 16/08 Q1016 BLU TEMPO 25010G25KT 4000 SHRA SCT020CB BKN030",
      "taf": "TAF EHEH 101128Z 1012/1118 25009KT 9999 SCT045"
    },
    {
      "icao": "EKBI",
      "alert": "OK",
      "vis_m": 9999,
      "fzfg": false,
      "metar_trigger": false,
      "taf_trigger": false,
      "metar": "METAR EKBI 101320Z AUTO 26013KT 230V300 9999 SCT032/// BKN040/// BKN065/// 14/08 Q1013",
      "taf": "TAF EKBI 101127Z 1012/1112 23010KT 9999 SCT030"
    },
    {
      "icao": "EKCH",
      "alert": "OK",
      "vis_m": 9999,
      "fzfg": false,
      "metar_trigger": false,
      "taf_trigger": false,
      "metar": "METAR EKCH 101320Z AUTO 21013KT 180V240 9999 FEW047/// 17/06 Q1014 NOSIG",
      "taf": "TAF EKCH 101127Z 1012/1112 22012KT 9999 SCT030"
    },
    {
      "icao": "ENAL",
      "alert": "OK",
      "vis_m": 9999,
      "fzfg": false,
      "metar_trigger": false,
      "taf_trigger": false,
      "metar": "METAR ENAL 101320Z 24018KT 9999 BKN044 13/07 Q1003",
      "taf": "TAF ENAL 101100Z 1012/1021 24018KT 9999 -SHRA FEW015 BKN030"
    },
    {
      "icao": "ENBR",
      "alert": "OK",
      "vis_m": 9999,
      "fzfg": false,
      "metar_trigger": false,
      "taf_trigger": false,
      "metar": "METAR ENBR 101320Z 22010KT 9999 FEW020CB BKN035 13/08 Q1006 NOSIG RMK WIND 1200FT 23012KT",
      "taf": "TAF ENBR 101100Z 1012/1112 18010KT 9999 SCT018 BKN035"
    },
    {
      "icao": "ENGM",
      "alert": "OK",
      "vis_m": 9999,
      "fzfg": false,
      "metar_trigger": false,
      "taf_trigger": false,
      "metar": "METAR ENGM 101320Z 22015KT 9999 4000NE -SHRA FEW022CB SCT038 OVC045 10/06 Q1006 RETSRA TEMPO 3000 TSRA",
      "taf": ""
    },
    {
      "icao": "ENHD",
      "alert": "OK",
      "vis_m": 9999,
      "fzfg": false,
      "metar_trigger": false,
      "taf_trigger": false,
      "metar": "METAR ENHD 101320Z 26009KT 9999 -SHRA FEW015 SCT025 13/08 Q1008",
      "taf": "TAF ENHD 101100Z 1012/1021 26012KT 9999 FEW015TCU SCT025"
    },
    {
      "icao": "ENTC",
      "alert": "OK",
      "vis_m": 9999,
      "fzfg": false,
      "metar_trigger": false,
      "taf_trigger": false,
      "metar": "METAR ENTC 101320Z 02012KT CAVOK 23/11 Q1004 NOSIG RMK WIND 2600FT 08008KT",
      "taf": ""
    },
    {
      "icao": "ENTO",
      "alert": "OK",
      "vis_m": 9999,
      "fzfg": false,
      "metar_trigger": false,
      "taf_trigger": false,
      "metar": "METAR ENTO 101320Z 21015KT 9999 FEW025CB FEW030 14/07 Q1007 TEMPO SHRA",
      "taf": "TAF ENTO 101100Z 1012/1112 21012KT 9999 FEW030"
    },
    {
      "icao": "ENVA",
      "alert": "OK",
      "vis_m": 9999,
      "fzfg": false,
      "metar_trigger": false,
      "taf_trigger": false,
      "metar": "METAR ENVA 101320Z 22007KT 9999 -RA SCT019 OVC038 11/09 Q1003 TEMPO 4000 RA BKN014 RMK WIND 670FT 25009KT",
      "taf": "TAF ENVA 101100Z 1012/1112 27012KT 9999 BKN020"
    },
    {
      "icao": "ENZV",
      "alert": "OK",
      "vis_m": 9999,
      "fzfg": false,
      "metar_trigger": false,
      "taf_trigger": false,
      "metar": "METAR ENZV 101320Z 25011KT 9999 VCSH FEW010CB SCT018 14/09 Q1008 NOSIG",
      "taf": "TAF ENZV 101100Z 1012/1112 18007KT 9999 FEW018 SCT030"
    },
    {
      "icao": "EPGD",
      "alert": "OK",
      "vis_m": 9999,
      "fzfg": false,
      "metar_trigger": false,
      "taf_trigger": false,
      "metar": "METAR EPGD 101330Z 27006KT 230V290 CAVOK 19/07 Q1017",
      "taf": "TAF EPGD 101130Z 1012/1112 22010KT 9999 SCT045"
    },
    {
      "icao": "EPKK",
      "alert": "OK",
      "vis_m": 9999,
      "fzfg": false,
      "metar_trigger": false,
      "taf_trigger": false,
      "metar": "METAR EPKK 101330Z 04007KT 9999 SCT022 BKN032 14/12 Q1015",
      "taf": ""
    },
    {
      "icao": "EPKT",
      "alert": "OK",
      "vis_m": 8000,
      "fzfg": false,
      "metar_trigger": false,
      "taf_trigger": false,
      "metar": "METAR EPKT 101330Z VRB02KT 8000 -RA FEW026 BKN040 14/12 Q1017",
      "taf": "TAF EPKT 101130Z 1012/1112 03004KT 9999 BKN020"
    },
    {
      "icao": "EPLB",
      "alert": "OK",
      "vis_m": 9999,
      "fzfg": false,
      "metar_trigger": false,
      "taf_trigger": false,
      "metar": "METAR EPLB 101330Z 04006KT CAVOK 19/13 Q1016",
      "taf": "TAF EPLB 101130Z 1012/1112 01006KT 9999 FEW025"
    },
    {
      "icao": "EPMO",
      "alert": "OK",
      "vis_m": 9999,
      "fzfg": false,
      "metar_trigger": false,
      "taf_trigger": false,
      "metar": "METAR EPMO 101330Z 08003KT 040V100 9999 -RA SCT033 18/13 Q1018",
      "taf": "TAF EPMO 101130Z 1012/1112 VRB03KT 9999 FEW030"
    },
    {
      "icao": "EPPO",
      "alert": "OK",
      "vis_m": 9999,
      "fzfg": false,
      "metar_trigger": false,
      "taf_trigger": false,
      "metar": "METAR EPPO 101330Z 19007KT CAVOK 18/08 Q1017",
      "taf": "TAF EPPO 101130Z 1012/1112 13006KT CAVOK"
    },
    {
      "icao": "EPRA",
      "alert": "OK",
      "vis_m": 9999,
      "fzfg": false,
      "metar_trigger": false,
      "taf_trigger": false,
      "metar": "METAR EPRA 101330Z 02006KT 360V060 CAVOK 18/10 Q1017",
      "taf": "TAF EPRA 101130Z 1012/1021 36006KT CAVOK"
    },
    {
      "icao": "EPRZ",
      "alert": "OK",
      "vis_m": 9999,
      "fzfg": false,
      "metar_trigger": false,
      "taf_trigger": false,
      "metar": "METAR EPRZ 101330Z 01011KT 9999 FEW046CB 19/14 Q1015",
      "taf": "TAF EPRZ 101130Z 1012/1112 02010KT 9999 BKN040"
    },
    {
      "icao": "EPSC",
      "alert": "OK",
      "vis_m": 9999,
      "fzfg": false,
      "metar_trigger": false,
      "taf_trigger": false,
      "metar": "METAR EPSC 101330Z 15007KT 9999 FEW052CB 15/09 Q1016",
      "taf": "TAF EPSC 101130Z 1012/1112 20007KT CAVOK"
    },
    {
      "icao": "EPSY",
      "alert": "OK",
      "vis_m": 9999,
      "fzfg": false,
      "metar_trigger": false,
      "taf_trigger": false,
      "metar": "METAR EPSY 101330Z VRB02KT CAVOK 19/06 Q1018",
      "taf": "TAF EPSY 101130Z 1012/1021 VRB02KT CAVOK"
    },
    {
      "icao": "EPWA",
      "alert": "OK",
      "vis_m": 9999,
      "fzfg": false,
      "metar_trigger": false,
      "taf_trigger": false,
      "metar": "METAR EPWA 101330Z 17003KT 9999 -RA FEW036 17/13 Q1017 NOSIG",
      "taf": "TAF EPWA 101130Z 1012/1112 VRB03KT 9999 FEW035"
    },
    {
      "icao": "EPWR",
      "alert": "OK",
      "vis_m": 9999,
      "fzfg": false,
      "metar_trigger": false,
      "taf_trigger": false,
      "metar": "METAR EPWR 101330Z 09004KT 9999 -RA FEW015 14/10 Q1018",
      "taf": "TAF EPWR 101130Z 1012/1112 15008KT 9999 BKN040"
    },
    {
      "icao": "ESGG",
      "alert": "OK",
      "vis_m": 9999,
      "fzfg": false,
      "metar_trigger": false,
      "taf_trigger": false,
      "metar": "METAR ESGG 101320Z 22014KT 180V240 9999 SCT035TCU BKN045 15/07 Q1011",
      "taf": "TAF ESGG 101130Z 1012/1112 23015KT 9999 BKN035"
    },
    {
      "icao": "ESKN",
      "alert": "OK",
      "vis_m": 9999,
      "fzfg": false,
      "metar_trigger": false,
      "taf_trigger": false,
      "metar": "METAR ESKN 101320Z 20012KT 9999 VCSH SCT050 FEW055TCU 17/08 Q1010",
      "taf": "TAF ESKN 101130Z 1012/1112 22013KT 9999 SCT040"
    },
    {
      "icao": "ESMS",
      "alert": "OK",
      "vis_m": 9999,
      "fzfg": false,
      "metar_trigger": false,
      "taf_trigger": false,
      "metar": "METAR ESMS 101320Z 21014KT 9999 SCT038 17/07 Q1014",
      "taf": "TAF ESMS 101127Z 1012/1112 22012KT 9999 SCT030"
    },
    {
      "icao": "ESSA",
      "alert": "OK",
      "vis_m": 9999,
      "fzfg": false,
      "metar_trigger": false,
      "taf_trigger": false,
      "metar": "METAR ESSA 101320Z COR 22017KT 9999 SCT051CB 17/05 Q1009 NOSIG",
      "taf": "TAF ESSA 101130Z 1012/1112 23015KT 9999 SCT040"
    },
    {
      "icao": "EYKA",
      "alert": "OK",
      "vis_m": 9999,
      "fzfg": false,
      "metar_trigger": false,
      "taf_trigger": false,
      "metar": "METAR EYKA 101320Z 32004KT 270V030 CAVOK 19/09 Q1017",
      "taf": "TAF EYKA 101100Z 1012/1112 VRB03KT 9000 SCT040"
    },
    {
      "icao": "EYPA",
      "alert": "OK",
      "vis_m": 9999,
      "fzfg": false,
      "metar_trigger": false,
      "taf_trigger": false,
      "metar": "METAR EYPA 101320Z 22006KT 190V270 CAVOK 17/10 Q1018",
      "taf": "TAF EYPA 101100Z 1012/1112 VRB03KT 9000 NSC"
    },
    {
      "icao": "EYVI",
      "alert": "OK",
      "vis_m": 9999,
      "fzfg": false,
      "metar_trigger": false,
      "taf_trigger": false,
      "metar": "METAR EYVI 101320Z 35007KT 290V060 9999 SCT042 20/10 Q1017 NOSIG",
      "taf": "TAF EYVI 101100Z 1012/1112 VRB03KT 9000 SCT030"
    },
    {
      "icao": "GCFV",
      "alert": "OK",
      "vis_m": 9999,
      "fzfg": false,
      "metar_trigger": false,
      "taf_trigger": false,
      "metar": "METAR GCFV 101330Z 05014KT 9999 FEW025 23/16 Q1017",
      "taf": "TAF GCFV 100800Z 1009/1109 03014KT 9999 FEW020 TX24/1014Z TN18/1106Z"
    },
    {
      "icao": "GCLP",
      "alert": "OK",
      "vis_m": 9999,
      "fzfg": false,
      "metar_trigger": false,
      "taf_trigger": false,
      "metar": "METAR GCLP 101330Z 03026KT 9999 FEW020 24/15 Q1017 NOSIG",
      "taf": "TAF GCLP 100800Z 1009/1109 01023KT 9999 FEW020 TX24/1014Z TN18/1106Z"
    },
    {
      "icao": "GCTS",
      "alert": "OK",
      "vis_m": 9999,
      "fzfg": false,
      "metar_trigger": false,
      "taf_trigger": false,
      "metar": "METAR GCTS 101330Z 09025KT 9999 FEW020 25/14 Q1017 NOSIG",
      "taf": "TAF GCTS 100800Z 1009/1109 08020KT 9999 FEW025 TX26/1014Z TN18/1106Z"
    },
    {
      "icao": "GMAD",
      "alert": "OK",
      "vis_m": 8000,
      "fzfg": false,
      "metar_trigger": false,
      "taf_trigger": false,
      "metar": "METAR GMAD 101330Z 27009KT 8000 BKN016 26/16 Q1013 NOSIG",
      "taf": "TAF GMAD 101100Z 1012/1118 28012KT 8000 SCT016"
    },
    {
      "icao": "GMMN",
      "alert": "OK",
      "vis_m": 9999,
      "fzfg": false,
      "metar_trigger": false,
      "taf_trigger": false,
      "metar": "METAR GMMN 101330Z 33010KT 300V010 CAVOK 27/17 Q1014 NOSIG",
      "taf": "TAF GMMN 101100Z 1012/1118 32006KT CAVOK"
    },
    {
      "icao": "GMMX",
      "alert": "OK",
      "vis_m": 8000,
      "fzfg": false,
      "metar_trigger": false,
      "taf_trigger": false,
      "metar": "METAR GMMX 101330Z VRB05KT 8000 FEW030 32/15 Q1014 NOSIG",
      "taf": "TAF GMMX 101100Z 1012/1118 06006KT 8000 NSC"
    },
    {
      "icao": "HEGN",
      "alert": "OK",
      "vis_m": 9999,
      "fzfg": false,
      "metar_trigger": false,
      "taf_trigger": false,
      "metar": "METAR HEGN 101300Z 03006KT CAVOK 37/13 Q1007 NOSIG",
      "taf": "TAF HEGN 101100Z 1012/1118 02014KT CAVOK"
    },
    {
      "icao": "HEMA",
      "alert": "OK",
      "vis_m": 9999,
      "fzfg": false,
      "metar_trigger": false,
      "taf_trigger": false,
      "metar": "METAR HEMA 101300Z 01011KT CAVOK 34/13 Q1007 NOSIG",
      "taf": "TAF HEMA 101100Z 1012/1118 36015KT CAVOK"
    },
    {
      "icao": "HESH",
      "alert": "OK",
      "vis_m": 9999,
      "fzfg": false,
      "metar_trigger": false,
      "taf_trigger": false,
      "metar": "METAR HESH 101300Z 14006KT CAVOK 38/11 Q1007 NOSIG",
      "taf": "TAF HESH 101100Z 1012/1118 03012KT CAVOK"
    },
    {
      "icao": "HESX",
      "alert": "OK",
      "vis_m": 9999,
      "fzfg": false,
      "metar_trigger": false,
      "taf_trigger": false,
      "metar": "METAR HESX 101300Z 35010KT CAVOK 34/13 Q1010 NOSIG",
      "taf": "TAF HESX 101100Z 1012/1118 33009KT CAVOK"
    },
    {
      "icao": "LATI",
      "alert": "OK",
      "vis_m": 9999,
      "fzfg": false,
      "metar_trigger": false,
      "taf_trigger": false,
      "metar": "METAR LATI 101350Z 34005KT 290V030 CAVOK 30/17 Q1013 NOSIG",
      "taf": "TAF LATI 101100Z 1012/1112 30010KT CAVOK TX32/1012Z TN18/1104Z"
    },
    {
      "icao": "LBPD",
      "alert": "OK",
      "vis_m": 9999,
      "fzfg": false,
      "metar_trigger": false,
      "taf_trigger": false,
      "metar": "METAR LBPD 101330Z AUTO 10010KT 070V140 9999 NCD 30/14 Q1013 NOSIG",
      "taf": "TAF LBPD 101100Z 1012/1112 11010KT 9999 SCT060"
    },
    {
      "icao": "LBSF",
      "alert": "OK",
      "vis_m": 9999,
      "fzfg": false,
      "metar_trigger": false,
      "taf_trigger": false,
      "metar": "METAR LBSF 101330Z VRB03KT 9999 FEW033CB SCT066 29/08 Q1014 TEMPO 5000 TSRA",
      "taf": "TAF LBSF 101100Z 1012/1112 11008KT 9999 SCT060"
    },
    {
      "icao": "LBWN",
      "alert": "OK",
      "vis_m": 9999,
      "fzfg": false,
      "metar_trigger": false,
      "taf_trigger": false,
      "metar": "METAR LBWN 101330Z 12010KT 9999 FEW030 26/15 Q1015 NOSIG",
      "taf": "TAF LBWN 101100Z 1012/1112 14010KT CAVOK"
    },
    {
      "icao": "LCLK",
      "alert": "OK",
      "vis_m": 9999,
      "fzfg": false,
      "metar_trigger": false,
      "taf_trigger": false,
      "metar": "METAR LCLK 101330Z 20014KT 9999 FEW030 29/22 Q1009 NOSIG",
      "taf": "TAF LCLK 101130Z 1012/1112 20016KT 9999 FEW015"
    },
    {
      "icao": "LCPH",
      "alert": "OK",
      "vis_m": 9999,
      "fzfg": false,
      "metar_trigger": false,
      "taf_trigger": false,
      "metar": "METAR LCPH 101330Z 26011KT 250V320 9999 FEW012 27/22 Q1010 NOSIG",
      "taf": "TAF LCPH 101130Z 1012/1112 26010KT 9999 FEW015"
    },
    {
      "icao": "LEAL",
      "alert": "OK",
      "vis_m": 9999,
      "fzfg": false,
      "metar_trigger": false,
      "taf_trigger": false,
      "metar": "METAR LEAL 101330Z 10014KT 9999 FEW025 27/19 Q1017 NOSIG",
      "taf": "TAF LEAL 101100Z 1012/1112 08012KT 9999 FEW020 TX27/1012Z TN20/1105Z"
    },
    {
      "icao": "LEBB",
      "alert": "OK",
      "vis_m": 9999,
      "fzfg": false,
      "metar_trigger": false,
      "taf_trigger": false,
      "metar": "METAR LEBB 101330Z 32013KT 290V010 9999 FEW020 SCT047 BKN070 18/13 Q1025 TEMPO RA",
      "taf": ""
    },
    {
      "icao": "LEBL",
      "alert": "OK",
      "vis_m": 9999,
      "fzfg": false,
      "metar_trigger": false,
      "taf_trigger": false,
      "metar": "METAR LEBL 101330Z 14009KT 120V180 9999 SCT022 23/17 Q1019 NOSIG",
      "taf": "TAF LEBL 101100Z 1012/1112 13010KT 9999 FEW025 TX24/1012Z TN19/1105Z"
    },
    {
      "icao": "LECH",
      "alert": "OK",
      "vis_m": 9999,
      "fzfg": false,
      "metar_trigger": false,
      "taf_trigger": false,
      "metar": "METAR LECH 101330Z AUTO 15010KT 110V190 9999 FEW029 23/14 Q1019",
      "taf": "TAF LECH 101100Z 1012/1112 14009KT 9999 FEW040 TX28/1013Z TN14/1105Z"
    },
    {
      "icao": "LEMD",
      "alert": "OK",
      "vis_m": 9999,
      "fzfg": false,
      "metar_trigger": false,
      "taf_trigger": false,
      "metar": "METAR LEMD 101330Z 34004KT CAVOK 30/05 Q1018 NOSIG",
      "taf": "TAF LEMD 101100Z 1012/1118 03006KT CAVOK TX35/1116Z TN15/1105Z"
    },
    {
      "icao": "LEMG",
      "alert": "OK",
      "vis_m": 9999,
      "fzfg": false,
      "metar_trigger": false,
      "taf_trigger": false,
      "metar": "METAR LEMG 101330Z 13009KT 070V170 9999 FEW040 27/19 Q1016 NOSIG",
      "taf": "TAF LEMG 101100Z 1012/1112 13009KT 9999 SCT025 TX27/1014Z TN19/1107Z"
    },
    {
      "icao": "LEVC",
      "alert": "OK",
      "vis_m": 9999,
      "fzfg": false,
      "metar_trigger": false,
      "taf_trigger": false,
      "metar": "METAR LEVC 101330Z 09009KT 040V130 9999 SCT031 SCT051 25/16 Q1019 NOSIG",
      "taf": "TAF LEVC 101100Z 1012/1112 11010KT 9999 FEW020 TX25/1012Z TN18/1105Z"
    },
    {
      "icao": "LEXJ",
      "alert": "OK",
      "vis_m": 9999,
      "fzfg": false,
      "metar_trigger": false,
      "taf_trigger": false,
      "metar": "METAR LEXJ 101330Z VRB02KT 9999 SCT035 BKN045 17/12 Q1026",
      "taf": ""
    },
    {
      "icao": "LEZG",
      "alert": "OK",
      "vis_m": 9999,
      "fzfg": false,
      "metar_trigger": false,
      "taf_trigger": false,
      "metar": "METAR LEZG 101330Z 32018KT 290V350 CAVOK 24/05 Q1020 NOSIG",
      "taf": "TAF LEZG 101100Z 1012/1112 31018KT CAVOK TX25/1015Z TN13/1105Z"
    },
    {
      "icao": "LEZL",
      "alert": "OK",
      "vis_m": 9999,
      "fzfg": false,
      "metar_trigger": false,
      "taf_trigger": false,
      "metar": "METAR LEZL 101330Z 29004KT CAVOK 35/12 Q1013 NOSIG",
      "taf": "TAF LEZL 100800Z 1009/1109 23008KT CAVOK TX37/1015Z TN20/1106Z"
    },
    {
      "icao": "LFBD",
      "alert": "OK",
      "vis_m": 9999,
      "fzfg": false,
      "metar_trigger": false,
      "taf_trigger": false,
      "metar": "METAR LFBD 101330Z AUTO 01007KT 340V040 9999 BKN042 BKN050 OVC076 19/10 Q1023 TEMPO 4000 -SHRA BKN040TCU",
      "taf": "TAF LFBD 101100Z 1012/1118 30010KT 9999 BKN040 TX23/1115Z TN10/1103Z"
    },
    {
      "icao": "LFLL",
      "alert": "OK",
      "vis_m": 9999,
      "fzfg": false,
      "metar_trigger": false,
      "taf_trigger": false,
      "metar": "METAR LFLL 101330Z 35008KT 310V010 9999 FEW036TCU 18/07 Q1021 NOSIG",
      "taf": ""
    },
    {
      "icao": "LFLS",
      "alert": "OK",
      "vis_m": 9999,
      "fzfg": false,
      "metar_trigger": false,
      "taf_trigger": false,
      "metar": "METAR LFLS 101330Z AUTO 34014KT 310V010 9999 FEW045 SCT076 19/08 Q1020 NOSIG",
      "taf": "TAF LFLS 100800Z 1009/1109 36010KT CAVOK"
    },
    {
      "icao": "LFMN",
      "alert": "OK",
      "vis_m": 9999,
      "fzfg": false,
      "metar_trigger": false,
      "taf_trigger": false,
      "metar": "METAR LFMN 101330Z 24025KT CAVOK 30/08 Q1007 NOSIG",
      "taf": "TAF LFMN 100800Z 1009/1115 20010KT CAVOK"
    },
    {
      "icao": "LFOB",
      "alert": "OK",
      "vis_m": 9999,
      "fzfg": false,
      "metar_trigger": false,
      "taf_trigger": false,
      "metar": "METAR LFOB 101330Z AUTO 26011KT 220V290 9999 FEW044 SCT052 BKN068 17/08 Q1019 TEMPO 28015G25KT 4000 SHRA SCT014 BKN025CB",
      "taf": "TAF LFOB 101100Z 1012/1112 28010KT 9999 SCT030"
    },
    {
      "icao": "LFPO",
      "alert": "OK",
      "vis_m": 9999,
      "fzfg": false,
      "metar_trigger": false,
      "taf_trigger": false,
      "metar": "METAR LFPO 101330Z 30008KT 270V340 CAVOK 17/10 Q1020 NOSIG",
      "taf": "TAF LFPO 101100Z 1012/1118 29010KT 9999 BKN050"
    },
    {
      "icao": "LFSB",
      "alert": "OK",
      "vis_m": 9999,
      "fzfg": false,
      "metar_trigger": false,
      "taf_trigger": false,
      "metar": "METAR LFSB 101330Z AUTO 25006KT 220V280 9999 FEW027 15/09 Q1020 TEMPO FEW035CB BKN055",
      "taf": "TAF LFSB 101100Z 1012/1112 27007KT 9999 FEW030 BKN090"
    },
    {
      "icao": "LGAV",
      "alert": "OK",
      "vis_m": 9999,
      "fzfg": false,
      "metar_trigger": false,
      "taf_trigger": false,
      "metar": "METAR LGAV 101320Z 05012KT 9999 FEW020 31/04 Q1013 NOSIG",
      "taf": "TAF LGAV 101100Z 1012/1112 05014KT 9999 FEW025"
    },
    {
      "icao": "LGTS",
      "alert": "OK",
      "vis_m": 9999,
      "fzfg": false,
      "metar_trigger": false,
      "taf_trigger": false,
      "metar": "METAR LGTS 101320Z 19013KT 9999 FEW020TCU SCT030 30/15 Q1013 NOSIG",
      "taf": "TAF LGTS 101100Z 1012/1112 17013KT 9999 FEW030"
    },
    {
      "icao": "LHBP",
      "alert": "OK",
      "vis_m": 9999,
      "fzfg": false,
      "metar_trigger": false,
      "taf_trigger": false,
      "metar": "METAR LHBP 101330Z 21010KT CAVOK 29/14 Q1012 NOSIG",
      "taf": "TAF LHBP 101115Z 1012/1112 22009KT CAVOK"
    },
    {
      "icao": "LHDC",
      "alert": "OK",
      "vis_m": 9999,
      "fzfg": false,
      "metar_trigger": false,
      "taf_trigger": false,
      "metar": "METAR LHDC 101315Z AUTO 33007KT 290V360 9999 -SHRA BKN081 //////TCU 26/15 Q1012 RETS NOSIG",
      "taf": ""
    },
    {
      "icao": "LIBD",
      "alert": "OK",
      "vis_m": 9999,
      "fzfg": false,
      "metar_trigger": false,
      "taf_trigger": false,
      "metar": "METAR LIBD 101320Z 07013KT CAVOK 31/17 Q1011",
      "taf": "TAF LIBD 101100Z 1012/1112 10014KT 9999 FEW040"
    },
    {
      "icao": "LIBG",
      "alert": "OK",
      "vis_m": 9999,
      "fzfg": false,
      "metar_trigger": false,
      "taf_trigger": false,
      "metar": "METAR LIBG 101320Z AUTO 23008KT 200V260 9999 NCD 32/13 Q1012",
      "taf": "TAF LIBG 101100Z 1012/1112 19010KT CAVOK"
    },
    {
      "icao": "LIBP",
      "alert": "OK",
      "vis_m": 9999,
      "fzfg": false,
      "metar_trigger": false,
      "taf_trigger": false,
      "metar": "METAR LIBP 101320Z AUTO 07010KT 9999 FEW160/// 31/18 Q1010",
      "taf": "TAF LIBP 101100Z 1012/1112 10012KT 9999 FEW070"
    },
    {
      "icao": "LIBR",
      "alert": "OK",
      "vis_m": 9999,
      "fzfg": false,
      "metar_trigger": false,
      "taf_trigger": false,
      "metar": "METAR LIBR 101320Z 11009KT CAVOK 28/18 Q1012",
      "taf": "TAF LIBR 101100Z 1012/1112 11012KT 9999 FEW040"
    },
    {
      "icao": "LICA",
      "alert": "OK",
      "vis_m": 9999,
      "fzfg": false,
      "metar_trigger": false,
      "taf_trigger": false,
      "metar": "METAR LICA 101320Z AUTO 25010KT 210V280 9999 NCD 26/21 Q1014",
      "taf": "TAF LICA 101100Z 1012/1112 26012KT 9999 FEW020"
    },
    {
      "icao": "LICC",
      "alert": "OK",
      "vis_m": 9999,
      "fzfg": false,
      "metar_trigger": false,
      "taf_trigger": false,
      "metar": "METAR LICC 101320Z 08012KT CAVOK 29/18 Q1013",
      "taf": "TAF LICC 101100Z 1012/1112 10012KT CAVOK"
    },
    {
      "icao": "LICJ",
      "alert": "OK",
      "vis_m": 9999,
      "fzfg": false,
      "metar_trigger": false,
      "taf_trigger": false,
      "metar": "METAR LICJ 101320Z 06011KT CAVOK 32/11 Q1013",
      "taf": "TAF LICJ 101100Z 1012/1112 35010KT CAVOK"
    },
    {
      "icao": "LIMC",
      "alert": "OK",
      "vis_m": 9999,
      "fzfg": false,
      "metar_trigger": false,
      "taf_trigger": false,
      "metar": "METAR LIMC 101320Z VRB02KT 9999 TS BKN040CB 24/16 Q1008 NOSIG",
      "taf": "TAF LIMC 101100Z 1012/1118 VRB05KT 9999 BKN030"
    },
    {
      "icao": "LIME",
      "alert": "OK",
      "vis_m": 9999,
      "fzfg": false,
      "metar_trigger": false,
      "taf_trigger": false,
      "metar": "METAR LIME 101320Z 23008KT 190V260 9999 SCT040 26/16 Q1008 NOSIG",
      "taf": "TAF LIME 101100Z 1012/1112 12007KT 9999 SCT040"
    },
    {
      "icao": "LIMF",
      "alert": "OK",
      "vis_m": 9999,
      "fzfg": false,
      "metar_trigger": false,
      "taf_trigger": false,
      "metar": "METAR LIMF 101320Z VRB03KT 9999 VCTS FEW025CB SCT030 26/15 Q1009",
      "taf": "TAF LIMF 101100Z 1012/1112 VRB04KT 9999 SCT030"
    },
    {
      "icao": "LIMJ",
      "alert": "OK",
      "vis_m": 9999,
      "fzfg": false,
      "metar_trigger": false,
      "taf_trigger": false,
      "metar": "METAR LIMJ 101320Z 13016KT 9999 FEW025 22/20 Q1010",
      "taf": "TAF LIMJ 101100Z 1012/1112 15015KT 9999 SCT040"
    },
    {
      "icao": "LIPE",
      "alert": "OK",
      "vis_m": 9999,
      "fzfg": false,
      "metar_trigger": false,
      "taf_trigger": false,
      "metar": "METAR LIPE 101320Z 20009KT CAVOK 32/13 Q1007",
      "taf": "TAF LIPE 101100Z 1012/1112 23013KT 9999 FEW050"
    },
    {
      "icao": "LIPH",
      "alert": "OK",
      "vis_m": 9999,
      "fzfg": false,
      "metar_trigger": false,
      "taf_trigger": false,
      "metar": "METAR LIPH 101320Z 05010KT 020V080 9999 FEW040 25/18 Q1009",
      "taf": "TAF LIPH 101100Z 1012/1112 07010KT 9999 BKN020"
    },
    {
      "icao": "LIPQ",
      "alert": "OK",
      "vis_m": 9999,
      "fzfg": false,
      "metar_trigger": false,
      "taf_trigger": false,
      "metar": "METAR LIPQ 101320Z AUTO 19011KT 9999 FEW064/// 28/15 Q1009",
      "taf": "TAF LIPQ 101100Z 1012/1112 VRB06KT 9999 SCT040"
    },
    {
      "icao": "LIPR",
      "alert": "OK",
      "vis_m": 9999,
      "fzfg": false,
      "metar_trigger": false,
      "taf_trigger": false,
      "metar": "METAR LIPR 101320Z 21012KT 9999 FEW040 SCT060 30/16 Q1009",
      "taf": "TAF LIPR 101100Z 1012/1112 22012KT 9999 FEW060"
    },
    {
      "icao": "LIPX",
      "alert": "OK",
      "vis_m": 9999,
      "fzfg": false,
      "metar_trigger": false,
      "taf_trigger": false,
      "metar": "METAR LIPX 101320Z 15008KT 9999 BKN050 27/17 Q1007",
      "taf": "TAF LIPX 101100Z 1012/1112 10012KT 9999 SCT030"
    },
    {
      "icao": "LIPY",
      "alert": "OK",
      "vis_m": 9999,
      "fzfg": false,
      "metar_trigger": false,
      "taf_trigger": false,
      "metar": "METAR LIPY 101320Z AUTO 07004KT 040V100 9999 BKN130/// 31/15 Q1010",
      "taf": "TAF LIPY 101100Z 1012/1112 22008KT 9999 SCT060"
    },
    {
      "icao": "LIPZ",
      "alert": "OK",
      "vis_m": 9999,
      "fzfg": false,
      "metar_trigger": false,
      "taf_trigger": false,
      "metar": "METAR LIPZ 101320Z 12008KT 9999 FEW050 26/20 Q1008 NOSIG",
      "taf": "TAF LIPZ 101100Z 1012/1118 13012KT 9999 SCT030"
    },
    {
      "icao": "LIRF",
      "alert": "OK",
      "vis_m": 9999,
      "fzfg": false,
      "metar_trigger": false,
      "taf_trigger": false,
      "metar": "METAR LIRF 101320Z 18008KT 150V230 CAVOK 27/19 Q1013 NOSIG",
      "taf": "TAF LIRF 101100Z 1012/1118 19010KT CAVOK"
    },
    {
      "icao": "LIRN",
      "alert": "OK",
      "vis_m": 9999,
      "fzfg": false,
      "metar_trigger": false,
      "taf_trigger": false,
      "metar": "METAR LIRN 101320Z 19008KT 160V230 CAVOK 27/18 Q1014 NOSIG",
      "taf": "TAF LIRN 101100Z 1012/1112 23010KT CAVOK"
    },
    {
      "icao": "LIRP",
      "alert": "OK",
      "vis_m": 9999,
      "fzfg": false,
      "metar_trigger": false,
      "taf_trigger": false,
      "metar": "METAR LIRP 101315Z 26011KT CAVOK 26/15 Q1012 TEMPO 25015G25KT",
      "taf": "TAF LIRP 101100Z 1012/1112 25013KT CAVOK"
    },
    {
      "icao": "LIRZ",
      "alert": "OK",
      "vis_m": 9999,
      "fzfg": false,
      "metar_trigger": false,
      "taf_trigger": false,
      "metar": "METAR LIRZ 101320Z AUTO 23014KT 9999 NCD 30/14 Q1012",
      "taf": "TAF LIRZ 101100Z 1012/1112 20014KT CAVOK"
    },
    {
      "icao": "LJLJ",
      "alert": "OK",
      "vis_m": 9999,
      "fzfg": false,
      "metar_trigger": false,
      "taf_trigger": false,
      "metar": "METAR LJLJ 101330Z 08004KT 020V120 9999 FEW003 FEW020TCU BKN033 19/14 Q1013 NOSIG",
      "taf": "TAF LJLJ 101100Z 1012/1112 12008KT 9999 FEW003 BKN035"
    },
    {
      "icao": "LKMT",
      "alert": "OK",
      "vis_m": 9999,
      "fzfg": false,
      "metar_trigger": false,
      "taf_trigger": false,
      "metar": "METAR LKMT 101330Z 02008KT 9999 FEW006 BKN008 BKN025 14/14 Q1016 NOSIG",
      "taf": "TAF LKMT 101100Z 1012/1112 01010KT 9999 -RA BKN040"
    },
    {
      "icao": "LKPR",
      "alert": "OK",
      "vis_m": 9999,
      "fzfg": false,
      "metar_trigger": false,
      "taf_trigger": false,
      "metar": "METAR LKPR 101330Z 14007KT 9999 -RA FEW033 14/07 Q1017 NOSIG",
      "taf": "TAF LKPR 101100Z 1012/1118 20004KT 9999 BKN030"
    },
    {
      "icao": "LLBG",
      "alert": "OK",
      "vis_m": 9999,
      "fzfg": false,
      "metar_trigger": false,
      "taf_trigger": false,
      "metar": "METAR LLBG 101320Z 28008KT CAVOK 28/18 Q1010 NOSIG",
      "taf": "TAF LLBG 101115Z 1012/1112 28010KT CAVOK TX30/1012Z TN20/1104Z"
    },
    {
      "icao": "LMML",
      "alert": "OK",
      "vis_m": 9999,
      "fzfg": false,
      "metar_trigger": false,
      "taf_trigger": false,
      "metar": "METAR LMML 101345Z 18008KT 120V230 9999 FEW020 28/21 Q1014 NOSIG",
      "taf": "TAF LMML 101100Z 1012/1112 18006KT 9999 FEW018"
    },
    {
      "icao": "LOWW",
      "alert": "OK",
      "vis_m": 9999,
      "fzfg": false,
      "metar_trigger": false,
      "taf_trigger": false,
      "metar": "METAR LOWW 101320Z 33008KT 300V360 9999 FEW024 SCT032 BKN050 18/12 Q1015 NOSIG",
      "taf": "TAF LOWW 101115Z 1012/1118 32010KT 9999 FEW030 SCT050 TX18/1013Z TN11/1103Z"
    },
    {
      "icao": "LPFR",
      "alert": "OK",
      "vis_m": 9999,
      "fzfg": false,
      "metar_trigger": false,
      "taf_trigger": false,
      "metar": "METAR LPFR 101330Z 19006KT 160V220 CAVOK 25/16 Q1015",
      "taf": "TAF LPFR 101100Z 1012/1112 19010KT CAVOK"
    },
    {
      "icao": "LPMA",
      "alert": "OK",
      "vis_m": 9999,
      "fzfg": false,
      "metar_trigger": false,
      "taf_trigger": false,
      "metar": "METAR LPMA 101330Z 02023G35KT 340V050 9999 FEW015 23/13 Q1021",
      "taf": "TAF LPMA 101100Z 1012/1112 01018G30KT 9999 SCT015"
    },
    {
      "icao": "LPPR",
      "alert": "OK",
      "vis_m": 9999,
      "fzfg": false,
      "metar_trigger": false,
      "taf_trigger": false,
      "metar": "METAR LPPR 101330Z 31012KT CAVOK 24/12 Q1020",
      "taf": "TAF LPPR 101100Z 1012/1112 33013KT CAVOK"
    },
    {
      "icao": "LPPS",
      "alert": "OK",
      "vis_m": 9999,
      "fzfg": false,
      "metar_trigger": false,
      "taf_trigger": false,
      "metar": "METAR LPPS 101330Z 02016KT 350V050 9999 SCT015 21/14 Q1022",
      "taf": "TAF LPPS 101100Z 1012/1118 02013KT 9999 SCT015"
    },
    {
      "icao": "LPPT",
      "alert": "OK",
      "vis_m": 9999,
      "fzfg": false,
      "metar_trigger": false,
      "taf_trigger": false,
      "metar": "METAR LPPT 101330Z 34012KT CAVOK 26/10 Q1017",
      "taf": "TAF LPPT 101100Z 1012/1118 34015KT CAVOK"
    },
    {
      "icao": "LQBK",
      "alert": "OK",
      "vis_m": 9999,
      "fzfg": false,
      "metar_trigger": false,
      "taf_trigger": false,
      "metar": "METAR LQBK 101330Z VRB03KT CAVOK 25/15 Q1012 NOSIG",
      "taf": "TAF LQBK 101100Z 1012/1112 30006KT 9999 SCT035 TX27/1013Z TN14/1103Z"
    },
    {
      "icao": "LQSA",
      "alert": "OK",
      "vis_m": 9999,
      "fzfg": false,
      "metar_trigger": false,
      "taf_trigger": false,
      "metar": "METAR LQSA 101330Z VRB05KT 9999 FEW055 30/09 Q1012 NOSIG",
      "taf": "TAF LQSA 101100Z 1012/1112 VRB02KT CAVOK TX30/1013Z TN13/1103Z"
    },
    {
      "icao": "LQTZ",
      "alert": "OK",
      "vis_m": 9999,
      "fzfg": false,
      "metar_trigger": false,
      "taf_trigger": false,
      "metar": "METAR LQTZ 101330Z 17003KT 130V230 9999 FEW045 29/20 Q1012",
      "taf": "TAF LQTZ 101100Z 1012/1112 07005KT CAVOK TX28/1013Z TN15/1103Z"
    },
    {
      "icao": "LRBC",
      "alert": "OK",
      "vis_m": 9999,
      "fzfg": false,
      "metar_trigger": false,
      "taf_trigger": false,
      "metar": "METAR LRBC 101330Z 16008KT 140V200 9999 FEW045TCU BKN058 27/17 Q1015",
      "taf": "TAF LRBC 101100Z 1012/1021 VRB04KT 9999 SCT050"
    },
    {
      "icao": "LRBS",
      "alert": "OK",
      "vis_m": 9999,
      "fzfg": false,
      "metar_trigger": false,
      "taf_trigger": false,
      "metar": "METAR LRBS 101330Z 14010KT 9999 FEW054TCU 29/16 Q1013 NOSIG",
      "taf": "TAF LRBS 101100Z 1012/1112 VRB04KT CAVOK"
    },
    {
      "icao": "LRBV",
      "alert": "OK",
      "vis_m": 9999,
      "fzfg": false,
      "metar_trigger": false,
      "taf_trigger": false,
      "metar": "METAR LRBV 101330Z 00000KT 9999 FEW052 27/12 Q1015",
      "taf": "TAF LRBV 101100Z 1012/1021 VRB04KT CAVOK"
    },
    {
      "icao": "LRCL",
      "alert": "OK",
      "vis_m": 9999,
      "fzfg": false,
      "metar_trigger": false,
      "taf_trigger": false,
      "metar": "METAR LRCL 101330Z 10004KT 050V130 9999 FEW043 29/09 Q1013",
      "taf": "TAF LRCL 101100Z 1012/1021 VRB04KT CAVOK"
    },
    {
      "icao": "LRCV",
      "alert": "OK",
      "vis_m": 9999,
      "fzfg": false,
      "metar_trigger": false,
      "taf_trigger": false,
      "metar": "METAR LRCV 101330Z 12008KT 090V150 CAVOK 30/16 Q1013",
      "taf": "TAF LRCV 101100Z 1012/1021 VRB04KT CAVOK"
    },
    {
      "icao": "LRIA",
      "alert": "OK",
      "vis_m": 9999,
      "fzfg": false,
      "metar_trigger": false,
      "taf_trigger": false,
      "metar": "METAR LRIA 101330Z VRB05KT CAVOK 28/11 Q1015",
      "taf": "TAF LRIA 101100Z 1012/1021 VRB04KT CAVOK"
    },
    {
      "icao": "LROP",
      "alert": "OK",
      "vis_m": 9999,
      "fzfg": false,
      "metar_trigger": false,
      "taf_trigger": false,
      "metar": "METAR LROP 101330Z 15010KT CAVOK 28/16 Q1014 NOSIG",
      "taf": "TAF LROP 101100Z 1012/1112 VRB04KT CAVOK"
    },
    {
      "icao": "LRSB",
      "alert": "OK",
      "vis_m": 9999,
      "fzfg": false,
      "metar_trigger": false,
      "taf_trigger": false,
      "metar": "METAR LRSB 101330Z 20011KT 9999 VCSH FEW040CB 26/15 Q1014",
      "taf": "TAF LRSB 101100Z 1012/1112 VRB04KT CAVOK"
    },
    {
      "icao": "LRSM",
      "alert": "OK",
      "vis_m": 9999,
      "fzfg": false,
      "metar_trigger": false,
      "taf_trigger": false,
      "metar": "METAR LRSM 101330Z 11004KT 040V160 CAVOK 30/11 Q1012",
      "taf": "TAF LRSM 101100Z 1012/1021 18006KT CAVOK"
    },
    {
      "icao": "LRSV",
      "alert": "OK",
      "vis_m": 9999,
      "fzfg": false,
      "metar_trigger": false,
      "taf_trigger": false,
      "metar": "METAR LRSV 101330Z 06004KT 010V130 CAVOK 26/13 Q1016",
      "taf": "TAF LRSV 101100Z 1012/1021 07007KT 9999 SCT035"
    },
    {
      "icao": "LRTM",
      "alert": "OK",
      "vis_m": 9999,
      "fzfg": false,
      "metar_trigger": false,
      "taf_trigger": false,
      "metar": "METAR LRTM 101330Z 29004KT 230V040 9999 FEW042CB 30/15 Q1014",
      "taf": "TAF LRTM 101100Z 1012/1021 VRB04KT CAVOK"
    },
    {
      "icao": "LRTR",
      "alert": "OK",
      "vis_m": 9999,
      "fzfg": false,
      "metar_trigger": false,
      "taf_trigger": false,
      "metar": "METAR LRTR 101330Z 16006KT 120V220 CAVOK 32/11 Q1011",
      "taf": "TAF LRTR 101100Z 1012/1112 VRB04KT 9999 SCT040"
    },
    {
      "icao": "LTAC",
      "alert": "OK",
      "vis_m": 9999,
      "fzfg": false,
      "metar_trigger": false,
      "taf_trigger": false,
      "metar": "METAR LTAC 101320Z 06012KT 9999 FEW030CB SCT040 BKN100 20/11 Q1016 NOSIG RMK RWY21C 04012KT RWY03L 05011KT RWY21R 05012KT RWY03R 03012KT RWY21L 04011KT",
      "taf": "TAF LTAC 101040Z 1012/1112 03008KT 9999 SCT040 BKN100"
    },
    {
      "icao": "LTFM",
      "alert": "OK",
      "vis_m": 9999,
      "fzfg": false,
      "metar_trigger": false,
      "taf_trigger": false,
      "metar": "METAR LTFM 101320Z 02014KT CAVOK 23/16 Q1015 NOSIG RMK RWY17L 02012KT RWY34L 03013KT 350V050 RWY16R 04012KT 350V050 RWY36 04015KT RWY18 05012KT",
      "taf": "TAF LTFM 101040Z 1012/1118 05014KT CAVOK"
    },
    {
      "icao": "LUKK",
      "alert": "OK",
      "vis_m": 9999,
      "fzfg": false,
      "metar_trigger": false,
      "taf_trigger": false,
      "metar": "METAR LUKK 101330Z VRB04KT CAVOK 27/12 Q1015 NOSIG",
      "taf": "TAF LUKK 101114Z 1012/1112 VRB04KT CAVOK"
    },
    {
      "icao": "LWOH",
      "alert": "OK",
      "vis_m": 9999,
      "fzfg": false,
      "metar_trigger": false,
      "taf_trigger": false,
      "metar": "METAR LWOH 101320Z 14005KT 110V170 9999 SCT035TCU SCT040 25/17 Q1016",
      "taf": "TAF LWOH 101130Z 1012/1112 16010KT 9999 FEW040"
    },
    {
      "icao": "LWSK",
      "alert": "OK",
      "vis_m": 9999,
      "fzfg": false,
      "metar_trigger": false,
      "taf_trigger": false,
      "metar": "METAR LWSK 101350Z 25009KT 9999 FEW050TCU 31/15 Q1012 NOSIG",
      "taf": "TAF LWSK 101130Z 1012/1112 VRB02KT 9999 FEW080"
    },
    {
      "icao": "LYBE",
      "alert": "OK",
      "vis_m": 9999,
      "fzfg": false,
      "metar_trigger": false,
      "taf_trigger": false,
      "metar": "METAR LYBE 101330Z 18004KT 100V260 CAVOK 31/14 Q1012 NOSIG",
      "taf": "TAF LYBE 101100Z 1012/1112 24005KT CAVOK TX32/1013Z TN17/1103Z"
    },
    {
      "icao": "LYNI",
      "alert": "OK",
      "vis_m": 9999,
      "fzfg": false,
      "metar_trigger": false,
      "taf_trigger": false,
      "metar": "METAR LYNI 101330Z VRB02KT 9999 FEW050 33/14 Q1012 NOSIG",
      "taf": "TAF LYNI 101100Z 1012/1112 18005KT CAVOK TX32/1013Z TN15/1103Z"
    },
    {
      "icao": "LYPG",
      "alert": "OK",
      "vis_m": 9999,
      "fzfg": false,
      "metar_trigger": false,
      "taf_trigger": false,
      "metar": "METAR LYPG 101330Z 16005KT 100V220 9999 FEW040 31/17 Q1012 NOSIG",
      "taf": "TAF LYPG 101100Z 1012/1112 16005KT 9999 FEW040 TX33/1014Z TN20/1103Z"
    },
    {
      "icao": "LZIB",
      "alert": "OK",
      "vis_m": 9999,
      "fzfg": false,
      "metar_trigger": false,
      "taf_trigger": false,
      "metar": "METAR LZIB 101330Z 02005KT 330V070 9999 FEW034 20/12 Q1014 NOSIG",
      "taf": "TAF LZIB 101115Z 1012/1112 31009KT 9999 SCT035"
    },
    {
      "icao": "LZKZ",
      "alert": "OK",
      "vis_m": 9999,
      "fzfg": false,
      "metar_trigger": false,
      "taf_trigger": false,
      "metar": "METAR LZKZ 101330Z 02008KT CAVOK 25/16 Q1013 NOSIG",
      "taf": "TAF LZKZ 101115Z 1012/1112 02010KT 9999 FEW040"
    },
    {
      "icao": "LZTT",
      "alert": "OK",
      "vis_m": 9999,
      "fzfg": false,
      "metar_trigger": false,
      "taf_trigger": false,
      "metar": "METAR LZTT 101330Z VRB02KT 9999 BKN014 18/15 Q1015 TEMPO TSRA BKN012 FEW025CB BKN035",
      "taf": "TAF LZTT 101115Z 1012/1112 15006KT 9999 FEW014 BKN035"
    },
    {
      "icao": "OEJN",
      "alert": "OK",
      "vis_m": 9999,
      "fzfg": false,
      "metar_trigger": false,
      "taf_trigger": false,
      "metar": "METAR OEJN 101300Z 27006KT CAVOK 36/22 Q1005 NOSIG",
      "taf": "TAF OEJN 101100Z 1012/1118 29012KT CAVOK"
    },
    {
      "icao": "OEMA",
      "alert": "OK",
      "vis_m": 9999,
      "fzfg": false,
      "metar_trigger": false,
      "taf_trigger": false,
      "metar": "METAR OEMA 101300Z 28006KT CAVOK 43/M05 Q1010 NOSIG",
      "taf": "TAF OEMA 101100Z 1012/1118 27012KT CAVOK"
    },
    {
      "icao": "OJAI",
      "alert": "OK",
      "vis_m": 5000,
      "fzfg": false,
      "metar_trigger": false,
      "taf_trigger": false,
      "metar": "METAR OJAI 101300Z 28012KT 5000 DU NSC 31/02 Q1013 NOSIG",
      "taf": "TAF OJAI 101100Z 1012/1118 28014KT 5000 HZ NSC"
    },
    {
      "icao": "OMAA",
      "alert": "OK",
      "vis_m": 9999,
      "fzfg": false,
      "metar_trigger": false,
      "taf_trigger": false,
      "metar": "METAR OMAA 101330Z 31010KT CAVOK 37/21 Q1000 NOSIG",
      "taf": "TAF OMAA 101100Z 1012/1118 30013KT 8000 NSC"
    },
    {
      "icao": "OMDB",
      "alert": "OK",
      "vis_m": null,
      "fzfg": false,
      "metar_trigger": false,
      "taf_trigger": false,
      "metar": "",
      "taf": "TAF OMDB 101100Z 1012/1118 29010KT CAVOK"
    },
    {
      "icao": "UAAA",
      "alert": "OK",
      "vis_m": 9999,
      "fzfg": false,
      "metar_trigger": false,
      "taf_trigger": false,
      "metar": "METAR UAAA 101330Z VRB01MPS 9999 FEW050CB BKN100 30/12 Q1010 NOSIG",
      "taf": "TAF UAAA 101103Z 1012/1112 20003G08MPS 9999 SCT050CB BKN100 TX27/1110Z TN17/1101Z"
    },
    {
      "icao": "UBBB",
      "alert": "OK",
      "vis_m": 9999,
      "fzfg": false,
      "metar_trigger": false,
      "taf_trigger": false,
      "metar": "METAR UBBB 101330Z 17010KT CAVOK 28/09 Q1013 NOSIG",
      "taf": "TAF UBBB 101042Z 1012/1112 18010KT 9999 SCT040 TX29/1012Z TN19/1100Z"
    },
    {
      "icao": "UDSG",
      "alert": "OK",
      "vis_m": 9999,
      "fzfg": false,
      "metar_trigger": false,
      "taf_trigger": false,
      "metar": "METAR UDSG 101330Z 01005KT 9999 VCTS BKN043CB 20/13 Q1018 TEMPO -TSRA",
      "taf": "TAF UDSG 101100Z 1012/1112 24006KT 9999 SCT050"
    },
    {
      "icao": "UDYZ",
      "alert": "OK",
      "vis_m": 9999,
      "fzfg": false,
      "metar_trigger": false,
      "taf_trigger": false,
      "metar": "METAR UDYZ 101330Z 20006KT 9999 VCTS SCT043CB 30/11 Q1012 NOSIG",
      "taf": "TAF UDYZ 101100Z 1012/1112 23006KT 9999 SCT040"
    },
    {
      "icao": "UGKO",
      "alert": "OK",
      "vis_m": 9999,
      "fzfg": false,
      "metar_trigger": false,
      "taf_trigger": false,
      "metar": "METAR UGKO 101330Z 25017KT 9999 BKN042 25/16 Q1012 NOSIG",
      "taf": ""
    }
  ]
}