{
  "ts_utc": "2026-07-11T17:10:53Z",
  "threshold_m": 150,
  "source": "stations_override.txt (ICAO list) + aviationweather.gov (METAR/TAF raw)",
  "station_count": 159,
  "stations": [
    {
      "icao": "BIKF",
      "alert": "OK",
      "vis_m": 2500,
      "fzfg": false,
      "metar_trigger": false,
      "taf_trigger": false,
      "metar": "METAR BIKF 111700Z 20018KT 2500 BR OVC002 11/11 Q1020",
      "taf": "TAF BIKF 111635Z 1118/1218 19020KT 7000 BKN007 TX11/1215Z TN09/1203Z"
    },
    {
      "icao": "BKPR",
      "alert": "OK",
      "vis_m": 9999,
      "fzfg": false,
      "metar_trigger": false,
      "taf_trigger": false,
      "metar": "METAR BKPR 111700Z 34020KT 9999 NSC 25/14 Q1018 NOSIG",
      "taf": ""
    },
    {
      "icao": "EBCI",
      "alert": "OK",
      "vis_m": 9999,
      "fzfg": false,
      "metar_trigger": false,
      "taf_trigger": false,
      "metar": "METAR EBCI 111650Z 05013KT 010V070 CAVOK 30/12 Q1018 NOSIG",
      "taf": "TAF EBCI 111112Z 1112/1218 04008KT CAVOK"
    },
    {
      "icao": "EDDB",
      "alert": "OK",
      "vis_m": 9999,
      "fzfg": false,
      "metar_trigger": false,
      "taf_trigger": false,
      "metar": "METAR EDDB 111650Z AUTO 02009KT 350V080 CAVOK 26/11 Q1019 NOSIG",
      "taf": "TAF EDDB 111100Z 1112/1212 35009KT CAVOK"
    },
    {
      "icao": "EDDH",
      "alert": "OK",
      "vis_m": 9999,
      "fzfg": false,
      "metar_trigger": false,
      "taf_trigger": false,
      "metar": "METAR EDDH 111650Z AUTO 02006KT 330V060 CAVOK 27/14 Q1021 NOSIG",
      "taf": "TAF EDDH 111100Z 1112/1218 36007KT CAVOK"
    },
    {
      "icao": "EDDK",
      "alert": "OK",
      "vis_m": 9999,
      "fzfg": false,
      "metar_trigger": false,
      "taf_trigger": false,
      "metar": "METAR EDDK 111650Z AUTO 02007KT 340V110 CAVOK 31/14 Q1018 NOSIG",
      "taf": "TAF EDDK 111100Z 1112/1218 06007KT CAVOK"
    },
    {
      "icao": "EDDN",
      "alert": "OK",
      "vis_m": 9999,
      "fzfg": false,
      "metar_trigger": false,
      "taf_trigger": false,
      "metar": "METAR EDDN 111650Z AUTO 03009KT 360V060 CAVOK 28/09 Q1018 NOSIG",
      "taf": "TAF EDDN 111100Z 1112/1212 03005KT CAVOK"
    },
    {
      "icao": "EDDS",
      "alert": "OK",
      "vis_m": 9999,
      "fzfg": false,
      "metar_trigger": false,
      "taf_trigger": false,
      "metar": "METAR EDDS 111650Z AUTO 36009KT 330V030 CAVOK 31/06 Q1017 NOSIG",
      "taf": "TAF EDDS 111100Z 1112/1212 04008KT CAVOK"
    },
    {
      "icao": "EDFH",
      "alert": "OK",
      "vis_m": 9999,
      "fzfg": false,
      "metar_trigger": false,
      "taf_trigger": false,
      "metar": "METAR EDFH 111650Z 06007KT 030V100 CAVOK 29/11 Q1019",
      "taf": "TAF EDFH 111100Z 1112/1212 08007KT CAVOK"
    },
    {
      "icao": "EDJA",
      "alert": "OK",
      "vis_m": 9999,
      "fzfg": false,
      "metar_trigger": false,
      "taf_trigger": false,
      "metar": "METAR EDJA 111650Z 04009KT 020V080 CAVOK 28/09 Q1018",
      "taf": "TAF EDJA 111400Z 1115/1124 04005KT CAVOK"
    },
    {
      "icao": "EDLW",
      "alert": "OK",
      "vis_m": 9999,
      "fzfg": false,
      "metar_trigger": false,
      "taf_trigger": false,
      "metar": "METAR EDLW 111650Z 07008KT 020V100 CAVOK 28/10 Q1020",
      "taf": "TAF EDLW 111100Z 1112/1212 06008KT CAVOK"
    },
    {
      "icao": "EDNY",
      "alert": "OK",
      "vis_m": 9999,
      "fzfg": false,
      "metar_trigger": false,
      "taf_trigger": false,
      "metar": "METAR EDNY 111650Z 05006KT 350V080 CAVOK 31/09 Q1016",
      "taf": "TAF EDNY 111400Z 1115/1124 03006KT CAVOK"
    },
    {
      "icao": "EDSB",
      "alert": "OK",
      "vis_m": 9999,
      "fzfg": false,
      "metar_trigger": false,
      "taf_trigger": false,
      "metar": "METAR EDSB 111650Z 05015KT CAVOK 33/07 Q1015",
      "taf": "TAF EDSB 111100Z 1112/1212 02012KT CAVOK"
    },
    {
      "icao": "EETN",
      "alert": "OK",
      "vis_m": 9999,
      "fzfg": false,
      "metar_trigger": false,
      "taf_trigger": false,
      "metar": "METAR EETN 111650Z 07012KT 030V100 9999 FEW030CB 23/18 Q1015 TEMPO VRB18G30KT 4000 TSRA",
      "taf": "TAF EETN 111130Z 1112/1212 04012KT 9999 SCT045"
    },
    {
      "icao": "EFTU",
      "alert": "OK",
      "vis_m": 9999,
      "fzfg": false,
      "metar_trigger": false,
      "taf_trigger": false,
      "metar": "METAR EFTU 111650Z AUTO 05007KT 010V090 CAVOK 25/14 Q1017",
      "taf": "TAF EFTU 111429Z 1115/1215 03007KT CAVOK"
    },
    {
      "icao": "EGBB",
      "alert": "OK",
      "vis_m": 9999,
      "fzfg": false,
      "metar_trigger": false,
      "taf_trigger": false,
      "metar": "METAR EGBB 111650Z 05011KT 010V080 CAVOK 28/13 Q1022",
      "taf": "TAF EGBB 111101Z 1112/1212 06010KT CAVOK"
    },
    {
      "icao": "EGGP",
      "alert": "OK",
      "vis_m": 9999,
      "fzfg": false,
      "metar_trigger": false,
      "taf_trigger": false,
      "metar": "METAR EGGP 111650Z 11009KT 070V140 CAVOK 28/14 Q1022",
      "taf": "TAF EGGP 111058Z 1112/1212 10007KT CAVOK"
    },
    {
      "icao": "EGGW",
      "alert": "OK",
      "vis_m": 9999,
      "fzfg": false,
      "metar_trigger": false,
      "taf_trigger": false,
      "metar": "METAR EGGW 111650Z AUTO 03013KT 360V060 9999 NCD 27/15 Q1022",
      "taf": "TAF EGGW 111053Z 1112/1212 05011KT CAVOK"
    },
    {
      "icao": "EGKK",
      "alert": "OK",
      "vis_m": 9999,
      "fzfg": false,
      "metar_trigger": false,
      "taf_trigger": false,
      "metar": "METAR EGKK 111650Z 07015KT CAVOK 27/13 Q1020",
      "taf": "TAF EGKK 111057Z 1112/1218 06010KT 9999 FEW045"
    },
    {
      "icao": "EGNM",
      "alert": "OK",
      "vis_m": 9999,
      "fzfg": false,
      "metar_trigger": false,
      "taf_trigger": false,
      "metar": "METAR EGNM 111650Z 07010KT 030V100 CAVOK 22/15 Q1025",
      "taf": "TAF EGNM 111054Z 1112/1212 06005KT CAVOK"
    },
    {
      "icao": "EGPD",
      "alert": "OK",
      "vis_m": 9999,
      "fzfg": false,
      "metar_trigger": false,
      "taf_trigger": false,
      "metar": "METAR EGPD 111650Z AUTO 04006KT 9999 OVC010 14/12 Q1030",
      "taf": ""
    },
    {
      "icao": "EGPF",
      "alert": "OK",
      "vis_m": 9999,
      "fzfg": false,
      "metar_trigger": false,
      "taf_trigger": false,
      "metar": "METAR EGPF 111650Z AUTO 06012KT 9999 BKN015 BKN025 19/16 Q1027",
      "taf": ""
    },
    {
      "icao": "EHBK",
      "alert": "OK",
      "vis_m": 9999,
      "fzfg": false,
      "metar_trigger": false,
      "taf_trigger": false,
      "metar": "METAR EHBK 111655Z AUTO 05011KT 010V090 9999 NCD 30/14 Q1018 NOSIG",
      "taf": "TAF EHBK 111113Z 1112/1218 06010KT CAVOK"
    },
    {
      "icao": "EHEH",
      "alert": "OK",
      "vis_m": 9999,
      "fzfg": false,
      "metar_trigger": false,
      "taf_trigger": false,
      "metar": "METAR EHEH 111655Z AUTO 03009KT 350V070 9999 NCD 29/16 Q1019 BLU NOSIG RMK TREND REMOTE BY EHWX",
      "taf": "TAF EHEH 111149Z 1112/1218 05007KT CAVOK"
    },
    {
      "icao": "EKBI",
      "alert": "OK",
      "vis_m": 9999,
      "fzfg": false,
      "metar_trigger": false,
      "taf_trigger": false,
      "metar": "METAR EKBI 111650Z AUTO 28011KT 9999 NCD 23/13 Q1022",
      "taf": "TAF EKBI 111427Z 1115/1215 29007KT CAVOK"
    },
    {
      "icao": "EKCH",
      "alert": "OK",
      "vis_m": 9999,
      "fzfg": false,
      "metar_trigger": false,
      "taf_trigger": false,
      "metar": "METAR EKCH 111650Z AUTO 34009KT 9999 NCD 25/12 Q1020 NOSIG",
      "taf": "TAF EKCH 111427Z 1115/1215 VRB04KT CAVOK"
    },
    {
      "icao": "ENAL",
      "alert": "OK",
      "vis_m": 9999,
      "fzfg": false,
      "metar_trigger": false,
      "taf_trigger": false,
      "metar": "METAR ENAL 111650Z 04010KT CAVOK 15/09 Q1028",
      "taf": "TAF ENAL 111400Z 1115/1124 02012KT 9999 FEW020"
    },
    {
      "icao": "ENBR",
      "alert": "OK",
      "vis_m": 9999,
      "fzfg": false,
      "metar_trigger": false,
      "taf_trigger": false,
      "metar": "METAR ENBR 111650Z 32012KT CAVOK 15/10 Q1025 NOSIG RMK WIND 1200FT 33028KT",
      "taf": "TAF ENBR 111100Z 1112/1212 33010KT CAVOK"
    },
    {
      "icao": "ENGM",
      "alert": "OK",
      "vis_m": 9999,
      "fzfg": false,
      "metar_trigger": false,
      "taf_trigger": false,
      "metar": "METAR ENGM 111650Z 02007KT 350V050 CAVOK 20/16 Q1021 NOSIG",
      "taf": "TAF ENGM 111100Z 1112/1212 VRB05KT CAVOK"
    },
    {
      "icao": "ENHD",
      "alert": "OK",
      "vis_m": 9999,
      "fzfg": false,
      "metar_trigger": false,
      "taf_trigger": false,
      "metar": "METAR ENHD 111650Z AUTO 34020KT 9999 NCD 15/10 Q1025",
      "taf": "TAF ENHD 111400Z 1115/1122 35018KT CAVOK"
    },
    {
      "icao": "ENTC",
      "alert": "OK",
      "vis_m": 9999,
      "fzfg": false,
      "metar_trigger": false,
      "taf_trigger": false,
      "metar": "METAR ENTC 111650Z 28017KT 9999 SCT036 BKN047 12/07 Q1025 NOSIG RMK WIND 2600FT 26016KT",
      "taf": "TAF ENTC 111100Z 1112/1212 27009KT 9999 BKN045"
    },
    {
      "icao": "ENTO",
      "alert": "OK",
      "vis_m": 9999,
      "fzfg": false,
      "metar_trigger": false,
      "taf_trigger": false,
      "metar": "METAR ENTO 111650Z VRB02KT 9999 FEW035 22/14 Q1020 NOSIG",
      "taf": "TAF ENTO 111100Z 1112/1212 20010KT CAVOK"
    },
    {
      "icao": "ENVA",
      "alert": "OK",
      "vis_m": 9999,
      "fzfg": false,
      "metar_trigger": false,
      "taf_trigger": false,
      "metar": "METAR ENVA 111650Z 27013KT 9999 FEW040 16/10 Q1028 RMK WIND 670FT 28014KT",
      "taf": "TAF ENVA 111100Z 1112/1212 27010KT 9999 FEW030"
    },
    {
      "icao": "ENZV",
      "alert": "OK",
      "vis_m": 9999,
      "fzfg": false,
      "metar_trigger": false,
      "taf_trigger": false,
      "metar": "METAR ENZV 111650Z 33016KT CAVOK 17/11 Q1025 NOSIG",
      "taf": "TAF ENZV 111100Z 1112/1212 35012KT CAVOK"
    },
    {
      "icao": "EPGD",
      "alert": "OK",
      "vis_m": 9999,
      "fzfg": false,
      "metar_trigger": false,
      "taf_trigger": false,
      "metar": "METAR EPGD 111700Z 31011KT 270V330 9999 -RA NSC 17/13 Q1017",
      "taf": "TAF EPGD 111130Z 1112/1212 33012KT 9999 SCT030"
    },
    {
      "icao": "EPKK",
      "alert": "OK",
      "vis_m": 9999,
      "fzfg": false,
      "metar_trigger": false,
      "taf_trigger": false,
      "metar": "METAR EPKK 111700Z 28007KT CAVOK 21/11 Q1017",
      "taf": "TAF EPKK 111430Z 1115/1215 29008KT 9999 SCT055"
    },
    {
      "icao": "EPKT",
      "alert": "OK",
      "vis_m": 9999,
      "fzfg": false,
      "metar_trigger": false,
      "taf_trigger": false,
      "metar": "METAR EPKT 111700Z 29006KT 270V330 CAVOK 20/11 Q1018",
      "taf": "TAF EPKT 111130Z 1112/1212 35010KT 9999 SCT040"
    },
    {
      "icao": "EPLB",
      "alert": "OK",
      "vis_m": 9999,
      "fzfg": false,
      "metar_trigger": false,
      "taf_trigger": false,
      "metar": "METAR EPLB 111700Z 31003KT 270V350 9999 FEW041CB 19/15 Q1015",
      "taf": "TAF EPLB 111130Z 1112/1212 31010KT 9999 SCT035"
    },
    {
      "icao": "EPMO",
      "alert": "OK",
      "vis_m": 9999,
      "fzfg": false,
      "metar_trigger": false,
      "taf_trigger": false,
      "metar": "METAR EPMO 111700Z 26007KT 9999 -SHRA FEW056CB 16/14 Q1016 RESHRA",
      "taf": "TAF EPMO 111130Z 1112/1212 33010KT 9999 SCT030"
    },
    {
      "icao": "EPPO",
      "alert": "OK",
      "vis_m": 9999,
      "fzfg": false,
      "metar_trigger": false,
      "taf_trigger": false,
      "metar": "METAR EPPO 111700Z 34008KT CAVOK 23/11 Q1018",
      "taf": "TAF EPPO 111130Z 1112/1212 36008KT 9999 SCT030"
    },
    {
      "icao": "EPRA",
      "alert": "OK",
      "vis_m": 9999,
      "fzfg": false,
      "metar_trigger": false,
      "taf_trigger": false,
      "metar": "METAR EPRA 111700Z 31008KT 280V340 9999 FEW040 21/11 Q1016",
      "taf": "TAF EPRA 111430Z 1115/1124 31008KT 9999 SCT040"
    },
    {
      "icao": "EPRZ",
      "alert": "OK",
      "vis_m": 9999,
      "fzfg": false,
      "metar_trigger": false,
      "taf_trigger": false,
      "metar": "METAR EPRZ 111700Z 29009KT CAVOK 21/10 Q1016",
      "taf": "TAF EPRZ 111130Z 1112/1212 31008KT 9999 SCT040"
    },
    {
      "icao": "EPSC",
      "alert": "OK",
      "vis_m": 9999,
      "fzfg": false,
      "metar_trigger": false,
      "taf_trigger": false,
      "metar": "METAR EPSC 111700Z 35009KT 320V020 CAVOK 21/12 Q1019",
      "taf": "TAF EPSC 111130Z 1112/1212 36007KT 9999 SCT035"
    },
    {
      "icao": "EPSY",
      "alert": "OK",
      "vis_m": 9999,
      "fzfg": false,
      "metar_trigger": false,
      "taf_trigger": false,
      "metar": "METAR EPSY 111700Z 32009KT 290V360 9999 -SHRA FEW025 BKN039CB 17/14 Q1016",
      "taf": "TAF EPSY 111430Z 1115/1124 30010KT 9999 BKN030"
    },
    {
      "icao": "EPWA",
      "alert": "OK",
      "vis_m": 8000,
      "fzfg": false,
      "metar_trigger": false,
      "taf_trigger": false,
      "metar": "METAR EPWA 111700Z 35007KT 320V020 8000 SHRA BKN046CB 17/15 Q1016 TEMPO 2000 TSRA",
      "taf": "TAF EPWA 111430Z 1115/1215 33010KT 9999 SCT030"
    },
    {
      "icao": "EPWR",
      "alert": "OK",
      "vis_m": 9999,
      "fzfg": false,
      "metar_trigger": false,
      "taf_trigger": false,
      "metar": "METAR EPWR 111700Z 31010KT CAVOK 25/08 Q1018",
      "taf": "TAF EPWR 111430Z 1115/1215 35008KT CAVOK"
    },
    {
      "icao": "ESGG",
      "alert": "OK",
      "vis_m": 9999,
      "fzfg": false,
      "metar_trigger": false,
      "taf_trigger": false,
      "metar": "METAR ESGG 111650Z 27007KT CAVOK 25/13 Q1020",
      "taf": "TAF ESGG 111430Z 1115/1215 29008KT CAVOK"
    },
    {
      "icao": "ESKN",
      "alert": "OK",
      "vis_m": 9999,
      "fzfg": false,
      "metar_trigger": false,
      "taf_trigger": false,
      "metar": "METAR ESKN 111650Z 02006KT 340V060 CAVOK 26/13 Q1018",
      "taf": "TAF ESKN 111430Z 1115/1215 04007KT CAVOK"
    },
    {
      "icao": "ESMS",
      "alert": "OK",
      "vis_m": 9999,
      "fzfg": false,
      "metar_trigger": false,
      "taf_trigger": false,
      "metar": "METAR ESMS 111650Z 32013KT CAVOK 26/13 Q1019",
      "taf": "TAF ESMS 111427Z 1115/1215 32010KT CAVOK"
    },
    {
      "icao": "ESSA",
      "alert": "OK",
      "vis_m": 9999,
      "fzfg": false,
      "metar_trigger": false,
      "taf_trigger": false,
      "metar": "METAR ESSA 111650Z 01010KT CAVOK 23/09 Q1018 NOSIG",
      "taf": "TAF ESSA 111430Z 1115/1215 03010KT CAVOK"
    },
    {
      "icao": "EYKA",
      "alert": "OK",
      "vis_m": 4500,
      "fzfg": false,
      "metar_trigger": false,
      "taf_trigger": false,
      "metar": "METAR EYKA 111650Z 27007KT 4500 -RA BR BKN005 OVC008 15/14 Q1011",
      "taf": "TAF EYKA 111100Z 1112/1212 VRB03KT 9000 SCT005 BKN020"
    },
    {
      "icao": "EYPA",
      "alert": "OK",
      "vis_m": 9999,
      "fzfg": false,
      "metar_trigger": false,
      "taf_trigger": false,
      "metar": "METAR EYPA 111650Z 02006KT 9999 OVC005 17/16 Q1012",
      "taf": "TAF EYPA 111100Z 1112/1212 34010KT 9000 BKN045"
    },
    {
      "icao": "EYVI",
      "alert": "OK",
      "vis_m": 9999,
      "fzfg": false,
      "metar_trigger": false,
      "taf_trigger": false,
      "metar": "METAR EYVI 111650Z 23007KT 9999 -SHRA BKN006 BKN011CB 15/14 Q1012 NOSIG",
      "taf": "TAF EYVI 111125Z 1112/1212 27010KT 8000 SCT010 BKN020"
    },
    {
      "icao": "GCFV",
      "alert": "OK",
      "vis_m": 9999,
      "fzfg": false,
      "metar_trigger": false,
      "taf_trigger": false,
      "metar": "METAR GCFV 111700Z 36013KT 310V040 9999 FEW030 28/18 Q1014",
      "taf": "TAF GCFV 111400Z 1115/1215 35009KT 9999 SCT025 TX25/1214Z TN20/1206Z"
    },
    {
      "icao": "GCLP",
      "alert": "OK",
      "vis_m": 9999,
      "fzfg": false,
      "metar_trigger": false,
      "taf_trigger": false,
      "metar": "METAR GCLP 111700Z 01019KT 330V030 9999 FEW030 BKN050 27/19 Q1015 NOSIG",
      "taf": "TAF GCLP 111400Z 1115/1215 03020KT 9999 FEW040 BKN050 TX25/1214Z TN19/1206Z"
    },
    {
      "icao": "GCTS",
      "alert": "OK",
      "vis_m": 9999,
      "fzfg": false,
      "metar_trigger": false,
      "taf_trigger": false,
      "metar": "METAR GCTS 111700Z 14008KT 100V170 9999 SCT020 BKN030 25/19 Q1016 NOSIG",
      "taf": "TAF GCTS 111400Z 1115/1215 23010KT 9999 FEW030 TX26/1214Z TN20/1206Z"
    },
    {
      "icao": "GMAD",
      "alert": "OK",
      "vis_m": 9999,
      "fzfg": false,
      "metar_trigger": false,
      "taf_trigger": false,
      "metar": "METAR GMAD 111700Z 24019KT 9999 FEW020 26/16 Q1011 NOSIG",
      "taf": "TAF GMAD 111100Z 1112/1218 28013KT 8000 SCT020"
    },
    {
      "icao": "GMMN",
      "alert": "OK",
      "vis_m": 9999,
      "fzfg": false,
      "metar_trigger": false,
      "taf_trigger": false,
      "metar": "METAR GMMN 111700Z 33011KT CAVOK 26/17 Q1013 NOSIG",
      "taf": "TAF GMMN 111100Z 1112/1218 34011KT 9999 FEW030"
    },
    {
      "icao": "GMMX",
      "alert": "OK",
      "vis_m": 9999,
      "fzfg": false,
      "metar_trigger": false,
      "taf_trigger": false,
      "metar": "METAR GMMX 111700Z VRB04KT 9999 FEW030 32/15 Q1012 NOSIG",
      "taf": "TAF GMMX 111100Z 1112/1218 28006KT 8000 SCT023"
    },
    {
      "icao": "HEGN",
      "alert": "OK",
      "vis_m": 9999,
      "fzfg": false,
      "metar_trigger": false,
      "taf_trigger": false,
      "metar": "METAR HEGN 111600Z 34015KT CAVOK 35/13 Q1007 NOSIG",
      "taf": "TAF HEGN 111700Z 1118/1224 30015KT CAVOK"
    },
    {
      "icao": "HEMA",
      "alert": "OK",
      "vis_m": 9999,
      "fzfg": false,
      "metar_trigger": false,
      "taf_trigger": false,
      "metar": "METAR HEMA 111600Z 34010KT CAVOK 33/13 Q1008 NOSIG",
      "taf": "TAF HEMA 111700Z 1118/1224 31016KT CAVOK"
    },
    {
      "icao": "HESH",
      "alert": "OK",
      "vis_m": 9999,
      "fzfg": false,
      "metar_trigger": false,
      "taf_trigger": false,
      "metar": "METAR HESH 111600Z 02008KT CAVOK 37/13 Q1006 NOSIG",
      "taf": "TAF HESH 111700Z 1118/1224 35014KT CAVOK"
    },
    {
      "icao": "HESX",
      "alert": "OK",
      "vis_m": 9999,
      "fzfg": false,
      "metar_trigger": false,
      "taf_trigger": false,
      "metar": "METAR HESX 111600Z 36013KT CAVOK 31/17 Q1012 NOSIG",
      "taf": "TAF HESX 111700Z 1118/1224 01010KT CAVOK"
    },
    {
      "icao": "LATI",
      "alert": "OK",
      "vis_m": 9999,
      "fzfg": false,
      "metar_trigger": false,
      "taf_trigger": false,
      "metar": "METAR LATI 111650Z 32009KT CAVOK 29/13 Q1016 NOSIG",
      "taf": "TAF LATI 111700Z 1118/1218 VRB03KT CAVOK TX35/1212Z TN18/1204Z"
    },
    {
      "icao": "LBPD",
      "alert": "OK",
      "vis_m": 9999,
      "fzfg": false,
      "metar_trigger": false,
      "taf_trigger": false,
      "metar": "METAR LBPD 111700Z AUTO 14003KT 110V170 9999 NCD 31/08 Q1015 NOSIG",
      "taf": "TAF LBPD 111100Z 1112/1212 30010KT CAVOK"
    },
    {
      "icao": "LBSF",
      "alert": "OK",
      "vis_m": 9999,
      "fzfg": false,
      "metar_trigger": false,
      "taf_trigger": false,
      "metar": "METAR LBSF 111700Z AUTO 29007KT 260V320 9999 NCD 29/07 Q1017 NOSIG",
      "taf": "TAF LBSF 111100Z 1112/1212 34010KT CAVOK"
    },
    {
      "icao": "LBWN",
      "alert": "OK",
      "vis_m": 9999,
      "fzfg": false,
      "metar_trigger": false,
      "taf_trigger": false,
      "metar": "METAR LBWN 111700Z AUTO 15005KT 130V190 9999 NCD 26/14 Q1016 NOSIG",
      "taf": "TAF LBWN 111100Z 1112/1212 25012KT 9999 SCT045"
    },
    {
      "icao": "LCLK",
      "alert": "OK",
      "vis_m": 9999,
      "fzfg": false,
      "metar_trigger": false,
      "taf_trigger": false,
      "metar": "METAR LCLK 111700Z 22012KT CAVOK 28/23 Q1009 NOSIG",
      "taf": "TAF LCLK 111130Z 1112/1212 21016KT 9999 FEW025"
    },
    {
      "icao": "LCPH",
      "alert": "OK",
      "vis_m": 9999,
      "fzfg": false,
      "metar_trigger": false,
      "taf_trigger": false,
      "metar": "METAR LCPH 111700Z 31010KT CAVOK 27/24 Q1010 NOSIG",
      "taf": "TAF LCPH 111130Z 1112/1212 27012KT 9999 FEW020"
    },
    {
      "icao": "LEAL",
      "alert": "OK",
      "vis_m": 9999,
      "fzfg": false,
      "metar_trigger": false,
      "taf_trigger": false,
      "metar": "METAR LEAL 111700Z 08013KT CAVOK 31/20 Q1010 NOSIG",
      "taf": "TAF LEAL 111100Z 1112/1212 VRB04KT 9999 FEW015 TX34/1112Z TN23/1206Z"
    },
    {
      "icao": "LEBB",
      "alert": "OK",
      "vis_m": 9999,
      "fzfg": false,
      "metar_trigger": false,
      "taf_trigger": false,
      "metar": "METAR LEBB 111700Z 09008KT 050V140 CAVOK 35/18 Q1010 NOSIG",
      "taf": ""
    },
    {
      "icao": "LEBL",
      "alert": "OK",
      "vis_m": 9999,
      "fzfg": false,
      "metar_trigger": false,
      "taf_trigger": false,
      "metar": "METAR LEBL 111700Z 10007KT 060V130 9999 SCT016 27/23 Q1013 NOSIG",
      "taf": "TAF LEBL 111100Z 1112/1212 07010KT CAVOK TX30/1112Z TN23/1205Z"
    },
    {
      "icao": "LECH",
      "alert": "OK",
      "vis_m": 9999,
      "fzfg": false,
      "metar_trigger": false,
      "taf_trigger": false,
      "metar": "METAR LECH 111700Z AUTO 10007KT 070V140 CAVOK 27/21 Q1014",
      "taf": "TAF LECH 111100Z 1112/1212 10010KT CAVOK TX34/1112Z TN19/1206Z"
    },
    {
      "icao": "LEMD",
      "alert": "OK",
      "vis_m": 9999,
      "fzfg": false,
      "metar_trigger": false,
      "taf_trigger": false,
      "metar": "METAR LEMD 111700Z 19011KT 130V210 CAVOK 37/03 Q1010 NOSIG",
      "taf": "TAF LEMD 111100Z 1112/1218 18010KT CAVOK TX38/1116Z TN19/1205Z"
    },
    {
      "icao": "LEMG",
      "alert": "OK",
      "vis_m": 9999,
      "fzfg": false,
      "metar_trigger": false,
      "taf_trigger": false,
      "metar": "METAR LEMG 111700Z 13007KT 100V160 CAVOK 30/09 Q1010 NOSIG",
      "taf": "TAF LEMG 111100Z 1112/1212 13008KT CAVOK TX34/1114Z TN21/1205Z"
    },
    {
      "icao": "LEVC",
      "alert": "OK",
      "vis_m": 9999,
      "fzfg": false,
      "metar_trigger": false,
      "taf_trigger": false,
      "metar": "METAR LEVC 111700Z 10008KT 050V140 CAVOK 28/22 Q1012 NOSIG",
      "taf": "TAF LEVC 111100Z 1112/1212 09012KT 9999 FEW015 TX32/1114Z TN22/1206Z"
    },
    {
      "icao": "LEXJ",
      "alert": "OK",
      "vis_m": 9999,
      "fzfg": false,
      "metar_trigger": false,
      "taf_trigger": false,
      "metar": "METAR LEXJ 111700Z 09005KT CAVOK 28/21 Q1009",
      "taf": "TAF LEXJ 111400Z 1115/1215 08009KT CAVOK TX30/1210Z TN21/1205Z"
    },
    {
      "icao": "LEZG",
      "alert": "OK",
      "vis_m": 9999,
      "fzfg": false,
      "metar_trigger": false,
      "taf_trigger": false,
      "metar": "METAR LEZG 111700Z 09009KT 060V120 CAVOK 37/07 Q1010 NOSIG",
      "taf": "TAF LEZG 111100Z 1112/1212 10010KT CAVOK TX38/1115Z TN22/1206Z"
    },
    {
      "icao": "LEZL",
      "alert": "OK",
      "vis_m": 9999,
      "fzfg": false,
      "metar_trigger": false,
      "taf_trigger": false,
      "metar": "METAR LEZL 111700Z 25010KT 230V290 CAVOK 29/14 Q1010 NOSIG",
      "taf": "TAF LEZL 111400Z 1115/1215 23011KT CAVOK TX30/1115Z TN19/1205Z"
    },
    {
      "icao": "LFBD",
      "alert": "OK",
      "vis_m": 9999,
      "fzfg": false,
      "metar_trigger": false,
      "taf_trigger": false,
      "metar": "METAR LFBD 111700Z AUTO 09010KT 050V120 CAVOK 36/13 Q1011 NOSIG",
      "taf": "TAF LFBD 111100Z 1112/1218 10005KT CAVOK TX40/1215Z TN26/1205Z"
    },
    {
      "icao": "LFLL",
      "alert": "OK",
      "vis_m": 9999,
      "fzfg": false,
      "metar_trigger": false,
      "taf_trigger": false,
      "metar": "METAR LFLL 111700Z 02005KT 350V050 9999 FEW100TCU SCT160 34/10 Q1014 NOSIG",
      "taf": ""
    },
    {
      "icao": "LFLS",
      "alert": "OK",
      "vis_m": 9999,
      "fzfg": false,
      "metar_trigger": false,
      "taf_trigger": false,
      "metar": "METAR LFLS 111700Z AUTO 01009KT 330V050 CAVOK 33/11 Q1015 TEMPO VRB20G45KT 3000 TSRA BKN080CB",
      "taf": "TAF LFLS 111400Z 1115/1215 01007KT CAVOK"
    },
    {
      "icao": "LFMN",
      "alert": "OK",
      "vis_m": 9999,
      "fzfg": false,
      "metar_trigger": false,
      "taf_trigger": false,
      "metar": "METAR LFMN 111700Z 09015KT 9999 FEW016 BKN260 29/24 Q1014 NOSIG",
      "taf": "TAF LFMN 111400Z 1115/1221 09016KT 9999 FEW100CB"
    },
    {
      "icao": "LFOB",
      "alert": "OK",
      "vis_m": 9999,
      "fzfg": false,
      "metar_trigger": false,
      "taf_trigger": false,
      "metar": "METAR LFOB 111700Z AUTO 04012KT 9999 FEW037 33/11 Q1016 NOSIG",
      "taf": "TAF LFOB 111100Z 1112/1212 05011KT CAVOK"
    },
    {
      "icao": "LFPO",
      "alert": "OK",
      "vis_m": 9999,
      "fzfg": false,
      "metar_trigger": false,
      "taf_trigger": false,
      "metar": "METAR LFPO 111700Z 04011KT 010V100 CAVOK 35/08 Q1015 NOSIG",
      "taf": "TAF LFPO 111100Z 1112/1218 05008KT CAVOK"
    },
    {
      "icao": "LFSB",
      "alert": "OK",
      "vis_m": 9999,
      "fzfg": false,
      "metar_trigger": false,
      "taf_trigger": false,
      "metar": "METAR LFSB 111700Z AUTO 36012KT 9999 ///CB 34/13 Q1015 NOSIG",
      "taf": "TAF LFSB 111100Z 1112/1212 35006KT CAVOK"
    },
    {
      "icao": "LGAV",
      "alert": "OK",
      "vis_m": 9999,
      "fzfg": false,
      "metar_trigger": false,
      "taf_trigger": false,
      "metar": "METAR LGAV 111650Z 03005KT CAVOK 29/12 Q1016 NOSIG",
      "taf": "TAF LGAV 111700Z 1118/1218 05010KT 9999 FEW025"
    },
    {
      "icao": "LGTS",
      "alert": "OK",
      "vis_m": 9999,
      "fzfg": false,
      "metar_trigger": false,
      "taf_trigger": false,
      "metar": "METAR LGTS 111650Z 17011KT 9999 FEW020 30/17 Q1015 NOSIG",
      "taf": "TAF LGTS 111700Z 1118/1218 VRB03KT 9999 FEW030"
    },
    {
      "icao": "LHBP",
      "alert": "OK",
      "vis_m": 9999,
      "fzfg": false,
      "metar_trigger": false,
      "taf_trigger": false,
      "metar": "METAR LHBP 111700Z 34009KT CAVOK 29/07 Q1015 BECMG FM1800 08008KT",
      "taf": "TAF LHBP 111115Z 1112/1212 31011G21KT CAVOK"
    },
    {
      "icao": "LHDC",
      "alert": "OK",
      "vis_m": 9999,
      "fzfg": false,
      "metar_trigger": false,
      "taf_trigger": false,
      "metar": "METAR LHDC 111645Z AUTO 06012KT 030V090 CAVOK 25/10 Q1016 NOSIG",
      "taf": "TAF LHDC 111415Z 1115/1124 03009KT CAVOK"
    },
    {
      "icao": "LIBD",
      "alert": "OK",
      "vis_m": 9999,
      "fzfg": false,
      "metar_trigger": false,
      "taf_trigger": false,
      "metar": "METAR LIBD 111650Z 10013KT CAVOK 30/16 Q1015",
      "taf": "TAF LIBD 111100Z 1112/1212 09014KT CAVOK"
    },
    {
      "icao": "LIBG",
      "alert": "OK",
      "vis_m": 9999,
      "fzfg": false,
      "metar_trigger": false,
      "taf_trigger": false,
      "metar": "METAR LIBG 111650Z AUTO 17006KT 9999 NCD 30/16 Q1016",
      "taf": "TAF LIBG 111100Z 1112/1212 18012KT CAVOK"
    },
    {
      "icao": "LIBP",
      "alert": "OK",
      "vis_m": 9999,
      "fzfg": false,
      "metar_trigger": false,
      "taf_trigger": false,
      "metar": "METAR LIBP 111650Z AUTO 10003KT 060V140 9999 BKN170/// 28/24 Q1016",
      "taf": "TAF LIBP 111100Z 1112/1212 06010KT CAVOK"
    },
    {
      "icao": "LIBR",
      "alert": "OK",
      "vis_m": 9999,
      "fzfg": false,
      "metar_trigger": false,
      "taf_trigger": false,
      "metar": "METAR LIBR 111650Z 12008KT CAVOK 29/20 Q1015",
      "taf": "TAF LIBR 111100Z 1112/1212 10015KT CAVOK"
    },
    {
      "icao": "LICA",
      "alert": "OK",
      "vis_m": 9999,
      "fzfg": false,
      "metar_trigger": false,
      "taf_trigger": false,
      "metar": "METAR LICA 111650Z AUTO 22005KT 190V250 9999 NCD 30/19 Q1016",
      "taf": "TAF LICA 111100Z 1112/1212 26010KT CAVOK"
    },
    {
      "icao": "LICC",
      "alert": "OK",
      "vis_m": 9999,
      "fzfg": false,
      "metar_trigger": false,
      "taf_trigger": false,
      "metar": "METAR LICC 111650Z 05015KT CAVOK 29/22 Q1016",
      "taf": "TAF LICC 111100Z 1112/1212 08014KT CAVOK"
    },
    {
      "icao": "LICJ",
      "alert": "OK",
      "vis_m": 9999,
      "fzfg": false,
      "metar_trigger": false,
      "taf_trigger": false,
      "metar": "METAR LICJ 111650Z 06012KT CAVOK 32/19 Q1014",
      "taf": "TAF LICJ 111100Z 1112/1212 05014KT CAVOK"
    },
    {
      "icao": "LIMC",
      "alert": "OK",
      "vis_m": 9999,
      "fzfg": false,
      "metar_trigger": false,
      "taf_trigger": false,
      "metar": "METAR LIMC 111650Z 24009KT CAVOK 32/17 Q1014 NOSIG",
      "taf": "TAF LIMC 111100Z 1112/1218 VRB05KT CAVOK"
    },
    {
      "icao": "LIME",
      "alert": "OK",
      "vis_m": 9999,
      "fzfg": false,
      "metar_trigger": false,
      "taf_trigger": false,
      "metar": "METAR LIME 111650Z 35007KT 310V010 9999 FEW070 31/17 Q1014 NOSIG",
      "taf": "TAF LIME 111100Z 1112/1212 VRB06KT CAVOK"
    },
    {
      "icao": "LIMF",
      "alert": "OK",
      "vis_m": 9999,
      "fzfg": false,
      "metar_trigger": false,
      "taf_trigger": false,
      "metar": "METAR LIMF 111650Z 19011KT 9999 VCTS SCT050CB BKN130 26/15 Q1016 RETS",
      "taf": "TAF LIMF 111100Z 1112/1212 VRB06KT 9999 SCT070"
    },
    {
      "icao": "LIMJ",
      "alert": "OK",
      "vis_m": 9999,
      "fzfg": false,
      "metar_trigger": false,
      "taf_trigger": false,
      "metar": "METAR LIMJ 111650Z 32005KT 280V350 CAVOK 29/22 Q1015",
      "taf": "TAF LIMJ 111100Z 1112/1212 17010KT CAVOK"
    },
    {
      "icao": "LIPE",
      "alert": "OK",
      "vis_m": 9999,
      "fzfg": false,
      "metar_trigger": false,
      "taf_trigger": false,
      "metar": "METAR LIPE 111650Z 05006KT CAVOK 34/20 Q1012",
      "taf": "TAF LIPE 111100Z 1112/1212 VRB05KT CAVOK"
    },
    {
      "icao": "LIPH",
      "alert": "OK",
      "vis_m": 9999,
      "fzfg": false,
      "metar_trigger": false,
      "taf_trigger": false,
      "metar": "METAR LIPH 111650Z 12005KT 9999 SCT050 29/21 Q1014",
      "taf": "TAF LIPH 111100Z 1112/1212 VRB06KT 9999 SCT050"
    },
    {
      "icao": "LIPQ",
      "alert": "OK",
      "vis_m": 9999,
      "fzfg": false,
      "metar_trigger": false,
      "taf_trigger": false,
      "metar": "METAR LIPQ 111650Z AUTO 25008KT 9999 BKN017/// 28/24 Q1015",
      "taf": "TAF LIPQ 111100Z 1112/1212 20010KT 9999 SCT060"
    },
    {
      "icao": "LIPR",
      "alert": "OK",
      "vis_m": 9999,
      "fzfg": false,
      "metar_trigger": false,
      "taf_trigger": false,
      "metar": "METAR LIPR 111650Z 10009KT 9999 FEW050 29/23 Q1013",
      "taf": "TAF LIPR 111100Z 1112/1212 09013KT CAVOK"
    },
    {
      "icao": "LIPX",
      "alert": "OK",
      "vis_m": 9999,
      "fzfg": false,
      "metar_trigger": false,
      "taf_trigger": false,
      "metar": "METAR LIPX 111650Z VRB02KT 9999 FEW090 32/21 Q1013",
      "taf": "TAF LIPX 111100Z 1112/1212 VRB06KT CAVOK"
    },
    {
      "icao": "LIPY",
      "alert": "OK",
      "vis_m": 9999,
      "fzfg": false,
      "metar_trigger": false,
      "taf_trigger": false,
      "metar": "METAR LIPY 111650Z AUTO 14006KT 090V190 9999 BKN220/// 30/21 Q1014",
      "taf": "TAF LIPY 111100Z 1112/1212 06012KT CAVOK"
    },
    {
      "icao": "LIPZ",
      "alert": "OK",
      "vis_m": 9999,
      "fzfg": false,
      "metar_trigger": false,
      "taf_trigger": false,
      "metar": "METAR LIPZ 111650Z 13007KT 9999 FEW050 28/23 Q1014 NOSIG",
      "taf": "TAF LIPZ 111100Z 1112/1218 15012KT 9999 SCT050"
    },
    {
      "icao": "LIRF",
      "alert": "OK",
      "vis_m": 9999,
      "fzfg": false,
      "metar_trigger": false,
      "taf_trigger": false,
      "metar": "METAR LIRF 111650Z 23007KT 180V270 CAVOK 30/22 Q1015 NOSIG",
      "taf": "TAF LIRF 111100Z 1112/1218 22010KT CAVOK"
    },
    {
      "icao": "LIRN",
      "alert": "OK",
      "vis_m": 9999,
      "fzfg": false,
      "metar_trigger": false,
      "taf_trigger": false,
      "metar": "METAR LIRN 111650Z 19008KT CAVOK 31/18 Q1016 NOSIG",
      "taf": "TAF LIRN 111100Z 1112/1212 22010KT CAVOK"
    },
    {
      "icao": "LIRP",
      "alert": "OK",
      "vis_m": 9999,
      "fzfg": false,
      "metar_trigger": false,
      "taf_trigger": false,
      "metar": "METAR LIRP 111645Z 24011KT CAVOK 31/20 Q1014 NOSIG",
      "taf": "TAF LIRP 111100Z 1112/1212 VRB03KT 9999 FEW030"
    },
    {
      "icao": "LIRZ",
      "alert": "OK",
      "vis_m": 9999,
      "fzfg": false,
      "metar_trigger": false,
      "taf_trigger": false,
      "metar": "METAR LIRZ 111650Z AUTO 36004KT 9999 NCD 31/18 Q1015",
      "taf": ""
    },
    {
      "icao": "LJLJ",
      "alert": "OK",
      "vis_m": 9999,
      "fzfg": false,
      "metar_trigger": false,
      "taf_trigger": false,
      "metar": "METAR LJLJ 111700Z 13013KT 9999 VCSH SCT065 FEW070TCU SCT150 26/17 Q1016 NOSIG",
      "taf": "TAF LJLJ 111700Z 1118/1218 10004KT 9999 SCT060"
    },
    {
      "icao": "LKMT",
      "alert": "OK",
      "vis_m": 9999,
      "fzfg": false,
      "metar_trigger": false,
      "taf_trigger": false,
      "metar": "METAR LKMT 111700Z 03007KT 360V060 CAVOK 23/09 Q1018 NOSIG",
      "taf": "TAF LKMT 111100Z 1112/1212 02008KT CAVOK"
    },
    {
      "icao": "LKPR",
      "alert": "OK",
      "vis_m": 9999,
      "fzfg": false,
      "metar_trigger": false,
      "taf_trigger": false,
      "metar": "METAR LKPR 111700Z 34008KT 300V030 CAVOK 25/09 Q1019 NOSIG",
      "taf": "TAF LKPR 111400Z 1115/1221 35007KT CAVOK"
    },
    {
      "icao": "LLBG",
      "alert": "OK",
      "vis_m": 9999,
      "fzfg": false,
      "metar_trigger": false,
      "taf_trigger": false,
      "metar": "METAR LLBG 111650Z 33008KT 9999 FEW020 28/21 Q1011 NOSIG",
      "taf": "TAF LLBG 111106Z 1112/1212 29010KT CAVOK TX31/1112Z TN23/1203Z"
    },
    {
      "icao": "LMML",
      "alert": "OK",
      "vis_m": 9999,
      "fzfg": false,
      "metar_trigger": false,
      "taf_trigger": false,
      "metar": "METAR LMML 111645Z 15008KT 9999 FEW017 28/23 Q1017 NOSIG",
      "taf": "TAF LMML 111700Z 1118/1218 15008KT 9999 SCT013"
    },
    {
      "icao": "LOWW",
      "alert": "OK",
      "vis_m": 9999,
      "fzfg": false,
      "metar_trigger": false,
      "taf_trigger": false,
      "metar": "METAR LOWW 111650Z 01008KT CAVOK 28/06 Q1016 NOSIG",
      "taf": "TAF LOWW 111415Z 1115/1221 32012KT CAVOK TX30/1115Z TN16/1203Z"
    },
    {
      "icao": "LPFR",
      "alert": "OK",
      "vis_m": 9999,
      "fzfg": false,
      "metar_trigger": false,
      "taf_trigger": false,
      "metar": "METAR LPFR 111700Z 25010KT 9999 FEW030 23/16 Q1012",
      "taf": "TAF LPFR 111100Z 1112/1212 23012KT 9999 SCT040"
    },
    {
      "icao": "LPMA",
      "alert": "OK",
      "vis_m": 9999,
      "fzfg": false,
      "metar_trigger": false,
      "taf_trigger": false,
      "metar": "METAR LPMA 111700Z VRB04KT 9999 FEW016 25/15 Q1015",
      "taf": "TAF LPMA 111100Z 1112/1212 VRB05KT 9999 SCT015"
    },
    {
      "icao": "LPPR",
      "alert": "OK",
      "vis_m": 9999,
      "fzfg": false,
      "metar_trigger": false,
      "taf_trigger": false,
      "metar": "METAR LPPR 111700Z 24007KT 200V270 9999 BKN014 22/17 Q1010",
      "taf": "TAF LPPR 111100Z 1112/1212 21010KT 9999 SCT018"
    },
    {
      "icao": "LPPS",
      "alert": "OK",
      "vis_m": 9999,
      "fzfg": false,
      "metar_trigger": false,
      "taf_trigger": false,
      "metar": "METAR LPPS 111700Z 29014KT 260V320 9999 FEW015 24/16 Q1016",
      "taf": "TAF LPPS 111100Z 1112/1218 31012KT 9999 SCT015"
    },
    {
      "icao": "LPPT",
      "alert": "OK",
      "vis_m": 9999,
      "fzfg": false,
      "metar_trigger": false,
      "taf_trigger": false,
      "metar": "METAR LPPT 111700Z 23010KT 200V290 9999 SCT034 22/14 Q1011 NOSIG",
      "taf": "TAF LPPT 111100Z 1112/1218 21012KT 9999 SCT025"
    },
    {
      "icao": "LQBK",
      "alert": "OK",
      "vis_m": 9999,
      "fzfg": false,
      "metar_trigger": false,
      "taf_trigger": false,
      "metar": "METAR LQBK 111700Z 18010KT 140V210 CAVOK 25/15 Q1016 NOSIG",
      "taf": "TAF LQBK 111700Z 1118/1218 22007KT CAVOK TX27/1212Z TN17/1203Z"
    },
    {
      "icao": "LQSA",
      "alert": "OK",
      "vis_m": 9999,
      "fzfg": false,
      "metar_trigger": false,
      "taf_trigger": false,
      "metar": "METAR LQSA 111700Z 33003KT CAVOK 22/15 Q1019 NOSIG",
      "taf": "TAF LQSA 111700Z 1118/1218 VRB02KT 9999 SCT050 TX26/1212Z TN15/1203Z"
    },
    {
      "icao": "LQTZ",
      "alert": "OK",
      "vis_m": 9999,
      "fzfg": false,
      "metar_trigger": false,
      "taf_trigger": false,
      "metar": "METAR LQTZ 111700Z 31005KT 9999 SCT060 26/15 Q1017",
      "taf": "TAF LQTZ 111700Z 1118/1218 27005KT CAVOK TX29/1212Z TN16/1203Z"
    },
    {
      "icao": "LRBC",
      "alert": "OK",
      "vis_m": 9999,
      "fzfg": false,
      "metar_trigger": false,
      "taf_trigger": false,
      "metar": "METAR LRBC 111700Z COR 36011KT 9999 -RA FEW052CB 20/14 Q1017",
      "taf": "TAF LRBC 111400Z 1115/1124 30007KT CAVOK"
    },
    {
      "icao": "LRBS",
      "alert": "OK",
      "vis_m": 9999,
      "fzfg": false,
      "metar_trigger": false,
      "taf_trigger": false,
      "metar": "METAR LRBS 111700Z 26005KT 230V290 CAVOK 29/11 Q1015 NOSIG",
      "taf": "TAF LRBS 111100Z 1112/1212 27012KT CAVOK"
    },
    {
      "icao": "LRBV",
      "alert": "OK",
      "vis_m": 9999,
      "fzfg": false,
      "metar_trigger": false,
      "taf_trigger": false,
      "metar": "METAR LRBV 111700Z 23008KT CAVOK 23/12 Q1017",
      "taf": "TAF LRBV 111400Z 1115/1124 22007KT 9999 SCT060"
    },
    {
      "icao": "LRCL",
      "alert": "OK",
      "vis_m": 9999,
      "fzfg": false,
      "metar_trigger": false,
      "taf_trigger": false,
      "metar": "METAR LRCL 111700Z 35005KT 300V030 9999 FEW045 23/12 Q1017",
      "taf": "TAF LRCL 111400Z 1115/1124 VRB04KT 9999 SCT050"
    },
    {
      "icao": "LRCV",
      "alert": "OK",
      "vis_m": 9999,
      "fzfg": false,
      "metar_trigger": false,
      "taf_trigger": false,
      "metar": "METAR LRCV 111700Z 31004KT CAVOK 29/12 Q1015",
      "taf": "TAF LRCV 111400Z 1115/1124 22007KT CAVOK"
    },
    {
      "icao": "LRIA",
      "alert": "OK",
      "vis_m": 9999,
      "fzfg": false,
      "metar_trigger": false,
      "taf_trigger": false,
      "metar": "METAR LRIA 111700Z 22003KT CAVOK 19/14 Q1016",
      "taf": "TAF LRIA 111400Z 1115/1124 33008KT CAVOK"
    },
    {
      "icao": "LROP",
      "alert": "OK",
      "vis_m": 9999,
      "fzfg": false,
      "metar_trigger": false,
      "taf_trigger": false,
      "metar": "METAR LROP 111700Z 24005KT CAVOK 26/13 Q1015 NOSIG",
      "taf": "TAF LROP 111100Z 1112/1212 27012KT CAVOK"
    },
    {
      "icao": "LRSB",
      "alert": "OK",
      "vis_m": 9999,
      "fzfg": false,
      "metar_trigger": false,
      "taf_trigger": false,
      "metar": "METAR LRSB 111700Z 29009KT 9999 SCT130 BKN140 24/10 Q1017",
      "taf": "TAF LRSB 111100Z 1112/1212 33012KT 9999 SCT045"
    },
    {
      "icao": "LRSM",
      "alert": "OK",
      "vis_m": 9999,
      "fzfg": false,
      "metar_trigger": false,
      "taf_trigger": false,
      "metar": "METAR LRSM 111700Z 05006KT CAVOK 22/10 Q1017",
      "taf": "TAF LRSM 111400Z 1115/1124 05009KT CAVOK"
    },
    {
      "icao": "LRSV",
      "alert": "OK",
      "vis_m": 9999,
      "fzfg": false,
      "metar_trigger": false,
      "taf_trigger": false,
      "metar": "METAR LRSV 111700Z 31010KT CAVOK 18/11 Q1017",
      "taf": "TAF LRSV 111400Z 1115/1124 28007KT CAVOK"
    },
    {
      "icao": "LRTM",
      "alert": "OK",
      "vis_m": 9999,
      "fzfg": false,
      "metar_trigger": false,
      "taf_trigger": false,
      "metar": "METAR LRTM 111700Z 35003KT 300V030 CAVOK 23/16 Q1017",
      "taf": "TAF LRTM 111400Z 1115/1124 VRB04KT 9999 SCT045"
    },
    {
      "icao": "LRTR",
      "alert": "OK",
      "vis_m": 9999,
      "fzfg": false,
      "metar_trigger": false,
      "taf_trigger": false,
      "metar": "METAR LRTR 111700Z 03004KT 360V090 9999 FEW050CB 26/13 Q1015",
      "taf": "TAF LRTR 111100Z 1112/1212 27008KT 9999 SCT045"
    },
    {
      "icao": "LTAC",
      "alert": "OK",
      "vis_m": 9999,
      "fzfg": false,
      "metar_trigger": false,
      "taf_trigger": false,
      "metar": "METAR LTAC 111650Z 27006KT CAVOK 27/00 Q1017 NOSIG RMK RWY21C 26007KT RWY03L 25005KT RWY21R 24006KT RWY03R 25005KT RWY21L 25007KT",
      "taf": "TAF LTAC 111640Z 1118/1218 VRB02KT CAVOK"
    },
    {
      "icao": "LTFM",
      "alert": "OK",
      "vis_m": 9999,
      "fzfg": false,
      "metar_trigger": false,
      "taf_trigger": false,
      "metar": "METAR LTFM 111650Z 10010KT CAVOK 26/11 Q1017 NOSIG RMK RWY17L 10011KT RWY34L 08013KT RWY16R 10012KT RWY36 09009KT 020V110 RWY18 10011KT",
      "taf": "TAF LTFM 111640Z 1118/1224 12008KT CAVOK"
    },
    {
      "icao": "LUKK",
      "alert": "OK",
      "vis_m": 9999,
      "fzfg": false,
      "metar_trigger": false,
      "taf_trigger": false,
      "metar": "METAR LUKK 111700Z 35013KT CAVOK 21/12 Q1016 TEMPO SCT040CB",
      "taf": "TAF LUKK 111102Z 1112/1212 27010KT CAVOK"
    },
    {
      "icao": "LWOH",
      "alert": "OK",
      "vis_m": 9999,
      "fzfg": false,
      "metar_trigger": false,
      "taf_trigger": false,
      "metar": "METAR LWOH 111650Z 17004KT 140V200 9999 FEW040 27/13 Q1019",
      "taf": "TAF LWOH 111710Z 1118/1218 VRB02KT 9999 FEW040"
    },
    {
      "icao": "LWSK",
      "alert": "OK",
      "vis_m": 9999,
      "fzfg": false,
      "metar_trigger": false,
      "taf_trigger": false,
      "metar": "METAR LWSK 111650Z 03003KT 350V070 CAVOK 34/12 Q1015 NOSIG",
      "taf": "TAF LWSK 111710Z 1118/1218 VRB06KT CAVOK"
    },
    {
      "icao": "LYBE",
      "alert": "OK",
      "vis_m": 9999,
      "fzfg": false,
      "metar_trigger": false,
      "taf_trigger": false,
      "metar": "METAR LYBE 111700Z 10004KT 070V130 CAVOK 29/14 Q1015 NOSIG",
      "taf": "TAF LYBE 111100Z 1112/1212 24008KT 9999 SCT045 TX31/1114Z TN18/1203Z"
    },
    {
      "icao": "LYNI",
      "alert": "OK",
      "vis_m": 9999,
      "fzfg": false,
      "metar_trigger": false,
      "taf_trigger": false,
      "metar": "METAR LYNI 111700Z 28007KT 180V320 9999 -SHRA FEW040TCU SCT050 24/16 Q1018 NOSIG",
      "taf": "TAF LYNI 111100Z 1112/1212 20006KT CAVOK TX33/1114Z TN18/1203Z"
    },
    {
      "icao": "LYPG",
      "alert": "OK",
      "vis_m": 9999,
      "fzfg": false,
      "metar_trigger": false,
      "taf_trigger": false,
      "metar": "METAR LYPG 111700Z 30010KT CAVOK 33/12 Q1015 NOSIG",
      "taf": "TAF LYPG 111100Z 1112/1212 18008KT 9999 FEW050 TX34/1113Z TN22/1202Z"
    },
    {
      "icao": "LZIB",
      "alert": "OK",
      "vis_m": 9999,
      "fzfg": false,
      "metar_trigger": false,
      "taf_trigger": false,
      "metar": "METAR LZIB 111700Z 34008KT 310V010 CAVOK 29/07 Q1015 NOSIG",
      "taf": ""
    },
    {
      "icao": "LZKZ",
      "alert": "OK",
      "vis_m": 9999,
      "fzfg": false,
      "metar_trigger": false,
      "taf_trigger": false,
      "metar": "METAR LZKZ 111700Z 02008KT CAVOK 23/11 Q1016 NOSIG",
      "taf": ""
    },
    {
      "icao": "LZTT",
      "alert": "OK",
      "vis_m": 9999,
      "fzfg": false,
      "metar_trigger": false,
      "taf_trigger": false,
      "metar": "METAR LZTT 111700Z 03004KT 9999 FEW046 SCT080 20/09 Q1018 NOSIG",
      "taf": ""
    },
    {
      "icao": "OEJN",
      "alert": "OK",
      "vis_m": 9999,
      "fzfg": false,
      "metar_trigger": false,
      "taf_trigger": false,
      "metar": "METAR OEJN 111700Z 35013KT CAVOK 33/20 Q1005 NOSIG",
      "taf": "TAF OEJN 111700Z 1118/1224 36010KT CAVOK"
    },
    {
      "icao": "OEMA",
      "alert": "OK",
      "vis_m": 9999,
      "fzfg": false,
      "metar_trigger": false,
      "taf_trigger": false,
      "metar": "METAR OEMA 111700Z 28011KT CAVOK 43/M03 Q1009 NOSIG",
      "taf": "TAF OEMA 111700Z 1118/1224 29006KT CAVOK"
    },
    {
      "icao": "OJAI",
      "alert": "OK",
      "vis_m": 5000,
      "fzfg": false,
      "metar_trigger": false,
      "taf_trigger": false,
      "metar": "METAR OJAI 111700Z 30010KT 5000 HZ NSC 28/13 Q1015 NOSIG",
      "taf": "TAF OJAI 111700Z 1118/1224 29010KT 5000 HZ NSC"
    },
    {
      "icao": "OMAA",
      "alert": "OK",
      "vis_m": 9999,
      "fzfg": false,
      "metar_trigger": false,
      "taf_trigger": false,
      "metar": "METAR OMAA 111700Z 30002KT CAVOK 35/23 Q1000 NOSIG",
      "taf": "TAF OMAA 111700Z 1118/1300 30005KT 8000 NSC"
    },
    {
      "icao": "OMDB",
      "alert": "OK",
      "vis_m": 9999,
      "fzfg": false,
      "metar_trigger": false,
      "taf_trigger": false,
      "metar": "METAR OMDB 111700Z 22004KT 180V260 CAVOK 36/22 Q0999 NOSIG",
      "taf": "TAF OMDB 111700Z 1118/1300 19006KT 8000 NSC"
    },
    {
      "icao": "UAAA",
      "alert": "OK",
      "vis_m": 9999,
      "fzfg": false,
      "metar_trigger": false,
      "taf_trigger": false,
      "metar": "METAR UAAA 111700Z VRB01MPS 9999 SCT100 24/13 Q1005 NOSIG",
      "taf": "TAF UAAA 111103Z 1112/1212 21002MPS 9999 FEW050CB TX35/1210Z TN19/1201Z"
    },
    {
      "icao": "UBBB",
      "alert": "OK",
      "vis_m": 9999,
      "fzfg": false,
      "metar_trigger": false,
      "taf_trigger": false,
      "metar": "METAR UBBB 111700Z 35014KT CAVOK 27/22 Q1012 NOSIG",
      "taf": "TAF UBBB 111659Z 1118/1218 34014KT CAVOK TX31/1210Z TN23/1201Z"
    },
    {
      "icao": "UDSG",
      "alert": "OK",
      "vis_m": 9999,
      "fzfg": false,
      "metar_trigger": false,
      "taf_trigger": false,
      "metar": "METAR UDSG 111700Z 01007KT 340V050 9999 FEW049 22/16 Q1020 NOSIG",
      "taf": "TAF UDSG 111100Z 1112/1212 03006KT 9999 SCT050"
    },
    {
      "icao": "UDYZ",
      "alert": "OK",
      "vis_m": 9999,
      "fzfg": false,
      "metar_trigger": false,
      "taf_trigger": false,
      "metar": "METAR UDYZ 111700Z 03024G36KT 9999 FEW046 29/17 Q1011 WS R08 NOSIG",
      "taf": "TAF UDYZ 111100Z 1112/1212 04006KT 9999 FEW040"
    },
    {
      "icao": "UGKO",
      "alert": "OK",
      "vis_m": 9999,
      "fzfg": false,
      "metar_trigger": false,
      "taf_trigger": false,
      "metar": "METAR UGKO 111700Z 26008KT 9999 BKN061 24/19 Q1016 NOSIG",
      "taf": "TAF UGKO 111700Z 1118/1218 VRB02KT 9999 SCT025 BKN060 TX28/1212Z TN20/1202Z"
    }
  ]
}