{
  "ts_utc": "2026-05-01T13:51:31Z",
  "threshold_m": 150,
  "source": "stations_override.txt (ICAO list) + aviationweather.gov (METAR/TAF raw)",
  "station_count": 159,
  "stations": [
    {
      "icao": "BIKF",
      "alert": "OK",
      "vis_m": 9999,
      "fzfg": false,
      "metar_trigger": false,
      "taf_trigger": false,
      "metar": "METAR BIKF 011330Z 35010KT 310V020 9999 BKN034 03/M05 Q1018",
      "taf": "TAF BIKF 011330Z 0115/0215 32015KT 9999 SCT030 TX06/0215Z TNM01/0204Z"
    },
    {
      "icao": "BKPR",
      "alert": "OK",
      "vis_m": null,
      "fzfg": false,
      "metar_trigger": false,
      "taf_trigger": false,
      "metar": "",
      "taf": "TAF BKPR 011130Z 0112/0212 01010KT 9999 SCT050"
    },
    {
      "icao": "EBCI",
      "alert": "OK",
      "vis_m": 9999,
      "fzfg": false,
      "metar_trigger": false,
      "taf_trigger": false,
      "metar": "METAR EBCI 011320Z 13005KT 060V170 CAVOK 23/M03 Q1022 NOSIG",
      "taf": "TAF EBCI 011110Z 0112/0218 15006KT CAVOK"
    },
    {
      "icao": "EDDB",
      "alert": "OK",
      "vis_m": 9999,
      "fzfg": false,
      "metar_trigger": false,
      "taf_trigger": false,
      "metar": "METAR EDDB 011320Z AUTO 23004KT 150V270 CAVOK 23/06 Q1027 NOSIG",
      "taf": "TAF EDDB 011100Z 0112/0212 33004KT CAVOK"
    },
    {
      "icao": "EDDH",
      "alert": "OK",
      "vis_m": 9999,
      "fzfg": false,
      "metar_trigger": false,
      "taf_trigger": false,
      "metar": "METAR EDDH 011320Z AUTO 15008KT 130V200 CAVOK 22/06 Q1026 NOSIG",
      "taf": "TAF EDDH 011100Z 0112/0218 14007KT CAVOK"
    },
    {
      "icao": "EDDK",
      "alert": "OK",
      "vis_m": 9999,
      "fzfg": false,
      "metar_trigger": false,
      "taf_trigger": false,
      "metar": "METAR EDDK 011320Z AUTO 14015KT 100V170 CAVOK 22/02 Q1024 NOSIG",
      "taf": "TAF EDDK 011100Z 0112/0218 13013KT CAVOK"
    },
    {
      "icao": "EDDN",
      "alert": "OK",
      "vis_m": 9999,
      "fzfg": false,
      "metar_trigger": false,
      "taf_trigger": false,
      "metar": "METAR EDDN 011320Z AUTO 13010KT 090V180 CAVOK 21/03 Q1026 NOSIG",
      "taf": "TAF EDDN 011100Z 0112/0212 11009KT CAVOK"
    },
    {
      "icao": "EDDS",
      "alert": "OK",
      "vis_m": 9999,
      "fzfg": false,
      "metar_trigger": false,
      "taf_trigger": false,
      "metar": "METAR EDDS 011320Z AUTO 07008KT 020V100 CAVOK 21/01 Q1024 NOSIG",
      "taf": "TAF EDDS 011100Z 0112/0212 12008KT CAVOK"
    },
    {
      "icao": "EDFH",
      "alert": "OK",
      "vis_m": 9999,
      "fzfg": false,
      "metar_trigger": false,
      "taf_trigger": false,
      "metar": "METAR EDFH 011320Z 13013G23KT 090V150 CAVOK 19/M01 Q1025",
      "taf": "TAF EDFH 011100Z 0112/0212 13013KT CAVOK"
    },
    {
      "icao": "EDJA",
      "alert": "OK",
      "vis_m": 9999,
      "fzfg": false,
      "metar_trigger": false,
      "taf_trigger": false,
      "metar": "METAR EDJA 011320Z 05010KT 360V100 CAVOK 20/M00 Q1025",
      "taf": "TAF EDJA 011100Z 0112/0121 07010KT CAVOK"
    },
    {
      "icao": "EDLW",
      "alert": "OK",
      "vis_m": 9999,
      "fzfg": false,
      "metar_trigger": false,
      "taf_trigger": false,
      "metar": "METAR EDLW 011320Z 12010KT 080V160 CAVOK 23/02 Q1024",
      "taf": "TAF EDLW 011100Z 0112/0212 13011KT CAVOK"
    },
    {
      "icao": "EDNY",
      "alert": "OK",
      "vis_m": 9999,
      "fzfg": false,
      "metar_trigger": false,
      "taf_trigger": false,
      "metar": "METAR EDNY 011320Z COR 21007KT CAVOK 20/03 Q1024",
      "taf": "TAF EDNY 011100Z 0112/0121 04005KT CAVOK"
    },
    {
      "icao": "EDSB",
      "alert": "OK",
      "vis_m": 9999,
      "fzfg": false,
      "metar_trigger": false,
      "taf_trigger": false,
      "metar": "METAR EDSB 011320Z 35008KT 310V010 CAVOK 24/M01 Q1023",
      "taf": "TAF EDSB 011100Z 0112/0212 VRB03KT CAVOK"
    },
    {
      "icao": "EETN",
      "alert": "OK",
      "vis_m": 9999,
      "fzfg": false,
      "metar_trigger": false,
      "taf_trigger": false,
      "metar": "METAR EETN 011350Z 28015KT CAVOK 16/04 Q1019 NOSIG",
      "taf": "TAF EETN 011130Z 0112/0212 29012KT CAVOK"
    },
    {
      "icao": "EFTU",
      "alert": "OK",
      "vis_m": 9999,
      "fzfg": false,
      "metar_trigger": false,
      "taf_trigger": false,
      "metar": "METAR EFTU 011320Z AUTO 24009KT 190V280 CAVOK 18/03 Q1018",
      "taf": "TAF EFTU 011123Z 0112/0212 26010KT CAVOK"
    },
    {
      "icao": "EGBB",
      "alert": "OK",
      "vis_m": 9999,
      "fzfg": false,
      "metar_trigger": false,
      "taf_trigger": false,
      "metar": "METAR EGBB 011320Z 17007KT 140V200 CAVOK 23/09 Q1018",
      "taf": "TAF EGBB 011056Z 0112/0212 18010KT 9999 FEW040"
    },
    {
      "icao": "EGGP",
      "alert": "OK",
      "vis_m": 9999,
      "fzfg": false,
      "metar_trigger": false,
      "taf_trigger": false,
      "metar": "METAR EGGP 011320Z 28011KT 9999 SCT049 15/08 Q1019",
      "taf": "TAF EGGP 011057Z 0112/0212 17006KT CAVOK"
    },
    {
      "icao": "EGGW",
      "alert": "OK",
      "vis_m": 9999,
      "fzfg": false,
      "metar_trigger": false,
      "taf_trigger": false,
      "metar": "METAR EGGW 011320Z AUTO 15011KT 120V190 9999 NCD 22/06 Q1019",
      "taf": "TAF EGGW 011053Z 0112/0212 16008KT CAVOK"
    },
    {
      "icao": "EGKK",
      "alert": "OK",
      "vis_m": 9999,
      "fzfg": false,
      "metar_trigger": false,
      "taf_trigger": false,
      "metar": "METAR EGKK 011320Z 18009KT 140V220 CAVOK 22/12 Q1020",
      "taf": "TAF EGKK 011054Z 0112/0218 14005KT CAVOK"
    },
    {
      "icao": "EGNM",
      "alert": "OK",
      "vis_m": 9999,
      "fzfg": false,
      "metar_trigger": false,
      "taf_trigger": false,
      "metar": "METAR EGNM 011320Z 14008KT 090V210 CAVOK 21/08 Q1018",
      "taf": "TAF EGNM 011057Z 0112/0212 15008KT 9999 SCT045"
    },
    {
      "icao": "EGPD",
      "alert": "OK",
      "vis_m": 9999,
      "fzfg": false,
      "metar_trigger": false,
      "taf_trigger": false,
      "metar": "METAR EGPD 011320Z COR AUTO 17012KT 9999 NCD 21/08 Q1017 NOSIG",
      "taf": "TAF EGPD 011100Z 0112/0212 15006KT CAVOK"
    },
    {
      "icao": "EGPF",
      "alert": "OK",
      "vis_m": 9999,
      "fzfg": false,
      "metar_trigger": false,
      "taf_trigger": false,
      "metar": "METAR EGPF 011320Z AUTO VRB02KT 9999 FEW047 16/08 Q1018",
      "taf": "TAF EGPF 011055Z 0112/0212 20005KT 9999 BKN045"
    },
    {
      "icao": "EHBK",
      "alert": "OK",
      "vis_m": 9999,
      "fzfg": false,
      "metar_trigger": false,
      "taf_trigger": false,
      "metar": "METAR EHBK 011325Z AUTO VRB07KT 9999 NCD 24/02 Q1022 NOSIG",
      "taf": "TAF EHBK 011112Z 0112/0218 13010KT CAVOK"
    },
    {
      "icao": "EHEH",
      "alert": "OK",
      "vis_m": 9999,
      "fzfg": false,
      "metar_trigger": false,
      "taf_trigger": false,
      "metar": "METAR EHEH 011325Z AUTO 12010KT 060V180 9999 NCD 24/01 Q1022 BLU NOSIG",
      "taf": "TAF EHEH 011143Z 0112/0218 13012G22KT CAVOK"
    },
    {
      "icao": "EKBI",
      "alert": "OK",
      "vis_m": 9999,
      "fzfg": false,
      "metar_trigger": false,
      "taf_trigger": false,
      "metar": "METAR EKBI 011320Z AUTO 23008KT 150V280 9999 NCD 21/03 Q1027",
      "taf": "TAF EKBI 011127Z 0112/0212 21010KT CAVOK"
    },
    {
      "icao": "EKCH",
      "alert": "OK",
      "vis_m": 9999,
      "fzfg": false,
      "metar_trigger": false,
      "taf_trigger": false,
      "metar": "METAR EKCH 011320Z AUTO 13006KT 9999 NCD 17/01 Q1027 NOSIG",
      "taf": "TAF EKCH 011127Z 0112/0212 VRB05KT CAVOK"
    },
    {
      "icao": "ENAL",
      "alert": "OK",
      "vis_m": 9999,
      "fzfg": false,
      "metar_trigger": false,
      "taf_trigger": false,
      "metar": "METAR ENAL 011320Z 25017KT CAVOK 14/03 Q1015",
      "taf": "TAF ENAL 011100Z 0112/0121 22018KT CAVOK"
    },
    {
      "icao": "ENBR",
      "alert": "OK",
      "vis_m": 9999,
      "fzfg": false,
      "metar_trigger": false,
      "taf_trigger": false,
      "metar": "METAR ENBR 011320Z 19019KT CAVOK 13/04 Q1021 NOSIG RMK WIND 1200FT 20023KT",
      "taf": "TAF ENBR 011100Z 0112/0212 16018KT CAVOK"
    },
    {
      "icao": "ENGM",
      "alert": "OK",
      "vis_m": 9999,
      "fzfg": false,
      "metar_trigger": false,
      "taf_trigger": false,
      "metar": "METAR ENGM 011320Z 21014KT CAVOK 22/00 Q1020 NOSIG",
      "taf": "TAF ENGM 011100Z 0112/0212 22012KT CAVOK"
    },
    {
      "icao": "ENHD",
      "alert": "OK",
      "vis_m": 9999,
      "fzfg": false,
      "metar_trigger": false,
      "taf_trigger": false,
      "metar": "METAR ENHD 011320Z 19014KT CAVOK 15/05 Q1022",
      "taf": "TAF ENHD 011100Z 0112/0121 17018KT CAVOK"
    },
    {
      "icao": "ENTC",
      "alert": "OK",
      "vis_m": 9999,
      "fzfg": false,
      "metar_trigger": false,
      "taf_trigger": false,
      "metar": "METAR ENTC 011320Z 25007KT 210V300 9999 -SHRA SCT023 BKN032 06/04 Q1005 NOSIG RMK WIND 2600FT 24023KT",
      "taf": ""
    },
    {
      "icao": "ENTO",
      "alert": "OK",
      "vis_m": 9999,
      "fzfg": false,
      "metar_trigger": false,
      "taf_trigger": false,
      "metar": "METAR ENTO 011320Z 20015KT CAVOK 19/04 Q1022 NOSIG",
      "taf": "TAF ENTO 011100Z 0112/0212 20012KT CAVOK"
    },
    {
      "icao": "ENVA",
      "alert": "OK",
      "vis_m": 9999,
      "fzfg": false,
      "metar_trigger": false,
      "taf_trigger": false,
      "metar": "METAR ENVA 011320Z 27004KT CAVOK 16/05 Q1015 NOSIG RMK WIND 670FT 35006KT",
      "taf": "TAF ENVA 011100Z 0112/0212 26010KT CAVOK"
    },
    {
      "icao": "ENZV",
      "alert": "OK",
      "vis_m": 9999,
      "fzfg": false,
      "metar_trigger": false,
      "taf_trigger": false,
      "metar": "METAR ENZV 011320Z 19017KT CAVOK 18/05 Q1022 NOSIG",
      "taf": "TAF ENZV 011100Z 0112/0212 18018KT CAVOK"
    },
    {
      "icao": "EPGD",
      "alert": "OK",
      "vis_m": 9999,
      "fzfg": false,
      "metar_trigger": false,
      "taf_trigger": false,
      "metar": "METAR EPGD 011330Z 05006KT 010V090 CAVOK 18/05 Q1025",
      "taf": "TAF EPGD 011130Z 0112/0212 06010KT CAVOK"
    },
    {
      "icao": "EPKK",
      "alert": "OK",
      "vis_m": 9999,
      "fzfg": false,
      "metar_trigger": false,
      "taf_trigger": false,
      "metar": "METAR EPKK 011330Z 01006KT 9999 BKN063 18/03 Q1024",
      "taf": "TAF EPKK 011130Z 0112/0212 32010KT 9999 BKN060"
    },
    {
      "icao": "EPKT",
      "alert": "OK",
      "vis_m": 9999,
      "fzfg": false,
      "metar_trigger": false,
      "taf_trigger": false,
      "metar": "METAR EPKT 011330Z 35011KT 280V010 CAVOK 19/04 Q1024",
      "taf": "TAF EPKT 011130Z 0112/0212 32012KT CAVOK"
    },
    {
      "icao": "EPLB",
      "alert": "OK",
      "vis_m": 9999,
      "fzfg": false,
      "metar_trigger": false,
      "taf_trigger": false,
      "metar": "METAR EPLB 011330Z 01010KT 330V040 CAVOK 17/03 Q1024",
      "taf": "TAF EPLB 011130Z 0112/0212 35010KT 9999 SCT046"
    },
    {
      "icao": "EPMO",
      "alert": "OK",
      "vis_m": 9999,
      "fzfg": false,
      "metar_trigger": false,
      "taf_trigger": false,
      "metar": "METAR EPMO 011330Z 01010KT 330V040 CAVOK 21/03 Q1024",
      "taf": "TAF EPMO 011130Z 0112/0212 36010KT 9999 SCT048"
    },
    {
      "icao": "EPPO",
      "alert": "OK",
      "vis_m": 9999,
      "fzfg": false,
      "metar_trigger": false,
      "taf_trigger": false,
      "metar": "METAR EPPO 011330Z 36009KT 330V040 CAVOK 23/01 Q1026",
      "taf": "TAF EPPO 011130Z 0112/0212 32006KT CAVOK"
    },
    {
      "icao": "EPRA",
      "alert": "OK",
      "vis_m": 9999,
      "fzfg": false,
      "metar_trigger": false,
      "taf_trigger": false,
      "metar": "METAR EPRA 011330Z 03008KT 350V060 CAVOK 19/02 Q1024",
      "taf": "TAF EPRA 011130Z 0112/0121 35006KT CAVOK"
    },
    {
      "icao": "EPRZ",
      "alert": "OK",
      "vis_m": 9999,
      "fzfg": false,
      "metar_trigger": false,
      "taf_trigger": false,
      "metar": "METAR EPRZ 011330Z 31009KT 290V350 CAVOK 17/02 Q1024",
      "taf": "TAF EPRZ 011130Z 0112/0212 31011KT CAVOK"
    },
    {
      "icao": "EPSC",
      "alert": "OK",
      "vis_m": 9999,
      "fzfg": false,
      "metar_trigger": false,
      "taf_trigger": false,
      "metar": "METAR EPSC 011330Z 27009KT 230V300 CAVOK 23/04 Q1027",
      "taf": "TAF EPSC 011130Z 0112/0212 35010KT CAVOK"
    },
    {
      "icao": "EPSY",
      "alert": "OK",
      "vis_m": 9999,
      "fzfg": false,
      "metar_trigger": false,
      "taf_trigger": false,
      "metar": "METAR EPSY 011330Z 01009KT 320V070 CAVOK 19/05 Q1025",
      "taf": "TAF EPSY 011130Z 0112/0121 36010KT CAVOK"
    },
    {
      "icao": "EPWA",
      "alert": "OK",
      "vis_m": 9999,
      "fzfg": false,
      "metar_trigger": false,
      "taf_trigger": false,
      "metar": "METAR EPWA 011330Z 01011KT 330V040 CAVOK 20/03 Q1024 NOSIG",
      "taf": "TAF EPWA 011130Z 0112/0212 01010KT 9999 SCT048"
    },
    {
      "icao": "EPWR",
      "alert": "OK",
      "vis_m": 9999,
      "fzfg": false,
      "metar_trigger": false,
      "taf_trigger": false,
      "metar": "METAR EPWR 011330Z 34009KT 280V020 CAVOK 22/02 Q1025",
      "taf": "TAF EPWR 011130Z 0112/0212 33010KT CAVOK"
    },
    {
      "icao": "ESGG",
      "alert": "OK",
      "vis_m": 9999,
      "fzfg": false,
      "metar_trigger": false,
      "taf_trigger": false,
      "metar": "METAR ESGG 011320Z 27011KT 240V300 CAVOK 19/02 Q1026",
      "taf": "TAF ESGG 011130Z 0112/0212 28012KT CAVOK"
    },
    {
      "icao": "ESKN",
      "alert": "OK",
      "vis_m": 9999,
      "fzfg": false,
      "metar_trigger": false,
      "taf_trigger": false,
      "metar": "METAR ESKN 011320Z 28016KT CAVOK 25/01 Q1020",
      "taf": "TAF ESKN 011130Z 0112/0212 28010KT CAVOK"
    },
    {
      "icao": "ESMS",
      "alert": "OK",
      "vis_m": 9999,
      "fzfg": false,
      "metar_trigger": false,
      "taf_trigger": false,
      "metar": "METAR ESMS 011320Z 30012KT CAVOK 20/01 Q1027",
      "taf": "TAF ESMS 011127Z 0112/0212 31010KT CAVOK"
    },
    {
      "icao": "ESSA",
      "alert": "OK",
      "vis_m": 9999,
      "fzfg": false,
      "metar_trigger": false,
      "taf_trigger": false,
      "metar": "METAR ESSA 011320Z 23012KT CAVOK 22/04 Q1018 NOSIG",
      "taf": "TAF ESSA 011130Z 0112/0212 24010KT CAVOK"
    },
    {
      "icao": "EYKA",
      "alert": "OK",
      "vis_m": 9999,
      "fzfg": false,
      "metar_trigger": false,
      "taf_trigger": false,
      "metar": "METAR EYKA 011350Z 30010KT CAVOK 18/04 Q1023",
      "taf": "TAF EYKA 011100Z 0112/0212 30006KT 9000 FEW040"
    },
    {
      "icao": "EYPA",
      "alert": "OK",
      "vis_m": 9999,
      "fzfg": false,
      "metar_trigger": false,
      "taf_trigger": false,
      "metar": "METAR EYPA 011350Z 24005KT 200V270 CAVOK 12/04 Q1024",
      "taf": "TAF EYPA 011100Z 0112/0212 23005KT 9000 NSC"
    },
    {
      "icao": "EYVI",
      "alert": "OK",
      "vis_m": 9999,
      "fzfg": false,
      "metar_trigger": false,
      "taf_trigger": false,
      "metar": "METAR EYVI 011350Z 30005KT 240V040 9999 SCT047 16/04 Q1023 NOSIG",
      "taf": "TAF EYVI 011100Z 0112/0212 VRB05KT 9000 SCT040"
    },
    {
      "icao": "GCFV",
      "alert": "OK",
      "vis_m": 9999,
      "fzfg": false,
      "metar_trigger": false,
      "taf_trigger": false,
      "metar": "METAR GCFV 011330Z 04010KT 9999 FEW025 22/14 Q1019",
      "taf": "TAF GCFV 010800Z 0109/0209 05006KT 9999 FEW025 TX23/0114Z TN16/0206Z"
    },
    {
      "icao": "GCLP",
      "alert": "OK",
      "vis_m": 9999,
      "fzfg": false,
      "metar_trigger": false,
      "taf_trigger": false,
      "metar": "METAR GCLP 011330Z 09007KT 060V120 9999 FEW025 22/14 Q1019 NOSIG",
      "taf": "TAF GCLP 010800Z 0109/0209 07006KT 9999 FEW025 TX23/0114Z TN16/0206Z"
    },
    {
      "icao": "GCTS",
      "alert": "OK",
      "vis_m": 9999,
      "fzfg": false,
      "metar_trigger": false,
      "taf_trigger": false,
      "metar": "METAR GCTS 011330Z 18007KT 140V240 9999 FEW030 21/15 Q1020 NOSIG",
      "taf": ""
    },
    {
      "icao": "GMAD",
      "alert": "OK",
      "vis_m": 9999,
      "fzfg": false,
      "metar_trigger": false,
      "taf_trigger": false,
      "metar": "METAR GMAD 011330Z 26012KT CAVOK 25/14 Q1015 NOSIG",
      "taf": "TAF GMAD 011100Z 0112/0218 27010KT 8000 SCT030"
    },
    {
      "icao": "GMMN",
      "alert": "OK",
      "vis_m": 9999,
      "fzfg": false,
      "metar_trigger": false,
      "taf_trigger": false,
      "metar": "METAR GMMN 011330Z 35013KT 320V020 CAVOK 23/15 Q1018 NOSIG",
      "taf": "TAF GMMN 011100Z 0112/0218 36012KT CAVOK"
    },
    {
      "icao": "GMMX",
      "alert": "OK",
      "vis_m": 9999,
      "fzfg": false,
      "metar_trigger": false,
      "taf_trigger": false,
      "metar": "METAR GMMX 011330Z 31006KT 250V010 9999 SCT026 SCT200 27/15 Q1017 NOSIG",
      "taf": "TAF GMMX 011100Z 0112/0218 34006KT 8000 SCT026"
    },
    {
      "icao": "HEGN",
      "alert": "OK",
      "vis_m": 9999,
      "fzfg": false,
      "metar_trigger": false,
      "taf_trigger": false,
      "metar": "METAR HEGN 011300Z 02013KT CAVOK 30/07 Q1009 NOSIG",
      "taf": "TAF HEGN 011100Z 0112/0218 36013KT CAVOK"
    },
    {
      "icao": "HEMA",
      "alert": "OK",
      "vis_m": 9999,
      "fzfg": false,
      "metar_trigger": false,
      "taf_trigger": false,
      "metar": "METAR HEMA 011300Z 02008KT CAVOK 27/10 Q1010 NOSIG",
      "taf": "TAF HEMA 011100Z 0112/0218 35014KT CAVOK"
    },
    {
      "icao": "HESH",
      "alert": "OK",
      "vis_m": 9999,
      "fzfg": false,
      "metar_trigger": false,
      "taf_trigger": false,
      "metar": "METAR HESH 011300Z 08005KT CAVOK 31/07 Q1009 NOSIG",
      "taf": "TAF HESH 011100Z 0112/0218 02015KT CAVOK"
    },
    {
      "icao": "HESX",
      "alert": "OK",
      "vis_m": 9999,
      "fzfg": false,
      "metar_trigger": false,
      "taf_trigger": false,
      "metar": "METAR HESX 011300Z 35005KT CAVOK 29/03 Q1011 NOSIG",
      "taf": "TAF HESX 011100Z 0112/0218 31008KT CAVOK"
    },
    {
      "icao": "LATI",
      "alert": "OK",
      "vis_m": 9999,
      "fzfg": false,
      "metar_trigger": false,
      "taf_trigger": false,
      "metar": "METAR LATI 011350Z 04016KT CAVOK 20/00 Q1017 NOSIG",
      "taf": "TAF LATI 011100Z 0112/0212 03012KT CAVOK TX22/0212Z TN04/0204Z"
    },
    {
      "icao": "LBPD",
      "alert": "OK",
      "vis_m": 9999,
      "fzfg": false,
      "metar_trigger": false,
      "taf_trigger": false,
      "metar": "METAR LBPD 011330Z AUTO 28007KT 9999 SCT064/// OVC077/// 10/02 Q1024 NOSIG",
      "taf": "TAF LBPD 011100Z 0112/0212 VRB03KT 9999 SCT030 OVC060"
    },
    {
      "icao": "LBSF",
      "alert": "OK",
      "vis_m": 9999,
      "fzfg": false,
      "metar_trigger": false,
      "taf_trigger": false,
      "metar": "METAR LBSF 011330Z 04010KT 010V070 9999 BKN059 08/M01 Q1024 NOSIG",
      "taf": "TAF LBSF 011100Z 0112/0212 05012KT 9999 SCT020 BKN045"
    },
    {
      "icao": "LBWN",
      "alert": "OK",
      "vis_m": 9999,
      "fzfg": false,
      "metar_trigger": false,
      "taf_trigger": false,
      "metar": "METAR LBWN 011330Z VRB04KT 9999 -SHRA SCT033TCU BKN045 10/04 Q1023 NOSIG",
      "taf": "TAF LBWN 011100Z 0112/0212 03012KT 9999 SCT030 BKN045"
    },
    {
      "icao": "LCLK",
      "alert": "OK",
      "vis_m": 9999,
      "fzfg": false,
      "metar_trigger": false,
      "taf_trigger": false,
      "metar": "METAR LCLK 011330Z 22017KT 9999 FEW020 23/15 Q1010 NOSIG",
      "taf": "TAF LCLK 011130Z 0112/0212 21016KT 9999 FEW020"
    },
    {
      "icao": "LCPH",
      "alert": "OK",
      "vis_m": 9999,
      "fzfg": false,
      "metar_trigger": false,
      "taf_trigger": false,
      "metar": "METAR LCPH 011330Z 31013KT 250V320 9999 FEW017 22/16 Q1011 NOSIG",
      "taf": "TAF LCPH 011130Z 0112/0212 28014KT 9999 FEW020"
    },
    {
      "icao": "LEAL",
      "alert": "OK",
      "vis_m": 9999,
      "fzfg": false,
      "metar_trigger": false,
      "taf_trigger": false,
      "metar": "METAR LEAL 011330Z 10012KT 060V140 9999 FEW030 BKN055 23/15 Q1020 NOSIG",
      "taf": "TAF LEAL 011100Z 0112/0212 VRB04KT 9999 SCT025 SCT060 TX23/0113Z TN16/0206Z"
    },
    {
      "icao": "LEBB",
      "alert": "OK",
      "vis_m": 9999,
      "fzfg": false,
      "metar_trigger": false,
      "taf_trigger": false,
      "metar": "METAR LEBB 011330Z 12006KT 070V160 9999 SCT050 27/15 Q1017 NOSIG",
      "taf": ""
    },
    {
      "icao": "LEBL",
      "alert": "OK",
      "vis_m": 9000,
      "fzfg": false,
      "metar_trigger": false,
      "taf_trigger": false,
      "metar": "METAR LEBL 011330Z 09016KT 070V130 9000 FEW030 21/14 Q1022 NOSIG",
      "taf": "TAF LEBL 011100Z 0112/0212 07018KT 9999 FEW015 TX22/0112Z TN16/0206Z"
    },
    {
      "icao": "LECH",
      "alert": "OK",
      "vis_m": 9000,
      "fzfg": false,
      "metar_trigger": false,
      "taf_trigger": false,
      "metar": "METAR LECH 011330Z AUTO 07010KT 030V100 9000 SCT012 BKN017 OVC031 16/14 Q1022",
      "taf": "TAF LECH 011100Z 0112/0212 05007KT 9999 SCT020 SCT050 TX21/0112Z TN12/0206Z"
    },
    {
      "icao": "LEMD",
      "alert": "OK",
      "vis_m": 9999,
      "fzfg": false,
      "metar_trigger": false,
      "taf_trigger": false,
      "metar": "METAR LEMD 011330Z 18009KT 9999 SCT068 24/07 Q1019 NOSIG",
      "taf": "TAF LEMD 011100Z 0112/0218 20008KT CAVOK TX26/0116Z TN12/0205Z"
    },
    {
      "icao": "LEMG",
      "alert": "OK",
      "vis_m": 9999,
      "fzfg": false,
      "metar_trigger": false,
      "taf_trigger": false,
      "metar": "METAR LEMG 011330Z 11010KT 080V150 9999 SCT012 21/16 Q1020 NOSIG",
      "taf": "TAF LEMG 011100Z 0112/0212 13010KT CAVOK TX23/0114Z TN14/0206Z"
    },
    {
      "icao": "LEVC",
      "alert": "OK",
      "vis_m": 9999,
      "fzfg": false,
      "metar_trigger": false,
      "taf_trigger": false,
      "metar": "METAR LEVC 011330Z 06009KT 020V120 9999 FEW016 BKN023 20/15 Q1021 NOSIG",
      "taf": "TAF LEVC 011100Z 0112/0212 07008KT 9999 SCT020 SCT030 TX21/0113Z TN16/0206Z"
    },
    {
      "icao": "LEXJ",
      "alert": "OK",
      "vis_m": 9999,
      "fzfg": false,
      "metar_trigger": false,
      "taf_trigger": false,
      "metar": "METAR LEXJ 011330Z 05006KT 350V120 9999 FEW022 20/16 Q1017",
      "taf": "TAF LEXJ 010800Z 0109/0209 VRB03KT 9999 SCT015 TX21/0113Z TN15/0206Z"
    },
    {
      "icao": "LEZG",
      "alert": "OK",
      "vis_m": 9999,
      "fzfg": false,
      "metar_trigger": false,
      "taf_trigger": false,
      "metar": "METAR LEZG 011330Z 12008KT 070V160 9999 OVC040 23/13 Q1019 NOSIG",
      "taf": "TAF LEZG 011100Z 0112/0212 12010KT 9999 FEW030 SCT060 TX23/0114Z TN14/0206Z"
    },
    {
      "icao": "LEZL",
      "alert": "OK",
      "vis_m": 9999,
      "fzfg": false,
      "metar_trigger": false,
      "taf_trigger": false,
      "metar": "METAR LEZL 011330Z 17006KT 100V240 CAVOK 26/09 Q1018 NOSIG",
      "taf": "TAF LEZL 010800Z 0109/0209 VRB03KT CAVOK TX28/0115Z TN13/0206Z"
    },
    {
      "icao": "LFBD",
      "alert": "OK",
      "vis_m": 9999,
      "fzfg": false,
      "metar_trigger": false,
      "taf_trigger": false,
      "metar": "METAR LFBD 011330Z AUTO 15010KT 110V210 9999 BKN038 24/14 Q1020 NOSIG",
      "taf": "TAF LFBD 011100Z 0112/0218 11010KT 9999 SCT035 TX24/0114Z TN14/0205Z"
    },
    {
      "icao": "LFLL",
      "alert": "OK",
      "vis_m": 9999,
      "fzfg": false,
      "metar_trigger": false,
      "taf_trigger": false,
      "metar": "METAR LFLL 011330Z 15006KT 110V180 9999 FEW052 BKN260 24/10 Q1022 NOSIG",
      "taf": "TAF LFLL 011100Z 0112/0218 19010KT CAVOK"
    },
    {
      "icao": "LFLS",
      "alert": "OK",
      "vis_m": 9999,
      "fzfg": false,
      "metar_trigger": false,
      "taf_trigger": false,
      "metar": "METAR LFLS 011330Z AUTO 20005KT 150V240 CAVOK 22/09 Q1023 TEMPO FEW055TCU",
      "taf": "TAF LFLS 010800Z 0109/0209 VRB03KT CAVOK"
    },
    {
      "icao": "LFMN",
      "alert": "OK",
      "vis_m": 9999,
      "fzfg": false,
      "metar_trigger": false,
      "taf_trigger": false,
      "metar": "METAR LFMN 011330Z 15004KT 120V190 CAVOK 19/08 Q1025 NOSIG",
      "taf": "TAF LFMN 010800Z 0109/0215 10012KT 9999 FEW040"
    },
    {
      "icao": "LFOB",
      "alert": "OK",
      "vis_m": 9999,
      "fzfg": false,
      "metar_trigger": false,
      "taf_trigger": false,
      "metar": "METAR LFOB 011330Z AUTO 17007KT 110V210 CAVOK 24/13 Q1021 NOSIG",
      "taf": "TAF LFOB 011100Z 0112/0212 VRB04KT CAVOK"
    },
    {
      "icao": "LFPO",
      "alert": "OK",
      "vis_m": 9999,
      "fzfg": false,
      "metar_trigger": false,
      "taf_trigger": false,
      "metar": "METAR LFPO 011330Z 18007KT 130V230 9999 SCT046 BKN070 24/13 Q1021 TEMPO -TSRA SCT040CB",
      "taf": "TAF LFPO 011100Z 0112/0218 21004KT CAVOK"
    },
    {
      "icao": "LFSB",
      "alert": "OK",
      "vis_m": 9999,
      "fzfg": false,
      "metar_trigger": false,
      "taf_trigger": false,
      "metar": "METAR LFSB 011330Z AUTO VRB03KT CAVOK 23/05 Q1023 NOSIG",
      "taf": "TAF LFSB 011100Z 0112/0212 07005KT CAVOK"
    },
    {
      "icao": "LGAV",
      "alert": "OK",
      "vis_m": 9999,
      "fzfg": false,
      "metar_trigger": false,
      "taf_trigger": false,
      "metar": "METAR LGAV 011320Z 02021KT 9999 SCT020 BKN040 BKN060 13/07 Q1019 NOSIG",
      "taf": "TAF LGAV 011100Z 0112/0212 02017KT 9999 SCT020 BKN060"
    },
    {
      "icao": "LGTS",
      "alert": "OK",
      "vis_m": 9999,
      "fzfg": false,
      "metar_trigger": false,
      "taf_trigger": false,
      "metar": "METAR LGTS 011320Z 17004KT 9999 FEW020 BKN040 14/05 Q1022 NOSIG",
      "taf": "TAF LGTS 011100Z 0112/0212 VRB03KT 9999 BKN035"
    },
    {
      "icao": "LHBP",
      "alert": "OK",
      "vis_m": 9999,
      "fzfg": false,
      "metar_trigger": false,
      "taf_trigger": false,
      "metar": "METAR LHBP 011330Z VRB03G14KT CAVOK 19/M02 Q1025 NOSIG",
      "taf": "TAF LHBP 011115Z 0112/0212 02007KT CAVOK"
    },
    {
      "icao": "LHDC",
      "alert": "OK",
      "vis_m": 9999,
      "fzfg": false,
      "metar_trigger": false,
      "taf_trigger": false,
      "metar": "METAR LHDC 011315Z AUTO 06010KT 030V090 CAVOK 18/M02 Q1024 NOSIG",
      "taf": ""
    },
    {
      "icao": "LIBD",
      "alert": "OK",
      "vis_m": 9999,
      "fzfg": false,
      "metar_trigger": false,
      "taf_trigger": false,
      "metar": "METAR LIBD 011320Z 34012KT 310V020 CAVOK 16/01 Q1021",
      "taf": "TAF LIBD 011100Z 0112/0212 36016KT 9999 SCT030"
    },
    {
      "icao": "LIBG",
      "alert": "OK",
      "vis_m": 9999,
      "fzfg": false,
      "metar_trigger": false,
      "taf_trigger": false,
      "metar": "METAR LIBG 011250Z 34016KT CAVOK 17/02 Q1019",
      "taf": "TAF LIBG 011100Z 0112/0121 04015KT CAVOK"
    },
    {
      "icao": "LIBP",
      "alert": "OK",
      "vis_m": 9999,
      "fzfg": false,
      "metar_trigger": false,
      "taf_trigger": false,
      "metar": "METAR LIBP 011320Z AUTO 36012KT 330V040 9999 NCD 17/M01 Q1025",
      "taf": "TAF LIBP 011100Z 0112/0212 36014KT 9999 FEW050"
    },
    {
      "icao": "LIBR",
      "alert": "OK",
      "vis_m": 9999,
      "fzfg": false,
      "metar_trigger": false,
      "taf_trigger": false,
      "metar": "METAR LIBR 011320Z 02017KT CAVOK 17/04 Q1019",
      "taf": "TAF LIBR 011100Z 0112/0212 02016G28KT CAVOK"
    },
    {
      "icao": "LICA",
      "alert": "OK",
      "vis_m": 9999,
      "fzfg": false,
      "metar_trigger": false,
      "taf_trigger": false,
      "metar": "METAR LICA 011320Z AUTO 24014KT 9999 NCD 20/06 Q1017",
      "taf": "TAF LICA 011100Z 0112/0212 28015KT CAVOK"
    },
    {
      "icao": "LICC",
      "alert": "OK",
      "vis_m": 9999,
      "fzfg": false,
      "metar_trigger": false,
      "taf_trigger": false,
      "metar": "METAR LICC 011320Z 09008KT 050V110 9999 FEW020 BKN030 17/13 Q1018",
      "taf": "TAF LICC 011100Z 0112/0212 10012KT 9999 BKN030"
    },
    {
      "icao": "LICJ",
      "alert": "OK",
      "vis_m": 9999,
      "fzfg": false,
      "metar_trigger": false,
      "taf_trigger": false,
      "metar": "METAR LICJ 011320Z 05017KT 9999 FEW020 19/10 Q1019",
      "taf": "TAF LICJ 011100Z 0112/0212 06016KT 9999 FEW020"
    },
    {
      "icao": "LIMC",
      "alert": "OK",
      "vis_m": 9999,
      "fzfg": false,
      "metar_trigger": false,
      "taf_trigger": false,
      "metar": "METAR LIMC 011320Z 20003KT 110V270 CAVOK 20/02 Q1027 NOSIG",
      "taf": "TAF LIMC 011100Z 0112/0218 VRB05KT 9999 SCT050"
    },
    {
      "icao": "LIME",
      "alert": "OK",
      "vis_m": 9999,
      "fzfg": false,
      "metar_trigger": false,
      "taf_trigger": false,
      "metar": "METAR LIME 011320Z VRB04KT CAVOK 19/01 Q1027 NOSIG",
      "taf": "TAF LIME 011100Z 0112/0212 VRB05KT CAVOK"
    },
    {
      "icao": "LIMF",
      "alert": "OK",
      "vis_m": 9999,
      "fzfg": false,
      "metar_trigger": false,
      "taf_trigger": false,
      "metar": "METAR LIMF 011320Z 09004KT 030V130 CAVOK 18/06 Q1027",
      "taf": "TAF LIMF 011100Z 0112/0212 VRB05KT 9999 SCT040"
    },
    {
      "icao": "LIMJ",
      "alert": "OK",
      "vis_m": 9999,
      "fzfg": false,
      "metar_trigger": false,
      "taf_trigger": false,
      "metar": "METAR LIMJ 011320Z 02013KT 350V050 CAVOK 23/03 Q1024",
      "taf": "TAF LIMJ 011100Z 0112/0212 04012KT CAVOK"
    },
    {
      "icao": "LIPE",
      "alert": "OK",
      "vis_m": 9999,
      "fzfg": false,
      "metar_trigger": false,
      "taf_trigger": false,
      "metar": "METAR LIPE 011320Z 04007KT 300V070 CAVOK 20/M01 Q1026",
      "taf": "TAF LIPE 011100Z 0112/0212 08010KT CAVOK"
    },
    {
      "icao": "LIPH",
      "alert": "OK",
      "vis_m": 9999,
      "fzfg": false,
      "metar_trigger": false,
      "taf_trigger": false,
      "metar": "METAR LIPH 011320Z 30004KT 190V360 CAVOK 20/M02 Q1026",
      "taf": "TAF LIPH 011100Z 0112/0212 VRB06KT CAVOK"
    },
    {
      "icao": "LIPQ",
      "alert": "OK",
      "vis_m": 9999,
      "fzfg": false,
      "metar_trigger": false,
      "taf_trigger": false,
      "metar": "METAR LIPQ 011320Z AUTO 27008KT 240V300 9999 NCD 21/M01 Q1025",
      "taf": "TAF LIPQ 011100Z 0112/0212 VRB05KT CAVOK"
    },
    {
      "icao": "LIPR",
      "alert": "OK",
      "vis_m": 9999,
      "fzfg": false,
      "metar_trigger": false,
      "taf_trigger": false,
      "metar": "METAR LIPR 011320Z 05005KT 350V090 CAVOK 16/02 Q1026",
      "taf": "TAF LIPR 011100Z 0112/0212 06012KT CAVOK"
    },
    {
      "icao": "LIPX",
      "alert": "OK",
      "vis_m": 9999,
      "fzfg": false,
      "metar_trigger": false,
      "taf_trigger": false,
      "metar": "METAR LIPX 011320Z VRB04KT CAVOK 20/M00 Q1026",
      "taf": "TAF LIPX 011100Z 0112/0212 10008KT CAVOK"
    },
    {
      "icao": "LIPY",
      "alert": "OK",
      "vis_m": 9999,
      "fzfg": false,
      "metar_trigger": false,
      "taf_trigger": false,
      "metar": "METAR LIPY 011320Z AUTO 01008KT 330V040 9999 NCD 16/02 Q1026",
      "taf": "TAF LIPY 011100Z 0112/0212 05011KT CAVOK"
    },
    {
      "icao": "LIPZ",
      "alert": "OK",
      "vis_m": 9999,
      "fzfg": false,
      "metar_trigger": false,
      "taf_trigger": false,
      "metar": "METAR LIPZ 011320Z 20006KT 160V230 CAVOK 18/00 Q1026 NOSIG",
      "taf": "TAF LIPZ 011100Z 0112/0218 15010KT CAVOK"
    },
    {
      "icao": "LIRF",
      "alert": "OK",
      "vis_m": 9999,
      "fzfg": false,
      "metar_trigger": false,
      "taf_trigger": false,
      "metar": "METAR LIRF 011320Z 04010KT 360V080 CAVOK 22/M02 Q1020 WS R34R NOSIG",
      "taf": "TAF LIRF 011100Z 0112/0218 02010KT CAVOK"
    },
    {
      "icao": "LIRN",
      "alert": "OK",
      "vis_m": 9999,
      "fzfg": false,
      "metar_trigger": false,
      "taf_trigger": false,
      "metar": "METAR LIRN 011320Z 04017KT 010V070 CAVOK 19/M03 Q1020 NOSIG",
      "taf": "TAF LIRN 011100Z 0112/0212 03020G32KT CAVOK"
    },
    {
      "icao": "LIRP",
      "alert": "OK",
      "vis_m": 9999,
      "fzfg": false,
      "metar_trigger": false,
      "taf_trigger": false,
      "metar": "METAR LIRP 011315Z 30007KT CAVOK 22/04 Q1024 NOSIG",
      "taf": "TAF LIRP 011100Z 0112/0212 09012KT CAVOK"
    },
    {
      "icao": "LIRZ",
      "alert": "OK",
      "vis_m": 9999,
      "fzfg": false,
      "metar_trigger": false,
      "taf_trigger": false,
      "metar": "METAR LIRZ 011320Z AUTO 02015KT 9999 NCD 17/02 Q1023",
      "taf": "TAF LIRZ 011100Z 0112/0212 04017KT 9999 FEW060"
    },
    {
      "icao": "LJLJ",
      "alert": "OK",
      "vis_m": 9999,
      "fzfg": false,
      "metar_trigger": false,
      "taf_trigger": false,
      "metar": "METAR LJLJ 011330Z 15005KT 9999 FEW070 18/03 Q1025 NOSIG",
      "taf": "TAF LJLJ 011100Z 0112/0212 12005KT 9999 FEW060"
    },
    {
      "icao": "LKMT",
      "alert": "OK",
      "vis_m": 9999,
      "fzfg": false,
      "metar_trigger": false,
      "taf_trigger": false,
      "metar": "METAR LKMT 011330Z 03009KT 330V070 CAVOK 19/04 Q1025 NOSIG",
      "taf": "TAF LKMT 011100Z 0112/0212 01006KT CAVOK"
    },
    {
      "icao": "LKPR",
      "alert": "OK",
      "vis_m": 9999,
      "fzfg": false,
      "metar_trigger": false,
      "taf_trigger": false,
      "metar": "METAR LKPR 011330Z 35006KT 280V060 CAVOK 19/02 Q1027 NOSIG",
      "taf": "TAF LKPR 011100Z 0112/0218 VRB02KT CAVOK"
    },
    {
      "icao": "LLBG",
      "alert": "OK",
      "vis_m": 9999,
      "fzfg": false,
      "metar_trigger": false,
      "taf_trigger": false,
      "metar": "METAR LLBG 011350Z 29011KT CAVOK 22/11 Q1012 NOSIG",
      "taf": "TAF LLBG 011104Z 0112/0212 30012KT CAVOK TX23/0112Z TN12/0203Z"
    },
    {
      "icao": "LMML",
      "alert": "OK",
      "vis_m": 9999,
      "fzfg": false,
      "metar_trigger": false,
      "taf_trigger": false,
      "metar": "METAR LMML 011345Z 05013KT 9999 FEW023 21/12 Q1017 NOSIG",
      "taf": ""
    },
    {
      "icao": "LOWW",
      "alert": "OK",
      "vis_m": 9999,
      "fzfg": false,
      "metar_trigger": false,
      "taf_trigger": false,
      "metar": "METAR LOWW 011320Z 34010KT CAVOK 18/03 Q1026 NOSIG",
      "taf": "TAF LOWW 011115Z 0112/0218 35010KT CAVOK TX24/0214Z TN07/0204Z"
    },
    {
      "icao": "LPFR",
      "alert": "OK",
      "vis_m": 9999,
      "fzfg": false,
      "metar_trigger": false,
      "taf_trigger": false,
      "metar": "METAR LPFR 011330Z 24010KT 9999 FEW025 20/13 Q1019",
      "taf": "TAF LPFR 011100Z 0112/0212 23010KT CAVOK"
    },
    {
      "icao": "LPMA",
      "alert": "OK",
      "vis_m": 9999,
      "fzfg": false,
      "metar_trigger": false,
      "taf_trigger": false,
      "metar": "METAR LPMA 011330Z 20015KT 9999 FEW013 21/14 Q1018",
      "taf": "TAF LPMA 011100Z 0112/0212 12005KT 9999 SCT015"
    },
    {
      "icao": "LPPR",
      "alert": "OK",
      "vis_m": 9999,
      "fzfg": false,
      "metar_trigger": false,
      "taf_trigger": false,
      "metar": "METAR LPPR 011330Z 27006KT 210V320 9999 FEW030 19/11 Q1019",
      "taf": "TAF LPPR 011100Z 0112/0212 26007KT 9999 FEW020 SCT035"
    },
    {
      "icao": "LPPS",
      "alert": "OK",
      "vis_m": 9999,
      "fzfg": false,
      "metar_trigger": false,
      "taf_trigger": false,
      "metar": "METAR LPPS 011330Z 28009KT 250V310 9999 FEW015 21/09 Q1019",
      "taf": "TAF LPPS 011100Z 0112/0218 28007KT 9999 SCT015"
    },
    {
      "icao": "LPPT",
      "alert": "OK",
      "vis_m": 9999,
      "fzfg": false,
      "metar_trigger": false,
      "taf_trigger": false,
      "metar": "METAR LPPT 011330Z 23007KT 170V280 9999 FEW045 20/08 Q1019",
      "taf": "TAF LPPT 011100Z 0112/0218 VRB02KT 9999 FEW035"
    },
    {
      "icao": "LQBK",
      "alert": "OK",
      "vis_m": 9999,
      "fzfg": false,
      "metar_trigger": false,
      "taf_trigger": false,
      "metar": "METAR LQBK 011330Z 33007KT 290V020 9999 FEW047 17/M01 Q1025 NOSIG",
      "taf": "TAF LQBK 011100Z 0112/0212 VRB03KT CAVOK TX17/0114Z TN02/0200Z"
    },
    {
      "icao": "LQSA",
      "alert": "OK",
      "vis_m": 9999,
      "fzfg": false,
      "metar_trigger": false,
      "taf_trigger": false,
      "metar": "METAR LQSA 011330Z 01009KT 320V100 CAVOK 15/M04 Q1023 NOSIG",
      "taf": "TAF LQSA 011100Z 0112/0212 31005KT CAVOK TX15/0114Z TN01/0204Z"
    },
    {
      "icao": "LQTZ",
      "alert": "OK",
      "vis_m": 9999,
      "fzfg": false,
      "metar_trigger": false,
      "taf_trigger": false,
      "metar": "METAR LQTZ 011330Z 03009KT 340V130 CAVOK 15/M02 Q1025",
      "taf": "TAF LQTZ 011100Z 0112/0212 VRB02KT CAVOK TX16/0113Z TNM00/0202Z"
    },
    {
      "icao": "LRBC",
      "alert": "OK",
      "vis_m": 9999,
      "fzfg": false,
      "metar_trigger": false,
      "taf_trigger": false,
      "metar": "METAR LRBC 011330Z 02010KT 350V050 CAVOK 12/M05 Q1024",
      "taf": "TAF LRBC 011100Z 0112/0121 36010KT 9999 SCT065"
    },
    {
      "icao": "LRBS",
      "alert": "OK",
      "vis_m": 9999,
      "fzfg": false,
      "metar_trigger": false,
      "taf_trigger": false,
      "metar": "METAR LRBS 011330Z 12006KT 080V170 CAVOK 13/M02 Q1024 NOSIG",
      "taf": "TAF LRBS 011100Z 0112/0212 VRB04KT CAVOK"
    },
    {
      "icao": "LRBV",
      "alert": "OK",
      "vis_m": 9999,
      "fzfg": false,
      "metar_trigger": false,
      "taf_trigger": false,
      "metar": "METAR LRBV 011330Z 29007KT 260V360 9999 SCT068 11/M07 Q1023",
      "taf": "TAF LRBV 011100Z 0112/0121 VRB04KT 9999 SCT050"
    },
    {
      "icao": "LRCL",
      "alert": "OK",
      "vis_m": 9999,
      "fzfg": false,
      "metar_trigger": false,
      "taf_trigger": false,
      "metar": "METAR LRCL 011330Z 28006KT 210V310 CAVOK 14/M05 Q1023",
      "taf": "TAF LRCL 011100Z 0112/0121 VRB04KT CAVOK"
    },
    {
      "icao": "LRCV",
      "alert": "OK",
      "vis_m": 9999,
      "fzfg": false,
      "metar_trigger": false,
      "taf_trigger": false,
      "metar": "METAR LRCV 011330Z 25009KT 210V280 9999 FEW035 SCT040 13/05 Q1024",
      "taf": "TAF LRCV 011100Z 0112/0121 VRB04KT 9999 SCT045"
    },
    {
      "icao": "LRIA",
      "alert": "OK",
      "vis_m": 9999,
      "fzfg": false,
      "metar_trigger": false,
      "taf_trigger": false,
      "metar": "METAR LRIA 011330Z 32004KT 260V030 CAVOK 12/M04 Q1024",
      "taf": "TAF LRIA 011100Z 0112/0121 34008KT CAVOK"
    },
    {
      "icao": "LROP",
      "alert": "OK",
      "vis_m": 9999,
      "fzfg": false,
      "metar_trigger": false,
      "taf_trigger": false,
      "metar": "METAR LROP 011330Z VRB03KT CAVOK 12/M02 Q1024 NOSIG",
      "taf": "TAF LROP 011100Z 0112/0212 VRB04KT CAVOK"
    },
    {
      "icao": "LRSB",
      "alert": "OK",
      "vis_m": 9999,
      "fzfg": false,
      "metar_trigger": false,
      "taf_trigger": false,
      "metar": "METAR LRSB 011330Z 34004KT 280V020 9999 SCT063 12/M03 Q1023 NOSIG",
      "taf": "TAF LRSB 011100Z 0112/0212 VRB04KT CAVOK"
    },
    {
      "icao": "LRSM",
      "alert": "OK",
      "vis_m": 9999,
      "fzfg": false,
      "metar_trigger": false,
      "taf_trigger": false,
      "metar": "METAR LRSM 011330Z 34011KT CAVOK 17/M04 Q1024",
      "taf": "TAF LRSM 011100Z 0112/0121 VRB04KT CAVOK"
    },
    {
      "icao": "LRSV",
      "alert": "OK",
      "vis_m": 9999,
      "fzfg": false,
      "metar_trigger": false,
      "taf_trigger": false,
      "metar": "METAR LRSV 011330Z 33009KT 300V020 CAVOK 11/M04 Q1023",
      "taf": "TAF LRSV 011100Z 0112/0121 34007KT 9999 SCT045"
    },
    {
      "icao": "LRTM",
      "alert": "OK",
      "vis_m": 9999,
      "fzfg": false,
      "metar_trigger": false,
      "taf_trigger": false,
      "metar": "METAR LRTM 011330Z 26007KT 210V300 CAVOK 14/M05 Q1023",
      "taf": "TAF LRTM 011100Z 0112/0121 VRB04KT CAVOK"
    },
    {
      "icao": "LRTR",
      "alert": "OK",
      "vis_m": 9999,
      "fzfg": false,
      "metar_trigger": false,
      "taf_trigger": false,
      "metar": "METAR LRTR 011330Z VRB04KT CAVOK 16/M01 Q1024 NOSIG",
      "taf": "TAF LRTR 011100Z 0112/0212 01008KT CAVOK"
    },
    {
      "icao": "LTAC",
      "alert": "OK",
      "vis_m": 9999,
      "fzfg": false,
      "metar_trigger": false,
      "taf_trigger": false,
      "metar": "METAR LTAC 011320Z 32008KT 9999 -SHRA FEW030CB BKN035 BKN080 09/06 Q1013 NOSIG RMK RWY21C 31008KT 270V330 RWY03L 31005KT 270V330 RWY21R 31006KT RWY03R 30006KT RWY21L 32008KT",
      "taf": "TAF LTAC 011040Z 0112/0212 VRB02KT 9999 SCT035 BKN090"
    },
    {
      "icao": "LTFM",
      "alert": "OK",
      "vis_m": 9999,
      "fzfg": false,
      "metar_trigger": false,
      "taf_trigger": false,
      "metar": "METAR LTFM 011320Z 04021KT 9999 FEW017 BKN025 BKN090 11/05 Q1021 RESHRA NOSIG RMK RWY17L 04018KT RWY34L 04020KT RWY16R 04020KT RWY36 04019KT RWY18 05017KT",
      "taf": "TAF LTFM 011040Z 0112/0218 03022G32KT 9999 -SHRA SCT014 BKN025"
    },
    {
      "icao": "LUKK",
      "alert": "OK",
      "vis_m": 9999,
      "fzfg": false,
      "metar_trigger": false,
      "taf_trigger": false,
      "metar": "METAR LUKK 011330Z 01008KT 340V050 CAVOK 13/M05 Q1023 NOSIG",
      "taf": "TAF LUKK 011101Z 0112/0212 01010KT 9999 SCT045"
    },
    {
      "icao": "LWOH",
      "alert": "OK",
      "vis_m": 9999,
      "fzfg": false,
      "metar_trigger": false,
      "taf_trigger": false,
      "metar": "METAR LWOH 011350Z 35010G20KT 310V040 9999 BKN050 11/01 Q1020",
      "taf": "TAF LWOH 011125Z 0112/0212 02014KT 9999 SCT040 BKN090"
    },
    {
      "icao": "LWSK",
      "alert": "OK",
      "vis_m": 9999,
      "fzfg": false,
      "metar_trigger": false,
      "taf_trigger": false,
      "metar": "METAR LWSK 011350Z 01007KT 340V050 9999 BKN060 14/M01 Q1022 NOSIG",
      "taf": "TAF LWSK 011125Z 0112/0212 36014KT 9999 SCT050 BKN100"
    },
    {
      "icao": "LYBE",
      "alert": "OK",
      "vis_m": 9999,
      "fzfg": false,
      "metar_trigger": false,
      "taf_trigger": false,
      "metar": "METAR LYBE 011330Z 02004KT 320V080 CAVOK 16/M02 Q1025 NOSIG",
      "taf": "TAF LYBE 011100Z 0112/0212 01008KT 9999 SCT045 TX17/0113Z TN03/0204Z"
    },
    {
      "icao": "LYNI",
      "alert": "OK",
      "vis_m": 9999,
      "fzfg": false,
      "metar_trigger": false,
      "taf_trigger": false,
      "metar": "METAR LYNI 011330Z 04010KT 010V080 9999 SCT047 BKN083 14/M03 Q1024 NOSIG",
      "taf": "TAF LYNI 011100Z 0112/0212 34006KT 9999 SCT050 TX16/0212Z TN02/0204Z"
    },
    {
      "icao": "LYPG",
      "alert": "OK",
      "vis_m": 9999,
      "fzfg": false,
      "metar_trigger": false,
      "taf_trigger": false,
      "metar": "METAR LYPG 011330Z VRB11KT 9999 FEW050 20/M05 Q1019 TEMPO 02025KT",
      "taf": "TAF LYPG 011100Z 0112/0212 36012KT CAVOK TX20/0113Z TN11/0204Z"
    },
    {
      "icao": "LZIB",
      "alert": "OK",
      "vis_m": 9999,
      "fzfg": false,
      "metar_trigger": false,
      "taf_trigger": false,
      "metar": "METAR LZIB 011330Z 34008KT 310V010 CAVOK 20/03 Q1025 NOSIG",
      "taf": "TAF LZIB 011115Z 0112/0212 36004KT CAVOK"
    },
    {
      "icao": "LZKZ",
      "alert": "OK",
      "vis_m": 9999,
      "fzfg": false,
      "metar_trigger": false,
      "taf_trigger": false,
      "metar": "METAR LZKZ 011330Z 03008KT 360V060 CAVOK 16/01 Q1024 NOSIG",
      "taf": "TAF LZKZ 011115Z 0112/0212 04007KT CAVOK"
    },
    {
      "icao": "LZTT",
      "alert": "OK",
      "vis_m": 9999,
      "fzfg": false,
      "metar_trigger": false,
      "taf_trigger": false,
      "metar": "METAR LZTT 011330Z 29006KT 270V350 9999 SCT056 16/M01 Q1024 NOSIG",
      "taf": "TAF LZTT 011115Z 0112/0212 VRB04KT 9999 FEW045 BKN063"
    },
    {
      "icao": "OEJN",
      "alert": "OK",
      "vis_m": 9999,
      "fzfg": false,
      "metar_trigger": false,
      "taf_trigger": false,
      "metar": "METAR OEJN 011300Z 33012KT CAVOK 36/01 Q1008 NOSIG",
      "taf": ""
    },
    {
      "icao": "OEMA",
      "alert": "OK",
      "vis_m": 9999,
      "fzfg": false,
      "metar_trigger": false,
      "taf_trigger": false,
      "metar": "METAR OEMA 011300Z 29014KT CAVOK 36/M03 Q1010 NOSIG",
      "taf": ""
    },
    {
      "icao": "OJAI",
      "alert": "OK",
      "vis_m": 5000,
      "fzfg": false,
      "metar_trigger": false,
      "taf_trigger": false,
      "metar": "METAR OJAI 011300Z 27013KT 5000 HZ NSC 24/04 Q1013 NOSIG",
      "taf": "TAF OJAI 011053Z 0112/0218 30012KT 5000 HZ NSC"
    },
    {
      "icao": "OMAA",
      "alert": "OK",
      "vis_m": 9999,
      "fzfg": false,
      "metar_trigger": false,
      "taf_trigger": false,
      "metar": "METAR OMAA 011330Z 32010KT CAVOK 33/20 Q1006 NOSIG",
      "taf": "TAF OMAA 011100Z 0112/0218 34010KT CAVOK"
    },
    {
      "icao": "OMDB",
      "alert": "OK",
      "vis_m": 9999,
      "fzfg": false,
      "metar_trigger": false,
      "taf_trigger": false,
      "metar": "METAR OMDB 011330Z 28008KT 240V310 CAVOK 36/16 Q1006 NOSIG",
      "taf": "TAF OMDB 011100Z 0112/0218 30010KT CAVOK"
    },
    {
      "icao": "UAAA",
      "alert": "OK",
      "vis_m": 9999,
      "fzfg": false,
      "metar_trigger": false,
      "taf_trigger": false,
      "metar": "METAR UAAA 011330Z 09002MPS 9999 SCT050CB BKN100 23/07 Q1013 NOSIG",
      "taf": "TAF UAAA 010502Z 0106/0206 28003MPS 9999 SCT050CB BKN100 TX27/0109Z TN12/0201Z"
    },
    {
      "icao": "UBBB",
      "alert": "OK",
      "vis_m": 9999,
      "fzfg": false,
      "metar_trigger": false,
      "taf_trigger": false,
      "metar": "METAR UBBB 011330Z 16020KT CAVOK 15/10 Q1015 NOSIG",
      "taf": "TAF UBBB 011052Z 0112/0212 16020KT 9999 SCT025 TX17/0112Z TN11/0201Z"
    },
    {
      "icao": "UDSG",
      "alert": "OK",
      "vis_m": 9999,
      "fzfg": false,
      "metar_trigger": false,
      "taf_trigger": false,
      "metar": "METAR UDSG 011330Z 15013KT 9999 VCTS BKN043CB 16/04 Q1014 TEMPO -TSRA",
      "taf": "TAF UDSG 010500Z 0106/0206 22006KT 9999 SCT040"
    },
    {
      "icao": "UDYZ",
      "alert": "OK",
      "vis_m": 9999,
      "fzfg": false,
      "metar_trigger": false,
      "taf_trigger": false,
      "metar": "METAR UDYZ 011330Z COR 16007KT 9999 SCT043CB 24/05 Q1011 NOSIG",
      "taf": ""
    },
    {
      "icao": "UGKO",
      "alert": "OK",
      "vis_m": 9999,
      "fzfg": false,
      "metar_trigger": false,
      "taf_trigger": false,
      "metar": "METAR UGKO 011330Z 27020G34KT 9999 BKN096 17/10 Q1011 NOSIG",
      "taf": "TAF UGKO 011100Z 0112/0212 09012KT CAVOK TX25/0112Z TN10/0202Z"
    }
  ]
}