{
  "ts_utc": "2026-03-13T16:20:42Z",
  "threshold_m": 150,
  "source": "stations_override.txt (ICAO list) + aviationweather.gov (METAR/TAF raw)",
  "station_count": 159,
  "stations": [
    {
      "icao": "BIKF",
      "alert": "OK",
      "vis_m": 9999,
      "fzfg": false,
      "metar_trigger": false,
      "taf_trigger": false,
      "metar": "METAR BIKF 131600Z 34015KT 9999 SCT027 02/M03 Q0981",
      "taf": "TAF BIKF 131332Z 1315/1415 32018KT 9999 SCT024 BKN035 TX04/1415Z TNM02/1323Z"
    },
    {
      "icao": "BKPR",
      "alert": "OK",
      "vis_m": 9999,
      "fzfg": false,
      "metar_trigger": false,
      "taf_trigger": false,
      "metar": "METAR BKPR 131600Z 08005KT 9999 FEW080 16/M01 Q1015 NOSIG",
      "taf": "TAF BKPR 131130Z 1312/1412 VRB03KT 9999 FEW040"
    },
    {
      "icao": "EBCI",
      "alert": "OK",
      "vis_m": 9999,
      "fzfg": false,
      "metar_trigger": false,
      "taf_trigger": false,
      "metar": "METAR EBCI 131550Z 17008KT CAVOK 05/04 Q1004 NOSIG",
      "taf": "TAF EBCI 131120Z 1312/1418 27010KT 9999 SCT020 BKN030"
    },
    {
      "icao": "EDDB",
      "alert": "OK",
      "vis_m": 9999,
      "fzfg": false,
      "metar_trigger": false,
      "taf_trigger": false,
      "metar": "METAR EDDB 131550Z AUTO 20014KT CAVOK 15/03 Q1005 NOSIG",
      "taf": "TAF EDDB 131100Z 1312/1412 20015G25KT CAVOK"
    },
    {
      "icao": "EDDH",
      "alert": "OK",
      "vis_m": 9999,
      "fzfg": false,
      "metar_trigger": false,
      "taf_trigger": false,
      "metar": "METAR EDDH 131550Z AUTO 26005KT 230V300 9999 -RA FEW012 SCT017 OVC039 07/05 Q1003 TEMPO BKN014",
      "taf": "TAF EDDH 131100Z 1312/1418 20020G30KT 9999 BKN025"
    },
    {
      "icao": "EDDK",
      "alert": "OK",
      "vis_m": 8000,
      "fzfg": false,
      "metar_trigger": false,
      "taf_trigger": false,
      "metar": "METAR EDDK 131550Z AUTO 32010KT 8000 -RA FEW006 BKN017 BKN022 08/06 Q1004 NOSIG",
      "taf": "TAF EDDK 131100Z 1312/1418 19015G25KT 9999 OVC025"
    },
    {
      "icao": "EDDN",
      "alert": "OK",
      "vis_m": 9999,
      "fzfg": false,
      "metar_trigger": false,
      "taf_trigger": false,
      "metar": "METAR EDDN 131550Z AUTO 19011KT CAVOK 14/03 Q1008 NOSIG",
      "taf": "TAF EDDN 131100Z 1312/1412 19010KT CAVOK"
    },
    {
      "icao": "EDDS",
      "alert": "OK",
      "vis_m": 9999,
      "fzfg": false,
      "metar_trigger": false,
      "taf_trigger": false,
      "metar": "METAR EDDS 131550Z AUTO 22007KT 140V270 CAVOK 15/03 Q1007 NOSIG",
      "taf": "TAF EDDS 131100Z 1312/1412 20007KT CAVOK"
    },
    {
      "icao": "EDFH",
      "alert": "OK",
      "vis_m": 9999,
      "fzfg": false,
      "metar_trigger": false,
      "taf_trigger": false,
      "metar": "METAR EDFH 131550Z 19016KT 9999 -RA FEW015 SCT026 OVC030 09/07 Q1004",
      "taf": "TAF EDFH 131100Z 1312/1412 21015G25KT 9999 BKN015"
    },
    {
      "icao": "EDJA",
      "alert": "OK",
      "vis_m": 9999,
      "fzfg": false,
      "metar_trigger": false,
      "taf_trigger": false,
      "metar": "METAR EDJA 131550Z 25013KT CAVOK 13/M02 Q1009",
      "taf": "TAF EDJA 131400Z 1315/1324 23010KT CAVOK"
    },
    {
      "icao": "EDLW",
      "alert": "OK",
      "vis_m": 7000,
      "fzfg": false,
      "metar_trigger": false,
      "taf_trigger": false,
      "metar": "METAR EDLW 131550Z 29003KT 250V350 7000 -RA SCT005 BKN007 OVC025 07/06 Q1004",
      "taf": ""
    },
    {
      "icao": "EDNY",
      "alert": "OK",
      "vis_m": 9999,
      "fzfg": false,
      "metar_trigger": false,
      "taf_trigger": false,
      "metar": "METAR EDNY 131550Z 24005KT CAVOK 13/05 Q1009",
      "taf": "TAF EDNY 131400Z 1315/1324 24006KT CAVOK"
    },
    {
      "icao": "EDSB",
      "alert": "OK",
      "vis_m": 9999,
      "fzfg": false,
      "metar_trigger": false,
      "taf_trigger": false,
      "metar": "METAR EDSB 131550Z 20014KT CAVOK 15/05 Q1006",
      "taf": "TAF EDSB 131100Z 1312/1412 20015G25KT CAVOK"
    },
    {
      "icao": "EETN",
      "alert": "OK",
      "vis_m": 9999,
      "fzfg": false,
      "metar_trigger": false,
      "taf_trigger": false,
      "metar": "METAR EETN 131550Z 19013G23KT CAVOK 09/02 Q1009 TEMPO 19016G26KT",
      "taf": "TAF EETN 131130Z 1312/1412 18016G26KT CAVOK"
    },
    {
      "icao": "EFTU",
      "alert": "OK",
      "vis_m": 9999,
      "fzfg": false,
      "metar_trigger": false,
      "taf_trigger": false,
      "metar": "METAR EFTU 131550Z AUTO 20017G29KT CAVOK 06/01 Q1003",
      "taf": "TAF EFTU 131429Z 1315/1415 19019KT CAVOK"
    },
    {
      "icao": "EGBB",
      "alert": "OK",
      "vis_m": 9999,
      "fzfg": false,
      "metar_trigger": false,
      "taf_trigger": false,
      "metar": "METAR EGBB 131550Z 20008KT 9999 VCSH FEW049CB 08/00 Q0997",
      "taf": "TAF EGBB 131058Z 1312/1412 22010KT 9999 FEW045"
    },
    {
      "icao": "EGGP",
      "alert": "OK",
      "vis_m": 9999,
      "fzfg": false,
      "metar_trigger": false,
      "taf_trigger": false,
      "metar": "METAR EGGP 131550Z 23015KT 9999 VCSH BKN024 BKN046 07/02 Q0996",
      "taf": "TAF EGGP 131102Z 1312/1412 24016KT 9999 SCT030"
    },
    {
      "icao": "EGGW",
      "alert": "OK",
      "vis_m": 9999,
      "fzfg": false,
      "metar_trigger": false,
      "taf_trigger": false,
      "metar": "METAR EGGW 131550Z AUTO 24012KT 220V280 9999 FEW041 07/M01 Q0998",
      "taf": "TAF EGGW 131053Z 1312/1412 23013KT 9999 SCT023"
    },
    {
      "icao": "EGKK",
      "alert": "OK",
      "vis_m": 9999,
      "fzfg": false,
      "metar_trigger": false,
      "taf_trigger": false,
      "metar": "METAR EGKK 131550Z 26010KT 9999 FEW049 07/01 Q1000",
      "taf": "TAF EGKK 131056Z 1312/1418 25010KT 9999 FEW035"
    },
    {
      "icao": "EGNM",
      "alert": "OK",
      "vis_m": 9999,
      "fzfg": false,
      "metar_trigger": false,
      "taf_trigger": false,
      "metar": "METAR EGNM 131550Z 24016KT 9999 -SHRA SCT016 BKN028 05/02 Q0994",
      "taf": "TAF EGNM 131200Z 1312/1412 24025G37KT 9999 SCT025"
    },
    {
      "icao": "EGPD",
      "alert": "OK",
      "vis_m": 9999,
      "fzfg": false,
      "metar_trigger": false,
      "taf_trigger": false,
      "metar": "METAR EGPD 131550Z COR AUTO 24014KT 9999 NCD 09/M01 Q0986 NOSIG",
      "taf": "TAF EGPD 131058Z 1312/1412 24012KT 9999 FEW035"
    },
    {
      "icao": "EGPF",
      "alert": "OK",
      "vis_m": 9999,
      "fzfg": false,
      "metar_trigger": false,
      "taf_trigger": false,
      "metar": "METAR EGPF 131550Z AUTO 25013KT 9999 //////TCU 06/03 Q0990",
      "taf": "TAF EGPF 131058Z 1312/1412 23014KT 9999 FEW014 SCT030"
    },
    {
      "icao": "EHBK",
      "alert": "OK",
      "vis_m": 9999,
      "fzfg": false,
      "metar_trigger": false,
      "taf_trigger": false,
      "metar": "METAR EHBK 131555Z AUTO 25006KT 200V300 9999 -SHRA FEW012 BKN018 OVC025 06/04 Q1005 BECMG BKN018",
      "taf": "TAF EHBK 131059Z 1312/1418 27016KT 7000 RADZ BKN018"
    },
    {
      "icao": "EHEH",
      "alert": "OK",
      "vis_m": 9999,
      "fzfg": false,
      "metar_trigger": false,
      "taf_trigger": false,
      "metar": "METAR EHEH 131555Z AUTO 18008KT 150V210 9999 BKN040 BKN045 BKN056 05/04 Q1003 BLU TEMPO SCT015",
      "taf": ""
    },
    {
      "icao": "EKBI",
      "alert": "OK",
      "vis_m": 9999,
      "fzfg": false,
      "metar_trigger": false,
      "taf_trigger": false,
      "metar": "METAR EKBI 131550Z AUTO 22011KT 190V250 9999 BKN023/// BKN120/// 06/02 Q0999",
      "taf": "TAF EKBI 131427Z 1315/1415 22012KT 9999 BKN025"
    },
    {
      "icao": "EKCH",
      "alert": "OK",
      "vis_m": 9999,
      "fzfg": false,
      "metar_trigger": false,
      "taf_trigger": false,
      "metar": "METAR EKCH 131550Z AUTO 24009KT 9999 -RA FEW018/// OVC037/// 07/06 Q1002 NOSIG",
      "taf": "TAF EKCH 131427Z 1315/1415 18018KT 9999 BKN020"
    },
    {
      "icao": "ENAL",
      "alert": "OK",
      "vis_m": 9999,
      "fzfg": false,
      "metar_trigger": false,
      "taf_trigger": false,
      "metar": "METAR ENAL 131550Z 19011KT 150V210 9999 FEW014 SCT026 04/01 Q0978",
      "taf": "TAF ENAL 131400Z 1315/1324 17012KT 9999 FEW020TCU SCT050"
    },
    {
      "icao": "ENBR",
      "alert": "OK",
      "vis_m": 9999,
      "fzfg": false,
      "metar_trigger": false,
      "taf_trigger": false,
      "metar": "METAR ENBR 131550Z 15014KT 9999 -SHRA SCT010 BKN024 04/02 Q0984 TEMPO 19018G28KT 4000 SHRA BKN008 SCT015CB RMK WIND 1200FT 20016KT",
      "taf": "TAF ENBR 131100Z 1312/1412 16015KT 9999 -SHRA SCT007 BKN018"
    },
    {
      "icao": "ENGM",
      "alert": "OK",
      "vis_m": 9999,
      "fzfg": false,
      "metar_trigger": false,
      "taf_trigger": false,
      "metar": "METAR ENGM 131550Z 21020KT 9999 FEW030 BKN048 04/M01 Q0988 NOSIG",
      "taf": "TAF ENGM 131100Z 1312/1412 18015KT 9999 BKN012"
    },
    {
      "icao": "ENHD",
      "alert": "OK",
      "vis_m": 9999,
      "fzfg": false,
      "metar_trigger": false,
      "taf_trigger": false,
      "metar": "METAR ENHD 131550Z 20017KT 9999 VCSH FEW003 SCT016 BKN032 05/04 Q0986 RESHRA",
      "taf": "TAF ENHD 131400Z 1315/1323 19018KT 9999 -SHRA FEW012 BKN020"
    },
    {
      "icao": "ENTC",
      "alert": "OK",
      "vis_m": 9999,
      "fzfg": false,
      "metar_trigger": false,
      "taf_trigger": false,
      "metar": "METAR ENTC 131550Z VRB01KT 9999 BKN037 03/M00 Q0983 NOSIG RMK WIND 2600FT 18020KT",
      "taf": "TAF ENTC 131100Z 1312/1412 20008KT 9999 FEW015 SCT030"
    },
    {
      "icao": "ENTO",
      "alert": "OK",
      "vis_m": 9999,
      "fzfg": false,
      "metar_trigger": false,
      "taf_trigger": false,
      "metar": "METAR ENTO 131550Z 21016KT 9999 FEW039 05/01 Q0991 TEMPO 21016G26KT",
      "taf": ""
    },
    {
      "icao": "ENVA",
      "alert": "OK",
      "vis_m": 9999,
      "fzfg": false,
      "metar_trigger": false,
      "taf_trigger": false,
      "metar": "METAR ENVA 131550Z 14003KT 110V180 9999 -RA OVC030 03/02 Q0977 TEMPO 24010KT 4000 SHRASN BKN012 SCT030CB RMK WIND 670FT 17010KT",
      "taf": "TAF ENVA 131100Z 1312/1412 16012KT 9999 SCT060"
    },
    {
      "icao": "ENZV",
      "alert": "OK",
      "vis_m": 9999,
      "fzfg": false,
      "metar_trigger": false,
      "taf_trigger": false,
      "metar": "METAR ENZV 131550Z 19015KT 9999 SCT017 BKN021 BKN041 05/03 Q0988 TEMPO 20018G28KT 4000 SHRA BKN008 SCT015CB",
      "taf": "TAF ENZV 131100Z 1312/1412 19015KT 9000 -SHRA SCT015 BKN030"
    },
    {
      "icao": "EPGD",
      "alert": "OK",
      "vis_m": 9999,
      "fzfg": false,
      "metar_trigger": false,
      "taf_trigger": false,
      "metar": "METAR EPGD 131600Z 18017KT CAVOK 13/03 Q1007",
      "taf": "TAF EPGD 131130Z 1312/1412 18015KT CAVOK"
    },
    {
      "icao": "EPKK",
      "alert": "OK",
      "vis_m": 9999,
      "fzfg": false,
      "metar_trigger": false,
      "taf_trigger": false,
      "metar": "METAR EPKK 131600Z 20008KT CAVOK 16/01 Q1013",
      "taf": "TAF EPKK 131430Z 1315/1415 22007KT CAVOK"
    },
    {
      "icao": "EPKT",
      "alert": "OK",
      "vis_m": 9999,
      "fzfg": false,
      "metar_trigger": false,
      "taf_trigger": false,
      "metar": "METAR EPKT 131600Z 19011KT CAVOK 15/03 Q1012",
      "taf": "TAF EPKT 131130Z 1312/1412 21010KT CAVOK"
    },
    {
      "icao": "EPLB",
      "alert": "OK",
      "vis_m": 9999,
      "fzfg": false,
      "metar_trigger": false,
      "taf_trigger": false,
      "metar": "METAR EPLB 131600Z 16006KT CAVOK 15/05 Q1015",
      "taf": "TAF EPLB 131130Z 1312/1412 17010KT CAVOK"
    },
    {
      "icao": "EPMO",
      "alert": "OK",
      "vis_m": 9999,
      "fzfg": false,
      "metar_trigger": false,
      "taf_trigger": false,
      "metar": "METAR EPMO 131600Z 17009KT CAVOK 16/04 Q1012",
      "taf": "TAF EPMO 131130Z 1312/1412 17010KT CAVOK"
    },
    {
      "icao": "EPPO",
      "alert": "OK",
      "vis_m": 9999,
      "fzfg": false,
      "metar_trigger": false,
      "taf_trigger": false,
      "metar": "METAR EPPO 131600Z 19014KT CAVOK 16/03 Q1008",
      "taf": "TAF EPPO 131130Z 1312/1412 18012KT CAVOK"
    },
    {
      "icao": "EPRA",
      "alert": "OK",
      "vis_m": 9999,
      "fzfg": false,
      "metar_trigger": false,
      "taf_trigger": false,
      "metar": "METAR EPRA 131600Z 19007KT CAVOK 16/02 Q1014",
      "taf": "TAF EPRA 131430Z 1315/1324 17010KT CAVOK"
    },
    {
      "icao": "EPRZ",
      "alert": "OK",
      "vis_m": 9999,
      "fzfg": false,
      "metar_trigger": false,
      "taf_trigger": false,
      "metar": "METAR EPRZ 131600Z 17010KT CAVOK 16/03 Q1015",
      "taf": "TAF EPRZ 131130Z 1312/1412 18010KT CAVOK"
    },
    {
      "icao": "EPSC",
      "alert": "OK",
      "vis_m": 9999,
      "fzfg": false,
      "metar_trigger": false,
      "taf_trigger": false,
      "metar": "METAR EPSC 131600Z 17012KT CAVOK 15/01 Q1004",
      "taf": "TAF EPSC 131130Z 1312/1412 18015KT CAVOK"
    },
    {
      "icao": "EPSY",
      "alert": "OK",
      "vis_m": 9999,
      "fzfg": false,
      "metar_trigger": false,
      "taf_trigger": false,
      "metar": "METAR EPSY 131600Z 18010KT CAVOK 15/05 Q1012",
      "taf": "TAF EPSY 131430Z 1315/1324 18014KT 9999 SCT040"
    },
    {
      "icao": "EPWA",
      "alert": "OK",
      "vis_m": 9999,
      "fzfg": false,
      "metar_trigger": false,
      "taf_trigger": false,
      "metar": "METAR EPWA 131600Z 18006KT CAVOK 17/03 Q1013 NOSIG",
      "taf": "TAF EPWA 131430Z 1315/1415 17010KT CAVOK"
    },
    {
      "icao": "EPWR",
      "alert": "OK",
      "vis_m": 9999,
      "fzfg": false,
      "metar_trigger": false,
      "taf_trigger": false,
      "metar": "METAR EPWR 131600Z 17012KT CAVOK 16/05 Q1009",
      "taf": "TAF EPWR 131430Z 1315/1415 17012KT CAVOK"
    },
    {
      "icao": "ESGG",
      "alert": "OK",
      "vis_m": 9999,
      "fzfg": false,
      "metar_trigger": false,
      "taf_trigger": false,
      "metar": "METAR ESGG 131550Z 21011KT 9999 FEW009 04/03 Q0997",
      "taf": "TAF ESGG 131430Z 1315/1415 22012KT 9999 SCT006 OVC015"
    },
    {
      "icao": "ESKN",
      "alert": "OK",
      "vis_m": 9999,
      "fzfg": false,
      "metar_trigger": false,
      "taf_trigger": false,
      "metar": "METAR ESKN 131550Z 15008KT 9999 -DZ SCT040 BKN064 06/03 Q0998",
      "taf": "TAF ESKN 131430Z 1315/1415 17010KT CAVOK"
    },
    {
      "icao": "ESMS",
      "alert": "OK",
      "vis_m": 5000,
      "fzfg": false,
      "metar_trigger": false,
      "taf_trigger": false,
      "metar": "METAR ESMS 131550Z 22016KT 5000 -RA SCT009 BKN014 07/07 Q1001",
      "taf": "TAF ESMS 131427Z 1315/1415 20018KT 9999 BKN020"
    },
    {
      "icao": "ESSA",
      "alert": "OK",
      "vis_m": 9999,
      "fzfg": false,
      "metar_trigger": false,
      "taf_trigger": false,
      "metar": "METAR ESSA 131550Z 18021KT 9999 FEW042 06/02 Q0996 NOSIG",
      "taf": "TAF ESSA 131430Z 1315/1415 18020G35KT CAVOK"
    },
    {
      "icao": "EYKA",
      "alert": "OK",
      "vis_m": 9999,
      "fzfg": false,
      "metar_trigger": false,
      "taf_trigger": false,
      "metar": "METAR EYKA 131550Z 17006KT 120V220 CAVOK 15/03 Q1013",
      "taf": "TAF EYKA 131100Z 1312/1412 VRB05KT 9000 NSC"
    },
    {
      "icao": "EYPA",
      "alert": "OK",
      "vis_m": 9999,
      "fzfg": false,
      "metar_trigger": false,
      "taf_trigger": false,
      "metar": "METAR EYPA 131550Z 18015KT CAVOK 12/04 Q1009",
      "taf": "TAF EYPA 131100Z 1312/1412 19019KT 9000 NSC"
    },
    {
      "icao": "EYVI",
      "alert": "OK",
      "vis_m": 9999,
      "fzfg": false,
      "metar_trigger": false,
      "taf_trigger": false,
      "metar": "METAR EYVI 131550Z 14012KT CAVOK 13/05 Q1015 NOSIG",
      "taf": "TAF EYVI 131102Z 1312/1412 17012KT 9000 NSC"
    },
    {
      "icao": "GCFV",
      "alert": "OK",
      "vis_m": 9999,
      "fzfg": false,
      "metar_trigger": false,
      "taf_trigger": false,
      "metar": "METAR GCFV 131600Z 02015KT CAVOK 20/15 Q1018",
      "taf": "TAF GCFV 131400Z 1315/1415 03015KT CAVOK TX20/1414Z TN16/1406Z"
    },
    {
      "icao": "GCLP",
      "alert": "OK",
      "vis_m": 9999,
      "fzfg": false,
      "metar_trigger": false,
      "taf_trigger": false,
      "metar": "METAR GCLP 131600Z 02020KT 9999 FEW025 22/14 Q1018 NOSIG",
      "taf": "TAF GCLP 131400Z 1315/1415 01018KT 9999 FEW020 TX21/1414Z TN16/1406Z"
    },
    {
      "icao": "GCTS",
      "alert": "OK",
      "vis_m": 9999,
      "fzfg": false,
      "metar_trigger": false,
      "taf_trigger": false,
      "metar": "METAR GCTS 131600Z 08022KT CAVOK 23/11 Q1018 NOSIG",
      "taf": "TAF GCTS 131400Z 1315/1415 07022KT 9999 FEW025 TX22/1414Z TN16/1406Z"
    },
    {
      "icao": "GMAD",
      "alert": "OK",
      "vis_m": 9999,
      "fzfg": false,
      "metar_trigger": false,
      "taf_trigger": false,
      "metar": "METAR GMAD 131600Z 25018KT CAVOK 25/07 Q1016 NOSIG",
      "taf": "TAF GMAD 131100Z 1312/1418 26010KT CAVOK"
    },
    {
      "icao": "GMMN",
      "alert": "OK",
      "vis_m": 9999,
      "fzfg": false,
      "metar_trigger": false,
      "taf_trigger": false,
      "metar": "METAR GMMN 131600Z 33008KT 300V010 9999 FEW020 19/14 Q1019 NOSIG",
      "taf": "TAF GMMN 131100Z 1312/1418 24004KT 5000 BKN010"
    },
    {
      "icao": "GMMX",
      "alert": "OK",
      "vis_m": 9999,
      "fzfg": false,
      "metar_trigger": false,
      "taf_trigger": false,
      "metar": "METAR GMMX 131600Z 31006KT 260V020 9999 FEW026 25/07 Q1018 NOSIG",
      "taf": "TAF GMMX 131100Z 1312/1418 04006KT 8000 NSC"
    },
    {
      "icao": "HEGN",
      "alert": "OK",
      "vis_m": 9999,
      "fzfg": false,
      "metar_trigger": false,
      "taf_trigger": false,
      "metar": "METAR HEGN 131600Z 13007KT 9999 SCT020 BKN025 23/17 Q1008 NOSIG",
      "taf": "TAF HEGN 131100Z 1312/1418 11015KT 6000 SCT025"
    },
    {
      "icao": "HEMA",
      "alert": "OK",
      "vis_m": 9999,
      "fzfg": false,
      "metar_trigger": false,
      "taf_trigger": false,
      "metar": "METAR HEMA 131600Z 13006KT CAVOK 24/13 Q1009 NOSIG",
      "taf": "TAF HEMA 131100Z 1312/1418 10015KT 6000 SCT025"
    },
    {
      "icao": "HESH",
      "alert": "OK",
      "vis_m": 9999,
      "fzfg": false,
      "metar_trigger": false,
      "taf_trigger": false,
      "metar": "METAR HESH 131600Z 00000KT CAVOK 24/12 Q1010 NOSIG",
      "taf": "TAF HESH 131100Z 1312/1418 15015KT 6000 SCT025"
    },
    {
      "icao": "HESX",
      "alert": "OK",
      "vis_m": 6000,
      "fzfg": false,
      "metar_trigger": false,
      "taf_trigger": false,
      "metar": "METAR HESX 131600Z 07019KT 6000 SCT030 BKN100 18/09 Q1004 NOSIG",
      "taf": "TAF HESX 131106Z 1312/1418 08018G28KT 6000 BKN025"
    },
    {
      "icao": "LATI",
      "alert": "OK",
      "vis_m": null,
      "fzfg": false,
      "metar_trigger": false,
      "taf_trigger": false,
      "metar": "",
      "taf": "TAF LATI 131100Z 1312/1412 32008KT CAVOK TX20/1312Z TN04/1405Z"
    },
    {
      "icao": "LBPD",
      "alert": "OK",
      "vis_m": 9999,
      "fzfg": false,
      "metar_trigger": false,
      "taf_trigger": false,
      "metar": "METAR LBPD 131600Z AUTO 12005KT 9999 NCD 12/M00 Q1018 NOSIG",
      "taf": "TAF LBPD 131100Z 1312/1412 VRB04KT CAVOK"
    },
    {
      "icao": "LBSF",
      "alert": "OK",
      "vis_m": 9999,
      "fzfg": false,
      "metar_trigger": false,
      "taf_trigger": false,
      "metar": "METAR LBSF 131600Z AUTO 13011KT 9999 NCD 12/M04 Q1017 NOSIG",
      "taf": "TAF LBSF 131100Z 1312/1412 11010KT CAVOK"
    },
    {
      "icao": "LBWN",
      "alert": "OK",
      "vis_m": 9999,
      "fzfg": false,
      "metar_trigger": false,
      "taf_trigger": false,
      "metar": "METAR LBWN 131600Z 13009KT CAVOK 07/07 Q1019 NOSIG",
      "taf": "TAF LBWN 131100Z 1312/1412 12010KT CAVOK"
    },
    {
      "icao": "LCLK",
      "alert": "OK",
      "vis_m": 9999,
      "fzfg": false,
      "metar_trigger": false,
      "taf_trigger": false,
      "metar": "METAR LCLK 131600Z 08011KT 9999 FEW030 18/11 Q1013 NOSIG",
      "taf": "TAF LCLK 131130Z 1312/1412 08014KT 9999 FEW025"
    },
    {
      "icao": "LCPH",
      "alert": "OK",
      "vis_m": 9999,
      "fzfg": false,
      "metar_trigger": false,
      "taf_trigger": false,
      "metar": "METAR LCPH 131600Z 15011KT 9999 FEW030 18/10 Q1013 NOSIG",
      "taf": "TAF LCPH 131130Z 1312/1412 22006KT 9999 FEW020"
    },
    {
      "icao": "LEAL",
      "alert": "OK",
      "vis_m": 9999,
      "fzfg": false,
      "metar_trigger": false,
      "taf_trigger": false,
      "metar": "METAR LEAL 131600Z 18011KT 150V210 CAVOK 21/13 Q1015 NOSIG",
      "taf": "TAF LEAL 131100Z 1312/1412 VRB04KT CAVOK TX23/1312Z TN12/1406Z"
    },
    {
      "icao": "LEBB",
      "alert": "OK",
      "vis_m": 9999,
      "fzfg": false,
      "metar_trigger": false,
      "taf_trigger": false,
      "metar": "METAR LEBB 131600Z 29004KT 260V320 9999 FEW070 18/09 Q1013 NOSIG",
      "taf": "TAF LEBB 131100Z 1312/1412 32009KT 9999 FEW040 TX20/1313Z TN07/1407Z"
    },
    {
      "icao": "LEBL",
      "alert": "OK",
      "vis_m": 9999,
      "fzfg": false,
      "metar_trigger": false,
      "taf_trigger": false,
      "metar": "METAR LEBL 131600Z 21009KT 9999 FEW018 15/12 Q1015 NOSIG",
      "taf": "TAF LEBL 131100Z 1312/1412 17006KT 9999 SCT015 TX17/1313Z TN08/1406Z"
    },
    {
      "icao": "LECH",
      "alert": "OK",
      "vis_m": 9999,
      "fzfg": false,
      "metar_trigger": false,
      "taf_trigger": false,
      "metar": "METAR LECH 131600Z AUTO 12007KT 090V150 CAVOK 17/09 Q1015",
      "taf": ""
    },
    {
      "icao": "LEMD",
      "alert": "OK",
      "vis_m": 9999,
      "fzfg": false,
      "metar_trigger": false,
      "taf_trigger": false,
      "metar": "METAR LEMD 131600Z 20009G20KT 170V250 9999 FEW055 18/06 Q1016 NOSIG",
      "taf": ""
    },
    {
      "icao": "LEMG",
      "alert": "OK",
      "vis_m": 9999,
      "fzfg": false,
      "metar_trigger": false,
      "taf_trigger": false,
      "metar": "METAR LEMG 131600Z 14006KT 100V190 9999 FEW030 19/11 Q1018 NOSIG",
      "taf": "TAF LEMG 131100Z 1312/1412 14010KT CAVOK TX19/1315Z TN10/1407Z"
    },
    {
      "icao": "LEVC",
      "alert": "OK",
      "vis_m": 9999,
      "fzfg": false,
      "metar_trigger": false,
      "taf_trigger": false,
      "metar": "METAR LEVC 131600Z 09008KT 050V140 CAVOK 19/12 Q1014 NOSIG",
      "taf": "TAF LEVC 131100Z 1312/1412 11010KT CAVOK TX23/1314Z TN11/1406Z"
    },
    {
      "icao": "LEXJ",
      "alert": "OK",
      "vis_m": 9999,
      "fzfg": false,
      "metar_trigger": false,
      "taf_trigger": false,
      "metar": "METAR LEXJ 131600Z 30011KT 270V330 9999 FEW025 BKN040 13/09 Q1014",
      "taf": "TAF LEXJ 131400Z 1315/1415 29009KT 9999 SCT035 TX15/1315Z TN08/1408Z"
    },
    {
      "icao": "LEZG",
      "alert": "OK",
      "vis_m": 9999,
      "fzfg": false,
      "metar_trigger": false,
      "taf_trigger": false,
      "metar": "METAR LEZG 131600Z 03005KT 350V070 9999 FEW050 22/07 Q1013 NOSIG",
      "taf": "TAF LEZG 131100Z 1312/1412 27009KT CAVOK TX21/1314Z TN07/1406Z"
    },
    {
      "icao": "LEZL",
      "alert": "OK",
      "vis_m": 9999,
      "fzfg": false,
      "metar_trigger": false,
      "taf_trigger": false,
      "metar": "METAR LEZL 131600Z 17005KT 140V230 9999 FEW049 24/08 Q1017 NOSIG",
      "taf": "TAF LEZL 131400Z 1315/1415 VRB03KT CAVOK TX24/1315Z TN10/1407Z"
    },
    {
      "icao": "LFBD",
      "alert": "OK",
      "vis_m": 9999,
      "fzfg": false,
      "metar_trigger": false,
      "taf_trigger": false,
      "metar": "METAR LFBD 131600Z AUTO 26017KT 9999 SCT029 BKN041 OVC047 14/10 Q1011 TEMPO 4000 -RA BKN009 BECMG 23010G20KT",
      "taf": ""
    },
    {
      "icao": "LFLL",
      "alert": "OK",
      "vis_m": 9999,
      "fzfg": false,
      "metar_trigger": false,
      "taf_trigger": false,
      "metar": "METAR LFLL 131600Z 18016KT CAVOK 16/02 Q1010 NOSIG",
      "taf": "TAF LFLL 131100Z 1312/1418 18012KT CAVOK"
    },
    {
      "icao": "LFLS",
      "alert": "OK",
      "vis_m": 9999,
      "fzfg": false,
      "metar_trigger": false,
      "taf_trigger": false,
      "metar": "METAR LFLS 131600Z AUTO 20014KT CAVOK 14/03 Q1011 TEMPO 21015G25KT",
      "taf": "TAF LFLS 131400Z 1315/1415 22010KT CAVOK"
    },
    {
      "icao": "LFMN",
      "alert": "OK",
      "vis_m": 9999,
      "fzfg": false,
      "metar_trigger": false,
      "taf_trigger": false,
      "metar": "METAR LFMN 131600Z 19008KT CAVOK 16/11 Q1015 NOSIG",
      "taf": "TAF LFMN 131400Z 1315/1421 18010KT CAVOK"
    },
    {
      "icao": "LFOB",
      "alert": "OK",
      "vis_m": 9999,
      "fzfg": false,
      "metar_trigger": false,
      "taf_trigger": false,
      "metar": "METAR LFOB 131600Z AUTO 24004KT 200V270 9999 -RA SCT029/// BKN041/// BKN048/// ///TCU 06/05 Q1004 TEMPO 3000 SHRA BKN007 BKN012",
      "taf": "TAF LFOB 131100Z 1312/1412 30012KT 9999 BKN025 OVC040"
    },
    {
      "icao": "LFPO",
      "alert": "OK",
      "vis_m": 8000,
      "fzfg": false,
      "metar_trigger": false,
      "taf_trigger": false,
      "metar": "METAR LFPO 131600Z 26003KT 8000 -RA FEW008 BKN012 BKN017 07/07 Q1005 NOSIG",
      "taf": ""
    },
    {
      "icao": "LFSB",
      "alert": "OK",
      "vis_m": 9999,
      "fzfg": false,
      "metar_trigger": false,
      "taf_trigger": false,
      "metar": "METAR LFSB 131600Z AUTO VRB02KT CAVOK 17/03 Q1008 NOSIG",
      "taf": "TAF LFSB 131100Z 1312/1412 16006KT CAVOK"
    },
    {
      "icao": "LGAV",
      "alert": "OK",
      "vis_m": 9999,
      "fzfg": false,
      "metar_trigger": false,
      "taf_trigger": false,
      "metar": "METAR LGAV 131550Z 04013KT 9999 FEW025 11/05 Q1016 NOSIG",
      "taf": "TAF LGAV 131100Z 1312/1412 35015KT 9999 FEW025"
    },
    {
      "icao": "LGTS",
      "alert": "OK",
      "vis_m": 9999,
      "fzfg": false,
      "metar_trigger": false,
      "taf_trigger": false,
      "metar": "METAR LGTS 131550Z 18010KT 9999 FEW025 14/08 Q1017 NOSIG",
      "taf": "TAF LGTS 131100Z 1312/1412 VRB03KT 9999 FEW030"
    },
    {
      "icao": "LHBP",
      "alert": "OK",
      "vis_m": 9999,
      "fzfg": false,
      "metar_trigger": false,
      "taf_trigger": false,
      "metar": "SPECI LHBP 131602Z 14011KT 9999 VCSH SCT055TCU BKN070 17/04 Q1015 TEMPO -SHRA",
      "taf": "TAF LHBP 131115Z 1312/1412 14008KT CAVOK"
    },
    {
      "icao": "LHDC",
      "alert": "OK",
      "vis_m": 9999,
      "fzfg": false,
      "metar_trigger": false,
      "taf_trigger": false,
      "metar": "METAR LHDC 131545Z AUTO 17004KT 140V200 CAVOK 17/03 Q1016 NOSIG",
      "taf": "TAF LHDC 131415Z 1315/1324 19006KT CAVOK"
    },
    {
      "icao": "LIBD",
      "alert": "OK",
      "vis_m": 9999,
      "fzfg": false,
      "metar_trigger": false,
      "taf_trigger": false,
      "metar": "METAR LIBD 131550Z 02004KT 340V080 9999 FEW015 14/11 Q1015",
      "taf": "TAF LIBD 131100Z 1312/1412 04010KT 9999 SCT015"
    },
    {
      "icao": "LIBG",
      "alert": "OK",
      "vis_m": 9999,
      "fzfg": false,
      "metar_trigger": false,
      "taf_trigger": false,
      "metar": "METAR LIBG 131550Z 13005KT 090V160 9999 SCT030 15/11 Q1015 RETS",
      "taf": "TAF LIBG 131400Z 1315/1324 VRB04KT 9999 SCT020"
    },
    {
      "icao": "LIBP",
      "alert": "OK",
      "vis_m": 9999,
      "fzfg": false,
      "metar_trigger": false,
      "taf_trigger": false,
      "metar": "METAR LIBP 131550Z AUTO 03005KT 9999 BKN011/// 13/11 Q1016",
      "taf": "TAF LIBP 131100Z 1312/1412 05010KT 9999 SCT015"
    },
    {
      "icao": "LIBR",
      "alert": "OK",
      "vis_m": 9999,
      "fzfg": false,
      "metar_trigger": false,
      "taf_trigger": false,
      "metar": "METAR LIBR 131550Z 02005KT 9999 FEW020 14/10 Q1015",
      "taf": "TAF LIBR 131100Z 1312/1412 03010KT 9999 SCT020"
    },
    {
      "icao": "LICA",
      "alert": "OK",
      "vis_m": 9999,
      "fzfg": false,
      "metar_trigger": false,
      "taf_trigger": false,
      "metar": "METAR LICA 131550Z AUTO 07010KT 9999 BKN053/// BKN093/// 16/10 Q1015",
      "taf": "TAF LICA 131100Z 1312/1412 26010KT 9999 SCT020"
    },
    {
      "icao": "LICC",
      "alert": "OK",
      "vis_m": 9999,
      "fzfg": false,
      "metar_trigger": false,
      "taf_trigger": false,
      "metar": "METAR LICC 131550Z 08005KT 9999 SCT040 BKN080 15/12 Q1015",
      "taf": "TAF LICC 131100Z 1312/1412 12010KT 9999 SCT030"
    },
    {
      "icao": "LICJ",
      "alert": "OK",
      "vis_m": 9999,
      "fzfg": false,
      "metar_trigger": false,
      "taf_trigger": false,
      "metar": "METAR LICJ 131550Z 20009KT 9999 SCT040 14/10 Q1015",
      "taf": "TAF LICJ 131100Z 1312/1412 24010KT 9999 SCT040"
    },
    {
      "icao": "LIMC",
      "alert": "OK",
      "vis_m": 9999,
      "fzfg": false,
      "metar_trigger": false,
      "taf_trigger": false,
      "metar": "METAR LIMC 131550Z 19004KT 160V230 9999 SCT045 17/06 Q1014 NOSIG",
      "taf": "TAF LIMC 131100Z 1312/1418 VRB04KT 9999 FEW040"
    },
    {
      "icao": "LIME",
      "alert": "OK",
      "vis_m": 6000,
      "fzfg": false,
      "metar_trigger": false,
      "taf_trigger": false,
      "metar": "METAR LIME 131550Z 18005KT 120V210 6000 SCT035 15/07 Q1014 NOSIG",
      "taf": "TAF LIME 131100Z 1312/1412 VRB04KT 9999 FEW030"
    },
    {
      "icao": "LIMF",
      "alert": "OK",
      "vis_m": 9999,
      "fzfg": false,
      "metar_trigger": false,
      "taf_trigger": false,
      "metar": "METAR LIMF 131550Z 12003KT 9999 FEW050 SCT070 16/05 Q1014",
      "taf": "TAF LIMF 131100Z 1312/1412 VRB04KT CAVOK"
    },
    {
      "icao": "LIMJ",
      "alert": "OK",
      "vis_m": 9999,
      "fzfg": false,
      "metar_trigger": false,
      "taf_trigger": false,
      "metar": "METAR LIMJ 131550Z 19004KT CAVOK 15/09 Q1015",
      "taf": "TAF LIMJ 131100Z 1312/1412 VRB05KT CAVOK"
    },
    {
      "icao": "LIPE",
      "alert": "OK",
      "vis_m": 9999,
      "fzfg": false,
      "metar_trigger": false,
      "taf_trigger": false,
      "metar": "METAR LIPE 131550Z 07006KT CAVOK 17/09 Q1014",
      "taf": "TAF LIPE 131100Z 1312/1412 VRB05KT 7000 SCT050"
    },
    {
      "icao": "LIPH",
      "alert": "OK",
      "vis_m": 9999,
      "fzfg": false,
      "metar_trigger": false,
      "taf_trigger": false,
      "metar": "METAR LIPH 131550Z 18004KT 150V230 9999 SCT040 17/09 Q1014",
      "taf": "TAF LIPH 131100Z 1312/1412 VRB05KT 9999 FEW030"
    },
    {
      "icao": "LIPQ",
      "alert": "OK",
      "vis_m": 9999,
      "fzfg": false,
      "metar_trigger": false,
      "taf_trigger": false,
      "metar": "METAR LIPQ 131550Z AUTO 21004KT 180V250 9999 NCD 15/09 Q1015",
      "taf": "TAF LIPQ 131100Z 1312/1412 21010KT 9999 FEW040"
    },
    {
      "icao": "LIPR",
      "alert": "OK",
      "vis_m": 8000,
      "fzfg": false,
      "metar_trigger": false,
      "taf_trigger": false,
      "metar": "METAR LIPR 131550Z 09006KT 8000 FEW030 13/11 Q1015",
      "taf": "TAF LIPR 131100Z 1312/1412 04010KT 6000 SCT020"
    },
    {
      "icao": "LIPX",
      "alert": "OK",
      "vis_m": 9999,
      "fzfg": false,
      "metar_trigger": false,
      "taf_trigger": false,
      "metar": "METAR LIPX 131550Z VRB02KT 9999 FEW035 17/07 Q1015",
      "taf": "TAF LIPX 131100Z 1312/1412 VRB04KT 9999 FEW020"
    },
    {
      "icao": "LIPY",
      "alert": "OK",
      "vis_m": 9999,
      "fzfg": false,
      "metar_trigger": false,
      "taf_trigger": false,
      "metar": "METAR LIPY 131550Z AUTO 02003KT 9999 FEW003/// BKN170/// 13/12 Q1015",
      "taf": ""
    },
    {
      "icao": "LIPZ",
      "alert": "OK",
      "vis_m": 9999,
      "fzfg": false,
      "metar_trigger": false,
      "taf_trigger": false,
      "metar": "METAR LIPZ 131550Z 17004KT 140V200 CAVOK 15/10 Q1015 NOSIG",
      "taf": "TAF LIPZ 131100Z 1312/1418 VRB05KT 9999 FEW030"
    },
    {
      "icao": "LIRF",
      "alert": "OK",
      "vis_m": 9999,
      "fzfg": false,
      "metar_trigger": false,
      "taf_trigger": false,
      "metar": "METAR LIRF 131550Z 29005KT 9999 FEW035 15/09 Q1015 NOSIG",
      "taf": "TAF LIRF 131100Z 1312/1418 20010KT 9999 SCT030"
    },
    {
      "icao": "LIRN",
      "alert": "OK",
      "vis_m": 9999,
      "fzfg": false,
      "metar_trigger": false,
      "taf_trigger": false,
      "metar": "METAR LIRN 131550Z 20006KT 9999 FEW040 16/10 Q1015 NOSIG",
      "taf": "TAF LIRN 131100Z 1312/1412 VRB05KT 9999 SCT020"
    },
    {
      "icao": "LIRP",
      "alert": "OK",
      "vis_m": 9999,
      "fzfg": false,
      "metar_trigger": false,
      "taf_trigger": false,
      "metar": "METAR LIRP 131545Z 26008KT 9999 FEW030 16/09 Q1015 NOSIG",
      "taf": "TAF LIRP 131100Z 1312/1412 VRB04KT 9999 FEW030"
    },
    {
      "icao": "LIRZ",
      "alert": "OK",
      "vis_m": 9999,
      "fzfg": false,
      "metar_trigger": false,
      "taf_trigger": false,
      "metar": "METAR LIRZ 131550Z AUTO 18003KT 150V210 9999 FEW100/// 17/04 Q1014",
      "taf": "TAF LIRZ 131100Z 1312/1412 VRB05KT 9999 FEW040"
    },
    {
      "icao": "LJLJ",
      "alert": "OK",
      "vis_m": 9999,
      "fzfg": false,
      "metar_trigger": false,
      "taf_trigger": false,
      "metar": "METAR LJLJ 131600Z 21002KT 9999 FEW040 SCT060 15/07 Q1014 NOSIG",
      "taf": "TAF LJLJ 131100Z 1312/1412 12004KT 9999 FEW030 SCT050"
    },
    {
      "icao": "LKMT",
      "alert": "OK",
      "vis_m": 9999,
      "fzfg": false,
      "metar_trigger": false,
      "taf_trigger": false,
      "metar": "METAR LKMT 131600Z 18011KT CAVOK 15/04 Q1012 NOSIG",
      "taf": "TAF LKMT 131100Z 1312/1412 20018KT CAVOK"
    },
    {
      "icao": "LKPR",
      "alert": "OK",
      "vis_m": 9999,
      "fzfg": false,
      "metar_trigger": false,
      "taf_trigger": false,
      "metar": "METAR LKPR 131600Z 15011KT CAVOK 14/02 Q1009 NOSIG",
      "taf": "TAF LKPR 131400Z 1315/1421 17012KT CAVOK"
    },
    {
      "icao": "LLBG",
      "alert": "OK",
      "vis_m": 9999,
      "fzfg": false,
      "metar_trigger": false,
      "taf_trigger": false,
      "metar": "METAR LLBG 131550Z 02006KT CAVOK 19/06 Q1011 NOSIG RMK SCT100",
      "taf": "TAF LLBG 131103Z 1312/1412 35008KT CAVOK TX22/1312Z TN15/1400Z"
    },
    {
      "icao": "LMML",
      "alert": "OK",
      "vis_m": 9999,
      "fzfg": false,
      "metar_trigger": false,
      "taf_trigger": false,
      "metar": "METAR LMML 131615Z 27014KT 9999 FEW022 16/10 Q1016 NOSIG",
      "taf": "TAF LMML 131100Z 1312/1412 28008KT 9999 SCT018"
    },
    {
      "icao": "LOWW",
      "alert": "OK",
      "vis_m": 9999,
      "fzfg": false,
      "metar_trigger": false,
      "taf_trigger": false,
      "metar": "METAR LOWW 131550Z 16017KT CAVOK 16/05 Q1012 NOSIG",
      "taf": "TAF LOWW 131415Z 1315/1421 15011KT CAVOK TX18/1414Z TN07/1405Z"
    },
    {
      "icao": "LPFR",
      "alert": "OK",
      "vis_m": 9999,
      "fzfg": false,
      "metar_trigger": false,
      "taf_trigger": false,
      "metar": "METAR LPFR 131600Z 22009KT 9999 FEW040 18/14 Q1019",
      "taf": "TAF LPFR 131100Z 1312/1412 23012KT 9999 FEW030"
    },
    {
      "icao": "LPMA",
      "alert": "OK",
      "vis_m": 9999,
      "fzfg": false,
      "metar_trigger": false,
      "taf_trigger": false,
      "metar": "METAR LPMA 131600Z 02013KT 9999 BKN015 17/10 Q1024",
      "taf": "TAF LPMA 131100Z 1312/1412 02015KT 9999 SCT015"
    },
    {
      "icao": "LPPR",
      "alert": "OK",
      "vis_m": 2000,
      "fzfg": false,
      "metar_trigger": false,
      "taf_trigger": false,
      "metar": "METAR LPPR 131600Z 22009KT 2000 -DZ BR BKN003 13/13 Q1020",
      "taf": ""
    },
    {
      "icao": "LPPS",
      "alert": "OK",
      "vis_m": 9999,
      "fzfg": false,
      "metar_trigger": false,
      "taf_trigger": false,
      "metar": "METAR LPPS 131600Z 04011KT 360V090 9999 FEW015 BKN030 17/12 Q1025",
      "taf": "TAF LPPS 131100Z 1312/1418 05013KT 9999 SCT015 BKN030"
    },
    {
      "icao": "LPPT",
      "alert": "OK",
      "vis_m": 9999,
      "fzfg": false,
      "metar_trigger": false,
      "taf_trigger": false,
      "metar": "METAR LPPT 131600Z 30009KT 9999 BKN014 14/11 Q1022",
      "taf": ""
    },
    {
      "icao": "LQBK",
      "alert": "OK",
      "vis_m": 9999,
      "fzfg": false,
      "metar_trigger": false,
      "taf_trigger": false,
      "metar": "METAR LQBK 131600Z 19009KT 140V210 9999 FEW035TCU SCT047 16/02 Q1014 NOSIG",
      "taf": "TAF LQBK 131100Z 1312/1412 33005KT 9999 SCT045 TX17/1313Z TN04/1405Z"
    },
    {
      "icao": "LQSA",
      "alert": "OK",
      "vis_m": 9999,
      "fzfg": false,
      "metar_trigger": false,
      "taf_trigger": false,
      "metar": "METAR LQSA 131600Z 29009KT 260V330 9999 BKN055 13/02 Q1015 NOSIG",
      "taf": "TAF LQSA 131100Z 1312/1412 VRB02KT 9999 SCT055 TX17/1313Z TN01/1405Z"
    },
    {
      "icao": "LQTZ",
      "alert": "OK",
      "vis_m": 9999,
      "fzfg": false,
      "metar_trigger": false,
      "taf_trigger": false,
      "metar": "METAR LQTZ 131600Z 31004KT 9999 FEW060 15/04 Q1015",
      "taf": "TAF LQTZ 131100Z 1312/1412 VRB02KT 9999 SCT050 TX19/1313Z TN03/1405Z"
    },
    {
      "icao": "LRBC",
      "alert": "OK",
      "vis_m": 9999,
      "fzfg": false,
      "metar_trigger": false,
      "taf_trigger": false,
      "metar": "METAR LRBC 131600Z 14004KT CAVOK 13/M03 Q1020",
      "taf": "TAF LRBC 131400Z 1315/1324 16007KT CAVOK"
    },
    {
      "icao": "LRBS",
      "alert": "OK",
      "vis_m": 9999,
      "fzfg": false,
      "metar_trigger": false,
      "taf_trigger": false,
      "metar": "METAR LRBS 131600Z 05008KT 020V080 CAVOK 14/M00 Q1019 NOSIG",
      "taf": "TAF LRBS 131100Z 1312/1412 VRB04KT CAVOK"
    },
    {
      "icao": "LRBV",
      "alert": "OK",
      "vis_m": 9999,
      "fzfg": false,
      "metar_trigger": false,
      "taf_trigger": false,
      "metar": "METAR LRBV 131600Z 14010KT CAVOK 14/M08 Q1018",
      "taf": "TAF LRBV 131400Z 1315/1324 10012KT CAVOK"
    },
    {
      "icao": "LRCL",
      "alert": "OK",
      "vis_m": 9999,
      "fzfg": false,
      "metar_trigger": false,
      "taf_trigger": false,
      "metar": "METAR LRCL 131600Z 13005KT CAVOK 15/M04 Q1017",
      "taf": "TAF LRCL 131400Z 1315/1324 17006KT CAVOK"
    },
    {
      "icao": "LRCV",
      "alert": "OK",
      "vis_m": 9999,
      "fzfg": false,
      "metar_trigger": false,
      "taf_trigger": false,
      "metar": "METAR LRCV 131600Z 07006KT CAVOK 11/02 Q1019",
      "taf": "TAF LRCV 131400Z 1315/1324 09008KT CAVOK"
    },
    {
      "icao": "LRIA",
      "alert": "OK",
      "vis_m": 9999,
      "fzfg": false,
      "metar_trigger": false,
      "taf_trigger": false,
      "metar": "METAR LRIA 131600Z 13008KT CAVOK 13/M05 Q1021",
      "taf": "TAF LRIA 131400Z 1315/1324 12010KT CAVOK"
    },
    {
      "icao": "LROP",
      "alert": "OK",
      "vis_m": 9999,
      "fzfg": false,
      "metar_trigger": false,
      "taf_trigger": false,
      "metar": "METAR LROP 131600Z 07008KT CAVOK 13/M02 Q1020 NOSIG",
      "taf": "TAF LROP 131100Z 1312/1412 VRB04KT CAVOK"
    },
    {
      "icao": "LRSB",
      "alert": "OK",
      "vis_m": 9999,
      "fzfg": false,
      "metar_trigger": false,
      "taf_trigger": false,
      "metar": "METAR LRSB 131600Z 13007KT CAVOK 14/M05 Q1017",
      "taf": "TAF LRSB 131100Z 1312/1412 12012KT CAVOK"
    },
    {
      "icao": "LRSM",
      "alert": "OK",
      "vis_m": 9999,
      "fzfg": false,
      "metar_trigger": false,
      "taf_trigger": false,
      "metar": "METAR LRSM 131600Z 31003KT CAVOK 18/02 Q1016",
      "taf": "TAF LRSM 131400Z 1315/1324 VRB04KT CAVOK"
    },
    {
      "icao": "LRSV",
      "alert": "OK",
      "vis_m": 9999,
      "fzfg": false,
      "metar_trigger": false,
      "taf_trigger": false,
      "metar": "METAR LRSV 131600Z 20012KT CAVOK 11/M03 Q1019",
      "taf": "TAF LRSV 131400Z 1315/1324 18012KT CAVOK"
    },
    {
      "icao": "LRTM",
      "alert": "OK",
      "vis_m": 9999,
      "fzfg": false,
      "metar_trigger": false,
      "taf_trigger": false,
      "metar": "METAR LRTM 131600Z VRB01KT CAVOK 16/M01 Q1017",
      "taf": "TAF LRTM 131400Z 1315/1324 VRB04KT CAVOK"
    },
    {
      "icao": "LRTR",
      "alert": "OK",
      "vis_m": 9999,
      "fzfg": false,
      "metar_trigger": false,
      "taf_trigger": false,
      "metar": "METAR LRTR 131600Z VRB01KT CAVOK 16/04 Q1016",
      "taf": "TAF LRTR 131100Z 1312/1412 15006KT CAVOK"
    },
    {
      "icao": "LTAC",
      "alert": "OK",
      "vis_m": 9999,
      "fzfg": false,
      "metar_trigger": false,
      "taf_trigger": false,
      "metar": "METAR LTAC 131550Z 10011KT CAVOK 11/M08 Q1014 NOSIG RMK RWY21C 11013KT RWY03L 11012KT RWY21R 09012KT RWY03R 07010KT RWY21L 10009KT",
      "taf": "TAF LTAC 131040Z 1312/1412 VRB02KT 9999 FEW040"
    },
    {
      "icao": "LTFM",
      "alert": "OK",
      "vis_m": 9999,
      "fzfg": false,
      "metar_trigger": false,
      "taf_trigger": false,
      "metar": "METAR LTFM 131550Z 05012KT 9999 BKN019 08/03 Q1019 NOSIG RMK RWY17L 05009KT RWY34L 04011KT RWY16R 05010KT RWY36 05012KT RWY18 06009KT",
      "taf": "TAF LTFM 131040Z 1312/1418 05012KT 9999 BKN022"
    },
    {
      "icao": "LUKK",
      "alert": "OK",
      "vis_m": 9999,
      "fzfg": false,
      "metar_trigger": false,
      "taf_trigger": false,
      "metar": "METAR LUKK 131600Z 12007KT CAVOK 11/M02 Q1022 NOSIG",
      "taf": "TAF LUKK 131101Z 1312/1412 12009KT CAVOK"
    },
    {
      "icao": "LWOH",
      "alert": "OK",
      "vis_m": null,
      "fzfg": false,
      "metar_trigger": false,
      "taf_trigger": false,
      "metar": "",
      "taf": "TAF LWOH 131135Z 1312/1412 16008KT 9999 SCT040"
    },
    {
      "icao": "LWSK",
      "alert": "OK",
      "vis_m": 9999,
      "fzfg": false,
      "metar_trigger": false,
      "taf_trigger": false,
      "metar": "METAR LWSK 131550Z 15003KT 120V190 CAVOK 19/00 Q1014 NOSIG",
      "taf": "TAF LWSK 131430Z 1315/1415 VRB02KT CAVOK"
    },
    {
      "icao": "LYBE",
      "alert": "OK",
      "vis_m": 9999,
      "fzfg": false,
      "metar_trigger": false,
      "taf_trigger": false,
      "metar": "METAR LYBE 131600Z 10011KT CAVOK 16/M00 Q1016 NOSIG",
      "taf": "TAF LYBE 131100Z 1312/1412 12012KT CAVOK TX19/1313Z TN03/1405Z"
    },
    {
      "icao": "LYNI",
      "alert": "OK",
      "vis_m": 9999,
      "fzfg": false,
      "metar_trigger": false,
      "taf_trigger": false,
      "metar": "METAR LYNI 131600Z 05010KT CAVOK 15/01 Q1016 NOSIG",
      "taf": "TAF LYNI 131100Z 1312/1412 10007KT CAVOK TX19/1314Z TN03/1405Z"
    },
    {
      "icao": "LYPG",
      "alert": "OK",
      "vis_m": 9999,
      "fzfg": false,
      "metar_trigger": false,
      "taf_trigger": false,
      "metar": "METAR LYPG 131600Z 17004KT CAVOK 18/04 Q1014 NOSIG",
      "taf": "TAF LYPG 131100Z 1312/1412 16005KT 9999 FEW040 TX20/1313Z TN06/1405Z"
    },
    {
      "icao": "LZIB",
      "alert": "OK",
      "vis_m": 9999,
      "fzfg": false,
      "metar_trigger": false,
      "taf_trigger": false,
      "metar": "METAR LZIB 131600Z 15011KT CAVOK 16/05 Q1013 NOSIG",
      "taf": "TAF LZIB 131115Z 1312/1412 17010KT CAVOK"
    },
    {
      "icao": "LZKZ",
      "alert": "OK",
      "vis_m": 9999,
      "fzfg": false,
      "metar_trigger": false,
      "taf_trigger": false,
      "metar": "METAR LZKZ 131600Z 21007KT CAVOK 15/03 Q1016 NOSIG",
      "taf": "TAF LZKZ 131115Z 1312/1412 19009KT CAVOK"
    },
    {
      "icao": "LZTT",
      "alert": "OK",
      "vis_m": 9999,
      "fzfg": false,
      "metar_trigger": false,
      "taf_trigger": false,
      "metar": "METAR LZTT 131600Z 22007KT 9999 SCT050 11/03 Q1016 NOSIG",
      "taf": "TAF LZTT 131115Z 1312/1412 23008KT 9999 SCT050"
    },
    {
      "icao": "OEJN",
      "alert": "OK",
      "vis_m": 9999,
      "fzfg": false,
      "metar_trigger": false,
      "taf_trigger": false,
      "metar": "METAR OEJN 131600Z 32005KT CAVOK 27/18 Q1008 NOSIG",
      "taf": "TAF OEJN 131100Z 1312/1418 30012KT CAVOK"
    },
    {
      "icao": "OEMA",
      "alert": "OK",
      "vis_m": 9999,
      "fzfg": false,
      "metar_trigger": false,
      "taf_trigger": false,
      "metar": "METAR OEMA 131600Z 19006KT CAVOK 30/M06 Q1013 NOSIG",
      "taf": "TAF OEMA 131100Z 1312/1418 35008KT CAVOK"
    },
    {
      "icao": "OJAI",
      "alert": "OK",
      "vis_m": 4000,
      "fzfg": false,
      "metar_trigger": false,
      "taf_trigger": false,
      "metar": "METAR OJAI 131600Z 36004KT 4000 HZ NSC 17/01 Q1013 NOSIG",
      "taf": ""
    },
    {
      "icao": "OMAA",
      "alert": "OK",
      "vis_m": null,
      "fzfg": false,
      "metar_trigger": false,
      "taf_trigger": false,
      "metar": "",
      "taf": ""
    },
    {
      "icao": "OMDB",
      "alert": "OK",
      "vis_m": null,
      "fzfg": false,
      "metar_trigger": false,
      "taf_trigger": false,
      "metar": "",
      "taf": ""
    },
    {
      "icao": "UAAA",
      "alert": "OK",
      "vis_m": 4100,
      "fzfg": false,
      "metar_trigger": false,
      "taf_trigger": false,
      "metar": "METAR UAAA 131600Z 16001MPS 4100 BR FU FEW100 M02/M05 Q1032 NOSIG",
      "taf": "TAF UAAA 131101Z 1312/1412 20003MPS 3100 BR FU FEW011 SCT100 TX06/1409Z TNM07/1401Z"
    },
    {
      "icao": "UBBB",
      "alert": "OK",
      "vis_m": 9999,
      "fzfg": false,
      "metar_trigger": false,
      "taf_trigger": false,
      "metar": "METAR UBBB 131600Z COR 06002KT CAVOK 07/01 Q1026 NOSIG",
      "taf": "TAF UBBB 131055Z 1312/1412 03008KT 9999 SCT025 TX10/1312Z TN03/1402Z"
    },
    {
      "icao": "UDSG",
      "alert": "OK",
      "vis_m": 9999,
      "fzfg": false,
      "metar_trigger": false,
      "taf_trigger": false,
      "metar": "METAR UDSG 131600Z 10003KT 030V120 9999 FEW049 M02/M05 Q1020 NOSIG",
      "taf": "TAF UDSG 131100Z 1312/1412 VRB06KT 9999 BKN040"
    },
    {
      "icao": "UDYZ",
      "alert": "OK",
      "vis_m": 9999,
      "fzfg": false,
      "metar_trigger": false,
      "taf_trigger": false,
      "metar": "METAR UDYZ 131600Z 34005KT 9999 NSC 07/M03 Q1019 NOSIG",
      "taf": ""
    },
    {
      "icao": "UGKO",
      "alert": "OK",
      "vis_m": 9999,
      "fzfg": false,
      "metar_trigger": false,
      "taf_trigger": false,
      "metar": "METAR UGKO 131600Z 08023KT CAVOK 12/M03 Q1018 NOSIG",
      "taf": "TAF UGKO 131100Z 1312/1412 08020KT CAVOK TX17/1312Z TN09/1403Z"
    }
  ]
}