{
  "ts_utc": "2026-06-20T19:45:59Z",
  "threshold_m": 150,
  "source": "stations_override.txt (ICAO list) + aviationweather.gov (METAR/TAF raw)",
  "station_count": 159,
  "stations": [
    {
      "icao": "BIKF",
      "alert": "OK",
      "vis_m": 9999,
      "fzfg": false,
      "metar_trigger": false,
      "taf_trigger": false,
      "metar": "METAR BIKF 201930Z 01014KT CAVOK 12/04 Q1006",
      "taf": "TAF BIKF 201918Z 2021/2121 01014KT 9999 SCT030 TX11/2113Z TN05/2105Z"
    },
    {
      "icao": "BKPR",
      "alert": "OK",
      "vis_m": 9999,
      "fzfg": false,
      "metar_trigger": false,
      "taf_trigger": false,
      "metar": "METAR BKPR 201930Z 29003KT CAVOK 21/12 Q1024 NOSIG",
      "taf": "TAF BKPR 201730Z 2018/2118 01006KT CAVOK"
    },
    {
      "icao": "EBCI",
      "alert": "OK",
      "vis_m": 9999,
      "fzfg": false,
      "metar_trigger": false,
      "taf_trigger": false,
      "metar": "METAR EBCI 201920Z 01006KT CAVOK 27/19 Q1022 NOSIG",
      "taf": ""
    },
    {
      "icao": "EDDB",
      "alert": "OK",
      "vis_m": 9999,
      "fzfg": false,
      "metar_trigger": false,
      "taf_trigger": false,
      "metar": "METAR EDDB 201920Z AUTO VRB01KT CAVOK 24/21 Q1021 NOSIG",
      "taf": "TAF EDDB 201700Z 2018/2118 23004KT CAVOK"
    },
    {
      "icao": "EDDH",
      "alert": "OK",
      "vis_m": 9999,
      "fzfg": false,
      "metar_trigger": false,
      "taf_trigger": false,
      "metar": "METAR EDDH 201920Z AUTO 32010KT CAVOK 25/19 Q1020 NOSIG",
      "taf": "TAF EDDH 201700Z 2018/2124 33004KT CAVOK"
    },
    {
      "icao": "EDDK",
      "alert": "OK",
      "vis_m": 9999,
      "fzfg": false,
      "metar_trigger": false,
      "taf_trigger": false,
      "metar": "METAR EDDK 201920Z AUTO 34006KT CAVOK 27/20 Q1021 NOSIG",
      "taf": "TAF EDDK 201700Z 2018/2124 32007KT CAVOK"
    },
    {
      "icao": "EDDN",
      "alert": "OK",
      "vis_m": 9999,
      "fzfg": false,
      "metar_trigger": false,
      "taf_trigger": false,
      "metar": "METAR EDDN 201920Z AUTO 02004KT CAVOK 28/15 Q1021 NOSIG",
      "taf": "TAF EDDN 201700Z 2018/2118 VRB03KT CAVOK"
    },
    {
      "icao": "EDDS",
      "alert": "OK",
      "vis_m": 9999,
      "fzfg": false,
      "metar_trigger": false,
      "taf_trigger": false,
      "metar": "METAR EDDS 201920Z AUTO VRB04KT CAVOK 30/12 Q1022 NOSIG",
      "taf": "TAF EDDS 201700Z 2018/2118 30006KT CAVOK"
    },
    {
      "icao": "EDFH",
      "alert": "OK",
      "vis_m": 9999,
      "fzfg": false,
      "metar_trigger": false,
      "taf_trigger": false,
      "metar": "METAR EDFH 201920Z 28003KT 250V320 CAVOK 27/15 Q1023",
      "taf": "TAF EDFH 201700Z 2018/2118 36006KT CAVOK"
    },
    {
      "icao": "EDJA",
      "alert": "OK",
      "vis_m": 9999,
      "fzfg": false,
      "metar_trigger": false,
      "taf_trigger": false,
      "metar": "METAR EDJA 201920Z 21003KT CAVOK 27/15 Q1024",
      "taf": "TAF EDJA 201700Z 2018/2103 27007KT CAVOK"
    },
    {
      "icao": "EDLW",
      "alert": "OK",
      "vis_m": 9999,
      "fzfg": false,
      "metar_trigger": false,
      "taf_trigger": false,
      "metar": "METAR EDLW 201920Z VRB02KT CAVOK 26/20 Q1021",
      "taf": "TAF EDLW 201700Z 2018/2118 20008KT CAVOK"
    },
    {
      "icao": "EDNY",
      "alert": "OK",
      "vis_m": 9999,
      "fzfg": false,
      "metar_trigger": false,
      "taf_trigger": false,
      "metar": "METAR EDNY 201920Z AUTO 00000KT 9999 // NCD 25/17 Q1023",
      "taf": "TAF EDNY 201700Z 2018/2103 24005KT CAVOK"
    },
    {
      "icao": "EDSB",
      "alert": "OK",
      "vis_m": 9999,
      "fzfg": false,
      "metar_trigger": false,
      "taf_trigger": false,
      "metar": "METAR EDSB 201920Z 00000KT CAVOK 28/18 Q1020",
      "taf": "TAF EDSB 201700Z 2018/2118 VRB03KT CAVOK"
    },
    {
      "icao": "EETN",
      "alert": "OK",
      "vis_m": 9999,
      "fzfg": false,
      "metar_trigger": false,
      "taf_trigger": false,
      "metar": "METAR EETN 201920Z 21007KT CAVOK 22/16 Q1019 NOSIG",
      "taf": "TAF EETN 201730Z 2018/2118 20010KT 9999 FEW035"
    },
    {
      "icao": "EFTU",
      "alert": "OK",
      "vis_m": 9999,
      "fzfg": false,
      "metar_trigger": false,
      "taf_trigger": false,
      "metar": "METAR EFTU 201920Z AUTO 18008KT CAVOK 18/15 Q1015",
      "taf": "TAF EFTU 201733Z 2018/2118 20009KT CAVOK"
    },
    {
      "icao": "EGBB",
      "alert": "OK",
      "vis_m": 9999,
      "fzfg": false,
      "metar_trigger": false,
      "taf_trigger": false,
      "metar": "METAR EGBB 201920Z 36005KT 330V030 9999 SCT048 21/12 Q1022",
      "taf": "TAF EGBB 201656Z 2018/2118 29006KT 9999 SCT045"
    },
    {
      "icao": "EGGP",
      "alert": "OK",
      "vis_m": 9999,
      "fzfg": false,
      "metar_trigger": false,
      "taf_trigger": false,
      "metar": "METAR EGGP 201920Z 33006KT 300V020 CAVOK 17/08 Q1023",
      "taf": "TAF EGGP 201659Z 2018/2118 31010KT 9999 FEW040"
    },
    {
      "icao": "EGGW",
      "alert": "OK",
      "vis_m": 9999,
      "fzfg": false,
      "metar_trigger": false,
      "taf_trigger": false,
      "metar": "METAR EGGW 201920Z AUTO 27005KT 240V300 9999 FEW029 BKN040 22/16 Q1021",
      "taf": "TAF EGGW 201658Z 2018/2118 30005KT 9999 SCT030"
    },
    {
      "icao": "EGKK",
      "alert": "OK",
      "vis_m": 9999,
      "fzfg": false,
      "metar_trigger": false,
      "taf_trigger": false,
      "metar": "METAR EGKK 201920Z 24004KT 9999 FEW030 23/18 Q1021",
      "taf": "TAF EGKK 201659Z 2018/2124 22010KT 9999 SCT025"
    },
    {
      "icao": "EGNM",
      "alert": "OK",
      "vis_m": 9999,
      "fzfg": false,
      "metar_trigger": false,
      "taf_trigger": false,
      "metar": "METAR EGNM 201920Z 31006KT CAVOK 17/10 Q1022",
      "taf": "TAF EGNM 201659Z 2018/2118 29007KT 9999 FEW035"
    },
    {
      "icao": "EGPD",
      "alert": "OK",
      "vis_m": 9999,
      "fzfg": false,
      "metar_trigger": false,
      "taf_trigger": false,
      "metar": "METAR EGPD 201920Z AUTO 10005KT 9999 NCD 15/09 Q1020",
      "taf": "TAF EGPD 201656Z 2018/2118 27006KT 9999 FEW045"
    },
    {
      "icao": "EGPF",
      "alert": "OK",
      "vis_m": 9999,
      "fzfg": false,
      "metar_trigger": false,
      "taf_trigger": false,
      "metar": "METAR EGPF 201920Z AUTO 22010KT 9999 NCD 16/10 Q1022",
      "taf": "TAF EGPF 201655Z 2018/2118 24010KT 9999 SCT030"
    },
    {
      "icao": "EHBK",
      "alert": "OK",
      "vis_m": 9999,
      "fzfg": false,
      "metar_trigger": false,
      "taf_trigger": false,
      "metar": "METAR EHBK 201925Z AUTO 36005KT 330V050 9999 NCD 27/18 Q1021 NOSIG",
      "taf": "TAF EHBK 201726Z 2018/2124 25006KT CAVOK"
    },
    {
      "icao": "EHEH",
      "alert": "OK",
      "vis_m": 9999,
      "fzfg": false,
      "metar_trigger": false,
      "taf_trigger": false,
      "metar": "METAR EHEH 201925Z AUTO 36003KT 330V030 9999 FEW330 24/17 Q1021 BLU BECMG VRB03KT",
      "taf": "TAF EHEH 201721Z 2018/2124 35006KT CAVOK"
    },
    {
      "icao": "EKBI",
      "alert": "OK",
      "vis_m": 9999,
      "fzfg": false,
      "metar_trigger": false,
      "taf_trigger": false,
      "metar": "METAR EKBI 201920Z AUTO 28008KT 9999 FEW150/// 20/16 Q1021",
      "taf": "TAF EKBI 201727Z 2018/2118 24012KT 9999 SCT025"
    },
    {
      "icao": "EKCH",
      "alert": "OK",
      "vis_m": 9999,
      "fzfg": false,
      "metar_trigger": false,
      "taf_trigger": false,
      "metar": "METAR EKCH 201920Z AUTO 21007KT 9999 FEW085/// SCT094/// 22/18 Q1020 NOSIG",
      "taf": "TAF EKCH 201727Z 2018/2118 18012KT 9999 FEW040"
    },
    {
      "icao": "ENAL",
      "alert": "OK",
      "vis_m": 9999,
      "fzfg": false,
      "metar_trigger": false,
      "taf_trigger": false,
      "metar": "METAR ENAL 201920Z 24017KT 9999 SCT050 13/09 Q1015",
      "taf": "TAF ENAL 201700Z 2018/2103 24015KT 9999 FEW025 SCT040"
    },
    {
      "icao": "ENBR",
      "alert": "OK",
      "vis_m": 9999,
      "fzfg": false,
      "metar_trigger": false,
      "taf_trigger": false,
      "metar": "METAR ENBR 201920Z 23005KT 190V260 9999 SCT021 12/10 Q1019 RMK WIND 1200FT 26009KT",
      "taf": "TAF ENBR 201700Z 2018/2118 25007KT 9999 FEW015 BKN030"
    },
    {
      "icao": "ENGM",
      "alert": "OK",
      "vis_m": 9999,
      "fzfg": false,
      "metar_trigger": false,
      "taf_trigger": false,
      "metar": "METAR ENGM 201920Z 19009KT 9999 FEW011 18/14 Q1013 NOSIG",
      "taf": "TAF ENGM 201700Z 2018/2118 20010KT 9999 SCT020"
    },
    {
      "icao": "ENHD",
      "alert": "OK",
      "vis_m": 9999,
      "fzfg": false,
      "metar_trigger": false,
      "taf_trigger": false,
      "metar": "METAR ENHD 201920Z AUTO 29006KT 9999 BKN013/// 14/10 Q1020",
      "taf": "TAF ENHD 201400Z 2015/2022 26008KT 8000 FEW003 SCT010"
    },
    {
      "icao": "ENTC",
      "alert": "OK",
      "vis_m": 9999,
      "fzfg": false,
      "metar_trigger": false,
      "taf_trigger": false,
      "metar": "METAR ENTC 201920Z 28012KT 9999 BKN024 12/07 Q1008 RMK WIND 2600FT 24018KT",
      "taf": "TAF ENTC 201700Z 2018/2118 28009KT 9999 FEW010 BKN025"
    },
    {
      "icao": "ENTO",
      "alert": "OK",
      "vis_m": 9999,
      "fzfg": false,
      "metar_trigger": false,
      "taf_trigger": false,
      "metar": "METAR ENTO 201920Z 22009KT 9999 FEW033 19/15 Q1014 NOSIG",
      "taf": "TAF ENTO 201700Z 2018/2118 20012KT 9999 FEW020"
    },
    {
      "icao": "ENVA",
      "alert": "OK",
      "vis_m": 9999,
      "fzfg": false,
      "metar_trigger": false,
      "taf_trigger": false,
      "metar": "METAR ENVA 201920Z VRB01KT 9999 FEW013 SCT018 BKN026 14/12 Q1014 RMK WIND 670FT 31003KT",
      "taf": "TAF ENVA 201700Z 2018/2118 VRB05KT 9999 FEW015 BKN030"
    },
    {
      "icao": "ENZV",
      "alert": "OK",
      "vis_m": 9999,
      "fzfg": false,
      "metar_trigger": false,
      "taf_trigger": false,
      "metar": "METAR ENZV 201920Z 31006KT 9999 BKN012 OVC014 13/10 Q1020 BECMG SCT014",
      "taf": ""
    },
    {
      "icao": "EPGD",
      "alert": "OK",
      "vis_m": 9999,
      "fzfg": false,
      "metar_trigger": false,
      "taf_trigger": false,
      "metar": "METAR EPGD 201930Z 18003KT 110V230 9999 -SHRA FEW053TCU 25/19 Q1021",
      "taf": "TAF EPGD 201730Z 2018/2118 15006KT CAVOK"
    },
    {
      "icao": "EPKK",
      "alert": "OK",
      "vis_m": 9999,
      "fzfg": false,
      "metar_trigger": false,
      "taf_trigger": false,
      "metar": "METAR EPKK 201930Z 04005KT CAVOK 23/19 Q1022",
      "taf": "TAF EPKK 201730Z 2018/2118 14004KT CAVOK"
    },
    {
      "icao": "EPKT",
      "alert": "OK",
      "vis_m": 9999,
      "fzfg": false,
      "metar_trigger": false,
      "taf_trigger": false,
      "metar": "METAR EPKT 201930Z 07004KT CAVOK 23/19 Q1022",
      "taf": "TAF EPKT 201730Z 2018/2118 14005KT CAVOK"
    },
    {
      "icao": "EPLB",
      "alert": "OK",
      "vis_m": 9999,
      "fzfg": false,
      "metar_trigger": false,
      "taf_trigger": false,
      "metar": "METAR EPLB 201930Z VRB01KT CAVOK 22/16 Q1023",
      "taf": "TAF EPLB 201730Z 2018/2118 12005KT CAVOK"
    },
    {
      "icao": "EPMO",
      "alert": "OK",
      "vis_m": 9999,
      "fzfg": false,
      "metar_trigger": false,
      "taf_trigger": false,
      "metar": "METAR EPMO 201930Z 07004KT 050V110 CAVOK 24/17 Q1021",
      "taf": "TAF EPMO 201730Z 2018/2118 12005KT CAVOK"
    },
    {
      "icao": "EPPO",
      "alert": "OK",
      "vis_m": 9999,
      "fzfg": false,
      "metar_trigger": false,
      "taf_trigger": false,
      "metar": "METAR EPPO 201930Z 32006KT CAVOK 25/19 Q1020",
      "taf": "TAF EPPO 201730Z 2018/2118 24005KT CAVOK"
    },
    {
      "icao": "EPRA",
      "alert": "OK",
      "vis_m": 9999,
      "fzfg": false,
      "metar_trigger": false,
      "taf_trigger": false,
      "metar": "METAR EPRA 201930Z 19003KT CAVOK 24/16 Q1022",
      "taf": "TAF EPRA 201730Z 2018/2103 18006KT CAVOK"
    },
    {
      "icao": "EPRZ",
      "alert": "OK",
      "vis_m": 9999,
      "fzfg": false,
      "metar_trigger": false,
      "taf_trigger": false,
      "metar": "METAR EPRZ 201930Z VRB02KT CAVOK 25/16 Q1022",
      "taf": "TAF EPRZ 201730Z 2018/2118 11005KT CAVOK"
    },
    {
      "icao": "EPSC",
      "alert": "OK",
      "vis_m": 9999,
      "fzfg": false,
      "metar_trigger": false,
      "taf_trigger": false,
      "metar": "METAR EPSC 201930Z VRB02KT 9999 FEW060TCU 23/20 Q1020",
      "taf": "TAF EPSC 201730Z 2018/2118 VRB03KT CAVOK"
    },
    {
      "icao": "EPSY",
      "alert": "OK",
      "vis_m": 9999,
      "fzfg": false,
      "metar_trigger": false,
      "taf_trigger": false,
      "metar": "METAR EPSY 201930Z 09001KT CAVOK 21/17 Q1022",
      "taf": "TAF EPSY 201730Z 2018/2103 16005KT CAVOK"
    },
    {
      "icao": "EPWA",
      "alert": "OK",
      "vis_m": 9999,
      "fzfg": false,
      "metar_trigger": false,
      "taf_trigger": false,
      "metar": "METAR EPWA 201930Z 11004KT CAVOK 25/15 Q1021 NOSIG",
      "taf": "TAF EPWA 201730Z 2018/2118 12005KT CAVOK"
    },
    {
      "icao": "EPWR",
      "alert": "OK",
      "vis_m": 9999,
      "fzfg": false,
      "metar_trigger": false,
      "taf_trigger": false,
      "metar": "METAR EPWR 201930Z 27008KT CAVOK 20/19 Q1022",
      "taf": "TAF EPWR 201730Z 2018/2118 18010KT CAVOK"
    },
    {
      "icao": "ESGG",
      "alert": "OK",
      "vis_m": 9999,
      "fzfg": false,
      "metar_trigger": false,
      "taf_trigger": false,
      "metar": "METAR ESGG 201920Z 25004KT 230V290 9999 FEW082 20/18 Q1018",
      "taf": "TAF ESGG 201730Z 2018/2118 27008KT 9999 BKN025"
    },
    {
      "icao": "ESKN",
      "alert": "OK",
      "vis_m": 9999,
      "fzfg": false,
      "metar_trigger": false,
      "taf_trigger": false,
      "metar": "METAR ESKN 201920Z 14004KT CAVOK 20/20 Q1016",
      "taf": "TAF ESKN 201730Z 2018/2118 19010KT CAVOK"
    },
    {
      "icao": "ESMS",
      "alert": "OK",
      "vis_m": 9999,
      "fzfg": false,
      "metar_trigger": false,
      "taf_trigger": false,
      "metar": "METAR ESMS 201920Z 22006KT CAVOK 23/18 Q1020",
      "taf": "TAF ESMS 201727Z 2018/2118 21010KT 9999 FEW040"
    },
    {
      "icao": "ESSA",
      "alert": "OK",
      "vis_m": 9999,
      "fzfg": false,
      "metar_trigger": false,
      "taf_trigger": false,
      "metar": "METAR ESSA 201920Z 21010KT CAVOK 19/16 Q1014 NOSIG",
      "taf": "TAF ESSA 201730Z 2018/2118 22007KT CAVOK"
    },
    {
      "icao": "EYKA",
      "alert": "OK",
      "vis_m": 9999,
      "fzfg": false,
      "metar_trigger": false,
      "taf_trigger": false,
      "metar": "METAR EYKA 201920Z 11002KT CAVOK 20/17 Q1022",
      "taf": "TAF EYKA 201700Z 2018/2118 VRB03KT 9000 NSC"
    },
    {
      "icao": "EYPA",
      "alert": "OK",
      "vis_m": 9999,
      "fzfg": false,
      "metar_trigger": false,
      "taf_trigger": false,
      "metar": "METAR EYPA 201920Z 15004KT CAVOK 23/18 Q1020",
      "taf": "TAF EYPA 201700Z 2018/2118 VRB03KT 9000 NSC"
    },
    {
      "icao": "EYVI",
      "alert": "OK",
      "vis_m": 9999,
      "fzfg": false,
      "metar_trigger": false,
      "taf_trigger": false,
      "metar": "METAR EYVI 201920Z 20002KT CAVOK 19/15 Q1023 NOSIG",
      "taf": "TAF EYVI 201700Z 2018/2118 VRB03KT 9000 NSC"
    },
    {
      "icao": "GCFV",
      "alert": "OK",
      "vis_m": 9999,
      "fzfg": false,
      "metar_trigger": false,
      "taf_trigger": false,
      "metar": "METAR GCFV 201930Z 03010KT CAVOK 24/16 Q1017",
      "taf": "TAF GCFV 201400Z 2015/2115 06012KT 9999 FEW020 TX26/2114Z TN20/2106Z"
    },
    {
      "icao": "GCLP",
      "alert": "OK",
      "vis_m": 9999,
      "fzfg": false,
      "metar_trigger": false,
      "taf_trigger": false,
      "metar": "METAR GCLP 201930Z 02018KT 9999 FEW035 22/17 Q1017 NOSIG",
      "taf": "TAF GCLP 201400Z 2015/2115 02020KT 9999 FEW020 TX26/2114Z TN20/2106Z"
    },
    {
      "icao": "GCTS",
      "alert": "OK",
      "vis_m": 9999,
      "fzfg": false,
      "metar_trigger": false,
      "taf_trigger": false,
      "metar": "METAR GCTS 201930Z 09013KT 060V120 9999 FEW020 22/17 Q1018 NOSIG",
      "taf": "TAF GCTS 201400Z 2015/2115 09015KT 9999 FEW020 TX26/2114Z TN19/2106Z"
    },
    {
      "icao": "GMAD",
      "alert": "OK",
      "vis_m": 8000,
      "fzfg": false,
      "metar_trigger": false,
      "taf_trigger": false,
      "metar": "METAR GMAD 201930Z 23012KT 8000 FEW016 22/16 Q1015 NOSIG",
      "taf": "TAF GMAD 201700Z 2018/2124 24013KT 8000 FEW026"
    },
    {
      "icao": "GMMN",
      "alert": "OK",
      "vis_m": 9999,
      "fzfg": false,
      "metar_trigger": false,
      "taf_trigger": false,
      "metar": "METAR GMMN 201930Z 30009KT CAVOK 23/18 Q1014 NOSIG",
      "taf": "TAF GMMN 201700Z 2018/2124 34012KT CAVOK"
    },
    {
      "icao": "GMMX",
      "alert": "OK",
      "vis_m": 9999,
      "fzfg": false,
      "metar_trigger": false,
      "taf_trigger": false,
      "metar": "METAR GMMX 201930Z 26009KT CAVOK 30/18 Q1014 NOSIG",
      "taf": "TAF GMMX 201700Z 2018/2124 28006KT 8000 NSC"
    },
    {
      "icao": "HEGN",
      "alert": "OK",
      "vis_m": 9999,
      "fzfg": false,
      "metar_trigger": false,
      "taf_trigger": false,
      "metar": "METAR HEGN 201900Z 32010KT CAVOK 31/14 Q1009 NOSIG",
      "taf": "TAF HEGN 201700Z 2018/2124 33015KT CAVOK"
    },
    {
      "icao": "HEMA",
      "alert": "OK",
      "vis_m": 9999,
      "fzfg": false,
      "metar_trigger": false,
      "taf_trigger": false,
      "metar": "METAR HEMA 201900Z 36004KT CAVOK 29/17 Q1009 NOSIG",
      "taf": "TAF HEMA 201700Z 2018/2124 34018KT CAVOK"
    },
    {
      "icao": "HESH",
      "alert": "OK",
      "vis_m": 9999,
      "fzfg": false,
      "metar_trigger": false,
      "taf_trigger": false,
      "metar": "METAR HESH 201900Z 36006KT CAVOK 33/11 Q1007 NOSIG",
      "taf": "TAF HESH 201700Z 2018/2124 34012KT CAVOK"
    },
    {
      "icao": "HESX",
      "alert": "OK",
      "vis_m": 9999,
      "fzfg": false,
      "metar_trigger": false,
      "taf_trigger": false,
      "metar": "METAR HESX 201900Z 36010KT CAVOK 26/16 Q1014 NOSIG",
      "taf": "TAF HESX 201700Z 2018/2124 36010KT CAVOK"
    },
    {
      "icao": "LATI",
      "alert": "OK",
      "vis_m": 9999,
      "fzfg": false,
      "metar_trigger": false,
      "taf_trigger": false,
      "metar": "METAR LATI 201920Z 28002KT CAVOK 25/18 Q1020 NOSIG",
      "taf": "TAF LATI 201700Z 2018/2118 VRB03KT CAVOK TX35/2112Z TN18/2103Z"
    },
    {
      "icao": "LBPD",
      "alert": "OK",
      "vis_m": 9999,
      "fzfg": false,
      "metar_trigger": false,
      "taf_trigger": false,
      "metar": "METAR LBPD 201930Z AUTO 14004KT 100V160 9999 NCD 22/12 Q1023",
      "taf": "TAF LBPD 201700Z 2018/2118 08010KT 9999 SCT070"
    },
    {
      "icao": "LBSF",
      "alert": "OK",
      "vis_m": 9999,
      "fzfg": false,
      "metar_trigger": false,
      "taf_trigger": false,
      "metar": "METAR LBSF 201930Z AUTO 13006KT 9999 NSC 20/14 Q1025 NOSIG",
      "taf": "TAF LBSF 201700Z 2018/2118 05010KT 9999 SCT070"
    },
    {
      "icao": "LBWN",
      "alert": "OK",
      "vis_m": 9999,
      "fzfg": false,
      "metar_trigger": false,
      "taf_trigger": false,
      "metar": "METAR LBWN 201930Z AUTO VRB02KT 9999 NCD 18/13 Q1022 NOSIG",
      "taf": "TAF LBWN 201700Z 2018/2118 07010KT 9999 SCT045"
    },
    {
      "icao": "LCLK",
      "alert": "OK",
      "vis_m": 9999,
      "fzfg": false,
      "metar_trigger": false,
      "taf_trigger": false,
      "metar": "METAR LCLK 201930Z 32006KT 9999 FEW040 26/21 Q1013 NOSIG",
      "taf": "TAF LCLK 201730Z 2018/2118 23010KT CAVOK"
    },
    {
      "icao": "LCPH",
      "alert": "OK",
      "vis_m": 9999,
      "fzfg": false,
      "metar_trigger": false,
      "taf_trigger": false,
      "metar": "METAR LCPH 201930Z 36004KT 9999 FEW025 25/20 Q1014 NOSIG",
      "taf": "TAF LCPH 201730Z 2018/2118 31011KT 9999 FEW020"
    },
    {
      "icao": "LEAL",
      "alert": "OK",
      "vis_m": 9999,
      "fzfg": false,
      "metar_trigger": false,
      "taf_trigger": false,
      "metar": "METAR LEAL 201930Z 07013KT CAVOK 29/19 Q1017 NOSIG",
      "taf": "TAF LEAL 201700Z 2018/2118 08014KT CAVOK TX33/2112Z TN23/2106Z"
    },
    {
      "icao": "LEBB",
      "alert": "OK",
      "vis_m": 9999,
      "fzfg": false,
      "metar_trigger": false,
      "taf_trigger": false,
      "metar": "METAR LEBB 201930Z 30006KT 260V330 9999 BKN011 23/21 Q1019 TEMPO TSRA SCT060CB",
      "taf": ""
    },
    {
      "icao": "LEBL",
      "alert": "OK",
      "vis_m": 9999,
      "fzfg": false,
      "metar_trigger": false,
      "taf_trigger": false,
      "metar": "METAR LEBL 201930Z 07004KT 040V100 CAVOK 28/16 Q1021 NOSIG",
      "taf": "TAF LEBL 201700Z 2018/2118 07009KT CAVOK TX31/2112Z TN23/2105Z"
    },
    {
      "icao": "LECH",
      "alert": "OK",
      "vis_m": 9999,
      "fzfg": false,
      "metar_trigger": false,
      "taf_trigger": false,
      "metar": "METAR LECH 201930Z AUTO VRB01KT CAVOK 26/17 Q1022",
      "taf": "TAF LECH 201700Z 2018/2118 VRB04KT CAVOK TX34/2112Z TN19/2106Z"
    },
    {
      "icao": "LEMD",
      "alert": "OK",
      "vis_m": 9999,
      "fzfg": false,
      "metar_trigger": false,
      "taf_trigger": false,
      "metar": "METAR LEMD 201930Z 13008KT 090V160 CAVOK 32/13 Q1018 NOSIG",
      "taf": "TAF LEMD 201700Z 2018/2124 VRB04KT CAVOK TX39/2115Z TN21/2105Z"
    },
    {
      "icao": "LEMG",
      "alert": "OK",
      "vis_m": 9999,
      "fzfg": false,
      "metar_trigger": false,
      "taf_trigger": false,
      "metar": "METAR LEMG 201930Z 15006KT 110V170 9999 FEW013 SCT020 24/20 Q1015 NOSIG",
      "taf": "TAF LEMG 201700Z 2018/2118 14010KT CAVOK TX34/2114Z TN24/2106Z"
    },
    {
      "icao": "LEVC",
      "alert": "OK",
      "vis_m": 9999,
      "fzfg": false,
      "metar_trigger": false,
      "taf_trigger": false,
      "metar": "METAR LEVC 201930Z 11006KT 080V140 CAVOK 26/20 Q1020 NOSIG",
      "taf": "TAF LEVC 201700Z 2018/2118 08010KT CAVOK TX33/2112Z TN21/2106Z"
    },
    {
      "icao": "LEXJ",
      "alert": "OK",
      "vis_m": 9999,
      "fzfg": false,
      "metar_trigger": false,
      "taf_trigger": false,
      "metar": "METAR LEXJ 201930Z 06004KT 9999 FEW012 BKN020 21/20 Q1019",
      "taf": "TAF LEXJ 201400Z 2015/2115 06009KT 9999 SCT016 TX35/2112Z TN19/2105Z"
    },
    {
      "icao": "LEZG",
      "alert": "OK",
      "vis_m": 9999,
      "fzfg": false,
      "metar_trigger": false,
      "taf_trigger": false,
      "metar": "METAR LEZG 201930Z 10007KT 9999 R12R///// FEW070 30/11 Q1019 NOSIG",
      "taf": "TAF LEZG 201700Z 2018/2118 11010KT 9999 SCT060 TX40/2115Z TN23/2106Z"
    },
    {
      "icao": "LEZL",
      "alert": "OK",
      "vis_m": 9999,
      "fzfg": false,
      "metar_trigger": false,
      "taf_trigger": false,
      "metar": "METAR LEZL 201930Z 23010KT 200V260 CAVOK 32/17 Q1012 NOSIG",
      "taf": ""
    },
    {
      "icao": "LFBD",
      "alert": "OK",
      "vis_m": 9999,
      "fzfg": false,
      "metar_trigger": false,
      "taf_trigger": false,
      "metar": "METAR LFBD 201930Z AUTO 36005KT CAVOK 30/20 Q1018 TEMPO VRB15G30KT 2500 TSRA BKN050CB",
      "taf": "TAF LFBD 201700Z 2018/2124 VRB05KT CAVOK TX41/2116Z TN23/2105Z"
    },
    {
      "icao": "LFLL",
      "alert": "OK",
      "vis_m": 9999,
      "fzfg": false,
      "metar_trigger": false,
      "taf_trigger": false,
      "metar": "METAR LFLL 201930Z 14008KT CAVOK 30/13 Q1020 NOSIG",
      "taf": "TAF LFLL 201700Z 2018/2124 18007KT CAVOK"
    },
    {
      "icao": "LFLS",
      "alert": "OK",
      "vis_m": 9999,
      "fzfg": false,
      "metar_trigger": false,
      "taf_trigger": false,
      "metar": "METAR LFLS 201930Z AUTO 07006KT 040V100 CAVOK 26/13 Q1022 TEMPO 21010KT",
      "taf": "TAF LFLS 201400Z 2015/2115 08005KT CAVOK"
    },
    {
      "icao": "LFMN",
      "alert": "OK",
      "vis_m": 9999,
      "fzfg": false,
      "metar_trigger": false,
      "taf_trigger": false,
      "metar": "METAR LFMN 201930Z 17002KT CAVOK 26/22 Q1020 NOSIG",
      "taf": "TAF LFMN 201400Z 2015/2121 14004KT CAVOK"
    },
    {
      "icao": "LFOB",
      "alert": "OK",
      "vis_m": 9999,
      "fzfg": false,
      "metar_trigger": false,
      "taf_trigger": false,
      "metar": "METAR LFOB 201930Z AUTO 33009KT CAVOK 26/21 Q1020 NOSIG",
      "taf": "TAF LFOB 201700Z 2018/2118 04005KT CAVOK"
    },
    {
      "icao": "LFPO",
      "alert": "OK",
      "vis_m": 9999,
      "fzfg": false,
      "metar_trigger": false,
      "taf_trigger": false,
      "metar": "METAR LFPO 201930Z AUTO 26006KT CAVOK 32/15 Q1019 TEMPO -TSRA SCT100CB BECMG 11010KT",
      "taf": ""
    },
    {
      "icao": "LFSB",
      "alert": "OK",
      "vis_m": 9999,
      "fzfg": false,
      "metar_trigger": false,
      "taf_trigger": false,
      "metar": "METAR LFSB 201930Z AUTO 21002KT CAVOK 26/18 Q1021 NOSIG",
      "taf": ""
    },
    {
      "icao": "LGAV",
      "alert": "OK",
      "vis_m": 9999,
      "fzfg": false,
      "metar_trigger": false,
      "taf_trigger": false,
      "metar": "METAR LGAV 201920Z 02007KT CAVOK 25/09 Q1020 NOSIG",
      "taf": "TAF LGAV 201700Z 2018/2118 02020G30KT 9999 FEW025"
    },
    {
      "icao": "LGTS",
      "alert": "OK",
      "vis_m": 9999,
      "fzfg": false,
      "metar_trigger": false,
      "taf_trigger": false,
      "metar": "METAR LGTS 201920Z 13008KT 9999 FEW025 26/14 Q1021 NOSIG",
      "taf": "TAF LGTS 201700Z 2018/2118 VRB03KT CAVOK"
    },
    {
      "icao": "LHBP",
      "alert": "OK",
      "vis_m": 9999,
      "fzfg": false,
      "metar_trigger": false,
      "taf_trigger": false,
      "metar": "METAR LHBP 201930Z VRB02KT CAVOK 25/17 Q1022 NOSIG",
      "taf": "TAF LHBP 201715Z 2018/2118 10008KT CAVOK"
    },
    {
      "icao": "LHDC",
      "alert": "OK",
      "vis_m": 9999,
      "fzfg": false,
      "metar_trigger": false,
      "taf_trigger": false,
      "metar": "METAR LHDC 201915Z AUTO VRB02KT 9999 FEW032 26/18 Q1022 NOSIG",
      "taf": "TAF LHDC 201715Z 2018/2103 35008KT CAVOK"
    },
    {
      "icao": "LIBD",
      "alert": "OK",
      "vis_m": 9999,
      "fzfg": false,
      "metar_trigger": false,
      "taf_trigger": false,
      "metar": "METAR LIBD 201920Z 31002KT CAVOK 24/22 Q1020",
      "taf": "TAF LIBD 201700Z 2018/2118 VRB05KT CAVOK"
    },
    {
      "icao": "LIBG",
      "alert": "OK",
      "vis_m": 9999,
      "fzfg": false,
      "metar_trigger": false,
      "taf_trigger": false,
      "metar": "METAR LIBG 201920Z AUTO VRB02KT 9999 NCD 26/15 Q1020",
      "taf": "TAF LIBG 201700Z 2018/2118 VRB05KT 9999 SCT030"
    },
    {
      "icao": "LIBP",
      "alert": "OK",
      "vis_m": 9999,
      "fzfg": false,
      "metar_trigger": false,
      "taf_trigger": false,
      "metar": "METAR LIBP 201920Z AUTO 35003KT 9999 NCD 26/16 Q1021",
      "taf": "TAF LIBP 201700Z 2018/2118 VRB05KT CAVOK"
    },
    {
      "icao": "LIBR",
      "alert": "OK",
      "vis_m": 9999,
      "fzfg": false,
      "metar_trigger": false,
      "taf_trigger": false,
      "metar": "METAR LIBR 201920Z VRB01KT CAVOK 25/21 Q1020",
      "taf": "TAF LIBR 201700Z 2018/2118 VRB05KT CAVOK"
    },
    {
      "icao": "LICA",
      "alert": "OK",
      "vis_m": 9999,
      "fzfg": false,
      "metar_trigger": false,
      "taf_trigger": false,
      "metar": "METAR LICA 201920Z AUTO 19003KT 9999 NCD 25/23 Q1021",
      "taf": "TAF LICA 201700Z 2018/2118 VRB05KT 9999 SCT015"
    },
    {
      "icao": "LICC",
      "alert": "OK",
      "vis_m": 9999,
      "fzfg": false,
      "metar_trigger": false,
      "taf_trigger": false,
      "metar": "METAR LICC 201920Z 06006KT CAVOK 26/18 Q1021",
      "taf": "TAF LICC 201700Z 2018/2118 08014KT 9999 FEW040"
    },
    {
      "icao": "LICJ",
      "alert": "OK",
      "vis_m": 9999,
      "fzfg": false,
      "metar_trigger": false,
      "taf_trigger": false,
      "metar": "METAR LICJ 201920Z 03007KT CAVOK 26/23 Q1020",
      "taf": "TAF LICJ 201700Z 2018/2118 02010KT CAVOK"
    },
    {
      "icao": "LIMC",
      "alert": "OK",
      "vis_m": 9999,
      "fzfg": false,
      "metar_trigger": false,
      "taf_trigger": false,
      "metar": "METAR LIMC 201920Z 30005KT 270V330 CAVOK 31/18 Q1021 NOSIG",
      "taf": "TAF LIMC 201700Z 2018/2124 VRB05KT 9999 FEW050"
    },
    {
      "icao": "LIME",
      "alert": "OK",
      "vis_m": 9999,
      "fzfg": false,
      "metar_trigger": false,
      "taf_trigger": false,
      "metar": "METAR LIME 201920Z 04004KT 360V060 CAVOK 28/18 Q1021 NOSIG",
      "taf": "TAF LIME 201700Z 2018/2118 VRB05KT 9999 FEW060"
    },
    {
      "icao": "LIMF",
      "alert": "OK",
      "vis_m": 9999,
      "fzfg": false,
      "metar_trigger": false,
      "taf_trigger": false,
      "metar": "METAR LIMF 201920Z 31005KT CAVOK 30/18 Q1021",
      "taf": "TAF LIMF 201700Z 2018/2118 VRB05KT 9999 FEW060"
    },
    {
      "icao": "LIMJ",
      "alert": "OK",
      "vis_m": 9999,
      "fzfg": false,
      "metar_trigger": false,
      "taf_trigger": false,
      "metar": "METAR LIMJ 201920Z 29004KT CAVOK 26/21 Q1020",
      "taf": "TAF LIMJ 201700Z 2018/2118 VRB05KT 9999 FEW040"
    },
    {
      "icao": "LIPE",
      "alert": "OK",
      "vis_m": 9999,
      "fzfg": false,
      "metar_trigger": false,
      "taf_trigger": false,
      "metar": "METAR LIPE 201920Z 11009KT CAVOK 30/19 Q1019",
      "taf": "TAF LIPE 201700Z 2018/2118 VRB05KT 9999 FEW030"
    },
    {
      "icao": "LIPH",
      "alert": "OK",
      "vis_m": 9999,
      "fzfg": false,
      "metar_trigger": false,
      "taf_trigger": false,
      "metar": "METAR LIPH 201920Z 04003KT CAVOK 29/19 Q1021",
      "taf": "TAF LIPH 201700Z 2018/2118 VRB05KT 9999 SCT030"
    },
    {
      "icao": "LIPQ",
      "alert": "OK",
      "vis_m": 9999,
      "fzfg": false,
      "metar_trigger": false,
      "taf_trigger": false,
      "metar": "METAR LIPQ 201920Z AUTO 10003KT 9999 NCD 27/17 Q1021",
      "taf": "TAF LIPQ 201700Z 2018/2118 20010KT CAVOK"
    },
    {
      "icao": "LIPR",
      "alert": "OK",
      "vis_m": 9999,
      "fzfg": false,
      "metar_trigger": false,
      "taf_trigger": false,
      "metar": "METAR LIPR 201920Z 11006KT CAVOK 27/21 Q1020",
      "taf": "TAF LIPR 201700Z 2018/2118 VRB05KT 9999 FEW030"
    },
    {
      "icao": "LIPX",
      "alert": "OK",
      "vis_m": 9999,
      "fzfg": false,
      "metar_trigger": false,
      "taf_trigger": false,
      "metar": "METAR LIPX 201920Z VRB01KT CAVOK 30/18 Q1020",
      "taf": "TAF LIPX 201700Z 2018/2118 VRB05KT CAVOK"
    },
    {
      "icao": "LIPY",
      "alert": "OK",
      "vis_m": 9999,
      "fzfg": false,
      "metar_trigger": false,
      "taf_trigger": false,
      "metar": "METAR LIPY 201920Z AUTO VRB01KT 9999 NCD 27/18 Q1020",
      "taf": "TAF LIPY 201700Z 2018/2118 VRB05KT CAVOK"
    },
    {
      "icao": "LIPZ",
      "alert": "OK",
      "vis_m": 9999,
      "fzfg": false,
      "metar_trigger": false,
      "taf_trigger": false,
      "metar": "METAR LIPZ 201920Z 16003KT 130V190 CAVOK 28/21 Q1020 NOSIG",
      "taf": "TAF LIPZ 201700Z 2018/2124 10010KT CAVOK"
    },
    {
      "icao": "LIRF",
      "alert": "OK",
      "vis_m": 9999,
      "fzfg": false,
      "metar_trigger": false,
      "taf_trigger": false,
      "metar": "METAR LIRF 201920Z 22006KT CAVOK 27/20 Q1020 NOSIG",
      "taf": "TAF LIRF 201700Z 2018/2124 24010KT CAVOK"
    },
    {
      "icao": "LIRN",
      "alert": "OK",
      "vis_m": 9999,
      "fzfg": false,
      "metar_trigger": false,
      "taf_trigger": false,
      "metar": "METAR LIRN 201920Z 17002KT CAVOK 28/21 Q1021 NOSIG",
      "taf": "TAF LIRN 201700Z 2018/2118 VRB05KT CAVOK"
    },
    {
      "icao": "LIRP",
      "alert": "OK",
      "vis_m": 9999,
      "fzfg": false,
      "metar_trigger": false,
      "taf_trigger": false,
      "metar": "METAR LIRP 201915Z 30004KT CAVOK 26/20 Q1021 NOSIG",
      "taf": "TAF LIRP 201700Z 2018/2118 29008KT CAVOK"
    },
    {
      "icao": "LIRZ",
      "alert": "OK",
      "vis_m": 9999,
      "fzfg": false,
      "metar_trigger": false,
      "taf_trigger": false,
      "metar": "METAR LIRZ 201920Z AUTO 35007KT 9999 NCD 30/17 Q1021",
      "taf": "TAF LIRZ 201700Z 2018/2118 06010KT CAVOK"
    },
    {
      "icao": "LJLJ",
      "alert": "OK",
      "vis_m": 9999,
      "fzfg": false,
      "metar_trigger": false,
      "taf_trigger": false,
      "metar": "METAR LJLJ 201930Z 31004KT 270V330 9999 -SHRA FEW055TCU SCT140 BKN180 18/18 Q1025 NOSIG",
      "taf": "TAF LJLJ 201700Z 2018/2118 05008KT 9999 FEW060"
    },
    {
      "icao": "LKMT",
      "alert": "OK",
      "vis_m": 9999,
      "fzfg": false,
      "metar_trigger": false,
      "taf_trigger": false,
      "metar": "METAR LKMT 201930Z 36011KT CAVOK 25/17 Q1022 TEMPO FEW045CB",
      "taf": "TAF LKMT 201700Z 2018/2118 VRB02KT CAVOK"
    },
    {
      "icao": "LKPR",
      "alert": "OK",
      "vis_m": 9999,
      "fzfg": false,
      "metar_trigger": false,
      "taf_trigger": false,
      "metar": "METAR LKPR 201930Z 13007KT CAVOK 23/17 Q1023 NOSIG",
      "taf": "TAF LKPR 201700Z 2018/2124 01006KT CAVOK"
    },
    {
      "icao": "LLBG",
      "alert": "OK",
      "vis_m": 9999,
      "fzfg": false,
      "metar_trigger": false,
      "taf_trigger": false,
      "metar": "METAR LLBG 201920Z 36006KT CAVOK 25/20 Q1013 NOSIG",
      "taf": "TAF LLBG 201702Z 2018/2118 35005KT 9999 FEW025 TX30/2111Z TN21/2103Z"
    },
    {
      "icao": "LMML",
      "alert": "OK",
      "vis_m": 9999,
      "fzfg": false,
      "metar_trigger": false,
      "taf_trigger": false,
      "metar": "METAR LMML 201915Z 02004KT 340V050 CAVOK 27/16 Q1021 NOSIG",
      "taf": "TAF LMML 201700Z 2018/2118 28006KT CAVOK"
    },
    {
      "icao": "LOWW",
      "alert": "OK",
      "vis_m": 9999,
      "fzfg": false,
      "metar_trigger": false,
      "taf_trigger": false,
      "metar": "METAR LOWW 201920Z VRB02KT CAVOK 26/17 Q1021 NOSIG",
      "taf": "TAF LOWW 201715Z 2018/2124 17007KT CAVOK TX32/2112Z TN22/2103Z"
    },
    {
      "icao": "LPFR",
      "alert": "OK",
      "vis_m": 9999,
      "fzfg": false,
      "metar_trigger": false,
      "taf_trigger": false,
      "metar": "METAR LPFR 201930Z 27007KT CAVOK 26/16 Q1013",
      "taf": "TAF LPFR 201700Z 2018/2118 24010KT CAVOK"
    },
    {
      "icao": "LPMA",
      "alert": "OK",
      "vis_m": 9999,
      "fzfg": false,
      "metar_trigger": false,
      "taf_trigger": false,
      "metar": "METAR LPMA 201930Z 11003KT 080V160 9999 SCT016 22/18 Q1018",
      "taf": "TAF LPMA 201700Z 2018/2118 VRB05KT 9999 SCT015"
    },
    {
      "icao": "LPPR",
      "alert": "OK",
      "vis_m": 9999,
      "fzfg": false,
      "metar_trigger": false,
      "taf_trigger": false,
      "metar": "METAR LPPR 201930Z 32006KT 9999 FEW015 20/17 Q1016",
      "taf": "TAF LPPR 201700Z 2018/2118 32010KT CAVOK"
    },
    {
      "icao": "LPPS",
      "alert": "OK",
      "vis_m": 9999,
      "fzfg": false,
      "metar_trigger": false,
      "taf_trigger": false,
      "metar": "METAR LPPS 201930Z 21006KT 9999 FEW015 22/17 Q1019",
      "taf": "TAF LPPS 201700Z 2018/2124 18008KT 9999 SCT014"
    },
    {
      "icao": "LPPT",
      "alert": "OK",
      "vis_m": 9999,
      "fzfg": false,
      "metar_trigger": false,
      "taf_trigger": false,
      "metar": "METAR LPPT 201930Z 32013KT 9999 FEW012 24/15 Q1015",
      "taf": "TAF LPPT 201700Z 2018/2124 33012KT CAVOK"
    },
    {
      "icao": "LQBK",
      "alert": "OK",
      "vis_m": 9999,
      "fzfg": false,
      "metar_trigger": false,
      "taf_trigger": false,
      "metar": "METAR LQBK 201930Z 29003KT CAVOK 22/18 Q1022 NOSIG",
      "taf": "TAF LQBK 201700Z 2018/2118 04005KT CAVOK TX34/2114Z TN17/2103Z"
    },
    {
      "icao": "LQSA",
      "alert": "OK",
      "vis_m": 9999,
      "fzfg": false,
      "metar_trigger": false,
      "taf_trigger": false,
      "metar": "METAR LQSA 201930Z 14004KT CAVOK 23/16 Q1023 NOSIG",
      "taf": "TAF LQSA 201700Z 2018/2118 VRB02KT CAVOK TX33/2114Z TN15/2103Z"
    },
    {
      "icao": "LQTZ",
      "alert": "OK",
      "vis_m": 9999,
      "fzfg": false,
      "metar_trigger": false,
      "taf_trigger": false,
      "metar": "METAR LQTZ 201930Z 11001KT CAVOK 22/18 Q1022",
      "taf": "TAF LQTZ 201700Z 2018/2118 05005KT CAVOK TX33/2114Z TN16/2103Z"
    },
    {
      "icao": "LRBC",
      "alert": "OK",
      "vis_m": 9999,
      "fzfg": false,
      "metar_trigger": false,
      "taf_trigger": false,
      "metar": "METAR LRBC 201930Z AUTO 33004KT 9999 FEW065/// 21/17 Q1022",
      "taf": "TAF LRBC 201700Z 2018/2103 VRB04KT CAVOK"
    },
    {
      "icao": "LRBS",
      "alert": "OK",
      "vis_m": 9999,
      "fzfg": false,
      "metar_trigger": false,
      "taf_trigger": false,
      "metar": "METAR LRBS 201930Z VRB02KT CAVOK 25/15 Q1022 NOSIG",
      "taf": "TAF LRBS 201700Z 2018/2118 VRB04KT CAVOK"
    },
    {
      "icao": "LRBV",
      "alert": "OK",
      "vis_m": 9999,
      "fzfg": false,
      "metar_trigger": false,
      "taf_trigger": false,
      "metar": "METAR LRBV 201930Z 22004KT 9999 FEW054 SCT079 20/17 Q1024",
      "taf": "TAF LRBV 201700Z 2018/2103 30005KT CAVOK"
    },
    {
      "icao": "LRCL",
      "alert": "OK",
      "vis_m": 9999,
      "fzfg": false,
      "metar_trigger": false,
      "taf_trigger": false,
      "metar": "METAR LRCL 201930Z 00000KT CAVOK 22/16 Q1023",
      "taf": "TAF LRCL 201700Z 2018/2103 VRB04KT CAVOK"
    },
    {
      "icao": "LRCV",
      "alert": "OK",
      "vis_m": 9999,
      "fzfg": false,
      "metar_trigger": false,
      "taf_trigger": false,
      "metar": "METAR LRCV 201930Z 14004KT CAVOK 23/17 Q1022",
      "taf": "TAF LRCV 201700Z 2018/2103 11006KT CAVOK"
    },
    {
      "icao": "LRIA",
      "alert": "OK",
      "vis_m": 9999,
      "fzfg": false,
      "metar_trigger": false,
      "taf_trigger": false,
      "metar": "METAR LRIA 201930Z 01008KT CAVOK 24/15 Q1022",
      "taf": "TAF LRIA 201700Z 2018/2103 34006KT CAVOK"
    },
    {
      "icao": "LROP",
      "alert": "OK",
      "vis_m": 9999,
      "fzfg": false,
      "metar_trigger": false,
      "taf_trigger": false,
      "metar": "METAR LROP 201930Z COR 13003KT CAVOK 25/15 Q1022 NOSIG",
      "taf": "TAF LROP 201700Z 2018/2118 VRB04KT CAVOK"
    },
    {
      "icao": "LRSB",
      "alert": "OK",
      "vis_m": 9999,
      "fzfg": false,
      "metar_trigger": false,
      "taf_trigger": false,
      "metar": "METAR LRSB 201930Z 25005KT CAVOK 21/15 Q1024",
      "taf": "TAF LRSB 201700Z 2018/2118 VRB04KT CAVOK"
    },
    {
      "icao": "LRSM",
      "alert": "OK",
      "vis_m": 9999,
      "fzfg": false,
      "metar_trigger": false,
      "taf_trigger": false,
      "metar": "METAR LRSM 201930Z 35005KT CAVOK 23/18 Q1022",
      "taf": "TAF LRSM 201700Z 2018/2103 32005KT CAVOK"
    },
    {
      "icao": "LRSV",
      "alert": "OK",
      "vis_m": 9999,
      "fzfg": false,
      "metar_trigger": false,
      "taf_trigger": false,
      "metar": "METAR LRSV 201930Z 35006KT CAVOK 20/15 Q1024",
      "taf": "TAF LRSV 201700Z 2018/2103 35006KT CAVOK"
    },
    {
      "icao": "LRTM",
      "alert": "OK",
      "vis_m": 9999,
      "fzfg": false,
      "metar_trigger": false,
      "taf_trigger": false,
      "metar": "METAR LRTM 201930Z 04001KT CAVOK 21/18 Q1023",
      "taf": "TAF LRTM 201700Z 2018/2103 VRB04KT CAVOK"
    },
    {
      "icao": "LRTR",
      "alert": "OK",
      "vis_m": 9999,
      "fzfg": false,
      "metar_trigger": false,
      "taf_trigger": false,
      "metar": "METAR LRTR 201930Z 09002KT CAVOK 24/17 Q1021 NOSIG",
      "taf": "TAF LRTR 201700Z 2018/2118 05005KT CAVOK"
    },
    {
      "icao": "LTAC",
      "alert": "OK",
      "vis_m": 9999,
      "fzfg": false,
      "metar_trigger": false,
      "taf_trigger": false,
      "metar": "METAR LTAC 201920Z 02008KT 9999 FEW040 SCT080 17/10 Q1022 NOSIG RMK RWY21C 02008KT RWY03L 02008KT RWY21R 36008KT RWY03R 36009KT RWY21L 02006KT",
      "taf": "TAF LTAC 201640Z 2018/2118 03009KT 9999 SCT040"
    },
    {
      "icao": "LTFM",
      "alert": "OK",
      "vis_m": 9999,
      "fzfg": false,
      "metar_trigger": false,
      "taf_trigger": false,
      "metar": "METAR LTFM 201920Z 02006KT CAVOK 21/18 Q1022 NOSIG RMK RWY17L 36003KT RWY34L 36006KT RWY16R 36002KT RWY36 03005KT RWY18 01003KT",
      "taf": "TAF LTFM 201640Z 2018/2124 03012KT CAVOK"
    },
    {
      "icao": "LUKK",
      "alert": "OK",
      "vis_m": 9999,
      "fzfg": false,
      "metar_trigger": false,
      "taf_trigger": false,
      "metar": "METAR LUKK 201930Z 04007KT CAVOK 24/16 Q1022 NOSIG",
      "taf": "TAF LUKK 201704Z 2018/2118 VRB05KT CAVOK"
    },
    {
      "icao": "LWOH",
      "alert": "OK",
      "vis_m": 9999,
      "fzfg": false,
      "metar_trigger": false,
      "taf_trigger": false,
      "metar": "METAR LWOH 201920Z 30004KT CAVOK 18/13 Q1024",
      "taf": "TAF LWOH 201710Z 2018/2118 34005KT 9999 FEW050 SCT100"
    },
    {
      "icao": "LWSK",
      "alert": "OK",
      "vis_m": 9999,
      "fzfg": false,
      "metar_trigger": false,
      "taf_trigger": false,
      "metar": "METAR LWSK 201920Z 03007KT 9999 FEW060 26/13 Q1021 NOSIG",
      "taf": "TAF LWSK 201710Z 2018/2118 34008KT 9999 FEW050 SCT100"
    },
    {
      "icao": "LYBE",
      "alert": "OK",
      "vis_m": 9999,
      "fzfg": false,
      "metar_trigger": false,
      "taf_trigger": false,
      "metar": "METAR LYBE 201930Z 27003KT CAVOK 24/17 Q1021 NOSIG",
      "taf": "TAF LYBE 201700Z 2018/2118 35004KT CAVOK TX33/2114Z TN20/2103Z"
    },
    {
      "icao": "LYNI",
      "alert": "OK",
      "vis_m": 9999,
      "fzfg": false,
      "metar_trigger": false,
      "taf_trigger": false,
      "metar": "METAR LYNI 201930Z 21003KT CAVOK 26/14 Q1022 NOSIG",
      "taf": "TAF LYNI 201700Z 2018/2118 09005KT CAVOK TX33/2114Z TN15/2103Z"
    },
    {
      "icao": "LYPG",
      "alert": "OK",
      "vis_m": 9999,
      "fzfg": false,
      "metar_trigger": false,
      "taf_trigger": false,
      "metar": "METAR LYPG 201930Z 02002KT CAVOK 28/14 Q1020 NOSIG",
      "taf": "TAF LYPG 201700Z 2018/2118 36006KT CAVOK TX35/2113Z TN21/2103Z"
    },
    {
      "icao": "LZIB",
      "alert": "OK",
      "vis_m": 9999,
      "fzfg": false,
      "metar_trigger": false,
      "taf_trigger": false,
      "metar": "METAR LZIB 201930Z 23003KT CAVOK 28/15 Q1021 NOSIG",
      "taf": "TAF LZIB 201715Z 2018/2118 21007KT CAVOK"
    },
    {
      "icao": "LZKZ",
      "alert": "OK",
      "vis_m": 9999,
      "fzfg": false,
      "metar_trigger": false,
      "taf_trigger": false,
      "metar": "METAR LZKZ 201930Z 28005KT CAVOK 22/19 Q1023 NOSIG",
      "taf": "TAF LZKZ 201715Z 2018/2118 VRB02KT CAVOK"
    },
    {
      "icao": "LZTT",
      "alert": "OK",
      "vis_m": 9999,
      "fzfg": false,
      "metar_trigger": false,
      "taf_trigger": false,
      "metar": "METAR LZTT 201930Z 03003KT 9999 SCT063 19/18 Q1025",
      "taf": "TAF LZTT 201715Z 2018/2118 27004KT 9999 FEW055"
    },
    {
      "icao": "OEJN",
      "alert": "OK",
      "vis_m": 9999,
      "fzfg": false,
      "metar_trigger": false,
      "taf_trigger": false,
      "metar": "METAR OEJN 201900Z 32008KT CAVOK 32/18 Q1006 NOSIG",
      "taf": "TAF OEJN 201700Z 2018/2124 01006KT CAVOK"
    },
    {
      "icao": "OEMA",
      "alert": "OK",
      "vis_m": 9999,
      "fzfg": false,
      "metar_trigger": false,
      "taf_trigger": false,
      "metar": "METAR OEMA 201900Z 28011KT CAVOK 41/M03 Q1011 NOSIG",
      "taf": "TAF OEMA 201700Z 2018/2124 29007KT CAVOK"
    },
    {
      "icao": "OJAI",
      "alert": "OK",
      "vis_m": 5000,
      "fzfg": false,
      "metar_trigger": false,
      "taf_trigger": false,
      "metar": "METAR OJAI 201900Z 29008KT 5000 HZ NSC 24/12 Q1016 NOSIG",
      "taf": "TAF OJAI 201700Z 2018/2124 31008KT 5000 HZ NSC"
    },
    {
      "icao": "OMAA",
      "alert": "OK",
      "vis_m": 9999,
      "fzfg": false,
      "metar_trigger": false,
      "taf_trigger": false,
      "metar": "METAR OMAA 201930Z 26005KT CAVOK 34/21 Q1003 NOSIG",
      "taf": "TAF OMAA 201700Z 2018/2200 VRB02KT CAVOK"
    },
    {
      "icao": "OMDB",
      "alert": "OK",
      "vis_m": 9999,
      "fzfg": false,
      "metar_trigger": false,
      "taf_trigger": false,
      "metar": "METAR OMDB 201930Z 21003KT 140V230 CAVOK 36/20 Q1003 NOSIG",
      "taf": "TAF OMDB 201700Z 2018/2200 18005KT CAVOK"
    },
    {
      "icao": "UAAA",
      "alert": "OK",
      "vis_m": 9999,
      "fzfg": false,
      "metar_trigger": false,
      "taf_trigger": false,
      "metar": "METAR UAAA 201930Z 20002MPS 9999 SCT050CB OVC100 24/12 Q1013 NOSIG",
      "taf": "TAF UAAA 201702Z 2018/2118 17002MPS 9999 SCT050CB BKN100 TX32/2110Z TN21/2101Z"
    },
    {
      "icao": "UBBB",
      "alert": "OK",
      "vis_m": 9999,
      "fzfg": false,
      "metar_trigger": false,
      "taf_trigger": false,
      "metar": "METAR UBBB 201930Z 33012KT CAVOK 25/20 Q1012 NOSIG",
      "taf": "TAF UBBB 201703Z 2018/2118 33016KT CAVOK TX27/2110Z TN22/2100Z"
    },
    {
      "icao": "UDSG",
      "alert": "OK",
      "vis_m": 9999,
      "fzfg": false,
      "metar_trigger": false,
      "taf_trigger": false,
      "metar": "METAR UDSG 201930Z 35003KT 9999 FEW049 18/13 Q1021 NOSIG",
      "taf": "TAF UDSG 201658Z 2018/2118 24006KT 9999 SCT050"
    },
    {
      "icao": "UDYZ",
      "alert": "OK",
      "vis_m": 9999,
      "fzfg": false,
      "metar_trigger": false,
      "taf_trigger": false,
      "metar": "METAR UDYZ 201930Z 06004KT 9999 NSC 25/08 Q1013 NOSIG",
      "taf": "TAF UDYZ 201700Z 2018/2118 02006KT 9999 FEW040"
    },
    {
      "icao": "UGKO",
      "alert": "OK",
      "vis_m": 9999,
      "fzfg": false,
      "metar_trigger": false,
      "taf_trigger": false,
      "metar": "METAR UGKO 201930Z 01003KT 9999 SCT025 BKN040 20/18 Q1019 NOSIG",
      "taf": "TAF UGKO 201700Z 2018/2118 25007KT 9999 SCT030 OVC050 TX25/2111Z TN19/2102Z"
    }
  ]
}