{
  "ts_utc": "2026-03-27T09:12:21Z",
  "threshold_m": 150,
  "source": "stations_override.txt (ICAO list) + aviationweather.gov (METAR/TAF raw)",
  "station_count": 159,
  "stations": [
    {
      "icao": "BIKF",
      "alert": "OK",
      "vis_m": 9999,
      "fzfg": false,
      "metar_trigger": false,
      "taf_trigger": false,
      "metar": "METAR BIKF 270900Z 02023G33KT 9999 VCSH SCT017 BKN050 BKN120 01/M01 Q0980",
      "taf": ""
    },
    {
      "icao": "BKPR",
      "alert": "OK",
      "vis_m": 9999,
      "fzfg": false,
      "metar_trigger": false,
      "taf_trigger": false,
      "metar": "METAR BKPR 270900Z 13003KT 070V170 9999 SCT012 BKN025 06/03 Q0998 NOSIG",
      "taf": "TAF BKPR 270530Z 2706/2806 VRB05KT 9999 SCT025 BKN040"
    },
    {
      "icao": "EBCI",
      "alert": "OK",
      "vis_m": 9999,
      "fzfg": false,
      "metar_trigger": false,
      "taf_trigger": false,
      "metar": "METAR EBCI 270850Z 23005KT 190V260 CAVOK 05/M01 Q1024 NOSIG",
      "taf": "TAF EBCI 270500Z 2706/2812 21005KT CAVOK"
    },
    {
      "icao": "EDDB",
      "alert": "OK",
      "vis_m": 9999,
      "fzfg": false,
      "metar_trigger": false,
      "taf_trigger": false,
      "metar": "METAR EDDB 270850Z AUTO VRB05KT 9999 SCT015 BKN020 BKN032 04/M00 Q1021 NOSIG",
      "taf": "TAF EDDB 270500Z 2706/2806 23006KT CAVOK"
    },
    {
      "icao": "EDDH",
      "alert": "OK",
      "vis_m": 9999,
      "fzfg": false,
      "metar_trigger": false,
      "taf_trigger": false,
      "metar": "METAR EDDH 270850Z AUTO 26007KT 210V290 9999 FEW019 06/02 Q1021 NOSIG",
      "taf": "TAF EDDH 270500Z 2706/2812 25007KT 9999 FEW025"
    },
    {
      "icao": "EDDK",
      "alert": "OK",
      "vis_m": 9999,
      "fzfg": false,
      "metar_trigger": false,
      "taf_trigger": false,
      "metar": "METAR EDDK 270850Z AUTO VRB01KT 9999 BKN014 04/00 Q1025 BECMG SCT015",
      "taf": ""
    },
    {
      "icao": "EDDN",
      "alert": "OK",
      "vis_m": 9999,
      "fzfg": false,
      "metar_trigger": false,
      "taf_trigger": false,
      "metar": "METAR EDDN 270850Z AUTO VRB04KT 9999 SCT019 03/M02 Q1023 NOSIG",
      "taf": "TAF EDDN 270500Z 2706/2806 31007KT CAVOK"
    },
    {
      "icao": "EDDS",
      "alert": "OK",
      "vis_m": 9999,
      "fzfg": false,
      "metar_trigger": false,
      "taf_trigger": false,
      "metar": "METAR EDDS 270850Z AUTO 09003KT 030V180 9999 BKN017 BKN022 BKN027 02/M03 Q1022 NOSIG",
      "taf": "TAF EDDS 270500Z 2706/2806 VRB03KT 9999 SCT035"
    },
    {
      "icao": "EDFH",
      "alert": "OK",
      "vis_m": 9999,
      "fzfg": false,
      "metar_trigger": false,
      "taf_trigger": false,
      "metar": "METAR EDFH 270850Z 28004KT 240V310 9999 FEW006 OVC018 M01/M02 Q1023",
      "taf": ""
    },
    {
      "icao": "EDJA",
      "alert": "OK",
      "vis_m": 9999,
      "fzfg": false,
      "metar_trigger": false,
      "taf_trigger": false,
      "metar": "METAR EDJA 270850Z 01006KT 330V060 9999 BKN011 M00/M03 Q1020",
      "taf": "TAF EDJA 270800Z 2709/2718 02007KT 9999 BKN009"
    },
    {
      "icao": "EDLW",
      "alert": "OK",
      "vis_m": 9999,
      "fzfg": false,
      "metar_trigger": false,
      "taf_trigger": false,
      "metar": "METAR EDLW 270850Z COR 22005KT 170V240 9999 FEW019 05/01 Q1023",
      "taf": "TAF EDLW 270500Z 2706/2806 23005KT 9999 SCT025"
    },
    {
      "icao": "EDNY",
      "alert": "OK",
      "vis_m": 9999,
      "fzfg": false,
      "metar_trigger": false,
      "taf_trigger": false,
      "metar": "METAR EDNY 270850Z 03008KT 360V060 9999 SCT021 02/M02 Q1022",
      "taf": "TAF EDNY 270800Z 2709/2718 03010KT 9999 FEW025 BKN040"
    },
    {
      "icao": "EDSB",
      "alert": "OK",
      "vis_m": 9999,
      "fzfg": false,
      "metar_trigger": false,
      "taf_trigger": false,
      "metar": "METAR EDSB 270850Z 03006KT 340V060 9999 FEW024 BKN032 03/M02 Q1024",
      "taf": "TAF EDSB 270500Z 2706/2806 VRB03KT CAVOK"
    },
    {
      "icao": "EETN",
      "alert": "OK",
      "vis_m": 9999,
      "fzfg": false,
      "metar_trigger": false,
      "taf_trigger": false,
      "metar": "METAR EETN 270850Z 18010KT CAVOK 08/02 Q1013 NOSIG",
      "taf": "TAF EETN 270530Z 2706/2806 23008KT 9999 SCT040"
    },
    {
      "icao": "EFTU",
      "alert": "OK",
      "vis_m": 9999,
      "fzfg": false,
      "metar_trigger": false,
      "taf_trigger": false,
      "metar": "METAR EFTU 270850Z AUTO 24007KT 190V270 CAVOK 07/01 Q1011",
      "taf": "TAF EFTU 270825Z 2709/2809 20005KT CAVOK"
    },
    {
      "icao": "EGBB",
      "alert": "OK",
      "vis_m": 9999,
      "fzfg": false,
      "metar_trigger": false,
      "taf_trigger": false,
      "metar": "METAR EGBB 270850Z 21007KT 180V240 9999 -RA BKN008 10/08 Q1017",
      "taf": "TAF EGBB 270457Z 2706/2806 21006KT 9999 BKN016"
    },
    {
      "icao": "EGGP",
      "alert": "OK",
      "vis_m": 4000,
      "fzfg": false,
      "metar_trigger": false,
      "taf_trigger": false,
      "metar": "METAR EGGP 270850Z 21005KT 4000 -DZ BKN008 OVC012 09/08 Q1015",
      "taf": "TAF EGGP 270500Z 2706/2806 20007KT 9999 BKN030"
    },
    {
      "icao": "EGGW",
      "alert": "OK",
      "vis_m": 9999,
      "fzfg": false,
      "metar_trigger": false,
      "taf_trigger": false,
      "metar": "METAR EGGW 270850Z AUTO 21008KT 9999 OVC011 08/06 Q1019",
      "taf": "TAF EGGW 270501Z 2706/2806 23010KT 9999 SCT040"
    },
    {
      "icao": "EGKK",
      "alert": "OK",
      "vis_m": 9999,
      "fzfg": false,
      "metar_trigger": false,
      "taf_trigger": false,
      "metar": "METAR EGKK 270850Z 21007KT 9999 FEW011 SCT030 09/07 Q1021",
      "taf": "TAF EGKK 270459Z 2706/2812 24004KT 9999 FEW040"
    },
    {
      "icao": "EGNM",
      "alert": "OK",
      "vis_m": 9999,
      "fzfg": false,
      "metar_trigger": false,
      "taf_trigger": false,
      "metar": "METAR EGNM 270850Z 23010KT 190V260 9999 BKN007 08/07 Q1014",
      "taf": "TAF EGNM 270456Z 2706/2806 22009KT 9999 FEW012 BKN025"
    },
    {
      "icao": "EGPD",
      "alert": "OK",
      "vis_m": 9999,
      "fzfg": false,
      "metar_trigger": false,
      "taf_trigger": false,
      "metar": "METAR EGPD 270850Z COR AUTO 25007KT 210V280 9999 NCD 09/02 Q1010 NOSIG",
      "taf": "TAF EGPD 270457Z 2706/2806 25009KT 9999 FEW025"
    },
    {
      "icao": "EGPF",
      "alert": "OK",
      "vis_m": 8000,
      "fzfg": false,
      "metar_trigger": false,
      "taf_trigger": false,
      "metar": "METAR EGPF 270850Z 24012KT 8000 -SHRA FEW026 SCT032 BKN039 09/05 Q1013",
      "taf": ""
    },
    {
      "icao": "EHBK",
      "alert": "OK",
      "vis_m": 9999,
      "fzfg": false,
      "metar_trigger": false,
      "taf_trigger": false,
      "metar": "METAR EHBK 270855Z AUTO 20007KT 160V240 9999 NCD 04/01 Q1024 NOSIG",
      "taf": "TAF EHBK 270509Z 2706/2812 21003KT CAVOK"
    },
    {
      "icao": "EHEH",
      "alert": "OK",
      "vis_m": 9999,
      "fzfg": false,
      "metar_trigger": false,
      "taf_trigger": false,
      "metar": "METAR EHEH 270855Z AUTO 22008KT 190V260 9999 BKN230 06/01 Q1024 BLU BECMG 9999 NSW",
      "taf": "TAF EHEH 270547Z 2706/2812 21003KT 6000 NSC"
    },
    {
      "icao": "EKBI",
      "alert": "OK",
      "vis_m": 9999,
      "fzfg": false,
      "metar_trigger": false,
      "taf_trigger": false,
      "metar": "METAR EKBI 270850Z AUTO 25011KT 9999 FEW027/// 05/M01 Q1018",
      "taf": "TAF EKBI 270827Z 2709/2809 24010KT 9999 SCT035"
    },
    {
      "icao": "EKCH",
      "alert": "OK",
      "vis_m": 9999,
      "fzfg": false,
      "metar_trigger": false,
      "taf_trigger": false,
      "metar": "METAR EKCH 270850Z AUTO 30006KT 270V340 9999 NCD 06/00 Q1018 NOSIG",
      "taf": "TAF EKCH 270827Z 2709/2809 28008KT 9999 FEW012"
    },
    {
      "icao": "ENAL",
      "alert": "OK",
      "vis_m": 9999,
      "fzfg": false,
      "metar_trigger": false,
      "taf_trigger": false,
      "metar": "METAR ENAL 270850Z 19009KT 9999 BKN045 06/M00 Q1002",
      "taf": "TAF ENAL 270800Z 2709/2718 20015KT 9999 -RA BKN030"
    },
    {
      "icao": "ENBR",
      "alert": "OK",
      "vis_m": 5000,
      "fzfg": false,
      "metar_trigger": false,
      "taf_trigger": false,
      "metar": "METAR ENBR 270850Z 14018KT 5000 -RA BR BKN007 02/01 Q1008 TEMPO 16018G28KT 3000 RASN SCT003 BKN006 RMK WIND 1200FT 15028KT",
      "taf": ""
    },
    {
      "icao": "ENGM",
      "alert": "OK",
      "vis_m": 9999,
      "fzfg": false,
      "metar_trigger": false,
      "taf_trigger": false,
      "metar": "METAR ENGM 270850Z 18007KT CAVOK 04/M05 Q1011 NOSIG",
      "taf": "TAF ENGM 270500Z 2706/2806 34005KT CAVOK"
    },
    {
      "icao": "ENHD",
      "alert": "OK",
      "vis_m": 7000,
      "fzfg": false,
      "metar_trigger": false,
      "taf_trigger": false,
      "metar": "METAR ENHD 270850Z 14014KT 7000 RA FEW002 BKN006 04/03 Q1010",
      "taf": "TAF ENHD 270800Z 2709/2718 16012KT 9000 -RADZ FEW010 BKN015"
    },
    {
      "icao": "ENTC",
      "alert": "OK",
      "vis_m": 5000,
      "fzfg": false,
      "metar_trigger": false,
      "taf_trigger": false,
      "metar": "METAR ENTC 270850Z 05003KT 360V090 5000 -SN FEW005 SCT013 BKN018 M01/M02 Q1002 NOSIG RMK WIND 2600FT 34034KT",
      "taf": "TAF ENTC 270500Z 2706/2806 33009KT 6000 -SHSN SCT008 BKN015"
    },
    {
      "icao": "ENTO",
      "alert": "OK",
      "vis_m": 9999,
      "fzfg": false,
      "metar_trigger": false,
      "taf_trigger": false,
      "metar": "METAR ENTO 270850Z 17007KT CAVOK 06/M05 Q1012 NOSIG",
      "taf": "TAF ENTO 270500Z 2706/2806 32005KT CAVOK"
    },
    {
      "icao": "ENVA",
      "alert": "OK",
      "vis_m": 9999,
      "fzfg": false,
      "metar_trigger": false,
      "taf_trigger": false,
      "metar": "METAR ENVA 270850Z 11009KT CAVOK 04/M01 Q1005 NOSIG RMK WIND 670FT 13012KT",
      "taf": "TAF ENVA 270500Z 2706/2806 10006KT CAVOK"
    },
    {
      "icao": "ENZV",
      "alert": "OK",
      "vis_m": 4500,
      "fzfg": false,
      "metar_trigger": false,
      "taf_trigger": false,
      "metar": "METAR ENZV 270850Z 16011KT 4500 SHRA BKN006 BKN014 04/02 Q1011 TEMPO 16015G25KT RADZ BR BKN004",
      "taf": ""
    },
    {
      "icao": "EPGD",
      "alert": "OK",
      "vis_m": 9999,
      "fzfg": false,
      "metar_trigger": false,
      "taf_trigger": false,
      "metar": "METAR EPGD 270900Z 29009KT CAVOK 06/M01 Q1018",
      "taf": "TAF EPGD 270530Z 2706/2806 27008KT CAVOK"
    },
    {
      "icao": "EPKK",
      "alert": "OK",
      "vis_m": 9999,
      "fzfg": false,
      "metar_trigger": false,
      "taf_trigger": false,
      "metar": "METAR EPKK 270900Z 36010KT 9999 -RA SCT014 BKN022 OVC026 03/01 Q1014",
      "taf": "TAF EPKK 270830Z 2709/2809 02010KT 9999 -RA BKN020"
    },
    {
      "icao": "EPKT",
      "alert": "OK",
      "vis_m": 9999,
      "fzfg": false,
      "metar_trigger": false,
      "taf_trigger": false,
      "metar": "METAR EPKT 270900Z 01014KT 9999 FEW024 BKN049 05/M02 Q1015",
      "taf": "TAF EPKT 270530Z 2706/2806 36010KT 9999 FEW021"
    },
    {
      "icao": "EPLB",
      "alert": "OK",
      "vis_m": 9999,
      "fzfg": false,
      "metar_trigger": false,
      "taf_trigger": false,
      "metar": "METAR EPLB 270900Z 04010KT 360V060 9999 FEW018 05/01 Q1013",
      "taf": "TAF EPLB 270530Z 2706/2806 01012KT 9999 OVC010"
    },
    {
      "icao": "EPMO",
      "alert": "OK",
      "vis_m": 9999,
      "fzfg": false,
      "metar_trigger": false,
      "taf_trigger": false,
      "metar": "METAR EPMO 270900Z 36011KT CAVOK 07/M02 Q1017",
      "taf": "TAF EPMO 270530Z 2706/2806 36010KT 9999 SCT045"
    },
    {
      "icao": "EPPO",
      "alert": "OK",
      "vis_m": 9999,
      "fzfg": true,
      "metar_trigger": false,
      "taf_trigger": false,
      "metar": "METAR EPPO 270900Z 31004KT 280V030 CAVOK 06/M03 Q1020",
      "taf": "TAF EPPO 270530Z 2706/2806 VRB02KT 0200 FZFG NSC"
    },
    {
      "icao": "EPRA",
      "alert": "OK",
      "vis_m": 9999,
      "fzfg": false,
      "metar_trigger": false,
      "taf_trigger": false,
      "metar": "METAR EPRA 270900Z 36011KT 330V030 9999 BKN033 05/M00 Q1015",
      "taf": "TAF EPRA 270830Z 2709/2718 01012KT 9999 BKN040"
    },
    {
      "icao": "EPRZ",
      "alert": "OK",
      "vis_m": 9999,
      "fzfg": false,
      "metar_trigger": false,
      "taf_trigger": false,
      "metar": "METAR EPRZ 270900Z 01011KT 9999 -RA BKN007 05/04 Q1011",
      "taf": "TAF EPRZ 270530Z 2706/2806 02009KT 9999 BKN012"
    },
    {
      "icao": "EPSC",
      "alert": "OK",
      "vis_m": 9999,
      "fzfg": false,
      "metar_trigger": false,
      "taf_trigger": false,
      "metar": "METAR EPSC 270900Z 25006KT 9999 SCT013 BKN024 04/01 Q1020",
      "taf": ""
    },
    {
      "icao": "EPSY",
      "alert": "OK",
      "vis_m": 9999,
      "fzfg": false,
      "metar_trigger": false,
      "taf_trigger": false,
      "metar": "METAR EPSY 270900Z 01011KT 330V040 9999 FEW032 07/M03 Q1017",
      "taf": "TAF EPSY 270830Z 2709/2718 35010KT CAVOK"
    },
    {
      "icao": "EPWA",
      "alert": "OK",
      "vis_m": 9999,
      "fzfg": false,
      "metar_trigger": false,
      "taf_trigger": false,
      "metar": "METAR EPWA 270900Z 36011KT 330V040 9999 SCT045 07/M01 Q1016 NOSIG",
      "taf": "TAF EPWA 270830Z 2709/2809 36012KT CAVOK"
    },
    {
      "icao": "EPWR",
      "alert": "OK",
      "vis_m": 9999,
      "fzfg": false,
      "metar_trigger": false,
      "taf_trigger": false,
      "metar": "METAR EPWR 270900Z 33009KT 280V360 9999 FEW023 SCT044 06/M01 Q1019",
      "taf": "TAF EPWR 270830Z 2709/2809 32012KT 9999 SCT035"
    },
    {
      "icao": "ESGG",
      "alert": "OK",
      "vis_m": 9999,
      "fzfg": false,
      "metar_trigger": false,
      "taf_trigger": false,
      "metar": "METAR ESGG 270850Z 18005KT 9999 BKN004 03/02 Q1014",
      "taf": ""
    },
    {
      "icao": "ESKN",
      "alert": "OK",
      "vis_m": 9999,
      "fzfg": false,
      "metar_trigger": false,
      "taf_trigger": false,
      "metar": "METAR ESKN 270850Z 26004KT 220V300 CAVOK 08/M01 Q1013",
      "taf": "TAF ESKN 270830Z 2709/2809 25005KT CAVOK"
    },
    {
      "icao": "ESMS",
      "alert": "OK",
      "vis_m": 9999,
      "fzfg": false,
      "metar_trigger": false,
      "taf_trigger": false,
      "metar": "METAR ESMS 270850Z 27007KT 9999 SCT013 05/02 Q1017",
      "taf": "TAF ESMS 270827Z 2709/2809 24005KT 8000 FEW006"
    },
    {
      "icao": "ESSA",
      "alert": "OK",
      "vis_m": 9999,
      "fzfg": false,
      "metar_trigger": false,
      "taf_trigger": false,
      "metar": "METAR ESSA 270850Z 24008KT CAVOK 05/M01 Q1012 NOSIG",
      "taf": "TAF ESSA 270830Z 2709/2809 24008KT CAVOK"
    },
    {
      "icao": "EYKA",
      "alert": "OK",
      "vis_m": 9999,
      "fzfg": false,
      "metar_trigger": false,
      "taf_trigger": false,
      "metar": "METAR EYKA 270850Z 33006KT 280V040 CAVOK 07/M01 Q1017",
      "taf": "TAF EYKA 270502Z 2706/2806 VRB04KT 9000 NSC"
    },
    {
      "icao": "EYPA",
      "alert": "OK",
      "vis_m": 9999,
      "fzfg": false,
      "metar_trigger": false,
      "taf_trigger": false,
      "metar": "METAR EYPA 270850Z 24005KT 200V300 CAVOK 05/02 Q1017",
      "taf": "TAF EYPA 270503Z 2706/2806 VRB04KT 9000 NSC"
    },
    {
      "icao": "EYVI",
      "alert": "OK",
      "vis_m": 9999,
      "fzfg": false,
      "metar_trigger": false,
      "taf_trigger": false,
      "metar": "METAR EYVI 270850Z 36010KT CAVOK 07/M00 Q1016 NOSIG",
      "taf": "TAF EYVI 270501Z 2706/2806 36008KT 9000 SCT045"
    },
    {
      "icao": "GCFV",
      "alert": "OK",
      "vis_m": 9999,
      "fzfg": false,
      "metar_trigger": false,
      "taf_trigger": false,
      "metar": "METAR GCFV 270900Z 33015KT 9999 FEW025 SCT035 18/11 Q1014",
      "taf": "TAF GCFV 270800Z 2709/2809 34014KT 9999 SCT035 TX22/2714Z TN16/2806Z"
    },
    {
      "icao": "GCLP",
      "alert": "OK",
      "vis_m": 9999,
      "fzfg": false,
      "metar_trigger": false,
      "taf_trigger": false,
      "metar": "METAR GCLP 270900Z 36017KT 9999 SCT025 18/09 Q1015 NOSIG",
      "taf": "TAF GCLP 270800Z 2709/2809 01018KT 9999 SCT025 TX22/2714Z TN16/2806Z"
    },
    {
      "icao": "GCTS",
      "alert": "OK",
      "vis_m": 9999,
      "fzfg": false,
      "metar_trigger": false,
      "taf_trigger": false,
      "metar": "METAR GCTS 270900Z 06004KT 030V100 9999 FEW040 19/12 Q1015 NOSIG",
      "taf": "TAF GCTS 270800Z 2709/2809 19007KT 9999 SCT030 TX23/2714Z TN14/2806Z"
    },
    {
      "icao": "GMAD",
      "alert": "OK",
      "vis_m": 5000,
      "fzfg": false,
      "metar_trigger": false,
      "taf_trigger": false,
      "metar": "METAR GMAD 270900Z 21003KT 160V230 5000 OVC006 17/17 Q1010 NOSIG",
      "taf": "TAF GMAD 270500Z 2706/2812 18008KT 6000 BKN010"
    },
    {
      "icao": "GMMN",
      "alert": "OK",
      "vis_m": 2000,
      "fzfg": false,
      "metar_trigger": false,
      "taf_trigger": false,
      "metar": "METAR GMMN 270900Z VRB02KT 2000 BR BKN004 17/15 Q1011 NOSIG",
      "taf": ""
    },
    {
      "icao": "GMMX",
      "alert": "OK",
      "vis_m": 4000,
      "fzfg": false,
      "metar_trigger": false,
      "taf_trigger": false,
      "metar": "METAR GMMX 270900Z 21003KT 150V300 4000 BR BKN006 15/13 Q1011 NOSIG",
      "taf": "TAF GMMX 270500Z 2706/2812 06006KT 8000 SCT026 SCT080"
    },
    {
      "icao": "HEGN",
      "alert": "OK",
      "vis_m": 9999,
      "fzfg": false,
      "metar_trigger": false,
      "taf_trigger": false,
      "metar": "METAR HEGN 270800Z 32012KT 9999 SCT025 23/07 Q1016 NOSIG",
      "taf": "TAF HEGN 270501Z 2706/2812 30010KT 9999 SCT025"
    },
    {
      "icao": "HEMA",
      "alert": "OK",
      "vis_m": 9999,
      "fzfg": false,
      "metar_trigger": false,
      "taf_trigger": false,
      "metar": "METAR HEMA 270800Z 26005KT CAVOK 22/04 Q1016 NOSIG",
      "taf": "TAF HEMA 270500Z 2706/2812 29010KT 9999 SCT025"
    },
    {
      "icao": "HESH",
      "alert": "OK",
      "vis_m": 9999,
      "fzfg": false,
      "metar_trigger": false,
      "taf_trigger": false,
      "metar": "METAR HESH 270800Z 12003KT CAVOK 23/08 Q1016 NOSIG",
      "taf": "TAF HESH 270501Z 2706/2812 35010KT 9999 SCT025"
    },
    {
      "icao": "HESX",
      "alert": "OK",
      "vis_m": 9999,
      "fzfg": false,
      "metar_trigger": false,
      "taf_trigger": false,
      "metar": "METAR HESX 270800Z 22009KT CAVOK 17/07 Q1015 NOSIG",
      "taf": "TAF HESX 270500Z 2706/2812 26012KT 9999 SCT025"
    },
    {
      "icao": "LATI",
      "alert": "OK",
      "vis_m": 9999,
      "fzfg": false,
      "metar_trigger": false,
      "taf_trigger": false,
      "metar": "METAR LATI 270850Z 15011KT 120V180 9999 SCT062 13/03 Q0998 NOSIG",
      "taf": ""
    },
    {
      "icao": "LBPD",
      "alert": "OK",
      "vis_m": 9000,
      "fzfg": false,
      "metar_trigger": false,
      "taf_trigger": false,
      "metar": "METAR LBPD 270900Z AUTO 10020KT 9000 BKN050/// OVC059/// 10/07 Q0999 NOSIG",
      "taf": "TAF LBPD 270500Z 2706/2806 11016KT 9999 SCT030 BKN050"
    },
    {
      "icao": "LBSF",
      "alert": "OK",
      "vis_m": 9999,
      "fzfg": false,
      "metar_trigger": false,
      "taf_trigger": false,
      "metar": "METAR LBSF 270900Z 13014KT 9999 BKN026 OVC042 09/03 Q0998 TEMPO 14020G30KT 5000 RA BKN020",
      "taf": "TAF LBSF 270500Z 2706/2806 12014KT 9999 BKN060"
    },
    {
      "icao": "LBWN",
      "alert": "OK",
      "vis_m": 9999,
      "fzfg": false,
      "metar_trigger": false,
      "taf_trigger": false,
      "metar": "METAR LBWN 270900Z 11017KT 9999 BKN013 11/07 Q1005 NOSIG",
      "taf": "TAF LBWN 270500Z 2706/2806 11008KT 9999 SCT010 OVC013"
    },
    {
      "icao": "LCLK",
      "alert": "OK",
      "vis_m": 9999,
      "fzfg": false,
      "metar_trigger": false,
      "taf_trigger": false,
      "metar": "METAR LCLK 270900Z 06006KT 030V100 9999 FEW020 21/11 Q1009 NOSIG",
      "taf": "TAF LCLK 270530Z 2706/2806 26009KT 9999 FEW025"
    },
    {
      "icao": "LCPH",
      "alert": "OK",
      "vis_m": 9999,
      "fzfg": false,
      "metar_trigger": false,
      "taf_trigger": false,
      "metar": "METAR LCPH 270900Z 27015KT 250V320 9999 FEW025 BKN040 19/12 Q1011 NOSIG",
      "taf": "TAF LCPH 270530Z 2706/2806 30015KT 9999 FEW018 SCT025"
    },
    {
      "icao": "LEAL",
      "alert": "OK",
      "vis_m": 9999,
      "fzfg": false,
      "metar_trigger": false,
      "taf_trigger": false,
      "metar": "METAR LEAL 270900Z 28001KT 9999 FEW023 SCT048 BKN065 15/08 Q1017 NOSIG",
      "taf": "TAF LEAL 270500Z 2706/2806 VRB04KT 9999 FEW025 TX16/2712Z TN06/2706Z"
    },
    {
      "icao": "LEBB",
      "alert": "OK",
      "vis_m": 8000,
      "fzfg": false,
      "metar_trigger": false,
      "taf_trigger": false,
      "metar": "METAR LEBB 270900Z VRB02KT 8000 -RA FEW021 SCT027 OVC034 09/08 Q1026 NOSIG",
      "taf": "TAF LEBB 270500Z 2706/2806 35009KT 9999 SCT035 BKN050 TX13/2714Z TN06/2706Z"
    },
    {
      "icao": "LEBL",
      "alert": "OK",
      "vis_m": 9999,
      "fzfg": false,
      "metar_trigger": false,
      "taf_trigger": false,
      "metar": "METAR LEBL 270900Z 34009KT 310V020 CAVOK 12/01 Q1016 NOSIG",
      "taf": ""
    },
    {
      "icao": "LECH",
      "alert": "OK",
      "vis_m": 9999,
      "fzfg": false,
      "metar_trigger": false,
      "taf_trigger": false,
      "metar": "METAR LECH 270900Z AUTO 27002KT CAVOK 13/M02 Q1016",
      "taf": "TAF LECH 270500Z 2706/2806 33009KT 9999 FEW030 TX19/2713Z TN05/2706Z"
    },
    {
      "icao": "LEMD",
      "alert": "OK",
      "vis_m": 9999,
      "fzfg": false,
      "metar_trigger": false,
      "taf_trigger": false,
      "metar": "METAR LEMD 270900Z 34005KT 290V020 CAVOK 08/00 Q1019 NOSIG",
      "taf": "TAF LEMD 270500Z 2706/2812 03008KT CAVOK TX20/2716Z TN03/2707Z"
    },
    {
      "icao": "LEMG",
      "alert": "OK",
      "vis_m": 9999,
      "fzfg": false,
      "metar_trigger": false,
      "taf_trigger": false,
      "metar": "METAR LEMG 270900Z 13009KT 9999 FEW030 SCT050 16/09 Q1017 NOSIG",
      "taf": "TAF LEMG 270500Z 2706/2806 12010KT 9999 SCT020 TX20/2713Z TN08/2706Z"
    },
    {
      "icao": "LEVC",
      "alert": "OK",
      "vis_m": 9999,
      "fzfg": false,
      "metar_trigger": false,
      "taf_trigger": false,
      "metar": "METAR LEVC 270900Z 26003KT 170V330 CAVOK 14/M01 Q1017 NOSIG",
      "taf": "TAF LEVC 270500Z 2706/2806 30005KT 9999 FEW025 TX19/2713Z TN05/2706Z"
    },
    {
      "icao": "LEXJ",
      "alert": "OK",
      "vis_m": 9999,
      "fzfg": false,
      "metar_trigger": false,
      "taf_trigger": false,
      "metar": "METAR LEXJ 270900Z 26003KT 230V290 9999 BKN055 10/07 Q1026",
      "taf": "TAF LEXJ 270800Z 2709/2809 27009KT 9999 FEW030 BKN040 TX13/2712Z TN08/2805Z"
    },
    {
      "icao": "LEZG",
      "alert": "OK",
      "vis_m": 9999,
      "fzfg": false,
      "metar_trigger": false,
      "taf_trigger": false,
      "metar": "METAR LEZG 270900Z 30022KT 9999 FEW030 11/02 Q1019 NOSIG",
      "taf": "TAF LEZG 270500Z 2706/2806 30020KT 9999 FEW045 TX16/2714Z TN06/2706Z"
    },
    {
      "icao": "LEZL",
      "alert": "OK",
      "vis_m": 9999,
      "fzfg": false,
      "metar_trigger": false,
      "taf_trigger": false,
      "metar": "METAR LEZL 270900Z 06014KT CAVOK 16/02 Q1016 NOSIG",
      "taf": "TAF LEZL 270800Z 2709/2809 06010KT CAVOK TX28/2715Z TN07/2807Z"
    },
    {
      "icao": "LFBD",
      "alert": "OK",
      "vis_m": 9999,
      "fzfg": false,
      "metar_trigger": false,
      "taf_trigger": false,
      "metar": "METAR LFBD 270900Z AUTO 05004KT 010V080 CAVOK 09/M01 Q1026 NOSIG",
      "taf": "TAF LFBD 270500Z 2706/2812 35005KT CAVOK TX13/2715Z TN02/2706Z"
    },
    {
      "icao": "LFLL",
      "alert": "OK",
      "vis_m": 9999,
      "fzfg": false,
      "metar_trigger": false,
      "taf_trigger": false,
      "metar": "METAR LFLL 270900Z 36017KT 9999 SCT020 04/M01 Q1021 TEMPO 35015G25KT",
      "taf": "TAF LFLL 270500Z 2706/2812 35012KT 9999 BKN016"
    },
    {
      "icao": "LFLS",
      "alert": "OK",
      "vis_m": 9999,
      "fzfg": false,
      "metar_trigger": false,
      "taf_trigger": false,
      "metar": "METAR LFLS 270900Z AUTO 33017KT 9999 SCT016 SCT023 03/M01 Q1018 TEMPO 35015G25KT",
      "taf": "TAF LFLS 270800Z 2709/2809 34010KT 9999 SCT020"
    },
    {
      "icao": "LFMN",
      "alert": "OK",
      "vis_m": 9999,
      "fzfg": false,
      "metar_trigger": false,
      "taf_trigger": false,
      "metar": "METAR LFMN 270900Z 33007KT CAVOK 14/M11 Q1008 NOSIG",
      "taf": "TAF LFMN 270800Z 2709/2815 30005KT CAVOK"
    },
    {
      "icao": "LFOB",
      "alert": "OK",
      "vis_m": 9999,
      "fzfg": false,
      "metar_trigger": false,
      "taf_trigger": false,
      "metar": "METAR LFOB 270900Z AUTO VRB02KT CAVOK 06/04 Q1024 NOSIG",
      "taf": "TAF LFOB 270500Z 2706/2806 VRB03KT CAVOK"
    },
    {
      "icao": "LFPO",
      "alert": "OK",
      "vis_m": 9999,
      "fzfg": false,
      "metar_trigger": false,
      "taf_trigger": false,
      "metar": "METAR LFPO 270900Z 23003KT 190V280 CAVOK 06/01 Q1025 NOSIG",
      "taf": "TAF LFPO 270500Z 2706/2812 25003KT CAVOK"
    },
    {
      "icao": "LFSB",
      "alert": "OK",
      "vis_m": 9999,
      "fzfg": false,
      "metar_trigger": false,
      "taf_trigger": false,
      "metar": "METAR LFSB 270900Z AUTO 36009KT 330V050 9999 FEW017 04/00 Q1023 NOSIG",
      "taf": "TAF LFSB 270500Z 2706/2806 35010KT 9999 FEW040 BKN060"
    },
    {
      "icao": "LGAV",
      "alert": "OK",
      "vis_m": 9999,
      "fzfg": false,
      "metar_trigger": false,
      "taf_trigger": false,
      "metar": "METAR LGAV 270850Z 21015KT 9999 FEW025 SCT060 18/09 Q1002 NOSIG",
      "taf": "TAF LGAV 270500Z 2706/2806 22015G25KT 9999 FEW030"
    },
    {
      "icao": "LGTS",
      "alert": "OK",
      "vis_m": 9999,
      "fzfg": false,
      "metar_trigger": false,
      "taf_trigger": false,
      "metar": "METAR LGTS 270850Z 21015KT 9999 FEW020TCU SCT030 17/05 Q0998 NOSIG",
      "taf": "TAF LGTS 270500Z 2706/2806 12015KT 9999 SCT025"
    },
    {
      "icao": "LHBP",
      "alert": "OK",
      "vis_m": 9999,
      "fzfg": false,
      "metar_trigger": false,
      "taf_trigger": false,
      "metar": "METAR LHBP 270900Z 02016KT CAVOK 10/03 Q1004 NOSIG",
      "taf": "TAF LHBP 270515Z 2706/2806 01017KT CAVOK"
    },
    {
      "icao": "LHDC",
      "alert": "OK",
      "vis_m": 9999,
      "fzfg": false,
      "metar_trigger": false,
      "taf_trigger": false,
      "metar": "METAR LHDC 270845Z AUTO 03021G34KT 350V060 CAVOK 11/04 Q1002 NOSIG",
      "taf": "TAF LHDC 270815Z 2709/2718 02022G32KT CAVOK"
    },
    {
      "icao": "LIBD",
      "alert": "OK",
      "vis_m": 9999,
      "fzfg": false,
      "metar_trigger": false,
      "taf_trigger": false,
      "metar": "METAR LIBD 270850Z 28013G23KT 9999 FEW020 SCT040 10/05 Q0997",
      "taf": "TAF LIBD 270500Z 2706/2806 24012KT 9999 FEW020"
    },
    {
      "icao": "LIBG",
      "alert": "OK",
      "vis_m": 9999,
      "fzfg": false,
      "metar_trigger": false,
      "taf_trigger": false,
      "metar": "METAR LIBG 270850Z 28007KT 220V330 9999 FEW020 11/05 Q0997",
      "taf": ""
    },
    {
      "icao": "LIBP",
      "alert": "OK",
      "vis_m": 6000,
      "fzfg": false,
      "metar_trigger": false,
      "taf_trigger": false,
      "metar": "METAR LIBP 270850Z AUTO 31009KT 270V360 6000 RA OVC017/// 06/04 Q1003",
      "taf": "TAF LIBP 270500Z 2706/2806 32012KT 9999 BKN020"
    },
    {
      "icao": "LIBR",
      "alert": "OK",
      "vis_m": 9999,
      "fzfg": false,
      "metar_trigger": false,
      "taf_trigger": false,
      "metar": "METAR LIBR 270850Z 24007KT 190V280 9999 VCSH SCT035 11/06 Q0997",
      "taf": "TAF LIBR 270500Z 2706/2806 22012KT 9999 FEW040"
    },
    {
      "icao": "LICA",
      "alert": "OK",
      "vis_m": 9999,
      "fzfg": false,
      "metar_trigger": false,
      "taf_trigger": false,
      "metar": "METAR LICA 270850Z AUTO 27010KT 9999 -RA BKN031/// 10/08 Q0999",
      "taf": "TAF LICA 270500Z 2706/2806 27017KT 9999 BKN020"
    },
    {
      "icao": "LICC",
      "alert": "OK",
      "vis_m": 9999,
      "fzfg": false,
      "metar_trigger": false,
      "taf_trigger": false,
      "metar": "METAR LICC 270850Z 28021G32KT 260V320 9999 FEW010 SCT030 13/09 Q1002",
      "taf": "TAF LICC 270500Z 2706/2806 25012KT CAVOK"
    },
    {
      "icao": "LICJ",
      "alert": "OK",
      "vis_m": 9999,
      "fzfg": false,
      "metar_trigger": false,
      "taf_trigger": false,
      "metar": "METAR LICJ 270850Z 31018KT 9999 SCT030 13/06 Q1004",
      "taf": "TAF LICJ 270500Z 2706/2806 31026G36KT 9999 BKN030"
    },
    {
      "icao": "LIMC",
      "alert": "OK",
      "vis_m": 9999,
      "fzfg": false,
      "metar_trigger": false,
      "taf_trigger": false,
      "metar": "METAR LIMC 270850Z 34013G24KT 320V040 CAVOK 11/M12 Q1009 NOSIG",
      "taf": "TAF LIMC 270500Z 2706/2812 35018G28KT CAVOK"
    },
    {
      "icao": "LIME",
      "alert": "OK",
      "vis_m": 9999,
      "fzfg": false,
      "metar_trigger": false,
      "taf_trigger": false,
      "metar": "METAR LIME 270850Z 05006KT 9999 FEW100 12/M13 Q1008 NOSIG",
      "taf": "TAF LIME 270500Z 2706/2806 VRB05KT CAVOK"
    },
    {
      "icao": "LIMF",
      "alert": "OK",
      "vis_m": 9999,
      "fzfg": false,
      "metar_trigger": false,
      "taf_trigger": false,
      "metar": "METAR LIMF 270850Z 13005KT 100V170 CAVOK 11/M10 Q1009",
      "taf": "TAF LIMF 270500Z 2706/2806 VRB05KT CAVOK"
    },
    {
      "icao": "LIMJ",
      "alert": "OK",
      "vis_m": 9999,
      "fzfg": false,
      "metar_trigger": false,
      "taf_trigger": false,
      "metar": "METAR LIMJ 270850Z AUTO 01018G36KT 330V040 9999 NCD 12/M12 Q1006",
      "taf": "TAF LIMJ 270500Z 2706/2806 35020G35KT CAVOK"
    },
    {
      "icao": "LIPE",
      "alert": "OK",
      "vis_m": 9999,
      "fzfg": false,
      "metar_trigger": false,
      "taf_trigger": false,
      "metar": "METAR LIPE 270850Z VRB01KT 9999 SCT060 07/M02 Q1008",
      "taf": "TAF LIPE 270500Z 2706/2806 28008KT 9999 SCT070"
    },
    {
      "icao": "LIPH",
      "alert": "OK",
      "vis_m": 9999,
      "fzfg": false,
      "metar_trigger": false,
      "taf_trigger": false,
      "metar": "METAR LIPH 270850Z 34010KT 320V020 9999 BKN070 12/M03 Q1006",
      "taf": "TAF LIPH 270500Z 2706/2806 32006KT 9999 SCT070"
    },
    {
      "icao": "LIPQ",
      "alert": "OK",
      "vis_m": 9999,
      "fzfg": false,
      "metar_trigger": false,
      "taf_trigger": false,
      "metar": "METAR LIPQ 270850Z AUTO VRB02KT 9999 BKN110/// 11/M01 Q1005",
      "taf": "TAF LIPQ 270500Z 2706/2806 33006KT 9999 SCT070"
    },
    {
      "icao": "LIPR",
      "alert": "OK",
      "vis_m": 9999,
      "fzfg": false,
      "metar_trigger": false,
      "taf_trigger": false,
      "metar": "METAR LIPR 270850Z AUTO 33012KT 9999 -RA BKN026/// 07/04 Q1007 RERA",
      "taf": "TAF LIPR 270500Z 2706/2806 30008KT 9999 SCT020"
    },
    {
      "icao": "LIPX",
      "alert": "OK",
      "vis_m": 9999,
      "fzfg": false,
      "metar_trigger": false,
      "taf_trigger": false,
      "metar": "METAR LIPX 270850Z 02013G24KT CAVOK 12/M08 Q1007",
      "taf": "TAF LIPX 270500Z 2706/2806 01016G28KT CAVOK"
    },
    {
      "icao": "LIPY",
      "alert": "OK",
      "vis_m": 9999,
      "fzfg": false,
      "metar_trigger": false,
      "taf_trigger": false,
      "metar": "METAR LIPY 270850Z AUTO 35018G30KT 9999 -RA OVC027/// 08/05 Q1005 REDZ",
      "taf": "TAF LIPY 270500Z 2706/2806 01020G30KT 9999 BKN030"
    },
    {
      "icao": "LIPZ",
      "alert": "OK",
      "vis_m": 9999,
      "fzfg": false,
      "metar_trigger": false,
      "taf_trigger": false,
      "metar": "METAR LIPZ 270850Z 34010KT 9999 FEW050 SCT070 12/M02 Q1006 NOSIG",
      "taf": "TAF LIPZ 270500Z 2706/2812 VRB06KT 9999 SCT070"
    },
    {
      "icao": "LIRF",
      "alert": "OK",
      "vis_m": 9999,
      "fzfg": false,
      "metar_trigger": false,
      "taf_trigger": false,
      "metar": "METAR LIRF 270850Z 36018KT CAVOK 10/02 Q1002 NOSIG",
      "taf": "TAF LIRF 270500Z 2706/2812 35016G28KT CAVOK"
    },
    {
      "icao": "LIRN",
      "alert": "OK",
      "vis_m": 9999,
      "fzfg": false,
      "metar_trigger": false,
      "taf_trigger": false,
      "metar": "METAR LIRN 270850Z 04004KT 350V110 CAVOK 11/03 Q1000 NOSIG",
      "taf": "TAF LIRN 270500Z 2706/2806 VRB05KT 9999 FEW050"
    },
    {
      "icao": "LIRP",
      "alert": "OK",
      "vis_m": 9999,
      "fzfg": false,
      "metar_trigger": false,
      "taf_trigger": false,
      "metar": "METAR LIRP 270845Z 20002KT 9999 FEW060 06/01 Q1006 NOSIG",
      "taf": "TAF LIRP 270500Z 2706/2806 02005KT CAVOK"
    },
    {
      "icao": "LIRZ",
      "alert": "OK",
      "vis_m": 9999,
      "fzfg": false,
      "metar_trigger": false,
      "taf_trigger": false,
      "metar": "METAR LIRZ 270850Z AUTO 35013KT 9999 -RA OVC028/// 06/03 Q1004",
      "taf": "TAF LIRZ 270500Z 2706/2806 35010KT 9999 FEW020"
    },
    {
      "icao": "LJLJ",
      "alert": "OK",
      "vis_m": 9999,
      "fzfg": false,
      "metar_trigger": false,
      "taf_trigger": false,
      "metar": "METAR LJLJ 270900Z 34017G27KT 300V020 9999 FEW040 SCT060 BKN090 08/M06 Q1006 WS ALL RWY NOSIG",
      "taf": "TAF LJLJ 270500Z 2706/2806 33015G30KT 9999 FEW010 SCT035 OVC060"
    },
    {
      "icao": "LKMT",
      "alert": "OK",
      "vis_m": 9999,
      "fzfg": false,
      "metar_trigger": false,
      "taf_trigger": false,
      "metar": "METAR LKMT 270900Z 01014KT 9999 FEW021 BKN047 04/01 Q1015 NOSIG",
      "taf": "TAF LKMT 270500Z 2706/2806 01010KT 9999 BKN030"
    },
    {
      "icao": "LKPR",
      "alert": "OK",
      "vis_m": 9999,
      "fzfg": false,
      "metar_trigger": false,
      "taf_trigger": false,
      "metar": "METAR LKPR 270900Z 33012KT 300V360 9999 FEW030 03/M04 Q1020 NOSIG",
      "taf": "TAF LKPR 270800Z 2709/2815 31010KT CAVOK"
    },
    {
      "icao": "LLBG",
      "alert": "OK",
      "vis_m": 9999,
      "fzfg": false,
      "metar_trigger": false,
      "taf_trigger": false,
      "metar": "METAR LLBG 270850Z 21012KT 180V250 9999 -RA FEW020 BKN030 17/13 Q1014 NOSIG",
      "taf": "TAF LLBG 270504Z 2706/2806 20012KT 9999 SCT030 TX18/2711Z TN10/2803Z"
    },
    {
      "icao": "LMML",
      "alert": "OK",
      "vis_m": 6000,
      "fzfg": false,
      "metar_trigger": false,
      "taf_trigger": false,
      "metar": "METAR LMML 270845Z 28018G28KT 240V310 6000 SHRA BKN024TCU SCT043 10/07 Q1006 BECMG 9999",
      "taf": "TAF LMML 270500Z 2706/2806 29022G32KT 9999 FEW030"
    },
    {
      "icao": "LOWW",
      "alert": "OK",
      "vis_m": 9999,
      "fzfg": false,
      "metar_trigger": false,
      "taf_trigger": false,
      "metar": "METAR LOWW 270850Z 33021G31KT 9999 FEW024 SCT028 BKN030 05/M00 Q1013 TEMPO 34025G40KT",
      "taf": "TAF LOWW 270815Z 2709/2815 33018KT 9999 FEW015 BKN030 TX09/2815Z TN04/2806Z"
    },
    {
      "icao": "LPFR",
      "alert": "OK",
      "vis_m": 9999,
      "fzfg": false,
      "metar_trigger": false,
      "taf_trigger": false,
      "metar": "METAR LPFR 270900Z 08008KT 9999 FEW010 17/07 Q1015",
      "taf": "TAF LPFR 270500Z 2706/2806 07005KT CAVOK"
    },
    {
      "icao": "LPMA",
      "alert": "OK",
      "vis_m": 9999,
      "fzfg": false,
      "metar_trigger": false,
      "taf_trigger": false,
      "metar": "METAR LPMA 270900Z 36009G20KT 310V060 9999 BKN015 15/11 Q1018",
      "taf": "TAF LPMA 270500Z 2706/2806 36015KT 9999 SCT015"
    },
    {
      "icao": "LPPR",
      "alert": "OK",
      "vis_m": 9999,
      "fzfg": false,
      "metar_trigger": false,
      "taf_trigger": false,
      "metar": "METAR LPPR 270900Z 10010KT 040V130 CAVOK 14/03 Q1020",
      "taf": "TAF LPPR 270500Z 2706/2806 08005KT CAVOK"
    },
    {
      "icao": "LPPS",
      "alert": "OK",
      "vis_m": 9999,
      "fzfg": false,
      "metar_trigger": false,
      "taf_trigger": false,
      "metar": "METAR LPPS 270900Z 01011KT 340V040 9999 SCT014 BKN030 15/10 Q1018",
      "taf": "TAF LPPS 270500Z 2706/2812 01015KT 9999 SCT015 BKN030"
    },
    {
      "icao": "LPPT",
      "alert": "OK",
      "vis_m": 9999,
      "fzfg": false,
      "metar_trigger": false,
      "taf_trigger": false,
      "metar": "METAR LPPT 270900Z 05014KT CAVOK 14/00 Q1018",
      "taf": "TAF LPPT 270500Z 2706/2812 04012KT CAVOK"
    },
    {
      "icao": "LQBK",
      "alert": "OK",
      "vis_m": 5000,
      "fzfg": false,
      "metar_trigger": false,
      "taf_trigger": false,
      "metar": "METAR LQBK 270900Z 27012KT 5000 SNRA SCT007 BKN015 OVC025 01/M01 Q1003 NOSIG",
      "taf": "TAF LQBK 270500Z 2706/2806 30010KT 5000 RA SCT010 BKN015 OVC020 TX05/2713Z TN02/2706Z"
    },
    {
      "icao": "LQSA",
      "alert": "OK",
      "vis_m": 6000,
      "fzfg": false,
      "metar_trigger": false,
      "taf_trigger": false,
      "metar": "METAR LQSA 270900Z VRB01KT 6000 -SNRA FEW006 SCT012 BKN025 02/02 Q0999 NOSIG",
      "taf": ""
    },
    {
      "icao": "LQTZ",
      "alert": "OK",
      "vis_m": 1600,
      "fzfg": false,
      "metar_trigger": false,
      "taf_trigger": false,
      "metar": "METAR LQTZ 270900Z 28004KT 1600 -SN BR OVC002 00/00 Q1000",
      "taf": ""
    },
    {
      "icao": "LRBC",
      "alert": "OK",
      "vis_m": 9999,
      "fzfg": false,
      "metar_trigger": false,
      "taf_trigger": false,
      "metar": "METAR LRBC 270900Z 22004KT 9999 OVC014 07/04 Q1009",
      "taf": "TAF LRBC 270800Z 2709/2718 16008KT 9999 BKN010"
    },
    {
      "icao": "LRBS",
      "alert": "OK",
      "vis_m": 9999,
      "fzfg": false,
      "metar_trigger": false,
      "taf_trigger": false,
      "metar": "METAR LRBS 270900Z 06017KT 9999 BKN014 10/06 Q1004 BECMG BKN020",
      "taf": "TAF LRBS 270500Z 2706/2806 07018KT 9999 BKN010"
    },
    {
      "icao": "LRBV",
      "alert": "OK",
      "vis_m": 9999,
      "fzfg": false,
      "metar_trigger": false,
      "taf_trigger": false,
      "metar": "METAR LRBV 270900Z 11019KT 9999 SCT066 11/01 Q1003",
      "taf": "TAF LRBV 270800Z 2709/2718 07015KT CAVOK"
    },
    {
      "icao": "LRCL",
      "alert": "OK",
      "vis_m": 9999,
      "fzfg": false,
      "metar_trigger": false,
      "taf_trigger": false,
      "metar": "METAR LRCL 270900Z 12010KT 070V140 CAVOK 13/M01 Q1002",
      "taf": "TAF LRCL 270800Z 2709/2718 VRB04KT CAVOK"
    },
    {
      "icao": "LRCV",
      "alert": "OK",
      "vis_m": 9999,
      "fzfg": false,
      "metar_trigger": false,
      "taf_trigger": false,
      "metar": "METAR LRCV 270900Z 06026KT 9999 FEW020 10/05 Q1000",
      "taf": "TAF LRCV 270800Z 2709/2718 08024KT CAVOK"
    },
    {
      "icao": "LRIA",
      "alert": "OK",
      "vis_m": 9999,
      "fzfg": false,
      "metar_trigger": false,
      "taf_trigger": false,
      "metar": "METAR LRIA 270900Z COR 10005KT 9999 OVC022 08/03 Q1009",
      "taf": "TAF LRIA 270800Z 2709/2718 11007KT 9999 BKN020"
    },
    {
      "icao": "LROP",
      "alert": "OK",
      "vis_m": 9999,
      "fzfg": false,
      "metar_trigger": false,
      "taf_trigger": false,
      "metar": "METAR LROP 270900Z 07019KT 9999 BKN015 BKN017 10/04 Q1005 NOSIG",
      "taf": "TAF LROP 270500Z 2706/2806 07018KT 9999 BKN010"
    },
    {
      "icao": "LRSB",
      "alert": "OK",
      "vis_m": 9999,
      "fzfg": false,
      "metar_trigger": false,
      "taf_trigger": false,
      "metar": "METAR LRSB 270900Z 10008KT 9999 BKN068 11/01 Q1001",
      "taf": "TAF LRSB 270500Z 2706/2806 VRB04KT CAVOK"
    },
    {
      "icao": "LRSM",
      "alert": "OK",
      "vis_m": 9999,
      "fzfg": false,
      "metar_trigger": false,
      "taf_trigger": false,
      "metar": "METAR LRSM 270900Z 07007KT 040V100 CAVOK 16/02 Q1002",
      "taf": "TAF LRSM 270800Z 2709/2718 VRB03KT CAVOK"
    },
    {
      "icao": "LRSV",
      "alert": "OK",
      "vis_m": 9999,
      "fzfg": false,
      "metar_trigger": false,
      "taf_trigger": false,
      "metar": "METAR LRSV 270900Z 13007KT 100V170 9999 BKN016 OVC024 07/03 Q1008",
      "taf": "TAF LRSV 270800Z 2709/2718 15008KT 9999 BKN030"
    },
    {
      "icao": "LRTM",
      "alert": "OK",
      "vis_m": 9999,
      "fzfg": false,
      "metar_trigger": false,
      "taf_trigger": false,
      "metar": "METAR LRTM 270900Z 10013KT 9999 FEW030 15/01 Q1002",
      "taf": "TAF LRTM 270800Z 2709/2718 10012KT CAVOK"
    },
    {
      "icao": "LRTR",
      "alert": "OK",
      "vis_m": 9999,
      "fzfg": false,
      "metar_trigger": false,
      "taf_trigger": false,
      "metar": "METAR LRTR 270900Z 36008KT 330V030 CAVOK 14/09 Q0998",
      "taf": "TAF LRTR 270500Z 2706/2806 01010KT 9999 BKN045"
    },
    {
      "icao": "LTAC",
      "alert": "OK",
      "vis_m": 9999,
      "fzfg": false,
      "metar_trigger": false,
      "taf_trigger": false,
      "metar": "METAR LTAC 270850Z VRB03KT 9999 FEW040 11/03 Q1008 NOSIG RMK RWY21C 17004KT 120V200 RWY03L VRB02KT RWY21R 21004KT 120V260 RWY03R VRB03KT RWY21L VRB03KT",
      "taf": "TAF LTAC 270440Z 2706/2806 VRB02KT 3500 BR NSC"
    },
    {
      "icao": "LTFM",
      "alert": "OK",
      "vis_m": 9999,
      "fzfg": false,
      "metar_trigger": false,
      "taf_trigger": false,
      "metar": "METAR LTFM 270850Z 20013KT CAVOK 17/04 Q1005 NOSIG RMK RWY17L 19013KT RWY34L 17012KT RWY16R 19014KT RWY36 21015KT 170V230 RWY18 21013KT",
      "taf": "TAF LTFM 270440Z 2706/2812 VRB02KT CAVOK"
    },
    {
      "icao": "LUKK",
      "alert": "OK",
      "vis_m": 9999,
      "fzfg": false,
      "metar_trigger": false,
      "taf_trigger": false,
      "metar": "METAR LUKK 270900Z 10006KT 020V140 9999 OVC026 10/04 Q1009 NOSIG",
      "taf": "TAF LUKK 270521Z 2706/2806 15009KT 9999 BKN027"
    },
    {
      "icao": "LWOH",
      "alert": "OK",
      "vis_m": 9999,
      "fzfg": false,
      "metar_trigger": false,
      "taf_trigger": false,
      "metar": "METAR LWOH 270850Z 15005KT 090V220 9999 FEW020 SCT033 07/03 Q0998",
      "taf": "TAF LWOH 270820Z 2709/2809 18010KT 9999 FEW010 BKN035"
    },
    {
      "icao": "LWSK",
      "alert": "OK",
      "vis_m": 9999,
      "fzfg": false,
      "metar_trigger": false,
      "taf_trigger": false,
      "metar": "METAR LWSK 270850Z VRB02KT 9999 FEW030 12/05 Q0998 NOSIG",
      "taf": "TAF LWSK 270820Z 2709/2809 VRB02KT 9999 SCT030"
    },
    {
      "icao": "LYBE",
      "alert": "OK",
      "vis_m": 9999,
      "fzfg": false,
      "metar_trigger": false,
      "taf_trigger": false,
      "metar": "METAR LYBE 270900Z 14010KT 9999 -RA BKN030 10/07 Q0999 NOSIG",
      "taf": "TAF LYBE 270500Z 2706/2806 28007KT 5000 -RA BR SCT003 BKN025 TX09/2712Z TN05/2805Z"
    },
    {
      "icao": "LYNI",
      "alert": "OK",
      "vis_m": 9999,
      "fzfg": false,
      "metar_trigger": false,
      "taf_trigger": false,
      "metar": "METAR LYNI 270900Z 20003KT 140V280 9999 FEW005 SCT010 BKN037 08/07 Q0999 NOSIG",
      "taf": "TAF LYNI 270500Z 2706/2806 16007KT 9999 SCT040 BKN060 TX10/2712Z TN05/2806Z"
    },
    {
      "icao": "LYPG",
      "alert": "OK",
      "vis_m": 9999,
      "fzfg": false,
      "metar_trigger": false,
      "taf_trigger": false,
      "metar": "METAR LYPG 270900Z VRB02KT 9999 FEW026 SCT034 BKN070 11/04 Q0999 NOSIG",
      "taf": "TAF LYPG 270500Z 2706/2806 16005KT 9999 SCT040 SCT080 TX13/2713Z TN05/2805Z"
    },
    {
      "icao": "LZIB",
      "alert": "OK",
      "vis_m": 9999,
      "fzfg": false,
      "metar_trigger": false,
      "taf_trigger": false,
      "metar": "METAR LZIB 270900Z 34024G35KT 9999 FEW024 SCT039 06/01 Q1010 NOSIG",
      "taf": "TAF LZIB 270515Z 2706/2806 35019KT 9999 FEW014 SCT030"
    },
    {
      "icao": "LZKZ",
      "alert": "OK",
      "vis_m": 9999,
      "fzfg": false,
      "metar_trigger": false,
      "taf_trigger": false,
      "metar": "METAR LZKZ 270900Z 01027KT 9999 BKN023 07/02 Q1007 NOSIG",
      "taf": "TAF LZKZ 270515Z 2706/2806 01022KT CAVOK"
    },
    {
      "icao": "LZTT",
      "alert": "OK",
      "vis_m": 9999,
      "fzfg": false,
      "metar_trigger": false,
      "taf_trigger": false,
      "metar": "METAR LZTT 270900Z 27007KT 9999 -RASN FEW006 OVC030 02/01 Q1008 NOSIG",
      "taf": "TAF LZTT 270515Z 2706/2806 04005KT 9999 FEW005 BKN030"
    },
    {
      "icao": "OEJN",
      "alert": "OK",
      "vis_m": 9999,
      "fzfg": false,
      "metar_trigger": false,
      "taf_trigger": false,
      "metar": "METAR OEJN 270900Z 02010KT CAVOK 27/02 Q1015 NOSIG",
      "taf": "TAF OEJN 270500Z 2706/2812 34012KT 7000 NSC"
    },
    {
      "icao": "OEMA",
      "alert": "OK",
      "vis_m": 9999,
      "fzfg": false,
      "metar_trigger": false,
      "taf_trigger": false,
      "metar": "METAR OEMA 270900Z VRB03KT 9999 SCT040 19/04 Q1018 NOSIG",
      "taf": "TAF OEMA 270500Z 2706/2812 30008KT CAVOK"
    },
    {
      "icao": "OJAI",
      "alert": "OK",
      "vis_m": 3000,
      "fzfg": false,
      "metar_trigger": false,
      "taf_trigger": false,
      "metar": "METAR OJAI 270900Z 25022KT 3000 BR BKN010 12/10 Q1014 NOSIG",
      "taf": "TAF OJAI 270500Z 2706/2812 26014KT 3000 BR SCT015 SCT020"
    },
    {
      "icao": "OMAA",
      "alert": "OK",
      "vis_m": null,
      "fzfg": false,
      "metar_trigger": false,
      "taf_trigger": false,
      "metar": "",
      "taf": ""
    },
    {
      "icao": "OMDB",
      "alert": "OK",
      "vis_m": null,
      "fzfg": false,
      "metar_trigger": false,
      "taf_trigger": false,
      "metar": "",
      "taf": ""
    },
    {
      "icao": "UAAA",
      "alert": "OK",
      "vis_m": 9999,
      "fzfg": false,
      "metar_trigger": false,
      "taf_trigger": false,
      "metar": "METAR UAAA 270900Z 07002MPS 9999 NSC 22/01 Q1015 NOSIG",
      "taf": "TAF UAAA 270503Z 2706/2806 35003MPS 9999 NSC TX22/2710Z TN05/2801Z"
    },
    {
      "icao": "UBBB",
      "alert": "OK",
      "vis_m": 6000,
      "fzfg": false,
      "metar_trigger": false,
      "taf_trigger": false,
      "metar": "METAR UBBB 270900Z 30010KT 6000 -SHRA SCT007 SCT027CB OVC027 10/09 Q1002 NOSIG",
      "taf": "TAF UBBB 270459Z 2706/2806 32016G26KT 6000 BKN006 FEW040CB OVC040 TX11/2712Z TN10/2802Z"
    },
    {
      "icao": "UDSG",
      "alert": "OK",
      "vis_m": 9999,
      "fzfg": false,
      "metar_trigger": false,
      "taf_trigger": false,
      "metar": "METAR UDSG 270900Z 31002KT 9999 -SHRA SCT033CB OVC043 07/04 Q1004 NOSIG",
      "taf": "TAF UDSG 270458Z 2706/2806 06006KT 9999 BKN040"
    },
    {
      "icao": "UDYZ",
      "alert": "OK",
      "vis_m": 9999,
      "fzfg": false,
      "metar_trigger": false,
      "taf_trigger": false,
      "metar": "METAR UDYZ 270900Z 14011KT 9999 -SHRA FEW010 OVC033CB 10/07 Q1002 NOSIG",
      "taf": "TAF UDYZ 270500Z 2706/2806 20006KT 6000 BKN040"
    },
    {
      "icao": "UGKO",
      "alert": "OK",
      "vis_m": 9999,
      "fzfg": false,
      "metar_trigger": false,
      "taf_trigger": false,
      "metar": "METAR UGKO 270900Z 27008KT 240V310 9999 SCT014 BKN022 11/08 Q1008 NOSIG",
      "taf": "TAF UGKO 270500Z 2706/2806 26007KT 9999 SCT022 BKN050 TX12/2711Z TN08/2803Z"
    }
  ]
}