{
  "ts_utc": "2026-04-06T15:06:50Z",
  "threshold_m": 150,
  "source": "stations_override.txt (ICAO list) + aviationweather.gov (METAR/TAF raw)",
  "station_count": 159,
  "stations": [
    {
      "icao": "BIKF",
      "alert": "OK",
      "vis_m": 5000,
      "fzfg": false,
      "metar_trigger": false,
      "taf_trigger": false,
      "metar": "METAR BIKF 061500Z 10035G49KT 5000 -RA BR BKN013 OVC040 03/00 Q0991",
      "taf": "TAF BIKF 061338Z 0615/0715 09035G48KT 2500 -RASN BKN008 OVC015 TX07/0703Z TN02/0615Z"
    },
    {
      "icao": "BKPR",
      "alert": "OK",
      "vis_m": 9999,
      "fzfg": false,
      "metar_trigger": false,
      "taf_trigger": false,
      "metar": "METAR BKPR 061500Z 12005KT 090V150 CAVOK 22/05 Q1020 NOSIG",
      "taf": "TAF BKPR 061130Z 0612/0712 35006KT CAVOK"
    },
    {
      "icao": "EBCI",
      "alert": "OK",
      "vis_m": 9999,
      "fzfg": false,
      "metar_trigger": false,
      "taf_trigger": false,
      "metar": "METAR EBCI 061450Z 08005KT 050V160 CAVOK 14/00 Q1026 NOSIG",
      "taf": "TAF EBCI 061110Z 0612/0718 07006KT 9999 FEW040"
    },
    {
      "icao": "EDDB",
      "alert": "OK",
      "vis_m": 9999,
      "fzfg": false,
      "metar_trigger": false,
      "taf_trigger": false,
      "metar": "METAR EDDB 061450Z AUTO 28022KT CAVOK 13/M01 Q1023 TEMPO 29020G30KT",
      "taf": "TAF EDDB 061100Z 0612/0712 28020G35KT CAVOK"
    },
    {
      "icao": "EDDH",
      "alert": "OK",
      "vis_m": 9999,
      "fzfg": false,
      "metar_trigger": false,
      "taf_trigger": false,
      "metar": "METAR EDDH 061450Z AUTO 30018KT 270V330 9999 FEW039 10/01 Q1026 TEMPO 30015G25KT",
      "taf": "TAF EDDH 061100Z 0612/0718 29015G30KT 9999 SCT040"
    },
    {
      "icao": "EDDK",
      "alert": "OK",
      "vis_m": 9999,
      "fzfg": false,
      "metar_trigger": false,
      "taf_trigger": false,
      "metar": "METAR EDDK 061450Z AUTO 29008KT 220V340 CAVOK 14/00 Q1027 NOSIG",
      "taf": "TAF EDDK 061100Z 0612/0718 VRB03KT 9999 FEW040"
    },
    {
      "icao": "EDDN",
      "alert": "OK",
      "vis_m": 9999,
      "fzfg": false,
      "metar_trigger": false,
      "taf_trigger": false,
      "metar": "METAR EDDN 061450Z AUTO VRB07KT CAVOK 14/M00 Q1026 NOSIG",
      "taf": "TAF EDDN 061100Z 0612/0712 29007KT CAVOK"
    },
    {
      "icao": "EDDS",
      "alert": "OK",
      "vis_m": 9999,
      "fzfg": false,
      "metar_trigger": false,
      "taf_trigger": false,
      "metar": "METAR EDDS 061450Z AUTO 03006KT 340V070 CAVOK 16/03 Q1025 NOSIG",
      "taf": "TAF EDDS 061100Z 0612/0712 VRB03KT CAVOK"
    },
    {
      "icao": "EDFH",
      "alert": "OK",
      "vis_m": 9999,
      "fzfg": false,
      "metar_trigger": false,
      "taf_trigger": false,
      "metar": "METAR EDFH 061450Z VRB02KT CAVOK 13/00 Q1026",
      "taf": "TAF EDFH 061100Z 0612/0712 VRB03KT 9999 FEW030"
    },
    {
      "icao": "EDJA",
      "alert": "OK",
      "vis_m": 9999,
      "fzfg": false,
      "metar_trigger": false,
      "taf_trigger": false,
      "metar": "METAR EDJA 061450Z 28004KT 210V360 CAVOK 16/05 Q1025",
      "taf": "TAF EDJA 061400Z 0615/0624 34005KT 9999 FEW045"
    },
    {
      "icao": "EDLW",
      "alert": "OK",
      "vis_m": 9999,
      "fzfg": false,
      "metar_trigger": false,
      "taf_trigger": false,
      "metar": "METAR EDLW 061450Z 31005KT 240V010 CAVOK 13/01 Q1027",
      "taf": "TAF EDLW 061100Z 0612/0712 28006KT 9999 FEW045"
    },
    {
      "icao": "EDNY",
      "alert": "OK",
      "vis_m": 9999,
      "fzfg": false,
      "metar_trigger": false,
      "taf_trigger": false,
      "metar": "METAR EDNY 061450Z 30003KT 230V340 CAVOK 18/05 Q1025",
      "taf": "TAF EDNY 061400Z 0615/0624 24005KT CAVOK"
    },
    {
      "icao": "EDSB",
      "alert": "OK",
      "vis_m": 9999,
      "fzfg": false,
      "metar_trigger": false,
      "taf_trigger": false,
      "metar": "METAR EDSB 061450Z VRB04KT CAVOK 17/02 Q1026",
      "taf": "TAF EDSB 061100Z 0612/0712 VRB03KT CAVOK"
    },
    {
      "icao": "EETN",
      "alert": "OK",
      "vis_m": 8000,
      "fzfg": false,
      "metar_trigger": false,
      "taf_trigger": false,
      "metar": "METAR EETN 061450Z 23010KT 8000 -RA BKN008 OVC016 03/02 Q0994 TEMPO 5000 RA",
      "taf": "TAF EETN 061130Z 0612/0712 24012KT 8000 RA BKN006 OVC012"
    },
    {
      "icao": "EFTU",
      "alert": "OK",
      "vis_m": 9999,
      "fzfg": false,
      "metar_trigger": false,
      "taf_trigger": false,
      "metar": "METAR EFTU 061450Z AUTO 33009KT 270V020 9999 -RA OVC008 04/03 Q0994",
      "taf": "TAF EFTU 061429Z 0615/0715 33010KT 9999 -RA BKN008"
    },
    {
      "icao": "EGBB",
      "alert": "OK",
      "vis_m": 9999,
      "fzfg": false,
      "metar_trigger": false,
      "taf_trigger": false,
      "metar": "METAR EGBB 061450Z 16010KT 130V200 CAVOK 15/01 Q1024",
      "taf": "TAF EGBB 061057Z 0612/0712 17009KT CAVOK"
    },
    {
      "icao": "EGGP",
      "alert": "OK",
      "vis_m": 9999,
      "fzfg": false,
      "metar_trigger": false,
      "taf_trigger": false,
      "metar": "METAR EGGP 061450Z 16009KT CAVOK 14/02 Q1023",
      "taf": "TAF EGGP 061057Z 0612/0712 15012KT 9999 FEW040"
    },
    {
      "icao": "EGGW",
      "alert": "OK",
      "vis_m": 9999,
      "fzfg": false,
      "metar_trigger": false,
      "taf_trigger": false,
      "metar": "METAR EGGW 061450Z AUTO 14010KT 100V160 9999 NCD 14/M00 Q1025",
      "taf": "TAF EGGW 061115Z 0612/0712 17010KT 9999 FEW045"
    },
    {
      "icao": "EGKK",
      "alert": "OK",
      "vis_m": 9999,
      "fzfg": false,
      "metar_trigger": false,
      "taf_trigger": false,
      "metar": "METAR EGKK 061450Z 18008KT 150V210 CAVOK 14/01 Q1025",
      "taf": "TAF EGKK 061053Z 0612/0718 15010KT 9999 FEW045"
    },
    {
      "icao": "EGNM",
      "alert": "OK",
      "vis_m": 9999,
      "fzfg": false,
      "metar_trigger": false,
      "taf_trigger": false,
      "metar": "METAR EGNM 061450Z 17011KT 140V230 CAVOK 14/01 Q1023",
      "taf": "TAF EGNM 061101Z 0612/0712 16009KT 9999 FEW030"
    },
    {
      "icao": "EGPD",
      "alert": "OK",
      "vis_m": 9999,
      "fzfg": false,
      "metar_trigger": false,
      "taf_trigger": false,
      "metar": "METAR EGPD 061450Z COR AUTO 17015KT 9999 NCD 11/03 Q1022 NOSIG",
      "taf": "TAF EGPD 061054Z 0612/0712 22006KT CAVOK"
    },
    {
      "icao": "EGPF",
      "alert": "OK",
      "vis_m": 9999,
      "fzfg": false,
      "metar_trigger": false,
      "taf_trigger": false,
      "metar": "METAR EGPF 061450Z AUTO 19010KT 9999 FEW042 12/03 Q1021",
      "taf": ""
    },
    {
      "icao": "EHBK",
      "alert": "OK",
      "vis_m": 9999,
      "fzfg": false,
      "metar_trigger": false,
      "taf_trigger": false,
      "metar": "METAR EHBK 061455Z AUTO VRB01KT 9999 NSC 14/00 Q1027 NOSIG",
      "taf": "TAF EHBK 061056Z 0612/0718 VRB02KT CAVOK"
    },
    {
      "icao": "EHEH",
      "alert": "OK",
      "vis_m": 9999,
      "fzfg": false,
      "metar_trigger": false,
      "taf_trigger": false,
      "metar": "METAR EHEH 061455Z AUTO 05003KT 9999 BKN150 BKN280 OVC370 14/M00 Q1027 BLU NOSIG RMK TREND REMOTE BY EHWX",
      "taf": "TAF EHEH 061131Z 0612/0718 25004KT CAVOK"
    },
    {
      "icao": "EKBI",
      "alert": "OK",
      "vis_m": 9999,
      "fzfg": false,
      "metar_trigger": false,
      "taf_trigger": false,
      "metar": "METAR EKBI 061450Z AUTO 29021KT 9999 BKN027/// 09/02 Q1022",
      "taf": "TAF EKBI 061427Z 0615/0715 29022G35KT 9999 BKN030"
    },
    {
      "icao": "EKCH",
      "alert": "OK",
      "vis_m": 9999,
      "fzfg": false,
      "metar_trigger": false,
      "taf_trigger": false,
      "metar": "METAR EKCH 061450Z AUTO 29028G39KT 9999 BKN037/// 11/01 Q1018 BECMG 28025G35KT",
      "taf": "TAF EKCH 061427Z 0615/0715 28024G42KT 9999 BKN035"
    },
    {
      "icao": "ENAL",
      "alert": "OK",
      "vis_m": 9999,
      "fzfg": false,
      "metar_trigger": false,
      "taf_trigger": false,
      "metar": "METAR ENAL 061450Z 29012KT 9999 SCT034 07/M01 Q1019",
      "taf": "TAF ENAL 061400Z 0615/0624 28008KT 9999 FEW015 SCT030"
    },
    {
      "icao": "ENBR",
      "alert": "OK",
      "vis_m": 9999,
      "fzfg": false,
      "metar_trigger": false,
      "taf_trigger": false,
      "metar": "METAR ENBR 061450Z 32010KT 9999 FEW035 SCT050 07/M00 Q1020 NOSIG RMK WIND 1200FT 32016KT",
      "taf": "TAF ENBR 061100Z 0612/0712 31012KT 9999 FEW012 BKN025"
    },
    {
      "icao": "ENGM",
      "alert": "OK",
      "vis_m": 9999,
      "fzfg": false,
      "metar_trigger": false,
      "taf_trigger": false,
      "metar": "METAR ENGM 061420Z 32011G21KT 280V360 CAVOK 11/M06 Q1010 NOSIG",
      "taf": "TAF ENGM 061100Z 0612/0712 34008KT CAVOK"
    },
    {
      "icao": "ENHD",
      "alert": "OK",
      "vis_m": 9999,
      "fzfg": false,
      "metar_trigger": false,
      "taf_trigger": false,
      "metar": "METAR ENHD 061450Z 31012KT 9999 SCT039 09/01 Q1021",
      "taf": "TAF ENHD 061400Z 0615/0622 33008KT 9999 FEW020 SCT035"
    },
    {
      "icao": "ENTC",
      "alert": "OK",
      "vis_m": 9999,
      "fzfg": false,
      "metar_trigger": false,
      "taf_trigger": false,
      "metar": "METAR ENTC 061450Z 06006KT 030V100 9999 BKN052 06/M04 Q1008 NOSIG RMK WIND 2600FT 07005KT",
      "taf": "TAF ENTC 061100Z 0612/0712 02005KT CAVOK"
    },
    {
      "icao": "ENTO",
      "alert": "OK",
      "vis_m": 9999,
      "fzfg": false,
      "metar_trigger": false,
      "taf_trigger": false,
      "metar": "METAR ENTO 061450Z 33016KT CAVOK 12/M06 Q1013 NOSIG",
      "taf": "TAF ENTO 061100Z 0612/0712 33015KT CAVOK"
    },
    {
      "icao": "ENVA",
      "alert": "OK",
      "vis_m": 9999,
      "fzfg": false,
      "metar_trigger": false,
      "taf_trigger": false,
      "metar": "METAR ENVA 061450Z 27019KT 9999 VCSH FEW020TCU BKN044 06/03 Q1012 TEMPO 4000 SHRA BKN014 SCT025CB RMK WIND 670FT 28024KT",
      "taf": "TAF ENVA 061100Z 0612/0712 27012KT 9999 FEW020 SCT050"
    },
    {
      "icao": "ENZV",
      "alert": "OK",
      "vis_m": 9999,
      "fzfg": false,
      "metar_trigger": false,
      "taf_trigger": false,
      "metar": "METAR ENZV 061450Z 30014KT 9999 FEW039 08/01 Q1021 NOSIG",
      "taf": "TAF ENZV 061100Z 0612/0712 32018KT 9999 FEW030"
    },
    {
      "icao": "EPGD",
      "alert": "OK",
      "vis_m": 9999,
      "fzfg": false,
      "metar_trigger": false,
      "taf_trigger": false,
      "metar": "METAR EPGD 061500Z 27033KT 9999 BKN040 08/M01 Q1013",
      "taf": "TAF EPGD 061130Z 0612/0712 27025G35KT 9999 BKN030"
    },
    {
      "icao": "EPKK",
      "alert": "OK",
      "vis_m": 9999,
      "fzfg": false,
      "metar_trigger": false,
      "taf_trigger": false,
      "metar": "METAR EPKK 061500Z 30017KT CAVOK 11/M05 Q1021",
      "taf": "TAF EPKK 061430Z 0615/0715 30015KT 9999 SCT040"
    },
    {
      "icao": "EPKT",
      "alert": "OK",
      "vis_m": 9999,
      "fzfg": false,
      "metar_trigger": false,
      "taf_trigger": false,
      "metar": "METAR EPKT 061500Z 28016G28KT 270V330 CAVOK 11/M06 Q1021",
      "taf": "TAF EPKT 061130Z 0612/0712 27015KT CAVOK"
    },
    {
      "icao": "EPLB",
      "alert": "OK",
      "vis_m": 9999,
      "fzfg": false,
      "metar_trigger": false,
      "taf_trigger": false,
      "metar": "METAR EPLB 061500Z 31018G28KT 9999 FEW050CB 10/M03 Q1017",
      "taf": "TAF EPLB 061130Z 0612/0712 27018KT 9999 BKN035"
    },
    {
      "icao": "EPMO",
      "alert": "OK",
      "vis_m": 9999,
      "fzfg": false,
      "metar_trigger": false,
      "taf_trigger": false,
      "metar": "METAR EPMO 061500Z 27025G35KT 9999 SCT052CB 10/M02 Q1017",
      "taf": "TAF EPMO 061130Z 0612/0712 27018KT 9999 SCT035"
    },
    {
      "icao": "EPPO",
      "alert": "OK",
      "vis_m": 9999,
      "fzfg": false,
      "metar_trigger": false,
      "taf_trigger": false,
      "metar": "METAR EPPO 061500Z 29018KT CAVOK 11/M04 Q1020",
      "taf": ""
    },
    {
      "icao": "EPRA",
      "alert": "OK",
      "vis_m": 9999,
      "fzfg": false,
      "metar_trigger": false,
      "taf_trigger": false,
      "metar": "METAR EPRA 061500Z 30016G26KT CAVOK 10/M04 Q1018",
      "taf": "TAF EPRA 061430Z 0615/0624 29015KT 9999 SCT040"
    },
    {
      "icao": "EPRZ",
      "alert": "OK",
      "vis_m": 9999,
      "fzfg": false,
      "metar_trigger": false,
      "taf_trigger": false,
      "metar": "METAR EPRZ 061500Z 30013KT 9999 FEW050CB 11/M04 Q1019",
      "taf": "TAF EPRZ 061130Z 0612/0712 28014KT CAVOK"
    },
    {
      "icao": "EPSC",
      "alert": "OK",
      "vis_m": 9999,
      "fzfg": false,
      "metar_trigger": false,
      "taf_trigger": false,
      "metar": "METAR EPSC 061500Z 29020G31KT CAVOK 11/M01 Q1020",
      "taf": "TAF EPSC 061130Z 0612/0712 27015KT CAVOK"
    },
    {
      "icao": "EPSY",
      "alert": "OK",
      "vis_m": 9999,
      "fzfg": false,
      "metar_trigger": false,
      "taf_trigger": false,
      "metar": "METAR EPSY 061500Z 27016G34KT 190V320 9999 SCT040 09/M04 Q1014",
      "taf": "TAF EPSY 061430Z 0615/0624 27015G30KT 9999 SCT040"
    },
    {
      "icao": "EPWA",
      "alert": "OK",
      "vis_m": 9999,
      "fzfg": false,
      "metar_trigger": false,
      "taf_trigger": false,
      "metar": "METAR EPWA 061500Z 28023G36KT CAVOK 11/M03 Q1017 NOSIG",
      "taf": "TAF EPWA 061430Z 0615/0715 27016KT CAVOK"
    },
    {
      "icao": "EPWR",
      "alert": "OK",
      "vis_m": 9999,
      "fzfg": false,
      "metar_trigger": false,
      "taf_trigger": false,
      "metar": "METAR EPWR 061500Z 28020KT CAVOK 13/M04 Q1022",
      "taf": "TAF EPWR 061430Z 0615/0715 28022G37KT 9999 SCT045"
    },
    {
      "icao": "ESGG",
      "alert": "OK",
      "vis_m": 9999,
      "fzfg": false,
      "metar_trigger": false,
      "taf_trigger": false,
      "metar": "METAR ESGG 061450Z 28015KT CAVOK 10/01 Q1013",
      "taf": "TAF ESGG 061430Z 0615/0715 29013KT 9999 SCT035"
    },
    {
      "icao": "ESKN",
      "alert": "OK",
      "vis_m": 9999,
      "fzfg": false,
      "metar_trigger": false,
      "taf_trigger": false,
      "metar": "METAR ESKN 061450Z 30015G26KT CAVOK 09/M02 Q1004",
      "taf": "TAF ESKN 061430Z 0615/0715 31018G28KT 9999 BKN045"
    },
    {
      "icao": "ESMS",
      "alert": "OK",
      "vis_m": 9999,
      "fzfg": false,
      "metar_trigger": false,
      "taf_trigger": false,
      "metar": "METAR ESMS 061450Z 29026G37KT 9999 SCT042 10/02 Q1016",
      "taf": "TAF ESMS 061427Z 0615/0715 29025G40KT 9999 SCT040"
    },
    {
      "icao": "ESSA",
      "alert": "OK",
      "vis_m": 9999,
      "fzfg": false,
      "metar_trigger": false,
      "taf_trigger": false,
      "metar": "METAR ESSA 061450Z 33018G31KT 9999 VCSH SCT033CB BKN051 06/00 Q1002 TEMPO SHRA BKN020TCU",
      "taf": "TAF ESSA 061430Z 0615/0715 30014G26KT 9999 BKN030"
    },
    {
      "icao": "EYKA",
      "alert": "OK",
      "vis_m": 9999,
      "fzfg": false,
      "metar_trigger": false,
      "taf_trigger": false,
      "metar": "METAR EYKA 061450Z 28017KT 9999 -RA SCT026 BKN034 OVC048 05/02 Q1007",
      "taf": "TAF EYKA 061106Z 0612/0712 26015G25KT 8000 SCT015 BKN020"
    },
    {
      "icao": "EYPA",
      "alert": "OK",
      "vis_m": 9999,
      "fzfg": false,
      "metar_trigger": false,
      "taf_trigger": false,
      "metar": "METAR EYPA 061450Z 28009G19KT 250V320 9999 -SHRA FEW024CB SCT036 BKN044 05/02 Q1007",
      "taf": "TAF EYPA 061100Z 0612/0712 27012G22KT 8000 SCT025"
    },
    {
      "icao": "EYVI",
      "alert": "OK",
      "vis_m": 9999,
      "fzfg": false,
      "metar_trigger": false,
      "taf_trigger": false,
      "metar": "METAR EYVI 061450Z 26017G27KT 220V290 9999 SCT031 BKN044 05/00 Q1007 NOSIG",
      "taf": "TAF EYVI 061102Z 0612/0712 26015G25KT 9000 FEW010 BKN030"
    },
    {
      "icao": "GCFV",
      "alert": "OK",
      "vis_m": 9999,
      "fzfg": false,
      "metar_trigger": false,
      "taf_trigger": false,
      "metar": "METAR GCFV 061500Z 29016KT 250V320 9999 FEW030 25/14 Q1016",
      "taf": "TAF GCFV 061400Z 0615/0715 29015KT 9999 FEW025 TX23/0714Z TN17/0706Z"
    },
    {
      "icao": "GCLP",
      "alert": "OK",
      "vis_m": 9999,
      "fzfg": false,
      "metar_trigger": false,
      "taf_trigger": false,
      "metar": "METAR GCLP 061500Z 04011KT 9999 BKN025 20/15 Q1018 NOSIG",
      "taf": "TAF GCLP 061400Z 0615/0715 03015KT 9999 FEW025 TX23/0714Z TN17/0706Z"
    },
    {
      "icao": "GCTS",
      "alert": "OK",
      "vis_m": 9999,
      "fzfg": false,
      "metar_trigger": false,
      "taf_trigger": false,
      "metar": "METAR GCTS 061500Z 13006KT 080V190 9999 BKN018 22/16 Q1017 NOSIG",
      "taf": "TAF GCTS 061400Z 0615/0715 10015KT 9999 SCT025 TX22/0714Z TN18/0706Z"
    },
    {
      "icao": "GMAD",
      "alert": "OK",
      "vis_m": 6000,
      "fzfg": false,
      "metar_trigger": false,
      "taf_trigger": false,
      "metar": "METAR GMAD 061500Z 08016KT 6000 SCT026 BKN100 30/01 Q1015 NOSIG",
      "taf": "TAF GMAD 061100Z 0612/0718 08014KT 8000 SCT026 BKN080"
    },
    {
      "icao": "GMMN",
      "alert": "OK",
      "vis_m": 9999,
      "fzfg": false,
      "metar_trigger": false,
      "taf_trigger": false,
      "metar": "METAR GMMN 061500Z 06006KT 020V120 9999 -RA BKN030 20/14 Q1018 NOSIG",
      "taf": "TAF GMMN 061100Z 0612/0718 34010KT 9999 SCT016 BKN080"
    },
    {
      "icao": "GMMX",
      "alert": "OK",
      "vis_m": 8000,
      "fzfg": false,
      "metar_trigger": false,
      "taf_trigger": false,
      "metar": "METAR GMMX 061500Z 18008KT 140V210 8000 SCT020 BKN080 24/07 Q1017 NOSIG",
      "taf": "TAF GMMX 061100Z 0612/0718 12006KT 8000 SCT100"
    },
    {
      "icao": "HEGN",
      "alert": "OK",
      "vis_m": 9999,
      "fzfg": false,
      "metar_trigger": false,
      "taf_trigger": false,
      "metar": "METAR HEGN 061400Z 35016KT 9999 BKN025 24/03 Q1017 NOSIG",
      "taf": "TAF HEGN 061100Z 0612/0718 35010G24KT CAVOK"
    },
    {
      "icao": "HEMA",
      "alert": "OK",
      "vis_m": 9999,
      "fzfg": false,
      "metar_trigger": false,
      "taf_trigger": false,
      "metar": "METAR HEMA 061400Z 02013KT CAVOK 24/12 Q1017 NOSIG",
      "taf": "TAF HEMA 061100Z 0612/0718 35010G24KT CAVOK"
    },
    {
      "icao": "HESH",
      "alert": "OK",
      "vis_m": 9999,
      "fzfg": false,
      "metar_trigger": false,
      "taf_trigger": false,
      "metar": "METAR HESH 061400Z 35014KT CAVOK 27/06 Q1016 NOSIG",
      "taf": "TAF HESH 061100Z 0612/0718 02008G20KT CAVOK"
    },
    {
      "icao": "HESX",
      "alert": "OK",
      "vis_m": 9999,
      "fzfg": false,
      "metar_trigger": false,
      "taf_trigger": false,
      "metar": "METAR HESX 061400Z 30006KT 9999 SCT020 24/06 Q1019 NOSIG",
      "taf": "TAF HESX 061100Z 0612/0718 31009KT 9999 FEW025"
    },
    {
      "icao": "LATI",
      "alert": "OK",
      "vis_m": 9999,
      "fzfg": false,
      "metar_trigger": false,
      "taf_trigger": false,
      "metar": "METAR LATI 061450Z 26007KT 230V290 CAVOK 20/09 Q1022 NOSIG",
      "taf": "TAF LATI 061100Z 0612/0712 29010KT CAVOK TX23/0612Z TN06/0704Z"
    },
    {
      "icao": "LBPD",
      "alert": "OK",
      "vis_m": 9999,
      "fzfg": false,
      "metar_trigger": false,
      "taf_trigger": false,
      "metar": "METAR LBPD 061500Z AUTO 08003KT 020V160 9999 NCD 23/06 Q1017 NOSIG",
      "taf": "TAF LBPD 061100Z 0612/0712 VRB03KT 9999 SCT080"
    },
    {
      "icao": "LBSF",
      "alert": "OK",
      "vis_m": 9999,
      "fzfg": false,
      "metar_trigger": false,
      "taf_trigger": false,
      "metar": "METAR LBSF 061500Z AUTO 28006KT 260V330 9999 NCD 21/05 Q1019 NOSIG",
      "taf": "TAF LBSF 061100Z 0612/0712 32012KT 9999 SCT080"
    },
    {
      "icao": "LBWN",
      "alert": "OK",
      "vis_m": 9999,
      "fzfg": false,
      "metar_trigger": false,
      "taf_trigger": false,
      "metar": "METAR LBWN 061500Z 09010KT CAVOK 19/07 Q1016 NOSIG",
      "taf": ""
    },
    {
      "icao": "LCLK",
      "alert": "OK",
      "vis_m": 9999,
      "fzfg": false,
      "metar_trigger": false,
      "taf_trigger": false,
      "metar": "METAR LCLK 061500Z 23006KT 9999 FEW025TCU 18/14 Q1018 NOSIG",
      "taf": "TAF LCLK 061130Z 0612/0712 22016KT 9999 FEW025"
    },
    {
      "icao": "LCPH",
      "alert": "OK",
      "vis_m": 9999,
      "fzfg": false,
      "metar_trigger": false,
      "taf_trigger": false,
      "metar": "METAR LCPH 061500Z 31010KT 250V320 9999 FEW025 SCT040 18/13 Q1018 NOSIG",
      "taf": "TAF LCPH 061130Z 0612/0712 29014KT 9999 FEW025"
    },
    {
      "icao": "LEAL",
      "alert": "OK",
      "vis_m": 9999,
      "fzfg": false,
      "metar_trigger": false,
      "taf_trigger": false,
      "metar": "METAR LEAL 061500Z 08012KT 030V110 CAVOK 19/12 Q1023 NOSIG",
      "taf": "TAF LEAL 061100Z 0612/0712 08012KT CAVOK TX21/0612Z TN10/0706Z"
    },
    {
      "icao": "LEBB",
      "alert": "OK",
      "vis_m": 9999,
      "fzfg": false,
      "metar_trigger": false,
      "taf_trigger": false,
      "metar": "METAR LEBB 061500Z 16009KT 090V230 9999 FEW040 31/09 Q1015 NOSIG",
      "taf": ""
    },
    {
      "icao": "LEBL",
      "alert": "OK",
      "vis_m": 9999,
      "fzfg": false,
      "metar_trigger": false,
      "taf_trigger": false,
      "metar": "METAR LEBL 061500Z 21012KT CAVOK 19/11 Q1024 NOSIG",
      "taf": "TAF LEBL 061100Z 0612/0712 21010KT CAVOK TX19/0612Z TN10/0705Z"
    },
    {
      "icao": "LECH",
      "alert": "OK",
      "vis_m": 9999,
      "fzfg": false,
      "metar_trigger": false,
      "taf_trigger": false,
      "metar": "METAR LECH 061500Z AUTO 12009KT 080V150 CAVOK 19/03 Q1024",
      "taf": "TAF LECH 061100Z 0612/0712 VRB03KT CAVOK TX22/0614Z TN09/0706Z"
    },
    {
      "icao": "LEMD",
      "alert": "OK",
      "vis_m": 9999,
      "fzfg": false,
      "metar_trigger": false,
      "taf_trigger": false,
      "metar": "METAR LEMD 061500Z 16008KT 130V200 CAVOK 25/01 Q1019 NOSIG",
      "taf": "TAF LEMD 061100Z 0612/0718 15010KT CAVOK TX27/0616Z TN09/0706Z"
    },
    {
      "icao": "LEMG",
      "alert": "OK",
      "vis_m": 9999,
      "fzfg": false,
      "metar_trigger": false,
      "taf_trigger": false,
      "metar": "METAR LEMG 061500Z 12007KT 100V160 CAVOK 20/08 Q1020 NOSIG",
      "taf": "TAF LEMG 061100Z 0612/0712 14010KT CAVOK TX22/0614Z TN13/0706Z"
    },
    {
      "icao": "LEVC",
      "alert": "OK",
      "vis_m": 9999,
      "fzfg": false,
      "metar_trigger": false,
      "taf_trigger": false,
      "metar": "METAR LEVC 061500Z 08009KT 040V130 CAVOK 20/04 Q1023 NOSIG",
      "taf": "TAF LEVC 061100Z 0612/0712 09010KT CAVOK TX22/0614Z TN08/0706Z"
    },
    {
      "icao": "LEXJ",
      "alert": "OK",
      "vis_m": 9999,
      "fzfg": false,
      "metar_trigger": false,
      "taf_trigger": false,
      "metar": "METAR LEXJ 061500Z 16010KT 140V200 CAVOK 30/11 Q1013",
      "taf": "TAF LEXJ 061400Z 0615/0715 18009KT 9999 FEW050 TX31/0615Z TN16/0706Z"
    },
    {
      "icao": "LEZG",
      "alert": "OK",
      "vis_m": 9999,
      "fzfg": false,
      "metar_trigger": false,
      "taf_trigger": false,
      "metar": "METAR LEZG 061500Z 09014KT 050V140 CAVOK 27/01 Q1019 NOSIG",
      "taf": "TAF LEZG 061100Z 0612/0712 10012KT CAVOK TX28/0614Z TN10/0706Z"
    },
    {
      "icao": "LEZL",
      "alert": "OK",
      "vis_m": 9999,
      "fzfg": false,
      "metar_trigger": false,
      "taf_trigger": false,
      "metar": "METAR LEZL 061500Z 22011KT 150V260 CAVOK 29/06 Q1016 NOSIG",
      "taf": "TAF LEZL 061400Z 0615/0715 VRB03KT CAVOK TX29/0615Z TN11/0706Z"
    },
    {
      "icao": "LFBD",
      "alert": "OK",
      "vis_m": 9999,
      "fzfg": false,
      "metar_trigger": false,
      "taf_trigger": false,
      "metar": "METAR LFBD 061500Z AUTO 12013KT 9999 FEW018 29/11 Q1018 NOSIG",
      "taf": "TAF LFBD 061100Z 0612/0718 12010KT CAVOK TX29/0614Z TN13/0706Z"
    },
    {
      "icao": "LFLL",
      "alert": "OK",
      "vis_m": 9999,
      "fzfg": false,
      "metar_trigger": false,
      "taf_trigger": false,
      "metar": "METAR LFLL 061500Z 02004KT 350V070 CAVOK 24/09 Q1023 NOSIG",
      "taf": "TAF LFLL 061100Z 0612/0718 VRB02KT CAVOK"
    },
    {
      "icao": "LFLS",
      "alert": "OK",
      "vis_m": 9999,
      "fzfg": false,
      "metar_trigger": false,
      "taf_trigger": false,
      "metar": "METAR LFLS 061500Z AUTO VRB03KT CAVOK 24/06 Q1023 NOSIG",
      "taf": "TAF LFLS 061400Z 0615/0715 09005KT CAVOK"
    },
    {
      "icao": "LFMN",
      "alert": "OK",
      "vis_m": 9999,
      "fzfg": false,
      "metar_trigger": false,
      "taf_trigger": false,
      "metar": "METAR LFMN 061500Z 12006KT 9999 FEW016 17/13 Q1024 NOSIG",
      "taf": "TAF LFMN 061400Z 0615/0721 11008KT 9999 FEW016"
    },
    {
      "icao": "LFOB",
      "alert": "OK",
      "vis_m": 9999,
      "fzfg": false,
      "metar_trigger": false,
      "taf_trigger": false,
      "metar": "METAR LFOB 061500Z AUTO 06006KT 340V110 CAVOK 16/06 Q1025 NOSIG",
      "taf": "TAF LFOB 061100Z 0612/0712 10005KT CAVOK"
    },
    {
      "icao": "LFPO",
      "alert": "OK",
      "vis_m": 9999,
      "fzfg": false,
      "metar_trigger": false,
      "taf_trigger": false,
      "metar": "METAR LFPO 061500Z 09006KT 040V140 CAVOK 18/06 Q1025 NOSIG",
      "taf": "TAF LFPO 061100Z 0612/0718 10007KT CAVOK"
    },
    {
      "icao": "LFSB",
      "alert": "OK",
      "vis_m": 9999,
      "fzfg": false,
      "metar_trigger": false,
      "taf_trigger": false,
      "metar": "METAR LFSB 061500Z AUTO 02007KT 330V080 CAVOK 19/07 Q1025 NOSIG",
      "taf": "TAF LFSB 061105Z 0612/0712 35006KT 9999 FEW040"
    },
    {
      "icao": "LGAV",
      "alert": "OK",
      "vis_m": 9999,
      "fzfg": false,
      "metar_trigger": false,
      "taf_trigger": false,
      "metar": "METAR LGAV 061450Z 06009KT 020V080 9999 FEW025 20/05 Q1020 NOSIG",
      "taf": "TAF LGAV 061100Z 0612/0712 05010KT 9999 FEW020"
    },
    {
      "icao": "LGTS",
      "alert": "OK",
      "vis_m": 9999,
      "fzfg": false,
      "metar_trigger": false,
      "taf_trigger": false,
      "metar": "METAR LGTS 061450Z 20010KT 9999 FEW020 22/10 Q1019 NOSIG",
      "taf": "TAF LGTS 061100Z 0612/0712 VRB03KT 9999 FEW025"
    },
    {
      "icao": "LHBP",
      "alert": "OK",
      "vis_m": 9999,
      "fzfg": false,
      "metar_trigger": false,
      "taf_trigger": false,
      "metar": "METAR LHBP 061500Z 30022KT CAVOK 17/M00 Q1021 NOSIG",
      "taf": "TAF LHBP 061115Z 0612/0712 31020G35KT CAVOK"
    },
    {
      "icao": "LHDC",
      "alert": "OK",
      "vis_m": 9999,
      "fzfg": false,
      "metar_trigger": false,
      "taf_trigger": false,
      "metar": "METAR LHDC 061445Z AUTO 27022KT CAVOK 18/00 Q1018 NOSIG",
      "taf": "TAF LHDC 061415Z 0615/0624 30020G30KT CAVOK"
    },
    {
      "icao": "LIBD",
      "alert": "OK",
      "vis_m": 9999,
      "fzfg": false,
      "metar_trigger": false,
      "taf_trigger": false,
      "metar": "METAR LIBD 061450Z 08006KT CAVOK 20/06 Q1022",
      "taf": "TAF LIBD 061100Z 0612/0712 05010KT CAVOK"
    },
    {
      "icao": "LIBG",
      "alert": "OK",
      "vis_m": 9999,
      "fzfg": false,
      "metar_trigger": false,
      "taf_trigger": false,
      "metar": "METAR LIBG 061450Z 23005KT 200V270 CAVOK 23/06 Q1022",
      "taf": "TAF LIBG 061400Z 0615/0624 25006KT CAVOK"
    },
    {
      "icao": "LIBP",
      "alert": "OK",
      "vis_m": 9999,
      "fzfg": false,
      "metar_trigger": false,
      "taf_trigger": false,
      "metar": "METAR LIBP 061450Z AUTO 06005KT 350V120 9999 NCD 22/00 Q1022",
      "taf": "TAF LIBP 061100Z 0612/0712 05010KT CAVOK"
    },
    {
      "icao": "LIBR",
      "alert": "OK",
      "vis_m": 9999,
      "fzfg": false,
      "metar_trigger": false,
      "taf_trigger": false,
      "metar": "METAR LIBR 061450Z 05004KT CAVOK 17/09 Q1022",
      "taf": "TAF LIBR 061100Z 0612/0712 04010KT CAVOK"
    },
    {
      "icao": "LICA",
      "alert": "OK",
      "vis_m": 9999,
      "fzfg": false,
      "metar_trigger": false,
      "taf_trigger": false,
      "metar": "METAR LICA 061450Z AUTO 25011KT 9999 NCD 17/13 Q1025",
      "taf": "TAF LICA 061100Z 0612/0712 26010KT 9999 SCT015"
    },
    {
      "icao": "LICC",
      "alert": "OK",
      "vis_m": 9999,
      "fzfg": false,
      "metar_trigger": false,
      "taf_trigger": false,
      "metar": "METAR LICC 061450Z 08010KT 9999 FEW050 19/15 Q1024",
      "taf": "TAF LICC 061100Z 0612/0712 08010KT CAVOK"
    },
    {
      "icao": "LICJ",
      "alert": "OK",
      "vis_m": 9999,
      "fzfg": false,
      "metar_trigger": false,
      "taf_trigger": false,
      "metar": "METAR LICJ 061450Z 36006KT CAVOK 17/13 Q1025",
      "taf": "TAF LICJ 061100Z 0612/0712 VRB05KT CAVOK"
    },
    {
      "icao": "LIMC",
      "alert": "OK",
      "vis_m": 9999,
      "fzfg": false,
      "metar_trigger": false,
      "taf_trigger": false,
      "metar": "METAR LIMC 061450Z 20006KT 140V230 CAVOK 25/06 Q1020 NOSIG",
      "taf": "TAF LIMC 061100Z 0612/0718 18006KT CAVOK"
    },
    {
      "icao": "LIME",
      "alert": "OK",
      "vis_m": 9999,
      "fzfg": false,
      "metar_trigger": false,
      "taf_trigger": false,
      "metar": "METAR LIME 061450Z 24005KT 200V290 CAVOK 24/10 Q1020 NOSIG",
      "taf": "TAF LIME 061100Z 0612/0712 VRB05KT CAVOK"
    },
    {
      "icao": "LIMF",
      "alert": "OK",
      "vis_m": 9999,
      "fzfg": false,
      "metar_trigger": false,
      "taf_trigger": false,
      "metar": "METAR LIMF 061450Z VRB03KT CAVOK 24/08 Q1021",
      "taf": "TAF LIMF 061100Z 0612/0712 VRB05KT CAVOK"
    },
    {
      "icao": "LIMJ",
      "alert": "OK",
      "vis_m": 9999,
      "fzfg": false,
      "metar_trigger": false,
      "taf_trigger": false,
      "metar": "METAR LIMJ 061450Z 15006KT 9999 SCT013 SCT020 16/13 Q1024",
      "taf": "TAF LIMJ 061100Z 0612/0712 18012KT 9999 BKN020"
    },
    {
      "icao": "LIPE",
      "alert": "OK",
      "vis_m": 9999,
      "fzfg": false,
      "metar_trigger": false,
      "taf_trigger": false,
      "metar": "METAR LIPE 061450Z 03005KT 350V070 CAVOK 24/10 Q1020",
      "taf": "TAF LIPE 061100Z 0612/0712 VRB05KT CAVOK"
    },
    {
      "icao": "LIPH",
      "alert": "OK",
      "vis_m": 9999,
      "fzfg": false,
      "metar_trigger": false,
      "taf_trigger": false,
      "metar": "METAR LIPH 061450Z 12006KT 080V150 CAVOK 22/07 Q1021",
      "taf": "TAF LIPH 061100Z 0612/0712 VRB05KT CAVOK"
    },
    {
      "icao": "LIPQ",
      "alert": "OK",
      "vis_m": 9999,
      "fzfg": false,
      "metar_trigger": false,
      "taf_trigger": false,
      "metar": "METAR LIPQ 061450Z AUTO 18005KT 150V220 9999 NCD 21/05 Q1021",
      "taf": "TAF LIPQ 061100Z 0612/0712 20010KT CAVOK"
    },
    {
      "icao": "LIPR",
      "alert": "OK",
      "vis_m": 9999,
      "fzfg": false,
      "metar_trigger": false,
      "taf_trigger": false,
      "metar": "METAR LIPR 061450Z 08005KT 050V130 CAVOK 19/08 Q1021",
      "taf": "TAF LIPR 061100Z 0612/0712 07010KT CAVOK"
    },
    {
      "icao": "LIPX",
      "alert": "OK",
      "vis_m": 9999,
      "fzfg": false,
      "metar_trigger": false,
      "taf_trigger": false,
      "metar": "METAR LIPX 061450Z 22004KT 160V290 CAVOK 23/09 Q1021",
      "taf": "TAF LIPX 061100Z 0612/0712 VRB05KT CAVOK"
    },
    {
      "icao": "LIPY",
      "alert": "OK",
      "vis_m": 9999,
      "fzfg": false,
      "metar_trigger": false,
      "taf_trigger": false,
      "metar": "METAR LIPY 061450Z AUTO VRB02KT 9999 NCD 20/05 Q1022",
      "taf": "TAF LIPY 061100Z 0612/0712 03010KT CAVOK"
    },
    {
      "icao": "LIPZ",
      "alert": "OK",
      "vis_m": 9999,
      "fzfg": false,
      "metar_trigger": false,
      "taf_trigger": false,
      "metar": "METAR LIPZ 061450Z 14005KT CAVOK 19/11 Q1021 NOSIG",
      "taf": "TAF LIPZ 061100Z 0612/0718 15010KT CAVOK"
    },
    {
      "icao": "LIRF",
      "alert": "OK",
      "vis_m": 9999,
      "fzfg": false,
      "metar_trigger": false,
      "taf_trigger": false,
      "metar": "METAR LIRF 061450Z 26009KT CAVOK 19/10 Q1024 NOSIG",
      "taf": "TAF LIRF 061100Z 0612/0718 27010KT CAVOK"
    },
    {
      "icao": "LIRN",
      "alert": "OK",
      "vis_m": 9999,
      "fzfg": false,
      "metar_trigger": false,
      "taf_trigger": false,
      "metar": "METAR LIRN 061450Z 19008KT 160V220 CAVOK 17/13 Q1024 NOSIG",
      "taf": "TAF LIRN 061100Z 0612/0712 21010KT 9999 FEW016"
    },
    {
      "icao": "LIRP",
      "alert": "OK",
      "vis_m": 9999,
      "fzfg": false,
      "metar_trigger": false,
      "taf_trigger": false,
      "metar": "METAR LIRP 061445Z 27007KT 9999 FEW025 18/11 Q1025 NOSIG",
      "taf": "TAF LIRP 061100Z 0612/0712 24007KT CAVOK"
    },
    {
      "icao": "LIRZ",
      "alert": "OK",
      "vis_m": 9999,
      "fzfg": false,
      "metar_trigger": false,
      "taf_trigger": false,
      "metar": "METAR LIRZ 061450Z AUTO 27011KT 9999 NCD 23/03 Q1023",
      "taf": "TAF LIRZ 061100Z 0612/0712 VRB04KT CAVOK"
    },
    {
      "icao": "LJLJ",
      "alert": "OK",
      "vis_m": 9999,
      "fzfg": false,
      "metar_trigger": false,
      "taf_trigger": false,
      "metar": "METAR LJLJ 061500Z 06004KT 030V100 9999 FEW073 SCT200 23/04 Q1019 NOSIG",
      "taf": "TAF LJLJ 061100Z 0612/0712 VRB02KT 9999 FEW060"
    },
    {
      "icao": "LKMT",
      "alert": "OK",
      "vis_m": 9999,
      "fzfg": false,
      "metar_trigger": false,
      "taf_trigger": false,
      "metar": "METAR LKMT 061500Z 29013KT CAVOK 13/M05 Q1022 NOSIG",
      "taf": "TAF LKMT 061100Z 0612/0712 33012KT CAVOK"
    },
    {
      "icao": "LKPR",
      "alert": "OK",
      "vis_m": 9999,
      "fzfg": false,
      "metar_trigger": false,
      "taf_trigger": false,
      "metar": "METAR LKPR 061500Z 32014KT CAVOK 13/M05 Q1024 NOSIG",
      "taf": "TAF LKPR 061400Z 0615/0721 29014KT CAVOK"
    },
    {
      "icao": "LLBG",
      "alert": "OK",
      "vis_m": 9999,
      "fzfg": false,
      "metar_trigger": false,
      "taf_trigger": false,
      "metar": "METAR LLBG 061450Z 28008KT 9999 SCT028 19/12 Q1020 NOSIG",
      "taf": "TAF LLBG 061110Z 0612/0712 28012KT 9999 SCT035 TX21/0612Z TN10/0703Z"
    },
    {
      "icao": "LMML",
      "alert": "OK",
      "vis_m": 9999,
      "fzfg": false,
      "metar_trigger": false,
      "taf_trigger": false,
      "metar": "METAR LMML 061445Z 29012KT 250V310 9999 FEW012 19/10 Q1025 NOSIG",
      "taf": "TAF LMML 061100Z 0612/0712 28008KT 9999 FEW015"
    },
    {
      "icao": "LOWW",
      "alert": "OK",
      "vis_m": 9999,
      "fzfg": false,
      "metar_trigger": false,
      "taf_trigger": false,
      "metar": "METAR LOWW 061450Z 34009KT 310V010 CAVOK 16/02 Q1022 NOSIG",
      "taf": "TAF LOWW 061415Z 0615/0721 32012KT 9999 FEW050 TX17/0615Z TN05/0704Z"
    },
    {
      "icao": "LPFR",
      "alert": "OK",
      "vis_m": 9999,
      "fzfg": false,
      "metar_trigger": false,
      "taf_trigger": false,
      "metar": "METAR LPFR 061500Z 10004KT 070V150 9999 -RA FEW020 SCT030 18/14 Q1019",
      "taf": "TAF LPFR 061100Z 0612/0712 12013KT 9999 BKN040"
    },
    {
      "icao": "LPMA",
      "alert": "OK",
      "vis_m": 9999,
      "fzfg": false,
      "metar_trigger": false,
      "taf_trigger": false,
      "metar": "METAR LPMA 061500Z 13005KT 080V180 9999 SCT014 BKN030 19/11 Q1015",
      "taf": "TAF LPMA 061100Z 0612/0712 VRB05KT 9999 SCT014 SCT030"
    },
    {
      "icao": "LPPR",
      "alert": "OK",
      "vis_m": 9999,
      "fzfg": false,
      "metar_trigger": false,
      "taf_trigger": false,
      "metar": "METAR LPPR 061500Z 19013KT CAVOK 26/07 Q1013",
      "taf": "TAF LPPR 061100Z 0612/0712 14010KT CAVOK"
    },
    {
      "icao": "LPPS",
      "alert": "OK",
      "vis_m": 9999,
      "fzfg": false,
      "metar_trigger": false,
      "taf_trigger": false,
      "metar": "METAR LPPS 061500Z 29015KT 9999 FEW015 BKN030 19/11 Q1016",
      "taf": ""
    },
    {
      "icao": "LPPT",
      "alert": "OK",
      "vis_m": 9999,
      "fzfg": false,
      "metar_trigger": false,
      "taf_trigger": false,
      "metar": "METAR LPPT 061500Z 18019KT 9999 -RA FEW026 SCT034 21/12 Q1016",
      "taf": "TAF LPPT 061100Z 0612/0718 11008KT 9999 SCT035"
    },
    {
      "icao": "LQBK",
      "alert": "OK",
      "vis_m": 9999,
      "fzfg": false,
      "metar_trigger": false,
      "taf_trigger": false,
      "metar": "METAR LQBK 061500Z 36004KT 340V040 CAVOK 24/02 Q1019 NOSIG",
      "taf": "TAF LQBK 061100Z 0612/0712 06006KT CAVOK TX24/0614Z TN08/0704Z"
    },
    {
      "icao": "LQSA",
      "alert": "OK",
      "vis_m": 9999,
      "fzfg": false,
      "metar_trigger": false,
      "taf_trigger": false,
      "metar": "METAR LQSA 061500Z VRB03KT CAVOK 23/M06 Q1020 NOSIG",
      "taf": "TAF LQSA 061100Z 0612/0712 VRB02KT CAVOK TX23/0614Z TN03/0704Z"
    },
    {
      "icao": "LQTZ",
      "alert": "OK",
      "vis_m": 9999,
      "fzfg": false,
      "metar_trigger": false,
      "taf_trigger": false,
      "metar": "METAR LQTZ 061500Z 27005KT 210V290 CAVOK 24/03 Q1019",
      "taf": "TAF LQTZ 061100Z 0612/0712 03005KT CAVOK TX24/0613Z TN06/0704Z"
    },
    {
      "icao": "LRBC",
      "alert": "OK",
      "vis_m": 9999,
      "fzfg": false,
      "metar_trigger": false,
      "taf_trigger": false,
      "metar": "METAR LRBC 061500Z 36012KT 9999 SCT049 14/07 Q1016",
      "taf": "TAF LRBC 061400Z 0615/0624 36018KT 9999 SCT045"
    },
    {
      "icao": "LRBS",
      "alert": "OK",
      "vis_m": 9999,
      "fzfg": false,
      "metar_trigger": false,
      "taf_trigger": false,
      "metar": "METAR LRBS 061500Z 25012KT CAVOK 21/09 Q1016 NOSIG",
      "taf": "TAF LRBS 061100Z 0612/0712 25012KT CAVOK"
    },
    {
      "icao": "LRBV",
      "alert": "OK",
      "vis_m": 9999,
      "fzfg": false,
      "metar_trigger": false,
      "taf_trigger": false,
      "metar": "METAR LRBV 061500Z 27013G23KT 230V310 9999 SCT062 SCT084 18/06 Q1017",
      "taf": "TAF LRBV 061400Z 0615/0624 29014KT 9999 SCT055"
    },
    {
      "icao": "LRCL",
      "alert": "OK",
      "vis_m": 9999,
      "fzfg": false,
      "metar_trigger": false,
      "taf_trigger": false,
      "metar": "METAR LRCL 061500Z COR 27016KT 9999 BKN052 17/00 Q1017",
      "taf": "TAF LRCL 061400Z 0615/0624 27018KT 9999 SCT045"
    },
    {
      "icao": "LRCV",
      "alert": "OK",
      "vis_m": 9999,
      "fzfg": false,
      "metar_trigger": false,
      "taf_trigger": false,
      "metar": "METAR LRCV 061500Z 25010KT CAVOK 23/08 Q1017",
      "taf": "TAF LRCV 061400Z 0615/0624 27009KT CAVOK"
    },
    {
      "icao": "LRIA",
      "alert": "OK",
      "vis_m": 9999,
      "fzfg": false,
      "metar_trigger": false,
      "taf_trigger": false,
      "metar": "METAR LRIA 061500Z 33020KT 9999 FEW029CB 12/03 Q1016",
      "taf": "TAF LRIA 061400Z 0615/0624 33018KT 9999 FEW045"
    },
    {
      "icao": "LROP",
      "alert": "OK",
      "vis_m": 9999,
      "fzfg": false,
      "metar_trigger": false,
      "taf_trigger": false,
      "metar": "METAR LROP 061500Z 24013KT CAVOK 22/07 Q1016 NOSIG",
      "taf": "TAF LROP 061100Z 0612/0712 25012KT CAVOK"
    },
    {
      "icao": "LRSB",
      "alert": "OK",
      "vis_m": 9999,
      "fzfg": false,
      "metar_trigger": false,
      "taf_trigger": false,
      "metar": "METAR LRSB 061500Z 29016KT 9999 FEW075 20/05 Q1017 NOSIG",
      "taf": "TAF LRSB 061100Z 0612/0712 30012KT 9999 SCT065"
    },
    {
      "icao": "LRSM",
      "alert": "OK",
      "vis_m": 9999,
      "fzfg": false,
      "metar_trigger": false,
      "taf_trigger": false,
      "metar": "METAR LRSM 061500Z 36016KT CAVOK 18/03 Q1016",
      "taf": "TAF LRSM 061400Z 0615/0624 34010KT CAVOK"
    },
    {
      "icao": "LRSV",
      "alert": "OK",
      "vis_m": 9999,
      "fzfg": false,
      "metar_trigger": false,
      "taf_trigger": false,
      "metar": "METAR LRSV 061500Z 33014KT 9999 FEW053CB 10/04 Q1016",
      "taf": "TAF LRSV 061400Z 0615/0624 32018KT 9999 FEW050CB"
    },
    {
      "icao": "LRTM",
      "alert": "OK",
      "vis_m": 9999,
      "fzfg": false,
      "metar_trigger": false,
      "taf_trigger": false,
      "metar": "METAR LRTM 061500Z 29015KT 9999 FEW047 19/05 Q1016",
      "taf": "TAF LRTM 061400Z 0615/0624 30014KT 9999 SCT045"
    },
    {
      "icao": "LRTR",
      "alert": "OK",
      "vis_m": 9999,
      "fzfg": false,
      "metar_trigger": false,
      "taf_trigger": false,
      "metar": "METAR LRTR 061500Z 33015KT CAVOK 19/06 Q1020",
      "taf": "TAF LRTR 061100Z 0612/0712 26010KT CAVOK"
    },
    {
      "icao": "LTAC",
      "alert": "OK",
      "vis_m": 9999,
      "fzfg": false,
      "metar_trigger": false,
      "taf_trigger": false,
      "metar": "METAR LTAC 061450Z VRB02KT 9999 SCT040 15/M01 Q1018 NOSIG RMK RWY21C 14004KT 070V170 RWY03L VRB03KT RWY21R 11003KT 050V170 RWY03R VRB02KT RWY21L VRB02KT",
      "taf": "TAF LTAC 061040Z 0612/0712 VRB02KT 9999 SCT040"
    },
    {
      "icao": "LTFM",
      "alert": "OK",
      "vis_m": 9999,
      "fzfg": false,
      "metar_trigger": false,
      "taf_trigger": false,
      "metar": "METAR LTFM 061450Z 09008KT CAVOK 18/02 Q1019 NOSIG RMK RWY17L 09010KT RWY34L 07008KT RWY16R 09010KT RWY36 09008KT 030V110 RWY18 10008KT",
      "taf": "TAF LTFM 061040Z 0612/0718 10008KT CAVOK"
    },
    {
      "icao": "LUKK",
      "alert": "OK",
      "vis_m": 9999,
      "fzfg": false,
      "metar_trigger": false,
      "taf_trigger": false,
      "metar": "METAR LUKK 061500Z 36017KT 330V030 CAVOK 14/03 Q1014 TEMPO 35022G32KT SCT040CB",
      "taf": ""
    },
    {
      "icao": "LWOH",
      "alert": "OK",
      "vis_m": 9999,
      "fzfg": false,
      "metar_trigger": false,
      "taf_trigger": false,
      "metar": "METAR LWOH 061450Z 13008KT 9999 FEW040 17/06 Q1020",
      "taf": "TAF LWOH 061430Z 0615/0715 17008KT 9999 FEW040"
    },
    {
      "icao": "LWSK",
      "alert": "OK",
      "vis_m": 9999,
      "fzfg": false,
      "metar_trigger": false,
      "taf_trigger": false,
      "metar": "METAR LWSK 061450Z VRB01KT CAVOK 24/07 Q1019 NOSIG",
      "taf": "TAF LWSK 061430Z 0615/0715 VRB02KT CAVOK"
    },
    {
      "icao": "LYBE",
      "alert": "OK",
      "vis_m": 9999,
      "fzfg": false,
      "metar_trigger": false,
      "taf_trigger": false,
      "metar": "METAR LYBE 061500Z 35007KT 310V020 CAVOK 22/09 Q1020 NOSIG",
      "taf": "TAF LYBE 061100Z 0612/0712 34006KT CAVOK TX23/0613Z TN09/0705Z"
    },
    {
      "icao": "LYNI",
      "alert": "OK",
      "vis_m": 9999,
      "fzfg": false,
      "metar_trigger": false,
      "taf_trigger": false,
      "metar": "METAR LYNI 061500Z 32008KT 290V350 CAVOK 23/05 Q1019 NOSIG",
      "taf": "TAF LYNI 061100Z 0612/0712 31006KT CAVOK TX23/0613Z TN07/0705Z"
    },
    {
      "icao": "LYPG",
      "alert": "OK",
      "vis_m": 9999,
      "fzfg": false,
      "metar_trigger": false,
      "taf_trigger": false,
      "metar": "METAR LYPG 061500Z 14007KT 100V180 CAVOK 23/08 Q1020 NOSIG",
      "taf": "TAF LYPG 061100Z 0612/0712 18009KT CAVOK TX23/0612Z TN08/0704Z"
    },
    {
      "icao": "LZIB",
      "alert": "OK",
      "vis_m": 9999,
      "fzfg": false,
      "metar_trigger": false,
      "taf_trigger": false,
      "metar": "METAR LZIB 061500Z 32015KT CAVOK 17/M01 Q1022 NOSIG",
      "taf": "TAF LZIB 061115Z 0612/0712 33014KT CAVOK"
    },
    {
      "icao": "LZKZ",
      "alert": "OK",
      "vis_m": 9999,
      "fzfg": false,
      "metar_trigger": false,
      "taf_trigger": false,
      "metar": "METAR LZKZ 061500Z 35021KT CAVOK 15/M05 Q1018 NOSIG",
      "taf": "TAF LZKZ 061115Z 0612/0712 01009KT CAVOK"
    },
    {
      "icao": "LZTT",
      "alert": "OK",
      "vis_m": 9999,
      "fzfg": false,
      "metar_trigger": false,
      "taf_trigger": false,
      "metar": "METAR LZTT 061500Z 31014KT 9999 SCT063 10/M05 Q1019 NOSIG",
      "taf": "TAF LZTT 061115Z 0612/0712 27016KT 9999 SCT053"
    },
    {
      "icao": "OEJN",
      "alert": "OK",
      "vis_m": 8000,
      "fzfg": false,
      "metar_trigger": false,
      "taf_trigger": false,
      "metar": "METAR OEJN 061500Z 32017KT 8000 NSC 29/13 Q1012 NOSIG",
      "taf": "TAF OEJN 061100Z 0612/0718 30015KT CAVOK"
    },
    {
      "icao": "OEMA",
      "alert": "OK",
      "vis_m": 9999,
      "fzfg": false,
      "metar_trigger": false,
      "taf_trigger": false,
      "metar": "METAR OEMA 061500Z 30010KT 9999 SCT045 31/M05 Q1015 NOSIG",
      "taf": "TAF OEMA 061100Z 0612/0718 34012KT 7000 NSC"
    },
    {
      "icao": "OJAI",
      "alert": "OK",
      "vis_m": 5000,
      "fzfg": false,
      "metar_trigger": false,
      "taf_trigger": false,
      "metar": "METAR OJAI 061400Z 27011KT 5000 HZ FEW030 16/07 Q1020 NOSIG",
      "taf": "TAF OJAI 061100Z 0612/0718 28012KT 5000 HZ BKN030"
    },
    {
      "icao": "OMAA",
      "alert": "OK",
      "vis_m": null,
      "fzfg": false,
      "metar_trigger": false,
      "taf_trigger": false,
      "metar": "",
      "taf": ""
    },
    {
      "icao": "OMDB",
      "alert": "OK",
      "vis_m": null,
      "fzfg": false,
      "metar_trigger": false,
      "taf_trigger": false,
      "metar": "",
      "taf": ""
    },
    {
      "icao": "UAAA",
      "alert": "OK",
      "vis_m": 9999,
      "fzfg": false,
      "metar_trigger": false,
      "taf_trigger": false,
      "metar": "METAR UAAA 061500Z 35002MPS 310V020 9999 SCT050CB BKN100 19/08 Q1008 NOSIG",
      "taf": "TAF UAAA 061100Z 0612/0712 02003MPS 9999 FEW050CB SCT100 TX23/0710Z TN11/0701Z"
    },
    {
      "icao": "UBBB",
      "alert": "OK",
      "vis_m": 9999,
      "fzfg": false,
      "metar_trigger": false,
      "taf_trigger": false,
      "metar": "METAR UBBB 061500Z 32016KT CAVOK 11/07 Q1015 NOSIG",
      "taf": "TAF UBBB 061057Z 0612/0712 33024G34KT 9999 SCT015 FEW040CB TX13/0612Z TN10/0701Z"
    },
    {
      "icao": "UDSG",
      "alert": "OK",
      "vis_m": 9999,
      "fzfg": false,
      "metar_trigger": false,
      "taf_trigger": false,
      "metar": "METAR UDSG 061500Z 35008KT 9999 FEW043 09/M01 Q1017 NOSIG",
      "taf": "TAF UDSG 061100Z 0612/0712 VRB06KT 9999 FEW050"
    },
    {
      "icao": "UDYZ",
      "alert": "OK",
      "vis_m": 9999,
      "fzfg": false,
      "metar_trigger": false,
      "taf_trigger": false,
      "metar": "METAR UDYZ 061500Z 22003KT 9999 FEW046 18/00 Q1014 NOSIG",
      "taf": "TAF UDYZ 061100Z 0612/0712 04006KT 9999 FEW040"
    },
    {
      "icao": "UGKO",
      "alert": "OK",
      "vis_m": 9999,
      "fzfg": false,
      "metar_trigger": false,
      "taf_trigger": false,
      "metar": "METAR UGKO 061500Z 26010KT 9999 SCT016 BKN034 12/09 Q1020 NOSIG",
      "taf": "TAF UGKO 061100Z 0612/0712 27007KT 9999 SCT030 BKN050 TX20/0712Z TN08/0703Z"
    }
  ]
}