{
  "ts_utc": "2026-06-30T15:45:23Z",
  "threshold_m": 150,
  "source": "stations_override.txt (ICAO list) + aviationweather.gov (METAR/TAF raw)",
  "station_count": 159,
  "stations": [
    {
      "icao": "BIKF",
      "alert": "OK",
      "vis_m": 9999,
      "fzfg": false,
      "metar_trigger": false,
      "taf_trigger": false,
      "metar": "METAR BIKF 301530Z 17022KT 9999 OVC018 11/09 Q1010",
      "taf": "TAF BIKF 301334Z 3015/0115 18020G30KT 9999 -RA BKN014 OVC024 TX12/3015Z TN09/0106Z"
    },
    {
      "icao": "BKPR",
      "alert": "OK",
      "vis_m": 9999,
      "fzfg": false,
      "metar_trigger": false,
      "taf_trigger": false,
      "metar": "METAR BKPR 301530Z 13011KT 070V150 9999 FEW040CB 30/15 Q1016 TEMPO 4500 -TSRA",
      "taf": "TAF BKPR 301130Z 3012/0112 01008KT 9999 SCT040"
    },
    {
      "icao": "EBCI",
      "alert": "OK",
      "vis_m": 9999,
      "fzfg": false,
      "metar_trigger": false,
      "taf_trigger": false,
      "metar": "METAR EBCI 301520Z 35006KT 9999 FEW030 22/14 Q1022 NOSIG",
      "taf": "TAF EBCI 301100Z 3012/0118 29005KT 9999 FEW035"
    },
    {
      "icao": "EDDB",
      "alert": "OK",
      "vis_m": 9999,
      "fzfg": false,
      "metar_trigger": false,
      "taf_trigger": false,
      "metar": "METAR EDDB 301520Z AUTO 13009KT 100V160 CAVOK 26/13 Q1020 NOSIG",
      "taf": "TAF EDDB 301100Z 3012/0112 05006KT 9999 SCT040"
    },
    {
      "icao": "EDDH",
      "alert": "OK",
      "vis_m": 9999,
      "fzfg": false,
      "metar_trigger": false,
      "taf_trigger": false,
      "metar": "METAR EDDH 301520Z AUTO 02006KT 360V060 9999 SHRA VCTS FEW038 FEW///CB 22/15 Q1021 TEMPO 24015G25KT TSRA",
      "taf": ""
    },
    {
      "icao": "EDDK",
      "alert": "OK",
      "vis_m": 9999,
      "fzfg": false,
      "metar_trigger": false,
      "taf_trigger": false,
      "metar": "METAR EDDK 301520Z AUTO 32007KT 280V010 9999 VCSH FEW///TCU 25/17 Q1020 RESHRA TEMPO SHRA",
      "taf": "TAF EDDK 301100Z 3012/0118 VRB03KT CAVOK"
    },
    {
      "icao": "EDDN",
      "alert": "OK",
      "vis_m": 9999,
      "fzfg": false,
      "metar_trigger": false,
      "taf_trigger": false,
      "metar": "METAR EDDN 301520Z AUTO VRB05KT 9999 FEW043 29/17 Q1019 NOSIG",
      "taf": "TAF EDDN 301100Z 3012/0112 04004KT 9999 BKN035"
    },
    {
      "icao": "EDDS",
      "alert": "OK",
      "vis_m": 9999,
      "fzfg": false,
      "metar_trigger": false,
      "taf_trigger": false,
      "metar": "METAR EDDS 301520Z AUTO 05008KT 030V100 CAVOK 29/16 Q1018 NOSIG",
      "taf": "TAF EDDS 301100Z 3012/0112 07006KT 9999 SCT040"
    },
    {
      "icao": "EDFH",
      "alert": "OK",
      "vis_m": 9999,
      "fzfg": false,
      "metar_trigger": false,
      "taf_trigger": false,
      "metar": "METAR EDFH 301520Z VRB01KT CAVOK 26/12 Q1020",
      "taf": "TAF EDFH 301100Z 3012/0112 05005KT CAVOK"
    },
    {
      "icao": "EDJA",
      "alert": "OK",
      "vis_m": 9999,
      "fzfg": false,
      "metar_trigger": false,
      "taf_trigger": false,
      "metar": "METAR EDJA 301520Z 12007KT 060V180 9999 SCT061 29/17 Q1020",
      "taf": "TAF EDJA 301400Z 3015/3024 06006KT 9999 FEW045"
    },
    {
      "icao": "EDLW",
      "alert": "OK",
      "vis_m": 9999,
      "fzfg": false,
      "metar_trigger": false,
      "taf_trigger": false,
      "metar": "METAR EDLW 301520Z VRB04KT 9999 FEW029 21/18 Q1020",
      "taf": "TAF EDLW 301100Z 3012/0112 31005KT CAVOK"
    },
    {
      "icao": "EDNY",
      "alert": "OK",
      "vis_m": 9999,
      "fzfg": false,
      "metar_trigger": false,
      "taf_trigger": false,
      "metar": "METAR EDNY 301520Z 22009KT 190V250 9999 SCT074CB 31/17 Q1018",
      "taf": "TAF EDNY 301400Z 3015/3024 VRB03KT 9999 FEW050"
    },
    {
      "icao": "EDSB",
      "alert": "OK",
      "vis_m": 9999,
      "fzfg": false,
      "metar_trigger": false,
      "taf_trigger": false,
      "metar": "METAR EDSB 301520Z 35011KT 300V020 CAVOK 30/19 Q1017",
      "taf": "TAF EDSB 301100Z 3012/0112 02007KT CAVOK"
    },
    {
      "icao": "EETN",
      "alert": "OK",
      "vis_m": 9999,
      "fzfg": false,
      "metar_trigger": false,
      "taf_trigger": false,
      "metar": "METAR EETN 301520Z 27015KT CAVOK 23/16 Q1018 NOSIG",
      "taf": "TAF EETN 301130Z 3012/0112 28015KT 9999 FEW040"
    },
    {
      "icao": "EFTU",
      "alert": "OK",
      "vis_m": 9999,
      "fzfg": false,
      "metar_trigger": false,
      "taf_trigger": false,
      "metar": "METAR EFTU 301520Z AUTO 32010KT 290V360 CAVOK 21/09 Q1020",
      "taf": "TAF EFTU 301428Z 3015/0115 32010KT CAVOK"
    },
    {
      "icao": "EGBB",
      "alert": "OK",
      "vis_m": 9999,
      "fzfg": false,
      "metar_trigger": false,
      "taf_trigger": false,
      "metar": "METAR EGBB 301520Z VRB05KT 9999 SCT046 23/11 Q1019",
      "taf": "TAF EGBB 301105Z 3012/0112 21010KT 9999 SCT030"
    },
    {
      "icao": "EGGP",
      "alert": "OK",
      "vis_m": 9000,
      "fzfg": false,
      "metar_trigger": false,
      "taf_trigger": false,
      "metar": "METAR EGGP 301520Z 19004KT 140V230 9000 -SHRA FEW034 BKN040 20/13 Q1019",
      "taf": "TAF EGGP 301103Z 3012/0112 21010KT 9999 SCT025"
    },
    {
      "icao": "EGGW",
      "alert": "OK",
      "vis_m": 9999,
      "fzfg": false,
      "metar_trigger": false,
      "taf_trigger": false,
      "metar": "METAR EGGW 301520Z AUTO 23006KT 180V260 9999 NCD 22/10 Q1020",
      "taf": "TAF EGGW 301101Z 3012/0112 23008KT 9999 SCT035"
    },
    {
      "icao": "EGKK",
      "alert": "OK",
      "vis_m": 9999,
      "fzfg": false,
      "metar_trigger": false,
      "taf_trigger": false,
      "metar": "METAR EGKK 301520Z 24009KT 190V270 9999 SCT041 22/12 Q1021",
      "taf": "TAF EGKK 301057Z 3012/0118 24010KT 9999 SCT045"
    },
    {
      "icao": "EGNM",
      "alert": "OK",
      "vis_m": 9999,
      "fzfg": false,
      "metar_trigger": false,
      "taf_trigger": false,
      "metar": "METAR EGNM 301520Z 21010KT 9999 VCSH FEW049 21/09 Q1019",
      "taf": "TAF EGNM 301102Z 3012/0112 20010KT 9999 SCT030"
    },
    {
      "icao": "EGPD",
      "alert": "OK",
      "vis_m": 9999,
      "fzfg": false,
      "metar_trigger": false,
      "taf_trigger": false,
      "metar": "METAR EGPD 301520Z AUTO 17008KT 140V210 9999 NCD 18/12 Q1019",
      "taf": ""
    },
    {
      "icao": "EGPF",
      "alert": "OK",
      "vis_m": 9999,
      "fzfg": false,
      "metar_trigger": false,
      "taf_trigger": false,
      "metar": "METAR EGPF 301520Z AUTO 10007KT 080V140 9999 BKN021 BKN029 18/15 Q1018",
      "taf": ""
    },
    {
      "icao": "EHBK",
      "alert": "OK",
      "vis_m": 9999,
      "fzfg": false,
      "metar_trigger": false,
      "taf_trigger": false,
      "metar": "METAR EHBK 301525Z AUTO 34006KT 290V020 9999 NSC 24/13 Q1021 NOSIG",
      "taf": "TAF EHBK 301101Z 3012/0118 33006KT CAVOK"
    },
    {
      "icao": "EHEH",
      "alert": "OK",
      "vis_m": 9999,
      "fzfg": false,
      "metar_trigger": false,
      "taf_trigger": false,
      "metar": "METAR EHEH 301525Z AUTO 31004KT 270V020 9999 OVC130 23/13 Q1021 BLU NOSIG RMK TREND REMOTE BY EHWX",
      "taf": "TAF EHEH 301108Z 3012/0118 33003KT CAVOK"
    },
    {
      "icao": "EKBI",
      "alert": "OK",
      "vis_m": 9999,
      "fzfg": false,
      "metar_trigger": false,
      "taf_trigger": false,
      "metar": "METAR EKBI 301520Z AUTO 23006KT 9999 SCT150/// 22/10 Q1022",
      "taf": "TAF EKBI 301427Z 3015/0115 VRB03KT 9999 FEW030"
    },
    {
      "icao": "EKCH",
      "alert": "OK",
      "vis_m": 9999,
      "fzfg": false,
      "metar_trigger": false,
      "taf_trigger": false,
      "metar": "METAR EKCH 301520Z AUTO VRB02KT 9999 NCD 21/13 Q1023 NOSIG",
      "taf": "TAF EKCH 301427Z 3015/0115 15005KT 9999 SCT040"
    },
    {
      "icao": "ENAL",
      "alert": "OK",
      "vis_m": 9999,
      "fzfg": false,
      "metar_trigger": false,
      "taf_trigger": false,
      "metar": "METAR ENAL 301520Z 26011KT 9999 FEW020 BKN046 14/10 Q1023",
      "taf": "TAF ENAL 301400Z 3015/3024 25008KT 9999 FEW020 BKN040"
    },
    {
      "icao": "ENBR",
      "alert": "OK",
      "vis_m": 9999,
      "fzfg": false,
      "metar_trigger": false,
      "taf_trigger": false,
      "metar": "METAR ENBR 301520Z 21006KT 9999 FEW025TCU FEW035 17/10 Q1023 NOSIG RMK WIND 1200FT 21006KT",
      "taf": "TAF ENBR 301100Z 3012/0112 19008KT 9999 FEW018 SCT045"
    },
    {
      "icao": "ENGM",
      "alert": "OK",
      "vis_m": 9999,
      "fzfg": false,
      "metar_trigger": false,
      "taf_trigger": false,
      "metar": "METAR ENGM 301520Z 23009KT CAVOK 21/08 Q1020 NOSIG",
      "taf": ""
    },
    {
      "icao": "ENHD",
      "alert": "OK",
      "vis_m": 9999,
      "fzfg": false,
      "metar_trigger": false,
      "taf_trigger": false,
      "metar": "METAR ENHD 301520Z 23009KT 9999 FEW033 17/12 Q1023",
      "taf": "TAF ENHD 301400Z 3015/3022 21010KT 9999 FEW030"
    },
    {
      "icao": "ENTC",
      "alert": "OK",
      "vis_m": 9999,
      "fzfg": false,
      "metar_trigger": false,
      "taf_trigger": false,
      "metar": "METAR ENTC 301520Z 28014KT 9999 -SHRA SCT015 BKN019 11/08 Q1011 TEMPO 20012KT RMK WIND 2600FT 25022KT",
      "taf": ""
    },
    {
      "icao": "ENTO",
      "alert": "OK",
      "vis_m": 9999,
      "fzfg": false,
      "metar_trigger": false,
      "taf_trigger": false,
      "metar": "METAR ENTO 301520Z 20008KT CAVOK 19/07 Q1021 NOSIG",
      "taf": "TAF ENTO 301100Z 3012/0112 19012KT CAVOK"
    },
    {
      "icao": "ENVA",
      "alert": "OK",
      "vis_m": 9999,
      "fzfg": false,
      "metar_trigger": false,
      "taf_trigger": false,
      "metar": "METAR ENVA 301520Z 26006KT 9999 FEW035 18/10 Q1022 NOSIG RMK WIND 670FT 30006KT",
      "taf": "TAF ENVA 301100Z 3012/0112 31012KT 9999 FEW020 BKN040"
    },
    {
      "icao": "ENZV",
      "alert": "OK",
      "vis_m": 9999,
      "fzfg": false,
      "metar_trigger": false,
      "taf_trigger": false,
      "metar": "METAR ENZV 301520Z 25008KT CAVOK 18/12 Q1023 NOSIG",
      "taf": "TAF ENZV 301100Z 3012/0112 24008KT 9999 FEW035"
    },
    {
      "icao": "EPGD",
      "alert": "OK",
      "vis_m": 9999,
      "fzfg": false,
      "metar_trigger": false,
      "taf_trigger": false,
      "metar": "METAR EPGD 301530Z 05012KT 010V070 CAVOK 20/14 Q1023",
      "taf": "TAF EPGD 301130Z 3012/0112 33007KT CAVOK"
    },
    {
      "icao": "EPKK",
      "alert": "OK",
      "vis_m": 9999,
      "fzfg": false,
      "metar_trigger": false,
      "taf_trigger": false,
      "metar": "METAR EPKK 301530Z 12008KT 090V160 CAVOK 32/20 Q1018",
      "taf": "TAF EPKK 301430Z 3015/0115 06010KT CAVOK"
    },
    {
      "icao": "EPKT",
      "alert": "OK",
      "vis_m": 9999,
      "fzfg": false,
      "metar_trigger": false,
      "taf_trigger": false,
      "metar": "METAR EPKT 301530Z 10008KT 070V130 CAVOK 31/18 Q1019",
      "taf": "TAF EPKT 301130Z 3012/0112 06010KT CAVOK"
    },
    {
      "icao": "EPLB",
      "alert": "OK",
      "vis_m": 9999,
      "fzfg": false,
      "metar_trigger": false,
      "taf_trigger": false,
      "metar": "METAR EPLB 301530Z 35003KT 310V080 CAVOK 33/16 Q1019",
      "taf": "TAF EPLB 301130Z 3012/0112 03010KT CAVOK"
    },
    {
      "icao": "EPMO",
      "alert": "OK",
      "vis_m": 9999,
      "fzfg": false,
      "metar_trigger": false,
      "taf_trigger": false,
      "metar": "METAR EPMO 301530Z 02007KT 340V060 CAVOK 30/16 Q1020",
      "taf": ""
    },
    {
      "icao": "EPPO",
      "alert": "OK",
      "vis_m": 9999,
      "fzfg": false,
      "metar_trigger": false,
      "taf_trigger": false,
      "metar": "METAR EPPO 301530Z 03005KT CAVOK 29/16 Q1020",
      "taf": "TAF EPPO 301130Z 3012/0112 07007KT CAVOK"
    },
    {
      "icao": "EPRA",
      "alert": "OK",
      "vis_m": 9999,
      "fzfg": false,
      "metar_trigger": false,
      "taf_trigger": false,
      "metar": "METAR EPRA 301530Z VRB04KT CAVOK 32/15 Q1019",
      "taf": "TAF EPRA 301430Z 3015/3024 06010KT CAVOK"
    },
    {
      "icao": "EPRZ",
      "alert": "OK",
      "vis_m": 9999,
      "fzfg": false,
      "metar_trigger": false,
      "taf_trigger": false,
      "metar": "METAR EPRZ 301530Z 03006KT 360V060 CAVOK 34/17 Q1018",
      "taf": "TAF EPRZ 301130Z 3012/0112 06010KT CAVOK"
    },
    {
      "icao": "EPSC",
      "alert": "OK",
      "vis_m": 9999,
      "fzfg": false,
      "metar_trigger": false,
      "taf_trigger": false,
      "metar": "METAR EPSC 301530Z 01008KT 330V050 CAVOK 25/13 Q1021",
      "taf": "TAF EPSC 301130Z 3012/0112 VRB04KT CAVOK"
    },
    {
      "icao": "EPSY",
      "alert": "OK",
      "vis_m": 9999,
      "fzfg": false,
      "metar_trigger": false,
      "taf_trigger": false,
      "metar": "METAR EPSY 301530Z 36009KT 330V040 9999 FEW042 27/16 Q1021",
      "taf": "TAF EPSY 301430Z 3015/3024 02006KT CAVOK"
    },
    {
      "icao": "EPWA",
      "alert": "OK",
      "vis_m": 9999,
      "fzfg": false,
      "metar_trigger": false,
      "taf_trigger": false,
      "metar": "METAR EPWA 301530Z 02007KT 330V110 CAVOK 31/16 Q1019 NOSIG",
      "taf": "TAF EPWA 301430Z 3015/0115 05008KT CAVOK"
    },
    {
      "icao": "EPWR",
      "alert": "OK",
      "vis_m": 9999,
      "fzfg": false,
      "metar_trigger": false,
      "taf_trigger": false,
      "metar": "METAR EPWR 301530Z 03006KT 350V070 9999 FEW046 31/19 Q1018",
      "taf": "TAF EPWR 301430Z 3015/0115 02005KT 9999 SCT040"
    },
    {
      "icao": "ESGG",
      "alert": "OK",
      "vis_m": 9999,
      "fzfg": false,
      "metar_trigger": false,
      "taf_trigger": false,
      "metar": "METAR ESGG 301520Z 25007KT 9999 SCT032 18/10 Q1022",
      "taf": "TAF ESGG 301430Z 3015/0115 24006KT 9999 SCT035"
    },
    {
      "icao": "ESKN",
      "alert": "OK",
      "vis_m": 9999,
      "fzfg": false,
      "metar_trigger": false,
      "taf_trigger": false,
      "metar": "METAR ESKN 301520Z 24007KT 210V280 CAVOK 24/10 Q1021",
      "taf": "TAF ESKN 301430Z 3015/0115 25010KT CAVOK"
    },
    {
      "icao": "ESMS",
      "alert": "OK",
      "vis_m": 9999,
      "fzfg": false,
      "metar_trigger": false,
      "taf_trigger": false,
      "metar": "METAR ESMS 301520Z 33006KT 280V360 CAVOK 23/11 Q1022",
      "taf": "TAF ESMS 301427Z 3015/0115 35005KT 9999 FEW040"
    },
    {
      "icao": "ESSA",
      "alert": "OK",
      "vis_m": 9999,
      "fzfg": false,
      "metar_trigger": false,
      "taf_trigger": false,
      "metar": "METAR ESSA 301520Z 14010KT CAVOK 22/12 Q1021 NOSIG",
      "taf": "TAF ESSA 301430Z 3015/0115 06005KT CAVOK"
    },
    {
      "icao": "EYKA",
      "alert": "OK",
      "vis_m": 9999,
      "fzfg": false,
      "metar_trigger": false,
      "taf_trigger": false,
      "metar": "METAR EYKA 301520Z 34005KT 270V030 CAVOK 28/14 Q1020",
      "taf": "TAF EYKA 301100Z 3012/0112 29010KT 9000 NSC"
    },
    {
      "icao": "EYPA",
      "alert": "OK",
      "vis_m": 9999,
      "fzfg": false,
      "metar_trigger": false,
      "taf_trigger": false,
      "metar": "METAR EYPA 301520Z VRB05KT CAVOK 21/14 Q1022",
      "taf": "TAF EYPA 301100Z 3012/0112 VRB03KT 9000 NSC"
    },
    {
      "icao": "EYVI",
      "alert": "OK",
      "vis_m": 9999,
      "fzfg": false,
      "metar_trigger": false,
      "taf_trigger": false,
      "metar": "METAR EYVI 301520Z 34010KT 9999 SCT047 28/15 Q1020 NOSIG",
      "taf": "TAF EYVI 301100Z 3012/0112 VRB03KT 9000 FEW045"
    },
    {
      "icao": "GCFV",
      "alert": "OK",
      "vis_m": 9999,
      "fzfg": false,
      "metar_trigger": false,
      "taf_trigger": false,
      "metar": "METAR GCFV 301530Z 03009KT 360V060 9999 FEW030 24/19 Q1017",
      "taf": "TAF GCFV 301400Z 3015/0115 04015KT 9999 FEW015 TX28/0114Z TN21/0106Z"
    },
    {
      "icao": "GCLP",
      "alert": "OK",
      "vis_m": 9999,
      "fzfg": false,
      "metar_trigger": false,
      "taf_trigger": false,
      "metar": "METAR GCLP 301530Z 02027KT 9999 FEW025 26/20 Q1016 NOSIG",
      "taf": "TAF GCLP 301400Z 3015/0115 01027KT 9999 FEW020 TX29/0114Z TN23/0106Z"
    },
    {
      "icao": "GCTS",
      "alert": "OK",
      "vis_m": 9999,
      "fzfg": false,
      "metar_trigger": false,
      "taf_trigger": false,
      "metar": "METAR GCTS 301530Z 07023KT 9999 FEW025 32/13 Q1016 WS R07 NOSIG",
      "taf": "TAF GCTS 301400Z 3015/0115 08022KT 9999 FEW025 TX29/0114Z TN21/0106Z"
    },
    {
      "icao": "GMAD",
      "alert": "OK",
      "vis_m": 9999,
      "fzfg": false,
      "metar_trigger": false,
      "taf_trigger": false,
      "metar": "METAR GMAD 301530Z 23013KT CAVOK 31/17 Q1012 NOSIG",
      "taf": "TAF GMAD 301100Z 3012/0118 28012KT 8000 NSC"
    },
    {
      "icao": "GMMN",
      "alert": "OK",
      "vis_m": 9999,
      "fzfg": false,
      "metar_trigger": false,
      "taf_trigger": false,
      "metar": "METAR GMMN 301530Z 33009KT 310V030 CAVOK 31/20 Q1016 NOSIG",
      "taf": "TAF GMMN 301100Z 3012/0118 34012KT CAVOK"
    },
    {
      "icao": "GMMX",
      "alert": "OK",
      "vis_m": 9999,
      "fzfg": false,
      "metar_trigger": false,
      "taf_trigger": false,
      "metar": "METAR GMMX 301530Z 32006KT 280V010 CAVOK 40/10 Q1014 NOSIG",
      "taf": "TAF GMMX 301100Z 3012/0118 24006KT 8000 NSC"
    },
    {
      "icao": "HEGN",
      "alert": "OK",
      "vis_m": 9999,
      "fzfg": false,
      "metar_trigger": false,
      "taf_trigger": false,
      "metar": "METAR HEGN 301500Z 35018KT CAVOK 36/13 Q1004 NOSIG",
      "taf": "TAF HEGN 301100Z 3012/0118 36012G22KT CAVOK"
    },
    {
      "icao": "HEMA",
      "alert": "OK",
      "vis_m": 9999,
      "fzfg": false,
      "metar_trigger": false,
      "taf_trigger": false,
      "metar": "METAR HEMA 301500Z 33017KT CAVOK 35/11 Q1004 NOSIG",
      "taf": "TAF HEMA 301100Z 3012/0118 01012G22KT CAVOK"
    },
    {
      "icao": "HESH",
      "alert": "OK",
      "vis_m": 9999,
      "fzfg": false,
      "metar_trigger": false,
      "taf_trigger": false,
      "metar": "METAR HESH 301500Z 36010KT CAVOK 39/11 Q1004 NOSIG",
      "taf": "TAF HESH 301100Z 3012/0118 02010G20KT CAVOK"
    },
    {
      "icao": "HESX",
      "alert": "OK",
      "vis_m": 9999,
      "fzfg": false,
      "metar_trigger": false,
      "taf_trigger": false,
      "metar": "METAR HESX 301500Z 01017KT CAVOK 35/12 Q1009 NOSIG",
      "taf": "TAF HESX 301100Z 3012/0118 34014KT CAVOK"
    },
    {
      "icao": "LATI",
      "alert": "OK",
      "vis_m": 9999,
      "fzfg": false,
      "metar_trigger": false,
      "taf_trigger": false,
      "metar": "METAR LATI 301520Z 31016KT 9999 FEW040CB FEW080 31/19 Q1012 NOSIG",
      "taf": ""
    },
    {
      "icao": "LBPD",
      "alert": "OK",
      "vis_m": 9999,
      "fzfg": false,
      "metar_trigger": false,
      "taf_trigger": false,
      "metar": "METAR LBPD 301530Z AUTO 11013G23KT 060V160 9999 FEW250/// 36/12 Q1013 NOSIG",
      "taf": "TAF LBPD 301100Z 3012/0112 11010KT 9999 SCT065"
    },
    {
      "icao": "LBSF",
      "alert": "OK",
      "vis_m": 9999,
      "fzfg": false,
      "metar_trigger": false,
      "taf_trigger": false,
      "metar": "METAR LBSF 301530Z AUTO 14012KT 9999 TS //////CB 25/19 Q1017 NOSIG",
      "taf": "TAF LBSF 301100Z 3012/0112 07010KT 9999 SCT060"
    },
    {
      "icao": "LBWN",
      "alert": "OK",
      "vis_m": 9999,
      "fzfg": false,
      "metar_trigger": false,
      "taf_trigger": false,
      "metar": "METAR LBWN 301530Z AUTO 10007KT 9999 NCD 30/17 Q1013 NOSIG",
      "taf": "TAF LBWN 301100Z 3012/0112 12010KT CAVOK"
    },
    {
      "icao": "LCLK",
      "alert": "OK",
      "vis_m": 9999,
      "fzfg": false,
      "metar_trigger": false,
      "taf_trigger": false,
      "metar": "METAR LCLK 301530Z 21012KT CAVOK 31/25 Q1006 NOSIG",
      "taf": "TAF LCLK 301130Z 3012/0112 22017KT 9999 FEW025"
    },
    {
      "icao": "LCPH",
      "alert": "OK",
      "vis_m": 9999,
      "fzfg": false,
      "metar_trigger": false,
      "taf_trigger": false,
      "metar": "METAR LCPH 301530Z 31014KT CAVOK 27/24 Q1007 NOSIG",
      "taf": "TAF LCPH 301130Z 3012/0112 29015KT 9999 FEW020"
    },
    {
      "icao": "LEAL",
      "alert": "OK",
      "vis_m": 9999,
      "fzfg": false,
      "metar_trigger": false,
      "taf_trigger": false,
      "metar": "METAR LEAL 301530Z 09006KT 030V140 9999 FEW012 30/22 Q1019 NOSIG",
      "taf": "TAF LEAL 301100Z 3012/0112 10010KT CAVOK TX32/3012Z TN23/0106Z"
    },
    {
      "icao": "LEBB",
      "alert": "OK",
      "vis_m": 9999,
      "fzfg": false,
      "metar_trigger": false,
      "taf_trigger": false,
      "metar": "METAR LEBB 301530Z 34007KT 300V030 9999 FEW030 BKN052 26/17 Q1024 NOSIG",
      "taf": "TAF LEBB 301100Z 3012/0112 34009KT 9999 FEW020 SCT030 TX24/3015Z TN19/0105Z"
    },
    {
      "icao": "LEBL",
      "alert": "OK",
      "vis_m": 9999,
      "fzfg": false,
      "metar_trigger": false,
      "taf_trigger": false,
      "metar": "METAR LEBL 301530Z 17009KT 130V200 9999 FEW030 30/23 Q1018 NOSIG",
      "taf": "TAF LEBL 301100Z 3012/0112 22012KT CAVOK TX33/3013Z TN24/0106Z"
    },
    {
      "icao": "LECH",
      "alert": "OK",
      "vis_m": 9999,
      "fzfg": false,
      "metar_trigger": false,
      "taf_trigger": false,
      "metar": "METAR LECH 301530Z AUTO 16007KT 110V210 CAVOK 31/18 Q1020",
      "taf": "TAF LECH 301100Z 3012/0112 15009KT CAVOK TX32/3012Z TN20/0106Z"
    },
    {
      "icao": "LEMD",
      "alert": "OK",
      "vis_m": 9999,
      "fzfg": false,
      "metar_trigger": false,
      "taf_trigger": false,
      "metar": "METAR LEMD 301530Z 22005KT CAVOK 37/11 Q1020 NOSIG",
      "taf": "TAF LEMD 301100Z 3012/0118 VRB04KT CAVOK TX38/0116Z TN20/0105Z"
    },
    {
      "icao": "LEMG",
      "alert": "OK",
      "vis_m": 9999,
      "fzfg": false,
      "metar_trigger": false,
      "taf_trigger": false,
      "metar": "METAR LEMG 301530Z 14008KT 090V190 9999 FEW060 31/16 Q1019 NOSIG",
      "taf": "TAF LEMG 301100Z 3012/0112 14010KT CAVOK TX31/3013Z TN24/0105Z"
    },
    {
      "icao": "LEVC",
      "alert": "OK",
      "vis_m": 9999,
      "fzfg": false,
      "metar_trigger": false,
      "taf_trigger": false,
      "metar": "METAR LEVC 301530Z 12012KT 090V160 CAVOK 33/17 Q1018 NOSIG",
      "taf": ""
    },
    {
      "icao": "LEXJ",
      "alert": "OK",
      "vis_m": 9999,
      "fzfg": false,
      "metar_trigger": false,
      "taf_trigger": false,
      "metar": "METAR LEXJ 301530Z 05004KT 9999 SCT025 BKN051 23/18 Q1025",
      "taf": "TAF LEXJ 301400Z 3015/0115 04009KT 9999 FEW020 BKN030 TX22/3015Z TN18/0106Z"
    },
    {
      "icao": "LEZG",
      "alert": "OK",
      "vis_m": 9999,
      "fzfg": false,
      "metar_trigger": false,
      "taf_trigger": false,
      "metar": "METAR LEZG 301530Z 30013KT 270V340 CAVOK 33/13 Q1019 NOSIG",
      "taf": "TAF LEZG 301100Z 3012/0112 31012KT CAVOK TX34/3015Z TN18/0106Z"
    },
    {
      "icao": "LEZL",
      "alert": "OK",
      "vis_m": 9999,
      "fzfg": false,
      "metar_trigger": false,
      "taf_trigger": false,
      "metar": "METAR LEZL 301530Z 23004KT CAVOK 39/14 Q1016 NOSIG",
      "taf": "TAF LEZL 301400Z 3015/0115 VRB03KT CAVOK TX40/3015Z TN24/0105Z"
    },
    {
      "icao": "LFBD",
      "alert": "OK",
      "vis_m": 9999,
      "fzfg": false,
      "metar_trigger": false,
      "taf_trigger": false,
      "metar": "METAR LFBD 301530Z AUTO 30014KT CAVOK 27/14 Q1023 NOSIG",
      "taf": "TAF LFBD 301100Z 3012/0118 30010KT CAVOK TX31/3013Z TN17/0102Z"
    },
    {
      "icao": "LFLL",
      "alert": "OK",
      "vis_m": 9999,
      "fzfg": false,
      "metar_trigger": false,
      "taf_trigger": false,
      "metar": "METAR LFLL 301530Z 34010KT 280V030 CAVOK 32/17 Q1018 NOSIG",
      "taf": ""
    },
    {
      "icao": "LFLS",
      "alert": "OK",
      "vis_m": 9999,
      "fzfg": false,
      "metar_trigger": false,
      "taf_trigger": false,
      "metar": "METAR LFLS 301530Z AUTO 34009KT 270V020 9999 SCT060 BKN070 32/17 Q1019 TEMPO FEW060TCU",
      "taf": "TAF LFLS 301400Z 3015/0115 34010KT 9999 SCT060"
    },
    {
      "icao": "LFMN",
      "alert": "OK",
      "vis_m": 9999,
      "fzfg": false,
      "metar_trigger": false,
      "taf_trigger": false,
      "metar": "METAR LFMN 301530Z 02015KT CAVOK 31/15 Q1016 NOSIG",
      "taf": "TAF LFMN 301400Z 3015/0121 17005KT CAVOK"
    },
    {
      "icao": "LFOB",
      "alert": "OK",
      "vis_m": 9999,
      "fzfg": false,
      "metar_trigger": false,
      "taf_trigger": false,
      "metar": "METAR LFOB 301530Z AUTO 34008KT 310V010 CAVOK 25/11 Q1022 NOSIG",
      "taf": "TAF LFOB 301100Z 3012/0112 30005KT CAVOK"
    },
    {
      "icao": "LFPO",
      "alert": "OK",
      "vis_m": 9999,
      "fzfg": false,
      "metar_trigger": false,
      "taf_trigger": false,
      "metar": "METAR LFPO 301530Z 33009KT 290V360 CAVOK 28/12 Q1020 NOSIG",
      "taf": "TAF LFPO 301100Z 3012/0118 34006KT CAVOK"
    },
    {
      "icao": "LFSB",
      "alert": "OK",
      "vis_m": 9999,
      "fzfg": false,
      "metar_trigger": false,
      "taf_trigger": false,
      "metar": "METAR LFSB 301530Z AUTO 36008KT CAVOK 30/18 Q1018 TEMPO 29010G20KT FEW060CB",
      "taf": "TAF LFSB 301100Z 3012/0112 35005KT CAVOK"
    },
    {
      "icao": "LGAV",
      "alert": "OK",
      "vis_m": 9999,
      "fzfg": false,
      "metar_trigger": false,
      "taf_trigger": false,
      "metar": "METAR LGAV 301520Z 05015KT CAVOK 30/16 Q1010 NOSIG",
      "taf": "TAF LGAV 301100Z 3012/0112 03018KT 9999 FEW025"
    },
    {
      "icao": "LGTS",
      "alert": "OK",
      "vis_m": 9999,
      "fzfg": false,
      "metar_trigger": false,
      "taf_trigger": false,
      "metar": "METAR LGTS 301520Z 19013KT 9999 FEW020 33/18 Q1011 NOSIG",
      "taf": "TAF LGTS 301100Z 3012/0112 19013KT 9999 FEW030"
    },
    {
      "icao": "LHBP",
      "alert": "OK",
      "vis_m": 9999,
      "fzfg": false,
      "metar_trigger": false,
      "taf_trigger": false,
      "metar": "SPECI LHBP 301532Z 34013KT 9999 VCTS FEW110CB 38/12 Q1015 TEMPO -TSRA",
      "taf": "TAF LHBP 301115Z 3012/0112 35007KT CAVOK"
    },
    {
      "icao": "LHDC",
      "alert": "OK",
      "vis_m": 9999,
      "fzfg": false,
      "metar_trigger": false,
      "taf_trigger": false,
      "metar": "METAR LHDC 301515Z AUTO 09008KT 9999 //////TCU 32/20 Q1016 NOSIG",
      "taf": "TAF LHDC 301415Z 3015/3024 04006KT CAVOK"
    },
    {
      "icao": "LIBD",
      "alert": "OK",
      "vis_m": 9999,
      "fzfg": false,
      "metar_trigger": false,
      "taf_trigger": false,
      "metar": "METAR LIBD 301520Z 35010KT 300V020 CAVOK 31/20 Q1013",
      "taf": "TAF LIBD 301100Z 3012/0112 02012KT CAVOK"
    },
    {
      "icao": "LIBG",
      "alert": "OK",
      "vis_m": 9999,
      "fzfg": false,
      "metar_trigger": false,
      "taf_trigger": false,
      "metar": "METAR LIBG 301520Z AUTO 01011KT 9999 NCD 36/15 Q1012",
      "taf": "TAF LIBG 301100Z 3012/0112 02012KT CAVOK"
    },
    {
      "icao": "LIBP",
      "alert": "OK",
      "vis_m": 9999,
      "fzfg": false,
      "metar_trigger": false,
      "taf_trigger": false,
      "metar": "METAR LIBP 301520Z AUTO 04008KT 9999 NCD 31/25 Q1015",
      "taf": "TAF LIBP 301100Z 3012/0112 06010KT CAVOK"
    },
    {
      "icao": "LIBR",
      "alert": "OK",
      "vis_m": 9999,
      "fzfg": false,
      "metar_trigger": false,
      "taf_trigger": false,
      "metar": "METAR LIBR 301520Z 33013KT CAVOK 29/26 Q1012",
      "taf": "TAF LIBR 301100Z 3012/0112 32014KT CAVOK"
    },
    {
      "icao": "LICA",
      "alert": "OK",
      "vis_m": 9999,
      "fzfg": false,
      "metar_trigger": false,
      "taf_trigger": false,
      "metar": "METAR LICA 301520Z AUTO 21006KT 180V240 9999 NCD 30/25 Q1014",
      "taf": "TAF LICA 301100Z 3012/0112 28015KT 9999 FEW030"
    },
    {
      "icao": "LICC",
      "alert": "OK",
      "vis_m": 9999,
      "fzfg": false,
      "metar_trigger": false,
      "taf_trigger": false,
      "metar": "METAR LICC 301520Z 26016KT 9999 FEW050 SCT130 33/23 Q1014",
      "taf": "TAF LICC 301100Z 3012/0112 09010KT 9999 FEW020"
    },
    {
      "icao": "LICJ",
      "alert": "OK",
      "vis_m": 9999,
      "fzfg": false,
      "metar_trigger": false,
      "taf_trigger": false,
      "metar": "METAR LICJ 301450Z 34007KT 9999 FEW020TCU 30/25 Q1015",
      "taf": "TAF LICJ 301100Z 3012/0112 36010KT 9999 FEW020"
    },
    {
      "icao": "LIMC",
      "alert": "OK",
      "vis_m": 9999,
      "fzfg": false,
      "metar_trigger": false,
      "taf_trigger": false,
      "metar": "METAR LIMC 301520Z 15005KT 100V200 9999 TS VCSH FEW060CB SCT065 34/15 Q1017 TEMPO TSRA",
      "taf": "TAF LIMC 301100Z 3012/0118 VRB05KT CAVOK"
    },
    {
      "icao": "LIME",
      "alert": "OK",
      "vis_m": 9999,
      "fzfg": false,
      "metar_trigger": false,
      "taf_trigger": false,
      "metar": "METAR LIME 301520Z 28004KT 230V330 CAVOK 33/16 Q1016 NOSIG",
      "taf": "TAF LIME 301100Z 3012/0112 VRB05KT CAVOK"
    },
    {
      "icao": "LIMF",
      "alert": "OK",
      "vis_m": 9999,
      "fzfg": false,
      "metar_trigger": false,
      "taf_trigger": false,
      "metar": "METAR LIMF 301520Z 08005KT 9999 FEW045 31/17 Q1018",
      "taf": "TAF LIMF 301100Z 3012/0112 VRB05KT CAVOK"
    },
    {
      "icao": "LIMJ",
      "alert": "OK",
      "vis_m": 9999,
      "fzfg": false,
      "metar_trigger": false,
      "taf_trigger": false,
      "metar": "METAR LIMJ 301520Z 23005KT CAVOK 28/23 Q1016",
      "taf": "TAF LIMJ 301100Z 3012/0112 VRB05KT CAVOK"
    },
    {
      "icao": "LIPE",
      "alert": "OK",
      "vis_m": 9999,
      "fzfg": false,
      "metar_trigger": false,
      "taf_trigger": false,
      "metar": "METAR LIPE 301520Z 03006KT 340V070 CAVOK 34/18 Q1014",
      "taf": "TAF LIPE 301100Z 3012/0112 VRB05KT 9999 SCT030"
    },
    {
      "icao": "LIPH",
      "alert": "OK",
      "vis_m": 9999,
      "fzfg": false,
      "metar_trigger": false,
      "taf_trigger": false,
      "metar": "METAR LIPH 301520Z 13006KT 090V170 CAVOK 36/18 Q1014",
      "taf": "TAF LIPH 301100Z 3012/0112 VRB06KT 9999 FEW030"
    },
    {
      "icao": "LIPQ",
      "alert": "OK",
      "vis_m": 9999,
      "fzfg": false,
      "metar_trigger": false,
      "taf_trigger": false,
      "metar": "METAR LIPQ 301520Z 11009KT CAVOK 31/18 Q1015",
      "taf": "TAF LIPQ 301100Z 3012/0112 VRB05KT 9999 FEW040"
    },
    {
      "icao": "LIPR",
      "alert": "OK",
      "vis_m": 9999,
      "fzfg": false,
      "metar_trigger": false,
      "taf_trigger": false,
      "metar": "METAR LIPR 301520Z 07005KT 040V140 CAVOK 30/23 Q1015",
      "taf": "TAF LIPR 301100Z 3012/0112 02010KT CAVOK"
    },
    {
      "icao": "LIPX",
      "alert": "OK",
      "vis_m": 9999,
      "fzfg": false,
      "metar_trigger": false,
      "taf_trigger": false,
      "metar": "METAR LIPX 301520Z 17004KT 100V220 CAVOK 34/21 Q1015",
      "taf": "TAF LIPX 301100Z 3012/0112 VRB05KT CAVOK"
    },
    {
      "icao": "LIPY",
      "alert": "OK",
      "vis_m": 9999,
      "fzfg": false,
      "metar_trigger": false,
      "taf_trigger": false,
      "metar": "METAR LIPY 301520Z AUTO 01003KT 300V090 9999 NCD 32/19 Q1015",
      "taf": "TAF LIPY 301100Z 3012/0112 01010KT CAVOK"
    },
    {
      "icao": "LIPZ",
      "alert": "OK",
      "vis_m": 9999,
      "fzfg": false,
      "metar_trigger": false,
      "taf_trigger": false,
      "metar": "METAR LIPZ 301520Z 15005KT CAVOK 34/22 Q1015 NOSIG",
      "taf": "TAF LIPZ 301100Z 3012/0118 15010KT 9999 FEW040"
    },
    {
      "icao": "LIRF",
      "alert": "OK",
      "vis_m": 9999,
      "fzfg": false,
      "metar_trigger": false,
      "taf_trigger": false,
      "metar": "METAR LIRF 301520Z 28011KT CAVOK 32/21 Q1014 NOSIG",
      "taf": "TAF LIRF 301100Z 3012/0118 28011KT CAVOK"
    },
    {
      "icao": "LIRN",
      "alert": "OK",
      "vis_m": 9999,
      "fzfg": false,
      "metar_trigger": false,
      "taf_trigger": false,
      "metar": "METAR LIRN 301520Z VRB02KT 9999 FEW050 34/19 Q1014 NOSIG",
      "taf": "TAF LIRN 301100Z 3012/0112 22010KT CAVOK"
    },
    {
      "icao": "LIRP",
      "alert": "OK",
      "vis_m": 9999,
      "fzfg": false,
      "metar_trigger": false,
      "taf_trigger": false,
      "metar": "METAR LIRP 301515Z 28008KT CAVOK 31/19 Q1015 NOSIG",
      "taf": "TAF LIRP 301100Z 3012/0112 30013KT CAVOK"
    },
    {
      "icao": "LIRZ",
      "alert": "OK",
      "vis_m": 9999,
      "fzfg": false,
      "metar_trigger": false,
      "taf_trigger": false,
      "metar": "METAR LIRZ 301520Z AUTO VRB03KT 9999 -RA BKN072/// BKN160/// 28/17 Q1017 RETS",
      "taf": "TAF LIRZ 301100Z 3012/0112 VRB05KT CAVOK"
    },
    {
      "icao": "LJLJ",
      "alert": "OK",
      "vis_m": 9999,
      "fzfg": false,
      "metar_trigger": false,
      "taf_trigger": false,
      "metar": "METAR LJLJ 301530Z 30007KT 240V350 9999 VCSH FEW050CB FEW060 SCT120 30/13 Q1018 NOSIG",
      "taf": "TAF LJLJ 301100Z 3012/0112 03004KT 9999 FEW060"
    },
    {
      "icao": "LKMT",
      "alert": "OK",
      "vis_m": 9999,
      "fzfg": false,
      "metar_trigger": false,
      "taf_trigger": false,
      "metar": "METAR LKMT 301530Z 36008KT 330V050 CAVOK 32/21 Q1018 NOSIG",
      "taf": "TAF LKMT 301100Z 3012/0112 02008KT CAVOK"
    },
    {
      "icao": "LKPR",
      "alert": "OK",
      "vis_m": 9999,
      "fzfg": false,
      "metar_trigger": false,
      "taf_trigger": false,
      "metar": "METAR LKPR 301530Z 35010KT 320V030 9999 FEW033 25/18 Q1020 NOSIG",
      "taf": "TAF LKPR 301400Z 3015/0121 34008KT CAVOK"
    },
    {
      "icao": "LLBG",
      "alert": "OK",
      "vis_m": 9999,
      "fzfg": false,
      "metar_trigger": false,
      "taf_trigger": false,
      "metar": "METAR LLBG 301520Z 28011KT 9999 FEW020 30/20 Q1008 NOSIG",
      "taf": "TAF LLBG 301110Z 3012/0112 29012KT CAVOK TX32/3012Z TN22/0103Z"
    },
    {
      "icao": "LMML",
      "alert": "OK",
      "vis_m": 9999,
      "fzfg": false,
      "metar_trigger": false,
      "taf_trigger": false,
      "metar": "METAR LMML 301515Z VRB04KT 9999 FEW034 30/21 Q1015 NOSIG",
      "taf": "TAF LMML 301100Z 3012/0112 VRB06KT 9999 FEW030"
    },
    {
      "icao": "LOWW",
      "alert": "OK",
      "vis_m": 9999,
      "fzfg": false,
      "metar_trigger": false,
      "taf_trigger": false,
      "metar": "METAR LOWW 301520Z 06003KT 330V130 CAVOK 35/16 Q1016 NOSIG",
      "taf": ""
    },
    {
      "icao": "LPFR",
      "alert": "OK",
      "vis_m": 9999,
      "fzfg": false,
      "metar_trigger": false,
      "taf_trigger": false,
      "metar": "METAR LPFR 301530Z 25008KT CAVOK 30/17 Q1018",
      "taf": "TAF LPFR 301100Z 3012/0112 19005KT CAVOK"
    },
    {
      "icao": "LPMA",
      "alert": "OK",
      "vis_m": 9999,
      "fzfg": false,
      "metar_trigger": false,
      "taf_trigger": false,
      "metar": "METAR LPMA 301530Z 02022G32KT 340V050 9999 FEW014 24/16 Q1022",
      "taf": "TAF LPMA 301100Z 3012/0112 03018G30KT 9999 SCT015"
    },
    {
      "icao": "LPPR",
      "alert": "OK",
      "vis_m": 9999,
      "fzfg": false,
      "metar_trigger": false,
      "taf_trigger": false,
      "metar": "METAR LPPR 301530Z 32011KT 290V350 CAVOK 25/17 Q1020",
      "taf": "TAF LPPR 301100Z 3012/0112 32005KT CAVOK"
    },
    {
      "icao": "LPPS",
      "alert": "OK",
      "vis_m": 9999,
      "fzfg": false,
      "metar_trigger": false,
      "taf_trigger": false,
      "metar": "METAR LPPS 301530Z 02015KT 350V060 9999 SCT015 SCT030 23/16 Q1023",
      "taf": "TAF LPPS 301100Z 3012/0118 03015KT 9999 SCT015 SCT030"
    },
    {
      "icao": "LPPT",
      "alert": "OK",
      "vis_m": 9999,
      "fzfg": false,
      "metar_trigger": false,
      "taf_trigger": false,
      "metar": "METAR LPPT 301530Z 32014KT 290V350 CAVOK 29/18 Q1020 NOSIG",
      "taf": "TAF LPPT 301100Z 3012/0118 33015KT CAVOK"
    },
    {
      "icao": "LQBK",
      "alert": "OK",
      "vis_m": 9999,
      "fzfg": false,
      "metar_trigger": false,
      "taf_trigger": false,
      "metar": "METAR LQBK 301530Z 31009KT CAVOK 35/18 Q1014 NOSIG",
      "taf": "TAF LQBK 301100Z 3012/0112 34006KT CAVOK TX37/3014Z TN19/0103Z"
    },
    {
      "icao": "LQSA",
      "alert": "OK",
      "vis_m": 9999,
      "fzfg": false,
      "metar_trigger": false,
      "taf_trigger": false,
      "metar": "METAR LQSA 301530Z 13007KT CAVOK 24/20 Q1017 NOSIG",
      "taf": "TAF LQSA 301100Z 3012/0112 VRB02KT CAVOK TX35/3013Z TN18/0103Z"
    },
    {
      "icao": "LQTZ",
      "alert": "OK",
      "vis_m": 9999,
      "fzfg": false,
      "metar_trigger": false,
      "taf_trigger": false,
      "metar": "METAR LQTZ 301530Z 02005KT 330V070 9999 TS FEW030CB SCT050 36/17 Q1015",
      "taf": "TAF LQTZ 301100Z 3012/0112 04005KT 9999 FEW050 TX36/3013Z TN19/0103Z"
    },
    {
      "icao": "LRBC",
      "alert": "OK",
      "vis_m": 9999,
      "fzfg": false,
      "metar_trigger": false,
      "taf_trigger": false,
      "metar": "METAR LRBC 301530Z 36009KT CAVOK 34/18 Q1015",
      "taf": "TAF LRBC 301400Z 3015/3024 02010KT CAVOK"
    },
    {
      "icao": "LRBS",
      "alert": "OK",
      "vis_m": 9999,
      "fzfg": false,
      "metar_trigger": false,
      "taf_trigger": false,
      "metar": "METAR LRBS 301530Z 08003KT 360V140 9999 VCTS FEW050CB 37/17 Q1013 TEMPO VRB20G30KT 5000 TSRA",
      "taf": "TAF LRBS 301100Z 3012/0112 VRB04KT CAVOK"
    },
    {
      "icao": "LRBV",
      "alert": "OK",
      "vis_m": 9999,
      "fzfg": false,
      "metar_trigger": false,
      "taf_trigger": false,
      "metar": "METAR LRBV 301530Z 01007KT 350V040 9999 FEW045 FEW050CB 25/18 Q1019",
      "taf": "TAF LRBV 301400Z 3015/3024 VRB04KT 9999 FEW040CB"
    },
    {
      "icao": "LRCL",
      "alert": "OK",
      "vis_m": 9999,
      "fzfg": false,
      "metar_trigger": false,
      "taf_trigger": false,
      "metar": "METAR LRCL 301530Z 10009KT 9999 -SHRA FEW028 SCT048CB 25/18 Q1019",
      "taf": "TAF LRCL 301400Z 3015/3024 VRB04KT 9999 SCT040CB"
    },
    {
      "icao": "LRCV",
      "alert": "OK",
      "vis_m": 9999,
      "fzfg": false,
      "metar_trigger": false,
      "taf_trigger": false,
      "metar": "METAR LRCV 301530Z 06004KT 020V100 CAVOK 36/18 Q1014",
      "taf": "TAF LRCV 301400Z 3015/3024 VRB04KT CAVOK"
    },
    {
      "icao": "LRIA",
      "alert": "OK",
      "vis_m": 9999,
      "fzfg": false,
      "metar_trigger": false,
      "taf_trigger": false,
      "metar": "METAR LRIA 301530Z 36009KT CAVOK 33/18 Q1015",
      "taf": "TAF LRIA 301400Z 3015/3024 01014KT CAVOK"
    },
    {
      "icao": "LROP",
      "alert": "OK",
      "vis_m": 9999,
      "fzfg": false,
      "metar_trigger": false,
      "taf_trigger": false,
      "metar": "METAR LROP 301530Z COR 05008KT 020V090 9999 VCTS FEW050CB 37/17 Q1013 TEMPO VRB20G30KT 5000 TSRA",
      "taf": "TAF LROP 301100Z 3012/0112 VRB04KT CAVOK"
    },
    {
      "icao": "LRSB",
      "alert": "OK",
      "vis_m": 9999,
      "fzfg": false,
      "metar_trigger": false,
      "taf_trigger": false,
      "metar": "METAR LRSB 301530Z 08010KT 9999 VCSH SCT038CB SCT075 26/18 Q1019 BECMG 5000 TSRA",
      "taf": "TAF LRSB 301100Z 3012/0112 VRB04KT CAVOK"
    },
    {
      "icao": "LRSM",
      "alert": "OK",
      "vis_m": 9999,
      "fzfg": false,
      "metar_trigger": false,
      "taf_trigger": false,
      "metar": "METAR LRSM 301530Z 13009KT CAVOK 30/17 Q1017",
      "taf": "TAF LRSM 301400Z 3015/3024 08008KT CAVOK"
    },
    {
      "icao": "LRSV",
      "alert": "OK",
      "vis_m": 9999,
      "fzfg": false,
      "metar_trigger": false,
      "taf_trigger": false,
      "metar": "METAR LRSV 301530Z 36008KT CAVOK 31/19 Q1019",
      "taf": "TAF LRSV 301400Z 3015/3024 36012KT CAVOK"
    },
    {
      "icao": "LRTM",
      "alert": "OK",
      "vis_m": 9999,
      "fzfg": false,
      "metar_trigger": false,
      "taf_trigger": false,
      "metar": "METAR LRTM 301530Z 09010KT 9999 -TSRA BKN043CB 22/20 Q1020",
      "taf": "TAF LRTM 301400Z 3015/3024 VRB04KT 9999 SCT040CB"
    },
    {
      "icao": "LRTR",
      "alert": "OK",
      "vis_m": 9999,
      "fzfg": false,
      "metar_trigger": false,
      "taf_trigger": false,
      "metar": "METAR LRTR 301530Z 08007KT CAVOK 36/15 Q1013",
      "taf": "TAF LRTR 301100Z 3012/0112 02006KT 9999 SCT045"
    },
    {
      "icao": "LTAC",
      "alert": "OK",
      "vis_m": 9999,
      "fzfg": false,
      "metar_trigger": false,
      "taf_trigger": false,
      "metar": "METAR LTAC 301520Z 07011KT 020V090 9999 FEW040 31/08 Q1015 NOSIG RMK RWY21C 09010KT 040V110 RWY03L 06010KT RWY21R 06010KT RWY03R 08009KT 040V100 RWY21L 07008KT 040V110",
      "taf": "TAF LTAC 301040Z 3012/0112 VRB02KT 9999 FEW040"
    },
    {
      "icao": "LTFM",
      "alert": "OK",
      "vis_m": 9999,
      "fzfg": false,
      "metar_trigger": false,
      "taf_trigger": false,
      "metar": "METAR LTFM 301520Z 06016KT 9999 SCT013 27/21 Q1013 NOSIG RMK RWY17L 07015KT RWY34L 06014KT RWY16R 06016KT RWY36 06016KT RWY18 07014KT",
      "taf": "TAF LTFM 301040Z 3012/0118 05016G26KT 9999 SCT012"
    },
    {
      "icao": "LUKK",
      "alert": "OK",
      "vis_m": 9999,
      "fzfg": false,
      "metar_trigger": false,
      "taf_trigger": false,
      "metar": "METAR LUKK 301530Z 03013KT CAVOK 34/20 Q1014 TEMPO 35018G28KT",
      "taf": "TAF LUKK 301103Z 3012/0112 35012KT CAVOK"
    },
    {
      "icao": "LWOH",
      "alert": "OK",
      "vis_m": 9999,
      "fzfg": false,
      "metar_trigger": false,
      "taf_trigger": false,
      "metar": "METAR LWOH 301520Z 32015KT 290V350 9999 -TSRA SCT040CB BKN050 22/15 Q1018",
      "taf": "TAF LWOH 301450Z 3015/0115 VRB03KT 9999 SCT040"
    },
    {
      "icao": "LWSK",
      "alert": "OK",
      "vis_m": 9999,
      "fzfg": false,
      "metar_trigger": false,
      "taf_trigger": false,
      "metar": "METAR LWSK 301520Z 26010KT 210V330 9999 TSRA FEW033CB SCT065 BKN080 23/17 Q1014 NOSIG",
      "taf": ""
    },
    {
      "icao": "LYBE",
      "alert": "OK",
      "vis_m": 9999,
      "fzfg": false,
      "metar_trigger": false,
      "taf_trigger": false,
      "metar": "METAR LYBE 301530Z 07006KT 030V100 CAVOK 37/16 Q1013 NOSIG",
      "taf": "TAF LYBE 301100Z 3012/0112 02006KT CAVOK TX38/3013Z TN21/0103Z"
    },
    {
      "icao": "LYNI",
      "alert": "OK",
      "vis_m": 9999,
      "fzfg": false,
      "metar_trigger": false,
      "taf_trigger": false,
      "metar": "METAR LYNI 301530Z 12003KT 070V180 9999 FEW050 27/22 Q1013 NOSIG",
      "taf": "TAF LYNI 301100Z 3012/0112 36007KT 9999 SCT060 TX37/3014Z TN19/0103Z"
    },
    {
      "icao": "LYPG",
      "alert": "OK",
      "vis_m": 9999,
      "fzfg": false,
      "metar_trigger": false,
      "taf_trigger": false,
      "metar": "METAR LYPG 301530Z 10005G17KT 9999 VCTS SCT034CB BKN090 36/11 Q1013 TEMPO 5000 TSRA",
      "taf": "TAF LYPG 301100Z 3012/0112 18010KT 9999 FEW040 TX39/3014Z TN26/0103Z"
    },
    {
      "icao": "LZIB",
      "alert": "OK",
      "vis_m": 9999,
      "fzfg": false,
      "metar_trigger": false,
      "taf_trigger": false,
      "metar": "METAR LZIB 301530Z 29005KT 220V350 CAVOK 37/15 Q1015 NOSIG",
      "taf": "TAF LZIB 301115Z 3012/0112 35007KT CAVOK"
    },
    {
      "icao": "LZKZ",
      "alert": "OK",
      "vis_m": 9999,
      "fzfg": false,
      "metar_trigger": false,
      "taf_trigger": false,
      "metar": "METAR LZKZ 301530Z 08007KT CAVOK 31/19 Q1017 NOSIG",
      "taf": "TAF LZKZ 301115Z 3012/0112 03010KT CAVOK"
    },
    {
      "icao": "LZTT",
      "alert": "OK",
      "vis_m": 9999,
      "fzfg": false,
      "metar_trigger": false,
      "taf_trigger": false,
      "metar": "METAR LZTT 301530Z 05008KT 030V090 9999 FEW050 29/20 Q1021 NOSIG",
      "taf": "TAF LZTT 301115Z 3012/0112 07005KT 9999 FEW053"
    },
    {
      "icao": "OEJN",
      "alert": "OK",
      "vis_m": 9999,
      "fzfg": false,
      "metar_trigger": false,
      "taf_trigger": false,
      "metar": "METAR OEJN 301500Z 34021KT CAVOK 37/13 Q1001 NOSIG",
      "taf": "TAF OEJN 301100Z 3012/0118 33015KT CAVOK"
    },
    {
      "icao": "OEMA",
      "alert": "OK",
      "vis_m": 9999,
      "fzfg": false,
      "metar_trigger": false,
      "taf_trigger": false,
      "metar": "METAR OEMA 301500Z 26011KT CAVOK 44/M04 Q1006 NOSIG",
      "taf": "TAF OEMA 301100Z 3012/0118 28010KT CAVOK"
    },
    {
      "icao": "OJAI",
      "alert": "OK",
      "vis_m": 5000,
      "fzfg": false,
      "metar_trigger": false,
      "taf_trigger": false,
      "metar": "METAR OJAI 301500Z 30012KT 5000 HZ NSC 32/13 Q1012 NOSIG",
      "taf": "TAF OJAI 301100Z 3012/0118 31010KT 5000 HZ NSC"
    },
    {
      "icao": "OMAA",
      "alert": "OK",
      "vis_m": 9999,
      "fzfg": false,
      "metar_trigger": false,
      "taf_trigger": false,
      "metar": "METAR OMAA 301530Z 27005KT CAVOK 36/21 Q0997 NOSIG",
      "taf": "TAF OMAA 301100Z 3012/0118 30011KT 8000 NSC"
    },
    {
      "icao": "OMDB",
      "alert": "OK",
      "vis_m": 9999,
      "fzfg": false,
      "metar_trigger": false,
      "taf_trigger": false,
      "metar": "METAR OMDB 301530Z 26007KT CAVOK 35/25 Q0996 NOSIG",
      "taf": "TAF OMDB 301100Z 3012/0118 28010KT 8000 NSC"
    },
    {
      "icao": "UAAA",
      "alert": "OK",
      "vis_m": 9999,
      "fzfg": false,
      "metar_trigger": false,
      "taf_trigger": false,
      "metar": "METAR UAAA 301530Z 25002MPS 9999 SCT050CB BKN100 26/14 Q1007 NOSIG",
      "taf": "TAF UAAA 301102Z 3012/0112 35003G08MPS 9999 BKN040CB OVC100 TX27/0110Z TN20/0101Z"
    },
    {
      "icao": "UBBB",
      "alert": "OK",
      "vis_m": 9999,
      "fzfg": false,
      "metar_trigger": false,
      "taf_trigger": false,
      "metar": "METAR UBBB 301530Z 02012KT 9999 FEW065CB 24/16 Q1011 NOSIG",
      "taf": "TAF UBBB 301046Z 3012/0112 06005KT 9999 SCT040 TX29/3012Z TN19/0101Z"
    },
    {
      "icao": "UDSG",
      "alert": "OK",
      "vis_m": 9999,
      "fzfg": false,
      "metar_trigger": false,
      "taf_trigger": false,
      "metar": "METAR UDSG 301530Z 36009KT 9999 FEW049 21/09 Q1017 NOSIG",
      "taf": "TAF UDSG 301100Z 3012/0112 36006KT 9999 FEW050"
    },
    {
      "icao": "UDYZ",
      "alert": "OK",
      "vis_m": 9999,
      "fzfg": false,
      "metar_trigger": false,
      "taf_trigger": false,
      "metar": "METAR UDYZ 301530Z VRB01KT 9999 FEW046 30/08 Q1010 NOSIG",
      "taf": "TAF UDYZ 301100Z 3012/0112 23006KT 9999 FEW040"
    },
    {
      "icao": "UGKO",
      "alert": "OK",
      "vis_m": 9999,
      "fzfg": false,
      "metar_trigger": false,
      "taf_trigger": false,
      "metar": "METAR UGKO 301530Z 28013KT 9999 BKN066 24/18 Q1013 NOSIG",
      "taf": "TAF UGKO 301100Z 3012/0112 25010KT 9999 SCT060 TX30/0111Z TN18/0102Z"
    }
  ]
}