{
  "ts_utc": "2026-02-23T02:01:30Z",
  "threshold_m": 150,
  "source": "stations_override.txt (ICAO list) + aviationweather.gov (METAR/TAF raw)",
  "station_count": 159,
  "stations": [
    {
      "icao": "BIKF",
      "alert": "OK",
      "vis_m": 9999,
      "fzfg": false,
      "metar_trigger": false,
      "taf_trigger": false,
      "metar": "METAR BIKF 230130Z 10008KT 9999 BKN042 03/M02 Q0994",
      "taf": "TAF BIKF 230105Z 2303/2403 11012KT 9999 SCT020 BKN035 TX07/2314Z TN02/2303Z"
    },
    {
      "icao": "BKPR",
      "alert": "OK",
      "vis_m": 9999,
      "fzfg": false,
      "metar_trigger": false,
      "taf_trigger": false,
      "metar": "METAR BKPR 230130Z 34004KT CAVOK M02/M02 Q1023 NOSIG",
      "taf": "TAF BKPR 221730Z 2218/2318 35006KT 9999 FEW050"
    },
    {
      "icao": "EBCI",
      "alert": "OK",
      "vis_m": 9999,
      "fzfg": false,
      "metar_trigger": false,
      "taf_trigger": false,
      "metar": "METAR EBCI 230120Z 24014KT 9999 FEW007 BKN010 09/08 Q1018 NOSIG",
      "taf": "TAF EBCI 221720Z 2218/2324 24014KT 9999 SCT005 BKN009"
    },
    {
      "icao": "EDDB",
      "alert": "OK",
      "vis_m": 9999,
      "fzfg": false,
      "metar_trigger": false,
      "taf_trigger": false,
      "metar": "METAR EDDB 230120Z AUTO 27006KT 250V310 9999 SCT015 07/06 Q1011 NOSIG",
      "taf": "TAF EDDB 221700Z 2218/2318 24012KT 9999 SCT010 BKN015"
    },
    {
      "icao": "EDDH",
      "alert": "OK",
      "vis_m": 9999,
      "fzfg": false,
      "metar_trigger": false,
      "taf_trigger": false,
      "metar": "METAR EDDH 230120Z AUTO 26004KT 210V280 9999 VCSH BKN009 BKN021 OVC037 FEW///TCU 08/07 Q1009 TEMPO 4500 SHRA",
      "taf": "TAF EDDH 221700Z 2218/2324 26010KT 9999 OVC008"
    },
    {
      "icao": "EDDK",
      "alert": "OK",
      "vis_m": 9999,
      "fzfg": false,
      "metar_trigger": false,
      "taf_trigger": false,
      "metar": "METAR EDDK 230120Z AUTO 28010KT 9999 BKN018 10/07 Q1016 NOSIG",
      "taf": "TAF EDDK 221700Z 2218/2324 25010KT 9999 BKN015"
    },
    {
      "icao": "EDDN",
      "alert": "OK",
      "vis_m": 9999,
      "fzfg": false,
      "metar_trigger": false,
      "taf_trigger": false,
      "metar": "METAR EDDN 230120Z AUTO 25010KT 9999 VCSH BKN014 OVC024 FEW///TCU 09/08 Q1017",
      "taf": "TAF EDDN 221700Z 2218/2318 25012KT 9999 BKN020"
    },
    {
      "icao": "EDDS",
      "alert": "OK",
      "vis_m": 9999,
      "fzfg": false,
      "metar_trigger": false,
      "taf_trigger": false,
      "metar": "METAR EDDS 230120Z AUTO 24007KT 200V290 9999 BKN027 09/07 Q1019",
      "taf": "TAF EDDS 221700Z 2218/2318 23008KT 9999 BKN030"
    },
    {
      "icao": "EDFH",
      "alert": "OK",
      "vis_m": 9999,
      "fzfg": false,
      "metar_trigger": false,
      "taf_trigger": false,
      "metar": "METAR EDFH 230120Z 26018KT 9999 -RA OVC003 08/08 Q1017",
      "taf": "TAF EDFH 221700Z 2218/2318 26015G25KT 9999 BKN006"
    },
    {
      "icao": "EDJA",
      "alert": "OK",
      "vis_m": null,
      "fzfg": false,
      "metar_trigger": false,
      "taf_trigger": false,
      "metar": "",
      "taf": "TAF EDJA 221700Z 2218/2303 23013KT 9999 BKN055"
    },
    {
      "icao": "EDLW",
      "alert": "OK",
      "vis_m": 9999,
      "fzfg": false,
      "metar_trigger": false,
      "taf_trigger": false,
      "metar": "METAR EDLW 230120Z AUTO 23012KT 9999 // SCT014/// BKN017/// BKN020/// 10/08 Q1014",
      "taf": "TAF EDLW 221700Z 2218/2318 24010KT 9999 BKN015"
    },
    {
      "icao": "EDNY",
      "alert": "OK",
      "vis_m": 9999,
      "fzfg": false,
      "metar_trigger": false,
      "taf_trigger": false,
      "metar": "METAR EDNY 230120Z AUTO 22006KT 190V250 9999 // FEW026/// BKN042/// OVC050/// 08/07 Q1023",
      "taf": "TAF EDNY 221700Z 2218/2303 24006KT 9999 OVC030"
    },
    {
      "icao": "EDSB",
      "alert": "OK",
      "vis_m": 9999,
      "fzfg": false,
      "metar_trigger": false,
      "taf_trigger": false,
      "metar": "METAR EDSB 230120Z AUTO 20013KT 9999 FEW021/// OVC024/// 10/09 Q1021",
      "taf": "TAF EDSB 221700Z 2218/2318 21012KT 9999 BKN025"
    },
    {
      "icao": "EETN",
      "alert": "OK",
      "vis_m": 9999,
      "fzfg": false,
      "metar_trigger": false,
      "taf_trigger": false,
      "metar": "METAR EETN 230120Z 11002KT CAVOK M12/M13 Q1009",
      "taf": "TAF EETN 222330Z 2300/2324 VRB02KT 9999 SCT010"
    },
    {
      "icao": "EFTU",
      "alert": "OK",
      "vis_m": 9999,
      "fzfg": true,
      "metar_trigger": false,
      "taf_trigger": false,
      "metar": "METAR EFTU 230120Z AUTO 00000KT CAVOK M13/M15 Q1008",
      "taf": "TAF EFTU 222025Z 2221/2321 26005KT 0600 FZFG NSC"
    },
    {
      "icao": "EGBB",
      "alert": "OK",
      "vis_m": 9999,
      "fzfg": false,
      "metar_trigger": false,
      "taf_trigger": false,
      "metar": "METAR EGBB 230120Z 24008KT 190V270 9999 FEW029 09/05 Q1012",
      "taf": "TAF EGBB 222256Z 2300/2324 23010KT 9999 SCT040"
    },
    {
      "icao": "EGGP",
      "alert": "OK",
      "vis_m": 9999,
      "fzfg": false,
      "metar_trigger": false,
      "taf_trigger": false,
      "metar": "METAR EGGP 230120Z 24013KT CAVOK 09/05 Q1010",
      "taf": "TAF EGGP 221701Z 2218/2318 24013KT 9999 FEW030"
    },
    {
      "icao": "EGGW",
      "alert": "OK",
      "vis_m": 9999,
      "fzfg": false,
      "metar_trigger": false,
      "taf_trigger": false,
      "metar": "METAR EGGW 230120Z AUTO 24019G29KT 9999 FEW018 08/06 Q1014",
      "taf": "TAF EGGW 222254Z 2300/2324 25015KT 9999 FEW030"
    },
    {
      "icao": "EGKK",
      "alert": "OK",
      "vis_m": 9999,
      "fzfg": false,
      "metar_trigger": false,
      "taf_trigger": false,
      "metar": "METAR EGKK 230120Z 22006KT CAVOK 08/07 Q1017",
      "taf": "TAF EGKK 222253Z 2300/2406 23009KT 9999 FEW030"
    },
    {
      "icao": "EGNM",
      "alert": "OK",
      "vis_m": null,
      "fzfg": false,
      "metar_trigger": false,
      "taf_trigger": false,
      "metar": "",
      "taf": "TAF EGNM 221658Z 2218/2318 26014KT 9999 SCT030"
    },
    {
      "icao": "EGPD",
      "alert": "OK",
      "vis_m": 9999,
      "fzfg": false,
      "metar_trigger": false,
      "taf_trigger": false,
      "metar": "METAR EGPD 230120Z COR AUTO 15005KT 9999 NCD 04/01 Q0999 NOSIG",
      "taf": "TAF EGPD 222254Z 2300/2324 21006KT 9999 FEW035"
    },
    {
      "icao": "EGPF",
      "alert": "OK",
      "vis_m": 8000,
      "fzfg": false,
      "metar_trigger": false,
      "taf_trigger": false,
      "metar": "METAR EGPF 230120Z AUTO 22014KT 8000 -RA BKN013/// //////TCU 07/06 Q1002",
      "taf": "TAF EGPF 222258Z 2300/2324 22009KT 9999 FEW020 SCT035"
    },
    {
      "icao": "EHBK",
      "alert": "OK",
      "vis_m": 9999,
      "fzfg": false,
      "metar_trigger": false,
      "taf_trigger": false,
      "metar": "METAR EHBK 230125Z AUTO 23009KT 9999 FEW012/// 08/07 Q1016",
      "taf": ""
    },
    {
      "icao": "EHEH",
      "alert": "OK",
      "vis_m": 9999,
      "fzfg": false,
      "metar_trigger": false,
      "taf_trigger": false,
      "metar": "METAR EHEH 230125Z AUTO 24011KT 9999 NCD 09/07 Q1015 BLU",
      "taf": "TAF EHEH 222326Z 2300/2406 24012G22KT 9999 SCT015 BKN040"
    },
    {
      "icao": "EKBI",
      "alert": "OK",
      "vis_m": 3900,
      "fzfg": false,
      "metar_trigger": false,
      "taf_trigger": false,
      "metar": "METAR EKBI 230120Z AUTO 23008KT 3900 BR OVC003/// 04/04 Q1005",
      "taf": "TAF EKBI 222027Z 2221/2321 25008KT 7000 SCT003 BKN030"
    },
    {
      "icao": "EKCH",
      "alert": "OK",
      "vis_m": 600,
      "fzfg": false,
      "metar_trigger": false,
      "taf_trigger": false,
      "metar": "METAR EKCH 230120Z 25012KT 0600 R22L/P1500N R04L/P1500N R12/P1500U FG VV002 02/02 Q1005 TEMPO 0400",
      "taf": "TAF EKCH 222027Z 2221/2321 17002KT 3000 -RADZ BR BKN004"
    },
    {
      "icao": "ENAL",
      "alert": "OK",
      "vis_m": 9999,
      "fzfg": false,
      "metar_trigger": false,
      "taf_trigger": false,
      "metar": "METAR ENAL 230120Z AUTO 13011KT 9999 SCT033/// BKN059/// 02/M02 Q0994",
      "taf": "TAF ENAL 222000Z 2221/2306 13012KT 9999 -RA BKN030"
    },
    {
      "icao": "ENBR",
      "alert": "OK",
      "vis_m": 8000,
      "fzfg": false,
      "metar_trigger": false,
      "taf_trigger": false,
      "metar": "METAR ENBR 230120Z 14007KT 8000 -SHRA SCT003 BKN006 04/04 Q0996 RMK WIND 1200FT 24016KT",
      "taf": ""
    },
    {
      "icao": "ENGM",
      "alert": "OK",
      "vis_m": 9999,
      "fzfg": false,
      "metar_trigger": false,
      "taf_trigger": false,
      "metar": "METAR ENGM 230120Z VRB01G12KT 9999 VCSH OVC011 M05/M06 Q1001",
      "taf": "TAF ENGM 221700Z 2218/2318 02003KT 8000 -SN BKN025"
    },
    {
      "icao": "ENHD",
      "alert": "OK",
      "vis_m": 9999,
      "fzfg": false,
      "metar_trigger": false,
      "taf_trigger": false,
      "metar": "METAR ENHD 230120Z AUTO 17012KT 9999 -RA FEW002/// BKN005/// OVC010/// 04/03 Q0997 REDZRA",
      "taf": ""
    },
    {
      "icao": "ENTC",
      "alert": "OK",
      "vis_m": 9999,
      "fzfg": false,
      "metar_trigger": false,
      "taf_trigger": false,
      "metar": "METAR ENTC 230120Z 15005KT 9999 FEW037 M05/M07 Q1003 RMK WIND 2600FT 19006KT",
      "taf": ""
    },
    {
      "icao": "ENTO",
      "alert": "OK",
      "vis_m": 6000,
      "fzfg": false,
      "metar_trigger": false,
      "taf_trigger": false,
      "metar": "METAR ENTO 230120Z AUTO 35004KT 6000 -SN OVC006/// M03/M03 Q1001",
      "taf": ""
    },
    {
      "icao": "ENVA",
      "alert": "OK",
      "vis_m": 9999,
      "fzfg": false,
      "metar_trigger": false,
      "taf_trigger": false,
      "metar": "METAR ENVA 230120Z AUTO 07006KT 030V090 9999 NCD M00/M07 Q0997 RMK WIND 670FT 15010KT",
      "taf": ""
    },
    {
      "icao": "ENZV",
      "alert": "OK",
      "vis_m": 9999,
      "fzfg": false,
      "metar_trigger": false,
      "taf_trigger": false,
      "metar": "METAR ENZV 230120Z 16010KT 9999 FEW013 BKN039 04/02 Q0998",
      "taf": "TAF ENZV 221700Z 2218/2318 15012KT 9999 SCT020 BKN035"
    },
    {
      "icao": "EPGD",
      "alert": "OK",
      "vis_m": 2100,
      "fzfg": false,
      "metar_trigger": false,
      "taf_trigger": false,
      "metar": "METAR EPGD 230130Z VRB02KT 2100 -RA BR BKN002 01/01 Q1003",
      "taf": ""
    },
    {
      "icao": "EPKK",
      "alert": "OK",
      "vis_m": 9999,
      "fzfg": false,
      "metar_trigger": false,
      "taf_trigger": false,
      "metar": "METAR EPKK 230130Z 24008KT 9999 SCT013 BKN023 07/06 Q1010",
      "taf": "TAF EPKK 222030Z 2221/2321 23006KT 5000 BR OVC016"
    },
    {
      "icao": "EPKT",
      "alert": "OK",
      "vis_m": 9999,
      "fzfg": false,
      "metar_trigger": false,
      "taf_trigger": false,
      "metar": "METAR EPKT 230130Z 23011KT 9999 FEW005 BKN007 06/06 Q1010",
      "taf": "TAF EPKT 221730Z 2218/2318 23015KT 5000 -RA BR OVC006"
    },
    {
      "icao": "EPLB",
      "alert": "OK",
      "vis_m": 8000,
      "fzfg": false,
      "metar_trigger": false,
      "taf_trigger": false,
      "metar": "METAR EPLB 230130Z 23012KT 8000 -RA SCT004 OVC006 04/04 Q1006",
      "taf": "TAF EPLB 221730Z 2218/2318 17005KT 9000 -RA BKN020"
    },
    {
      "icao": "EPMO",
      "alert": "OK",
      "vis_m": 450,
      "fzfg": false,
      "metar_trigger": false,
      "taf_trigger": false,
      "metar": "METAR EPMO 230130Z 24006KT 0450 R08/0550N FG OVC001 04/04 Q1005",
      "taf": "TAF EPMO 221730Z 2218/2318 15005KT 3000 -RA BR OVC004"
    },
    {
      "icao": "EPPO",
      "alert": "OK",
      "vis_m": 9999,
      "fzfg": false,
      "metar_trigger": false,
      "taf_trigger": false,
      "metar": "METAR EPPO 230130Z 28013KT 9999 OVC019 08/06 Q1007",
      "taf": ""
    },
    {
      "icao": "EPRA",
      "alert": "OK",
      "vis_m": 9000,
      "fzfg": false,
      "metar_trigger": false,
      "taf_trigger": false,
      "metar": "METAR EPRA 230130Z 24011KT 9000 -RA BKN007 OVC013 07/06 Q1006",
      "taf": "TAF EPRA 222030Z 2221/2306 22010KT 6000 -RA BKN006 OVC012"
    },
    {
      "icao": "EPRZ",
      "alert": "OK",
      "vis_m": 9999,
      "fzfg": false,
      "metar_trigger": false,
      "taf_trigger": false,
      "metar": "METAR EPRZ 230130Z 22010KT 9999 BKN006 OVC012 04/03 Q1010",
      "taf": ""
    },
    {
      "icao": "EPSC",
      "alert": "OK",
      "vis_m": 9999,
      "fzfg": false,
      "metar_trigger": false,
      "taf_trigger": false,
      "metar": "METAR EPSC 230130Z 27013KT 9999 SCT010 OVC013 06/05 Q1007",
      "taf": ""
    },
    {
      "icao": "EPSY",
      "alert": "OK",
      "vis_m": 5000,
      "fzfg": false,
      "metar_trigger": false,
      "taf_trigger": false,
      "metar": "METAR EPSY 230130Z VRB02KT 5000 -RA BR BKN001 OVC005 02/01 Q1004 RERA",
      "taf": "TAF EPSY 222030Z 2221/2306 14005KT 7000 -RA OVC008"
    },
    {
      "icao": "EPWA",
      "alert": "OK",
      "vis_m": 5000,
      "fzfg": false,
      "metar_trigger": false,
      "taf_trigger": false,
      "metar": "METAR EPWA 230130Z 25007KT 5000 -RA BR OVC003 06/06 Q1005 TEMPO 3000 BR BKN002",
      "taf": "TAF EPWA 222030Z 2221/2321 15005KT 5000 -RA BR OVC005"
    },
    {
      "icao": "EPWR",
      "alert": "OK",
      "vis_m": 9999,
      "fzfg": false,
      "metar_trigger": false,
      "taf_trigger": false,
      "metar": "METAR EPWR 230130Z 27013KT 9999 -SHRA FEW020CB BKN030 09/07 Q1010",
      "taf": "TAF EPWR 222030Z 2221/2321 27012KT 9999 BKN025"
    },
    {
      "icao": "ESGG",
      "alert": "OK",
      "vis_m": 250,
      "fzfg": false,
      "metar_trigger": false,
      "taf_trigger": false,
      "metar": "METAR ESGG 230120Z 19006KT 0250 R03/0800N R21/0750U FG VV003 00/M00 Q1001",
      "taf": "TAF ESGG 222330Z 2300/2324 18006KT 1500 BR OVC002"
    },
    {
      "icao": "ESKN",
      "alert": "OK",
      "vis_m": 9999,
      "fzfg": false,
      "metar_trigger": false,
      "taf_trigger": false,
      "metar": "METAR ESKN 230120Z 13007KT CAVOK M00/M01 Q1004",
      "taf": "TAF ESKN 222330Z 2300/2324 13008KT 9999 -SN BKN040"
    },
    {
      "icao": "ESMS",
      "alert": "OK",
      "vis_m": 350,
      "fzfg": false,
      "metar_trigger": false,
      "taf_trigger": false,
      "metar": "METAR ESMS 230120Z 27012KT 0350 R17/1100N R35/1500U FG VV002 02/02 Q1004",
      "taf": "TAF ESMS 222327Z 2300/2324 26010KT 0200 FG BKN001"
    },
    {
      "icao": "ESSA",
      "alert": "OK",
      "vis_m": 9999,
      "fzfg": false,
      "metar_trigger": false,
      "taf_trigger": false,
      "metar": "METAR ESSA 230120Z 07006KT CAVOK M04/M05 Q1005 NOSIG",
      "taf": "TAF ESSA 222030Z 2221/2321 VRB03KT CAVOK"
    },
    {
      "icao": "EYKA",
      "alert": "OK",
      "vis_m": 9999,
      "fzfg": false,
      "metar_trigger": false,
      "taf_trigger": false,
      "metar": "METAR EYKA 230120Z AUTO 09005KT 9999 OVC100/// M03/M04 Q1008",
      "taf": "TAF EYKA 221716Z 2218/2318 VRB04KT 9000 SCT025"
    },
    {
      "icao": "EYPA",
      "alert": "OK",
      "vis_m": 9999,
      "fzfg": false,
      "metar_trigger": false,
      "taf_trigger": false,
      "metar": "METAR EYPA 230120Z 12009KT CAVOK M01/M03 Q1006",
      "taf": "TAF EYPA 221716Z 2218/2318 VRB04KT 9000 SCT025"
    },
    {
      "icao": "EYVI",
      "alert": "OK",
      "vis_m": 9999,
      "fzfg": false,
      "metar_trigger": false,
      "taf_trigger": false,
      "metar": "METAR EYVI 230120Z 13005KT CAVOK M03/M05 Q1008 NOSIG",
      "taf": "TAF EYVI 222317Z 2300/2324 VRB04KT 5000 BR SCT015"
    },
    {
      "icao": "GCFV",
      "alert": "OK",
      "vis_m": 6000,
      "fzfg": false,
      "metar_trigger": false,
      "taf_trigger": false,
      "metar": "METAR GCFV 230130Z AUTO 34003KT 6000 NCD 18/M03 Q1023",
      "taf": ""
    },
    {
      "icao": "GCLP",
      "alert": "OK",
      "vis_m": 9999,
      "fzfg": false,
      "metar_trigger": false,
      "taf_trigger": false,
      "metar": "METAR GCLP 230130Z 03004KT CAVOK 19/09 Q1022 NOSIG",
      "taf": "TAF GCLP 222000Z 2221/2321 36012KT CAVOK TX25/2314Z TN19/2306Z"
    },
    {
      "icao": "GCTS",
      "alert": "OK",
      "vis_m": 9999,
      "fzfg": false,
      "metar_trigger": false,
      "taf_trigger": false,
      "metar": "METAR GCTS 230130Z 04002KT CAVOK 20/M03 Q1021 NOSIG",
      "taf": "TAF GCTS 222000Z 2221/2321 04005KT CAVOK TX27/2314Z TN19/2306Z"
    },
    {
      "icao": "GMAD",
      "alert": "OK",
      "vis_m": 9999,
      "fzfg": false,
      "metar_trigger": false,
      "taf_trigger": false,
      "metar": "METAR GMAD 230130Z 06004KT 010V080 CAVOK 12/03 Q1023 NOSIG",
      "taf": "TAF GMAD 222300Z 2300/2400 18010KT CAVOK"
    },
    {
      "icao": "GMMN",
      "alert": "OK",
      "vis_m": 8000,
      "fzfg": false,
      "metar_trigger": false,
      "taf_trigger": false,
      "metar": "METAR GMMN 230130Z 12005KT 8000 NSC 10/08 Q1025 NOSIG",
      "taf": "TAF GMMN 221700Z 2218/2324 36007KT CAVOK"
    },
    {
      "icao": "GMMX",
      "alert": "OK",
      "vis_m": 9999,
      "fzfg": false,
      "metar_trigger": false,
      "taf_trigger": false,
      "metar": "METAR GMMX 230130Z 11005KT CAVOK 11/06 Q1025 NOSIG",
      "taf": "TAF GMMX 221700Z 2218/2324 08006KT 8000 NSC"
    },
    {
      "icao": "HEGN",
      "alert": "OK",
      "vis_m": 9999,
      "fzfg": false,
      "metar_trigger": false,
      "taf_trigger": false,
      "metar": "METAR HEGN 230100Z 30013KT CAVOK 16/08 Q1013 NOSIG",
      "taf": "TAF HEGN 222300Z 2300/2406 30015KT CAVOK"
    },
    {
      "icao": "HEMA",
      "alert": "OK",
      "vis_m": 9999,
      "fzfg": false,
      "metar_trigger": false,
      "taf_trigger": false,
      "metar": "METAR HEMA 230100Z 28011KT CAVOK 18/08 Q1011 NOSIG",
      "taf": "TAF HEMA 222300Z 2300/2406 31015KT CAVOK"
    },
    {
      "icao": "HESH",
      "alert": "OK",
      "vis_m": 9999,
      "fzfg": false,
      "metar_trigger": false,
      "taf_trigger": false,
      "metar": "METAR HESH 230100Z 35012KT CAVOK 19/04 Q1011 NOSIG",
      "taf": "TAF HESH 222300Z 2300/2406 35012KT CAVOK"
    },
    {
      "icao": "HESX",
      "alert": "OK",
      "vis_m": 9999,
      "fzfg": false,
      "metar_trigger": false,
      "taf_trigger": false,
      "metar": "METAR HESX 230100Z 27003KT CAVOK 11/07 Q1015 NOSIG",
      "taf": "TAF HESX 222300Z 2300/2406 35006KT CAVOK"
    },
    {
      "icao": "LATI",
      "alert": "OK",
      "vis_m": 9999,
      "fzfg": false,
      "metar_trigger": false,
      "taf_trigger": false,
      "metar": "METAR LATI 230120Z 15004KT CAVOK 03/M00 Q1023 NOSIG",
      "taf": ""
    },
    {
      "icao": "LBPD",
      "alert": "OK",
      "vis_m": 9999,
      "fzfg": false,
      "metar_trigger": false,
      "taf_trigger": false,
      "metar": "METAR LBPD 230130Z AUTO 24005KT 210V300 9999 NCD 03/M01 Q1021",
      "taf": "TAF LBPD 221700Z 2218/2318 28010KT 9999 NSC"
    },
    {
      "icao": "LBSF",
      "alert": "OK",
      "vis_m": 7000,
      "fzfg": false,
      "metar_trigger": false,
      "taf_trigger": false,
      "metar": "METAR LBSF 230130Z AUTO VRB01KT 7000 FEW025/// M02/M02 Q1021 TEMPO 5000 BR",
      "taf": "TAF LBSF 221700Z 2218/2318 29012KT 9999 SCT020 BKN030"
    },
    {
      "icao": "LBWN",
      "alert": "OK",
      "vis_m": 9999,
      "fzfg": false,
      "metar_trigger": false,
      "taf_trigger": false,
      "metar": "METAR LBWN 230130Z AUTO VRB01KT 9999 NCD 01/01 Q1020 NOSIG",
      "taf": "TAF LBWN 221700Z 2218/2318 30010KT CAVOK"
    },
    {
      "icao": "LCLK",
      "alert": "OK",
      "vis_m": 9999,
      "fzfg": false,
      "metar_trigger": false,
      "taf_trigger": false,
      "metar": "METAR LCLK 230130Z 33004KT CAVOK 08/08 Q1012 NOSIG",
      "taf": "TAF LCLK 221730Z 2218/2318 30006KT 9999 FEW025"
    },
    {
      "icao": "LCPH",
      "alert": "OK",
      "vis_m": 9999,
      "fzfg": false,
      "metar_trigger": false,
      "taf_trigger": false,
      "metar": "METAR LCPH 230130Z AUTO 00000KT 9999 BKN029 OVC039 11/08 Q1012 NOSIG",
      "taf": "TAF LCPH 221730Z 2218/2318 01007KT 9999 FEW020"
    },
    {
      "icao": "LEAL",
      "alert": "OK",
      "vis_m": 9999,
      "fzfg": false,
      "metar_trigger": false,
      "taf_trigger": false,
      "metar": "METAR LEAL 230130Z 26005KT CAVOK 08/05 Q1026 NOSIG",
      "taf": "TAF LEAL 221700Z 2218/2318 VRB04KT CAVOK TX20/2312Z TN08/2306Z"
    },
    {
      "icao": "LEBB",
      "alert": "OK",
      "vis_m": 9999,
      "fzfg": false,
      "metar_trigger": false,
      "taf_trigger": false,
      "metar": "METAR LEBB 230130Z AUTO VRB02KT CAVOK 10/08 Q1029",
      "taf": "TAF LEBB 221700Z 2218/2318 10005KT CAVOK TX21/2314Z TN04/2307Z"
    },
    {
      "icao": "LEBL",
      "alert": "OK",
      "vis_m": 9999,
      "fzfg": false,
      "metar_trigger": false,
      "taf_trigger": false,
      "metar": "METAR LEBL 230130Z 32010KT CAVOK 10/06 Q1025 NOSIG",
      "taf": "TAF LEBL 221700Z 2218/2318 22010KT CAVOK TX18/2312Z TN07/2306Z"
    },
    {
      "icao": "LECH",
      "alert": "OK",
      "vis_m": 9999,
      "fzfg": false,
      "metar_trigger": false,
      "taf_trigger": false,
      "metar": "METAR LECH 230130Z AUTO 18005KT CAVOK 09/05 Q1026",
      "taf": ""
    },
    {
      "icao": "LEMD",
      "alert": "OK",
      "vis_m": 9999,
      "fzfg": false,
      "metar_trigger": false,
      "taf_trigger": false,
      "metar": "METAR LEMD 230130Z 33003KT CAVOK 05/03 Q1028 NOSIG",
      "taf": "TAF LEMD 221700Z 2218/2324 VRB04KT CAVOK TX21/2316Z TN02/2307Z"
    },
    {
      "icao": "LEMG",
      "alert": "OK",
      "vis_m": 9999,
      "fzfg": false,
      "metar_trigger": false,
      "taf_trigger": false,
      "metar": "METAR LEMG 230130Z 29007KT CAVOK 06/03 Q1027 NOSIG",
      "taf": "TAF LEMG 221700Z 2218/2318 VRB03KT CAVOK TX19/2314Z TN06/2307Z"
    },
    {
      "icao": "LEVC",
      "alert": "OK",
      "vis_m": 9999,
      "fzfg": false,
      "metar_trigger": false,
      "taf_trigger": false,
      "metar": "METAR LEVC 230130Z 28003KT CAVOK 06/05 Q1026 NOSIG",
      "taf": "TAF LEVC 221700Z 2218/2318 VRB04KT CAVOK TX24/2312Z TN07/2306Z"
    },
    {
      "icao": "LEXJ",
      "alert": "OK",
      "vis_m": 2000,
      "fzfg": false,
      "metar_trigger": false,
      "taf_trigger": false,
      "metar": "METAR LEXJ 230130Z AUTO 00000KT 2000 0900E BR BCFG NCD 07/07 Q1028",
      "taf": "TAF LEXJ 222000Z 2221/2321 VRB03KT 9999 SCT020 TX19/2314Z TN05/2306Z"
    },
    {
      "icao": "LEZG",
      "alert": "OK",
      "vis_m": 9999,
      "fzfg": false,
      "metar_trigger": false,
      "taf_trigger": false,
      "metar": "METAR LEZG 230130Z 26004KT 230V290 CAVOK 08/05 Q1027 NOSIG",
      "taf": "TAF LEZG 221700Z 2218/2318 30009KT CAVOK TX20/2314Z TN05/2306Z"
    },
    {
      "icao": "LEZL",
      "alert": "OK",
      "vis_m": 9999,
      "fzfg": false,
      "metar_trigger": false,
      "taf_trigger": false,
      "metar": "METAR LEZL 230130Z AUTO 03003KT CAVOK 10/08 Q1025",
      "taf": "TAF LEZL 222000Z 2221/2321 04005KT CAVOK TX23/2315Z TN08/2307Z"
    },
    {
      "icao": "LFBD",
      "alert": "OK",
      "vis_m": 500,
      "fzfg": false,
      "metar_trigger": false,
      "taf_trigger": false,
      "metar": "METAR LFBD 230130Z AUTO 23003KT 0500 0450 R23/0550N R05/0600N R29/0650N FG VV/// 08/07 Q1028 NOSIG",
      "taf": ""
    },
    {
      "icao": "LFLL",
      "alert": "OK",
      "vis_m": 9999,
      "fzfg": false,
      "metar_trigger": false,
      "taf_trigger": false,
      "metar": "METAR LFLL 230130Z VRB01KT 9999 BKN027 BKN086 OVC260 07/06 Q1026 NOSIG",
      "taf": ""
    },
    {
      "icao": "LFLS",
      "alert": "OK",
      "vis_m": 9999,
      "fzfg": false,
      "metar_trigger": false,
      "taf_trigger": false,
      "metar": "METAR LFLS 230130Z AUTO VRB03KT 9999 FEW015 BKN086 06/05 Q1026",
      "taf": ""
    },
    {
      "icao": "LFMN",
      "alert": "OK",
      "vis_m": 9999,
      "fzfg": false,
      "metar_trigger": false,
      "taf_trigger": false,
      "metar": "METAR LFMN 230130Z 32005KT 9999 BKN020 BKN230 11/09 Q1021 TEMPO BKN012",
      "taf": "TAF LFMN 222000Z 2221/2403 34010KT 9999 BKN025 BKN200"
    },
    {
      "icao": "LFOB",
      "alert": "OK",
      "vis_m": 9999,
      "fzfg": false,
      "metar_trigger": false,
      "taf_trigger": false,
      "metar": "METAR LFOB 230130Z AUTO 24010KT 9999 BKN012 OVC020 11/10 Q1020 TEMPO OVC008",
      "taf": "TAF LFOB 221700Z 2218/2318 23012KT 9999 BKN016 OVC025"
    },
    {
      "icao": "LFPO",
      "alert": "OK",
      "vis_m": 9999,
      "fzfg": false,
      "metar_trigger": false,
      "taf_trigger": false,
      "metar": "METAR LFPO 230130Z AUTO 24010KT 9999 OVC012 11/09 Q1022 TEMPO 3000 -DZ BKN008",
      "taf": "TAF LFPO 222300Z 2300/2406 24012KT 9999 BKN012"
    },
    {
      "icao": "LFSB",
      "alert": "OK",
      "vis_m": 9999,
      "fzfg": false,
      "metar_trigger": false,
      "taf_trigger": false,
      "metar": "METAR LFSB 230130Z AUTO 23004KT 200V270 9999 BKN021 BKN068 BKN092 10/07 Q1023 NOSIG",
      "taf": "TAF LFSB 221700Z 2218/2318 24006KT 9999 BKN030"
    },
    {
      "icao": "LGAV",
      "alert": "OK",
      "vis_m": 9999,
      "fzfg": false,
      "metar_trigger": false,
      "taf_trigger": false,
      "metar": "METAR LGAV 230120Z 32005KT 9999 SCT040 08/04 Q1021 NOSIG",
      "taf": "TAF LGAV 221700Z 2218/2318 03012KT 9999 FEW018 SCT025"
    },
    {
      "icao": "LGTS",
      "alert": "OK",
      "vis_m": null,
      "fzfg": false,
      "metar_trigger": false,
      "taf_trigger": false,
      "metar": "",
      "taf": "TAF LGTS 221700Z 2218/2318 34015KT 9999 FEW030"
    },
    {
      "icao": "LHBP",
      "alert": "OK",
      "vis_m": 9999,
      "fzfg": false,
      "metar_trigger": false,
      "taf_trigger": false,
      "metar": "METAR LHBP 230130Z 18005KT 9999 SCT026 BKN073 06/04 Q1016 NOSIG",
      "taf": "TAF LHBP 221715Z 2218/2318 19005KT 9999 SCT040 BKN070"
    },
    {
      "icao": "LHDC",
      "alert": "OK",
      "vis_m": 7000,
      "fzfg": false,
      "metar_trigger": false,
      "taf_trigger": false,
      "metar": "METAR LHDC 230115Z AUTO 20013KT 7000 -RA FEW009 BKN035 04/03 Q1017 NOSIG",
      "taf": "TAF LHDC 221715Z 2218/2303 18013KT 8000 OVC015"
    },
    {
      "icao": "LIBD",
      "alert": "OK",
      "vis_m": 9999,
      "fzfg": false,
      "metar_trigger": false,
      "taf_trigger": false,
      "metar": "METAR LIBD 230120Z 21005KT CAVOK 06/02 Q1022",
      "taf": "TAF LIBD 222300Z 2300/2324 VRB06KT CAVOK"
    },
    {
      "icao": "LIBG",
      "alert": "OK",
      "vis_m": null,
      "fzfg": false,
      "metar_trigger": false,
      "taf_trigger": false,
      "metar": "",
      "taf": "TAF LIBG 221700Z 2218/2303 VRB03KT CAVOK"
    },
    {
      "icao": "LIBP",
      "alert": "OK",
      "vis_m": 9999,
      "fzfg": false,
      "metar_trigger": false,
      "taf_trigger": false,
      "metar": "METAR LIBP 230120Z AUTO 23003KT 9999 NCD 03/03 Q1020",
      "taf": "TAF LIBP 222300Z 2300/2324 VRB04KT CAVOK"
    },
    {
      "icao": "LIBR",
      "alert": "OK",
      "vis_m": 9999,
      "fzfg": false,
      "metar_trigger": false,
      "taf_trigger": false,
      "metar": "METAR LIBR 230120Z 27005KT CAVOK 07/05 Q1023",
      "taf": "TAF LIBR 222300Z 2300/2324 VRB05KT CAVOK"
    },
    {
      "icao": "LICA",
      "alert": "OK",
      "vis_m": 9999,
      "fzfg": false,
      "metar_trigger": false,
      "taf_trigger": false,
      "metar": "METAR LICA 230120Z AUTO 21006KT 180V250 9999 BKN016/// 13/10 Q1025",
      "taf": "TAF LICA 222300Z 2300/2324 27010KT 9999 FEW020"
    },
    {
      "icao": "LICC",
      "alert": "OK",
      "vis_m": 9999,
      "fzfg": false,
      "metar_trigger": false,
      "taf_trigger": false,
      "metar": "METAR LICC 230120Z 28007KT CAVOK 07/03 Q1025",
      "taf": "TAF LICC 222300Z 2300/2324 25008KT CAVOK"
    },
    {
      "icao": "LICJ",
      "alert": "OK",
      "vis_m": 9999,
      "fzfg": false,
      "metar_trigger": false,
      "taf_trigger": false,
      "metar": "METAR LICJ 230120Z 22005KT CAVOK 11/08 Q1026",
      "taf": "TAF LICJ 222300Z 2300/2324 20006KT 9999 FEW030"
    },
    {
      "icao": "LIMC",
      "alert": "OK",
      "vis_m": 4000,
      "fzfg": false,
      "metar_trigger": false,
      "taf_trigger": false,
      "metar": "METAR LIMC 230120Z 01004KT 4000 R35R/0250N R17L/0400D R35L/P2000N BCFG NSC 03/02 Q1021 BECMG 1200 BCFG",
      "taf": "TAF LIMC 222300Z 2300/2406 VRB05KT 3000 BCFG NSC"
    },
    {
      "icao": "LIME",
      "alert": "OK",
      "vis_m": 7000,
      "fzfg": false,
      "metar_trigger": false,
      "taf_trigger": false,
      "metar": "METAR LIME 230120Z 02005KT 7000 NSC 05/04 Q1021 NOSIG",
      "taf": "TAF LIME 222300Z 2300/2324 VRB05KT CAVOK"
    },
    {
      "icao": "LIMF",
      "alert": "OK",
      "vis_m": 9999,
      "fzfg": false,
      "metar_trigger": false,
      "taf_trigger": false,
      "metar": "METAR LIMF 230120Z 29004KT CAVOK 04/01 Q1021",
      "taf": "TAF LIMF 222300Z 2300/2324 VRB05KT 8000 FEW025"
    },
    {
      "icao": "LIMJ",
      "alert": "OK",
      "vis_m": 9999,
      "fzfg": false,
      "metar_trigger": false,
      "taf_trigger": false,
      "metar": "METAR LIMJ 230120Z 07004KT 040V100 9999 BKN030 14/08 Q1022",
      "taf": "TAF LIMJ 222300Z 2300/2324 06005KT 9999 SCT015 BKN030"
    },
    {
      "icao": "LIPE",
      "alert": "OK",
      "vis_m": 9999,
      "fzfg": false,
      "metar_trigger": false,
      "taf_trigger": false,
      "metar": "METAR LIPE 230120Z 23003KT CAVOK 06/05 Q1021",
      "taf": "TAF LIPE 222300Z 2300/2324 VRB04KT CAVOK"
    },
    {
      "icao": "LIPH",
      "alert": "OK",
      "vis_m": 2200,
      "fzfg": false,
      "metar_trigger": false,
      "taf_trigger": false,
      "metar": "METAR LIPH 230120Z AUTO 00000KT 2200 BCFG FEW017/// BKN240/// 04/04 Q1021",
      "taf": "TAF LIPH 221700Z 2218/2318 VRB03KT 9999 FEW025"
    },
    {
      "icao": "LIPQ",
      "alert": "OK",
      "vis_m": 9999,
      "fzfg": false,
      "metar_trigger": false,
      "taf_trigger": false,
      "metar": "METAR LIPQ 230120Z AUTO 35002KT 9999 SCT150/// 04/03 Q1021",
      "taf": ""
    },
    {
      "icao": "LIPR",
      "alert": "OK",
      "vis_m": 6000,
      "fzfg": false,
      "metar_trigger": false,
      "taf_trigger": false,
      "metar": "METAR LIPR 230120Z AUTO 21004KT 6000 NCD 04/04 Q1021",
      "taf": "TAF LIPR 221700Z 2218/2318 VRB05KT CAVOK"
    },
    {
      "icao": "LIPX",
      "alert": "OK",
      "vis_m": 8000,
      "fzfg": false,
      "metar_trigger": false,
      "taf_trigger": false,
      "metar": "METAR LIPX 230120Z 33004KT 8000 NSC 04/03 Q1021",
      "taf": "TAF LIPX 222300Z 2300/2324 VRB05KT 7000 SCT030"
    },
    {
      "icao": "LIPY",
      "alert": "OK",
      "vis_m": 9999,
      "fzfg": false,
      "metar_trigger": false,
      "taf_trigger": false,
      "metar": "METAR LIPY 230120Z AUTO VRB01KT 9999 NCD 05/04 Q1021",
      "taf": "TAF LIPY 221700Z 2218/2318 VRB04KT 8000 NSC"
    },
    {
      "icao": "LIPZ",
      "alert": "OK",
      "vis_m": 3000,
      "fzfg": false,
      "metar_trigger": false,
      "taf_trigger": false,
      "metar": "METAR LIPZ 230120Z 03002KT 3000 BR NSC 06/06 Q1021 BECMG 2000 BR",
      "taf": "TAF LIPZ 221700Z 2218/2324 VRB03KT 8000 FEW025"
    },
    {
      "icao": "LIRF",
      "alert": "OK",
      "vis_m": 9000,
      "fzfg": false,
      "metar_trigger": false,
      "taf_trigger": false,
      "metar": "METAR LIRF 230120Z 09004KT 9000 SCT010 07/06 Q1024 NOSIG",
      "taf": "TAF LIRF 222300Z 2300/2406 VRB05KT CAVOK"
    },
    {
      "icao": "LIRN",
      "alert": "OK",
      "vis_m": 9999,
      "fzfg": false,
      "metar_trigger": false,
      "taf_trigger": false,
      "metar": "METAR LIRN 230120Z 19002KT CAVOK 08/07 Q1024 NOSIG",
      "taf": "TAF LIRN 221700Z 2218/2318 VRB05KT CAVOK"
    },
    {
      "icao": "LIRP",
      "alert": "OK",
      "vis_m": 9999,
      "fzfg": false,
      "metar_trigger": false,
      "taf_trigger": false,
      "metar": "METAR LIRP 230115Z 10004KT 9999 BKN030 10/10 Q1023 NOSIG",
      "taf": ""
    },
    {
      "icao": "LIRZ",
      "alert": "OK",
      "vis_m": 9999,
      "fzfg": false,
      "metar_trigger": false,
      "taf_trigger": false,
      "metar": "METAR LIRZ 230120Z AUTO 01003KT 330V060 9999 BKN035/// 04/04 Q1023",
      "taf": "TAF LIRZ 221700Z 2218/2318 VRB05KT 9999 FEW030"
    },
    {
      "icao": "LJLJ",
      "alert": "OK",
      "vis_m": 9999,
      "fzfg": false,
      "metar_trigger": false,
      "taf_trigger": false,
      "metar": "METAR LJLJ 230130Z 00000KT 9999 MIFG NSC 01/01 Q1019 NOSIG",
      "taf": "TAF LJLJ 222300Z 2300/2400 VRB02KT CAVOK"
    },
    {
      "icao": "LKMT",
      "alert": "OK",
      "vis_m": 9999,
      "fzfg": false,
      "metar_trigger": false,
      "taf_trigger": false,
      "metar": "METAR LKMT 230130Z 22014KT 9999 -RA OVC016 07/07 Q1012 NOSIG",
      "taf": "TAF LKMT 221700Z 2218/2318 22012KT 7000 -RA BKN012 OVC025"
    },
    {
      "icao": "LKPR",
      "alert": "OK",
      "vis_m": 9999,
      "fzfg": false,
      "metar_trigger": false,
      "taf_trigger": false,
      "metar": "METAR LKPR 230130Z 22015KT 9999 -RA FEW040 09/08 Q1013 NOSIG",
      "taf": "TAF LKPR 222000Z 2221/2403 23018KT 9999 SCT013"
    },
    {
      "icao": "LLBG",
      "alert": "OK",
      "vis_m": 9999,
      "fzfg": false,
      "metar_trigger": false,
      "taf_trigger": false,
      "metar": "METAR LLBG 230120Z VRB03KT CAVOK 12/08 Q1014 NOSIG",
      "taf": "TAF LLBG 221703Z 2218/2318 VRB04KT 9999 FEW030"
    },
    {
      "icao": "LMML",
      "alert": "OK",
      "vis_m": 9999,
      "fzfg": false,
      "metar_trigger": false,
      "taf_trigger": false,
      "metar": "METAR LMML 230115Z 23004KT CAVOK 10/09 Q1026 NOSIG",
      "taf": "TAF LMML 221700Z 2218/2318 30011KT 9999 FEW015"
    },
    {
      "icao": "LOWW",
      "alert": "OK",
      "vis_m": 9999,
      "fzfg": false,
      "metar_trigger": false,
      "taf_trigger": false,
      "metar": "METAR LOWW 230120Z 28016KT 9999 -RA FEW045 11/07 Q1016 NOSIG",
      "taf": "TAF LOWW 222015Z 2221/2403 20005KT 9000 BKN040 TX13/2313Z TN06/2221Z"
    },
    {
      "icao": "LPFR",
      "alert": "OK",
      "vis_m": 9999,
      "fzfg": false,
      "metar_trigger": false,
      "taf_trigger": false,
      "metar": "METAR LPFR 230130Z 02005KT CAVOK 10/05 Q1025",
      "taf": "TAF LPFR 221700Z 2218/2318 10008KT CAVOK"
    },
    {
      "icao": "LPMA",
      "alert": "OK",
      "vis_m": 9999,
      "fzfg": false,
      "metar_trigger": false,
      "taf_trigger": false,
      "metar": "METAR LPMA 230130Z 01005KT 9999 FEW015 14/08 Q1024",
      "taf": "TAF LPMA 221700Z 2218/2318 02010KT 9999 FEW015"
    },
    {
      "icao": "LPPR",
      "alert": "OK",
      "vis_m": 9999,
      "fzfg": false,
      "metar_trigger": false,
      "taf_trigger": false,
      "metar": "METAR LPPR 230130Z VRB02KT CAVOK 09/07 Q1026",
      "taf": "TAF LPPR 221700Z 2218/2318 34007KT CAVOK"
    },
    {
      "icao": "LPPS",
      "alert": "OK",
      "vis_m": 9999,
      "fzfg": false,
      "metar_trigger": false,
      "taf_trigger": false,
      "metar": "METAR LPPS 230130Z VRB02KT 9999 FEW014 14/11 Q1024",
      "taf": "TAF LPPS 221700Z 2218/2324 VRB05KT 9999 FEW015"
    },
    {
      "icao": "LPPT",
      "alert": "OK",
      "vis_m": 9999,
      "fzfg": false,
      "metar_trigger": false,
      "taf_trigger": false,
      "metar": "METAR LPPT 230130Z 35003KT CAVOK 12/08 Q1025",
      "taf": "TAF LPPT 221700Z 2218/2324 06007KT CAVOK"
    },
    {
      "icao": "LQBK",
      "alert": "OK",
      "vis_m": 9999,
      "fzfg": false,
      "metar_trigger": false,
      "taf_trigger": false,
      "metar": "METAR LQBK 230130Z VRB02KT CAVOK 07/02 Q1019 NOSIG",
      "taf": "TAF LQBK 222300Z 2300/2324 16005KT CAVOK TX15/2313Z TN02/2306Z"
    },
    {
      "icao": "LQSA",
      "alert": "OK",
      "vis_m": 9999,
      "fzfg": false,
      "metar_trigger": false,
      "taf_trigger": false,
      "metar": "METAR LQSA 230130Z 00000KT CAVOK 01/01 Q1021",
      "taf": "TAF LQSA 222300Z 2300/2324 VRB02KT CAVOK TX16/2314Z TNM02/2304Z"
    },
    {
      "icao": "LQTZ",
      "alert": "OK",
      "vis_m": 9999,
      "fzfg": false,
      "metar_trigger": false,
      "taf_trigger": false,
      "metar": "METAR LQTZ 230130Z 00000KT CAVOK 03/02 Q1020",
      "taf": "TAF LQTZ 222300Z 2300/2324 VRB02KT CAVOK TX15/2313Z TN00/2305Z"
    },
    {
      "icao": "LRBC",
      "alert": "OK",
      "vis_m": 9999,
      "fzfg": false,
      "metar_trigger": false,
      "taf_trigger": false,
      "metar": "METAR LRBC 230130Z 13006KT CAVOK 02/M46 Q1016",
      "taf": "TAF LRBC 222000Z 2221/2306 VRB04KT 9999 BKN060"
    },
    {
      "icao": "LRBS",
      "alert": "OK",
      "vis_m": 2000,
      "fzfg": true,
      "metar_trigger": false,
      "taf_trigger": false,
      "metar": "METAR LRBS 230130Z 25006KT 2000 BCFG BR BKN001 M04/M05 Q1021 TEMPO 0800 FZFG",
      "taf": "TAF LRBS 221700Z 2218/2318 25009KT 0600 FZFG OVC001"
    },
    {
      "icao": "LRBV",
      "alert": "OK",
      "vis_m": 6000,
      "fzfg": false,
      "metar_trigger": false,
      "taf_trigger": false,
      "metar": "METAR LRBV 230130Z AUTO 22005KT 6000 OVC052/// M04/M05 Q1018",
      "taf": "TAF LRBV 222000Z 2221/2306 29005KT 9999 BKN015 BKN030"
    },
    {
      "icao": "LRCL",
      "alert": "OK",
      "vis_m": 8000,
      "fzfg": false,
      "metar_trigger": false,
      "taf_trigger": false,
      "metar": "METAR LRCL 230130Z 07002KT 8000 -RA OVC036 02/01 Q1018",
      "taf": "TAF LRCL 222000Z 2221/2306 VRB04KT 9999 SCT025 BKN065"
    },
    {
      "icao": "LRCV",
      "alert": "WARNING",
      "vis_m": 500,
      "fzfg": true,
      "metar_trigger": false,
      "taf_trigger": true,
      "metar": "METAR LRCV 230130Z AUTO 31003KT 280V340 0500 R26/0550N FZFG VV002 M02/M02 Q1020",
      "taf": "TAF LRCV 222000Z 2221/2306 VRB04KT 0150 FZFG VV001"
    },
    {
      "icao": "LRIA",
      "alert": "OK",
      "vis_m": 9999,
      "fzfg": false,
      "metar_trigger": false,
      "taf_trigger": false,
      "metar": "METAR LRIA 230130Z 12004KT CAVOK M00/M02 Q1016",
      "taf": "TAF LRIA 222000Z 2221/2306 VRB04KT CAVOK"
    },
    {
      "icao": "LROP",
      "alert": "WARNING",
      "vis_m": 5000,
      "fzfg": true,
      "metar_trigger": false,
      "taf_trigger": true,
      "metar": "METAR LROP 230130Z 25005KT 5000 BR BKN002 M05/M05 Q1020 TEMPO 1500 BR",
      "taf": "TAF LROP 221700Z 2218/2318 26009KT 0150 FZFG VV001"
    },
    {
      "icao": "LRSB",
      "alert": "OK",
      "vis_m": 6000,
      "fzfg": false,
      "metar_trigger": false,
      "taf_trigger": false,
      "metar": "METAR LRSB 230130Z 09003KT 6000 BKN048 BKN068 01/00 Q1018",
      "taf": "TAF LRSB 221700Z 2218/2318 VRB03KT 9999 SCT030 BKN045"
    },
    {
      "icao": "LRSM",
      "alert": "OK",
      "vis_m": 9000,
      "fzfg": false,
      "metar_trigger": false,
      "taf_trigger": false,
      "metar": "METAR LRSM 230130Z AUTO 19008KT 9000 -RA FEW017/// BKN020/// OVC034/// 05/04 Q1017",
      "taf": ""
    },
    {
      "icao": "LRSV",
      "alert": "OK",
      "vis_m": 9999,
      "fzfg": false,
      "metar_trigger": false,
      "taf_trigger": false,
      "metar": "METAR LRSV 230130Z 20010KT CAVOK 02/M01 Q1013",
      "taf": "TAF LRSV 222000Z 2221/2306 23008KT CAVOK"
    },
    {
      "icao": "LRTM",
      "alert": "OK",
      "vis_m": 9999,
      "fzfg": false,
      "metar_trigger": false,
      "taf_trigger": false,
      "metar": "METAR LRTM 230130Z AUTO 08003KT 9999 BKN039/// BKN049/// 02/01 Q1019",
      "taf": ""
    },
    {
      "icao": "LRTR",
      "alert": "OK",
      "vis_m": 9999,
      "fzfg": false,
      "metar_trigger": false,
      "taf_trigger": false,
      "metar": "METAR LRTR 230130Z 11006KT CAVOK 04/04 Q1019",
      "taf": "TAF LRTR 221700Z 2218/2318 14007KT 9999 BKN025"
    },
    {
      "icao": "LTAC",
      "alert": "OK",
      "vis_m": 9999,
      "fzfg": false,
      "metar_trigger": false,
      "taf_trigger": false,
      "metar": "METAR LTAC 230120Z VRB02KT 9999 FEW040 M00/M02 Q1015 NOSIG RMK RWY21C VRB01KT RWY03L 08003KT 350V120 RWY21R VRB01KT RWY03R 05002KT RWY21L 12004KT 070V130",
      "taf": ""
    },
    {
      "icao": "LTFM",
      "alert": "OK",
      "vis_m": 9999,
      "fzfg": false,
      "metar_trigger": false,
      "taf_trigger": false,
      "metar": "METAR LTFM 230120Z 04004KT 9999 BKN014 BKN028 04/00 Q1021 NOSIG RMK RWY17L 03003KT RWY34L 02003KT 340V040 RWY16R VRB02KT RWY36 08002KT RWY18 05003KT 360V070",
      "taf": ""
    },
    {
      "icao": "LUKK",
      "alert": "OK",
      "vis_m": 7000,
      "fzfg": false,
      "metar_trigger": false,
      "taf_trigger": false,
      "metar": "METAR LUKK 230130Z 26007KT 7000 NSC M03/M03 Q1017 TEMPO 3000 BR",
      "taf": "TAF LUKK 222321Z 2300/2324 VRB04KT 1500 BR NSC"
    },
    {
      "icao": "LWOH",
      "alert": "OK",
      "vis_m": null,
      "fzfg": false,
      "metar_trigger": false,
      "taf_trigger": false,
      "metar": "",
      "taf": "TAF LWOH 222020Z 2221/2321 35008KT CAVOK"
    },
    {
      "icao": "LWSK",
      "alert": "OK",
      "vis_m": 9999,
      "fzfg": false,
      "metar_trigger": false,
      "taf_trigger": false,
      "metar": "METAR LWSK 230120Z 05003KT CAVOK M01/M03 Q1024 NOSIG",
      "taf": "TAF LWSK 222020Z 2221/2321 VRB02KT CAVOK"
    },
    {
      "icao": "LYBE",
      "alert": "OK",
      "vis_m": 9999,
      "fzfg": false,
      "metar_trigger": false,
      "taf_trigger": false,
      "metar": "METAR LYBE 230130Z 20007KT CAVOK 05/01 Q1019 NOSIG",
      "taf": "TAF LYBE 221700Z 2218/2318 16005KT CAVOK TX14/2313Z TN04/2306Z"
    },
    {
      "icao": "LYNI",
      "alert": "OK",
      "vis_m": 6000,
      "fzfg": false,
      "metar_trigger": false,
      "taf_trigger": false,
      "metar": "METAR LYNI 230130Z 10004KT 070V140 6000 BKN070 01/01 Q1023 NOSIG",
      "taf": "TAF LYNI 221700Z 2218/2318 18005KT 9999 BKN025 TX13/2313Z TNM01/2305Z"
    },
    {
      "icao": "LYPG",
      "alert": "OK",
      "vis_m": 9999,
      "fzfg": false,
      "metar_trigger": false,
      "taf_trigger": false,
      "metar": "METAR LYPG 230130Z 32004KT CAVOK 04/M00 Q1023 NOSIG",
      "taf": "TAF LYPG 221700Z 2218/2318 36007KT CAVOK TX16/2313Z TN02/2305Z"
    },
    {
      "icao": "LZIB",
      "alert": "OK",
      "vis_m": 9999,
      "fzfg": false,
      "metar_trigger": false,
      "taf_trigger": false,
      "metar": "METAR LZIB 230130Z 20006KT 9999 -RA FEW008 06/06 Q1015 NOSIG",
      "taf": "TAF LZIB 222315Z 2300/2400 25009KT 7000 SCT005 OVC040"
    },
    {
      "icao": "LZKZ",
      "alert": "OK",
      "vis_m": 4000,
      "fzfg": false,
      "metar_trigger": false,
      "taf_trigger": false,
      "metar": "METAR LZKZ 230130Z 19009KT 4000 BR OVC006 04/03 Q1014 NOSIG",
      "taf": ""
    },
    {
      "icao": "LZTT",
      "alert": "OK",
      "vis_m": 9999,
      "fzfg": false,
      "metar_trigger": false,
      "taf_trigger": false,
      "metar": "METAR LZTT 230130Z 28009KT 9999 BKN014 04/03 Q1012",
      "taf": "TAF LZTT 222315Z 2300/2400 27008KT 9999 FEW010 BKN020"
    },
    {
      "icao": "OEJN",
      "alert": "OK",
      "vis_m": 9999,
      "fzfg": false,
      "metar_trigger": false,
      "taf_trigger": false,
      "metar": "METAR OEJN 230100Z 33004KT CAVOK 24/19 Q1009 NOSIG",
      "taf": "TAF OEJN 221700Z 2218/2324 36006KT 7000 NSC"
    },
    {
      "icao": "OEMA",
      "alert": "OK",
      "vis_m": 9999,
      "fzfg": false,
      "metar_trigger": false,
      "taf_trigger": false,
      "metar": "METAR OEMA 230100Z 18005KT CAVOK 23/07 Q1012 NOSIG",
      "taf": "TAF OEMA 221700Z 2218/2324 23010KT CAVOK"
    },
    {
      "icao": "OJAI",
      "alert": "OK",
      "vis_m": 4000,
      "fzfg": false,
      "metar_trigger": false,
      "taf_trigger": false,
      "metar": "METAR OJAI 230100Z 00000KT 4000 BR NSC 04/03 Q1015 NOSIG",
      "taf": "TAF OJAI 221700Z 2218/2324 29012KT 5000 HZ SCT030"
    },
    {
      "icao": "OMAA",
      "alert": "OK",
      "vis_m": 1500,
      "fzfg": false,
      "metar_trigger": false,
      "taf_trigger": false,
      "metar": "METAR OMAA 230130Z 15003KT 100V200 1500 BR SCT005 19/19 Q1010 NOSIG",
      "taf": ""
    },
    {
      "icao": "OMDB",
      "alert": "OK",
      "vis_m": 3000,
      "fzfg": false,
      "metar_trigger": false,
      "taf_trigger": false,
      "metar": "METAR OMDB 230130Z 16005KT 120V280 3000 BR BKN004 20/19 Q1010 NOSIG",
      "taf": "TAF OMDB 222300Z 2300/2406 18005KT 0300 FG VV///"
    },
    {
      "icao": "UAAA",
      "alert": "OK",
      "vis_m": 9999,
      "fzfg": false,
      "metar_trigger": false,
      "taf_trigger": false,
      "metar": "METAR UAAA 230130Z 21002MPS 9999 BKN200 03/M02 Q1015 NOSIG",
      "taf": "TAF UAAA 221700Z 2218/2318 21003MPS 3100 BR FU SCT030 BKN100 TX09/2309Z TNM00/2301Z"
    },
    {
      "icao": "UBBB",
      "alert": "OK",
      "vis_m": 9999,
      "fzfg": false,
      "metar_trigger": false,
      "taf_trigger": false,
      "metar": "METAR UBBB 230130Z 30012KT 9999 BKN039 06/03 Q1014 NOSIG",
      "taf": "TAF UBBB 222258Z 2300/2324 31014KT 9999 SCT012 BKN025 TX08/2310Z TN04/2301Z"
    },
    {
      "icao": "UDSG",
      "alert": "OK",
      "vis_m": 3000,
      "fzfg": false,
      "metar_trigger": false,
      "taf_trigger": false,
      "metar": "METAR UDSG 230130Z 15002KT 3000 BR BKN049 M01/M01 Q1012 NOSIG",
      "taf": "TAF UDSG 221700Z 2218/2318 VRB06KT 9999 BKN040"
    },
    {
      "icao": "UDYZ",
      "alert": "OK",
      "vis_m": 6000,
      "fzfg": false,
      "metar_trigger": false,
      "taf_trigger": false,
      "metar": "METAR UDYZ 230130Z VRB02KT 6000 FEW043CB 02/M01 Q1010 NOSIG",
      "taf": "TAF UDYZ 221700Z 2218/2318 04006KT 6000 SCT040"
    },
    {
      "icao": "UGKO",
      "alert": "OK",
      "vis_m": 4700,
      "fzfg": false,
      "metar_trigger": false,
      "taf_trigger": false,
      "metar": "METAR UGKO 230130Z AUTO 25006KT 4700 -RA FEW036/// SCT098/// 07/07 Q1016 NOSIG",
      "taf": ""
    }
  ]
}