{
  "ts_utc": "2026-07-15T14:25:17Z",
  "threshold_m": 150,
  "source": "stations_override.txt (ICAO list) + aviationweather.gov (METAR/TAF raw)",
  "station_count": 159,
  "stations": [
    {
      "icao": "BIKF",
      "alert": "OK",
      "vis_m": 9999,
      "fzfg": false,
      "metar_trigger": false,
      "taf_trigger": false,
      "metar": "METAR BIKF 151400Z 20022KT 9999 SCT008 BKN019 11/10 Q1017",
      "taf": "TAF BIKF 151359Z 1515/1615 22020G30KT 9999 SCT010 BKN020 TX11/1515Z TN09/1606Z"
    },
    {
      "icao": "BKPR",
      "alert": "OK",
      "vis_m": null,
      "fzfg": false,
      "metar_trigger": false,
      "taf_trigger": false,
      "metar": "",
      "taf": ""
    },
    {
      "icao": "EBCI",
      "alert": "OK",
      "vis_m": 9999,
      "fzfg": false,
      "metar_trigger": false,
      "taf_trigger": false,
      "metar": "METAR EBCI 151350Z 06014KT CAVOK 30/12 Q1019 NOSIG",
      "taf": "TAF EBCI 151120Z 1512/1618 04008KT 9999 FEW045"
    },
    {
      "icao": "EDDB",
      "alert": "OK",
      "vis_m": 9999,
      "fzfg": false,
      "metar_trigger": false,
      "taf_trigger": false,
      "metar": "METAR EDDB 151420Z AUTO 06007KT 010V110 CAVOK 25/12 Q1021 NOSIG",
      "taf": "TAF EDDB 151100Z 1512/1612 06006KT CAVOK"
    },
    {
      "icao": "EDDH",
      "alert": "OK",
      "vis_m": 9999,
      "fzfg": false,
      "metar_trigger": false,
      "taf_trigger": false,
      "metar": "METAR EDDH 151420Z AUTO 07009KT 350V110 CAVOK 27/12 Q1021 NOSIG",
      "taf": "TAF EDDH 151100Z 1512/1618 33008KT CAVOK"
    },
    {
      "icao": "EDDK",
      "alert": "OK",
      "vis_m": 9999,
      "fzfg": false,
      "metar_trigger": false,
      "taf_trigger": false,
      "metar": "METAR EDDK 151420Z AUTO 03011KT 360V060 CAVOK 29/11 Q1018 NOSIG",
      "taf": "TAF EDDK 151100Z 1512/1618 04008KT CAVOK"
    },
    {
      "icao": "EDDN",
      "alert": "OK",
      "vis_m": 9999,
      "fzfg": false,
      "metar_trigger": false,
      "taf_trigger": false,
      "metar": "METAR EDDN 151420Z AUTO VRB06KT CAVOK 27/13 Q1018 NOSIG",
      "taf": "TAF EDDN 151100Z 1512/1612 06007KT CAVOK"
    },
    {
      "icao": "EDDS",
      "alert": "OK",
      "vis_m": 9999,
      "fzfg": false,
      "metar_trigger": false,
      "taf_trigger": false,
      "metar": "METAR EDDS 151420Z AUTO 16004KT 080V220 CAVOK 29/14 Q1018 NOSIG",
      "taf": "TAF EDDS 151100Z 1512/1612 01005KT CAVOK"
    },
    {
      "icao": "EDFH",
      "alert": "OK",
      "vis_m": 9999,
      "fzfg": false,
      "metar_trigger": false,
      "taf_trigger": false,
      "metar": "METAR EDFH 151350Z VRB05KT CAVOK 25/11 Q1019",
      "taf": "TAF EDFH 151100Z 1512/1612 06009KT CAVOK"
    },
    {
      "icao": "EDJA",
      "alert": "OK",
      "vis_m": 9999,
      "fzfg": false,
      "metar_trigger": false,
      "taf_trigger": false,
      "metar": "METAR EDJA 151350Z 05006KT 020V090 9999 -SHRA FEW031CB 19/18 Q1020",
      "taf": "TAF EDJA 151100Z 1512/1521 VRB03KT CAVOK"
    },
    {
      "icao": "EDLW",
      "alert": "OK",
      "vis_m": 9999,
      "fzfg": false,
      "metar_trigger": false,
      "taf_trigger": false,
      "metar": "METAR EDLW 151350Z COR 05008KT 350V090 CAVOK 28/12 Q1020",
      "taf": "TAF EDLW 151100Z 1512/1612 06009KT CAVOK"
    },
    {
      "icao": "EDNY",
      "alert": "OK",
      "vis_m": 9999,
      "fzfg": false,
      "metar_trigger": false,
      "taf_trigger": false,
      "metar": "METAR EDNY 151350Z 03006KT 9999 VCTS -RA BKN060CB 26/18 Q1018",
      "taf": "TAF EDNY 151100Z 1512/1521 VRB03KT CAVOK"
    },
    {
      "icao": "EDSB",
      "alert": "OK",
      "vis_m": 9999,
      "fzfg": false,
      "metar_trigger": false,
      "taf_trigger": false,
      "metar": "METAR EDSB 151350Z 03012KT CAVOK 30/15 Q1016",
      "taf": "TAF EDSB 151100Z 1512/1612 02012KT CAVOK"
    },
    {
      "icao": "EETN",
      "alert": "OK",
      "vis_m": 9999,
      "fzfg": false,
      "metar_trigger": false,
      "taf_trigger": false,
      "metar": "METAR EETN 151420Z 31007KT 280V340 CAVOK 24/13 Q1019 NOSIG",
      "taf": "TAF EETN 151130Z 1512/1612 32010KT CAVOK"
    },
    {
      "icao": "EFTU",
      "alert": "OK",
      "vis_m": 9999,
      "fzfg": false,
      "metar_trigger": false,
      "taf_trigger": false,
      "metar": "METAR EFTU 151420Z AUTO 31008KT 270V340 CAVOK 24/12 Q1021",
      "taf": "TAF EFTU 151128Z 1512/1612 33009KT CAVOK"
    },
    {
      "icao": "EGBB",
      "alert": "OK",
      "vis_m": 9999,
      "fzfg": false,
      "metar_trigger": false,
      "taf_trigger": false,
      "metar": "METAR EGBB 151420Z 04010KT CAVOK 26/11 Q1024",
      "taf": "TAF EGBB 151101Z 1512/1612 06009KT 9999 FEW020"
    },
    {
      "icao": "EGGP",
      "alert": "OK",
      "vis_m": 9999,
      "fzfg": false,
      "metar_trigger": false,
      "taf_trigger": false,
      "metar": "METAR EGGP 151420Z 11006KT 060V180 9999 FEW049 26/13 Q1024",
      "taf": "TAF EGGP 151103Z 1512/1612 09008KT CAVOK"
    },
    {
      "icao": "EGGW",
      "alert": "OK",
      "vis_m": 9999,
      "fzfg": false,
      "metar_trigger": false,
      "taf_trigger": false,
      "metar": "METAR EGGW 151420Z AUTO 04012KT 010V080 9999 BKN049 27/14 Q1023",
      "taf": "TAF EGGW 151056Z 1512/1612 05010KT 9999 FEW040"
    },
    {
      "icao": "EGKK",
      "alert": "OK",
      "vis_m": 9999,
      "fzfg": false,
      "metar_trigger": false,
      "taf_trigger": false,
      "metar": "METAR EGKK 151420Z 05015KT 9999 FEW048 28/13 Q1022",
      "taf": "TAF EGKK 151057Z 1512/1618 06014KT 9999 FEW040"
    },
    {
      "icao": "EGNM",
      "alert": "OK",
      "vis_m": 9999,
      "fzfg": false,
      "metar_trigger": false,
      "taf_trigger": false,
      "metar": "METAR EGNM 151420Z 05004KT 350V150 CAVOK 22/13 Q1026",
      "taf": "TAF EGNM 151104Z 1512/1612 06009KT 9999 BKN009"
    },
    {
      "icao": "EGPD",
      "alert": "OK",
      "vis_m": 9999,
      "fzfg": false,
      "metar_trigger": false,
      "taf_trigger": false,
      "metar": "METAR EGPD 151420Z AUTO 13008KT 090V160 9999 NCD 17/11 Q1028",
      "taf": "TAF EGPD 151054Z 1512/1612 11010KT 9999 SCT016"
    },
    {
      "icao": "EGPF",
      "alert": "OK",
      "vis_m": 9999,
      "fzfg": false,
      "metar_trigger": false,
      "taf_trigger": false,
      "metar": "METAR EGPF 151420Z AUTO 05008KT 030V110 9999 NCD 24/12 Q1027",
      "taf": "TAF EGPF 151055Z 1512/1612 07006KT CAVOK"
    },
    {
      "icao": "EHBK",
      "alert": "OK",
      "vis_m": 9999,
      "fzfg": false,
      "metar_trigger": false,
      "taf_trigger": false,
      "metar": "METAR EHBK 151355Z AUTO 04011KT 360V080 9999 NSC 29/11 Q1019 NOSIG",
      "taf": "TAF EHBK 151102Z 1512/1618 05011KT CAVOK"
    },
    {
      "icao": "EHEH",
      "alert": "OK",
      "vis_m": 9999,
      "fzfg": false,
      "metar_trigger": false,
      "taf_trigger": false,
      "metar": "METAR EHEH 151355Z AUTO 04013KT 350V090 9999 NCD 29/08 Q1020 BLU NOSIG RMK TREND REMOTE BY EHWX",
      "taf": "TAF EHEH 151104Z 1512/1618 06011KT CAVOK"
    },
    {
      "icao": "EKBI",
      "alert": "OK",
      "vis_m": 9999,
      "fzfg": false,
      "metar_trigger": false,
      "taf_trigger": false,
      "metar": "METAR EKBI 151420Z AUTO 07010KT 040V120 9999 NCD 28/09 Q1024",
      "taf": "TAF EKBI 151127Z 1512/1612 05006KT CAVOK"
    },
    {
      "icao": "EKCH",
      "alert": "OK",
      "vis_m": 9999,
      "fzfg": false,
      "metar_trigger": false,
      "taf_trigger": false,
      "metar": "METAR EKCH 151420Z AUTO 20009KT 9999 NCD 24/11 Q1024 NOSIG",
      "taf": "TAF EKCH 151127Z 1512/1612 VRB04KT CAVOK"
    },
    {
      "icao": "ENAL",
      "alert": "OK",
      "vis_m": 9999,
      "fzfg": false,
      "metar_trigger": false,
      "taf_trigger": false,
      "metar": "METAR ENAL 151350Z 06007KT 9999 FEW011 15/12 Q1028",
      "taf": "TAF ENAL 151100Z 1512/1521 04009KT 9999 SCT008 BKN012"
    },
    {
      "icao": "ENBR",
      "alert": "OK",
      "vis_m": 9999,
      "fzfg": false,
      "metar_trigger": false,
      "taf_trigger": false,
      "metar": "METAR ENBR 151350Z 32009KT CAVOK 20/14 Q1026 NOSIG RMK WIND 1200FT 29005KT",
      "taf": "TAF ENBR 151100Z 1512/1612 33008KT CAVOK"
    },
    {
      "icao": "ENGM",
      "alert": "OK",
      "vis_m": 9999,
      "fzfg": false,
      "metar_trigger": false,
      "taf_trigger": false,
      "metar": "METAR ENGM 151350Z 20008KT 160V230 CAVOK 31/11 Q1024 NOSIG",
      "taf": "TAF ENGM 151100Z 1512/1612 18010KT CAVOK"
    },
    {
      "icao": "ENHD",
      "alert": "OK",
      "vis_m": 450,
      "fzfg": false,
      "metar_trigger": false,
      "taf_trigger": false,
      "metar": "METAR ENHD 151350Z 35011KT 0450 R13/0750N R31/0700N FG VV002 14/12 Q1026",
      "taf": "TAF ENHD 151100Z 1512/1521 34012KT 0400 FG VV001"
    },
    {
      "icao": "ENTC",
      "alert": "OK",
      "vis_m": 9999,
      "fzfg": false,
      "metar_trigger": false,
      "taf_trigger": false,
      "metar": "METAR ENTC 151350Z 27009KT 9999 -RA BKN010 11/10 Q1020 TEMPO 4500 RADZ BKN009 RMK WIND 2600FT 22013KT",
      "taf": ""
    },
    {
      "icao": "ENTO",
      "alert": "OK",
      "vis_m": 9999,
      "fzfg": false,
      "metar_trigger": false,
      "taf_trigger": false,
      "metar": "METAR ENTO 151350Z 19008KT CAVOK 29/13 Q1024 NOSIG",
      "taf": "TAF ENTO 151100Z 1512/1612 36005KT CAVOK"
    },
    {
      "icao": "ENVA",
      "alert": "OK",
      "vis_m": 9999,
      "fzfg": false,
      "metar_trigger": false,
      "taf_trigger": false,
      "metar": "METAR ENVA 151350Z 24007KT CAVOK 18/11 Q1028 NOSIG RMK WIND 670FT 29009KT",
      "taf": "TAF ENVA 151100Z 1512/1612 27006KT CAVOK"
    },
    {
      "icao": "ENZV",
      "alert": "OK",
      "vis_m": 9999,
      "fzfg": false,
      "metar_trigger": false,
      "taf_trigger": false,
      "metar": "METAR ENZV 151350Z 29008KT CAVOK 20/14 Q1026 NOSIG",
      "taf": "TAF ENZV 151100Z 1512/1612 30008KT CAVOK"
    },
    {
      "icao": "EPGD",
      "alert": "OK",
      "vis_m": 9999,
      "fzfg": false,
      "metar_trigger": false,
      "taf_trigger": false,
      "metar": "METAR EPGD 151400Z 06008KT 030V090 9999 FEW017 21/17 Q1023",
      "taf": "TAF EPGD 151130Z 1512/1612 03008KT 9999 BKN005"
    },
    {
      "icao": "EPKK",
      "alert": "OK",
      "vis_m": 9999,
      "fzfg": false,
      "metar_trigger": false,
      "taf_trigger": false,
      "metar": "METAR EPKK 151400Z 25003KT 220V290 9999 FEW020 22/16 Q1019",
      "taf": "TAF EPKK 151130Z 1512/1612 05004KT 9999 FEW007 SCT044"
    },
    {
      "icao": "EPKT",
      "alert": "OK",
      "vis_m": 9999,
      "fzfg": false,
      "metar_trigger": false,
      "taf_trigger": false,
      "metar": "METAR EPKT 151400Z 32005KT 250V020 9999 BKN014 22/17 Q1020",
      "taf": "TAF EPKT 151130Z 1512/1612 29005KT 9999 FEW006 BKN009"
    },
    {
      "icao": "EPLB",
      "alert": "OK",
      "vis_m": 9999,
      "fzfg": false,
      "metar_trigger": false,
      "taf_trigger": false,
      "metar": "METAR EPLB 151400Z 03006KT 360V070 CAVOK 30/16 Q1018",
      "taf": "TAF EPLB 151130Z 1512/1612 VRB05KT CAVOK"
    },
    {
      "icao": "EPMO",
      "alert": "OK",
      "vis_m": 9999,
      "fzfg": false,
      "metar_trigger": false,
      "taf_trigger": false,
      "metar": "METAR EPMO 151400Z 01008KT 330V030 CAVOK 28/14 Q1019",
      "taf": "TAF EPMO 151130Z 1512/1612 02005KT CAVOK"
    },
    {
      "icao": "EPPO",
      "alert": "OK",
      "vis_m": 9999,
      "fzfg": false,
      "metar_trigger": false,
      "taf_trigger": false,
      "metar": "METAR EPPO 151400Z 32003KT 9999 -SHRA SCT076CB 19/16 Q1022",
      "taf": "TAF EPPO 151130Z 1512/1612 VRB02KT CAVOK"
    },
    {
      "icao": "EPRA",
      "alert": "OK",
      "vis_m": 9999,
      "fzfg": false,
      "metar_trigger": false,
      "taf_trigger": false,
      "metar": "METAR EPRA 151400Z 06010KT CAVOK 29/16 Q1018",
      "taf": "TAF EPRA 151130Z 1512/1521 06006KT 9999 SCT040"
    },
    {
      "icao": "EPRZ",
      "alert": "OK",
      "vis_m": 9999,
      "fzfg": false,
      "metar_trigger": false,
      "taf_trigger": false,
      "metar": "METAR EPRZ 151400Z 27004KT 9999 TS BKN036CB 25/21 Q1019",
      "taf": ""
    },
    {
      "icao": "EPSC",
      "alert": "OK",
      "vis_m": 9999,
      "fzfg": false,
      "metar_trigger": false,
      "taf_trigger": false,
      "metar": "METAR EPSC 151400Z 03005KT 330V100 CAVOK 25/12 Q1021",
      "taf": "TAF EPSC 151130Z 1512/1612 VRB05KT 9999 SCT045"
    },
    {
      "icao": "EPSY",
      "alert": "OK",
      "vis_m": 9999,
      "fzfg": false,
      "metar_trigger": false,
      "taf_trigger": false,
      "metar": "METAR EPSY 151400Z 03007KT 350V070 9999 SCT028 24/15 Q1021",
      "taf": "TAF EPSY 151130Z 1512/1521 01008KT 9999 SCT020"
    },
    {
      "icao": "EPWA",
      "alert": "OK",
      "vis_m": 9999,
      "fzfg": false,
      "metar_trigger": false,
      "taf_trigger": false,
      "metar": "METAR EPWA 151400Z 34008KT 310V010 CAVOK 28/14 Q1019 NOSIG",
      "taf": "TAF EPWA 151130Z 1512/1612 02005KT CAVOK"
    },
    {
      "icao": "EPWR",
      "alert": "OK",
      "vis_m": 9999,
      "fzfg": false,
      "metar_trigger": false,
      "taf_trigger": false,
      "metar": "METAR EPWR 151400Z 31007KT 9999 SCT009 BKN013 19/17 Q1021",
      "taf": "TAF EPWR 151130Z 1512/1612 03008KT 9999 BKN009"
    },
    {
      "icao": "ESGG",
      "alert": "OK",
      "vis_m": 9999,
      "fzfg": false,
      "metar_trigger": false,
      "taf_trigger": false,
      "metar": "METAR ESGG 151420Z 35008KT CAVOK 30/11 Q1023",
      "taf": "TAF ESGG 151130Z 1512/1612 02007KT CAVOK"
    },
    {
      "icao": "ESKN",
      "alert": "OK",
      "vis_m": 9999,
      "fzfg": false,
      "metar_trigger": false,
      "taf_trigger": false,
      "metar": "METAR ESKN 151420Z VRB03KT CAVOK 30/12 Q1023",
      "taf": "TAF ESKN 151130Z 1512/1612 04007KT CAVOK"
    },
    {
      "icao": "ESMS",
      "alert": "OK",
      "vis_m": 9999,
      "fzfg": false,
      "metar_trigger": false,
      "taf_trigger": false,
      "metar": "METAR ESMS 151420Z 18005KT 150V250 CAVOK 26/12 Q1023",
      "taf": "TAF ESMS 151130Z 1512/1612 15008KT CAVOK"
    },
    {
      "icao": "ESSA",
      "alert": "OK",
      "vis_m": 9999,
      "fzfg": false,
      "metar_trigger": false,
      "taf_trigger": false,
      "metar": "METAR ESSA 151420Z 31005KT 260V030 CAVOK 26/07 Q1022 NOSIG",
      "taf": "TAF ESSA 151130Z 1512/1612 03007KT CAVOK"
    },
    {
      "icao": "EYKA",
      "alert": "OK",
      "vis_m": 9999,
      "fzfg": false,
      "metar_trigger": false,
      "taf_trigger": false,
      "metar": "METAR EYKA 151420Z 35007KT 320V030 9999 FEW040 26/16 Q1019",
      "taf": "TAF EYKA 151100Z 1512/1612 VRB03KT 9000 SCT030"
    },
    {
      "icao": "EYPA",
      "alert": "OK",
      "vis_m": 9999,
      "fzfg": false,
      "metar_trigger": false,
      "taf_trigger": false,
      "metar": "METAR EYPA 151420Z 35007KT 280V060 CAVOK 20/15 Q1022",
      "taf": "TAF EYPA 151100Z 1512/1612 VRB03KT 9000 NSC"
    },
    {
      "icao": "EYVI",
      "alert": "OK",
      "vis_m": 9999,
      "fzfg": false,
      "metar_trigger": false,
      "taf_trigger": false,
      "metar": "METAR EYVI 151420Z 34011KT 9999 SCT044 25/15 Q1019 NOSIG",
      "taf": "TAF EYVI 151100Z 1512/1612 33010KT 9000 SCT035"
    },
    {
      "icao": "GCFV",
      "alert": "OK",
      "vis_m": 9999,
      "fzfg": false,
      "metar_trigger": false,
      "taf_trigger": false,
      "metar": "METAR GCFV 151400Z 04014KT CAVOK 26/21 Q1017",
      "taf": "TAF GCFV 150800Z 1509/1609 04014KT 9999 FEW020 TX28/1514Z TN22/1606Z"
    },
    {
      "icao": "GCLP",
      "alert": "OK",
      "vis_m": 9999,
      "fzfg": false,
      "metar_trigger": false,
      "taf_trigger": false,
      "metar": "METAR GCLP 151400Z 02022KT 9999 FEW020 28/21 Q1017 NOSIG",
      "taf": "TAF GCLP 151400Z 1515/1615 02021KT 9999 FEW020 TX29/1614Z TN23/1606Z"
    },
    {
      "icao": "GCTS",
      "alert": "OK",
      "vis_m": 9999,
      "fzfg": false,
      "metar_trigger": false,
      "taf_trigger": false,
      "metar": "METAR GCTS 151400Z 24009KT 200V290 CAVOK 28/19 Q1018 WS R07 NOSIG",
      "taf": "TAF GCTS 151400Z 1515/1615 09016KT CAVOK TX31/1614Z TN21/1606Z"
    },
    {
      "icao": "GMAD",
      "alert": "OK",
      "vis_m": 9999,
      "fzfg": false,
      "metar_trigger": false,
      "taf_trigger": false,
      "metar": "METAR GMAD 151400Z 25012KT CAVOK 31/17 Q1014 NOSIG",
      "taf": "TAF GMAD 151100Z 1512/1618 27012KT CAVOK"
    },
    {
      "icao": "GMMN",
      "alert": "OK",
      "vis_m": 9999,
      "fzfg": false,
      "metar_trigger": false,
      "taf_trigger": false,
      "metar": "METAR GMMN 151400Z 02013KT 330V050 CAVOK 29/19 Q1018 NOSIG",
      "taf": "TAF GMMN 151100Z 1512/1618 36014KT CAVOK"
    },
    {
      "icao": "GMMX",
      "alert": "OK",
      "vis_m": 8000,
      "fzfg": false,
      "metar_trigger": false,
      "taf_trigger": false,
      "metar": "METAR GMMX 151400Z 28004KT 8000 SCT023 39/16 Q1017 NOSIG",
      "taf": "TAF GMMX 151100Z 1512/1618 06006KT 8000 SCT033 SCT100"
    },
    {
      "icao": "HEGN",
      "alert": "OK",
      "vis_m": 9999,
      "fzfg": false,
      "metar_trigger": false,
      "taf_trigger": false,
      "metar": "METAR HEGN 151400Z 35011KT CAVOK 36/12 Q1005 NOSIG",
      "taf": "TAF HEGN 151100Z 1512/1618 02018KT CAVOK"
    },
    {
      "icao": "HEMA",
      "alert": "OK",
      "vis_m": 9999,
      "fzfg": false,
      "metar_trigger": false,
      "taf_trigger": false,
      "metar": "METAR HEMA 151400Z 33014KT CAVOK 33/14 Q1005 NOSIG",
      "taf": "TAF HEMA 151100Z 1512/1618 36018KT CAVOK"
    },
    {
      "icao": "HESH",
      "alert": "OK",
      "vis_m": 9999,
      "fzfg": false,
      "metar_trigger": false,
      "taf_trigger": false,
      "metar": "METAR HESH 151300Z 03007KT CAVOK 39/10 Q1005 NOSIG",
      "taf": "TAF HESH 151100Z 1512/1618 02015KT CAVOK"
    },
    {
      "icao": "HESX",
      "alert": "OK",
      "vis_m": 9999,
      "fzfg": false,
      "metar_trigger": false,
      "taf_trigger": false,
      "metar": "METAR HESX 151400Z 33009KT CAVOK 33/15 Q1008 NOSIG",
      "taf": "TAF HESX 151100Z 1512/1618 33010KT CAVOK"
    },
    {
      "icao": "LATI",
      "alert": "OK",
      "vis_m": 9999,
      "fzfg": false,
      "metar_trigger": false,
      "taf_trigger": false,
      "metar": "METAR LATI 151420Z 34010KT 310V010 CAVOK 34/16 Q1015 NOSIG",
      "taf": "TAF LATI 151100Z 1512/1612 32010KT CAVOK TX36/1512Z TN18/1604Z"
    },
    {
      "icao": "LBPD",
      "alert": "OK",
      "vis_m": 9999,
      "fzfg": false,
      "metar_trigger": false,
      "taf_trigger": false,
      "metar": "METAR LBPD 151400Z AUTO VRB03KT 9999 FEW120/// 34/12 Q1015 NOSIG",
      "taf": "TAF LBPD 151100Z 1512/1612 VRB03KT CAVOK"
    },
    {
      "icao": "LBSF",
      "alert": "OK",
      "vis_m": 9999,
      "fzfg": false,
      "metar_trigger": false,
      "taf_trigger": false,
      "metar": "METAR LBSF 151400Z VRB03KT 9999 SCT068 32/10 Q1017 NOSIG",
      "taf": "TAF LBSF 151100Z 1512/1612 06010KT 9999 SCT060"
    },
    {
      "icao": "LBWN",
      "alert": "OK",
      "vis_m": 9999,
      "fzfg": false,
      "metar_trigger": false,
      "taf_trigger": false,
      "metar": "METAR LBWN 151400Z AUTO 12008KT 9999 NSC 28/20 Q1015 NOSIG",
      "taf": "TAF LBWN 151100Z 1512/1612 12012KT 9999 SCT045"
    },
    {
      "icao": "LCLK",
      "alert": "OK",
      "vis_m": 9999,
      "fzfg": false,
      "metar_trigger": false,
      "taf_trigger": false,
      "metar": "METAR LCLK 151400Z 20011KT 9999 FEW030 33/21 Q1006 NOSIG",
      "taf": "TAF LCLK 151130Z 1512/1612 21014KT 9999 FEW020"
    },
    {
      "icao": "LCPH",
      "alert": "OK",
      "vis_m": 9999,
      "fzfg": false,
      "metar_trigger": false,
      "taf_trigger": false,
      "metar": "METAR LCPH 151400Z 27010KT 250V320 9999 FEW030 29/25 Q1007 NOSIG",
      "taf": "TAF LCPH 151130Z 1512/1612 29010KT 9999 FEW020"
    },
    {
      "icao": "LEAL",
      "alert": "OK",
      "vis_m": 9999,
      "fzfg": false,
      "metar_trigger": false,
      "taf_trigger": false,
      "metar": "METAR LEAL 151400Z VRB05KT CAVOK 35/23 Q1016 NOSIG",
      "taf": "TAF LEAL 151100Z 1512/1612 18012KT CAVOK TX37/1515Z TN25/1605Z"
    },
    {
      "icao": "LEBB",
      "alert": "OK",
      "vis_m": 9999,
      "fzfg": false,
      "metar_trigger": false,
      "taf_trigger": false,
      "metar": "METAR LEBB 151400Z 31008KT 270V350 9999 FEW037 31/21 Q1018 NOSIG",
      "taf": "TAF LEBB 151100Z 1512/1612 32009KT 9999 SCT025 TX28/1514Z TN19/1606Z"
    },
    {
      "icao": "LEBL",
      "alert": "OK",
      "vis_m": 8000,
      "fzfg": false,
      "metar_trigger": false,
      "taf_trigger": false,
      "metar": "METAR LEBL 151400Z 22016KT 8000 FEW015 FEW090TCU 31/25 Q1015 NOSIG",
      "taf": ""
    },
    {
      "icao": "LECH",
      "alert": "OK",
      "vis_m": 9999,
      "fzfg": false,
      "metar_trigger": false,
      "taf_trigger": false,
      "metar": "METAR LECH 151400Z AUTO 14008KT CAVOK 31/23 Q1018",
      "taf": "TAF LECH 151100Z 1512/1612 VRB04KT CAVOK TX34/1515Z TN25/1605Z"
    },
    {
      "icao": "LEMD",
      "alert": "OK",
      "vis_m": 9999,
      "fzfg": false,
      "metar_trigger": false,
      "taf_trigger": false,
      "metar": "METAR LEMD 151400Z 23013KT 200V260 CAVOK 35/07 Q1019 NOSIG",
      "taf": "TAF LEMD 151100Z 1512/1618 21010KT CAVOK TX37/1516Z TN20/1605Z"
    },
    {
      "icao": "LEMG",
      "alert": "OK",
      "vis_m": 9999,
      "fzfg": false,
      "metar_trigger": false,
      "taf_trigger": false,
      "metar": "METAR LEMG 151400Z 15006KT 100V210 CAVOK 36/12 Q1015 NOSIG",
      "taf": "TAF LEMG 151100Z 1512/1612 27007KT CAVOK TX38/1514Z TN22/1605Z"
    },
    {
      "icao": "LEVC",
      "alert": "OK",
      "vis_m": 9999,
      "fzfg": false,
      "metar_trigger": false,
      "taf_trigger": false,
      "metar": "METAR LEVC 151400Z 08012KT 050V110 CAVOK 34/19 Q1015 NOSIG",
      "taf": "TAF LEVC 151100Z 1512/1612 32008KT 9999 FEW070 TX42/1515Z TN25/1605Z"
    },
    {
      "icao": "LEXJ",
      "alert": "OK",
      "vis_m": 9999,
      "fzfg": false,
      "metar_trigger": false,
      "taf_trigger": false,
      "metar": "METAR LEXJ 151400Z 35007KT 280V050 9999 SCT057 27/20 Q1018",
      "taf": "TAF LEXJ 151400Z 1515/1615 24005KT 9999 SCT040 TX26/1613Z TN20/1604Z"
    },
    {
      "icao": "LEZG",
      "alert": "OK",
      "vis_m": 9999,
      "fzfg": false,
      "metar_trigger": false,
      "taf_trigger": false,
      "metar": "METAR LEZG 151400Z 14004KT CAVOK 39/10 Q1015 NOSIG",
      "taf": "TAF LEZG 151100Z 1512/1612 VRB04KT CAVOK TX43/1515Z TN22/1605Z"
    },
    {
      "icao": "LEZL",
      "alert": "OK",
      "vis_m": 9999,
      "fzfg": false,
      "metar_trigger": false,
      "taf_trigger": false,
      "metar": "METAR LEZL 151400Z 21003KT CAVOK 34/08 Q1016 NOSIG",
      "taf": "TAF LEZL 150800Z 1509/1609 VRB03KT 9999 FEW020 TX36/1515Z TN21/1605Z"
    },
    {
      "icao": "LFBD",
      "alert": "OK",
      "vis_m": 9999,
      "fzfg": false,
      "metar_trigger": false,
      "taf_trigger": false,
      "metar": "METAR LFBD 151400Z AUTO 24004KT 180V330 CAVOK 33/18 Q1016 NOSIG",
      "taf": "TAF LFBD 151100Z 1512/1618 03005KT CAVOK TX35/1515Z TN21/1605Z"
    },
    {
      "icao": "LFLL",
      "alert": "OK",
      "vis_m": 9999,
      "fzfg": false,
      "metar_trigger": false,
      "taf_trigger": false,
      "metar": "METAR LFLL 151400Z 14011KT 9999 TS FEW056 SCT073CB BKN110 24/19 Q1018 RESHRA BECMG NSW",
      "taf": "TAF LFLL 151100Z 1512/1618 11008KT CAVOK"
    },
    {
      "icao": "LFLS",
      "alert": "OK",
      "vis_m": 9999,
      "fzfg": false,
      "metar_trigger": false,
      "taf_trigger": false,
      "metar": "METAR LFLS 151400Z AUTO 36011KT 9999 VCTS ///CB 27/19 Q1019 TEMPO VRB20G40KT 3000 TSRAGR",
      "taf": ""
    },
    {
      "icao": "LFMN",
      "alert": "OK",
      "vis_m": 9999,
      "fzfg": false,
      "metar_trigger": false,
      "taf_trigger": false,
      "metar": "METAR LFMN 151400Z 18008KT 9999 SCT021 30/25 Q1015 NOSIG",
      "taf": "TAF LFMN 150800Z 1509/1615 17010KT 9999 FEW033"
    },
    {
      "icao": "LFOB",
      "alert": "OK",
      "vis_m": 9999,
      "fzfg": false,
      "metar_trigger": false,
      "taf_trigger": false,
      "metar": "METAR LFOB 151400Z AUTO 04012KT CAVOK 29/13 Q1018 NOSIG",
      "taf": "TAF LFOB 151100Z 1512/1612 04010KT CAVOK"
    },
    {
      "icao": "LFPO",
      "alert": "OK",
      "vis_m": 9999,
      "fzfg": false,
      "metar_trigger": false,
      "taf_trigger": false,
      "metar": "METAR LFPO 151400Z 04011KT 360V090 CAVOK 32/11 Q1017 NOSIG",
      "taf": "TAF LFPO 151100Z 1512/1618 04010KT CAVOK"
    },
    {
      "icao": "LFSB",
      "alert": "OK",
      "vis_m": 9999,
      "fzfg": false,
      "metar_trigger": false,
      "taf_trigger": false,
      "metar": "METAR LFSB 151400Z AUTO 36010KT 9999 ///CB 28/19 Q1016 TEMPO 24015G30KT 3000 TSRA",
      "taf": "TAF LFSB 151100Z 1512/1612 33005KT 9999 FEW050 SCT150"
    },
    {
      "icao": "LGAV",
      "alert": "OK",
      "vis_m": 9999,
      "fzfg": false,
      "metar_trigger": false,
      "taf_trigger": false,
      "metar": "METAR LGAV 151420Z 05017KT 9999 FEW025 32/12 Q1015 NOSIG",
      "taf": "TAF LGAV 151100Z 1512/1612 06015KT 9999 FEW025"
    },
    {
      "icao": "LGTS",
      "alert": "OK",
      "vis_m": 9999,
      "fzfg": false,
      "metar_trigger": false,
      "taf_trigger": false,
      "metar": "METAR LGTS 151350Z 20011KT 9999 FEW025 34/15 Q1014 NOSIG",
      "taf": "TAF LGTS 151100Z 1512/1612 16013KT 9999 FEW030"
    },
    {
      "icao": "LHBP",
      "alert": "OK",
      "vis_m": 9999,
      "fzfg": false,
      "metar_trigger": false,
      "taf_trigger": false,
      "metar": "METAR LHBP 151400Z 13005KT 070V180 9999 SCT049 BKN210 29/17 Q1017 NOSIG",
      "taf": "TAF LHBP 151115Z 1512/1612 09006KT CAVOK"
    },
    {
      "icao": "LHDC",
      "alert": "OK",
      "vis_m": 9999,
      "fzfg": false,
      "metar_trigger": false,
      "taf_trigger": false,
      "metar": "METAR LHDC 151345Z AUTO 36005KT 300V060 CAVOK 28/16 Q1017 NOSIG",
      "taf": "TAF LHDC 151115Z 1512/1521 35006KT CAVOK"
    },
    {
      "icao": "LIBD",
      "alert": "OK",
      "vis_m": 9999,
      "fzfg": false,
      "metar_trigger": false,
      "taf_trigger": false,
      "metar": "METAR LIBD 151350Z 05005KT 320V090 CAVOK 34/20 Q1015",
      "taf": "TAF LIBD 151100Z 1512/1612 04010KT CAVOK"
    },
    {
      "icao": "LIBG",
      "alert": "OK",
      "vis_m": 9999,
      "fzfg": false,
      "metar_trigger": false,
      "taf_trigger": false,
      "metar": "METAR LIBG 151350Z AUTO 20006KT 150V260 9999 NCD 36/15 Q1014",
      "taf": "TAF LIBG 151100Z 1512/1612 VRB05KT 9999 FEW030"
    },
    {
      "icao": "LIBP",
      "alert": "OK",
      "vis_m": 9999,
      "fzfg": false,
      "metar_trigger": false,
      "taf_trigger": false,
      "metar": "METAR LIBP 151350Z AUTO 06008KT 040V100 9999 NCD 33/17 Q1016",
      "taf": "TAF LIBP 151100Z 1512/1612 08010KT CAVOK"
    },
    {
      "icao": "LIBR",
      "alert": "OK",
      "vis_m": 9999,
      "fzfg": false,
      "metar_trigger": false,
      "taf_trigger": false,
      "metar": "METAR LIBR 151350Z 10008KT CAVOK 31/18 Q1015",
      "taf": "TAF LIBR 151100Z 1512/1612 VRB05KT CAVOK"
    },
    {
      "icao": "LICA",
      "alert": "OK",
      "vis_m": 9999,
      "fzfg": false,
      "metar_trigger": false,
      "taf_trigger": false,
      "metar": "METAR LICA 151350Z AUTO 23011KT 9999 NCD 32/23 Q1015",
      "taf": "TAF LICA 151100Z 1512/1612 27013KT 9999 FEW015"
    },
    {
      "icao": "LICC",
      "alert": "OK",
      "vis_m": 9999,
      "fzfg": false,
      "metar_trigger": false,
      "taf_trigger": false,
      "metar": "METAR LICC 151350Z 06010KT CAVOK 36/17 Q1015",
      "taf": "TAF LICC 151100Z 1512/1612 09012KT CAVOK"
    },
    {
      "icao": "LICJ",
      "alert": "OK",
      "vis_m": 9999,
      "fzfg": false,
      "metar_trigger": false,
      "taf_trigger": false,
      "metar": "METAR LICJ 151350Z 36008KT 9999 FEW018 29/25 Q1016",
      "taf": "TAF LICJ 151100Z 1512/1612 35012KT CAVOK"
    },
    {
      "icao": "LIMC",
      "alert": "OK",
      "vis_m": 9999,
      "fzfg": false,
      "metar_trigger": false,
      "taf_trigger": false,
      "metar": "METAR LIMC 151350Z 23015KT 9999 VCTS SCT070CB BKN100 30/19 Q1017 TEMPO 4000 TSRA",
      "taf": "TAF LIMC 151100Z 1512/1618 VRB05KT CAVOK"
    },
    {
      "icao": "LIME",
      "alert": "OK",
      "vis_m": 9999,
      "fzfg": false,
      "metar_trigger": false,
      "taf_trigger": false,
      "metar": "METAR LIME 151350Z 30004KT 180V340 9999 FEW055 BKN100 33/19 Q1015 NOSIG",
      "taf": "TAF LIME 151100Z 1512/1612 VRB05KT CAVOK"
    },
    {
      "icao": "LIMF",
      "alert": "OK",
      "vis_m": 9999,
      "fzfg": false,
      "metar_trigger": false,
      "taf_trigger": false,
      "metar": "METAR LIMF 151350Z 04007KT 360V070 9999 SCT100 29/21 Q1015",
      "taf": "TAF LIMF 151100Z 1512/1612 VRB05KT 9999 FEW060"
    },
    {
      "icao": "LIMJ",
      "alert": "OK",
      "vis_m": 9999,
      "fzfg": false,
      "metar_trigger": false,
      "taf_trigger": false,
      "metar": "METAR LIMJ 151350Z 20005KT 160V220 9999 SCT030 28/24 Q1015",
      "taf": "TAF LIMJ 151100Z 1512/1612 20010KT 9999 FEW015"
    },
    {
      "icao": "LIPE",
      "alert": "OK",
      "vis_m": 9999,
      "fzfg": false,
      "metar_trigger": false,
      "taf_trigger": false,
      "metar": "METAR LIPE 151350Z 07007KT 040V110 CAVOK 35/21 Q1013",
      "taf": "TAF LIPE 151100Z 1512/1612 VRB05KT 9999 FEW030"
    },
    {
      "icao": "LIPH",
      "alert": "OK",
      "vis_m": 9999,
      "fzfg": false,
      "metar_trigger": false,
      "taf_trigger": false,
      "metar": "METAR LIPH 151350Z 15006KT 100V180 CAVOK 34/22 Q1014",
      "taf": "TAF LIPH 151100Z 1512/1612 12010KT 9999 SCT030"
    },
    {
      "icao": "LIPQ",
      "alert": "OK",
      "vis_m": 9999,
      "fzfg": false,
      "metar_trigger": false,
      "taf_trigger": false,
      "metar": "METAR LIPQ 151350Z AUTO VRB06KT 9999 NCD 34/15 Q1014",
      "taf": "TAF LIPQ 151100Z 1512/1612 VRB05KT 9999 SCT050"
    },
    {
      "icao": "LIPR",
      "alert": "OK",
      "vis_m": 9999,
      "fzfg": false,
      "metar_trigger": false,
      "taf_trigger": false,
      "metar": "METAR LIPR 151350Z 08009KT 060V120 CAVOK 30/25 Q1014",
      "taf": "TAF LIPR 151100Z 1512/1612 04010KT 9999 FEW030"
    },
    {
      "icao": "LIPX",
      "alert": "OK",
      "vis_m": 9999,
      "fzfg": false,
      "metar_trigger": false,
      "taf_trigger": false,
      "metar": "METAR LIPX 151350Z VRB03KT CAVOK 34/20 Q1014",
      "taf": ""
    },
    {
      "icao": "LIPY",
      "alert": "OK",
      "vis_m": 9999,
      "fzfg": false,
      "metar_trigger": false,
      "taf_trigger": false,
      "metar": "METAR LIPY 151350Z AUTO 06011KT 9999 NCD 30/24 Q1015",
      "taf": "TAF LIPY 151100Z 1512/1612 04010KT 9999 FEW050"
    },
    {
      "icao": "LIPZ",
      "alert": "OK",
      "vis_m": 9999,
      "fzfg": false,
      "metar_trigger": false,
      "taf_trigger": false,
      "metar": "METAR LIPZ 151350Z 15009KT CAVOK 31/23 Q1015 NOSIG",
      "taf": "TAF LIPZ 151100Z 1512/1618 13010KT 9999 SCT040"
    },
    {
      "icao": "LIRF",
      "alert": "OK",
      "vis_m": 9999,
      "fzfg": false,
      "metar_trigger": false,
      "taf_trigger": false,
      "metar": "METAR LIRF 151350Z 25007KT 190V280 CAVOK 31/24 Q1016 NOSIG",
      "taf": "TAF LIRF 151100Z 1512/1618 23010KT CAVOK"
    },
    {
      "icao": "LIRN",
      "alert": "OK",
      "vis_m": 9999,
      "fzfg": false,
      "metar_trigger": false,
      "taf_trigger": false,
      "metar": "METAR LIRN 151350Z 17007KT 130V230 CAVOK 32/23 Q1016 NOSIG",
      "taf": "TAF LIRN 151100Z 1512/1612 23010KT CAVOK"
    },
    {
      "icao": "LIRP",
      "alert": "OK",
      "vis_m": 9999,
      "fzfg": false,
      "metar_trigger": false,
      "taf_trigger": false,
      "metar": "METAR LIRP 151345Z 28010KT CAVOK 33/22 Q1015 NOSIG",
      "taf": "TAF LIRP 151100Z 1512/1612 27010KT 9999 FEW030"
    },
    {
      "icao": "LIRZ",
      "alert": "OK",
      "vis_m": 9999,
      "fzfg": false,
      "metar_trigger": false,
      "taf_trigger": false,
      "metar": "METAR LIRZ 151350Z AUTO 21007KT 130V250 9999 NCD 36/15 Q1016",
      "taf": "TAF LIRZ 151100Z 1512/1612 VRB05KT CAVOK"
    },
    {
      "icao": "LJLJ",
      "alert": "OK",
      "vis_m": 9999,
      "fzfg": false,
      "metar_trigger": false,
      "taf_trigger": false,
      "metar": "METAR LJLJ 151400Z 10007KT 040V130 9999 FEW060TCU 32/15 Q1016 NOSIG",
      "taf": "TAF LJLJ 151100Z 1512/1612 12003KT 9999 FEW050"
    },
    {
      "icao": "LKMT",
      "alert": "OK",
      "vis_m": 9999,
      "fzfg": false,
      "metar_trigger": false,
      "taf_trigger": false,
      "metar": "METAR LKMT 151400Z 01008KT 9999 SCT018 BKN026 21/17 Q1020 NOSIG",
      "taf": "TAF LKMT 151100Z 1512/1612 02006KT 9999 SCT012 BKN027"
    },
    {
      "icao": "LKPR",
      "alert": "OK",
      "vis_m": 9999,
      "fzfg": false,
      "metar_trigger": false,
      "taf_trigger": false,
      "metar": "METAR LKPR 151400Z 01005KT 300V090 CAVOK 27/13 Q1019 NOSIG",
      "taf": "TAF LKPR 151400Z 1515/1621 02004KT CAVOK"
    },
    {
      "icao": "LLBG",
      "alert": "OK",
      "vis_m": 9999,
      "fzfg": false,
      "metar_trigger": false,
      "taf_trigger": false,
      "metar": "METAR LLBG 151420Z 31007KT 270V330 CAVOK 30/21 Q1007 NOSIG",
      "taf": "TAF LLBG 151101Z 1512/1612 28010KT CAVOK TX32/1512Z TN24/1603Z"
    },
    {
      "icao": "LMML",
      "alert": "OK",
      "vis_m": 9999,
      "fzfg": false,
      "metar_trigger": false,
      "taf_trigger": false,
      "metar": "METAR LMML 151415Z 24014KT CAVOK 31/21 Q1017 NOSIG",
      "taf": "TAF LMML 151100Z 1512/1612 25012KT CAVOK"
    },
    {
      "icao": "LOWW",
      "alert": "OK",
      "vis_m": 9999,
      "fzfg": false,
      "metar_trigger": false,
      "taf_trigger": false,
      "metar": "METAR LOWW 151350Z 01007KT 330V050 CAVOK 31/14 Q1017 NOSIG",
      "taf": "TAF LOWW 151415Z 1515/1621 01005KT 9999 FEW050 TX31/1615Z TN18/1603Z"
    },
    {
      "icao": "LPFR",
      "alert": "OK",
      "vis_m": 9999,
      "fzfg": false,
      "metar_trigger": false,
      "taf_trigger": false,
      "metar": "METAR LPFR 151400Z 25013KT CAVOK 26/19 Q1018",
      "taf": "TAF LPFR 151100Z 1512/1612 24013KT CAVOK"
    },
    {
      "icao": "LPMA",
      "alert": "OK",
      "vis_m": 9999,
      "fzfg": false,
      "metar_trigger": false,
      "taf_trigger": false,
      "metar": "METAR LPMA 151400Z 17008KT 9999 SCT015 BKN030 25/21 Q1020",
      "taf": "TAF LPMA 151100Z 1512/1612 16010KT 9999 SCT015"
    },
    {
      "icao": "LPPR",
      "alert": "OK",
      "vis_m": 9999,
      "fzfg": false,
      "metar_trigger": false,
      "taf_trigger": false,
      "metar": "METAR LPPR 151400Z 27006KT 220V340 9999 FEW015 22/18 Q1020",
      "taf": "TAF LPPR 151100Z 1512/1612 27008KT 9999 SCT015"
    },
    {
      "icao": "LPPS",
      "alert": "OK",
      "vis_m": 9999,
      "fzfg": false,
      "metar_trigger": false,
      "taf_trigger": false,
      "metar": "METAR LPPS 151400Z 16008KT 110V190 9999 SCT015 26/20 Q1021",
      "taf": "TAF LPPS 151100Z 1512/1618 16008KT 9999 SCT015"
    },
    {
      "icao": "LPPT",
      "alert": "OK",
      "vis_m": 9999,
      "fzfg": false,
      "metar_trigger": false,
      "taf_trigger": false,
      "metar": "METAR LPPT 151400Z 23009KT 9999 FEW040 27/16 Q1019 NOSIG",
      "taf": "TAF LPPT 151100Z 1512/1618 24010KT 9999 FEW030"
    },
    {
      "icao": "LQBK",
      "alert": "OK",
      "vis_m": 9999,
      "fzfg": false,
      "metar_trigger": false,
      "taf_trigger": false,
      "metar": "METAR LQBK 151400Z 32007KT 230V350 CAVOK 33/16 Q1016 NOSIG",
      "taf": "TAF LQBK 151100Z 1512/1612 14005KT CAVOK TX34/1514Z TN17/1603Z"
    },
    {
      "icao": "LQSA",
      "alert": "OK",
      "vis_m": 9999,
      "fzfg": false,
      "metar_trigger": false,
      "taf_trigger": false,
      "metar": "METAR LQSA 151400Z 33008KT 300V030 9999 FEW040TCU 32/15 Q1017 TEMPO TS FEW035CB SCT045",
      "taf": "TAF LQSA 151100Z 1512/1612 VRB02KT 9999 SCT050 TX32/1513Z TN17/1604Z"
    },
    {
      "icao": "LQTZ",
      "alert": "OK",
      "vis_m": 9999,
      "fzfg": false,
      "metar_trigger": false,
      "taf_trigger": false,
      "metar": "METAR LQTZ 151400Z 34006KT 260V050 9999 FEW054 SCT066 32/18 Q1016",
      "taf": "TAF LQTZ 151100Z 1512/1612 VRB02KT CAVOK TX32/1514Z TN16/1603Z"
    },
    {
      "icao": "LRBC",
      "alert": "OK",
      "vis_m": 9999,
      "fzfg": false,
      "metar_trigger": false,
      "taf_trigger": false,
      "metar": "METAR LRBC 151400Z 33007KT 9999 FEW058 30/17 Q1017",
      "taf": "TAF LRBC 151100Z 1512/1521 01010KT 9999 FEW045"
    },
    {
      "icao": "LRBS",
      "alert": "OK",
      "vis_m": 9999,
      "fzfg": false,
      "metar_trigger": false,
      "taf_trigger": false,
      "metar": "METAR LRBS 151400Z VRB02KT CAVOK 32/17 Q1016 NOSIG",
      "taf": "TAF LRBS 151100Z 1512/1612 VRB04KT CAVOK"
    },
    {
      "icao": "LRBV",
      "alert": "OK",
      "vis_m": 9999,
      "fzfg": false,
      "metar_trigger": false,
      "taf_trigger": false,
      "metar": "METAR LRBV 151400Z 00000KT CAVOK 27/13 Q1019",
      "taf": "TAF LRBV 151100Z 1512/1521 VRB04KT 9999 SCT045"
    },
    {
      "icao": "LRCL",
      "alert": "OK",
      "vis_m": 9999,
      "fzfg": false,
      "metar_trigger": false,
      "taf_trigger": false,
      "metar": "METAR LRCL 151400Z 26011KT 230V290 9999 -SHRA FEW043CB SCT061 22/17 Q1019",
      "taf": "TAF LRCL 151100Z 1512/1521 12008KT 9999 SCT045"
    },
    {
      "icao": "LRCV",
      "alert": "OK",
      "vis_m": 9999,
      "fzfg": false,
      "metar_trigger": false,
      "taf_trigger": false,
      "metar": "METAR LRCV 151400Z VRB02KT CAVOK 31/16 Q1016",
      "taf": "TAF LRCV 151100Z 1512/1521 16008KT CAVOK"
    },
    {
      "icao": "LRIA",
      "alert": "OK",
      "vis_m": 9999,
      "fzfg": false,
      "metar_trigger": false,
      "taf_trigger": false,
      "metar": "METAR LRIA 151400Z 33009KT 300V020 CAVOK 31/14 Q1016",
      "taf": "TAF LRIA 151100Z 1512/1521 35010KT 9999 SCT045"
    },
    {
      "icao": "LROP",
      "alert": "OK",
      "vis_m": 9999,
      "fzfg": false,
      "metar_trigger": false,
      "taf_trigger": false,
      "metar": "METAR LROP 151400Z VRB02KT CAVOK 32/16 Q1016 NOSIG",
      "taf": "TAF LROP 151100Z 1512/1612 VRB04KT CAVOK"
    },
    {
      "icao": "LRSB",
      "alert": "OK",
      "vis_m": 9999,
      "fzfg": false,
      "metar_trigger": false,
      "taf_trigger": false,
      "metar": "METAR LRSB 151400Z 04008KT 9999 FEW053 FEW055TCU 29/16 Q1018 NOSIG",
      "taf": "TAF LRSB 151100Z 1512/1612 VRB04KT 9999 SCT045"
    },
    {
      "icao": "LRSM",
      "alert": "OK",
      "vis_m": 9999,
      "fzfg": false,
      "metar_trigger": false,
      "taf_trigger": false,
      "metar": "METAR LRSM 151400Z 35008KT 330V030 9999 VCSH FEW055CB 30/17 Q1017",
      "taf": "TAF LRSM 151100Z 1512/1521 VRB04KT CAVOK"
    },
    {
      "icao": "LRSV",
      "alert": "OK",
      "vis_m": 9999,
      "fzfg": false,
      "metar_trigger": false,
      "taf_trigger": false,
      "metar": "METAR LRSV 151400Z 33006KT 280V010 9999 SCT045 28/17 Q1018",
      "taf": "TAF LRSV 151100Z 1512/1521 36010KT 9999 SCT040"
    },
    {
      "icao": "LRTM",
      "alert": "OK",
      "vis_m": 9999,
      "fzfg": false,
      "metar_trigger": false,
      "taf_trigger": false,
      "metar": "METAR LRTM 151400Z VRB02KT 9999 FEW038TCU FEW042CB 29/19 Q1017",
      "taf": "TAF LRTM 151100Z 1512/1521 VRB04KT 9999 SCT045"
    },
    {
      "icao": "LRTR",
      "alert": "OK",
      "vis_m": 9999,
      "fzfg": false,
      "metar_trigger": false,
      "taf_trigger": false,
      "metar": "METAR LRTR 151400Z 36005KT CAVOK 31/13 Q1016",
      "taf": "TAF LRTR 151100Z 1512/1612 36007KT CAVOK"
    },
    {
      "icao": "LTAC",
      "alert": "OK",
      "vis_m": 9999,
      "fzfg": false,
      "metar_trigger": false,
      "taf_trigger": false,
      "metar": "METAR LTAC 151350Z 06009KT 9999 SCT040 28/09 Q1016 NOSIG RMK RWY21C 08008KT 030V120 RWY03L 06009KT RWY21R 06006KT 020V100 RWY03R 04008KT 360V070 RWY21L 05008KT 360V070",
      "taf": "TAF LTAC 151040Z 1512/1612 04012KT 9999 SCT040"
    },
    {
      "icao": "LTFM",
      "alert": "OK",
      "vis_m": 9999,
      "fzfg": false,
      "metar_trigger": false,
      "taf_trigger": false,
      "metar": "METAR LTFM 151350Z 02009KT CAVOK 26/18 Q1016 NOSIG RMK RWY17L 03009KT RWY34L 01009KT 340V040 RWY16R 03009KT 340V060 RWY36 03010KT RWY18 03008KT 360V060",
      "taf": "TAF LTFM 151040Z 1512/1618 02012KT 9999 SCT025"
    },
    {
      "icao": "LUKK",
      "alert": "OK",
      "vis_m": 9999,
      "fzfg": false,
      "metar_trigger": false,
      "taf_trigger": false,
      "metar": "METAR LUKK 151400Z 35007KT 300V030 CAVOK 30/15 Q1015 NOSIG",
      "taf": "TAF LUKK 151102Z 1512/1612 35012KT CAVOK"
    },
    {
      "icao": "LWOH",
      "alert": "OK",
      "vis_m": 9999,
      "fzfg": false,
      "metar_trigger": false,
      "taf_trigger": false,
      "metar": "METAR LWOH 151420Z 14007KT 9999 FEW040 30/18 Q1018",
      "taf": "TAF LWOH 151120Z 1512/1612 16005KT 9999 FEW040"
    },
    {
      "icao": "LWSK",
      "alert": "OK",
      "vis_m": 9999,
      "fzfg": false,
      "metar_trigger": false,
      "taf_trigger": false,
      "metar": "METAR LWSK 151420Z VRB04KT 9999 FEW050 36/17 Q1014 NOSIG",
      "taf": "TAF LWSK 151120Z 1512/1612 VRB02KT CAVOK"
    },
    {
      "icao": "LYBE",
      "alert": "OK",
      "vis_m": 9999,
      "fzfg": false,
      "metar_trigger": false,
      "taf_trigger": false,
      "metar": "METAR LYBE 151400Z 05007KT 020V090 CAVOK 32/17 Q1016 NOSIG",
      "taf": "TAF LYBE 151100Z 1512/1612 36005KT CAVOK TX33/1514Z TN21/1603Z"
    },
    {
      "icao": "LYNI",
      "alert": "OK",
      "vis_m": 9999,
      "fzfg": false,
      "metar_trigger": false,
      "taf_trigger": false,
      "metar": "METAR LYNI 151400Z 32007KT 260V020 9999 FEW060 35/12 Q1015 NOSIG",
      "taf": "TAF LYNI 151100Z 1512/1612 32005KT 9999 SCT050 TX34/1514Z TN18/1603Z"
    },
    {
      "icao": "LYPG",
      "alert": "OK",
      "vis_m": 9999,
      "fzfg": false,
      "metar_trigger": false,
      "taf_trigger": false,
      "metar": "METAR LYPG 151400Z 15010KT 9999 FEW040 36/16 Q1013 NOSIG",
      "taf": "TAF LYPG 151100Z 1512/1612 18008KT 9999 FEW050 TX36/1513Z TN24/1603Z"
    },
    {
      "icao": "LZIB",
      "alert": "OK",
      "vis_m": 9999,
      "fzfg": false,
      "metar_trigger": false,
      "taf_trigger": false,
      "metar": "METAR LZIB 151400Z 34005KT 230V040 CAVOK 30/17 Q1017 NOSIG",
      "taf": "TAF LZIB 151115Z 1512/1612 02004KT 9999 SCT040"
    },
    {
      "icao": "LZKZ",
      "alert": "OK",
      "vis_m": 9999,
      "fzfg": false,
      "metar_trigger": false,
      "taf_trigger": false,
      "metar": "METAR LZKZ 151400Z 03006KT CAVOK 23/18 Q1018 NOSIG",
      "taf": "TAF LZKZ 151115Z 1512/1612 02006KT CAVOK"
    },
    {
      "icao": "LZTT",
      "alert": "OK",
      "vis_m": 9999,
      "fzfg": false,
      "metar_trigger": false,
      "taf_trigger": false,
      "metar": "METAR LZTT 151400Z VRB02KT 9999 FEW009 20/16 Q1021 NOSIG",
      "taf": "TAF LZTT 151115Z 1512/1612 28004KT 9999 SCT060"
    },
    {
      "icao": "OEJN",
      "alert": "OK",
      "vis_m": 9999,
      "fzfg": false,
      "metar_trigger": false,
      "taf_trigger": false,
      "metar": "METAR OEJN 151400Z 31009KT CAVOK 37/19 Q1003 NOSIG",
      "taf": "TAF OEJN 151100Z 1512/1618 30012KT 9999 FEW040"
    },
    {
      "icao": "OEMA",
      "alert": "OK",
      "vis_m": 9999,
      "fzfg": false,
      "metar_trigger": false,
      "taf_trigger": false,
      "metar": "METAR OEMA 151400Z 31013KT 9999 FEW045 45/M03 Q1007 NOSIG",
      "taf": "TAF OEMA 151100Z 1512/1618 29016KT 9999 FEW040"
    },
    {
      "icao": "OJAI",
      "alert": "OK",
      "vis_m": 5000,
      "fzfg": false,
      "metar_trigger": false,
      "taf_trigger": false,
      "metar": "METAR OJAI 151400Z 28014KT 5000 DU NSC 33/12 Q1011 NOSIG",
      "taf": "TAF OJAI 151100Z 1512/1618 27008KT 5000 HZ NSC"
    },
    {
      "icao": "OMAA",
      "alert": "OK",
      "vis_m": 8000,
      "fzfg": false,
      "metar_trigger": false,
      "taf_trigger": false,
      "metar": "METAR OMAA 151400Z 33016KT 8000 NSC 37/29 Q0994 NOSIG",
      "taf": "TAF OMAA 151100Z 1512/1618 33013KT 8000 NSC"
    },
    {
      "icao": "OMDB",
      "alert": "OK",
      "vis_m": 8000,
      "fzfg": false,
      "metar_trigger": false,
      "taf_trigger": false,
      "metar": "METAR OMDB 151400Z 09016KT 8000 NSC 46/12 Q0995 WS ALL RWY NOSIG",
      "taf": "TAF OMDB 151100Z 1512/1618 10012KT 8000 NSC"
    },
    {
      "icao": "UAAA",
      "alert": "OK",
      "vis_m": 9999,
      "fzfg": false,
      "metar_trigger": false,
      "taf_trigger": false,
      "metar": "METAR UAAA 151400Z 08004MPS 9999 FEW050CB BKN100 31/12 Q1008 NOSIG",
      "taf": "TAF UAAA 151102Z 1512/1612 04003MPS 9999 FEW050CB SCT100 TX38/1610Z TN20/1601Z"
    },
    {
      "icao": "UBBB",
      "alert": "OK",
      "vis_m": 9999,
      "fzfg": false,
      "metar_trigger": false,
      "taf_trigger": false,
      "metar": "METAR UBBB 151400Z 33022G32KT CAVOK 28/22 Q1007 NOSIG",
      "taf": "TAF UBBB 151054Z 1512/1612 33022G32KT 9999 SCT015 TX31/1512Z TN23/1601Z"
    },
    {
      "icao": "UDSG",
      "alert": "OK",
      "vis_m": 9999,
      "fzfg": false,
      "metar_trigger": false,
      "taf_trigger": false,
      "metar": "METAR UDSG 151400Z 36009KT 9999 BKN043CB 25/14 Q1016 NOSIG",
      "taf": "TAF UDSG 151100Z 1512/1612 33006KT 9999 FEW050"
    },
    {
      "icao": "UDYZ",
      "alert": "OK",
      "vis_m": 9999,
      "fzfg": false,
      "metar_trigger": false,
      "taf_trigger": false,
      "metar": "METAR UDYZ 151400Z 19006KT 9999 FEW046 36/07 Q1007 NOSIG",
      "taf": "TAF UDYZ 151100Z 1512/1612 04006KT 9999 FEW040"
    },
    {
      "icao": "UGKO",
      "alert": "OK",
      "vis_m": 9999,
      "fzfg": false,
      "metar_trigger": false,
      "taf_trigger": false,
      "metar": "METAR UGKO 151400Z 25012KT 9999 SCT038 27/19 Q1013 NOSIG",
      "taf": "TAF UGKO 151100Z 1512/1612 VRB02KT 9999 SCT030 BKN070 TX27/1612Z TN19/1602Z"
    }
  ]
}