{
  "ts_utc": "2026-02-18T19:08:36Z",
  "threshold_m": 150,
  "source": "stations_override.txt (ICAO list) + aviationweather.gov (METAR/TAF raw)",
  "station_count": 159,
  "stations": [
    {
      "icao": "BIKF",
      "alert": "OK",
      "vis_m": 9999,
      "fzfg": false,
      "metar_trigger": false,
      "taf_trigger": false,
      "metar": "METAR BIKF 181900Z 04023KT CAVOK M03/M12 Q1011",
      "taf": "TAF BIKF 181636Z 1818/1918 04022G32KT 9999 FEW025 SCT045 TX00/1915Z TNM04/1900Z"
    },
    {
      "icao": "BKPR",
      "alert": "OK",
      "vis_m": 9999,
      "fzfg": false,
      "metar_trigger": false,
      "taf_trigger": false,
      "metar": "METAR BKPR 181900Z VRB02KT CAVOK 02/M04 Q1015 NOSIG",
      "taf": "TAF BKPR 181730Z 1818/1918 20005KT CAVOK"
    },
    {
      "icao": "EBCI",
      "alert": "OK",
      "vis_m": 9999,
      "fzfg": false,
      "metar_trigger": false,
      "taf_trigger": false,
      "metar": "METAR EBCI 181850Z 12011KT 090V150 9999 -RA NSC 05/M01 Q1000 TEMPO 3500 RADZ SCT008 BKN012",
      "taf": "TAF EBCI 181702Z 1818/1924 11010KT 9999 FEW020 SCT030"
    },
    {
      "icao": "EDDB",
      "alert": "OK",
      "vis_m": 9999,
      "fzfg": false,
      "metar_trigger": false,
      "taf_trigger": false,
      "metar": "METAR EDDB 181850Z AUTO 02003KT CAVOK M04/M08 Q1014 NOSIG",
      "taf": "TAF EDDB 181700Z 1818/1918 34005KT 9999 SCT020"
    },
    {
      "icao": "EDDH",
      "alert": "OK",
      "vis_m": 9999,
      "fzfg": false,
      "metar_trigger": false,
      "taf_trigger": false,
      "metar": "METAR EDDH 181850Z AUTO 10004KT CAVOK M04/M07 Q1014 NOSIG",
      "taf": "TAF EDDH 181700Z 1818/1924 10004KT CAVOK"
    },
    {
      "icao": "EDDK",
      "alert": "OK",
      "vis_m": 9999,
      "fzfg": false,
      "metar_trigger": false,
      "taf_trigger": false,
      "metar": "METAR EDDK 181850Z AUTO 11010KT 070V140 CAVOK 03/M03 Q1006 NOSIG",
      "taf": "TAF EDDK 181700Z 1818/1924 12012KT 9999 SCT015 BKN025"
    },
    {
      "icao": "EDDN",
      "alert": "OK",
      "vis_m": 9999,
      "fzfg": false,
      "metar_trigger": false,
      "taf_trigger": false,
      "metar": "METAR EDDN 181850Z AUTO 10005KT CAVOK M00/M03 Q1010 NOSIG",
      "taf": "TAF EDDN 181700Z 1818/1918 09007KT CAVOK"
    },
    {
      "icao": "EDDS",
      "alert": "OK",
      "vis_m": 9999,
      "fzfg": false,
      "metar_trigger": false,
      "taf_trigger": false,
      "metar": "METAR EDDS 181850Z AUTO 10003KT 9999 -RA SCT028 BKN040 BKN049 02/01 Q1006 NOSIG",
      "taf": "TAF EDDS 181700Z 1818/1918 15005KT 9999 FEW010 BKN020"
    },
    {
      "icao": "EDFH",
      "alert": "OK",
      "vis_m": 9999,
      "fzfg": false,
      "metar_trigger": false,
      "taf_trigger": false,
      "metar": "METAR EDFH 181850Z 12018KT 9999 FEW020 01/M04 Q1003",
      "taf": ""
    },
    {
      "icao": "EDJA",
      "alert": "OK",
      "vis_m": 4700,
      "fzfg": false,
      "metar_trigger": false,
      "taf_trigger": false,
      "metar": "METAR EDJA 181850Z VRB02KT 4700 SN BR SCT003 BKN012 OVC027 00/M00 Q1006",
      "taf": "TAF EDJA 181700Z 1818/1903 08006KT 4000 -SN BR SCT002 BKN006 OVC013"
    },
    {
      "icao": "EDLW",
      "alert": "OK",
      "vis_m": 9999,
      "fzfg": false,
      "metar_trigger": false,
      "taf_trigger": false,
      "metar": "METAR EDLW 181850Z 04012KT CAVOK 00/M02 Q1007",
      "taf": "TAF EDLW 181700Z 1818/1918 08012KT 9999 SCT015 BKN025"
    },
    {
      "icao": "EDNY",
      "alert": "OK",
      "vis_m": 7000,
      "fzfg": false,
      "metar_trigger": false,
      "taf_trigger": false,
      "metar": "METAR EDNY 181850Z 03005KT 350V060 7000 -RA FEW030 OVC039 01/01 Q1006",
      "taf": "TAF EDNY 181700Z 1818/1903 04006KT 9999 FEW013 OVC045"
    },
    {
      "icao": "EDSB",
      "alert": "OK",
      "vis_m": 9999,
      "fzfg": false,
      "metar_trigger": false,
      "taf_trigger": false,
      "metar": "METAR EDSB 181850Z 02006KT 9999 -RA BKN049 04/02 Q1005",
      "taf": "TAF EDSB 181700Z 1818/1918 03006KT 9999 SCT020 BKN035"
    },
    {
      "icao": "EETN",
      "alert": "OK",
      "vis_m": 9999,
      "fzfg": false,
      "metar_trigger": false,
      "taf_trigger": false,
      "metar": "METAR EETN 181850Z 11007KT CAVOK M09/M16 Q1012 NOSIG",
      "taf": "TAF EETN 181730Z 1818/1918 12010KT CAVOK"
    },
    {
      "icao": "EFTU",
      "alert": "OK",
      "vis_m": 9999,
      "fzfg": false,
      "metar_trigger": false,
      "taf_trigger": false,
      "metar": "METAR EFTU 181850Z AUTO 10006KT CAVOK M10/M13 Q1011",
      "taf": "TAF EFTU 181729Z 1818/1918 10007KT CAVOK"
    },
    {
      "icao": "EGBB",
      "alert": "OK",
      "vis_m": 9999,
      "fzfg": false,
      "metar_trigger": false,
      "taf_trigger": false,
      "metar": "METAR EGBB 181850Z 09012KT 9999 OVC017 04/M00 Q0995",
      "taf": "TAF EGBB 181658Z 1818/1918 10013KT 9999 SCT025"
    },
    {
      "icao": "EGGP",
      "alert": "OK",
      "vis_m": 9999,
      "fzfg": false,
      "metar_trigger": false,
      "taf_trigger": false,
      "metar": "METAR EGGP 181850Z 11017KT 9999 BKN033 04/M02 Q0996",
      "taf": "TAF EGGP 181705Z 1818/1918 11012KT 9999 FEW015 SCT025"
    },
    {
      "icao": "EGGW",
      "alert": "OK",
      "vis_m": 9000,
      "fzfg": false,
      "metar_trigger": false,
      "taf_trigger": false,
      "metar": "METAR EGGW 181850Z AUTO 11018KT 9000 -RA OVC013/// //////TCU 03/01 Q0995",
      "taf": "TAF EGGW 181657Z 1818/1918 11017G27KT 9999 BKN020"
    },
    {
      "icao": "EGKK",
      "alert": "OK",
      "vis_m": 9999,
      "fzfg": false,
      "metar_trigger": false,
      "taf_trigger": false,
      "metar": "METAR EGKK 181850Z 10014KT 9999 -RA BKN009 05/04 Q0994",
      "taf": "TAF EGKK 181702Z 1818/1924 10012KT 9999 BKN010"
    },
    {
      "icao": "EGNM",
      "alert": "OK",
      "vis_m": 9999,
      "fzfg": false,
      "metar_trigger": false,
      "taf_trigger": false,
      "metar": "METAR EGNM 181850Z 09014KT 9999 SCT021 01/M01 Q0999",
      "taf": "TAF EGNM 181705Z 1818/1918 12012KT 9999 SCT012 BKN025"
    },
    {
      "icao": "EGPD",
      "alert": "OK",
      "vis_m": 9999,
      "fzfg": false,
      "metar_trigger": false,
      "taf_trigger": false,
      "metar": "METAR EGPD 181850Z COR 16020G32KT 9999 -RA SCT017 BKN026 03/M00 Q1004 NOSIG",
      "taf": "TAF EGPD 181656Z 1818/1918 14012KT 9999 SCT040"
    },
    {
      "icao": "EGPF",
      "alert": "OK",
      "vis_m": 9999,
      "fzfg": false,
      "metar_trigger": false,
      "taf_trigger": false,
      "metar": "METAR EGPF 181850Z AUTO 08012KT 9999 SCT046 04/M02 Q1000",
      "taf": "TAF EGPF 181700Z 1818/1918 09009KT 9999 SCT040"
    },
    {
      "icao": "EHBK",
      "alert": "OK",
      "vis_m": 9999,
      "fzfg": false,
      "metar_trigger": false,
      "taf_trigger": false,
      "metar": "METAR EHBK 181855Z AUTO 10014KT 060V120 9999 NSC 04/M01 Q1003 NOSIG",
      "taf": "TAF EHBK 181720Z 1818/1924 09012KT CAVOK"
    },
    {
      "icao": "EHEH",
      "alert": "OK",
      "vis_m": 9999,
      "fzfg": false,
      "metar_trigger": false,
      "taf_trigger": false,
      "metar": "METAR EHEH 181855Z AUTO 08011KT 040V120 9999 OVC120 03/M01 Q1004 BLU NOSIG RMK TREND REMOTE BY EHWX",
      "taf": ""
    },
    {
      "icao": "EKBI",
      "alert": "OK",
      "vis_m": 9999,
      "fzfg": false,
      "metar_trigger": false,
      "taf_trigger": false,
      "metar": "METAR EKBI 181850Z AUTO 22004KT 9999 NCD M06/M07 Q1014",
      "taf": "TAF EKBI 181727Z 1818/1918 23005KT 9999 SCT020"
    },
    {
      "icao": "EKCH",
      "alert": "OK",
      "vis_m": 9999,
      "fzfg": false,
      "metar_trigger": false,
      "taf_trigger": false,
      "metar": "METAR EKCH 181850Z AUTO 25005KT 9999 SCT018/// M03/M06 Q1013 NOSIG",
      "taf": "TAF EKCH 181727Z 1818/1918 26007KT 9999 BKN020"
    },
    {
      "icao": "ENAL",
      "alert": "OK",
      "vis_m": 5000,
      "fzfg": false,
      "metar_trigger": false,
      "taf_trigger": false,
      "metar": "METAR ENAL 181850Z 20013KT 180V240 5000 -SN FEW005 SCT020 BKN050 M00/M02 Q1009",
      "taf": "TAF ENAL 181700Z 1818/1903 21012KT 9999 -SHSN FEW015CB BKN030"
    },
    {
      "icao": "ENBR",
      "alert": "OK",
      "vis_m": 9999,
      "fzfg": false,
      "metar_trigger": false,
      "taf_trigger": false,
      "metar": "METAR ENBR 181850Z 14004KT 9999 BKN038 M00/M02 Q1011 NOSIG RMK WIND 1200FT 14011KT",
      "taf": "TAF ENBR 181700Z 1818/1918 11005KT 9999 FEW020 SCT040"
    },
    {
      "icao": "ENGM",
      "alert": "OK",
      "vis_m": 9999,
      "fzfg": false,
      "metar_trigger": false,
      "taf_trigger": false,
      "metar": "METAR ENGM 181850Z 34004KT 310V010 CAVOK M12/M13 Q1010 NOSIG",
      "taf": ""
    },
    {
      "icao": "ENHD",
      "alert": "OK",
      "vis_m": 9999,
      "fzfg": false,
      "metar_trigger": false,
      "taf_trigger": false,
      "metar": "METAR ENHD 181850Z 10007KT 9999 FEW025 M01/M02 Q1011",
      "taf": "TAF ENHD 181400Z 1815/1823 10005KT 9999 FEW012 SCT025"
    },
    {
      "icao": "ENTC",
      "alert": "OK",
      "vis_m": 9999,
      "fzfg": false,
      "metar_trigger": false,
      "taf_trigger": false,
      "metar": "METAR ENTC 181850Z 23005KT 9999 SCT013 BKN027 M04/M07 Q1006 TEMPO BKN012 RMK WIND 2600FT 11012KT",
      "taf": "TAF ENTC 181700Z 1818/1918 25008KT 9999 SCT012 BKN018"
    },
    {
      "icao": "ENTO",
      "alert": "OK",
      "vis_m": 9999,
      "fzfg": false,
      "metar_trigger": false,
      "taf_trigger": false,
      "metar": "METAR ENTO 181850Z 31003KT CAVOK M08/M08 Q1011 NOSIG",
      "taf": ""
    },
    {
      "icao": "ENVA",
      "alert": "OK",
      "vis_m": 9999,
      "fzfg": false,
      "metar_trigger": false,
      "taf_trigger": false,
      "metar": "METAR ENVA 181850Z 13005KT 080V150 9999 -SN BKN035 M02/M05 Q1009 TEMPO 22010KT 1400 SHSN VV009 RMK WIND 670FT 19012KT",
      "taf": ""
    },
    {
      "icao": "ENZV",
      "alert": "OK",
      "vis_m": 9999,
      "fzfg": false,
      "metar_trigger": false,
      "taf_trigger": false,
      "metar": "METAR ENZV 181850Z 11006KT CAVOK M01/M02 Q1011 NOSIG",
      "taf": ""
    },
    {
      "icao": "EPGD",
      "alert": "OK",
      "vis_m": 9999,
      "fzfg": false,
      "metar_trigger": false,
      "taf_trigger": false,
      "metar": "METAR EPGD 181900Z 29013KT 9999 BKN029 M05/M09 Q1011",
      "taf": "TAF EPGD 181730Z 1818/1918 27010KT 9999 SCT037"
    },
    {
      "icao": "EPKK",
      "alert": "OK",
      "vis_m": 8000,
      "fzfg": false,
      "metar_trigger": false,
      "taf_trigger": false,
      "metar": "METAR EPKK 181900Z 27006KT 8000 SCT020 BKN030 01/M01 Q1011",
      "taf": "TAF EPKK 181730Z 1818/1918 29007KT 9999 BKN025"
    },
    {
      "icao": "EPKT",
      "alert": "OK",
      "vis_m": 9000,
      "fzfg": false,
      "metar_trigger": false,
      "taf_trigger": false,
      "metar": "METAR EPKT 181900Z 31003KT 9000 FEW014 OVC017 M01/M03 Q1011",
      "taf": "TAF EPKT 181730Z 1818/1918 33007KT 9999 BKN035"
    },
    {
      "icao": "EPLB",
      "alert": "OK",
      "vis_m": 3200,
      "fzfg": false,
      "metar_trigger": false,
      "taf_trigger": false,
      "metar": "METAR EPLB 181900Z 34004KT 3200 BR OVC003 M02/M02 Q1010",
      "taf": ""
    },
    {
      "icao": "EPMO",
      "alert": "OK",
      "vis_m": 5000,
      "fzfg": false,
      "metar_trigger": false,
      "taf_trigger": false,
      "metar": "METAR EPMO 181900Z 25006KT 200V280 5000 BR NSC M07/M08 Q1012",
      "taf": "TAF EPMO 181730Z 1818/1918 27005KT 6000 BKN030"
    },
    {
      "icao": "EPPO",
      "alert": "OK",
      "vis_m": 9999,
      "fzfg": false,
      "metar_trigger": false,
      "taf_trigger": false,
      "metar": "METAR EPPO 181900Z 29004KT 9999 FEW042 M04/M07 Q1013",
      "taf": "TAF EPPO 181730Z 1818/1918 30006KT 9999 BKN040"
    },
    {
      "icao": "EPRA",
      "alert": "OK",
      "vis_m": 8000,
      "fzfg": false,
      "metar_trigger": false,
      "taf_trigger": false,
      "metar": "METAR EPRA 181900Z 34006KT 8000 BKN012 M04/M07 Q1012",
      "taf": "TAF EPRA 181730Z 1818/1903 30006KT 8000 BKN014"
    },
    {
      "icao": "EPRZ",
      "alert": "OK",
      "vis_m": 8000,
      "fzfg": false,
      "metar_trigger": false,
      "taf_trigger": false,
      "metar": "METAR EPRZ 181900Z 27008KT 8000 OVC011 M00/M01 Q1010",
      "taf": "TAF EPRZ 181730Z 1818/1918 29005KT 9999 BKN030"
    },
    {
      "icao": "EPSC",
      "alert": "OK",
      "vis_m": 9999,
      "fzfg": false,
      "metar_trigger": false,
      "taf_trigger": false,
      "metar": "METAR EPSC 181900Z 10001KT 9999 BKN033 M06/M10 Q1014",
      "taf": "TAF EPSC 181730Z 1818/1918 VRB04KT 7000 SCT017 BKN030"
    },
    {
      "icao": "EPSY",
      "alert": "OK",
      "vis_m": 7000,
      "fzfg": false,
      "metar_trigger": false,
      "taf_trigger": false,
      "metar": "METAR EPSY 181900Z 25005KT 7000 -SN FEW016 BKN023 M06/M08 Q1011",
      "taf": "TAF EPSY 181730Z 1818/1903 26006KT 8000 BKN026"
    },
    {
      "icao": "EPWA",
      "alert": "OK",
      "vis_m": 9999,
      "fzfg": false,
      "metar_trigger": false,
      "taf_trigger": false,
      "metar": "METAR EPWA 181900Z 30003KT CAVOK M05/M07 Q1012 NOSIG",
      "taf": "TAF EPWA 181730Z 1818/1918 30006KT 9999 BKN020"
    },
    {
      "icao": "EPWR",
      "alert": "OK",
      "vis_m": 5000,
      "fzfg": false,
      "metar_trigger": false,
      "taf_trigger": false,
      "metar": "METAR EPWR 181900Z 31002KT 5000 BR OVC040 M03/M04 Q1014",
      "taf": "TAF EPWR 181730Z 1818/1918 29005KT 5000 BR SCT030"
    },
    {
      "icao": "ESGG",
      "alert": "OK",
      "vis_m": 7000,
      "fzfg": false,
      "metar_trigger": false,
      "taf_trigger": false,
      "metar": "METAR ESGG 181850Z 08003KT 050V110 7000 -SN BKN020 OVC025 M05/M07 Q1010",
      "taf": "TAF ESGG 181730Z 1818/1918 VRB03KT 9999 -SN BKN045"
    },
    {
      "icao": "ESKN",
      "alert": "OK",
      "vis_m": 9999,
      "fzfg": false,
      "metar_trigger": false,
      "taf_trigger": false,
      "metar": "METAR ESKN 181850Z 33004KT 300V010 9999 BKN033 M05/M10 Q1010",
      "taf": "TAF ESKN 181730Z 1818/1918 32006KT 9999 BKN030"
    },
    {
      "icao": "ESMS",
      "alert": "OK",
      "vis_m": 9999,
      "fzfg": false,
      "metar_trigger": false,
      "taf_trigger": false,
      "metar": "METAR ESMS 181850Z 28007KT 9999 BKN023 M02/M05 Q1012",
      "taf": "TAF ESMS 181727Z 1818/1918 26006KT 9999 BKN020"
    },
    {
      "icao": "ESSA",
      "alert": "OK",
      "vis_m": 9999,
      "fzfg": false,
      "metar_trigger": false,
      "taf_trigger": false,
      "metar": "METAR ESSA 181850Z 03004KT 9999 BKN038 M06/M11 Q1010 NOSIG",
      "taf": "TAF ESSA 181730Z 1818/1918 34006KT 9999 BKN035"
    },
    {
      "icao": "EYKA",
      "alert": "OK",
      "vis_m": 8000,
      "fzfg": false,
      "metar_trigger": false,
      "taf_trigger": false,
      "metar": "METAR EYKA 181850Z 17003KT 140V200 8000 -SN OVC013 M07/M09 Q1010",
      "taf": "TAF EYKA 181707Z 1818/1918 VRB04KT 8000 OVC015"
    },
    {
      "icao": "EYPA",
      "alert": "OK",
      "vis_m": 7000,
      "fzfg": false,
      "metar_trigger": false,
      "taf_trigger": false,
      "metar": "METAR EYPA 181850Z 17006KT 7000 -SN FEW013 M06/M07 Q1008",
      "taf": "TAF EYPA 181707Z 1818/1918 VRB05KT 8000 SCT015 BKN025"
    },
    {
      "icao": "EYVI",
      "alert": "OK",
      "vis_m": 9999,
      "fzfg": false,
      "metar_trigger": false,
      "taf_trigger": false,
      "metar": "METAR EYVI 181850Z 17006KT 9999 OVC014 M08/M12 Q1010 BECMG OVC015",
      "taf": "TAF EYVI 181707Z 1818/1918 17010KT 8000 OVC015"
    },
    {
      "icao": "GCFV",
      "alert": "OK",
      "vis_m": 9999,
      "fzfg": false,
      "metar_trigger": false,
      "taf_trigger": false,
      "metar": "METAR GCFV 181900Z 03015KT 9999 FEW017 17/13 Q1022",
      "taf": "TAF GCFV 181400Z 1815/1915 03015KT 9999 FEW020 TX19/1914Z TN16/1906Z"
    },
    {
      "icao": "GCLP",
      "alert": "OK",
      "vis_m": 9999,
      "fzfg": false,
      "metar_trigger": false,
      "taf_trigger": false,
      "metar": "METAR GCLP 181900Z 02019KT 9999 FEW025 17/13 Q1022 NOSIG",
      "taf": "TAF GCLP 181400Z 1815/1915 03020KT 9999 FEW020 TX20/1914Z TN14/1906Z"
    },
    {
      "icao": "GCTS",
      "alert": "OK",
      "vis_m": 9999,
      "fzfg": false,
      "metar_trigger": false,
      "taf_trigger": false,
      "metar": "METAR GCTS 181900Z 08016KT CAVOK 18/13 Q1022 NOSIG",
      "taf": "TAF GCTS 181400Z 1815/1915 08020KT CAVOK TX24/1914Z TN16/1906Z"
    },
    {
      "icao": "GMAD",
      "alert": "OK",
      "vis_m": 6000,
      "fzfg": false,
      "metar_trigger": false,
      "taf_trigger": false,
      "metar": "METAR GMAD 181900Z 21006KT 160V230 6000 NSC 15/14 Q1020 NOSIG",
      "taf": "TAF GMAD 181700Z 1818/1924 21005KT CAVOK"
    },
    {
      "icao": "GMMN",
      "alert": "OK",
      "vis_m": 9999,
      "fzfg": false,
      "metar_trigger": false,
      "taf_trigger": false,
      "metar": "METAR GMMN 181900Z 36007KT 9999 FEW016 11/09 Q1024 NOSIG",
      "taf": "TAF GMMN 181700Z 1818/1924 02007KT 9999 FEW016"
    },
    {
      "icao": "GMMX",
      "alert": "OK",
      "vis_m": 9999,
      "fzfg": false,
      "metar_trigger": false,
      "taf_trigger": false,
      "metar": "METAR GMMX 181900Z VRB02KT CAVOK 18/10 Q1022 NOSIG",
      "taf": "TAF GMMX 181700Z 1818/1924 30006KT 8000 NSC"
    },
    {
      "icao": "HEGN",
      "alert": "OK",
      "vis_m": 9999,
      "fzfg": false,
      "metar_trigger": false,
      "taf_trigger": false,
      "metar": "METAR HEGN 181800Z 33012KT CAVOK 23/03 Q1015 NOSIG",
      "taf": "TAF HEGN 181700Z 1818/1924 30015KT CAVOK"
    },
    {
      "icao": "HEMA",
      "alert": "OK",
      "vis_m": 9999,
      "fzfg": false,
      "metar_trigger": false,
      "taf_trigger": false,
      "metar": "METAR HEMA 181800Z 31010KT CAVOK 21/08 Q1015 NOSIG",
      "taf": "TAF HEMA 181700Z 1818/1924 31014KT CAVOK"
    },
    {
      "icao": "HESH",
      "alert": "OK",
      "vis_m": 9999,
      "fzfg": false,
      "metar_trigger": false,
      "taf_trigger": false,
      "metar": "METAR HESH 181800Z 32003KT CAVOK 22/11 Q1014 NOSIG",
      "taf": "TAF HESH 181700Z 1818/1924 01012KT CAVOK"
    },
    {
      "icao": "HESX",
      "alert": "OK",
      "vis_m": 9999,
      "fzfg": false,
      "metar_trigger": false,
      "taf_trigger": false,
      "metar": "METAR HESX 181800Z 33009KT CAVOK 14/05 Q1018 NOSIG",
      "taf": "TAF HESX 181700Z 1818/1924 31010KT CAVOK"
    },
    {
      "icao": "LATI",
      "alert": "OK",
      "vis_m": 9999,
      "fzfg": false,
      "metar_trigger": false,
      "taf_trigger": false,
      "metar": "METAR LATI 181850Z 17005KT CAVOK 06/01 Q1017 NOSIG",
      "taf": "TAF LATI 181700Z 1818/1918 VRB04KT CAVOK TX16/1912Z TN03/1903Z"
    },
    {
      "icao": "LBPD",
      "alert": "OK",
      "vis_m": 9999,
      "fzfg": false,
      "metar_trigger": false,
      "taf_trigger": false,
      "metar": "METAR LBPD 181900Z AUTO 28017KT 9999 NCD 05/M04 Q1013 NOSIG",
      "taf": "TAF LBPD 181700Z 1818/1918 29016KT CAVOK"
    },
    {
      "icao": "LBSF",
      "alert": "OK",
      "vis_m": 9999,
      "fzfg": false,
      "metar_trigger": false,
      "taf_trigger": false,
      "metar": "METAR LBSF 181900Z AUTO 36005KT 9999 BKN036/// 01/M03 Q1015 NOSIG",
      "taf": "TAF LBSF 181700Z 1818/1918 28012KT 9999 SCT025 BKN040"
    },
    {
      "icao": "LBWN",
      "alert": "OK",
      "vis_m": 9000,
      "fzfg": false,
      "metar_trigger": false,
      "taf_trigger": false,
      "metar": "METAR LBWN 181900Z AUTO 00000KT 9000 FEW004/// OVC013/// 00/00 Q1010 NOSIG",
      "taf": "TAF LBWN 181700Z 1818/1918 VRB03KT 8000 SCT015 OVC030"
    },
    {
      "icao": "LCLK",
      "alert": "OK",
      "vis_m": 9999,
      "fzfg": false,
      "metar_trigger": false,
      "taf_trigger": false,
      "metar": "METAR LCLK 181900Z 23011KT CAVOK 14/09 Q1012 NOSIG",
      "taf": "TAF LCLK 181730Z 1818/1918 24014KT 9999 FEW025"
    },
    {
      "icao": "LCPH",
      "alert": "OK",
      "vis_m": 9999,
      "fzfg": false,
      "metar_trigger": false,
      "taf_trigger": false,
      "metar": "METAR LCPH 181900Z 29021KT 250V320 9999 SCT034 15/08 Q1013 NOSIG",
      "taf": "TAF LCPH 181730Z 1818/1918 26026KT 8000 SCT020 FEW025TCU BKN035"
    },
    {
      "icao": "LEAL",
      "alert": "OK",
      "vis_m": 9999,
      "fzfg": false,
      "metar_trigger": false,
      "taf_trigger": false,
      "metar": "METAR LEAL 181900Z VRB01KT CAVOK 14/13 Q1013 NOSIG",
      "taf": "TAF LEAL 181700Z 1818/1918 23007KT 9999 FEW030 TX19/1913Z TN12/1906Z"
    },
    {
      "icao": "LEBB",
      "alert": "OK",
      "vis_m": 9999,
      "fzfg": false,
      "metar_trigger": false,
      "taf_trigger": false,
      "metar": "METAR LEBB 181900Z 27011G21KT 220V330 9999 -RA FEW020 SCT038 BKN070 12/06 Q1008 RERA TEMPO 3000 RA",
      "taf": "TAF LEBB 181700Z 1818/1918 28009KT 9999 FEW010 BKN045 TX12/1818Z TN06/1906Z"
    },
    {
      "icao": "LEBL",
      "alert": "OK",
      "vis_m": 9999,
      "fzfg": false,
      "metar_trigger": false,
      "taf_trigger": false,
      "metar": "METAR LEBL 181900Z 23012KT 9999 FEW010 SCT050 13/11 Q1008 NOSIG",
      "taf": "TAF LEBL 181700Z 1818/1918 23012KT 9999 FEW015 TX18/1913Z TN11/1906Z"
    },
    {
      "icao": "LECH",
      "alert": "OK",
      "vis_m": 9999,
      "fzfg": false,
      "metar_trigger": false,
      "taf_trigger": false,
      "metar": "METAR LECH 181900Z AUTO 25001KT CAVOK 12/09 Q1010",
      "taf": ""
    },
    {
      "icao": "LEMD",
      "alert": "OK",
      "vis_m": 9999,
      "fzfg": false,
      "metar_trigger": false,
      "taf_trigger": false,
      "metar": "METAR LEMD 181900Z 21016KT 180V240 9999 -RA FEW015 SCT025 BKN070 09/08 Q1013 NOSIG",
      "taf": "TAF LEMD 181700Z 1818/1924 22012KT 9999 FEW012 BKN025 TX13/1915Z TN03/1906Z"
    },
    {
      "icao": "LEMG",
      "alert": "OK",
      "vis_m": 9999,
      "fzfg": false,
      "metar_trigger": false,
      "taf_trigger": false,
      "metar": "METAR LEMG 181900Z 30016KT CAVOK 14/07 Q1019 NOSIG",
      "taf": "TAF LEMG 181700Z 1818/1918 31015KT CAVOK TX18/1914Z TN11/1907Z"
    },
    {
      "icao": "LEVC",
      "alert": "OK",
      "vis_m": 9999,
      "fzfg": false,
      "metar_trigger": false,
      "taf_trigger": false,
      "metar": "METAR LEVC 181900Z 26021KT CAVOK 17/05 Q1012 NOSIG",
      "taf": "TAF LEVC 181700Z 1818/1918 27013KT 9999 FEW030 TX20/1914Z TN12/1906Z"
    },
    {
      "icao": "LEXJ",
      "alert": "OK",
      "vis_m": 9999,
      "fzfg": false,
      "metar_trigger": false,
      "taf_trigger": false,
      "metar": "METAR LEXJ 181900Z 30022G35KT 270V330 CAVOK 11/05 Q1008",
      "taf": "TAF LEXJ 181400Z 1815/1915 28009KT 9999 FEW030 BKN060 TX17/1815Z TN08/1903Z"
    },
    {
      "icao": "LEZG",
      "alert": "OK",
      "vis_m": 9999,
      "fzfg": false,
      "metar_trigger": false,
      "taf_trigger": false,
      "metar": "METAR LEZG 181900Z 23010KT 9999 BKN060 15/06 Q1008 NOSIG",
      "taf": "TAF LEZG 181700Z 1818/1918 25009KT 9999 FEW040 TX14/1914Z TN07/1906Z"
    },
    {
      "icao": "LEZL",
      "alert": "OK",
      "vis_m": 9999,
      "fzfg": false,
      "metar_trigger": false,
      "taf_trigger": false,
      "metar": "METAR LEZL 181900Z 24011KT 9999 FEW035 BKN045 15/11 Q1021 NOSIG",
      "taf": "TAF LEZL 181400Z 1815/1915 25010KT 9999 SCT030 TX21/1815Z TN08/1907Z"
    },
    {
      "icao": "LFBD",
      "alert": "OK",
      "vis_m": 9999,
      "fzfg": false,
      "metar_trigger": false,
      "taf_trigger": false,
      "metar": "METAR LFBD 181900Z AUTO 26020G34KT 9999 -RA BKN032/// BKN041/// OVC052/// ///CB 12/08 Q1002 TEMPO 29020G45KT 1500 TSRA BKN014 BKN020CB",
      "taf": "TAF LFBD 181700Z 1818/1924 26015G30KT 9999 BKN030 TX12/1912Z TN08/1903Z"
    },
    {
      "icao": "LFLL",
      "alert": "OK",
      "vis_m": 9999,
      "fzfg": false,
      "metar_trigger": false,
      "taf_trigger": false,
      "metar": "METAR LFLL 181900Z 19010KT 160V220 CAVOK 12/06 Q1002 TEMPO 19015G25KT",
      "taf": "TAF LFLL 181700Z 1818/1924 19012KT CAVOK"
    },
    {
      "icao": "LFLS",
      "alert": "OK",
      "vis_m": 9999,
      "fzfg": false,
      "metar_trigger": false,
      "taf_trigger": false,
      "metar": "METAR LFLS 181900Z AUTO VRB01KT 9999 FEW058 BKN210 09/05 Q1003 NOSIG",
      "taf": "TAF LFLS 181400Z 1815/1915 22008KT CAVOK"
    },
    {
      "icao": "LFMN",
      "alert": "OK",
      "vis_m": 9999,
      "fzfg": false,
      "metar_trigger": false,
      "taf_trigger": false,
      "metar": "METAR LFMN 181900Z 07006KT 030V100 9999 FEW043 BKN260 13/08 Q1010 NOSIG",
      "taf": "TAF LFMN 181400Z 1815/1921 11010KT CAVOK"
    },
    {
      "icao": "LFOB",
      "alert": "OK",
      "vis_m": 6000,
      "fzfg": false,
      "metar_trigger": false,
      "taf_trigger": false,
      "metar": "METAR LFOB 181900Z AUTO 09006KT 6000 RA OVC003/// ///CB 05/05 Q0996 TEMPO 2000 RADZ OVC003",
      "taf": "TAF LFOB 181700Z 1818/1918 12012KT 9999 OVC007"
    },
    {
      "icao": "LFPO",
      "alert": "OK",
      "vis_m": 9999,
      "fzfg": false,
      "metar_trigger": false,
      "taf_trigger": false,
      "metar": "METAR LFPO 181900Z 17007KT 140V200 9999 SCT013 BKN046 09/09 Q0996 TEMPO BKN012",
      "taf": "TAF LFPO 181700Z 1818/1924 17010KT 9999 BKN020"
    },
    {
      "icao": "LFSB",
      "alert": "OK",
      "vis_m": 9999,
      "fzfg": false,
      "metar_trigger": false,
      "taf_trigger": false,
      "metar": "METAR LFSB 181900Z AUTO 11008KT 9999 -RA FEW011/// BKN047/// BKN058/// ///TCU 04/02 Q1004 TEMPO 2000 BR OVC005",
      "taf": "TAF LFSB 181700Z 1818/1918 13007KT 9999 SCT025 BKN050"
    },
    {
      "icao": "LGAV",
      "alert": "OK",
      "vis_m": 9999,
      "fzfg": false,
      "metar_trigger": false,
      "taf_trigger": false,
      "metar": "METAR LGAV 181850Z 25004KT 9999 FEW025 09/M01 Q1016 NOSIG",
      "taf": "TAF LGAV 181700Z 1818/1918 VRB05KT 9999 FEW025"
    },
    {
      "icao": "LGTS",
      "alert": "OK",
      "vis_m": 9999,
      "fzfg": false,
      "metar_trigger": false,
      "taf_trigger": false,
      "metar": "METAR LGTS 181850Z 34004KT 9999 FEW020 10/M02 Q1016 NOSIG",
      "taf": "TAF LGTS 181700Z 1818/1918 34015G25KT 9999 FEW030"
    },
    {
      "icao": "LHBP",
      "alert": "OK",
      "vis_m": 9999,
      "fzfg": false,
      "metar_trigger": false,
      "taf_trigger": false,
      "metar": "METAR LHBP 181900Z 03004KT 020V080 CAVOK M02/M04 Q1012 NOSIG",
      "taf": "TAF LHBP 181715Z 1818/1918 28007KT CAVOK"
    },
    {
      "icao": "LHDC",
      "alert": "OK",
      "vis_m": 9999,
      "fzfg": false,
      "metar_trigger": false,
      "taf_trigger": false,
      "metar": "METAR LHDC 181845Z AUTO 28006KT CAVOK 01/M02 Q1011 NOSIG",
      "taf": "TAF LHDC 181415Z 1815/1824 24006KT CAVOK"
    },
    {
      "icao": "LIBD",
      "alert": "OK",
      "vis_m": 9999,
      "fzfg": false,
      "metar_trigger": false,
      "taf_trigger": false,
      "metar": "METAR LIBD 181850Z 19006KT CAVOK 08/03 Q1015",
      "taf": "TAF LIBD 180500Z 1806/1906 29010KT CAVOK"
    },
    {
      "icao": "LIBG",
      "alert": "OK",
      "vis_m": 9999,
      "fzfg": false,
      "metar_trigger": false,
      "taf_trigger": false,
      "metar": "METAR LIBG 181850Z 08006KT CAVOK 08/05 Q1016",
      "taf": "TAF LIBG 181100Z 1812/1821 29010KT CAVOK"
    },
    {
      "icao": "LIBP",
      "alert": "OK",
      "vis_m": 9999,
      "fzfg": false,
      "metar_trigger": false,
      "taf_trigger": false,
      "metar": "METAR LIBP 181850Z AUTO VRB02KT 9999 NCD 07/02 Q1013",
      "taf": "TAF LIBP 180500Z 1806/1906 24006KT CAVOK"
    },
    {
      "icao": "LIBR",
      "alert": "OK",
      "vis_m": 9999,
      "fzfg": false,
      "metar_trigger": false,
      "taf_trigger": false,
      "metar": "METAR LIBR 181850Z 18006KT CAVOK 10/03 Q1017",
      "taf": "TAF LIBR 180500Z 1806/1906 32016KT CAVOK"
    },
    {
      "icao": "LICA",
      "alert": "OK",
      "vis_m": 9999,
      "fzfg": false,
      "metar_trigger": false,
      "taf_trigger": false,
      "metar": "METAR LICA 181850Z AUTO 25007KT 9999 FEW031/// SCT061/// 12/08 Q1019",
      "taf": "TAF LICA 180500Z 1806/1906 VRB05KT 9999 FEW025"
    },
    {
      "icao": "LICC",
      "alert": "OK",
      "vis_m": 9999,
      "fzfg": false,
      "metar_trigger": false,
      "taf_trigger": false,
      "metar": "METAR LICC 181850Z 30006KT 9999 FEW060 13/09 Q1019",
      "taf": "TAF LICC 181100Z 1812/1912 26010KT CAVOK"
    },
    {
      "icao": "LICJ",
      "alert": "OK",
      "vis_m": 9999,
      "fzfg": false,
      "metar_trigger": false,
      "taf_trigger": false,
      "metar": "METAR LICJ 181850Z 20009KT 9999 FEW040 13/09 Q1018",
      "taf": "TAF LICJ 181100Z 1812/1912 26013KT 9999 SCT035"
    },
    {
      "icao": "LIMC",
      "alert": "OK",
      "vis_m": 9999,
      "fzfg": false,
      "metar_trigger": false,
      "taf_trigger": false,
      "metar": "METAR LIMC 181850Z 04001KT CAVOK 05/M02 Q1010 NOSIG",
      "taf": "TAF LIMC 181100Z 1812/1918 VRB05KT CAVOK"
    },
    {
      "icao": "LIME",
      "alert": "OK",
      "vis_m": 9999,
      "fzfg": false,
      "metar_trigger": false,
      "taf_trigger": false,
      "metar": "METAR LIME 181850Z 03003KT 9999 SCT070 08/M01 Q1010 NOSIG",
      "taf": "TAF LIME 181100Z 1812/1912 VRB05KT CAVOK"
    },
    {
      "icao": "LIMF",
      "alert": "OK",
      "vis_m": 9999,
      "fzfg": false,
      "metar_trigger": false,
      "taf_trigger": false,
      "metar": "METAR LIMF 181850Z 36004KT CAVOK 08/M01 Q1010",
      "taf": "TAF LIMF 181100Z 1812/1912 VRB05KT CAVOK"
    },
    {
      "icao": "LIMJ",
      "alert": "OK",
      "vis_m": 9999,
      "fzfg": false,
      "metar_trigger": false,
      "taf_trigger": false,
      "metar": "METAR LIMJ 181850Z 12015KT 9999 SCT023 SCT032 13/09 Q1010",
      "taf": "TAF LIMJ 181100Z 1812/1912 12012KT 9999 FEW020"
    },
    {
      "icao": "LIPE",
      "alert": "OK",
      "vis_m": 9999,
      "fzfg": false,
      "metar_trigger": false,
      "taf_trigger": false,
      "metar": "METAR LIPE 181850Z 16004KT CAVOK 11/05 Q1010",
      "taf": "TAF LIPE 181100Z 1812/1912 VRB05KT CAVOK"
    },
    {
      "icao": "LIPH",
      "alert": "OK",
      "vis_m": 9999,
      "fzfg": false,
      "metar_trigger": false,
      "taf_trigger": false,
      "metar": "METAR LIPH 181850Z 00000KT CAVOK 07/04 Q1011",
      "taf": "TAF LIPH 181100Z 1812/1912 VRB05KT CAVOK"
    },
    {
      "icao": "LIPQ",
      "alert": "OK",
      "vis_m": 9999,
      "fzfg": false,
      "metar_trigger": false,
      "taf_trigger": false,
      "metar": "METAR LIPQ 181850Z AUTO VRB01KT 9999 NCD 06/04 Q1011",
      "taf": "TAF LIPQ 181100Z 1812/1912 VRB05KT CAVOK"
    },
    {
      "icao": "LIPR",
      "alert": "OK",
      "vis_m": 9999,
      "fzfg": false,
      "metar_trigger": false,
      "taf_trigger": false,
      "metar": "METAR LIPR 181850Z 19003KT 150V210 CAVOK 09/03 Q1011",
      "taf": "TAF LIPR 181100Z 1812/1912 VRB05KT CAVOK"
    },
    {
      "icao": "LIPX",
      "alert": "OK",
      "vis_m": 9999,
      "fzfg": false,
      "metar_trigger": false,
      "taf_trigger": false,
      "metar": "METAR LIPX 181850Z 07004KT 9999 SCT060 09/02 Q1011",
      "taf": "TAF LIPX 181100Z 1812/1912 07008KT CAVOK"
    },
    {
      "icao": "LIPY",
      "alert": "OK",
      "vis_m": 9999,
      "fzfg": false,
      "metar_trigger": false,
      "taf_trigger": false,
      "metar": "METAR LIPY 181850Z AUTO 20004KT 160V250 9999 NCD 10/05 Q1012",
      "taf": "TAF LIPY 181100Z 1812/1912 VRB05KT CAVOK"
    },
    {
      "icao": "LIPZ",
      "alert": "OK",
      "vis_m": 9999,
      "fzfg": false,
      "metar_trigger": false,
      "taf_trigger": false,
      "metar": "METAR LIPZ 181850Z 10002KT CAVOK 08/07 Q1011 NOSIG",
      "taf": "TAF LIPZ 181100Z 1812/1918 VRB05KT CAVOK"
    },
    {
      "icao": "LIRF",
      "alert": "OK",
      "vis_m": 9999,
      "fzfg": false,
      "metar_trigger": false,
      "taf_trigger": false,
      "metar": "METAR LIRF 181850Z 23010KT 9999 FEW020 13/10 Q1014 NOSIG",
      "taf": "TAF LIRF 181100Z 1812/1918 20012KT 9999 FEW025"
    },
    {
      "icao": "LIRN",
      "alert": "OK",
      "vis_m": 9999,
      "fzfg": false,
      "metar_trigger": false,
      "taf_trigger": false,
      "metar": "METAR LIRN 181850Z 22003KT 9999 SCT060 13/07 Q1016 NOSIG",
      "taf": "TAF LIRN 180500Z 1806/1906 VRB04KT 9999 FEW030"
    },
    {
      "icao": "LIRP",
      "alert": "OK",
      "vis_m": 8000,
      "fzfg": false,
      "metar_trigger": false,
      "taf_trigger": false,
      "metar": "METAR LIRP 181845Z 22007KT 8000 -RA FEW020 SCT030 BKN050 12/12 Q1012 NOSIG",
      "taf": "TAF LIRP 181100Z 1812/1912 23012KT 9999 SCT025"
    },
    {
      "icao": "LIRZ",
      "alert": "OK",
      "vis_m": 9999,
      "fzfg": false,
      "metar_trigger": false,
      "taf_trigger": false,
      "metar": "METAR LIRZ 181850Z AUTO 20007KT 9999 NCD 11/06 Q1013",
      "taf": "TAF LIRZ 180500Z 1806/1906 VRB05KT 9999 SCT035"
    },
    {
      "icao": "LJLJ",
      "alert": "OK",
      "vis_m": 9999,
      "fzfg": false,
      "metar_trigger": false,
      "taf_trigger": false,
      "metar": "METAR LJLJ 181900Z VRB02KT 9999 FEW047 SCT055 01/M01 Q1011 NOSIG",
      "taf": "TAF LJLJ 181100Z 1812/1912 VRB02KT 9999 FEW050"
    },
    {
      "icao": "LKMT",
      "alert": "OK",
      "vis_m": 7000,
      "fzfg": false,
      "metar_trigger": false,
      "taf_trigger": false,
      "metar": "METAR LKMT 181900Z VRB01KT 7000 -SHSN SCT004 OVC011 00/00 Q1012 TEMPO 1200 SHSN",
      "taf": "TAF LKMT 181100Z 1812/1912 23013KT 9999 FEW018"
    },
    {
      "icao": "LKPR",
      "alert": "OK",
      "vis_m": 9999,
      "fzfg": false,
      "metar_trigger": false,
      "taf_trigger": false,
      "metar": "METAR LKPR 181900Z 02003KT 9999 -SN FEW005 SCT019 BKN033 M00/M01 Q1012 NOSIG",
      "taf": "TAF LKPR 181100Z 1812/1918 26010KT 9999 BKN025"
    },
    {
      "icao": "LLBG",
      "alert": "OK",
      "vis_m": 9999,
      "fzfg": false,
      "metar_trigger": false,
      "taf_trigger": false,
      "metar": "METAR LLBG 181850Z 27012KT 9999 SCT040 17/09 Q1017 NOSIG RMK SCT080",
      "taf": "TAF LLBG 181105Z 1812/1912 23017KT 8000 NSC"
    },
    {
      "icao": "LMML",
      "alert": "OK",
      "vis_m": 9999,
      "fzfg": false,
      "metar_trigger": false,
      "taf_trigger": false,
      "metar": "METAR LMML 181845Z 26009KT 9999 FEW027 13/10 Q1021 NOSIG",
      "taf": "TAF LMML 181100Z 1812/1912 30015KT 9999 FEW025"
    },
    {
      "icao": "LOWW",
      "alert": "OK",
      "vis_m": 9999,
      "fzfg": false,
      "metar_trigger": false,
      "taf_trigger": false,
      "metar": "METAR LOWW 181850Z 17005KT 130V190 CAVOK M00/M06 Q1012 NOSIG",
      "taf": "TAF LOWW 181115Z 1812/1918 27010KT 9999 FEW050 TX06/1812Z TNM02/1903Z"
    },
    {
      "icao": "LPFR",
      "alert": "OK",
      "vis_m": 9999,
      "fzfg": false,
      "metar_trigger": false,
      "taf_trigger": false,
      "metar": "METAR LPFR 181900Z 24013KT 9999 FEW016 BKN030 15/13 Q1022",
      "taf": "TAF LPFR 181100Z 1812/1912 22005KT 9999 SCT018"
    },
    {
      "icao": "LPMA",
      "alert": "OK",
      "vis_m": 9999,
      "fzfg": false,
      "metar_trigger": false,
      "taf_trigger": false,
      "metar": "METAR LPMA 181900Z VRB02KT 9999 FEW014 17/12 Q1025",
      "taf": "TAF LPMA 181100Z 1812/1912 02008KT 9999 SCT014"
    },
    {
      "icao": "LPPR",
      "alert": "OK",
      "vis_m": 9999,
      "fzfg": false,
      "metar_trigger": false,
      "taf_trigger": false,
      "metar": "METAR LPPR 181900Z 29007KT 250V330 9999 VCSH FEW012 FEW018CB SCT040 12/09 Q1018",
      "taf": "TAF LPPR 181100Z 1812/1912 19017G27KT 2000 RADZ BR SCT002 BKN004"
    },
    {
      "icao": "LPPS",
      "alert": "OK",
      "vis_m": 9999,
      "fzfg": false,
      "metar_trigger": false,
      "taf_trigger": false,
      "metar": "METAR LPPS 181900Z 35006KT 9999 FEW013 16/13 Q1026",
      "taf": "TAF LPPS 181100Z 1812/1918 33005KT 9999 SCT015"
    },
    {
      "icao": "LPPT",
      "alert": "OK",
      "vis_m": 9999,
      "fzfg": false,
      "metar_trigger": false,
      "taf_trigger": false,
      "metar": "METAR LPPT 181900Z 29006KT 260V320 9999 FEW020 13/10 Q1021",
      "taf": "TAF LPPT 181100Z 1812/1918 22013KT 9999 SCT008 BKN015"
    },
    {
      "icao": "LQBK",
      "alert": "OK",
      "vis_m": 9999,
      "fzfg": false,
      "metar_trigger": false,
      "taf_trigger": false,
      "metar": "METAR LQBK 181900Z VRB01KT CAVOK 01/M00 Q1012 NOSIG",
      "taf": ""
    },
    {
      "icao": "LQSA",
      "alert": "OK",
      "vis_m": 9999,
      "fzfg": false,
      "metar_trigger": false,
      "taf_trigger": false,
      "metar": "METAR LQSA 181900Z VRB01KT CAVOK 00/00 Q1014 NOSIG",
      "taf": "TAF LQSA 181100Z 1812/1912 VRB02KT 9999 SCT045 TX08/1912Z TNM02/1902Z"
    },
    {
      "icao": "LQTZ",
      "alert": "OK",
      "vis_m": 9999,
      "fzfg": false,
      "metar_trigger": false,
      "taf_trigger": false,
      "metar": "METAR LQTZ 181900Z 11005KT CAVOK 01/M02 Q1014",
      "taf": "TAF LQTZ 181100Z 1812/1912 28005KT 9999 SCT045 TX10/1814Z TNM02/1901Z"
    },
    {
      "icao": "LRBC",
      "alert": "OK",
      "vis_m": 9999,
      "fzfg": false,
      "metar_trigger": false,
      "taf_trigger": false,
      "metar": "METAR LRBC 181900Z 33006KT 9999 FEW045 M02/M05 Q1009",
      "taf": "TAF LRBC 180800Z 1809/1818 35010KT 3000 -SN BR BKN008 OVC025"
    },
    {
      "icao": "LRBS",
      "alert": "OK",
      "vis_m": 250,
      "fzfg": true,
      "metar_trigger": false,
      "taf_trigger": false,
      "metar": "METAR LRBS 181900Z VRB02KT 0250 R07/0500U FZFG VV001 M01/M02 Q1010 NOSIG",
      "taf": "TAF LRBS 180500Z 1806/1906 VRB04KT 3000 -SN BR BKN005 OVC015"
    },
    {
      "icao": "LRBV",
      "alert": "OK",
      "vis_m": 9999,
      "fzfg": false,
      "metar_trigger": false,
      "taf_trigger": false,
      "metar": "METAR LRBV 181900Z 31008KT 280V340 9999 -SG SCT013 SCT023 00/M02 Q1009",
      "taf": "TAF LRBV 180800Z 1809/1818 30010KT 3000 SN BR OVC010"
    },
    {
      "icao": "LRCL",
      "alert": "OK",
      "vis_m": 9999,
      "fzfg": false,
      "metar_trigger": false,
      "taf_trigger": false,
      "metar": "METAR LRCL 181900Z 26005KT CAVOK 01/M03 Q1010",
      "taf": "TAF LRCL 180800Z 1809/1818 30012KT 9999 SCT035"
    },
    {
      "icao": "LRCV",
      "alert": "OK",
      "vis_m": 9999,
      "fzfg": false,
      "metar_trigger": false,
      "taf_trigger": false,
      "metar": "METAR LRCV 181900Z 29015KT CAVOK 03/M00 Q1012",
      "taf": "TAF LRCV 180800Z 1809/1818 29012KT CAVOK"
    },
    {
      "icao": "LRIA",
      "alert": "OK",
      "vis_m": 9999,
      "fzfg": false,
      "metar_trigger": false,
      "taf_trigger": false,
      "metar": "METAR LRIA 181900Z 30011KT CAVOK M04/M04 Q1008",
      "taf": "TAF LRIA 180800Z 1809/1818 32012KT 1500 -SN BR BKN005 OVC015"
    },
    {
      "icao": "LROP",
      "alert": "CRITICAL",
      "vis_m": 100,
      "fzfg": true,
      "metar_trigger": true,
      "taf_trigger": false,
      "metar": "METAR LROP 181900Z 08003KT 050V130 0100 R08R/0250N FZFG VV001 M02/M02 Q1010 NOSIG",
      "taf": "TAF LROP 180500Z 1806/1906 VRB04KT 3000 -SN BR BKN005 OVC015"
    },
    {
      "icao": "LRSB",
      "alert": "OK",
      "vis_m": 9999,
      "fzfg": false,
      "metar_trigger": false,
      "taf_trigger": false,
      "metar": "METAR LRSB 181900Z 29013KT 9999 BKN065 02/M02 Q1010",
      "taf": "TAF LRSB 180500Z 1806/1906 VRB04KT 3000 -SN BR BKN005 OVC010"
    },
    {
      "icao": "LRSM",
      "alert": "OK",
      "vis_m": 9999,
      "fzfg": false,
      "metar_trigger": false,
      "taf_trigger": false,
      "metar": "METAR LRSM 181900Z AUTO 24007KT 9999 SCT065/// BKN095/// 03/00 Q1011",
      "taf": "TAF LRSM 180800Z 1809/1818 VRB04KT CAVOK"
    },
    {
      "icao": "LRSV",
      "alert": "OK",
      "vis_m": 9999,
      "fzfg": false,
      "metar_trigger": false,
      "taf_trigger": false,
      "metar": "METAR LRSV 181900Z 30013KT CAVOK M03/M06 Q1007",
      "taf": "TAF LRSV 180800Z 1809/1818 31011KT 3000 -SN BR BKN045"
    },
    {
      "icao": "LRTM",
      "alert": "OK",
      "vis_m": 9999,
      "fzfg": false,
      "metar_trigger": false,
      "taf_trigger": false,
      "metar": "METAR LRTM 181900Z AUTO 23005KT 9999 NCD M00/M03 Q1011",
      "taf": "TAF LRTM 180800Z 1809/1818 26008KT 9999 SCT015 BKN030"
    },
    {
      "icao": "LRTR",
      "alert": "OK",
      "vis_m": 9999,
      "fzfg": false,
      "metar_trigger": false,
      "taf_trigger": false,
      "metar": "METAR LRTR 181900Z 27003KT CAVOK 01/M00 Q1014",
      "taf": "TAF LRTR 180500Z 1806/1906 VRB04KT 3000 BR NSC"
    },
    {
      "icao": "LTAC",
      "alert": "OK",
      "vis_m": 9999,
      "fzfg": false,
      "metar_trigger": false,
      "taf_trigger": false,
      "metar": "METAR LTAC 181850Z 25017KT 9999 SCT040 BKN080 01/M03 Q1006 NOSIG RMK RWY21C 25016KT RWY03L 25015KT RWY21R 24014KT RWY03R 23016KT 190V250 RWY21L 25016KT",
      "taf": "TAF LTAC 181040Z 1812/1912 24012KT 9999 SCT040 BKN100"
    },
    {
      "icao": "LTFM",
      "alert": "OK",
      "vis_m": 9999,
      "fzfg": false,
      "metar_trigger": false,
      "taf_trigger": false,
      "metar": "METAR LTFM 181850Z 21010KT 9999 -SHRASN FEW012 BKN028 03/02 Q1013 NOSIG RMK RWY17L 21014KT RWY34L 21010KT RWY16R 21011KT RWY36 22010KT RWY18 22014KT",
      "taf": "TAF LTFM 181040Z 1812/1918 32018KT 9999 -SHRASN BKN010 BKN025"
    },
    {
      "icao": "LUKK",
      "alert": "OK",
      "vis_m": 5000,
      "fzfg": false,
      "metar_trigger": false,
      "taf_trigger": false,
      "metar": "METAR LUKK 181900Z 34015KT 320V020 5000 -SN BLSN SCT014 BKN019 BKN023 M04/M06 Q1006 RESN NOSIG",
      "taf": "TAF LUKK 181103Z 1812/1912 34014KT 5000 SN OVC008"
    },
    {
      "icao": "LWOH",
      "alert": "OK",
      "vis_m": 9999,
      "fzfg": false,
      "metar_trigger": false,
      "taf_trigger": false,
      "metar": "METAR LWOH 181850Z 05004KT CAVOK 02/M03 Q1016",
      "taf": "TAF LWOH 181120Z 1812/1912 30015KT 9999 FEW040"
    },
    {
      "icao": "LWSK",
      "alert": "OK",
      "vis_m": 9999,
      "fzfg": false,
      "metar_trigger": false,
      "taf_trigger": false,
      "metar": "METAR LWSK 181850Z 12004KT 090V170 CAVOK 03/M03 Q1016 NOSIG",
      "taf": "TAF LWSK 181120Z 1812/1912 32015KT 9999 FEW060"
    },
    {
      "icao": "LYBE",
      "alert": "OK",
      "vis_m": 9999,
      "fzfg": false,
      "metar_trigger": false,
      "taf_trigger": false,
      "metar": "METAR LYBE 181900Z 15006KT CAVOK 02/M02 Q1015 NOSIG",
      "taf": "TAF LYBE 181100Z 1812/1912 32015KT 9999 SCT030 TX12/1912Z TN01/1906Z"
    },
    {
      "icao": "LYNI",
      "alert": "OK",
      "vis_m": 9999,
      "fzfg": false,
      "metar_trigger": false,
      "taf_trigger": false,
      "metar": "METAR LYNI 181900Z VRB02KT 9999 BKN060 02/01 Q1016 NOSIG",
      "taf": "TAF LYNI 181100Z 1812/1912 32012KT 9999 BKN040 TX12/1912Z TNM03/1906Z"
    },
    {
      "icao": "LYPG",
      "alert": "OK",
      "vis_m": 9999,
      "fzfg": false,
      "metar_trigger": false,
      "taf_trigger": false,
      "metar": "METAR LYPG 181900Z 13005KT CAVOK 07/02 Q1017 NOSIG",
      "taf": "TAF LYPG 181100Z 1812/1912 18007KT CAVOK TX13/1812Z TN02/1901Z"
    },
    {
      "icao": "LZIB",
      "alert": "OK",
      "vis_m": 9999,
      "fzfg": false,
      "metar_trigger": false,
      "taf_trigger": false,
      "metar": "METAR LZIB 181900Z 16007KT CAVOK 00/M04 Q1012 NOSIG",
      "taf": "TAF LZIB 181115Z 1812/1912 26011KT 9999 SCT030"
    },
    {
      "icao": "LZKZ",
      "alert": "OK",
      "vis_m": 9999,
      "fzfg": false,
      "metar_trigger": false,
      "taf_trigger": false,
      "metar": "METAR LZKZ 181900Z 34006KT CAVOK 01/M00 Q1010 NOSIG",
      "taf": "TAF LZKZ 181115Z 1812/1912 18006KT 9999 SCT030"
    },
    {
      "icao": "LZTT",
      "alert": "OK",
      "vis_m": 9999,
      "fzfg": false,
      "metar_trigger": false,
      "taf_trigger": false,
      "metar": "METAR LZTT 181900Z 28011KT 9999 FEW016 SCT063 M02/M04 Q1008",
      "taf": "TAF LZTT 181115Z 1812/1912 27013KT 9999 FEW015 BKN020"
    },
    {
      "icao": "OEJN",
      "alert": "OK",
      "vis_m": 9999,
      "fzfg": false,
      "metar_trigger": false,
      "taf_trigger": false,
      "metar": "METAR OEJN 181900Z 34009KT CAVOK 26/20 Q1012 NOSIG",
      "taf": "TAF OEJN 181100Z 1812/1918 30010KT CAVOK"
    },
    {
      "icao": "OEMA",
      "alert": "OK",
      "vis_m": 9999,
      "fzfg": false,
      "metar_trigger": false,
      "taf_trigger": false,
      "metar": "METAR OEMA 181900Z 26010KT CAVOK 29/07 Q1015 NOSIG",
      "taf": "TAF OEMA 181100Z 1812/1918 28008KT CAVOK"
    },
    {
      "icao": "OJAI",
      "alert": "OK",
      "vis_m": 4000,
      "fzfg": false,
      "metar_trigger": false,
      "taf_trigger": false,
      "metar": "METAR OJAI 181900Z 29016KT 4000 BLDU NSC 11/07 Q1017 NOSIG",
      "taf": "TAF OJAI 181119Z 1812/1918 24010KT 4000 HZ FEW030"
    },
    {
      "icao": "OMAA",
      "alert": "OK",
      "vis_m": 9999,
      "fzfg": false,
      "metar_trigger": false,
      "taf_trigger": false,
      "metar": "METAR OMAA 181900Z 01007KT CAVOK 22/17 Q1016 NOSIG",
      "taf": "TAF OMAA 181100Z 1812/1918 01012KT 8000 NSC"
    },
    {
      "icao": "OMDB",
      "alert": "OK",
      "vis_m": 9999,
      "fzfg": false,
      "metar_trigger": false,
      "taf_trigger": false,
      "metar": "METAR OMDB 181900Z 02005KT 350V070 CAVOK 25/13 Q1016 NOSIG",
      "taf": "TAF OMDB 181100Z 1812/1918 35013KT CAVOK"
    },
    {
      "icao": "UAAA",
      "alert": "OK",
      "vis_m": 2700,
      "fzfg": false,
      "metar_trigger": false,
      "taf_trigger": false,
      "metar": "METAR UAAA 181900Z 17002MPS 2700 BR FU BKN200 03/01 Q1015 NOSIG",
      "taf": "TAF UAAA 181108Z 1812/1912 22003MPS 5000 BR FU SCT050 BKN100 TX20/1909Z TN02/1903Z"
    },
    {
      "icao": "UBBB",
      "alert": "OK",
      "vis_m": 3000,
      "fzfg": false,
      "metar_trigger": false,
      "taf_trigger": false,
      "metar": "METAR UBBB 181900Z 13006KT 3000 BR BKN002 07/06 Q1009 NOSIG",
      "taf": "TAF UBBB 181047Z 1812/1912 36010KT 9999 SCT015 TX10/1812Z TN04/1900Z"
    },
    {
      "icao": "UDSG",
      "alert": "OK",
      "vis_m": 8000,
      "fzfg": false,
      "metar_trigger": false,
      "taf_trigger": false,
      "metar": "METAR UDSG 181900Z 10001KT 8000 -RA OVC036 03/03 Q1010 NOSIG",
      "taf": "TAF UDSG 181100Z 1812/1912 VRB06KT 9999 BKN040"
    },
    {
      "icao": "UDYZ",
      "alert": "OK",
      "vis_m": 9999,
      "fzfg": false,
      "metar_trigger": false,
      "taf_trigger": false,
      "metar": "METAR UDYZ 181830Z COR VRB02KT 9999 FEW043CB 12/03 Q1007 NOSIG",
      "taf": ""
    },
    {
      "icao": "UGKO",
      "alert": "OK",
      "vis_m": 9999,
      "fzfg": false,
      "metar_trigger": false,
      "taf_trigger": false,
      "metar": "METAR UGKO 181900Z 03008KT CAVOK 18/03 Q0998 NOSIG",
      "taf": "TAF UGKO 181100Z 1812/1912 08020KT 9999 BKN050 TX23/1812Z TN06/1912Z"
    }
  ]
}