{
  "ts_utc": "2026-02-19T04:45:27Z",
  "threshold_m": 150,
  "source": "stations_override.txt (ICAO list) + aviationweather.gov (METAR/TAF raw)",
  "station_count": 159,
  "stations": [
    {
      "icao": "BIKF",
      "alert": "OK",
      "vis_m": 9999,
      "fzfg": false,
      "metar_trigger": false,
      "taf_trigger": false,
      "metar": "METAR BIKF 190430Z 04016KT CAVOK M03/M08 Q1011",
      "taf": "TAF BIKF 190436Z 1906/2006 04022G32KT 9999 FEW040 TX01/1915Z TNM04/1906Z"
    },
    {
      "icao": "BKPR",
      "alert": "OK",
      "vis_m": 9999,
      "fzfg": false,
      "metar_trigger": false,
      "taf_trigger": false,
      "metar": "METAR BKPR 190430Z VRB01KT CAVOK M03/M04 Q1016 NOSIG",
      "taf": "TAF BKPR 182330Z 1900/1924 VRB05KT CAVOK"
    },
    {
      "icao": "EBCI",
      "alert": "OK",
      "vis_m": 9999,
      "fzfg": false,
      "metar_trigger": false,
      "taf_trigger": false,
      "metar": "METAR EBCI 190420Z 11007KT 9999 BKN035 04/03 Q0993 TEMPO BKN008",
      "taf": "TAF EBCI 182300Z 1900/2006 12011KT 9999 SCT011 BKN018"
    },
    {
      "icao": "EDDB",
      "alert": "OK",
      "vis_m": 9999,
      "fzfg": false,
      "metar_trigger": false,
      "taf_trigger": false,
      "metar": "METAR EDDB 190420Z AUTO 08006KT CAVOK M10/M11 Q1012 NOSIG",
      "taf": "TAF EDDB 182300Z 1900/1924 09004KT CAVOK"
    },
    {
      "icao": "EDDH",
      "alert": "OK",
      "vis_m": 9999,
      "fzfg": false,
      "metar_trigger": false,
      "taf_trigger": false,
      "metar": "METAR EDDH 190420Z AUTO 09009KT CAVOK M06/M09 Q1011 NOSIG",
      "taf": "TAF EDDH 182300Z 1900/2006 10007KT CAVOK"
    },
    {
      "icao": "EDDK",
      "alert": "OK",
      "vis_m": 9999,
      "fzfg": false,
      "metar_trigger": false,
      "taf_trigger": false,
      "metar": "METAR EDDK 190420Z AUTO 11013G24KT 080V140 9999 -SNRA SCT017 SCT028 BKN038 02/M00 Q0999 TEMPO 4000 SNRA BKN014",
      "taf": "TAF EDDK 182300Z 1900/2006 12012KT 9999 OVC020"
    },
    {
      "icao": "EDDN",
      "alert": "OK",
      "vis_m": 4200,
      "fzfg": false,
      "metar_trigger": false,
      "taf_trigger": false,
      "metar": "METAR EDDN 190420Z AUTO 11011KT 4200 -SN BR FEW017 BKN028 M01/M02 Q1003 RESN",
      "taf": "TAF EDDN 182300Z 1900/1924 09007KT 9999 BKN020"
    },
    {
      "icao": "EDDS",
      "alert": "OK",
      "vis_m": 6000,
      "fzfg": false,
      "metar_trigger": false,
      "taf_trigger": false,
      "metar": "METAR EDDS 190420Z AUTO 10003KT 070V140 6000 SHRA FEW025 BKN032 BKN043 FEW///TCU 02/01 Q0999",
      "taf": "TAF EDDS 182300Z 1900/1924 09007KT 9999 BKN020"
    },
    {
      "icao": "EDFH",
      "alert": "OK",
      "vis_m": 5000,
      "fzfg": false,
      "metar_trigger": false,
      "taf_trigger": false,
      "metar": "METAR EDFH 190420Z COR 13014KT 5000 -SN BKN002 M01/M01 Q0997",
      "taf": ""
    },
    {
      "icao": "EDJA",
      "alert": "OK",
      "vis_m": 6000,
      "fzfg": false,
      "metar_trigger": false,
      "taf_trigger": false,
      "metar": "METAR EDJA 190420Z AUTO 07006KT 030V100 6000 // OVC003/// 00/M00 Q0999",
      "taf": ""
    },
    {
      "icao": "EDLW",
      "alert": "OK",
      "vis_m": 6000,
      "fzfg": false,
      "metar_trigger": false,
      "taf_trigger": false,
      "metar": "METAR EDLW 190420Z 04008KT 6000 -SN FEW024 OVC028 00/M01 Q1001",
      "taf": "TAF EDLW 190420Z 1905/1924 07012KT 6000 BKN020"
    },
    {
      "icao": "EDNY",
      "alert": "OK",
      "vis_m": 9999,
      "fzfg": false,
      "metar_trigger": false,
      "taf_trigger": false,
      "metar": "METAR EDNY 190420Z AUTO 28004KT 230V320 9999 // OVC009/// 02/02 Q1001",
      "taf": "TAF EDNY 190200Z 1903/1912 04004KT 9000 FEW010 BKN050"
    },
    {
      "icao": "EDSB",
      "alert": "OK",
      "vis_m": 6000,
      "fzfg": false,
      "metar_trigger": false,
      "taf_trigger": false,
      "metar": "METAR EDSB 190420Z 18003KT 6000 -RA BKN003 OVC010 04/03 Q0999",
      "taf": ""
    },
    {
      "icao": "EETN",
      "alert": "OK",
      "vis_m": 3400,
      "fzfg": false,
      "metar_trigger": false,
      "taf_trigger": false,
      "metar": "METAR EETN 190420Z 08005KT 3400 SN OVC035 M10/M11 Q1010 TEMPO 2500 BKN014",
      "taf": "TAF EETN 182330Z 1900/1924 2008KT 9999 SCT035 BKN045"
    },
    {
      "icao": "EFTU",
      "alert": "OK",
      "vis_m": 9000,
      "fzfg": false,
      "metar_trigger": false,
      "taf_trigger": false,
      "metar": "METAR EFTU 190420Z AUTO 07005KT 9000 -SN BKN035 M13/M15 Q1011",
      "taf": "TAF EFTU 190236Z 1903/2003 07005KT 9999 -SN NSC"
    },
    {
      "icao": "EGBB",
      "alert": "OK",
      "vis_m": 6000,
      "fzfg": false,
      "metar_trigger": false,
      "taf_trigger": false,
      "metar": "METAR EGBB 190420Z 05008KT 6000 -RA OVC006 02/01 Q0994",
      "taf": "TAF EGBB 182259Z 1900/1924 10013KT 9999 BKN009"
    },
    {
      "icao": "EGGP",
      "alert": "OK",
      "vis_m": 9999,
      "fzfg": false,
      "metar_trigger": false,
      "taf_trigger": false,
      "metar": "METAR EGGP 190420Z AUTO 05008KT 9999 -RA FEW019/// OVC037/// 03/01 Q0997",
      "taf": "TAF EGGP 182257Z 1900/1924 07010KT 9999 BKN016"
    },
    {
      "icao": "EGGW",
      "alert": "OK",
      "vis_m": 6000,
      "fzfg": false,
      "metar_trigger": false,
      "taf_trigger": false,
      "metar": "METAR EGGW 190420Z AUTO 06009KT 6000 OVC002 04/03 Q0992",
      "taf": "TAF EGGW 182305Z 1900/1924 10015KT 9999 OVC006"
    },
    {
      "icao": "EGKK",
      "alert": "OK",
      "vis_m": 6000,
      "fzfg": false,
      "metar_trigger": false,
      "taf_trigger": false,
      "metar": "METAR EGKK 190420Z 06007KT 6000 -RA BKN002 05/05 Q0991",
      "taf": "TAF EGKK 182253Z 1900/2006 09010KT 9999 BKN006"
    },
    {
      "icao": "EGNM",
      "alert": "OK",
      "vis_m": null,
      "fzfg": false,
      "metar_trigger": false,
      "taf_trigger": false,
      "metar": "",
      "taf": ""
    },
    {
      "icao": "EGPD",
      "alert": "OK",
      "vis_m": 9999,
      "fzfg": false,
      "metar_trigger": false,
      "taf_trigger": false,
      "metar": "METAR EGPD 190420Z COR AUTO 14015KT 9999 BKN025 BKN030 04/M01 Q1004 NOSIG",
      "taf": "TAF EGPD 182257Z 1900/1924 14012KT 9999 BKN030"
    },
    {
      "icao": "EGPF",
      "alert": "OK",
      "vis_m": 9999,
      "fzfg": false,
      "metar_trigger": false,
      "taf_trigger": false,
      "metar": "METAR EGPF 190420Z AUTO 06011KT 9999 NCD 03/M00 Q1001",
      "taf": "TAF EGPF 182301Z 1900/1924 09009KT 9999 SCT040"
    },
    {
      "icao": "EHBK",
      "alert": "OK",
      "vis_m": 8000,
      "fzfg": false,
      "metar_trigger": false,
      "taf_trigger": false,
      "metar": "METAR EHBK 190425Z AUTO 08012KT 060V120 8000 -RA SCT030/// SCT043/// 02/01 Q0996 REDZRA",
      "taf": "TAF EHBK 182320Z 1900/2006 09012KT 9999 -RA BKN030"
    },
    {
      "icao": "EHEH",
      "alert": "OK",
      "vis_m": 5000,
      "fzfg": false,
      "metar_trigger": false,
      "taf_trigger": false,
      "metar": "METAR EHEH 190425Z AUTO 09014KT 030V130 5000 -RA FEW007 BKN009 OVC010 02/00 Q0997 GRN RMK TREND REMOTE BY EHWX",
      "taf": ""
    },
    {
      "icao": "EKBI",
      "alert": "OK",
      "vis_m": 9999,
      "fzfg": false,
      "metar_trigger": false,
      "taf_trigger": false,
      "metar": "METAR EKBI 190420Z AUTO 06003KT 9999 OVC027/// M06/M06 Q1012",
      "taf": "TAF EKBI 190227Z 1903/2003 VRB03KT 9999 BKN025"
    },
    {
      "icao": "EKCH",
      "alert": "OK",
      "vis_m": 9000,
      "fzfg": false,
      "metar_trigger": false,
      "taf_trigger": false,
      "metar": "METAR EKCH 190420Z 29005KT 9000 SCT009 M04/M05 Q1012 TEMPO BKN014",
      "taf": "TAF EKCH 190227Z 1903/2003 31008KT 9999 BKN015"
    },
    {
      "icao": "ENAL",
      "alert": "OK",
      "vis_m": 9999,
      "fzfg": false,
      "metar_trigger": false,
      "taf_trigger": false,
      "metar": "METAR ENAL 190420Z COR 21014KT 9999 FEW037 BKN051 03/M02 Q1009",
      "taf": "TAF ENAL 190200Z 1903/1912 19012KT 9999 SCT010 BKN020"
    },
    {
      "icao": "ENBR",
      "alert": "OK",
      "vis_m": 9999,
      "fzfg": false,
      "metar_trigger": false,
      "taf_trigger": false,
      "metar": "METAR ENBR 190420Z 12004KT CAVOK M04/M05 Q1012 RMK WIND 1200FT 14010KT",
      "taf": "TAF ENBR 182300Z 1900/1924 11005KT 9999 FEW040"
    },
    {
      "icao": "ENGM",
      "alert": "OK",
      "vis_m": 1900,
      "fzfg": false,
      "metar_trigger": false,
      "taf_trigger": false,
      "metar": "METAR ENGM 190420Z 01002KT 1900 0450E R19R/P2000N R01R/0600N R19L/0550N R01L/P2000N BCFG VV002 M17/M19 Q1012",
      "taf": "TAF ENGM 182300Z 1900/1924 VRB03KT 9999 BKN005"
    },
    {
      "icao": "ENHD",
      "alert": "OK",
      "vis_m": 9999,
      "fzfg": false,
      "metar_trigger": false,
      "taf_trigger": false,
      "metar": "METAR ENHD 190420Z AUTO 10010KT 9999 NCD M03/M04 Q1012",
      "taf": "TAF ENHD 190200Z 1903/1912 12008KT 9999 FEW010"
    },
    {
      "icao": "ENTC",
      "alert": "OK",
      "vis_m": 9999,
      "fzfg": false,
      "metar_trigger": false,
      "taf_trigger": false,
      "metar": "METAR ENTC 190420Z 21007KT 170V240 9999 -SN FEW012 BKN014 BKN020 M06/M08 Q1008 RMK WIND 2600FT 13013KT",
      "taf": ""
    },
    {
      "icao": "ENTO",
      "alert": "OK",
      "vis_m": 9999,
      "fzfg": false,
      "metar_trigger": false,
      "taf_trigger": false,
      "metar": "METAR ENTO 190420Z 33004KT CAVOK M12/M13 Q1013",
      "taf": "TAF ENTO 182300Z 1900/1924 34005KT 9999 FEW005"
    },
    {
      "icao": "ENVA",
      "alert": "OK",
      "vis_m": 9999,
      "fzfg": false,
      "metar_trigger": false,
      "taf_trigger": false,
      "metar": "METAR ENVA 190420Z 09007KT CAVOK M09/M10 Q1009 RMK WIND 670FT 15007KT",
      "taf": "TAF ENVA 182300Z 1900/1924 10005KT 9999 FEW015 BKN030"
    },
    {
      "icao": "ENZV",
      "alert": "OK",
      "vis_m": 9999,
      "fzfg": false,
      "metar_trigger": false,
      "taf_trigger": false,
      "metar": "METAR ENZV 190420Z 12008KT CAVOK M04/M07 Q1012",
      "taf": "TAF ENZV 182300Z 1900/1924 14005KT 9999 FEW002 SCT020"
    },
    {
      "icao": "EPGD",
      "alert": "OK",
      "vis_m": 9999,
      "fzfg": false,
      "metar_trigger": false,
      "taf_trigger": false,
      "metar": "METAR EPGD 190430Z 21002KT 9999 BKN030 M07/M09 Q1011",
      "taf": "TAF EPGD 182330Z 1900/1924 24005KT 9999 BKN025"
    },
    {
      "icao": "EPKK",
      "alert": "OK",
      "vis_m": 5000,
      "fzfg": false,
      "metar_trigger": false,
      "taf_trigger": false,
      "metar": "METAR EPKK 190430Z 03005KT 5000 BR SCT010 OVC012 M02/M05 Q1011",
      "taf": "TAF EPKK 190230Z 1903/2003 VRB02KT 6000 BKN012"
    },
    {
      "icao": "EPKT",
      "alert": "OK",
      "vis_m": 4100,
      "fzfg": false,
      "metar_trigger": false,
      "taf_trigger": false,
      "metar": "METAR EPKT 190430Z 32001KT 4100 BR OVC033 M06/M07 Q1011",
      "taf": "TAF EPKT 182330Z 1900/1924 34007KT 9999 BKN035"
    },
    {
      "icao": "EPLB",
      "alert": "OK",
      "vis_m": 2800,
      "fzfg": false,
      "metar_trigger": false,
      "taf_trigger": false,
      "metar": "METAR EPLB 190430Z 26005KT 2800 BR FEW018 M09/M10 Q1012",
      "taf": ""
    },
    {
      "icao": "EPMO",
      "alert": "OK",
      "vis_m": 4200,
      "fzfg": false,
      "metar_trigger": false,
      "taf_trigger": false,
      "metar": "METAR EPMO 190430Z 26005KT 4200 BR SCT023 BKN034 M07/M07 Q1012",
      "taf": "TAF EPMO 182330Z 1900/1924 26004KT 6000 SCT030"
    },
    {
      "icao": "EPPO",
      "alert": "OK",
      "vis_m": 8000,
      "fzfg": false,
      "metar_trigger": false,
      "taf_trigger": false,
      "metar": "METAR EPPO 190430Z 22001KT 8000 NSC M12/M13 Q1013",
      "taf": "TAF EPPO 182330Z 1900/1924 VRB02KT CAVOK"
    },
    {
      "icao": "EPRA",
      "alert": "OK",
      "vis_m": 6000,
      "fzfg": false,
      "metar_trigger": false,
      "taf_trigger": false,
      "metar": "METAR EPRA 190430Z 23006KT 6000 NSC M09/M11 Q1012",
      "taf": "TAF EPRA 190230Z 1903/1912 26004KT 7000 NSC"
    },
    {
      "icao": "EPRZ",
      "alert": "OK",
      "vis_m": 8000,
      "fzfg": false,
      "metar_trigger": false,
      "taf_trigger": false,
      "metar": "METAR EPRZ 190430Z 06002KT 8000 OVC015 M04/M07 Q1012",
      "taf": "TAF EPRZ 182330Z 1900/1924 35005KT 9999 BKN016"
    },
    {
      "icao": "EPSC",
      "alert": "OK",
      "vis_m": 9999,
      "fzfg": false,
      "metar_trigger": false,
      "taf_trigger": false,
      "metar": "METAR EPSC 190430Z VRB01KT CAVOK M08/M09 Q1013",
      "taf": "TAF EPSC 182330Z 1900/1924 VRB02KT 9000 SCT030"
    },
    {
      "icao": "EPSY",
      "alert": "OK",
      "vis_m": 7000,
      "fzfg": false,
      "metar_trigger": false,
      "taf_trigger": false,
      "metar": "METAR EPSY 190430Z 25003KT 7000 NSC M14/M15 Q1011",
      "taf": "TAF EPSY 190230Z 1903/1912 25006KT 9999 SCT040"
    },
    {
      "icao": "EPWA",
      "alert": "OK",
      "vis_m": 7000,
      "fzfg": false,
      "metar_trigger": false,
      "taf_trigger": false,
      "metar": "METAR EPWA 190430Z 26005KT 7000 -SN SCT016 OVC045 M05/M06 Q1012 NOSIG",
      "taf": "TAF EPWA 190230Z 1903/2003 27004KT 6000 SCT030"
    },
    {
      "icao": "EPWR",
      "alert": "OK",
      "vis_m": 3000,
      "fzfg": false,
      "metar_trigger": false,
      "taf_trigger": false,
      "metar": "METAR EPWR 190430Z 28001KT 3000 MIFG BR FEW002 M09/M10 Q1012",
      "taf": "TAF EPWR 190230Z 1903/2003 VRB02KT 3000 BR NSC"
    },
    {
      "icao": "ESGG",
      "alert": "OK",
      "vis_m": 9999,
      "fzfg": false,
      "metar_trigger": false,
      "taf_trigger": false,
      "metar": "METAR ESGG 190420Z 02004KT 9999 OVC005 M08/M09 Q1012",
      "taf": "TAF ESGG 190230Z 1903/2003 VRB03KT CAVOK"
    },
    {
      "icao": "ESKN",
      "alert": "OK",
      "vis_m": 9999,
      "fzfg": false,
      "metar_trigger": false,
      "taf_trigger": false,
      "metar": "METAR ESKN 190420Z 00000KT CAVOK M16/M18 Q1011",
      "taf": "TAF ESKN 190230Z 1903/2003 33005KT 9999 FEW035"
    },
    {
      "icao": "ESMS",
      "alert": "OK",
      "vis_m": 5000,
      "fzfg": false,
      "metar_trigger": false,
      "taf_trigger": false,
      "metar": "METAR ESMS 190420Z 01006KT 5000 BKN007 OVC015 M03/M03 Q1011",
      "taf": ""
    },
    {
      "icao": "ESSA",
      "alert": "OK",
      "vis_m": 9999,
      "fzfg": false,
      "metar_trigger": false,
      "taf_trigger": false,
      "metar": "METAR ESSA 190420Z 25004KT 9999 FEW030 M14/M16 Q1010 NOSIG",
      "taf": "TAF ESSA 190230Z 1903/2003 35005KT 9999 BKN030"
    },
    {
      "icao": "EYKA",
      "alert": "OK",
      "vis_m": 4900,
      "fzfg": false,
      "metar_trigger": false,
      "taf_trigger": false,
      "metar": "METAR EYKA 190420Z 17003KT 140V220 4900 -SN BR OVC007 M07/M08 Q1008",
      "taf": "TAF EYKA 182314Z 1900/1924 VRB04KT 5000 BR BKN005 BKN015"
    },
    {
      "icao": "EYPA",
      "alert": "OK",
      "vis_m": 9999,
      "fzfg": false,
      "metar_trigger": false,
      "taf_trigger": false,
      "metar": "METAR EYPA 190420Z VRB02KT 9999 FEW018 OVC049 M09/M11 Q1008",
      "taf": "TAF EYPA 182310Z 1900/1924 VRB04KT 5000 BR SCT015 BKN025"
    },
    {
      "icao": "EYVI",
      "alert": "OK",
      "vis_m": 9999,
      "fzfg": false,
      "metar_trigger": false,
      "taf_trigger": false,
      "metar": "METAR EYVI 190420Z 17003KT 9999 -SN BKN043 M10/M12 Q1008 TEMPO OVC010",
      "taf": "TAF EYVI 182315Z 1900/1924 VRB04KT 5000 BR OVC005"
    },
    {
      "icao": "GCFV",
      "alert": "OK",
      "vis_m": 9999,
      "fzfg": false,
      "metar_trigger": false,
      "taf_trigger": false,
      "metar": "METAR GCFV 190430Z AUTO 02016KT 9999 OVC020 16/12 Q1023",
      "taf": "TAF GCFV 190200Z 1903/2003 04016KT 9999 SCT020 TX19/1914Z TN16/1906Z"
    },
    {
      "icao": "GCLP",
      "alert": "OK",
      "vis_m": 9999,
      "fzfg": false,
      "metar_trigger": false,
      "taf_trigger": false,
      "metar": "METAR GCLP 190430Z 01018KT 9999 BKN022 16/11 Q1023 NOSIG",
      "taf": "TAF GCLP 190200Z 1903/2003 01018KT 9999 SCT020 TX20/1914Z TN14/1906Z"
    },
    {
      "icao": "GCTS",
      "alert": "OK",
      "vis_m": 9999,
      "fzfg": false,
      "metar_trigger": false,
      "taf_trigger": false,
      "metar": "METAR GCTS 190430Z 05014KT CAVOK 15/11 Q1022 NOSIG",
      "taf": "TAF GCTS 190200Z 1903/2003 08020KT 9999 FEW015 TX24/1914Z TN16/1906Z"
    },
    {
      "icao": "GMAD",
      "alert": "OK",
      "vis_m": 600,
      "fzfg": false,
      "metar_trigger": false,
      "taf_trigger": false,
      "metar": "METAR GMAD 190430Z 00000KT 0600 R27/0900N FG OVC003 11/09 Q1021 NOSIG",
      "taf": ""
    },
    {
      "icao": "GMMN",
      "alert": "OK",
      "vis_m": 9999,
      "fzfg": false,
      "metar_trigger": false,
      "taf_trigger": false,
      "metar": "METAR GMMN 190430Z 07006KT 9999 SCT016 09/07 Q1025 NOSIG",
      "taf": "TAF GMMN 182300Z 1900/2006 04006KT 9999 BKN016"
    },
    {
      "icao": "GMMX",
      "alert": "OK",
      "vis_m": 2000,
      "fzfg": false,
      "metar_trigger": false,
      "taf_trigger": false,
      "metar": "METAR GMMX 190430Z 25004KT 2000 BR BKN008 09/09 Q1023 TEMPO 0800 FG",
      "taf": "TAF GMMX 182300Z 1900/2006 04006KT 4000 BR BKN010"
    },
    {
      "icao": "HEGN",
      "alert": "OK",
      "vis_m": null,
      "fzfg": false,
      "metar_trigger": false,
      "taf_trigger": false,
      "metar": "",
      "taf": ""
    },
    {
      "icao": "HEMA",
      "alert": "OK",
      "vis_m": 9999,
      "fzfg": false,
      "metar_trigger": false,
      "taf_trigger": false,
      "metar": "METAR HEMA 190400Z 32013KT CAVOK 18/08 Q1016 NOSIG",
      "taf": ""
    },
    {
      "icao": "HESH",
      "alert": "OK",
      "vis_m": 9999,
      "fzfg": false,
      "metar_trigger": false,
      "taf_trigger": false,
      "metar": "METAR HESH 190400Z 35010KT CAVOK 17/07 Q1016 NOSIG",
      "taf": ""
    },
    {
      "icao": "HESX",
      "alert": "OK",
      "vis_m": 9999,
      "fzfg": false,
      "metar_trigger": false,
      "taf_trigger": false,
      "metar": "METAR HESX 190400Z 24006KT CAVOK 08/05 Q1021 NOSIG",
      "taf": ""
    },
    {
      "icao": "LATI",
      "alert": "OK",
      "vis_m": 9999,
      "fzfg": false,
      "metar_trigger": false,
      "taf_trigger": false,
      "metar": "METAR LATI 190420Z 18008KT 9999 BKN053 05/M01 Q1018 NOSIG",
      "taf": "TAF LATI 182300Z 1900/1924 VRB05KT CAVOK TX17/1912Z TN01/1905Z"
    },
    {
      "icao": "LBPD",
      "alert": "OK",
      "vis_m": 9999,
      "fzfg": false,
      "metar_trigger": false,
      "taf_trigger": false,
      "metar": "METAR LBPD 190430Z AUTO 16006KT 9999 NCD 03/M06 Q1017 NOSIG",
      "taf": "TAF LBPD 182300Z 1900/1924 29016KT CAVOK"
    },
    {
      "icao": "LBSF",
      "alert": "OK",
      "vis_m": 9999,
      "fzfg": false,
      "metar_trigger": false,
      "taf_trigger": false,
      "metar": "METAR LBSF 190430Z AUTO 11006KT 9999 NCD M04/M05 Q1017 NOSIG",
      "taf": "TAF LBSF 182300Z 1900/1924 VRB03KT 9999 SCT040"
    },
    {
      "icao": "LBWN",
      "alert": "OK",
      "vis_m": 9999,
      "fzfg": false,
      "metar_trigger": false,
      "taf_trigger": false,
      "metar": "METAR LBWN 190430Z AUTO VRB02KT 9999 NCD 00/M01 Q1017 NOSIG",
      "taf": "TAF LBWN 182300Z 1900/1924 VRB03KT 9999 SCT040"
    },
    {
      "icao": "LCLK",
      "alert": "OK",
      "vis_m": 9999,
      "fzfg": false,
      "metar_trigger": false,
      "taf_trigger": false,
      "metar": "METAR LCLK 190430Z 22008KT 9999 FEW030 11/07 Q1017 NOSIG",
      "taf": "TAF LCLK 182330Z 1900/2000 22011KT 9999 FEW025"
    },
    {
      "icao": "LCPH",
      "alert": "OK",
      "vis_m": 9999,
      "fzfg": false,
      "metar_trigger": false,
      "taf_trigger": false,
      "metar": "METAR LCPH 190430Z 31018KT 9999 SCT032 BKN045 15/09 Q1017 NOSIG",
      "taf": "TAF LCPH 182330Z 1900/2000 29021KT 9999 FEW025 SCT035"
    },
    {
      "icao": "LEAL",
      "alert": "OK",
      "vis_m": 9999,
      "fzfg": false,
      "metar_trigger": false,
      "taf_trigger": false,
      "metar": "METAR LEAL 190430Z 31016KT CAVOK 16/01 Q1016 NOSIG",
      "taf": "TAF LEAL 182300Z 1900/1924 23007KT 9999 FEW030 TX19/1913Z TN12/1906Z"
    },
    {
      "icao": "LEBB",
      "alert": "OK",
      "vis_m": 9999,
      "fzfg": false,
      "metar_trigger": false,
      "taf_trigger": false,
      "metar": "METAR LEBB 190430Z 26007KT 220V300 9999 FEW035 BKN045 08/04 Q1015 NOSIG",
      "taf": "TAF LEBB 182300Z 1900/1924 28009KT 9999 FEW020 SCT040 TX11/1913Z TN06/1905Z"
    },
    {
      "icao": "LEBL",
      "alert": "OK",
      "vis_m": 9999,
      "fzfg": false,
      "metar_trigger": false,
      "taf_trigger": false,
      "metar": "METAR LEBL 190430Z 29024G34KT CAVOK 14/01 Q1007 NOSIG",
      "taf": "TAF LEBL 182300Z 1900/1924 22009KT 9999 FEW015 TX18/1913Z TN11/1906Z"
    },
    {
      "icao": "LECH",
      "alert": "OK",
      "vis_m": 9999,
      "fzfg": false,
      "metar_trigger": false,
      "taf_trigger": false,
      "metar": "METAR LECH 190430Z AUTO 29016G29KT 230V320 CAVOK 11/M01 Q1012",
      "taf": ""
    },
    {
      "icao": "LEMD",
      "alert": "OK",
      "vis_m": 9999,
      "fzfg": false,
      "metar_trigger": false,
      "taf_trigger": false,
      "metar": "METAR LEMD 190430Z 28016KT 9999 FEW067 07/M01 Q1018 NOSIG",
      "taf": ""
    },
    {
      "icao": "LEMG",
      "alert": "OK",
      "vis_m": 9999,
      "fzfg": false,
      "metar_trigger": false,
      "taf_trigger": false,
      "metar": "METAR LEMG 190430Z 30019G31KT 9999 FEW032 13/07 Q1020 NOSIG",
      "taf": "TAF LEMG 182300Z 1900/1924 30006KT CAVOK TX17/1914Z TN11/1907Z"
    },
    {
      "icao": "LEVC",
      "alert": "OK",
      "vis_m": 9999,
      "fzfg": false,
      "metar_trigger": false,
      "taf_trigger": false,
      "metar": "METAR LEVC 190430Z 27012KT 230V290 CAVOK 13/02 Q1014 NOSIG",
      "taf": "TAF LEVC 182300Z 1900/1924 27013KT 9999 FEW035 TX20/1914Z TN12/1906Z"
    },
    {
      "icao": "LEXJ",
      "alert": "OK",
      "vis_m": 6000,
      "fzfg": false,
      "metar_trigger": false,
      "taf_trigger": false,
      "metar": "METAR LEXJ 190430Z 28024G37KT 250V310 6000 -RA SCT035 BKN042 09/03 Q1015",
      "taf": "TAF LEXJ 190200Z 1903/2003 28009KT 9999 BKN020 TX12/1915Z TN07/1904Z"
    },
    {
      "icao": "LEZG",
      "alert": "OK",
      "vis_m": 9999,
      "fzfg": false,
      "metar_trigger": false,
      "taf_trigger": false,
      "metar": "METAR LEZG 190430Z 33012KT 9999 FEW050 07/03 Q1014 NOSIG",
      "taf": ""
    },
    {
      "icao": "LEZL",
      "alert": "OK",
      "vis_m": 9999,
      "fzfg": false,
      "metar_trigger": false,
      "taf_trigger": false,
      "metar": "METAR LEZL 190430Z 27005KT 260V320 CAVOK 09/08 Q1024 NOSIG",
      "taf": "TAF LEZL 190200Z 1903/2003 29006KT 9999 FEW020 TX18/1915Z TN08/1907Z"
    },
    {
      "icao": "LFBD",
      "alert": "OK",
      "vis_m": 9999,
      "fzfg": false,
      "metar_trigger": false,
      "taf_trigger": false,
      "metar": "METAR LFBD 190430Z AUTO 27021KT 9999 BKN020/// BKN031/// BKN038/// //////CB 09/07 Q1005 TEMPO 29020G45KT 1500 TSRA BKN014 BKN020CB",
      "taf": ""
    },
    {
      "icao": "LFLL",
      "alert": "OK",
      "vis_m": 9999,
      "fzfg": false,
      "metar_trigger": false,
      "taf_trigger": false,
      "metar": "METAR LFLL 190430Z 19013KT CAVOK 08/04 Q1001 NOSIG",
      "taf": "TAF LFLL 182300Z 1900/2006 19012KT CAVOK"
    },
    {
      "icao": "LFLS",
      "alert": "OK",
      "vis_m": 9999,
      "fzfg": false,
      "metar_trigger": false,
      "taf_trigger": false,
      "metar": "METAR LFLS 190430Z AUTO 05005KT 030V090 9999 BKN054 BKN064 OVC160 06/04 Q1002 NOSIG",
      "taf": "TAF LFLS 190200Z 1903/2003 21010KT 9999 BKN040"
    },
    {
      "icao": "LFMN",
      "alert": "OK",
      "vis_m": 9999,
      "fzfg": false,
      "metar_trigger": false,
      "taf_trigger": false,
      "metar": "METAR LFMN 190430Z 34011KT 9999 -RA FEW010 BKN066 09/08 Q0999 NOSIG",
      "taf": "TAF LFMN 190200Z 1903/2009 34010KT 9999 BKN020"
    },
    {
      "icao": "LFOB",
      "alert": "OK",
      "vis_m": 4800,
      "fzfg": false,
      "metar_trigger": false,
      "taf_trigger": false,
      "metar": "METAR LFOB 190430Z AUTO 12005KT 4800 -RA BR FEW007/// OVC017/// //////TCU 07/07 Q0990 TEMPO RADZ BKN008",
      "taf": "TAF LFOB 182300Z 1900/1924 12010KT 9999 BKN015"
    },
    {
      "icao": "LFPO",
      "alert": "OK",
      "vis_m": 6000,
      "fzfg": false,
      "metar_trigger": false,
      "taf_trigger": false,
      "metar": "METAR LFPO 190430Z 21006KT 6000 -SHRA FEW008 OVC020 08/07 Q0991 TEMPO 4000 -SHRA BKN012TCU",
      "taf": "TAF LFPO 182300Z 1900/2006 18008KT 9999 SCT013 BKN040 OVC200"
    },
    {
      "icao": "LFSB",
      "alert": "OK",
      "vis_m": 9999,
      "fzfg": false,
      "metar_trigger": false,
      "taf_trigger": false,
      "metar": "METAR LFSB 190430Z AUTO 12006KT CAVOK 04/03 Q1000 NOSIG",
      "taf": "TAF LFSB 182300Z 1900/1924 12007KT 9999 FEW010 OVC070"
    },
    {
      "icao": "LGAV",
      "alert": "OK",
      "vis_m": 9999,
      "fzfg": false,
      "metar_trigger": false,
      "taf_trigger": false,
      "metar": "METAR LGAV 190420Z 36001KT 9999 FEW025 04/M01 Q1021 NOSIG",
      "taf": "TAF LGAV 182300Z 1900/1924 VRB05KT 9999 FEW025"
    },
    {
      "icao": "LGTS",
      "alert": "OK",
      "vis_m": 9999,
      "fzfg": false,
      "metar_trigger": false,
      "taf_trigger": false,
      "metar": "METAR LGTS 190420Z 09006KT 9999 FEW020 01/M03 Q1019 NOSIG",
      "taf": "TAF LGTS 182300Z 1900/1924 VRB03KT 9999 FEW030"
    },
    {
      "icao": "LHBP",
      "alert": "OK",
      "vis_m": 9999,
      "fzfg": false,
      "metar_trigger": false,
      "taf_trigger": false,
      "metar": "METAR LHBP 190430Z 08004KT 050V170 CAVOK 02/M04 Q1011 NOSIG",
      "taf": "TAF LHBP 182315Z 1900/1924 VRB03KT CAVOK"
    },
    {
      "icao": "LHDC",
      "alert": "OK",
      "vis_m": 9999,
      "fzfg": false,
      "metar_trigger": false,
      "taf_trigger": false,
      "metar": "METAR LHDC 190415Z AUTO VRB02KT CAVOK M01/M02 Q1013",
      "taf": ""
    },
    {
      "icao": "LIBD",
      "alert": "OK",
      "vis_m": 9999,
      "fzfg": false,
      "metar_trigger": false,
      "taf_trigger": false,
      "metar": "METAR LIBD 190420Z 19006KT CAVOK 07/03 Q1014",
      "taf": "TAF LIBD 182300Z 1900/1924 17008KT CAVOK"
    },
    {
      "icao": "LIBG",
      "alert": "OK",
      "vis_m": null,
      "fzfg": false,
      "metar_trigger": false,
      "taf_trigger": false,
      "metar": "",
      "taf": "TAF LIBG 181700Z 1818/1903 VRB05KT CAVOK"
    },
    {
      "icao": "LIBP",
      "alert": "OK",
      "vis_m": 9999,
      "fzfg": false,
      "metar_trigger": false,
      "taf_trigger": false,
      "metar": "METAR LIBP 190420Z AUTO 23006KT 170V270 9999 FEW075/// 14/05 Q1009",
      "taf": "TAF LIBP 182300Z 1900/1924 VRB05KT CAVOK"
    },
    {
      "icao": "LIBR",
      "alert": "OK",
      "vis_m": 9999,
      "fzfg": false,
      "metar_trigger": false,
      "taf_trigger": false,
      "metar": "METAR LIBR 190420Z 22006KT CAVOK 08/05 Q1016",
      "taf": "TAF LIBR 182300Z 1900/1924 18010KT CAVOK"
    },
    {
      "icao": "LICA",
      "alert": "OK",
      "vis_m": 9999,
      "fzfg": false,
      "metar_trigger": false,
      "taf_trigger": false,
      "metar": "METAR LICA 190420Z AUTO 09006KT 9999 FEW045/// 07/06 Q1017",
      "taf": "TAF LICA 182300Z 1900/1924 VRB06KT 9999 FEW025"
    },
    {
      "icao": "LICC",
      "alert": "OK",
      "vis_m": 9999,
      "fzfg": false,
      "metar_trigger": false,
      "taf_trigger": false,
      "metar": "METAR LICC 190420Z 24009KT CAVOK 08/05 Q1018",
      "taf": "TAF LICC 182300Z 1900/1924 26011KT CAVOK"
    },
    {
      "icao": "LICJ",
      "alert": "OK",
      "vis_m": 9999,
      "fzfg": false,
      "metar_trigger": false,
      "taf_trigger": false,
      "metar": "METAR LICJ 190420Z 19024G34KT CAVOK 16/06 Q1013",
      "taf": "TAF LICJ 182300Z 1900/1924 19015KT 9999 SCT035"
    },
    {
      "icao": "LIMC",
      "alert": "OK",
      "vis_m": 7000,
      "fzfg": false,
      "metar_trigger": false,
      "taf_trigger": false,
      "metar": "METAR LIMC 190420Z 06008KT 7000 -RA BKN020 06/04 Q1003 NOSIG",
      "taf": "TAF LIMC 182300Z 1900/2006 01010KT 9999 BKN060"
    },
    {
      "icao": "LIME",
      "alert": "OK",
      "vis_m": 9999,
      "fzfg": false,
      "metar_trigger": false,
      "taf_trigger": false,
      "metar": "METAR LIME 190420Z 10009KT 9999 -RA BKN035 06/04 Q1004 NOSIG",
      "taf": "TAF LIME 182300Z 1900/1924 05007KT 9999 BKN070"
    },
    {
      "icao": "LIMF",
      "alert": "OK",
      "vis_m": null,
      "fzfg": false,
      "metar_trigger": false,
      "taf_trigger": false,
      "metar": "METAR LIMF 190420Z AUTO 32005KT 290V350 //// // OVC029/// 05/02 Q1004",
      "taf": "TAF LIMF 181700Z 1818/1918 VRB05KT CAVOK"
    },
    {
      "icao": "LIMJ",
      "alert": "OK",
      "vis_m": 7000,
      "fzfg": false,
      "metar_trigger": false,
      "taf_trigger": false,
      "metar": "METAR LIMJ 190420Z 18008KT 7000 RA SCT015 BKN028 12/10 Q1000",
      "taf": "TAF LIMJ 182300Z 1900/1924 12010KT 9999 FEW020 SCT050"
    },
    {
      "icao": "LIPE",
      "alert": "OK",
      "vis_m": 9999,
      "fzfg": false,
      "metar_trigger": false,
      "taf_trigger": false,
      "metar": "METAR LIPE 190420Z 08004KT 050V120 9999 BKN074 08/04 Q1004",
      "taf": "TAF LIPE 182300Z 1900/1924 VRB05KT 9999 FEW060"
    },
    {
      "icao": "LIPH",
      "alert": "OK",
      "vis_m": 9999,
      "fzfg": false,
      "metar_trigger": false,
      "taf_trigger": false,
      "metar": "METAR LIPH 190420Z AUTO 03005KT 9999 -RA FEW026/// OVC052/// 07/02 Q1006",
      "taf": "TAF LIPH 182300Z 1900/1924 VRB05KT 9999 FEW050"
    },
    {
      "icao": "LIPQ",
      "alert": "OK",
      "vis_m": 9999,
      "fzfg": false,
      "metar_trigger": false,
      "taf_trigger": false,
      "metar": "METAR LIPQ 190420Z AUTO 03004KT 9999 FEW019/// OVC043/// 07/07 Q1007",
      "taf": "TAF LIPQ 182300Z 1900/1924 VRB05KT CAVOK"
    },
    {
      "icao": "LIPR",
      "alert": "OK",
      "vis_m": 9999,
      "fzfg": false,
      "metar_trigger": false,
      "taf_trigger": false,
      "metar": "METAR LIPR 190420Z AUTO 14006KT 100V160 9999 SCT035/// 11/06 Q1006",
      "taf": "TAF LIPR 182300Z 1900/1924 16005KT 9999 FEW050"
    },
    {
      "icao": "LIPX",
      "alert": "OK",
      "vis_m": 9999,
      "fzfg": false,
      "metar_trigger": false,
      "taf_trigger": false,
      "metar": "METAR LIPX 190420Z 05006KT 9999 -RA FEW035 BKN045 07/04 Q1005",
      "taf": "TAF LIPX 182300Z 1900/1924 05007KT 9999 BKN060"
    },
    {
      "icao": "LIPY",
      "alert": "OK",
      "vis_m": 9999,
      "fzfg": false,
      "metar_trigger": false,
      "taf_trigger": false,
      "metar": "METAR LIPY 190420Z AUTO 14006KT 100V190 9999 ///////// 13/03 Q1007",
      "taf": "TAF LIPY 182300Z 1900/1924 16006KT CAVOK"
    },
    {
      "icao": "LIPZ",
      "alert": "OK",
      "vis_m": 9999,
      "fzfg": false,
      "metar_trigger": false,
      "taf_trigger": false,
      "metar": "METAR LIPZ 190420Z 04009KT 9999 -RA SCT010 BKN035 07/04 Q1006 NOSIG",
      "taf": "TAF LIPZ 182300Z 1900/2006 VRB05KT CAVOK"
    },
    {
      "icao": "LIRF",
      "alert": "OK",
      "vis_m": 9999,
      "fzfg": false,
      "metar_trigger": false,
      "taf_trigger": false,
      "metar": "METAR LIRF 190420Z 13011KT 9999 FEW015 SCT025 13/12 Q1009 NOSIG",
      "taf": "TAF LIRF 182300Z 1900/2006 17012KT 9999 FEW025"
    },
    {
      "icao": "LIRN",
      "alert": "OK",
      "vis_m": 9999,
      "fzfg": false,
      "metar_trigger": false,
      "taf_trigger": false,
      "metar": "METAR LIRN 190420Z 19011KT 9999 SCT060 13/10 Q1013 NOSIG",
      "taf": "TAF LIRN 182300Z 1900/1924 VRB05KT 9999 SCT030"
    },
    {
      "icao": "LIRP",
      "alert": "OK",
      "vis_m": 9999,
      "fzfg": false,
      "metar_trigger": false,
      "taf_trigger": false,
      "metar": "METAR LIRP 190415Z 09008KT 9999 SCT030 BKN060 11/10 Q1004 NOSIG",
      "taf": "TAF LIRP 182300Z 1900/1924 12007KT 9999 SCT020 BKN030"
    },
    {
      "icao": "LIRZ",
      "alert": "OK",
      "vis_m": 9999,
      "fzfg": false,
      "metar_trigger": false,
      "taf_trigger": false,
      "metar": "METAR LIRZ 190420Z AUTO 15005KT 120V180 9999 OVC023/// 11/07 Q1007",
      "taf": "TAF LIRZ 182300Z 1900/1924 VRB05KT 9999 SCT035"
    },
    {
      "icao": "LJLJ",
      "alert": "OK",
      "vis_m": 9999,
      "fzfg": false,
      "metar_trigger": false,
      "taf_trigger": false,
      "metar": "METAR LJLJ 190430Z 07003KT 030V110 9999 -RA FEW003 OVC020 02/01 Q1007 NOSIG",
      "taf": "TAF LJLJ 182300Z 1900/2000 VRB02KT 9999 SCT055"
    },
    {
      "icao": "LKMT",
      "alert": "OK",
      "vis_m": 5000,
      "fzfg": false,
      "metar_trigger": false,
      "taf_trigger": false,
      "metar": "METAR LKMT 190430Z 09002KT 5000 BR FEW025 M05/M05 Q1011 NOSIG",
      "taf": ""
    },
    {
      "icao": "LKPR",
      "alert": "OK",
      "vis_m": 9000,
      "fzfg": false,
      "metar_trigger": false,
      "taf_trigger": false,
      "metar": "METAR LKPR 190430Z 07006KT 9000 FEW013 M04/M05 Q1008 NOSIG",
      "taf": "TAF LKPR 190200Z 1903/2009 04006KT 9999 SCT020 BKN035"
    },
    {
      "icao": "LLBG",
      "alert": "OK",
      "vis_m": 9999,
      "fzfg": false,
      "metar_trigger": false,
      "taf_trigger": false,
      "metar": "METAR LLBG 190420Z 18005KT 9999 SCT038 13/09 Q1020 NOSIG RMK SCT071",
      "taf": "TAF LLBG 182303Z 1900/1924 27008KT 9999 SCT030"
    },
    {
      "icao": "LMML",
      "alert": "OK",
      "vis_m": 9999,
      "fzfg": false,
      "metar_trigger": false,
      "taf_trigger": false,
      "metar": "METAR LMML 190415Z 19010KT CAVOK 14/12 Q1018 NOSIG",
      "taf": "TAF LMML 182300Z 1900/1924 19012KT CAVOK"
    },
    {
      "icao": "LOWW",
      "alert": "OK",
      "vis_m": 9999,
      "fzfg": false,
      "metar_trigger": false,
      "taf_trigger": false,
      "metar": "METAR LOWW 190420Z VRB01KT 9999 BKN048 M02/M04 Q1009 NOSIG",
      "taf": "TAF LOWW 190215Z 1903/2009 VRB02KT 9999 FEW050 TX01/1912Z TNM02/1903Z"
    },
    {
      "icao": "LPFR",
      "alert": "OK",
      "vis_m": 9999,
      "fzfg": false,
      "metar_trigger": false,
      "taf_trigger": false,
      "metar": "METAR LPFR 190430Z 31005KT CAVOK 11/09 Q1025",
      "taf": "TAF LPFR 182300Z 1900/1924 31008KT 9999 SCT030"
    },
    {
      "icao": "LPMA",
      "alert": "OK",
      "vis_m": 9999,
      "fzfg": false,
      "metar_trigger": false,
      "taf_trigger": false,
      "metar": "METAR LPMA 190430Z 04007KT 9999 BKN014 16/13 Q1026",
      "taf": "TAF LPMA 182300Z 1900/1924 02010KT 9999 SCT014"
    },
    {
      "icao": "LPPR",
      "alert": "OK",
      "vis_m": 9999,
      "fzfg": false,
      "metar_trigger": false,
      "taf_trigger": false,
      "metar": "METAR LPPR 190430Z 33009KT 9999 -SHRA FEW025 BKN032 10/05 Q1023",
      "taf": "TAF LPPR 182300Z 1900/1924 33010KT 9999 SCT030"
    },
    {
      "icao": "LPPS",
      "alert": "OK",
      "vis_m": 9999,
      "fzfg": false,
      "metar_trigger": false,
      "taf_trigger": false,
      "metar": "METAR LPPS 190430Z 04008KT 9999 BKN012 SCT030 15/13 Q1026",
      "taf": "TAF LPPS 182300Z 1900/2006 04007KT 9999 SCT012 BKN020"
    },
    {
      "icao": "LPPT",
      "alert": "OK",
      "vis_m": 9999,
      "fzfg": false,
      "metar_trigger": false,
      "taf_trigger": false,
      "metar": "METAR LPPT 190430Z 30005KT 280V340 9999 SCT028 SCT045 11/08 Q1025",
      "taf": "TAF LPPT 182300Z 1900/2006 29007KT 9999 SCT020"
    },
    {
      "icao": "LQBK",
      "alert": "OK",
      "vis_m": 9999,
      "fzfg": false,
      "metar_trigger": false,
      "taf_trigger": false,
      "metar": "METAR LQBK 190430Z VRB03KT CAVOK 06/00 Q1009 NOSIG",
      "taf": ""
    },
    {
      "icao": "LQSA",
      "alert": "OK",
      "vis_m": 6000,
      "fzfg": false,
      "metar_trigger": false,
      "taf_trigger": false,
      "metar": "METAR LQSA 190430Z VRB02KT 6000 NSC M03/M03 Q1012",
      "taf": "TAF LQSA 182300Z 1900/1924 VRB02KT 9999 FEW050 TX10/1913Z TNM04/1902Z"
    },
    {
      "icao": "LQTZ",
      "alert": "OK",
      "vis_m": 9999,
      "fzfg": false,
      "metar_trigger": false,
      "taf_trigger": false,
      "metar": "METAR LQTZ 190430Z VRB03KT CAVOK M01/M02 Q1012",
      "taf": ""
    },
    {
      "icao": "LRBC",
      "alert": "OK",
      "vis_m": 350,
      "fzfg": false,
      "metar_trigger": false,
      "taf_trigger": false,
      "metar": "METAR LRBC 190430Z VRB02KT 0350 R34/1400U BCFG FEW006 M12/M13 Q1013",
      "taf": ""
    },
    {
      "icao": "LRBS",
      "alert": "OK",
      "vis_m": 9999,
      "fzfg": false,
      "metar_trigger": false,
      "taf_trigger": false,
      "metar": "METAR LRBS 190430Z 25005KT CAVOK M02/M03 Q1015 NOSIG",
      "taf": "TAF LRBS 182300Z 1900/1924 VRB04KT 5000 BR NSC"
    },
    {
      "icao": "LRBV",
      "alert": "OK",
      "vis_m": 9999,
      "fzfg": false,
      "metar_trigger": false,
      "taf_trigger": false,
      "metar": "METAR LRBV 190430Z AUTO 22005KT 190V270 9999 FEW044/// M05/M09 Q1013",
      "taf": "TAF LRBV 190200Z 1903/1912 VRB04KT 9999 BKN015 BKN030"
    },
    {
      "icao": "LRCL",
      "alert": "OK",
      "vis_m": 9999,
      "fzfg": false,
      "metar_trigger": false,
      "taf_trigger": false,
      "metar": "METAR LRCL 190430Z COR 24003KT 9999 BKN060 M02/M05 Q1013",
      "taf": "TAF LRCL 190200Z 1903/1912 VRB04KT CAVOK"
    },
    {
      "icao": "LRCV",
      "alert": "OK",
      "vis_m": 9999,
      "fzfg": false,
      "metar_trigger": false,
      "taf_trigger": false,
      "metar": "METAR LRCV 190430Z 25005KT CAVOK M01/M02 Q1015",
      "taf": "TAF LRCV 190200Z 1903/1912 VRB04KT CAVOK"
    },
    {
      "icao": "LRIA",
      "alert": "OK",
      "vis_m": 9999,
      "fzfg": false,
      "metar_trigger": false,
      "taf_trigger": false,
      "metar": "METAR LRIA 190430Z 27004KT 210V300 CAVOK M04/M05 Q1012",
      "taf": "TAF LRIA 190200Z 1903/1912 VRB04KT CAVOK"
    },
    {
      "icao": "LROP",
      "alert": "OK",
      "vis_m": 9999,
      "fzfg": false,
      "metar_trigger": false,
      "taf_trigger": false,
      "metar": "METAR LROP 190430Z 26004KT CAVOK M06/M06 Q1015 NOSIG",
      "taf": "TAF LROP 182300Z 1900/1924 VRB04KT 5000 BR NSC"
    },
    {
      "icao": "LRSB",
      "alert": "OK",
      "vis_m": 9999,
      "fzfg": false,
      "metar_trigger": false,
      "taf_trigger": false,
      "metar": "METAR LRSB 190430Z 26007KT CAVOK M02/M06 Q1013",
      "taf": "TAF LRSB 182300Z 1900/1924 29010KT 9999 BKN050"
    },
    {
      "icao": "LRSM",
      "alert": "OK",
      "vis_m": 9999,
      "fzfg": false,
      "metar_trigger": false,
      "taf_trigger": false,
      "metar": "METAR LRSM 190430Z AUTO 18003KT 9999 SCT029/// BKN035/// M02/M03 Q1013",
      "taf": "TAF LRSM 190200Z 1903/1912 14006KT 5000 BR BKN015"
    },
    {
      "icao": "LRSV",
      "alert": "OK",
      "vis_m": 9999,
      "fzfg": false,
      "metar_trigger": false,
      "taf_trigger": false,
      "metar": "METAR LRSV 190430Z 28010KT 9999 SCT037 M01/M03 Q1010",
      "taf": "TAF LRSV 190200Z 1903/1912 28005KT 9999 BKN040"
    },
    {
      "icao": "LRTM",
      "alert": "OK",
      "vis_m": 9999,
      "fzfg": false,
      "metar_trigger": false,
      "taf_trigger": false,
      "metar": "METAR LRTM 190430Z AUTO 04003KT 9999 NCD M04/M06 Q1014",
      "taf": "TAF LRTM 190200Z 1903/1912 VRB04KT CAVOK"
    },
    {
      "icao": "LRTR",
      "alert": "OK",
      "vis_m": 9999,
      "fzfg": false,
      "metar_trigger": false,
      "taf_trigger": false,
      "metar": "METAR LRTR 190430Z 11008KT CAVOK M00/M00 Q1013",
      "taf": "TAF LRTR 182300Z 1900/1924 11008KT CAVOK"
    },
    {
      "icao": "LTAC",
      "alert": "OK",
      "vis_m": 9999,
      "fzfg": false,
      "metar_trigger": false,
      "taf_trigger": false,
      "metar": "METAR LTAC 190420Z 24009KT 9999 SCT035 BKN080 M00/M03 Q1017 NOSIG RMK RWY21C 23011KT RWY03L 24008KT RWY21R 23011KT RWY03R 21007KT RWY21L 23012KT",
      "taf": "TAF LTAC 182240Z 1900/1924 25012KT 9999 SCT040 BKN100"
    },
    {
      "icao": "LTFM",
      "alert": "OK",
      "vis_m": 9999,
      "fzfg": false,
      "metar_trigger": false,
      "taf_trigger": false,
      "metar": "METAR LTFM 190420Z 23007KT CAVOK 02/M01 Q1019 NOSIG RMK RWY17L 24007KT 200V260 RWY34L 24007KT RWY16R 23006KT RWY36 22008KT RWY18 24009KT",
      "taf": "TAF LTFM 182240Z 1900/2006 22012KT CAVOK"
    },
    {
      "icao": "LUKK",
      "alert": "OK",
      "vis_m": 9999,
      "fzfg": false,
      "metar_trigger": false,
      "taf_trigger": false,
      "metar": "METAR LUKK 190430Z 27005KT CAVOK M07/M11 Q1011 NOSIG",
      "taf": "TAF LUKK 182323Z 1900/1924 30010KT CAVOK"
    },
    {
      "icao": "LWOH",
      "alert": "OK",
      "vis_m": null,
      "fzfg": false,
      "metar_trigger": false,
      "taf_trigger": false,
      "metar": "",
      "taf": ""
    },
    {
      "icao": "LWSK",
      "alert": "OK",
      "vis_m": 9999,
      "fzfg": false,
      "metar_trigger": false,
      "taf_trigger": false,
      "metar": "METAR LWSK 190420Z VRB02KT CAVOK M04/M06 Q1019 NOSIG",
      "taf": ""
    },
    {
      "icao": "LYBE",
      "alert": "OK",
      "vis_m": 9999,
      "fzfg": false,
      "metar_trigger": false,
      "taf_trigger": false,
      "metar": "METAR LYBE 190430Z 16008KT CAVOK 02/M03 Q1012 NOSIG",
      "taf": "TAF LYBE 182300Z 1900/1924 15008KT CAVOK TX14/1913Z TN00/1906Z"
    },
    {
      "icao": "LYNI",
      "alert": "OK",
      "vis_m": 9999,
      "fzfg": false,
      "metar_trigger": false,
      "taf_trigger": false,
      "metar": "METAR LYNI 190430Z VRB02KT CAVOK M02/M02 Q1017 NOSIG",
      "taf": "TAF LYNI 182300Z 1900/1924 09004KT CAVOK TX13/1913Z TNM03/1906Z"
    },
    {
      "icao": "LYPG",
      "alert": "OK",
      "vis_m": 9999,
      "fzfg": false,
      "metar_trigger": false,
      "taf_trigger": false,
      "metar": "METAR LYPG 190430Z 35007KT 9999 SCT050 BKN080 04/01 Q1018 NOSIG",
      "taf": "TAF LYPG 182300Z 1900/1924 36005KT 9999 SCT040 SCT080 TX13/1918Z TN02/1902Z"
    },
    {
      "icao": "LZIB",
      "alert": "OK",
      "vis_m": 9999,
      "fzfg": false,
      "metar_trigger": false,
      "taf_trigger": false,
      "metar": "METAR LZIB 190430Z 02008KT 9999 SCT049 M01/M03 Q1010 NOSIG",
      "taf": "TAF LZIB 182315Z 1900/2000 VRB02KT 9999 FEW035"
    },
    {
      "icao": "LZKZ",
      "alert": "OK",
      "vis_m": 700,
      "fzfg": true,
      "metar_trigger": false,
      "taf_trigger": false,
      "metar": "METAR LZKZ 190430Z 02004KT 340V050 0700 R01/1300N FZFG OVC002 M01/M01 Q1012 TEMPO 1500 BCFG",
      "taf": "TAF LZKZ 182315Z 1900/2000 VRB02KT 9999 FEW005 SCT020"
    },
    {
      "icao": "LZTT",
      "alert": "OK",
      "vis_m": 9999,
      "fzfg": false,
      "metar_trigger": false,
      "taf_trigger": false,
      "metar": "METAR LZTT 190430Z 30005KT 9999 FEW013 M08/M09 Q1009",
      "taf": ""
    },
    {
      "icao": "OEJN",
      "alert": "OK",
      "vis_m": 6000,
      "fzfg": false,
      "metar_trigger": false,
      "taf_trigger": false,
      "metar": "METAR OEJN 190400Z VRB02KT 6000 NSC 23/20 Q1013 NOSIG",
      "taf": "TAF OEJN 182300Z 1900/2006 36005KT 7000 NSC"
    },
    {
      "icao": "OEMA",
      "alert": "OK",
      "vis_m": 9999,
      "fzfg": false,
      "metar_trigger": false,
      "taf_trigger": false,
      "metar": "METAR OEMA 190400Z 34004KT CAVOK 19/06 Q1017 NOSIG",
      "taf": "TAF OEMA 182300Z 1900/2006 VRB03KT CAVOK"
    },
    {
      "icao": "OJAI",
      "alert": "OK",
      "vis_m": 4000,
      "fzfg": false,
      "metar_trigger": false,
      "taf_trigger": false,
      "metar": "METAR OJAI 190400Z 27008KT 4000 BR SCT030 08/06 Q1019 NOSIG",
      "taf": "TAF OJAI 182300Z 1900/2006 27010KT 5000 HZ FEW030"
    },
    {
      "icao": "OMAA",
      "alert": "OK",
      "vis_m": 9999,
      "fzfg": false,
      "metar_trigger": false,
      "taf_trigger": false,
      "metar": "METAR OMAA 190430Z 08004KT 030V110 CAVOK 20/11 Q1018 NOSIG",
      "taf": "TAF OMAA 182300Z 1900/2006 06007KT 8000 NSC"
    },
    {
      "icao": "OMDB",
      "alert": "OK",
      "vis_m": 9999,
      "fzfg": false,
      "metar_trigger": false,
      "taf_trigger": false,
      "metar": "METAR OMDB 190430Z 12003KT 070V150 CAVOK 23/08 Q1018 NOSIG",
      "taf": "TAF OMDB 182300Z 1900/2006 08005KT 8000 NSC"
    },
    {
      "icao": "UAAA",
      "alert": "OK",
      "vis_m": 9999,
      "fzfg": false,
      "metar_trigger": false,
      "taf_trigger": false,
      "metar": "METAR UAAA 190430Z 35002MPS 330V030 9999 SCT100 BKN200 11/04 Q1014 NOSIG",
      "taf": "TAF UAAA 182301Z 1900/1924 22002MPS 3100 BR FU SCT030 BKN100 TX20/1909Z TN00/1903Z"
    },
    {
      "icao": "UBBB",
      "alert": "OK",
      "vis_m": 350,
      "fzfg": false,
      "metar_trigger": false,
      "taf_trigger": false,
      "metar": "METAR UBBB 190430Z 14008KT 0350 R17/0350N FG VV002 08/08 Q1004 NOSIG",
      "taf": ""
    },
    {
      "icao": "UDSG",
      "alert": "OK",
      "vis_m": 9999,
      "fzfg": false,
      "metar_trigger": false,
      "taf_trigger": false,
      "metar": "METAR UDSG 190430Z 26007KT 210V320 9999 BKN049 03/M01 Q1011 NOSIG",
      "taf": "TAF UDSG 182300Z 1900/1924 VRB06KT 9999 BKN040"
    },
    {
      "icao": "UDYZ",
      "alert": "OK",
      "vis_m": null,
      "fzfg": false,
      "metar_trigger": false,
      "taf_trigger": false,
      "metar": "",
      "taf": "TAF UDYZ 182300Z 1900/1924 14006KT 9999 SCT040"
    },
    {
      "icao": "UGKO",
      "alert": "OK",
      "vis_m": 6000,
      "fzfg": false,
      "metar_trigger": false,
      "taf_trigger": false,
      "metar": "METAR UGKO 190430Z 25023G37KT 6000 -RA FEW006 SCT007 BKN008 08/07 Q1012 NOSIG",
      "taf": "TAF UGKO 182300Z 1900/1924 25010KT 9999 BKN050 TX11/1900Z TN03/1924Z"
    }
  ]
}