{
  "ts_utc": "2026-04-21T20:36:31Z",
  "threshold_m": 150,
  "source": "stations_override.txt (ICAO list) + aviationweather.gov (METAR/TAF raw)",
  "station_count": 159,
  "stations": [
    {
      "icao": "BIKF",
      "alert": "OK",
      "vis_m": 1000,
      "fzfg": false,
      "metar_trigger": false,
      "taf_trigger": false,
      "metar": "METAR BIKF 212030Z 29006KT 1000 R28/1300U FG BKN002 05/04 Q1039",
      "taf": "TAF BIKF 211946Z 2121/2221 31005KT 9999 BKN008 TX07/2215Z TN04/2206Z"
    },
    {
      "icao": "BKPR",
      "alert": "OK",
      "vis_m": 9999,
      "fzfg": false,
      "metar_trigger": false,
      "taf_trigger": false,
      "metar": "METAR BKPR 212030Z 17003KT 150V260 9999 BKN070 07/06 Q1015 NOSIG",
      "taf": "TAF BKPR 211730Z 2118/2218 03005KT 9999 SCT030 BKN060"
    },
    {
      "icao": "EBCI",
      "alert": "OK",
      "vis_m": 9999,
      "fzfg": false,
      "metar_trigger": false,
      "taf_trigger": false,
      "metar": "METAR EBCI 212020Z 04009KT CAVOK 10/02 Q1023 NOSIG",
      "taf": "TAF EBCI 211701Z 2118/2224 06010KT CAVOK"
    },
    {
      "icao": "EDDB",
      "alert": "OK",
      "vis_m": 9999,
      "fzfg": false,
      "metar_trigger": false,
      "taf_trigger": false,
      "metar": "METAR EDDB 212020Z AUTO 36008KT CAVOK 07/00 Q1024 NOSIG",
      "taf": "TAF EDDB 211700Z 2118/2218 02008KT CAVOK"
    },
    {
      "icao": "EDDH",
      "alert": "OK",
      "vis_m": 9999,
      "fzfg": false,
      "metar_trigger": false,
      "taf_trigger": false,
      "metar": "METAR EDDH 212020Z AUTO 03005KT 360V060 CAVOK 06/M03 Q1027 NOSIG",
      "taf": "TAF EDDH 211700Z 2118/2224 04009KT CAVOK"
    },
    {
      "icao": "EDDK",
      "alert": "OK",
      "vis_m": 9999,
      "fzfg": false,
      "metar_trigger": false,
      "taf_trigger": false,
      "metar": "METAR EDDK 212020Z AUTO 05007KT CAVOK 10/M00 Q1024 NOSIG",
      "taf": "TAF EDDK 211700Z 2118/2224 04009KT CAVOK"
    },
    {
      "icao": "EDDN",
      "alert": "OK",
      "vis_m": 9999,
      "fzfg": false,
      "metar_trigger": false,
      "taf_trigger": false,
      "metar": "METAR EDDN 212020Z AUTO 04004KT CAVOK 07/M00 Q1022",
      "taf": "TAF EDDN 211700Z 2118/2218 03007KT 9999 FEW040"
    },
    {
      "icao": "EDDS",
      "alert": "OK",
      "vis_m": 9999,
      "fzfg": false,
      "metar_trigger": false,
      "taf_trigger": false,
      "metar": "METAR EDDS 212020Z AUTO 05003KT 020V090 CAVOK 06/02 Q1020",
      "taf": "TAF EDDS 211700Z 2118/2218 05005KT 9999 SCT030"
    },
    {
      "icao": "EDFH",
      "alert": "OK",
      "vis_m": 9999,
      "fzfg": false,
      "metar_trigger": false,
      "taf_trigger": false,
      "metar": "METAR EDFH 212020Z 10003KT 050V140 CAVOK 06/M02 Q1022",
      "taf": "TAF EDFH 211700Z 2118/2218 08007KT CAVOK"
    },
    {
      "icao": "EDJA",
      "alert": "OK",
      "vis_m": 9999,
      "fzfg": false,
      "metar_trigger": false,
      "taf_trigger": false,
      "metar": "METAR EDJA 212020Z 05006KT CAVOK 04/00 Q1019",
      "taf": "TAF EDJA 211700Z 2118/2203 05012KT 9999 SCT040"
    },
    {
      "icao": "EDLW",
      "alert": "OK",
      "vis_m": 9999,
      "fzfg": false,
      "metar_trigger": false,
      "taf_trigger": false,
      "metar": "METAR EDLW 212020Z 08005KT CAVOK 08/M00 Q1024",
      "taf": "TAF EDLW 211700Z 2118/2218 04009KT CAVOK"
    },
    {
      "icao": "EDNY",
      "alert": "OK",
      "vis_m": 9999,
      "fzfg": false,
      "metar_trigger": false,
      "taf_trigger": false,
      "metar": "METAR EDNY 212020Z AUTO 02010KT 9999 // FEW071/// 08/02 Q1019",
      "taf": "TAF EDNY 211700Z 2118/2203 03010KT 9999 FEW060"
    },
    {
      "icao": "EDSB",
      "alert": "OK",
      "vis_m": 9999,
      "fzfg": false,
      "metar_trigger": false,
      "taf_trigger": false,
      "metar": "METAR EDSB 212020Z 04007KT CAVOK 07/04 Q1021",
      "taf": "TAF EDSB 211700Z 2118/2218 04010KT 9999 SCT030"
    },
    {
      "icao": "EETN",
      "alert": "OK",
      "vis_m": 9999,
      "fzfg": false,
      "metar_trigger": false,
      "taf_trigger": false,
      "metar": "METAR EETN 212020Z 26004KT CAVOK 06/01 Q1017 NOSIG",
      "taf": "TAF EETN 211730Z 2118/2218 28007KT CAVOK"
    },
    {
      "icao": "EFTU",
      "alert": "OK",
      "vis_m": 9999,
      "fzfg": false,
      "metar_trigger": false,
      "taf_trigger": false,
      "metar": "METAR EFTU 212020Z AUTO 33004KT 300V010 CAVOK 07/M02 Q1018",
      "taf": "TAF EFTU 211722Z 2118/2218 34007KT CAVOK"
    },
    {
      "icao": "EGBB",
      "alert": "OK",
      "vis_m": 9999,
      "fzfg": false,
      "metar_trigger": false,
      "taf_trigger": false,
      "metar": "METAR EGBB 212020Z 07010KT CAVOK 08/M00 Q1027",
      "taf": "TAF EGBB 211653Z 2118/2218 05012KT CAVOK"
    },
    {
      "icao": "EGGP",
      "alert": "OK",
      "vis_m": 9999,
      "fzfg": false,
      "metar_trigger": false,
      "taf_trigger": false,
      "metar": "METAR EGGP 212020Z 08010KT CAVOK 09/M02 Q1028",
      "taf": "TAF EGGP 211656Z 2118/2218 07014KT 9999 FEW040"
    },
    {
      "icao": "EGGW",
      "alert": "OK",
      "vis_m": 9999,
      "fzfg": false,
      "metar_trigger": false,
      "taf_trigger": false,
      "metar": "METAR EGGW 212020Z AUTO 06011KT 9999 NCD 06/00 Q1026",
      "taf": "TAF EGGW 211701Z 2118/2218 07014KT CAVOK"
    },
    {
      "icao": "EGKK",
      "alert": "OK",
      "vis_m": 9999,
      "fzfg": false,
      "metar_trigger": false,
      "taf_trigger": false,
      "metar": "METAR EGKK 212020Z 06010KT CAVOK 08/03 Q1025",
      "taf": "TAF EGKK 211651Z 2118/2224 07012KT 9999 FEW045"
    },
    {
      "icao": "EGNM",
      "alert": "OK",
      "vis_m": 9999,
      "fzfg": false,
      "metar_trigger": false,
      "taf_trigger": false,
      "metar": "METAR EGNM 212020Z 06006KT CAVOK 06/01 Q1029",
      "taf": "TAF EGNM 211656Z 2118/2218 06010KT 9999 FEW030"
    },
    {
      "icao": "EGPD",
      "alert": "OK",
      "vis_m": 9999,
      "fzfg": false,
      "metar_trigger": false,
      "taf_trigger": false,
      "metar": "METAR EGPD 212020Z COR AUTO 04007KT 9999 SCT018 BKN022 OVC027 08/04 Q1035 NOSIG",
      "taf": "TAF EGPD 211654Z 2118/2218 07010KT 9999 SCT020"
    },
    {
      "icao": "EGPF",
      "alert": "OK",
      "vis_m": 9999,
      "fzfg": false,
      "metar_trigger": false,
      "taf_trigger": false,
      "metar": "METAR EGPF 212020Z AUTO 08013KT 9999 NCD 07/02 Q1033",
      "taf": "TAF EGPF 211652Z 2118/2218 07014KT 9999 FEW030"
    },
    {
      "icao": "EHBK",
      "alert": "OK",
      "vis_m": 9999,
      "fzfg": false,
      "metar_trigger": false,
      "taf_trigger": false,
      "metar": "METAR EHBK 212025Z AUTO 04007KT 9999 NCD 07/01 Q1023 NOSIG",
      "taf": "TAF EHBK 211713Z 2118/2224 05009KT CAVOK"
    },
    {
      "icao": "EHEH",
      "alert": "OK",
      "vis_m": 9999,
      "fzfg": false,
      "metar_trigger": false,
      "taf_trigger": false,
      "metar": "METAR EHEH 212025Z AUTO 04006KT 9999 NCD 10/M00 Q1024 BLU NOSIG RMK TREND REMOTE BY EHWX",
      "taf": "TAF EHEH 211751Z 2118/2224 05010KT CAVOK"
    },
    {
      "icao": "EKBI",
      "alert": "OK",
      "vis_m": 9999,
      "fzfg": false,
      "metar_trigger": false,
      "taf_trigger": false,
      "metar": "METAR EKBI 212020Z AUTO 00000KT 9999 NCD 03/M01 Q1028",
      "taf": "TAF EKBI 212027Z 2121/2221 VRB03KT CAVOK"
    },
    {
      "icao": "EKCH",
      "alert": "OK",
      "vis_m": 9999,
      "fzfg": false,
      "metar_trigger": false,
      "taf_trigger": false,
      "metar": "METAR EKCH 212020Z AUTO 29006KT 9999 NCD 07/M02 Q1027 NOSIG",
      "taf": "TAF EKCH 212027Z 2121/2221 27006KT CAVOK"
    },
    {
      "icao": "ENAL",
      "alert": "OK",
      "vis_m": 9999,
      "fzfg": false,
      "metar_trigger": false,
      "taf_trigger": false,
      "metar": "METAR ENAL 212020Z 35006KT 320V030 9999 BKN020 07/05 Q1033",
      "taf": "TAF ENAL 212000Z 2121/2206 01008KT 9999 FEW015 BKN025"
    },
    {
      "icao": "ENBR",
      "alert": "OK",
      "vis_m": 9999,
      "fzfg": false,
      "metar_trigger": false,
      "taf_trigger": false,
      "metar": "METAR ENBR 212020Z 33009KT CAVOK 06/05 Q1030 RMK WIND 1200FT 36009KT",
      "taf": "TAF ENBR 211700Z 2118/2218 31008KT CAVOK"
    },
    {
      "icao": "ENGM",
      "alert": "OK",
      "vis_m": 9999,
      "fzfg": false,
      "metar_trigger": false,
      "taf_trigger": false,
      "metar": "METAR ENGM 212020Z 34006KT CAVOK 09/M00 Q1026 NOSIG",
      "taf": "TAF ENGM 211700Z 2118/2218 35007KT CAVOK"
    },
    {
      "icao": "ENHD",
      "alert": "OK",
      "vis_m": 9999,
      "fzfg": false,
      "metar_trigger": false,
      "taf_trigger": false,
      "metar": "METAR ENHD 212020Z AUTO 34014KT 9999 VV004 07/06 Q1030",
      "taf": "TAF ENHD 211400Z 2115/2122 33012KT CAVOK"
    },
    {
      "icao": "ENTC",
      "alert": "OK",
      "vis_m": 6000,
      "fzfg": false,
      "metar_trigger": false,
      "taf_trigger": false,
      "metar": "METAR ENTC 212020Z 27020KT 6000 -DZRA FEW012 BKN024 06/04 Q1012 NOSIG RMK WIND 2600FT 29029KT",
      "taf": "TAF ENTC 211700Z 2118/2218 25020KT 9999 BKN030"
    },
    {
      "icao": "ENTO",
      "alert": "OK",
      "vis_m": 9999,
      "fzfg": false,
      "metar_trigger": false,
      "taf_trigger": false,
      "metar": "METAR ENTO 212020Z 27005KT CAVOK 11/M02 Q1027 NOSIG",
      "taf": "TAF ENTO 211700Z 2118/2218 34007KT CAVOK"
    },
    {
      "icao": "ENVA",
      "alert": "OK",
      "vis_m": 9999,
      "fzfg": false,
      "metar_trigger": false,
      "taf_trigger": false,
      "metar": "METAR ENVA 212020Z 28009KT 9999 BKN031 08/03 Q1031 RMK WIND 670FT 29014KT",
      "taf": "TAF ENVA 211700Z 2118/2218 27008KT 9999 BKN025"
    },
    {
      "icao": "ENZV",
      "alert": "OK",
      "vis_m": 9999,
      "fzfg": false,
      "metar_trigger": false,
      "taf_trigger": false,
      "metar": "METAR ENZV 212020Z 30004KT CAVOK 07/04 Q1030",
      "taf": "TAF ENZV 211700Z 2118/2218 32008KT CAVOK"
    },
    {
      "icao": "EPGD",
      "alert": "OK",
      "vis_m": 9999,
      "fzfg": false,
      "metar_trigger": false,
      "taf_trigger": false,
      "metar": "METAR EPGD 212030Z 32006KT CAVOK 03/M02 Q1023",
      "taf": "TAF EPGD 211730Z 2118/2218 35010KT CAVOK"
    },
    {
      "icao": "EPKK",
      "alert": "OK",
      "vis_m": 9999,
      "fzfg": false,
      "metar_trigger": false,
      "taf_trigger": false,
      "metar": "METAR EPKK 212030Z 31008KT CAVOK 08/M04 Q1019",
      "taf": "TAF EPKK 212030Z 2121/2221 31006KT CAVOK"
    },
    {
      "icao": "EPKT",
      "alert": "OK",
      "vis_m": 9999,
      "fzfg": false,
      "metar_trigger": false,
      "taf_trigger": false,
      "metar": "METAR EPKT 212030Z 31003KT CAVOK 05/M04 Q1019",
      "taf": "TAF EPKT 211730Z 2118/2218 34002KT CAVOK"
    },
    {
      "icao": "EPLB",
      "alert": "OK",
      "vis_m": 9999,
      "fzfg": false,
      "metar_trigger": false,
      "taf_trigger": false,
      "metar": "METAR EPLB 212030Z 34006KT CAVOK 05/M05 Q1017",
      "taf": "TAF EPLB 211730Z 2118/2218 02012KT CAVOK"
    },
    {
      "icao": "EPMO",
      "alert": "OK",
      "vis_m": 9999,
      "fzfg": false,
      "metar_trigger": false,
      "taf_trigger": false,
      "metar": "METAR EPMO 212030Z 33006KT CAVOK 06/M06 Q1020",
      "taf": ""
    },
    {
      "icao": "EPPO",
      "alert": "OK",
      "vis_m": 9999,
      "fzfg": false,
      "metar_trigger": false,
      "taf_trigger": false,
      "metar": "METAR EPPO 212030Z 03004KT CAVOK 07/M07 Q1022",
      "taf": "TAF EPPO 211730Z 2118/2218 04010KT CAVOK"
    },
    {
      "icao": "EPRA",
      "alert": "OK",
      "vis_m": 9999,
      "fzfg": false,
      "metar_trigger": false,
      "taf_trigger": false,
      "metar": "METAR EPRA 212030Z 36003KT CAVOK 08/M07 Q1018",
      "taf": "TAF EPRA 212030Z 2121/2206 01006KT CAVOK"
    },
    {
      "icao": "EPRZ",
      "alert": "OK",
      "vis_m": 9999,
      "fzfg": false,
      "metar_trigger": false,
      "taf_trigger": false,
      "metar": "METAR EPRZ 212030Z 28004KT CAVOK 07/M01 Q1017",
      "taf": "TAF EPRZ 211730Z 2118/2218 30002KT CAVOK"
    },
    {
      "icao": "EPSC",
      "alert": "OK",
      "vis_m": 9999,
      "fzfg": false,
      "metar_trigger": false,
      "taf_trigger": false,
      "metar": "METAR EPSC 212030Z 35002KT CAVOK 05/M03 Q1025",
      "taf": "TAF EPSC 211730Z 2118/2218 01010KT CAVOK"
    },
    {
      "icao": "EPSY",
      "alert": "OK",
      "vis_m": 9999,
      "fzfg": false,
      "metar_trigger": false,
      "taf_trigger": false,
      "metar": "METAR EPSY 212030Z 34009KT CAVOK 07/M04 Q1020",
      "taf": "TAF EPSY 212030Z 2121/2206 34008KT CAVOK"
    },
    {
      "icao": "EPWA",
      "alert": "OK",
      "vis_m": 9999,
      "fzfg": false,
      "metar_trigger": false,
      "taf_trigger": false,
      "metar": "METAR EPWA 212030Z 35005KT CAVOK 08/M06 Q1019 NOSIG",
      "taf": "TAF EPWA 212030Z 2121/2221 33005KT CAVOK"
    },
    {
      "icao": "EPWR",
      "alert": "OK",
      "vis_m": 9999,
      "fzfg": false,
      "metar_trigger": false,
      "taf_trigger": false,
      "metar": "METAR EPWR 212030Z 28006KT CAVOK 05/M02 Q1021",
      "taf": "TAF EPWR 212030Z 2121/2221 33007KT CAVOK"
    },
    {
      "icao": "ESGG",
      "alert": "OK",
      "vis_m": 9999,
      "fzfg": false,
      "metar_trigger": false,
      "taf_trigger": false,
      "metar": "METAR ESGG 212020Z 29004KT CAVOK 10/M01 Q1026",
      "taf": "TAF ESGG 212030Z 2121/2221 VRB03KT CAVOK"
    },
    {
      "icao": "ESKN",
      "alert": "OK",
      "vis_m": 9999,
      "fzfg": false,
      "metar_trigger": false,
      "taf_trigger": false,
      "metar": "METAR ESKN 212020Z 11003KT CAVOK 09/M01 Q1022",
      "taf": "TAF ESKN 212030Z 2121/2221 VRB03KT CAVOK"
    },
    {
      "icao": "ESMS",
      "alert": "OK",
      "vis_m": 9999,
      "fzfg": false,
      "metar_trigger": false,
      "taf_trigger": false,
      "metar": "METAR ESMS 212020Z 30006KT CAVOK 06/M02 Q1026",
      "taf": "TAF ESMS 212027Z 2121/2221 29008KT CAVOK"
    },
    {
      "icao": "ESSA",
      "alert": "OK",
      "vis_m": 9999,
      "fzfg": false,
      "metar_trigger": false,
      "taf_trigger": false,
      "metar": "METAR ESSA 212020Z VRB02KT CAVOK 04/M02 Q1022 NOSIG",
      "taf": "TAF ESSA 212030Z 2121/2221 VRB03KT CAVOK"
    },
    {
      "icao": "EYKA",
      "alert": "OK",
      "vis_m": 9999,
      "fzfg": false,
      "metar_trigger": false,
      "taf_trigger": false,
      "metar": "METAR EYKA 212020Z 36004KT CAVOK 08/M05 Q1018",
      "taf": "TAF EYKA 211700Z 2118/2218 VRB04KT CAVOK"
    },
    {
      "icao": "EYPA",
      "alert": "OK",
      "vis_m": 9999,
      "fzfg": false,
      "metar_trigger": false,
      "taf_trigger": false,
      "metar": "METAR EYPA 212020Z 36004KT 310V030 CAVOK 04/00 Q1020",
      "taf": "TAF EYPA 211700Z 2118/2218 VRB04KT 9000 NSC"
    },
    {
      "icao": "EYVI",
      "alert": "OK",
      "vis_m": 9999,
      "fzfg": false,
      "metar_trigger": false,
      "taf_trigger": false,
      "metar": "METAR EYVI 212020Z VRB02KT CAVOK M00/M05 Q1016 NOSIG",
      "taf": "TAF EYVI 211700Z 2118/2218 VRB04KT CAVOK"
    },
    {
      "icao": "GCFV",
      "alert": "OK",
      "vis_m": 9999,
      "fzfg": false,
      "metar_trigger": false,
      "taf_trigger": false,
      "metar": "METAR GCFV 212030Z 34009KT 9999 FEW030 20/13 Q1013",
      "taf": "TAF GCFV 212000Z 2121/2221 35007KT 9999 FEW030 TX23/2214Z TN17/2206Z"
    },
    {
      "icao": "GCLP",
      "alert": "OK",
      "vis_m": 9999,
      "fzfg": false,
      "metar_trigger": false,
      "taf_trigger": false,
      "metar": "METAR GCLP 212030Z 01009KT 9999 FEW030 BKN040 19/14 Q1013 NOSIG",
      "taf": "TAF GCLP 212000Z 2121/2221 01009KT 9999 BKN035 TX22/2214Z TN17/2206Z"
    },
    {
      "icao": "GCTS",
      "alert": "OK",
      "vis_m": 9999,
      "fzfg": false,
      "metar_trigger": false,
      "taf_trigger": false,
      "metar": "METAR GCTS 212030Z 09010KT 9999 SCT040 BKN060 20/13 Q1013 NOSIG",
      "taf": "TAF GCTS 212000Z 2121/2221 07012KT 9999 SCT040 TX23/2214Z TN17/2206Z"
    },
    {
      "icao": "GMAD",
      "alert": "OK",
      "vis_m": 8000,
      "fzfg": false,
      "metar_trigger": false,
      "taf_trigger": false,
      "metar": "METAR GMAD 212030Z 25009KT 8000 FEW020 SCT100 18/14 Q1011 NOSIG",
      "taf": "TAF GMAD 211700Z 2118/2224 26008KT 8000 BKN026"
    },
    {
      "icao": "GMMN",
      "alert": "OK",
      "vis_m": 9999,
      "fzfg": false,
      "metar_trigger": false,
      "taf_trigger": false,
      "metar": "METAR GMMN 212030Z 32006KT 290V350 9999 FEW014 16/13 Q1013 NOSIG",
      "taf": "TAF GMMN 211700Z 2118/2224 31014KT 9999 FEW020"
    },
    {
      "icao": "GMMX",
      "alert": "OK",
      "vis_m": 8000,
      "fzfg": false,
      "metar_trigger": false,
      "taf_trigger": false,
      "metar": "METAR GMMX 212030Z 30006KT 8000 SCT040 SCT120 20/12 Q1011 NOSIG",
      "taf": "TAF GMMX 211700Z 2118/2224 12007KT 8000 SCT030"
    },
    {
      "icao": "HEGN",
      "alert": "OK",
      "vis_m": 9999,
      "fzfg": false,
      "metar_trigger": false,
      "taf_trigger": false,
      "metar": "METAR HEGN 212000Z 31010KT CAVOK 20/10 Q1012 NOSIG",
      "taf": "TAF HEGN 211700Z 2118/2224 31015KT CAVOK"
    },
    {
      "icao": "HEMA",
      "alert": "OK",
      "vis_m": 9999,
      "fzfg": false,
      "metar_trigger": false,
      "taf_trigger": false,
      "metar": "METAR HEMA 212000Z 34005KT CAVOK 21/07 Q1011 NOSIG",
      "taf": "TAF HEMA 211700Z 2118/2224 32015KT CAVOK"
    },
    {
      "icao": "HESH",
      "alert": "OK",
      "vis_m": 9999,
      "fzfg": false,
      "metar_trigger": false,
      "taf_trigger": false,
      "metar": "METAR HESH 212000Z 36008KT CAVOK 24/07 Q1010 NOSIG",
      "taf": "TAF HESH 211700Z 2118/2224 35010KT CAVOK"
    },
    {
      "icao": "HESX",
      "alert": "OK",
      "vis_m": 9999,
      "fzfg": false,
      "metar_trigger": false,
      "taf_trigger": false,
      "metar": "METAR HESX 212000Z 35006KT CAVOK 16/08 Q1015 NOSIG",
      "taf": "TAF HESX 211700Z 2118/2224 02011KT CAVOK"
    },
    {
      "icao": "LATI",
      "alert": "OK",
      "vis_m": 8000,
      "fzfg": false,
      "metar_trigger": false,
      "taf_trigger": false,
      "metar": "METAR LATI 212020Z VRB05KT 8000 3400N TSRA FEW008 SCT028CB OVC045 15/13 Q1011 RESHRA TEMPO 3000 TSRA",
      "taf": "TAF LATI 211700Z 2118/2218 VRB05KT 9999 SCT040 BKN070 TX21/2212Z TN13/2204Z"
    },
    {
      "icao": "LBPD",
      "alert": "OK",
      "vis_m": 9999,
      "fzfg": false,
      "metar_trigger": false,
      "taf_trigger": false,
      "metar": "METAR LBPD 212030Z AUTO 00000KT 9999 -RA OVC039/// 10/10 Q1015",
      "taf": "TAF LBPD 211700Z 2118/2218 VRB04KT 9999 SCT030 OVC050"
    },
    {
      "icao": "LBSF",
      "alert": "OK",
      "vis_m": 9999,
      "fzfg": false,
      "metar_trigger": false,
      "taf_trigger": false,
      "metar": "METAR LBSF 212030Z AUTO 00000KT 9999 SCT090/// 06/05 Q1015 NOSIG",
      "taf": "TAF LBSF 211700Z 2118/2218 VRB04KT 9999 SCT050"
    },
    {
      "icao": "LBWN",
      "alert": "OK",
      "vis_m": 9999,
      "fzfg": false,
      "metar_trigger": false,
      "taf_trigger": false,
      "metar": "METAR LBWN 212030Z AUTO 00000KT 9999 FEW016/// 08/08 Q1015 NOSIG",
      "taf": "TAF LBWN 211700Z 2118/2218 11010KT 9999 SCT010 BKN015 OVC040"
    },
    {
      "icao": "LCLK",
      "alert": "OK",
      "vis_m": 9999,
      "fzfg": false,
      "metar_trigger": false,
      "taf_trigger": false,
      "metar": "METAR LCLK 212030Z VRB02KT CAVOK 14/11 Q1014 NOSIG",
      "taf": "TAF LCLK 211730Z 2118/2218 31006KT 9999 FEW025"
    },
    {
      "icao": "LCPH",
      "alert": "OK",
      "vis_m": 9999,
      "fzfg": false,
      "metar_trigger": false,
      "taf_trigger": false,
      "metar": "METAR LCPH 212030Z 01005KT 010V080 9999 FEW018 15/11 Q1014 NOSIG",
      "taf": "TAF LCPH 211730Z 2118/2218 02007KT 9999 FEW025"
    },
    {
      "icao": "LEAL",
      "alert": "OK",
      "vis_m": 9999,
      "fzfg": false,
      "metar_trigger": false,
      "taf_trigger": false,
      "metar": "METAR LEAL 212030Z 03003KT 360V080 CAVOK 19/16 Q1011 NOSIG",
      "taf": ""
    },
    {
      "icao": "LEBB",
      "alert": "OK",
      "vis_m": 9999,
      "fzfg": false,
      "metar_trigger": false,
      "taf_trigger": false,
      "metar": "METAR LEBB 212030Z 10011KT 070V130 CAVOK 20/15 Q1007 NOSIG",
      "taf": ""
    },
    {
      "icao": "LEBL",
      "alert": "OK",
      "vis_m": 9999,
      "fzfg": false,
      "metar_trigger": false,
      "taf_trigger": false,
      "metar": "METAR LEBL 212030Z 22006KT 9999 FEW015 18/17 Q1011 NOSIG",
      "taf": "TAF LEBL 211700Z 2118/2218 20006KT CAVOK TX25/2212Z TN10/2206Z"
    },
    {
      "icao": "LECH",
      "alert": "OK",
      "vis_m": 9999,
      "fzfg": false,
      "metar_trigger": false,
      "taf_trigger": false,
      "metar": "METAR LECH 212030Z AUTO VRB01KT CAVOK 15/07 Q1012",
      "taf": "TAF LECH 211700Z 2118/2218 12007KT CAVOK TX28/2213Z TN12/2206Z"
    },
    {
      "icao": "LEMD",
      "alert": "OK",
      "vis_m": 9999,
      "fzfg": false,
      "metar_trigger": false,
      "taf_trigger": false,
      "metar": "METAR LEMD 212030Z VRB02KT CAVOK 18/08 Q1010 NOSIG",
      "taf": ""
    },
    {
      "icao": "LEMG",
      "alert": "OK",
      "vis_m": 9999,
      "fzfg": false,
      "metar_trigger": false,
      "taf_trigger": false,
      "metar": "METAR LEMG 212030Z 09003KT 050V190 CAVOK 17/13 Q1010 NOSIG",
      "taf": "TAF LEMG 211700Z 2118/2218 VRB03KT CAVOK TX25/2214Z TN12/2206Z"
    },
    {
      "icao": "LEVC",
      "alert": "OK",
      "vis_m": 9999,
      "fzfg": false,
      "metar_trigger": false,
      "taf_trigger": false,
      "metar": "METAR LEVC 212030Z 07003KT 040V210 CAVOK 18/12 Q1012 NOSIG",
      "taf": "TAF LEVC 211700Z 2118/2218 09009KT CAVOK TX28/2212Z TN14/2206Z"
    },
    {
      "icao": "LEXJ",
      "alert": "OK",
      "vis_m": 8000,
      "fzfg": false,
      "metar_trigger": false,
      "taf_trigger": false,
      "metar": "METAR LEXJ 212030Z VRB04KT 8000 NSC 18/15 Q1006",
      "taf": "TAF LEXJ 212000Z 2121/2221 12005KT 9999 SCT040 TX26/2213Z TN15/2206Z"
    },
    {
      "icao": "LEZG",
      "alert": "OK",
      "vis_m": 9999,
      "fzfg": false,
      "metar_trigger": false,
      "taf_trigger": false,
      "metar": "METAR LEZG 212030Z 19014KT 160V250 9999 FEW075 25/08 Q1008 NOSIG",
      "taf": "TAF LEZG 211700Z 2118/2218 10009KT CAVOK TX33/2215Z TN15/2206Z"
    },
    {
      "icao": "LEZL",
      "alert": "OK",
      "vis_m": 9999,
      "fzfg": false,
      "metar_trigger": false,
      "taf_trigger": false,
      "metar": "METAR LEZL 212030Z 22015KT 9999 BKN020 19/15 Q1010 NOSIG",
      "taf": "TAF LEZL 212000Z 2121/2221 23010KT 9999 SCT020 TX25/2215Z TN16/2206Z"
    },
    {
      "icao": "LFBD",
      "alert": "OK",
      "vis_m": 9999,
      "fzfg": false,
      "metar_trigger": false,
      "taf_trigger": false,
      "metar": "METAR LFBD 212030Z AUTO 05011KT CAVOK 19/07 Q1008 TEMPO VRB15G25KT 4000 -TSRA BKN080CB",
      "taf": "TAF LFBD 211700Z 2118/2224 06010KT CAVOK TX27/2214Z TN14/2206Z"
    },
    {
      "icao": "LFLL",
      "alert": "OK",
      "vis_m": 9999,
      "fzfg": false,
      "metar_trigger": false,
      "taf_trigger": false,
      "metar": "METAR LFLL 212030Z 34009KT CAVOK 13/02 Q1014 NOSIG",
      "taf": "TAF LFLL 211700Z 2118/2224 35007KT CAVOK"
    },
    {
      "icao": "LFLS",
      "alert": "OK",
      "vis_m": 9999,
      "fzfg": false,
      "metar_trigger": false,
      "taf_trigger": false,
      "metar": "METAR LFLS 212030Z AUTO VRB02KT CAVOK 12/02 Q1014",
      "taf": "TAF LFLS 211400Z 2115/2215 36007KT CAVOK"
    },
    {
      "icao": "LFMN",
      "alert": "OK",
      "vis_m": 9999,
      "fzfg": false,
      "metar_trigger": false,
      "taf_trigger": false,
      "metar": "METAR LFMN 212030Z 00000KT 9999 SCT053 17/14 Q1011 NOSIG",
      "taf": "TAF LFMN 211400Z 2115/2221 13005KT 9999 FEW020 SCT050"
    },
    {
      "icao": "LFOB",
      "alert": "OK",
      "vis_m": 9999,
      "fzfg": false,
      "metar_trigger": false,
      "taf_trigger": false,
      "metar": "METAR LFOB 212030Z AUTO 04008KT CAVOK 08/04 Q1021 NOSIG",
      "taf": "TAF LFOB 211700Z 2118/2218 06010KT CAVOK"
    },
    {
      "icao": "LFPO",
      "alert": "OK",
      "vis_m": 9999,
      "fzfg": false,
      "metar_trigger": false,
      "taf_trigger": false,
      "metar": "METAR LFPO 212030Z 07012KT CAVOK 12/02 Q1020 NOSIG",
      "taf": "TAF LFPO 211700Z 2118/2224 06012KT CAVOK"
    },
    {
      "icao": "LFSB",
      "alert": "OK",
      "vis_m": 9999,
      "fzfg": false,
      "metar_trigger": false,
      "taf_trigger": false,
      "metar": "METAR LFSB 212030Z AUTO 09003KT 040V150 CAVOK 11/00 Q1018 NOSIG",
      "taf": "TAF LFSB 211700Z 2118/2218 36010KT CAVOK"
    },
    {
      "icao": "LGAV",
      "alert": "OK",
      "vis_m": 9999,
      "fzfg": false,
      "metar_trigger": false,
      "taf_trigger": false,
      "metar": "METAR LGAV 212020Z VRB01KT 9999 FEW025 16/10 Q1012 NOSIG",
      "taf": "TAF LGAV 211700Z 2118/2218 21013KT 9999 FEW025"
    },
    {
      "icao": "LGTS",
      "alert": "OK",
      "vis_m": 9999,
      "fzfg": false,
      "metar_trigger": false,
      "taf_trigger": false,
      "metar": "METAR LGTS 212020Z 34007KT 9999 BKN025 16/12 Q1013 NOSIG",
      "taf": "TAF LGTS 211700Z 2118/2218 34015KT 9999 BKN030"
    },
    {
      "icao": "LHBP",
      "alert": "OK",
      "vis_m": 9999,
      "fzfg": false,
      "metar_trigger": false,
      "taf_trigger": false,
      "metar": "METAR LHBP 212030Z 01002KT CAVOK 09/07 Q1018 NOSIG",
      "taf": "TAF LHBP 211715Z 2118/2218 07008KT CAVOK"
    },
    {
      "icao": "LHDC",
      "alert": "OK",
      "vis_m": 9999,
      "fzfg": false,
      "metar_trigger": false,
      "taf_trigger": false,
      "metar": "METAR LHDC 212015Z AUTO 03005KT CAVOK 10/M00 Q1017",
      "taf": "TAF LHDC 211415Z 2115/2124 03010KT 9999 SCT030 BKN050"
    },
    {
      "icao": "LIBD",
      "alert": "OK",
      "vis_m": 9999,
      "fzfg": false,
      "metar_trigger": false,
      "taf_trigger": false,
      "metar": "METAR LIBD 212020Z 03006KT 350V060 9999 -RA BKN008 14/13 Q1013",
      "taf": "TAF LIBD 211700Z 2118/2218 05010KT 9999 SCT040"
    },
    {
      "icao": "LIBG",
      "alert": "OK",
      "vis_m": null,
      "fzfg": false,
      "metar_trigger": false,
      "taf_trigger": false,
      "metar": "",
      "taf": "TAF LIBG 211400Z 2116/2124 VRB05KT 9999 SCT030"
    },
    {
      "icao": "LIBP",
      "alert": "OK",
      "vis_m": 9999,
      "fzfg": false,
      "metar_trigger": false,
      "taf_trigger": false,
      "metar": "METAR LIBP 212020Z AUTO 25004KT 9999 OVC065/// 13/13 Q1014",
      "taf": "TAF LIBP 211700Z 2118/2218 33010KT 9999 SCT030"
    },
    {
      "icao": "LIBR",
      "alert": "OK",
      "vis_m": 9999,
      "fzfg": false,
      "metar_trigger": false,
      "taf_trigger": false,
      "metar": "METAR LIBR 212020Z VRB02KT 9999 FEW015 17/13 Q1010",
      "taf": "TAF LIBR 211700Z 2118/2218 VRB06KT 9999 SCT040"
    },
    {
      "icao": "LICA",
      "alert": "OK",
      "vis_m": 9999,
      "fzfg": false,
      "metar_trigger": false,
      "taf_trigger": false,
      "metar": "METAR LICA 212020Z AUTO 09004KT 9999 NCD 13/10 Q1012",
      "taf": "TAF LICA 211700Z 2118/2218 VRB05KT CAVOK"
    },
    {
      "icao": "LICC",
      "alert": "OK",
      "vis_m": 9999,
      "fzfg": false,
      "metar_trigger": false,
      "taf_trigger": false,
      "metar": "METAR LICC 212020Z VRB01KT CAVOK 18/13 Q1011",
      "taf": "TAF LICC 211700Z 2118/2218 VRB05KT CAVOK"
    },
    {
      "icao": "LICJ",
      "alert": "OK",
      "vis_m": 9999,
      "fzfg": false,
      "metar_trigger": false,
      "taf_trigger": false,
      "metar": "METAR LICJ 212020Z VRB02KT CAVOK 18/15 Q1012",
      "taf": "TAF LICJ 211700Z 2118/2218 03010KT CAVOK"
    },
    {
      "icao": "LIMC",
      "alert": "OK",
      "vis_m": 9999,
      "fzfg": false,
      "metar_trigger": false,
      "taf_trigger": false,
      "metar": "METAR LIMC 212020Z 04007KT 350V090 9999 RA SCT030 BKN060 14/09 Q1014 NOSIG",
      "taf": "TAF LIMC 211700Z 2118/2224 VRB06KT 9999 SCT035"
    },
    {
      "icao": "LIME",
      "alert": "OK",
      "vis_m": 9999,
      "fzfg": false,
      "metar_trigger": false,
      "taf_trigger": false,
      "metar": "METAR LIME 212020Z 11005KT 9999 -RA SCT035 SCT060 12/10 Q1015 NOSIG",
      "taf": "TAF LIME 211700Z 2118/2218 10010KT 9999 SCT035"
    },
    {
      "icao": "LIMF",
      "alert": "OK",
      "vis_m": 9999,
      "fzfg": false,
      "metar_trigger": false,
      "taf_trigger": false,
      "metar": "METAR LIMF 212020Z 05006KT 9999 SCT050 15/11 Q1013",
      "taf": "TAF LIMF 211700Z 2118/2218 VRB04KT 9999 SCT030"
    },
    {
      "icao": "LIMJ",
      "alert": "OK",
      "vis_m": 6000,
      "fzfg": false,
      "metar_trigger": false,
      "taf_trigger": false,
      "metar": "METAR LIMJ 212020Z VRB04KT 6000 TSRA SCT020 BKN030CB 17/16 Q1012",
      "taf": ""
    },
    {
      "icao": "LIPE",
      "alert": "OK",
      "vis_m": 9999,
      "fzfg": false,
      "metar_trigger": false,
      "taf_trigger": false,
      "metar": "METAR LIPE 212020Z 08004KT 050V110 CAVOK 12/11 Q1015",
      "taf": "TAF LIPE 211700Z 2118/2218 08010KT 9999 BKN020"
    },
    {
      "icao": "LIPH",
      "alert": "OK",
      "vis_m": 9999,
      "fzfg": false,
      "metar_trigger": false,
      "taf_trigger": false,
      "metar": "METAR LIPH 212020Z 05011KT 9999 SCT080 13/07 Q1016",
      "taf": "TAF LIPH 211700Z 2118/2218 06010KT 9999 SCT030"
    },
    {
      "icao": "LIPQ",
      "alert": "OK",
      "vis_m": 9999,
      "fzfg": false,
      "metar_trigger": false,
      "taf_trigger": false,
      "metar": "METAR LIPQ 212020Z AUTO 05004KT 010V070 9999 FEW087/// OVC100/// 14/04 Q1017",
      "taf": "TAF LIPQ 211700Z 2118/2218 07012KT 9999 SCT050"
    },
    {
      "icao": "LIPR",
      "alert": "OK",
      "vis_m": 9999,
      "fzfg": false,
      "metar_trigger": false,
      "taf_trigger": false,
      "metar": "METAR LIPR 212020Z 23003KT CAVOK 11/11 Q1014",
      "taf": "TAF LIPR 211700Z 2118/2218 VRB05KT 9999 BKN030"
    },
    {
      "icao": "LIPX",
      "alert": "OK",
      "vis_m": 9999,
      "fzfg": false,
      "metar_trigger": false,
      "taf_trigger": false,
      "metar": "METAR LIPX 212020Z 05007KT 9999 FEW030 SCT090 13/09 Q1015",
      "taf": "TAF LIPX 211700Z 2118/2218 10010KT 9999 SCT045"
    },
    {
      "icao": "LIPY",
      "alert": "OK",
      "vis_m": 1600,
      "fzfg": false,
      "metar_trigger": false,
      "taf_trigger": false,
      "metar": "METAR LIPY 212020Z AUTO VRB01KT 1600 BCFG FEW140/// 10/10 Q1014",
      "taf": "TAF LIPY 211700Z 2118/2218 VRB05KT 9999 BKN040"
    },
    {
      "icao": "LIPZ",
      "alert": "OK",
      "vis_m": 9999,
      "fzfg": false,
      "metar_trigger": false,
      "taf_trigger": false,
      "metar": "METAR LIPZ 212020Z 04013KT CAVOK 13/07 Q1016 NOSIG",
      "taf": "TAF LIPZ 211700Z 2118/2224 02014KT 9999 SCT030"
    },
    {
      "icao": "LIRF",
      "alert": "OK",
      "vis_m": 9999,
      "fzfg": false,
      "metar_trigger": false,
      "taf_trigger": false,
      "metar": "METAR LIRF 212020Z 36003KT CAVOK 15/14 Q1012 NOSIG",
      "taf": "TAF LIRF 211700Z 2118/2224 VRB05KT 9999 FEW020"
    },
    {
      "icao": "LIRN",
      "alert": "OK",
      "vis_m": 9999,
      "fzfg": false,
      "metar_trigger": false,
      "taf_trigger": false,
      "metar": "METAR LIRN 212020Z 36005KT 330V040 CAVOK 17/12 Q1012 NOSIG",
      "taf": "TAF LIRN 211700Z 2118/2218 VRB05KT 9999 FEW030"
    },
    {
      "icao": "LIRP",
      "alert": "OK",
      "vis_m": 9999,
      "fzfg": false,
      "metar_trigger": false,
      "taf_trigger": false,
      "metar": "METAR LIRP 212015Z VRB02KT 9999 SCT080 16/11 Q1012 NOSIG",
      "taf": "TAF LIRP 211700Z 2118/2218 03006KT 9999 FEW040"
    },
    {
      "icao": "LIRZ",
      "alert": "OK",
      "vis_m": 9999,
      "fzfg": false,
      "metar_trigger": false,
      "taf_trigger": false,
      "metar": "METAR LIRZ 212020Z AUTO 01007KT 9999 NCD 10/08 Q1013",
      "taf": "TAF LIRZ 211700Z 2118/2218 34008KT 9999 SCT050"
    },
    {
      "icao": "LJLJ",
      "alert": "OK",
      "vis_m": 9999,
      "fzfg": false,
      "metar_trigger": false,
      "taf_trigger": false,
      "metar": "METAR LJLJ 212030Z 12003KT 070V190 9999 FEW040TCU SCT050 BKN110 07/05 Q1019 NOSIG",
      "taf": "TAF LJLJ 211700Z 2118/2218 VRB02KT 9999 FEW040 BKN065"
    },
    {
      "icao": "LKMT",
      "alert": "OK",
      "vis_m": 9999,
      "fzfg": false,
      "metar_trigger": false,
      "taf_trigger": false,
      "metar": "METAR LKMT 212030Z 36004KT CAVOK 06/M01 Q1020 NOSIG",
      "taf": "TAF LKMT 211700Z 2118/2218 01006KT CAVOK"
    },
    {
      "icao": "LKPR",
      "alert": "OK",
      "vis_m": 9999,
      "fzfg": false,
      "metar_trigger": false,
      "taf_trigger": false,
      "metar": "METAR LKPR 212030Z 35004KT CAVOK 04/M03 Q1022 NOSIG",
      "taf": "TAF LKPR 212000Z 2121/2303 VRB02KT CAVOK"
    },
    {
      "icao": "LLBG",
      "alert": "OK",
      "vis_m": 9999,
      "fzfg": false,
      "metar_trigger": false,
      "taf_trigger": false,
      "metar": "METAR LLBG 212020Z VRB02KT CAVOK 16/10 Q1015 NOSIG",
      "taf": "TAF LLBG 211703Z 2118/2218 VRB04KT 9999 FEW025 TX22/2210Z TN12/2203Z"
    },
    {
      "icao": "LMML",
      "alert": "OK",
      "vis_m": 9999,
      "fzfg": false,
      "metar_trigger": false,
      "taf_trigger": false,
      "metar": "METAR LMML 212015Z 20005KT CAVOK 17/15 Q1011 NOSIG",
      "taf": "TAF LMML 211100Z 2112/2212 18007KT CAVOK"
    },
    {
      "icao": "LOWW",
      "alert": "OK",
      "vis_m": 9999,
      "fzfg": false,
      "metar_trigger": false,
      "taf_trigger": false,
      "metar": "METAR LOWW 212020Z 32008KT CAVOK 07/01 Q1020 TEMPO 32004KT",
      "taf": "TAF LOWW 212015Z 2121/2303 34011KT CAVOK TX15/2215Z TN04/2203Z"
    },
    {
      "icao": "LPFR",
      "alert": "OK",
      "vis_m": 9000,
      "fzfg": false,
      "metar_trigger": false,
      "taf_trigger": false,
      "metar": "METAR LPFR 212030Z 23006KT 210V270 9000 SCT007 SCT012 18/16 Q1010",
      "taf": "TAF LPFR 211700Z 2118/2218 24012KT 9999 SCT015"
    },
    {
      "icao": "LPMA",
      "alert": "OK",
      "vis_m": 9999,
      "fzfg": false,
      "metar_trigger": false,
      "taf_trigger": false,
      "metar": "METAR LPMA 212030Z 32006KT 280V010 9999 SCT015 15/07 Q1013",
      "taf": "TAF LPMA 211700Z 2118/2218 35012KT 9999 SCT015 SCT030"
    },
    {
      "icao": "LPPR",
      "alert": "OK",
      "vis_m": 9999,
      "fzfg": false,
      "metar_trigger": false,
      "taf_trigger": false,
      "metar": "METAR LPPR 212030Z 31006KT 290V350 9999 FEW014 BKN022 BKN029 15/12 Q1007",
      "taf": "TAF LPPR 211700Z 2118/2218 20012KT 9999 SCT012 BKN020"
    },
    {
      "icao": "LPPS",
      "alert": "OK",
      "vis_m": 9999,
      "fzfg": false,
      "metar_trigger": false,
      "taf_trigger": false,
      "metar": "METAR LPPS 212030Z 31008KT 9999 FEW015 14/07 Q1013",
      "taf": "TAF LPPS 211700Z 2118/2224 33015KT 9999 SCT015"
    },
    {
      "icao": "LPPT",
      "alert": "OK",
      "vis_m": 9999,
      "fzfg": false,
      "metar_trigger": false,
      "taf_trigger": false,
      "metar": "METAR LPPT 212030Z 30007KT 9999 FEW020 SCT035 15/11 Q1008",
      "taf": "TAF LPPT 211700Z 2118/2224 22012KT 9999 SCT025"
    },
    {
      "icao": "LQBK",
      "alert": "OK",
      "vis_m": 9999,
      "fzfg": false,
      "metar_trigger": false,
      "taf_trigger": false,
      "metar": "METAR LQBK 212030Z 28003KT CAVOK 07/05 Q1017 NOSIG",
      "taf": "TAF LQBK 211700Z 2118/2218 33005KT 9999 SCT020 BKN045 TX15/2214Z TN05/2204Z"
    },
    {
      "icao": "LQSA",
      "alert": "OK",
      "vis_m": 8000,
      "fzfg": false,
      "metar_trigger": false,
      "taf_trigger": false,
      "metar": "METAR LQSA 212030Z 30005KT 280V340 8000 -RA SCT020 OVC035 08/06 Q1016 NOSIG",
      "taf": "TAF LQSA 211700Z 2118/2218 32006KT 9999 FEW025 BKN055 TX12/2214Z TN06/2205Z"
    },
    {
      "icao": "LQTZ",
      "alert": "OK",
      "vis_m": 9999,
      "fzfg": false,
      "metar_trigger": false,
      "taf_trigger": false,
      "metar": "METAR LQTZ 212030Z 36003KT 9999 -RA FEW037 SCT058 BKN070 09/08 Q1017",
      "taf": "TAF LQTZ 211700Z 2118/2218 03005KT 9999 SCT050 TX14/2213Z TN04/2202Z"
    },
    {
      "icao": "LRBC",
      "alert": "OK",
      "vis_m": 9999,
      "fzfg": false,
      "metar_trigger": false,
      "taf_trigger": false,
      "metar": "METAR LRBC 212030Z VRB01KT CAVOK 07/03 Q1016",
      "taf": "TAF LRBC 212000Z 2121/2206 31005KT CAVOK"
    },
    {
      "icao": "LRBS",
      "alert": "OK",
      "vis_m": 9999,
      "fzfg": false,
      "metar_trigger": false,
      "taf_trigger": false,
      "metar": "METAR LRBS 212030Z 02004KT 340V050 9999 SCT040 SCT046 07/05 Q1016 NOSIG",
      "taf": "TAF LRBS 211700Z 2118/2218 05006KT 9999 BKN035"
    },
    {
      "icao": "LRBV",
      "alert": "OK",
      "vis_m": 9999,
      "fzfg": false,
      "metar_trigger": false,
      "taf_trigger": false,
      "metar": "METAR LRBV 212030Z AUTO 00000KT 9999 -DZ OVC016/// 04/03 Q1015 RERA",
      "taf": "TAF LRBV 211700Z 2118/2203 07007KT 9999 BKN010 OVC040"
    },
    {
      "icao": "LRCL",
      "alert": "OK",
      "vis_m": 9999,
      "fzfg": false,
      "metar_trigger": false,
      "taf_trigger": false,
      "metar": "METAR LRCL 212030Z 01005KT 9999 OVC027 07/03 Q1015",
      "taf": "TAF LRCL 212000Z 2121/2206 35006KT 9999 BKN025"
    },
    {
      "icao": "LRCV",
      "alert": "OK",
      "vis_m": 9999,
      "fzfg": false,
      "metar_trigger": false,
      "taf_trigger": false,
      "metar": "METAR LRCV 212030Z 08010KT 9999 BKN007 07/06 Q1015",
      "taf": "TAF LRCV 212000Z 2121/2206 09010KT 9999 BKN010"
    },
    {
      "icao": "LRIA",
      "alert": "OK",
      "vis_m": 9999,
      "fzfg": false,
      "metar_trigger": false,
      "taf_trigger": false,
      "metar": "METAR LRIA 212030Z 26003KT CAVOK 06/M00 Q1016",
      "taf": "TAF LRIA 212000Z 2121/2206 VRB04KT CAVOK"
    },
    {
      "icao": "LROP",
      "alert": "OK",
      "vis_m": 9999,
      "fzfg": false,
      "metar_trigger": false,
      "taf_trigger": false,
      "metar": "METAR LROP 212030Z 02003KT 330V070 9999 OVC041 07/05 Q1016 NOSIG",
      "taf": "TAF LROP 211700Z 2118/2218 05006KT 9999 BKN035"
    },
    {
      "icao": "LRSB",
      "alert": "OK",
      "vis_m": 9999,
      "fzfg": false,
      "metar_trigger": false,
      "taf_trigger": false,
      "metar": "METAR LRSB 212030Z 27004KT 230V350 9999 FEW036 FEW040CB BKN065 07/06 Q1015",
      "taf": "TAF LRSB 211700Z 2118/2218 33010KT 9999 BKN040"
    },
    {
      "icao": "LRSM",
      "alert": "OK",
      "vis_m": 9999,
      "fzfg": false,
      "metar_trigger": false,
      "taf_trigger": false,
      "metar": "METAR LRSM 212030Z AUTO 03005KT 9999 BKN075/// 07/02 Q1017",
      "taf": "TAF LRSM 211400Z 2115/2124 03009KT 9999 BKN030"
    },
    {
      "icao": "LRSV",
      "alert": "OK",
      "vis_m": 9999,
      "fzfg": false,
      "metar_trigger": false,
      "taf_trigger": false,
      "metar": "METAR LRSV 212030Z 29007KT CAVOK 04/M00 Q1015",
      "taf": "TAF LRSV 212000Z 2121/2206 31006KT CAVOK"
    },
    {
      "icao": "LRTM",
      "alert": "OK",
      "vis_m": 9999,
      "fzfg": false,
      "metar_trigger": false,
      "taf_trigger": false,
      "metar": "METAR LRTM 212030Z 09006KT 9999 SCT027 06/04 Q1016",
      "taf": "TAF LRTM 212000Z 2121/2206 07005KT 9999 BKN030"
    },
    {
      "icao": "LRTR",
      "alert": "OK",
      "vis_m": 9999,
      "fzfg": false,
      "metar_trigger": false,
      "taf_trigger": false,
      "metar": "METAR LRTR 212030Z 34004KT CAVOK 07/05 Q1016",
      "taf": "TAF LRTR 211700Z 2118/2218 35006KT CAVOK"
    },
    {
      "icao": "LTAC",
      "alert": "OK",
      "vis_m": 9999,
      "fzfg": false,
      "metar_trigger": false,
      "taf_trigger": false,
      "metar": "METAR LTAC 212020Z 05007KT 9999 SCT040 BKN080 10/05 Q1012 NOSIG RMK RWY21C 04005KT RWY03L 04006KT RWY21R 03006KT RWY03R 04004KT RWY21L 04004KT",
      "taf": "TAF LTAC 211640Z 2118/2218 VRB02KT 9999 SCT040 BKN100"
    },
    {
      "icao": "LTFM",
      "alert": "OK",
      "vis_m": 8000,
      "fzfg": false,
      "metar_trigger": false,
      "taf_trigger": false,
      "metar": "METAR LTFM 212020Z 06013KT 8000 -SHRA SCT006 BKN022 10/09 Q1014 RESHRA NOSIG RMK RWY17L 06010KT RWY34L 04009KT RWY16R 06010KT RWY36 06012KT RWY18 07011KT",
      "taf": "TAF LTFM 211640Z 2118/2224 05015G25KT 9999 -SHRA SCT014 BKN022"
    },
    {
      "icao": "LUKK",
      "alert": "OK",
      "vis_m": 9999,
      "fzfg": false,
      "metar_trigger": false,
      "taf_trigger": false,
      "metar": "METAR LUKK 212030Z 32004KT 210V350 CAVOK 06/M01 Q1015 NOSIG",
      "taf": "TAF LUKK 211702Z 2118/2218 35005KT CAVOK"
    },
    {
      "icao": "LWOH",
      "alert": "OK",
      "vis_m": null,
      "fzfg": false,
      "metar_trigger": false,
      "taf_trigger": false,
      "metar": "",
      "taf": "TAF LWOH 211710Z 2118/2218 16006KT 9999 FEW010 BKN035"
    },
    {
      "icao": "LWSK",
      "alert": "OK",
      "vis_m": 9999,
      "fzfg": false,
      "metar_trigger": false,
      "taf_trigger": false,
      "metar": "METAR LWSK 212020Z 01003KT 340V050 9999 SCT033 BKN080 09/08 Q1015 NOSIG",
      "taf": ""
    },
    {
      "icao": "LYBE",
      "alert": "OK",
      "vis_m": 9999,
      "fzfg": false,
      "metar_trigger": false,
      "taf_trigger": false,
      "metar": "METAR LYBE 212030Z VRB02KT 9999 -RA SCT040 10/07 Q1016 NOSIG",
      "taf": "TAF LYBE 211700Z 2118/2218 29008KT 9999 SCT043 TX14/2213Z TN04/2204Z"
    },
    {
      "icao": "LYNI",
      "alert": "OK",
      "vis_m": 9999,
      "fzfg": false,
      "metar_trigger": false,
      "taf_trigger": false,
      "metar": "METAR LYNI 212030Z 09002KT 9999 FEW077 10/07 Q1015 NOSIG",
      "taf": "TAF LYNI 211700Z 2118/2218 24005KT 9999 SCT040 TX15/2213Z TN07/2204Z"
    },
    {
      "icao": "LYPG",
      "alert": "OK",
      "vis_m": 9999,
      "fzfg": false,
      "metar_trigger": false,
      "taf_trigger": false,
      "metar": "METAR LYPG 212030Z 31004KT 9999 -RA FEW010 BKN040 OVC080 13/13 Q1014 NOSIG",
      "taf": "TAF LYPG 211700Z 2118/2218 VRB02KT 9999 FEW010 SCT040 BKN080 TX18/2213Z TN10/2204Z"
    },
    {
      "icao": "LZIB",
      "alert": "OK",
      "vis_m": 9999,
      "fzfg": false,
      "metar_trigger": false,
      "taf_trigger": false,
      "metar": "METAR LZIB 212030Z 33006KT CAVOK 08/M02 Q1019 NOSIG",
      "taf": "TAF LZIB 211715Z 2118/2218 34008KT CAVOK"
    },
    {
      "icao": "LZKZ",
      "alert": "OK",
      "vis_m": 9999,
      "fzfg": false,
      "metar_trigger": false,
      "taf_trigger": false,
      "metar": "METAR LZKZ 212030Z 33005KT CAVOK 07/M04 Q1018 NOSIG",
      "taf": "TAF LZKZ 211715Z 2118/2218 01010KT CAVOK"
    },
    {
      "icao": "LZTT",
      "alert": "OK",
      "vis_m": 9999,
      "fzfg": false,
      "metar_trigger": false,
      "taf_trigger": false,
      "metar": "METAR LZTT 212030Z VRB03KT 9999 FEW050 BKN076 02/M05 Q1018",
      "taf": "TAF LZTT 211715Z 2118/2218 03008KT 9999 FEW050 SCT060"
    },
    {
      "icao": "OEJN",
      "alert": "OK",
      "vis_m": 9999,
      "fzfg": false,
      "metar_trigger": false,
      "taf_trigger": false,
      "metar": "METAR OEJN 212000Z 35012KT CAVOK 26/15 Q1008 NOSIG",
      "taf": "TAF OEJN 211700Z 2118/2224 01010KT CAVOK"
    },
    {
      "icao": "OEMA",
      "alert": "OK",
      "vis_m": 9999,
      "fzfg": false,
      "metar_trigger": false,
      "taf_trigger": false,
      "metar": "METAR OEMA 212000Z 36005KT CAVOK 27/M06 Q1011 NOSIG",
      "taf": "TAF OEMA 211700Z 2118/2224 35006KT CAVOK"
    },
    {
      "icao": "OJAI",
      "alert": "OK",
      "vis_m": 5000,
      "fzfg": false,
      "metar_trigger": false,
      "taf_trigger": false,
      "metar": "METAR OJAI 212000Z 32004KT 5000 HZ NSC 10/07 Q1016 NOSIG",
      "taf": "TAF OJAI 211643Z 2118/2224 30012KT 5000 HZ FEW035"
    },
    {
      "icao": "OMAA",
      "alert": "OK",
      "vis_m": null,
      "fzfg": false,
      "metar_trigger": false,
      "taf_trigger": false,
      "metar": "",
      "taf": ""
    },
    {
      "icao": "OMDB",
      "alert": "OK",
      "vis_m": null,
      "fzfg": false,
      "metar_trigger": false,
      "taf_trigger": false,
      "metar": "",
      "taf": ""
    },
    {
      "icao": "UAAA",
      "alert": "OK",
      "vis_m": 9999,
      "fzfg": false,
      "metar_trigger": false,
      "taf_trigger": false,
      "metar": "METAR UAAA 212000Z 15001MPS 9999 FEW100 12/05 Q1011 NOSIG",
      "taf": "TAF UAAA 211701Z 2118/2218 17002MPS 9999 SCT050CB BKN100 TX23/2209Z TN08/2201Z"
    },
    {
      "icao": "UBBB",
      "alert": "OK",
      "vis_m": 9999,
      "fzfg": false,
      "metar_trigger": false,
      "taf_trigger": false,
      "metar": "METAR UBBB 212030Z 00000KT 9999 BKN041 10/08 Q1012 NOSIG",
      "taf": "TAF UBBB 211704Z 2118/2218 VRB04KT 9999 SCT010 TX16/2210Z TN08/2121Z"
    },
    {
      "icao": "UDSG",
      "alert": "OK",
      "vis_m": 9999,
      "fzfg": false,
      "metar_trigger": false,
      "taf_trigger": false,
      "metar": "METAR UDSG 212000Z 36007KT 9999 BKN043CB 05/M01 Q1015 NOSIG",
      "taf": "TAF UDSG 211658Z 2118/2218 24006KT 9999 BKN040"
    },
    {
      "icao": "UDYZ",
      "alert": "OK",
      "vis_m": 9999,
      "fzfg": false,
      "metar_trigger": false,
      "taf_trigger": false,
      "metar": "METAR UDYZ 212000Z VRB01KT 9999 BKN040CB 10/08 Q1013 NOSIG",
      "taf": "TAF UDYZ 211700Z 2118/2218 VRB06KT 9999 SCT040"
    },
    {
      "icao": "UGKO",
      "alert": "OK",
      "vis_m": 9999,
      "fzfg": false,
      "metar_trigger": false,
      "taf_trigger": false,
      "metar": "METAR UGKO 212030Z 08005KT CAVOK 08/07 Q1013 NOSIG",
      "taf": "TAF UGKO 211700Z 2118/2218 08007KT CAVOK TX22/2211Z TN07/2203Z"
    }
  ]
}