{
  "ts_utc": "2026-05-01T12:09:01Z",
  "threshold_m": 150,
  "source": "stations_override.txt (ICAO list) + aviationweather.gov (METAR/TAF raw)",
  "station_count": 159,
  "stations": [
    {
      "icao": "BIKF",
      "alert": "OK",
      "vis_m": 9999,
      "fzfg": false,
      "metar_trigger": false,
      "taf_trigger": false,
      "metar": "METAR BIKF 011200Z 36014KT 9999 SCT036 04/M05 Q1017",
      "taf": "TAF BIKF 011030Z 0112/0212 32015KT 9999 SCT030 TX06/0212Z TNM01/0204Z"
    },
    {
      "icao": "BKPR",
      "alert": "OK",
      "vis_m": 9999,
      "fzfg": false,
      "metar_trigger": false,
      "taf_trigger": false,
      "metar": "METAR BKPR 011200Z 03011KT 350V050 9999 BKN050 10/M00 Q1023 NOSIG",
      "taf": "TAF BKPR 011130Z 0112/0212 01010KT 9999 SCT050"
    },
    {
      "icao": "EBCI",
      "alert": "OK",
      "vis_m": 9999,
      "fzfg": false,
      "metar_trigger": false,
      "taf_trigger": false,
      "metar": "METAR EBCI 011150Z 17006KT 080V210 CAVOK 22/M04 Q1023 NOSIG",
      "taf": "TAF EBCI 011110Z 0112/0218 15006KT CAVOK"
    },
    {
      "icao": "EDDB",
      "alert": "OK",
      "vis_m": 9999,
      "fzfg": false,
      "metar_trigger": false,
      "taf_trigger": false,
      "metar": "METAR EDDB 011150Z AUTO 33004KT CAVOK 22/05 Q1028 NOSIG",
      "taf": "TAF EDDB 011100Z 0112/0212 33004KT CAVOK"
    },
    {
      "icao": "EDDH",
      "alert": "OK",
      "vis_m": 9999,
      "fzfg": false,
      "metar_trigger": false,
      "taf_trigger": false,
      "metar": "METAR EDDH 011150Z AUTO VRB05KT CAVOK 21/05 Q1028 NOSIG",
      "taf": "TAF EDDH 011100Z 0112/0218 14007KT CAVOK"
    },
    {
      "icao": "EDDK",
      "alert": "OK",
      "vis_m": 9999,
      "fzfg": false,
      "metar_trigger": false,
      "taf_trigger": false,
      "metar": "METAR EDDK 011150Z AUTO 13014KT 090V170 CAVOK 21/02 Q1025 TEMPO 13015G25KT",
      "taf": "TAF EDDK 011100Z 0112/0218 13013KT CAVOK"
    },
    {
      "icao": "EDDN",
      "alert": "OK",
      "vis_m": 9999,
      "fzfg": false,
      "metar_trigger": false,
      "taf_trigger": false,
      "metar": "METAR EDDN 011150Z AUTO 11010KT 080V140 CAVOK 20/02 Q1027 NOSIG",
      "taf": "TAF EDDN 011100Z 0112/0212 11009KT CAVOK"
    },
    {
      "icao": "EDDS",
      "alert": "OK",
      "vis_m": 9999,
      "fzfg": false,
      "metar_trigger": false,
      "taf_trigger": false,
      "metar": "METAR EDDS 011150Z AUTO VRB06KT CAVOK 20/00 Q1025 NOSIG",
      "taf": "TAF EDDS 011100Z 0112/0212 12008KT CAVOK"
    },
    {
      "icao": "EDFH",
      "alert": "OK",
      "vis_m": 9999,
      "fzfg": false,
      "metar_trigger": false,
      "taf_trigger": false,
      "metar": "METAR EDFH 011150Z 11015KT CAVOK 18/00 Q1025",
      "taf": "TAF EDFH 011100Z 0112/0212 13013KT CAVOK"
    },
    {
      "icao": "EDJA",
      "alert": "OK",
      "vis_m": 9999,
      "fzfg": false,
      "metar_trigger": false,
      "taf_trigger": false,
      "metar": "METAR EDJA 011150Z 05010KT 020V080 CAVOK 19/M03 Q1025",
      "taf": "TAF EDJA 011100Z 0112/0121 07010KT CAVOK"
    },
    {
      "icao": "EDLW",
      "alert": "OK",
      "vis_m": 9999,
      "fzfg": false,
      "metar_trigger": false,
      "taf_trigger": false,
      "metar": "METAR EDLW 011150Z 10010KT 080V170 CAVOK 21/01 Q1025",
      "taf": "TAF EDLW 011100Z 0112/0212 13011KT CAVOK"
    },
    {
      "icao": "EDNY",
      "alert": "OK",
      "vis_m": 9999,
      "fzfg": false,
      "metar_trigger": false,
      "taf_trigger": false,
      "metar": "METAR EDNY 011150Z 23008KT CAVOK 16/03 Q1025",
      "taf": "TAF EDNY 011100Z 0112/0121 04005KT CAVOK"
    },
    {
      "icao": "EDSB",
      "alert": "OK",
      "vis_m": 9999,
      "fzfg": false,
      "metar_trigger": false,
      "taf_trigger": false,
      "metar": "METAR EDSB 011150Z 35005KT 310V030 CAVOK 21/M01 Q1024",
      "taf": "TAF EDSB 011100Z 0112/0212 VRB03KT CAVOK"
    },
    {
      "icao": "EETN",
      "alert": "OK",
      "vis_m": 9999,
      "fzfg": false,
      "metar_trigger": false,
      "taf_trigger": false,
      "metar": "METAR EETN 011150Z 29013KT CAVOK 16/04 Q1020 NOSIG",
      "taf": "TAF EETN 011130Z 0112/0212 29012KT CAVOK"
    },
    {
      "icao": "EFTU",
      "alert": "OK",
      "vis_m": 9999,
      "fzfg": false,
      "metar_trigger": false,
      "taf_trigger": false,
      "metar": "METAR EFTU 011150Z AUTO 28006KT 220V330 CAVOK 18/03 Q1019",
      "taf": "TAF EFTU 011123Z 0112/0212 26010KT CAVOK"
    },
    {
      "icao": "EGBB",
      "alert": "OK",
      "vis_m": 9999,
      "fzfg": false,
      "metar_trigger": false,
      "taf_trigger": false,
      "metar": "METAR EGBB 011150Z 15006KT 040V200 CAVOK 21/09 Q1019",
      "taf": "TAF EGBB 011056Z 0112/0212 18010KT 9999 FEW040"
    },
    {
      "icao": "EGGP",
      "alert": "OK",
      "vis_m": 9999,
      "fzfg": false,
      "metar_trigger": false,
      "taf_trigger": false,
      "metar": "METAR EGGP 011150Z 22005KT 180V250 9999 VCSH SCT046 17/07 Q1019",
      "taf": "TAF EGGP 011057Z 0112/0212 17006KT CAVOK"
    },
    {
      "icao": "EGGW",
      "alert": "OK",
      "vis_m": 9999,
      "fzfg": false,
      "metar_trigger": false,
      "taf_trigger": false,
      "metar": "METAR EGGW 011150Z AUTO 16008KT 120V180 9999 NCD 21/05 Q1020",
      "taf": "TAF EGGW 011053Z 0112/0212 16008KT CAVOK"
    },
    {
      "icao": "EGKK",
      "alert": "OK",
      "vis_m": 9999,
      "fzfg": false,
      "metar_trigger": false,
      "taf_trigger": false,
      "metar": "METAR EGKK 011150Z 16007KT 110V200 CAVOK 21/07 Q1020",
      "taf": "TAF EGKK 011054Z 0112/0218 14005KT CAVOK"
    },
    {
      "icao": "EGNM",
      "alert": "OK",
      "vis_m": 9999,
      "fzfg": false,
      "metar_trigger": false,
      "taf_trigger": false,
      "metar": "METAR EGNM 011150Z 12010KT 090V150 CAVOK 19/06 Q1019",
      "taf": "TAF EGNM 011057Z 0112/0212 15008KT 9999 SCT045"
    },
    {
      "icao": "EGPD",
      "alert": "OK",
      "vis_m": 9999,
      "fzfg": false,
      "metar_trigger": false,
      "taf_trigger": false,
      "metar": "METAR EGPD 011150Z COR AUTO 16009KT 9999 NCD 21/08 Q1017 NOSIG",
      "taf": "TAF EGPD 011100Z 0112/0212 15006KT CAVOK"
    },
    {
      "icao": "EGPF",
      "alert": "OK",
      "vis_m": 9999,
      "fzfg": false,
      "metar_trigger": false,
      "taf_trigger": false,
      "metar": "METAR EGPF 011150Z VRB02KT CAVOK 14/08 Q1019",
      "taf": "TAF EGPF 011055Z 0112/0212 20005KT 9999 BKN045"
    },
    {
      "icao": "EHBK",
      "alert": "OK",
      "vis_m": 9999,
      "fzfg": false,
      "metar_trigger": false,
      "taf_trigger": false,
      "metar": "METAR EHBK 011155Z AUTO 18008KT 130V230 9999 NCD 23/02 Q1023 NOSIG",
      "taf": "TAF EHBK 011112Z 0112/0218 13010KT CAVOK"
    },
    {
      "icao": "EHEH",
      "alert": "OK",
      "vis_m": 9999,
      "fzfg": false,
      "metar_trigger": false,
      "taf_trigger": false,
      "metar": "METAR EHEH 011155Z AUTO 12011KT 070V180 9999 NCD 23/01 Q1023 BLU NOSIG RMK TREND REMOTE BY EHWX",
      "taf": "TAF EHEH 011143Z 0112/0218 13012G22KT CAVOK"
    },
    {
      "icao": "EKBI",
      "alert": "OK",
      "vis_m": 9999,
      "fzfg": false,
      "metar_trigger": false,
      "taf_trigger": false,
      "metar": "METAR EKBI 011150Z AUTO 22007KT 170V270 9999 NCD 21/02 Q1028",
      "taf": "TAF EKBI 011127Z 0112/0212 21010KT CAVOK"
    },
    {
      "icao": "EKCH",
      "alert": "OK",
      "vis_m": 9999,
      "fzfg": false,
      "metar_trigger": false,
      "taf_trigger": false,
      "metar": "METAR EKCH 011150Z AUTO 14005KT 9999 NCD 17/02 Q1028 NOSIG",
      "taf": "TAF EKCH 011127Z 0112/0212 VRB05KT CAVOK"
    },
    {
      "icao": "ENAL",
      "alert": "OK",
      "vis_m": 9999,
      "fzfg": false,
      "metar_trigger": false,
      "taf_trigger": false,
      "metar": "METAR ENAL 011150Z 24022KT CAVOK 16/01 Q1016",
      "taf": "TAF ENAL 011100Z 0112/0121 22018KT CAVOK"
    },
    {
      "icao": "ENBR",
      "alert": "OK",
      "vis_m": 9999,
      "fzfg": false,
      "metar_trigger": false,
      "taf_trigger": false,
      "metar": "METAR ENBR 011150Z 17019KT CAVOK 16/03 Q1021 NOSIG RMK WIND 1200FT 16023KT",
      "taf": "TAF ENBR 011100Z 0112/0212 16018KT CAVOK"
    },
    {
      "icao": "ENGM",
      "alert": "OK",
      "vis_m": 9999,
      "fzfg": false,
      "metar_trigger": false,
      "taf_trigger": false,
      "metar": "METAR ENGM 011150Z 26007KT 200V350 CAVOK 21/00 Q1021 NOSIG",
      "taf": "TAF ENGM 011100Z 0112/0212 22012KT CAVOK"
    },
    {
      "icao": "ENHD",
      "alert": "OK",
      "vis_m": 9999,
      "fzfg": false,
      "metar_trigger": false,
      "taf_trigger": false,
      "metar": "METAR ENHD 011150Z 18015KT CAVOK 16/04 Q1022",
      "taf": "TAF ENHD 011100Z 0112/0121 17018KT CAVOK"
    },
    {
      "icao": "ENTC",
      "alert": "OK",
      "vis_m": 9999,
      "fzfg": false,
      "metar_trigger": false,
      "taf_trigger": false,
      "metar": "METAR ENTC 011150Z 25013KT 9999 -RA FEW012 SCT019 BKN023 07/04 Q1004 NOSIG RMK WIND 2600FT 27019G32KT",
      "taf": "TAF ENTC 011100Z 0112/0212 20018KT 9999 -RADZ FEW012 BKN030"
    },
    {
      "icao": "ENTO",
      "alert": "OK",
      "vis_m": 9999,
      "fzfg": false,
      "metar_trigger": false,
      "taf_trigger": false,
      "metar": "METAR ENTO 011150Z 18010KT CAVOK 19/05 Q1023 NOSIG",
      "taf": "TAF ENTO 011100Z 0112/0212 20012KT CAVOK"
    },
    {
      "icao": "ENVA",
      "alert": "OK",
      "vis_m": 9999,
      "fzfg": false,
      "metar_trigger": false,
      "taf_trigger": false,
      "metar": "METAR ENVA 011150Z 31003KT CAVOK 14/06 Q1016 NOSIG RMK WIND 670FT 36004KT",
      "taf": "TAF ENVA 011100Z 0112/0212 26010KT CAVOK"
    },
    {
      "icao": "ENZV",
      "alert": "OK",
      "vis_m": 9999,
      "fzfg": false,
      "metar_trigger": false,
      "taf_trigger": false,
      "metar": "METAR ENZV 011150Z 17016KT CAVOK 18/04 Q1023 NOSIG",
      "taf": "TAF ENZV 011100Z 0112/0212 18018KT CAVOK"
    },
    {
      "icao": "EPGD",
      "alert": "OK",
      "vis_m": 9999,
      "fzfg": false,
      "metar_trigger": false,
      "taf_trigger": false,
      "metar": "METAR EPGD 011200Z 06008KT 030V090 CAVOK 20/04 Q1026",
      "taf": "TAF EPGD 011130Z 0112/0212 06010KT CAVOK"
    },
    {
      "icao": "EPKK",
      "alert": "OK",
      "vis_m": 9999,
      "fzfg": false,
      "metar_trigger": false,
      "taf_trigger": false,
      "metar": "METAR EPKK 011200Z 28007KT 220V320 9999 BKN065 18/02 Q1025",
      "taf": "TAF EPKK 011130Z 0112/0212 32010KT 9999 BKN060"
    },
    {
      "icao": "EPKT",
      "alert": "OK",
      "vis_m": 9999,
      "fzfg": false,
      "metar_trigger": false,
      "taf_trigger": false,
      "metar": "METAR EPKT 011200Z 33010KT 290V360 CAVOK 19/03 Q1025",
      "taf": "TAF EPKT 011130Z 0112/0212 32012KT CAVOK"
    },
    {
      "icao": "EPLB",
      "alert": "OK",
      "vis_m": 9999,
      "fzfg": false,
      "metar_trigger": false,
      "taf_trigger": false,
      "metar": "METAR EPLB 011200Z 34011KT 310V040 CAVOK 16/03 Q1024",
      "taf": "TAF EPLB 011130Z 0112/0212 35010KT 9999 SCT046"
    },
    {
      "icao": "EPMO",
      "alert": "OK",
      "vis_m": 9999,
      "fzfg": false,
      "metar_trigger": false,
      "taf_trigger": false,
      "metar": "METAR EPMO 011200Z 36007KT 310V050 CAVOK 20/04 Q1025",
      "taf": "TAF EPMO 011130Z 0112/0212 36010KT 9999 SCT048"
    },
    {
      "icao": "EPPO",
      "alert": "OK",
      "vis_m": 9999,
      "fzfg": false,
      "metar_trigger": false,
      "taf_trigger": false,
      "metar": "METAR EPPO 011200Z 31006KT 260V070 CAVOK 21/04 Q1027",
      "taf": "TAF EPPO 011130Z 0112/0212 32006KT CAVOK"
    },
    {
      "icao": "EPRA",
      "alert": "OK",
      "vis_m": 9999,
      "fzfg": false,
      "metar_trigger": false,
      "taf_trigger": false,
      "metar": "METAR EPRA 011200Z 34008KT 310V040 CAVOK 18/01 Q1025",
      "taf": "TAF EPRA 011130Z 0112/0121 35006KT CAVOK"
    },
    {
      "icao": "EPRZ",
      "alert": "OK",
      "vis_m": 9999,
      "fzfg": false,
      "metar_trigger": false,
      "taf_trigger": false,
      "metar": "METAR EPRZ 011200Z 31005KT 270V040 CAVOK 17/01 Q1025",
      "taf": "TAF EPRZ 011130Z 0112/0212 31011KT CAVOK"
    },
    {
      "icao": "EPSC",
      "alert": "OK",
      "vis_m": 9999,
      "fzfg": false,
      "metar_trigger": false,
      "taf_trigger": false,
      "metar": "METAR EPSC 011200Z 34007KT 270V050 CAVOK 22/05 Q1027",
      "taf": "TAF EPSC 011130Z 0112/0212 35010KT CAVOK"
    },
    {
      "icao": "EPSY",
      "alert": "OK",
      "vis_m": 9999,
      "fzfg": false,
      "metar_trigger": false,
      "taf_trigger": false,
      "metar": "METAR EPSY 011200Z 03013KT CAVOK 19/04 Q1025",
      "taf": "TAF EPSY 011130Z 0112/0121 36010KT CAVOK"
    },
    {
      "icao": "EPWA",
      "alert": "OK",
      "vis_m": 9999,
      "fzfg": false,
      "metar_trigger": false,
      "taf_trigger": false,
      "metar": "METAR EPWA 011200Z 32008KT 280V360 CAVOK 19/03 Q1025 NOSIG",
      "taf": "TAF EPWA 011130Z 0112/0212 01010KT 9999 SCT048"
    },
    {
      "icao": "EPWR",
      "alert": "OK",
      "vis_m": 9999,
      "fzfg": false,
      "metar_trigger": false,
      "taf_trigger": false,
      "metar": "METAR EPWR 011200Z 30009KT 250V320 CAVOK 21/03 Q1027",
      "taf": "TAF EPWR 011130Z 0112/0212 33010KT CAVOK"
    },
    {
      "icao": "ESGG",
      "alert": "OK",
      "vis_m": 9999,
      "fzfg": false,
      "metar_trigger": false,
      "taf_trigger": false,
      "metar": "METAR ESGG 011150Z 27010KT 230V300 CAVOK 18/01 Q1026",
      "taf": "TAF ESGG 011130Z 0112/0212 28012KT CAVOK"
    },
    {
      "icao": "ESKN",
      "alert": "OK",
      "vis_m": 9999,
      "fzfg": false,
      "metar_trigger": false,
      "taf_trigger": false,
      "metar": "METAR ESKN 011150Z 28013KT CAVOK 24/02 Q1021",
      "taf": "TAF ESKN 011130Z 0112/0212 28010KT CAVOK"
    },
    {
      "icao": "ESMS",
      "alert": "OK",
      "vis_m": 9999,
      "fzfg": false,
      "metar_trigger": false,
      "taf_trigger": false,
      "metar": "METAR ESMS 011150Z 30013KT CAVOK 19/M00 Q1027",
      "taf": "TAF ESMS 011127Z 0112/0212 31010KT CAVOK"
    },
    {
      "icao": "ESSA",
      "alert": "OK",
      "vis_m": 9999,
      "fzfg": false,
      "metar_trigger": false,
      "taf_trigger": false,
      "metar": "METAR ESSA 011150Z 25012KT CAVOK 21/01 Q1019 NOSIG",
      "taf": "TAF ESSA 011130Z 0112/0212 24010KT CAVOK"
    },
    {
      "icao": "EYKA",
      "alert": "OK",
      "vis_m": 9999,
      "fzfg": false,
      "metar_trigger": false,
      "taf_trigger": false,
      "metar": "METAR EYKA 011150Z VRB06KT CAVOK 17/05 Q1024",
      "taf": "TAF EYKA 011100Z 0112/0212 30006KT 9000 FEW040"
    },
    {
      "icao": "EYPA",
      "alert": "OK",
      "vis_m": 9999,
      "fzfg": false,
      "metar_trigger": false,
      "taf_trigger": false,
      "metar": "METAR EYPA 011150Z 24005KT 190V310 CAVOK 12/04 Q1025",
      "taf": "TAF EYPA 011100Z 0112/0212 23005KT 9000 NSC"
    },
    {
      "icao": "EYVI",
      "alert": "OK",
      "vis_m": 9999,
      "fzfg": false,
      "metar_trigger": false,
      "taf_trigger": false,
      "metar": "METAR EYVI 011150Z 01005KT 310V090 9999 FEW039 15/05 Q1024 NOSIG",
      "taf": "TAF EYVI 011100Z 0112/0212 VRB05KT 9000 SCT040"
    },
    {
      "icao": "GCFV",
      "alert": "OK",
      "vis_m": 9999,
      "fzfg": false,
      "metar_trigger": false,
      "taf_trigger": false,
      "metar": "METAR GCFV 011200Z 05010KT 9999 FEW025 21/13 Q1020",
      "taf": "TAF GCFV 010800Z 0109/0209 05006KT 9999 FEW025 TX23/0114Z TN16/0206Z"
    },
    {
      "icao": "GCLP",
      "alert": "OK",
      "vis_m": 9999,
      "fzfg": false,
      "metar_trigger": false,
      "taf_trigger": false,
      "metar": "METAR GCLP 011200Z 09006KT 060V120 9999 FEW025 21/15 Q1019 NOSIG",
      "taf": "TAF GCLP 010800Z 0109/0209 07006KT 9999 FEW025 TX23/0114Z TN16/0206Z"
    },
    {
      "icao": "GCTS",
      "alert": "OK",
      "vis_m": 9999,
      "fzfg": false,
      "metar_trigger": false,
      "taf_trigger": false,
      "metar": "METAR GCTS 011200Z 17006KT 110V250 9999 FEW030 22/15 Q1020 NOSIG",
      "taf": ""
    },
    {
      "icao": "GMAD",
      "alert": "OK",
      "vis_m": 9999,
      "fzfg": false,
      "metar_trigger": false,
      "taf_trigger": false,
      "metar": "METAR GMAD 011200Z 28008KT 240V310 9999 FEW030 SCT200 25/14 Q1016 NOSIG",
      "taf": "TAF GMAD 011100Z 0112/0218 27010KT 8000 SCT030"
    },
    {
      "icao": "GMMN",
      "alert": "OK",
      "vis_m": 9999,
      "fzfg": false,
      "metar_trigger": false,
      "taf_trigger": false,
      "metar": "METAR GMMN 011200Z 01009KT 330V040 CAVOK 25/16 Q1018 NOSIG",
      "taf": "TAF GMMN 011100Z 0112/0218 36012KT CAVOK"
    },
    {
      "icao": "GMMX",
      "alert": "OK",
      "vis_m": 9999,
      "fzfg": false,
      "metar_trigger": false,
      "taf_trigger": false,
      "metar": "METAR GMMX 011200Z VRB03KT 9999 FEW023 SCT200 24/15 Q1017 NOSIG",
      "taf": "TAF GMMX 011100Z 0112/0218 34006KT 8000 SCT026"
    },
    {
      "icao": "HEGN",
      "alert": "OK",
      "vis_m": 9999,
      "fzfg": false,
      "metar_trigger": false,
      "taf_trigger": false,
      "metar": "METAR HEGN 011200Z 01015KT CAVOK 31/06 Q1010 NOSIG",
      "taf": "TAF HEGN 011100Z 0112/0218 36013KT CAVOK"
    },
    {
      "icao": "HEMA",
      "alert": "OK",
      "vis_m": 9999,
      "fzfg": false,
      "metar_trigger": false,
      "taf_trigger": false,
      "metar": "METAR HEMA 011200Z 01014KT CAVOK 30/11 Q1010 NOSIG",
      "taf": "TAF HEMA 011100Z 0112/0218 35014KT CAVOK"
    },
    {
      "icao": "HESH",
      "alert": "OK",
      "vis_m": 9999,
      "fzfg": false,
      "metar_trigger": false,
      "taf_trigger": false,
      "metar": "METAR HESH 011200Z 03010KT CAVOK 30/13 Q1010 NOSIG",
      "taf": "TAF HESH 011100Z 0112/0218 02015KT CAVOK"
    },
    {
      "icao": "HESX",
      "alert": "OK",
      "vis_m": 9999,
      "fzfg": false,
      "metar_trigger": false,
      "taf_trigger": false,
      "metar": "METAR HESX 011200Z 05004KT CAVOK 28/06 Q1013 NOSIG",
      "taf": "TAF HESX 011100Z 0112/0218 31008KT CAVOK"
    },
    {
      "icao": "LATI",
      "alert": "OK",
      "vis_m": 9999,
      "fzfg": false,
      "metar_trigger": false,
      "taf_trigger": false,
      "metar": "METAR LATI 011150Z 04009KT 350V070 CAVOK 20/00 Q1018 NOSIG",
      "taf": "TAF LATI 011100Z 0112/0212 03012KT CAVOK TX22/0212Z TN04/0204Z"
    },
    {
      "icao": "LBPD",
      "alert": "OK",
      "vis_m": 9999,
      "fzfg": false,
      "metar_trigger": false,
      "taf_trigger": false,
      "metar": "METAR LBPD 011200Z AUTO VRB02KT 9999 SCT039/// OVC078/// 10/02 Q1024 NOSIG",
      "taf": "TAF LBPD 011100Z 0112/0212 VRB03KT 9999 SCT030 OVC060"
    },
    {
      "icao": "LBSF",
      "alert": "OK",
      "vis_m": 9999,
      "fzfg": false,
      "metar_trigger": false,
      "taf_trigger": false,
      "metar": "METAR LBSF 011200Z 03009KT 350V070 9999 FEW042 BKN056 08/M02 Q1024 NOSIG",
      "taf": "TAF LBSF 011100Z 0112/0212 05012KT 9999 SCT020 BKN045"
    },
    {
      "icao": "LBWN",
      "alert": "OK",
      "vis_m": 9999,
      "fzfg": false,
      "metar_trigger": false,
      "taf_trigger": false,
      "metar": "METAR LBWN 011200Z 06007KT 020V100 9999 FEW033 BKN040 11/01 Q1023 TEMPO 5000 SHRA FEW033TCU",
      "taf": "TAF LBWN 011100Z 0112/0212 03012KT 9999 SCT030 BKN045"
    },
    {
      "icao": "LCLK",
      "alert": "OK",
      "vis_m": 9999,
      "fzfg": false,
      "metar_trigger": false,
      "taf_trigger": false,
      "metar": "METAR LCLK 011200Z 21013KT 180V240 9999 FEW020 25/15 Q1011 NOSIG",
      "taf": "TAF LCLK 011130Z 0112/0212 21016KT 9999 FEW020"
    },
    {
      "icao": "LCPH",
      "alert": "OK",
      "vis_m": 9999,
      "fzfg": false,
      "metar_trigger": false,
      "taf_trigger": false,
      "metar": "METAR LCPH 011200Z 29010KT 250V320 9999 FEW017 22/16 Q1012 NOSIG",
      "taf": "TAF LCPH 011130Z 0112/0212 28014KT 9999 FEW020"
    },
    {
      "icao": "LEAL",
      "alert": "OK",
      "vis_m": 9999,
      "fzfg": false,
      "metar_trigger": false,
      "taf_trigger": false,
      "metar": "METAR LEAL 011200Z VRB03KT 9999 FEW010 SCT045 BKN055 24/14 Q1020 NOSIG",
      "taf": "TAF LEAL 011100Z 0112/0212 VRB04KT 9999 SCT025 SCT060 TX23/0113Z TN16/0206Z"
    },
    {
      "icao": "LEBB",
      "alert": "OK",
      "vis_m": 9999,
      "fzfg": false,
      "metar_trigger": false,
      "taf_trigger": false,
      "metar": "METAR LEBB 011200Z VRB02KT 9999 FEW043 SCT057 26/16 Q1018 NOSIG",
      "taf": ""
    },
    {
      "icao": "LEBL",
      "alert": "OK",
      "vis_m": 9000,
      "fzfg": false,
      "metar_trigger": false,
      "taf_trigger": false,
      "metar": "METAR LEBL 011200Z 08020KT 9000 FEW030 20/15 Q1022 NOSIG",
      "taf": "TAF LEBL 011100Z 0112/0212 07018KT 9999 FEW015 TX22/0112Z TN16/0206Z"
    },
    {
      "icao": "LECH",
      "alert": "OK",
      "vis_m": 9000,
      "fzfg": false,
      "metar_trigger": false,
      "taf_trigger": false,
      "metar": "METAR LECH 011200Z AUTO 06007KT 020V120 9000 OVC017 16/14 Q1023",
      "taf": "TAF LECH 011100Z 0112/0212 05007KT 9999 SCT020 SCT050 TX21/0112Z TN12/0206Z"
    },
    {
      "icao": "LEMD",
      "alert": "OK",
      "vis_m": 9999,
      "fzfg": false,
      "metar_trigger": false,
      "taf_trigger": false,
      "metar": "METAR LEMD 011200Z 20009KT 160V260 9999 FEW060 23/08 Q1019 NOSIG",
      "taf": "TAF LEMD 011100Z 0112/0218 20008KT CAVOK TX26/0116Z TN12/0205Z"
    },
    {
      "icao": "LEMG",
      "alert": "OK",
      "vis_m": 9999,
      "fzfg": false,
      "metar_trigger": false,
      "taf_trigger": false,
      "metar": "METAR LEMG 011200Z 12009KT 090V180 9999 FEW040 21/14 Q1019 NOSIG",
      "taf": "TAF LEMG 011100Z 0112/0212 13010KT CAVOK TX23/0114Z TN14/0206Z"
    },
    {
      "icao": "LEVC",
      "alert": "OK",
      "vis_m": 8000,
      "fzfg": false,
      "metar_trigger": false,
      "taf_trigger": false,
      "metar": "METAR LEVC 011200Z 06006KT 040V100 8000 -RA FEW008 SCT012 BKN018 18/16 Q1022 RERA NOSIG",
      "taf": "TAF LEVC 011100Z 0112/0212 07008KT 9999 SCT020 SCT030 TX21/0113Z TN16/0206Z"
    },
    {
      "icao": "LEXJ",
      "alert": "OK",
      "vis_m": 9999,
      "fzfg": false,
      "metar_trigger": false,
      "taf_trigger": false,
      "metar": "METAR LEXJ 011200Z 04006KT 340V110 9999 FEW020 20/16 Q1018",
      "taf": "TAF LEXJ 010800Z 0109/0209 VRB03KT 9999 SCT015 TX21/0113Z TN15/0206Z"
    },
    {
      "icao": "LEZG",
      "alert": "OK",
      "vis_m": 9999,
      "fzfg": false,
      "metar_trigger": false,
      "taf_trigger": false,
      "metar": "METAR LEZG 011200Z 12008KT 070V150 9999 FEW030 22/13 Q1020 NOSIG",
      "taf": "TAF LEZG 011100Z 0112/0212 12010KT 9999 FEW030 SCT060 TX23/0114Z TN14/0206Z"
    },
    {
      "icao": "LEZL",
      "alert": "OK",
      "vis_m": 9999,
      "fzfg": false,
      "metar_trigger": false,
      "taf_trigger": false,
      "metar": "METAR LEZL 011200Z 22004KT 170V330 CAVOK 24/12 Q1019 NOSIG",
      "taf": "TAF LEZL 010800Z 0109/0209 VRB03KT CAVOK TX28/0115Z TN13/0206Z"
    },
    {
      "icao": "LFBD",
      "alert": "OK",
      "vis_m": 9999,
      "fzfg": false,
      "metar_trigger": false,
      "taf_trigger": false,
      "metar": "METAR LFBD 011200Z AUTO 14010KT 090V170 9999 BKN035 23/14 Q1020 NOSIG",
      "taf": "TAF LFBD 011100Z 0112/0218 11010KT 9999 SCT035 TX24/0114Z TN14/0205Z"
    },
    {
      "icao": "LFLL",
      "alert": "OK",
      "vis_m": 9999,
      "fzfg": false,
      "metar_trigger": false,
      "taf_trigger": false,
      "metar": "METAR LFLL 011200Z 21004KT 160V270 9999 FEW050 SCT260 23/11 Q1023 NOSIG",
      "taf": "TAF LFLL 011100Z 0112/0218 19010KT CAVOK"
    },
    {
      "icao": "LFLS",
      "alert": "OK",
      "vis_m": 9999,
      "fzfg": false,
      "metar_trigger": false,
      "taf_trigger": false,
      "metar": "METAR LFLS 011200Z AUTO 28007KT 270V340 CAVOK 22/10 Q1023 TEMPO FEW055TCU",
      "taf": "TAF LFLS 010800Z 0109/0209 VRB03KT CAVOK"
    },
    {
      "icao": "LFMN",
      "alert": "OK",
      "vis_m": 9999,
      "fzfg": false,
      "metar_trigger": false,
      "taf_trigger": false,
      "metar": "METAR LFMN 011200Z 10010KT CAVOK 19/08 Q1025 NOSIG",
      "taf": "TAF LFMN 010800Z 0109/0215 10012KT 9999 FEW040"
    },
    {
      "icao": "LFOB",
      "alert": "OK",
      "vis_m": 9999,
      "fzfg": false,
      "metar_trigger": false,
      "taf_trigger": false,
      "metar": "METAR LFOB 011200Z AUTO 18003KT 120V240 CAVOK 23/11 Q1021 NOSIG",
      "taf": "TAF LFOB 011100Z 0112/0212 VRB04KT CAVOK"
    },
    {
      "icao": "LFPO",
      "alert": "OK",
      "vis_m": 9999,
      "fzfg": false,
      "metar_trigger": false,
      "taf_trigger": false,
      "metar": "METAR LFPO 011200Z COR VRB03KT CAVOK 24/13 Q1021 NOSIG",
      "taf": "TAF LFPO 011100Z 0112/0218 21004KT CAVOK"
    },
    {
      "icao": "LFSB",
      "alert": "OK",
      "vis_m": 9999,
      "fzfg": false,
      "metar_trigger": false,
      "taf_trigger": false,
      "metar": "METAR LFSB 011200Z AUTO 08003KT 010V180 CAVOK 21/04 Q1024 NOSIG",
      "taf": "TAF LFSB 011100Z 0112/0212 07005KT CAVOK"
    },
    {
      "icao": "LGAV",
      "alert": "OK",
      "vis_m": 9999,
      "fzfg": false,
      "metar_trigger": false,
      "taf_trigger": false,
      "metar": "METAR LGAV 011150Z 02019KT 9999 FEW018 SCT020 BKN060 13/07 Q1019 NOSIG",
      "taf": "TAF LGAV 011100Z 0112/0212 02017KT 9999 SCT020 BKN060"
    },
    {
      "icao": "LGTS",
      "alert": "OK",
      "vis_m": 9999,
      "fzfg": false,
      "metar_trigger": false,
      "taf_trigger": false,
      "metar": "METAR LGTS 011150Z 23005KT 9999 FEW020TCU BKN040 14/05 Q1022 NOSIG",
      "taf": "TAF LGTS 011100Z 0112/0212 VRB03KT 9999 BKN035"
    },
    {
      "icao": "LHBP",
      "alert": "OK",
      "vis_m": 9999,
      "fzfg": false,
      "metar_trigger": false,
      "taf_trigger": false,
      "metar": "METAR LHBP 011200Z 32004KT 270V060 CAVOK 16/M03 Q1026 NOSIG",
      "taf": "TAF LHBP 011115Z 0112/0212 02007KT CAVOK"
    },
    {
      "icao": "LHDC",
      "alert": "OK",
      "vis_m": 9999,
      "fzfg": false,
      "metar_trigger": false,
      "taf_trigger": false,
      "metar": "METAR LHDC 011145Z AUTO VRB06KT CAVOK 17/M04 Q1025 NOSIG",
      "taf": "TAF LHDC 011115Z 0112/0121 36009KT CAVOK"
    },
    {
      "icao": "LIBD",
      "alert": "OK",
      "vis_m": 9999,
      "fzfg": false,
      "metar_trigger": false,
      "taf_trigger": false,
      "metar": "METAR LIBD 011150Z 35011KT 320V040 CAVOK 16/01 Q1021",
      "taf": "TAF LIBD 011100Z 0112/0212 36016KT 9999 SCT030"
    },
    {
      "icao": "LIBG",
      "alert": "OK",
      "vis_m": 9999,
      "fzfg": false,
      "metar_trigger": false,
      "taf_trigger": false,
      "metar": "METAR LIBG 011150Z 03011KT CAVOK 18/03 Q1020",
      "taf": "TAF LIBG 011100Z 0112/0121 04015KT CAVOK"
    },
    {
      "icao": "LIBP",
      "alert": "OK",
      "vis_m": 9999,
      "fzfg": false,
      "metar_trigger": false,
      "taf_trigger": false,
      "metar": "METAR LIBP 011150Z AUTO 02011KT 350V050 9999 NCD 16/02 Q1026",
      "taf": "TAF LIBP 011100Z 0112/0212 36014KT 9999 FEW050"
    },
    {
      "icao": "LIBR",
      "alert": "OK",
      "vis_m": 9999,
      "fzfg": false,
      "metar_trigger": false,
      "taf_trigger": false,
      "metar": "METAR LIBR 011150Z 01015KT CAVOK 17/04 Q1020",
      "taf": "TAF LIBR 011100Z 0112/0212 02016G28KT CAVOK"
    },
    {
      "icao": "LICA",
      "alert": "OK",
      "vis_m": 9999,
      "fzfg": false,
      "metar_trigger": false,
      "taf_trigger": false,
      "metar": "METAR LICA 011150Z AUTO 26013KT 9999 NCD 21/03 Q1018",
      "taf": "TAF LICA 011100Z 0112/0212 28015KT CAVOK"
    },
    {
      "icao": "LICC",
      "alert": "OK",
      "vis_m": 9999,
      "fzfg": false,
      "metar_trigger": false,
      "taf_trigger": false,
      "metar": "METAR LICC 011150Z 09008KT 9999 FEW020 BKN030 17/12 Q1019",
      "taf": "TAF LICC 011100Z 0112/0212 10012KT 9999 BKN030"
    },
    {
      "icao": "LICJ",
      "alert": "OK",
      "vis_m": 9999,
      "fzfg": false,
      "metar_trigger": false,
      "taf_trigger": false,
      "metar": "METAR LICJ 011150Z 05018KT 9999 FEW020 20/11 Q1019",
      "taf": "TAF LICJ 011100Z 0112/0212 06016KT 9999 FEW020"
    },
    {
      "icao": "LIMC",
      "alert": "OK",
      "vis_m": 9999,
      "fzfg": false,
      "metar_trigger": false,
      "taf_trigger": false,
      "metar": "METAR LIMC 011150Z VRB03KT CAVOK 19/01 Q1027 NOSIG",
      "taf": "TAF LIMC 011100Z 0112/0218 VRB05KT 9999 SCT050"
    },
    {
      "icao": "LIME",
      "alert": "OK",
      "vis_m": 9999,
      "fzfg": false,
      "metar_trigger": false,
      "taf_trigger": false,
      "metar": "METAR LIME 011150Z VRB03KT CAVOK 18/M01 Q1027 NOSIG",
      "taf": "TAF LIME 011100Z 0112/0212 VRB05KT CAVOK"
    },
    {
      "icao": "LIMF",
      "alert": "OK",
      "vis_m": 9999,
      "fzfg": false,
      "metar_trigger": false,
      "taf_trigger": false,
      "metar": "METAR LIMF 011150Z VRB04KT CAVOK 17/03 Q1028",
      "taf": "TAF LIMF 011100Z 0112/0212 VRB05KT 9999 SCT040"
    },
    {
      "icao": "LIMJ",
      "alert": "OK",
      "vis_m": 9999,
      "fzfg": false,
      "metar_trigger": false,
      "taf_trigger": false,
      "metar": "METAR LIMJ 011150Z 05013KT 010V090 CAVOK 22/04 Q1025",
      "taf": "TAF LIMJ 011100Z 0112/0212 04012KT CAVOK"
    },
    {
      "icao": "LIPE",
      "alert": "OK",
      "vis_m": 9999,
      "fzfg": false,
      "metar_trigger": false,
      "taf_trigger": false,
      "metar": "METAR LIPE 011150Z VRB05KT CAVOK 19/00 Q1027",
      "taf": "TAF LIPE 011100Z 0112/0212 08010KT CAVOK"
    },
    {
      "icao": "LIPH",
      "alert": "OK",
      "vis_m": 9999,
      "fzfg": false,
      "metar_trigger": false,
      "taf_trigger": false,
      "metar": "METAR LIPH 011150Z 19006KT 120V250 CAVOK 19/M02 Q1027",
      "taf": "TAF LIPH 011100Z 0112/0212 VRB06KT CAVOK"
    },
    {
      "icao": "LIPQ",
      "alert": "OK",
      "vis_m": 9999,
      "fzfg": false,
      "metar_trigger": false,
      "taf_trigger": false,
      "metar": "METAR LIPQ 011150Z AUTO 27006KT 190V360 9999 NCD 20/M01 Q1026",
      "taf": "TAF LIPQ 011100Z 0112/0212 VRB05KT CAVOK"
    },
    {
      "icao": "LIPR",
      "alert": "OK",
      "vis_m": 9999,
      "fzfg": false,
      "metar_trigger": false,
      "taf_trigger": false,
      "metar": "METAR LIPR 011150Z 05008KT 360V100 CAVOK 16/02 Q1027",
      "taf": "TAF LIPR 011100Z 0112/0212 06012KT CAVOK"
    },
    {
      "icao": "LIPX",
      "alert": "OK",
      "vis_m": 9999,
      "fzfg": false,
      "metar_trigger": false,
      "taf_trigger": false,
      "metar": "METAR LIPX 011150Z 14005KT 080V250 CAVOK 19/M02 Q1027",
      "taf": "TAF LIPX 011100Z 0112/0212 10008KT CAVOK"
    },
    {
      "icao": "LIPY",
      "alert": "OK",
      "vis_m": 9999,
      "fzfg": false,
      "metar_trigger": false,
      "taf_trigger": false,
      "metar": "METAR LIPY 011150Z AUTO 03010KT 360V060 9999 NCD 16/04 Q1026",
      "taf": "TAF LIPY 011100Z 0112/0212 05011KT CAVOK"
    },
    {
      "icao": "LIPZ",
      "alert": "OK",
      "vis_m": 9999,
      "fzfg": false,
      "metar_trigger": false,
      "taf_trigger": false,
      "metar": "METAR LIPZ 011150Z 16006KT 130V190 CAVOK 17/M00 Q1027 NOSIG",
      "taf": "TAF LIPZ 011100Z 0112/0218 15010KT CAVOK"
    },
    {
      "icao": "LIRF",
      "alert": "OK",
      "vis_m": 9999,
      "fzfg": false,
      "metar_trigger": false,
      "taf_trigger": false,
      "metar": "METAR LIRF 011150Z 02010KT 340V060 CAVOK 21/02 Q1021 WS R34R NOSIG",
      "taf": "TAF LIRF 011100Z 0112/0218 02010KT CAVOK"
    },
    {
      "icao": "LIRN",
      "alert": "OK",
      "vis_m": 9999,
      "fzfg": false,
      "metar_trigger": false,
      "taf_trigger": false,
      "metar": "METAR LIRN 011150Z 06015KT 020V100 CAVOK 19/M02 Q1021 NOSIG",
      "taf": "TAF LIRN 011100Z 0112/0212 03020G32KT CAVOK"
    },
    {
      "icao": "LIRP",
      "alert": "OK",
      "vis_m": 9999,
      "fzfg": false,
      "metar_trigger": false,
      "taf_trigger": false,
      "metar": "METAR LIRP 011145Z 10009KT CAVOK 22/02 Q1024 NOSIG",
      "taf": "TAF LIRP 011100Z 0112/0212 09012KT CAVOK"
    },
    {
      "icao": "LIRZ",
      "alert": "OK",
      "vis_m": 9999,
      "fzfg": false,
      "metar_trigger": false,
      "taf_trigger": false,
      "metar": "METAR LIRZ 011150Z AUTO 02015KT 350V050 9999 NCD 18/02 Q1024",
      "taf": "TAF LIRZ 011100Z 0112/0212 04017KT 9999 FEW060"
    },
    {
      "icao": "LJLJ",
      "alert": "OK",
      "vis_m": 9999,
      "fzfg": false,
      "metar_trigger": false,
      "taf_trigger": false,
      "metar": "METAR LJLJ 011200Z VRB02KT 9999 FEW060 18/05 Q1026 NOSIG",
      "taf": "TAF LJLJ 011100Z 0112/0212 12005KT 9999 FEW060"
    },
    {
      "icao": "LKMT",
      "alert": "OK",
      "vis_m": 9999,
      "fzfg": false,
      "metar_trigger": false,
      "taf_trigger": false,
      "metar": "METAR LKMT 011200Z 35006KT 310V090 CAVOK 18/04 Q1026 NOSIG",
      "taf": "TAF LKMT 011100Z 0112/0212 01006KT CAVOK"
    },
    {
      "icao": "LKPR",
      "alert": "OK",
      "vis_m": 9999,
      "fzfg": false,
      "metar_trigger": false,
      "taf_trigger": false,
      "metar": "METAR LKPR 011200Z 34004KT 280V080 CAVOK 18/01 Q1028 NOSIG",
      "taf": "TAF LKPR 011100Z 0112/0218 VRB02KT CAVOK"
    },
    {
      "icao": "LLBG",
      "alert": "OK",
      "vis_m": 9999,
      "fzfg": false,
      "metar_trigger": false,
      "taf_trigger": false,
      "metar": "METAR LLBG 011150Z 32009KT CAVOK 23/12 Q1012 NOSIG",
      "taf": "TAF LLBG 011104Z 0112/0212 30012KT CAVOK TX23/0112Z TN12/0203Z"
    },
    {
      "icao": "LMML",
      "alert": "OK",
      "vis_m": 9999,
      "fzfg": false,
      "metar_trigger": false,
      "taf_trigger": false,
      "metar": "METAR LMML 011145Z 07016KT 030V090 9999 FEW023 20/13 Q1018 NOSIG",
      "taf": ""
    },
    {
      "icao": "LOWW",
      "alert": "OK",
      "vis_m": 9999,
      "fzfg": false,
      "metar_trigger": false,
      "taf_trigger": false,
      "metar": "METAR LOWW 011150Z 36007KT 280V040 CAVOK 18/04 Q1027 NOSIG",
      "taf": "TAF LOWW 011115Z 0112/0218 35010KT CAVOK TX24/0214Z TN07/0204Z"
    },
    {
      "icao": "LPFR",
      "alert": "OK",
      "vis_m": 9999,
      "fzfg": false,
      "metar_trigger": false,
      "taf_trigger": false,
      "metar": "METAR LPFR 011200Z 24009KT CAVOK 19/12 Q1019",
      "taf": "TAF LPFR 011100Z 0112/0212 23010KT CAVOK"
    },
    {
      "icao": "LPMA",
      "alert": "OK",
      "vis_m": 9999,
      "fzfg": false,
      "metar_trigger": false,
      "taf_trigger": false,
      "metar": "METAR LPMA 011200Z 16006KT 110V220 9999 FEW013 20/14 Q1019",
      "taf": "TAF LPMA 011100Z 0112/0212 12005KT 9999 SCT015"
    },
    {
      "icao": "LPPR",
      "alert": "OK",
      "vis_m": 9999,
      "fzfg": false,
      "metar_trigger": false,
      "taf_trigger": false,
      "metar": "METAR LPPR 011200Z 24006KT 210V300 9999 FEW027 19/11 Q1019",
      "taf": "TAF LPPR 011100Z 0112/0212 26007KT 9999 FEW020 SCT035"
    },
    {
      "icao": "LPPS",
      "alert": "OK",
      "vis_m": 9999,
      "fzfg": false,
      "metar_trigger": false,
      "taf_trigger": false,
      "metar": "METAR LPPS 011200Z 29009KT 9999 FEW015 20/11 Q1019",
      "taf": "TAF LPPS 011100Z 0112/0218 28007KT 9999 SCT015"
    },
    {
      "icao": "LPPT",
      "alert": "OK",
      "vis_m": 9999,
      "fzfg": false,
      "metar_trigger": false,
      "taf_trigger": false,
      "metar": "METAR LPPT 011200Z 22007KT 170V270 9999 FEW042 20/09 Q1019",
      "taf": "TAF LPPT 011100Z 0112/0218 VRB02KT 9999 FEW035"
    },
    {
      "icao": "LQBK",
      "alert": "OK",
      "vis_m": 9999,
      "fzfg": false,
      "metar_trigger": false,
      "taf_trigger": false,
      "metar": "METAR LQBK 011200Z 36005KT 310V110 9999 FEW047 16/M01 Q1026 NOSIG",
      "taf": "TAF LQBK 011100Z 0112/0212 VRB03KT CAVOK TX17/0114Z TN02/0200Z"
    },
    {
      "icao": "LQSA",
      "alert": "OK",
      "vis_m": 9999,
      "fzfg": false,
      "metar_trigger": false,
      "taf_trigger": false,
      "metar": "METAR LQSA 011200Z 36010KT 330V030 CAVOK 14/M05 Q1024 NOSIG",
      "taf": "TAF LQSA 011100Z 0112/0212 31005KT CAVOK TX15/0114Z TN01/0204Z"
    },
    {
      "icao": "LQTZ",
      "alert": "OK",
      "vis_m": 9999,
      "fzfg": false,
      "metar_trigger": false,
      "taf_trigger": false,
      "metar": "METAR LQTZ 011200Z 06011KT CAVOK 14/M03 Q1025",
      "taf": "TAF LQTZ 011100Z 0112/0212 VRB02KT CAVOK TX16/0113Z TNM00/0202Z"
    },
    {
      "icao": "LRBC",
      "alert": "OK",
      "vis_m": 9999,
      "fzfg": false,
      "metar_trigger": false,
      "taf_trigger": false,
      "metar": "METAR LRBC 011200Z 36009KT 320V040 CAVOK 12/M04 Q1025",
      "taf": "TAF LRBC 011100Z 0112/0121 36010KT 9999 SCT065"
    },
    {
      "icao": "LRBS",
      "alert": "OK",
      "vis_m": 9999,
      "fzfg": false,
      "metar_trigger": false,
      "taf_trigger": false,
      "metar": "METAR LRBS 011200Z 03005KT 350V080 CAVOK 12/M03 Q1025 NOSIG",
      "taf": "TAF LRBS 011100Z 0112/0212 VRB04KT CAVOK"
    },
    {
      "icao": "LRBV",
      "alert": "OK",
      "vis_m": 9999,
      "fzfg": false,
      "metar_trigger": false,
      "taf_trigger": false,
      "metar": "METAR LRBV 011200Z 29006KT 250V330 9999 BKN066 10/M05 Q1023",
      "taf": "TAF LRBV 011100Z 0112/0121 VRB04KT 9999 SCT050"
    },
    {
      "icao": "LRCL",
      "alert": "OK",
      "vis_m": 9999,
      "fzfg": false,
      "metar_trigger": false,
      "taf_trigger": false,
      "metar": "METAR LRCL 011200Z VRB02KT 9999 FEW067 13/M03 Q1024",
      "taf": "TAF LRCL 011100Z 0112/0121 VRB04KT CAVOK"
    },
    {
      "icao": "LRCV",
      "alert": "OK",
      "vis_m": 9999,
      "fzfg": false,
      "metar_trigger": false,
      "taf_trigger": false,
      "metar": "METAR LRCV 011200Z 25009KT 220V280 9999 BKN040 11/03 Q1025",
      "taf": "TAF LRCV 011100Z 0112/0121 VRB04KT 9999 SCT045"
    },
    {
      "icao": "LRIA",
      "alert": "OK",
      "vis_m": 9999,
      "fzfg": false,
      "metar_trigger": false,
      "taf_trigger": false,
      "metar": "METAR LRIA 011200Z 32005KT 280V040 CAVOK 12/M05 Q1024",
      "taf": "TAF LRIA 011100Z 0112/0121 34008KT CAVOK"
    },
    {
      "icao": "LROP",
      "alert": "OK",
      "vis_m": 9999,
      "fzfg": false,
      "metar_trigger": false,
      "taf_trigger": false,
      "metar": "METAR LROP 011200Z 05004KT 340V110 CAVOK 12/M01 Q1025 NOSIG",
      "taf": "TAF LROP 011100Z 0112/0212 VRB04KT CAVOK"
    },
    {
      "icao": "LRSB",
      "alert": "OK",
      "vis_m": 9999,
      "fzfg": false,
      "metar_trigger": false,
      "taf_trigger": false,
      "metar": "METAR LRSB 011200Z 31006KT 9999 SCT058 11/M04 Q1024 NOSIG",
      "taf": "TAF LRSB 011100Z 0112/0212 VRB04KT CAVOK"
    },
    {
      "icao": "LRSM",
      "alert": "OK",
      "vis_m": 9999,
      "fzfg": false,
      "metar_trigger": false,
      "taf_trigger": false,
      "metar": "METAR LRSM 011200Z 32008KT CAVOK 16/M04 Q1025",
      "taf": "TAF LRSM 011100Z 0112/0121 VRB04KT CAVOK"
    },
    {
      "icao": "LRSV",
      "alert": "OK",
      "vis_m": 9999,
      "fzfg": false,
      "metar_trigger": false,
      "taf_trigger": false,
      "metar": "METAR LRSV 011200Z 34009KT 300V020 CAVOK 10/M05 Q1024",
      "taf": "TAF LRSV 011100Z 0112/0121 34007KT 9999 SCT045"
    },
    {
      "icao": "LRTM",
      "alert": "OK",
      "vis_m": 9999,
      "fzfg": false,
      "metar_trigger": false,
      "taf_trigger": false,
      "metar": "METAR LRTM 011200Z 25006KT 140V310 CAVOK 13/M03 Q1024",
      "taf": "TAF LRTM 011100Z 0112/0121 VRB04KT CAVOK"
    },
    {
      "icao": "LRTR",
      "alert": "OK",
      "vis_m": 9999,
      "fzfg": false,
      "metar_trigger": false,
      "taf_trigger": false,
      "metar": "METAR LRTR 011200Z VRB04KT CAVOK 15/M03 Q1025 NOSIG",
      "taf": "TAF LRTR 011100Z 0112/0212 01008KT CAVOK"
    },
    {
      "icao": "LTAC",
      "alert": "OK",
      "vis_m": 9999,
      "fzfg": false,
      "metar_trigger": false,
      "taf_trigger": false,
      "metar": "METAR LTAC 011150Z 32015KT 9999 -SHRA BKN025 BKN080 10/06 Q1013 NOSIG RMK RWY21C 31014KT RWY03L 31012KT 270V330 RWY21R 30012KT RWY03R 30013KT RWY21L 31015KT",
      "taf": "TAF LTAC 011040Z 0112/0212 VRB02KT 9999 SCT035 BKN090"
    },
    {
      "icao": "LTFM",
      "alert": "OK",
      "vis_m": 9999,
      "fzfg": false,
      "metar_trigger": false,
      "taf_trigger": false,
      "metar": "METAR LTFM 011150Z 03020KT 9999 -SHRA SCT015 BKN025 10/06 Q1021 NOSIG RMK RWY17L 03020KT RWY34L 02020KT RWY16R 03018KT RWY36 03021KT RWY18 04018KT",
      "taf": "TAF LTFM 011040Z 0112/0218 03022G32KT 9999 -SHRA SCT014 BKN025"
    },
    {
      "icao": "LUKK",
      "alert": "OK",
      "vis_m": 9999,
      "fzfg": false,
      "metar_trigger": false,
      "taf_trigger": false,
      "metar": "METAR LUKK 011200Z 02008KT 310V080 CAVOK 12/M06 Q1024 NOSIG",
      "taf": "TAF LUKK 011101Z 0112/0212 01010KT 9999 SCT045"
    },
    {
      "icao": "LWOH",
      "alert": "OK",
      "vis_m": 9999,
      "fzfg": false,
      "metar_trigger": false,
      "taf_trigger": false,
      "metar": "METAR LWOH 011150Z 02011KT 340V060 9999 SCT045 11/M00 Q1020",
      "taf": "TAF LWOH 011125Z 0112/0212 02014KT 9999 SCT040 BKN090"
    },
    {
      "icao": "LWSK",
      "alert": "OK",
      "vis_m": 9999,
      "fzfg": false,
      "metar_trigger": false,
      "taf_trigger": false,
      "metar": "METAR LWSK 011150Z 35012KT 310V020 9999 SCT055 14/M00 Q1023 NOSIG",
      "taf": "TAF LWSK 011125Z 0112/0212 36014KT 9999 SCT050 BKN100"
    },
    {
      "icao": "LYBE",
      "alert": "OK",
      "vis_m": 9999,
      "fzfg": false,
      "metar_trigger": false,
      "taf_trigger": false,
      "metar": "METAR LYBE 011200Z VRB06KT CAVOK 15/M01 Q1025 NOSIG",
      "taf": "TAF LYBE 011100Z 0112/0212 01008KT 9999 SCT045 TX17/0113Z TN03/0204Z"
    },
    {
      "icao": "LYNI",
      "alert": "OK",
      "vis_m": 9999,
      "fzfg": false,
      "metar_trigger": false,
      "taf_trigger": false,
      "metar": "METAR LYNI 011200Z 34010KT 290V020 9999 SCT047 BKN083 14/00 Q1024 TEMPO 04013KT",
      "taf": "TAF LYNI 011100Z 0112/0212 34006KT 9999 SCT050 TX16/0212Z TN02/0204Z"
    },
    {
      "icao": "LYPG",
      "alert": "OK",
      "vis_m": 9999,
      "fzfg": false,
      "metar_trigger": false,
      "taf_trigger": false,
      "metar": "METAR LYPG 011200Z 15009KT 120V190 CAVOK 19/M01 Q1020 BECMG 36012KT",
      "taf": "TAF LYPG 011100Z 0112/0212 36012KT CAVOK TX20/0113Z TN11/0204Z"
    },
    {
      "icao": "LZIB",
      "alert": "OK",
      "vis_m": 9999,
      "fzfg": false,
      "metar_trigger": false,
      "taf_trigger": false,
      "metar": "METAR LZIB 011200Z 30010KT CAVOK 18/02 Q1027 NOSIG",
      "taf": "TAF LZIB 011115Z 0112/0212 36004KT CAVOK"
    },
    {
      "icao": "LZKZ",
      "alert": "OK",
      "vis_m": 9999,
      "fzfg": false,
      "metar_trigger": false,
      "taf_trigger": false,
      "metar": "METAR LZKZ 011200Z 02011KT 350V050 CAVOK 16/00 Q1025 NOSIG",
      "taf": "TAF LZKZ 011115Z 0112/0212 04007KT CAVOK"
    },
    {
      "icao": "LZTT",
      "alert": "OK",
      "vis_m": 9999,
      "fzfg": false,
      "metar_trigger": false,
      "taf_trigger": false,
      "metar": "METAR LZTT 011200Z 05008KT 020V090 9999 BKN056 14/M01 Q1025 NOSIG",
      "taf": "TAF LZTT 011115Z 0112/0212 VRB04KT 9999 FEW045 BKN063"
    },
    {
      "icao": "OEJN",
      "alert": "OK",
      "vis_m": 9999,
      "fzfg": false,
      "metar_trigger": false,
      "taf_trigger": false,
      "metar": "METAR OEJN 011200Z 34011KT CAVOK 36/01 Q1008 NOSIG",
      "taf": ""
    },
    {
      "icao": "OEMA",
      "alert": "OK",
      "vis_m": 9999,
      "fzfg": false,
      "metar_trigger": false,
      "taf_trigger": false,
      "metar": "METAR OEMA 011200Z 19010KT CAVOK 36/M04 Q1011 NOSIG",
      "taf": ""
    },
    {
      "icao": "OJAI",
      "alert": "OK",
      "vis_m": 5000,
      "fzfg": false,
      "metar_trigger": false,
      "taf_trigger": false,
      "metar": "METAR OJAI 011200Z 27013KT 5000 HZ NSC 24/03 Q1013 NOSIG",
      "taf": "TAF OJAI 011053Z 0112/0218 30012KT 5000 HZ NSC"
    },
    {
      "icao": "OMAA",
      "alert": "OK",
      "vis_m": 9999,
      "fzfg": false,
      "metar_trigger": false,
      "taf_trigger": false,
      "metar": "METAR OMAA 011200Z 33014KT 270V350 CAVOK 37/12 Q1006 NOSIG",
      "taf": "TAF OMAA 011100Z 0112/0218 34010KT CAVOK"
    },
    {
      "icao": "OMDB",
      "alert": "OK",
      "vis_m": 9999,
      "fzfg": false,
      "metar_trigger": false,
      "taf_trigger": false,
      "metar": "METAR OMDB 011200Z 31013KT CAVOK 38/07 Q1006 NOSIG",
      "taf": "TAF OMDB 011100Z 0112/0218 30010KT CAVOK"
    },
    {
      "icao": "UAAA",
      "alert": "OK",
      "vis_m": null,
      "fzfg": false,
      "metar_trigger": false,
      "taf_trigger": false,
      "metar": "",
      "taf": "TAF UAAA 010502Z 0106/0206 28003MPS 9999 SCT050CB BKN100 TX27/0109Z TN12/0201Z"
    },
    {
      "icao": "UBBB",
      "alert": "OK",
      "vis_m": 9999,
      "fzfg": false,
      "metar_trigger": false,
      "taf_trigger": false,
      "metar": "METAR UBBB 011200Z 16020KT 9999 BKN018 16/11 Q1015 NOSIG",
      "taf": "TAF UBBB 011052Z 0112/0212 16020KT 9999 SCT025 TX17/0112Z TN11/0201Z"
    },
    {
      "icao": "UDSG",
      "alert": "OK",
      "vis_m": null,
      "fzfg": false,
      "metar_trigger": false,
      "taf_trigger": false,
      "metar": "",
      "taf": "TAF UDSG 010500Z 0106/0206 22006KT 9999 SCT040"
    },
    {
      "icao": "UDYZ",
      "alert": "OK",
      "vis_m": 9999,
      "fzfg": false,
      "metar_trigger": false,
      "taf_trigger": false,
      "metar": "METAR UDYZ 011200Z COR VRB03KT 9999 FEW043CB 24/05 Q1012 NOSIG",
      "taf": ""
    },
    {
      "icao": "UGKO",
      "alert": "OK",
      "vis_m": 9999,
      "fzfg": false,
      "metar_trigger": false,
      "taf_trigger": false,
      "metar": "METAR UGKO 011200Z 26015KT CAVOK 20/11 Q1009 NOSIG",
      "taf": "TAF UGKO 011100Z 0112/0212 09012KT CAVOK TX25/0112Z TN10/0202Z"
    }
  ]
}