{
  "ts_utc": "2026-03-15T01:26:49Z",
  "threshold_m": 150,
  "source": "stations_override.txt (ICAO list) + aviationweather.gov (METAR/TAF raw)",
  "station_count": 159,
  "stations": [
    {
      "icao": "BIKF",
      "alert": "OK",
      "vis_m": 9999,
      "fzfg": false,
      "metar_trigger": false,
      "taf_trigger": false,
      "metar": "METAR BIKF 150100Z 07029KT 9999 -SN BKN014 OVC072 01/M01 Q0969",
      "taf": "TAF BIKF 150104Z 1503/1603 07027G37KT 9999 BKN030 TX03/1515Z TN01/1503Z"
    },
    {
      "icao": "BKPR",
      "alert": "OK",
      "vis_m": null,
      "fzfg": false,
      "metar_trigger": false,
      "taf_trigger": false,
      "metar": "",
      "taf": "TAF BKPR 142330Z 1500/1524 34005KT 9999 FEW080"
    },
    {
      "icao": "EBCI",
      "alert": "OK",
      "vis_m": 9999,
      "fzfg": false,
      "metar_trigger": false,
      "taf_trigger": false,
      "metar": "METAR EBCI 150120Z 26004KT CAVOK 01/M00 Q1012 NOSIG",
      "taf": "TAF EBCI 142300Z 1500/1606 27004KT 9999 FEW020"
    },
    {
      "icao": "EDDB",
      "alert": "OK",
      "vis_m": 9999,
      "fzfg": false,
      "metar_trigger": false,
      "taf_trigger": false,
      "metar": "METAR EDDB 150120Z AUTO 32006KT 290V350 9999 OVC011 06/03 Q1007 NOSIG",
      "taf": "TAF EDDB 142300Z 1500/1524 32007KT 9999 BKN015"
    },
    {
      "icao": "EDDH",
      "alert": "OK",
      "vis_m": 7000,
      "fzfg": false,
      "metar_trigger": false,
      "taf_trigger": false,
      "metar": "METAR EDDH 150120Z AUTO 22001KT 7000 BKN029 OVC037 04/03 Q1009 TEMPO 4000 BR",
      "taf": "TAF EDDH 142300Z 1500/1606 VRB02KT 9999 SCT015 BKN030"
    },
    {
      "icao": "EDDK",
      "alert": "OK",
      "vis_m": 8000,
      "fzfg": false,
      "metar_trigger": false,
      "taf_trigger": false,
      "metar": "METAR EDDK 150120Z AUTO 20001KT 8000 BKN014 BKN025 OVC042 03/02 Q1011 TEMPO BKN015",
      "taf": "TAF EDDK 142300Z 1500/1606 23004KT 9999 BKN025"
    },
    {
      "icao": "EDDN",
      "alert": "OK",
      "vis_m": 9999,
      "fzfg": false,
      "metar_trigger": false,
      "taf_trigger": false,
      "metar": "METAR EDDN 150120Z AUTO 29003KT 9999 FEW020 SCT036 04/01 Q1008 NOSIG",
      "taf": "TAF EDDN 142300Z 1500/1524 30005KT 9999 BKN012"
    },
    {
      "icao": "EDDS",
      "alert": "OK",
      "vis_m": 9999,
      "fzfg": false,
      "metar_trigger": false,
      "taf_trigger": false,
      "metar": "METAR EDDS 150120Z AUTO 24003KT 220V280 9999 BKN019 BKN023 OVC032 03/M00 Q1009",
      "taf": "TAF EDDS 142300Z 1500/1524 26005KT 9999 BKN030"
    },
    {
      "icao": "EDFH",
      "alert": "OK",
      "vis_m": 2500,
      "fzfg": false,
      "metar_trigger": false,
      "taf_trigger": false,
      "metar": "METAR EDFH 150120Z 27006KT 2500 R21/1300U BR OVC001 01/01 Q1009",
      "taf": "TAF EDFH 142300Z 1500/1524 31006KT 9999 SCT003 BKN015"
    },
    {
      "icao": "EDJA",
      "alert": "OK",
      "vis_m": 9999,
      "fzfg": false,
      "metar_trigger": false,
      "taf_trigger": false,
      "metar": "METAR EDJA 150120Z AUTO 23004KT 9999 // FEW030/// BKN059/// OVC079/// 01/00 Q1008",
      "taf": "TAF EDJA 141700Z 1418/1503 29005KT 9999 SCT004 OVC015"
    },
    {
      "icao": "EDLW",
      "alert": "OK",
      "vis_m": 5000,
      "fzfg": false,
      "metar_trigger": false,
      "taf_trigger": false,
      "metar": "METAR EDLW 150120Z AUTO 25007KT 5000 // FEW019/// BKN029/// OVC034/// 03/03 Q1010",
      "taf": "TAF EDLW 141700Z 1418/1518 28005KT 9999 BKN007"
    },
    {
      "icao": "EDNY",
      "alert": "OK",
      "vis_m": 9999,
      "fzfg": false,
      "metar_trigger": false,
      "taf_trigger": false,
      "metar": "METAR EDNY 150120Z AUTO 25003KT 9999 // FEW005/// BKN007/// OVC026/// 02/02 Q1009",
      "taf": "TAF EDNY 141700Z 1418/1503 25005KT 9999 SCT008 OVC025"
    },
    {
      "icao": "EDSB",
      "alert": "OK",
      "vis_m": 9999,
      "fzfg": false,
      "metar_trigger": false,
      "taf_trigger": false,
      "metar": "METAR EDSB 150120Z AUTO 22004KT 9999 // FEW043/// BKN100/// OVC120/// 03/02 Q1010",
      "taf": "TAF EDSB 142300Z 1500/1524 21003KT 9999 BKN030"
    },
    {
      "icao": "EETN",
      "alert": "OK",
      "vis_m": 9999,
      "fzfg": false,
      "metar_trigger": false,
      "taf_trigger": false,
      "metar": "METAR EETN 150120Z 17007KT CAVOK 07/M01 Q1010",
      "taf": "TAF EETN 142330Z 1500/1524 18012KT CAVOK"
    },
    {
      "icao": "EFTU",
      "alert": "OK",
      "vis_m": 9999,
      "fzfg": false,
      "metar_trigger": false,
      "taf_trigger": false,
      "metar": "METAR EFTU 150120Z AUTO 19006KT 9999 BKN006 BKN015 04/03 Q1006",
      "taf": "TAF EFTU 142329Z 1500/1524 19008KT 9999 BKN035 OVC047"
    },
    {
      "icao": "EGBB",
      "alert": "OK",
      "vis_m": 9999,
      "fzfg": false,
      "metar_trigger": false,
      "taf_trigger": false,
      "metar": "METAR EGBB 150120Z 22004KT CAVOK 02/00 Q1011",
      "taf": "TAF EGBB 142300Z 1500/1524 20002KT 9999 FEW045"
    },
    {
      "icao": "EGGP",
      "alert": "OK",
      "vis_m": 9999,
      "fzfg": false,
      "metar_trigger": false,
      "taf_trigger": false,
      "metar": "METAR EGGP 150120Z 17005KT CAVOK 04/01 Q1010",
      "taf": "TAF EGGP 142256Z 1500/1524 18005KT 9999 FEW045"
    },
    {
      "icao": "EGGW",
      "alert": "OK",
      "vis_m": 9999,
      "fzfg": false,
      "metar_trigger": false,
      "taf_trigger": false,
      "metar": "METAR EGGW 150120Z AUTO 23004KT 9999 NCD 03/M01 Q1012",
      "taf": "TAF EGGW 142302Z 1500/1524 26004KT CAVOK"
    },
    {
      "icao": "EGKK",
      "alert": "OK",
      "vis_m": 9999,
      "fzfg": false,
      "metar_trigger": false,
      "taf_trigger": false,
      "metar": "METAR EGKK 150120Z VRB01KT 9999 FEW045 00/M02 Q1013",
      "taf": ""
    },
    {
      "icao": "EGNM",
      "alert": "OK",
      "vis_m": null,
      "fzfg": false,
      "metar_trigger": false,
      "taf_trigger": false,
      "metar": "",
      "taf": "TAF EGNM 142255Z 1500/1524 21007KT 9999 FEW040"
    },
    {
      "icao": "EGPD",
      "alert": "OK",
      "vis_m": 9999,
      "fzfg": false,
      "metar_trigger": false,
      "taf_trigger": false,
      "metar": "METAR EGPD 150120Z COR AUTO 22010KT 9999 NCD 04/01 Q1002 NOSIG",
      "taf": "TAF EGPD 142301Z 1500/1524 22006KT 9999 FEW045"
    },
    {
      "icao": "EGPF",
      "alert": "OK",
      "vis_m": 9000,
      "fzfg": false,
      "metar_trigger": false,
      "taf_trigger": false,
      "metar": "METAR EGPF 150120Z AUTO 21014G25KT 9000 -RA SCT024/// BKN030/// BKN037/// //////TCU 06/04 Q1004",
      "taf": ""
    },
    {
      "icao": "EHBK",
      "alert": "OK",
      "vis_m": 9999,
      "fzfg": false,
      "metar_trigger": false,
      "taf_trigger": false,
      "metar": "METAR EHBK 150055Z AUTO 23005KT 9999 FEW025 BKN030 OVC035 03/02 Q1011",
      "taf": "TAF EHBK 142315Z 1500/1606 25004KT 9999 FEW025"
    },
    {
      "icao": "EHEH",
      "alert": "OK",
      "vis_m": 5000,
      "fzfg": false,
      "metar_trigger": false,
      "taf_trigger": false,
      "metar": "METAR EHEH 150055Z AUTO 26002KT 5000 BR NCD M00/M00 Q1011 WHT",
      "taf": "TAF EHEH 142321Z 1500/1606 24003KT 5000 SCT040"
    },
    {
      "icao": "EKBI",
      "alert": "OK",
      "vis_m": 9999,
      "fzfg": false,
      "metar_trigger": false,
      "taf_trigger": false,
      "metar": "METAR EKBI 150120Z AUTO 26006KT 9999 OVC007/// 04/03 Q1008",
      "taf": "TAF EKBI 142327Z 1500/1524 22006KT 9000 SCT015"
    },
    {
      "icao": "EKCH",
      "alert": "OK",
      "vis_m": 8000,
      "fzfg": false,
      "metar_trigger": false,
      "taf_trigger": false,
      "metar": "METAR EKCH 150120Z AUTO 23003KT 8000 FEW028/// OVC060/// 03/03 Q1008 NOSIG",
      "taf": "TAF EKCH 142327Z 1500/1524 30004KT 9999 SCT015"
    },
    {
      "icao": "ENAL",
      "alert": "OK",
      "vis_m": 9999,
      "fzfg": false,
      "metar_trigger": false,
      "taf_trigger": false,
      "metar": "METAR ENAL 150120Z AUTO 21011KT 9999 FEW039/// SCT049/// 05/01 Q0998",
      "taf": "TAF ENAL 142300Z 1500/1509 19012KT 9999 FEW030 BKN050"
    },
    {
      "icao": "ENBR",
      "alert": "OK",
      "vis_m": 9999,
      "fzfg": false,
      "metar_trigger": false,
      "taf_trigger": false,
      "metar": "METAR ENBR 150120Z AUTO 15012KT 9999 FEW021/// SCT026/// BKN032/// 03/02 Q1002 RMK WIND 1200FT 16013KT",
      "taf": "TAF ENBR 142300Z 1500/1524 16012KT 9999 FEW010 BKN020"
    },
    {
      "icao": "ENGM",
      "alert": "OK",
      "vis_m": 9999,
      "fzfg": false,
      "metar_trigger": false,
      "taf_trigger": false,
      "metar": "METAR ENGM 150120Z 19005KT 9999 OVC008 02/00 Q1003",
      "taf": "TAF ENGM 142300Z 1500/1524 18006KT 9999 BKN012"
    },
    {
      "icao": "ENHD",
      "alert": "OK",
      "vis_m": 9999,
      "fzfg": false,
      "metar_trigger": false,
      "taf_trigger": false,
      "metar": "METAR ENHD 150120Z AUTO 17009KT 9999 -DZRA FEW023/// 04/01 Q1004 RERA",
      "taf": "TAF ENHD 141400Z 1415/1423 20008KT 9999 FEW015 BKN030"
    },
    {
      "icao": "ENTC",
      "alert": "OK",
      "vis_m": 9999,
      "fzfg": false,
      "metar_trigger": false,
      "taf_trigger": false,
      "metar": "METAR ENTC 150120Z AUTO 18003KT 110V200 9999 NCD M00/M03 Q0994 RMK WIND 2600FT 18015KT",
      "taf": "TAF ENTC 142300Z 1500/1524 20009KT 9999 FEW040"
    },
    {
      "icao": "ENTO",
      "alert": "OK",
      "vis_m": 9999,
      "fzfg": false,
      "metar_trigger": false,
      "taf_trigger": false,
      "metar": "METAR ENTO 150120Z AUTO 21006KT 9999 OVC003/// 03/03 Q1004",
      "taf": "TAF ENTO 142300Z 1500/1524 20006KT 8000 BKN004"
    },
    {
      "icao": "ENVA",
      "alert": "OK",
      "vis_m": 9999,
      "fzfg": false,
      "metar_trigger": false,
      "taf_trigger": false,
      "metar": "METAR ENVA 150120Z AUTO 08007KT 9999 NCD M01/M03 Q0999 RMK WIND 670FT 15010KT",
      "taf": "TAF ENVA 142300Z 1500/1524 11008KT CAVOK"
    },
    {
      "icao": "ENZV",
      "alert": "OK",
      "vis_m": 9999,
      "fzfg": false,
      "metar_trigger": false,
      "taf_trigger": false,
      "metar": "METAR ENZV 150120Z AUTO 17007KT 9999 NCD 02/02 Q1005",
      "taf": "TAF ENZV 142300Z 1500/1524 17008KT 9999 SCT015 BKN030"
    },
    {
      "icao": "EPGD",
      "alert": "OK",
      "vis_m": 9999,
      "fzfg": false,
      "metar_trigger": false,
      "taf_trigger": false,
      "metar": "METAR EPGD 150100Z 14007KT CAVOK 07/01 Q1004",
      "taf": "TAF EPGD 142330Z 1500/1524 14010KT CAVOK"
    },
    {
      "icao": "EPKK",
      "alert": "OK",
      "vis_m": 9999,
      "fzfg": false,
      "metar_trigger": false,
      "taf_trigger": false,
      "metar": "METAR EPKK 150100Z VRB02KT CAVOK 03/M02 Q1007",
      "taf": "TAF EPKK 142330Z 1500/1524 05004KT CAVOK"
    },
    {
      "icao": "EPKT",
      "alert": "OK",
      "vis_m": 9999,
      "fzfg": false,
      "metar_trigger": false,
      "taf_trigger": false,
      "metar": "METAR EPKT 150100Z 13010KT CAVOK 09/M02 Q1006",
      "taf": "TAF EPKT 142330Z 1500/1524 15010KT CAVOK"
    },
    {
      "icao": "EPLB",
      "alert": "OK",
      "vis_m": 9999,
      "fzfg": false,
      "metar_trigger": false,
      "taf_trigger": false,
      "metar": "METAR EPLB 150100Z 11008KT CAVOK 04/M01 Q1011",
      "taf": "TAF EPLB 142330Z 1500/1524 13008KT CAVOK"
    },
    {
      "icao": "EPMO",
      "alert": "OK",
      "vis_m": 9999,
      "fzfg": false,
      "metar_trigger": false,
      "taf_trigger": false,
      "metar": "METAR EPMO 150100Z 12007KT CAVOK 08/M03 Q1008",
      "taf": "TAF EPMO 142330Z 1500/1524 15010KT CAVOK"
    },
    {
      "icao": "EPPO",
      "alert": "OK",
      "vis_m": 9999,
      "fzfg": false,
      "metar_trigger": false,
      "taf_trigger": false,
      "metar": "METAR EPPO 150100Z 30009KT CAVOK 07/05 Q1004",
      "taf": "TAF EPPO 142330Z 1500/1524 17010KT CAVOK"
    },
    {
      "icao": "EPRA",
      "alert": "OK",
      "vis_m": 9999,
      "fzfg": false,
      "metar_trigger": false,
      "taf_trigger": false,
      "metar": "METAR EPRA 150100Z 15008KT CAVOK 06/M01 Q1009",
      "taf": "TAF EPRA 142330Z 1500/1509 15008KT CAVOK"
    },
    {
      "icao": "EPRZ",
      "alert": "OK",
      "vis_m": 9999,
      "fzfg": false,
      "metar_trigger": false,
      "taf_trigger": false,
      "metar": "METAR EPRZ 150100Z 09008KT CAVOK 03/00 Q1010",
      "taf": "TAF EPRZ 142330Z 1500/1524 10008KT CAVOK"
    },
    {
      "icao": "EPSC",
      "alert": "OK",
      "vis_m": 7000,
      "fzfg": false,
      "metar_trigger": false,
      "taf_trigger": false,
      "metar": "METAR EPSC 150100Z 32008KT 7000 OVC002 04/04 Q1006",
      "taf": "TAF EPSC 142330Z 1500/1524 30007KT 9999 BKN007"
    },
    {
      "icao": "EPSY",
      "alert": "OK",
      "vis_m": 9999,
      "fzfg": false,
      "metar_trigger": false,
      "taf_trigger": false,
      "metar": "METAR EPSY 150100Z 15005KT 100V190 CAVOK 07/M02 Q1008",
      "taf": "TAF EPSY 142330Z 1500/1509 14008KT CAVOK"
    },
    {
      "icao": "EPWA",
      "alert": "OK",
      "vis_m": 9999,
      "fzfg": false,
      "metar_trigger": false,
      "taf_trigger": false,
      "metar": "METAR EPWA 150100Z 12008KT CAVOK 07/M02 Q1008 NOSIG",
      "taf": "TAF EPWA 142330Z 1500/1524 14010KT CAVOK"
    },
    {
      "icao": "EPWR",
      "alert": "OK",
      "vis_m": 9999,
      "fzfg": false,
      "metar_trigger": false,
      "taf_trigger": false,
      "metar": "METAR EPWR 150100Z 28009KT CAVOK 08/06 Q1005",
      "taf": "TAF EPWR 142330Z 1500/1524 15010KT CAVOK"
    },
    {
      "icao": "ESGG",
      "alert": "OK",
      "vis_m": 400,
      "fzfg": false,
      "metar_trigger": false,
      "taf_trigger": false,
      "metar": "METAR ESGG 150120Z 18003KT 0400 R03/1900D R21/1300D FG VV003 02/02 Q1005",
      "taf": "TAF ESGG 142330Z 1500/1524 17004KT 5000 OVC003"
    },
    {
      "icao": "ESKN",
      "alert": "OK",
      "vis_m": 8000,
      "fzfg": false,
      "metar_trigger": false,
      "taf_trigger": false,
      "metar": "METAR ESKN 150120Z 30004KT 8000 NSC 01/01 Q1006",
      "taf": ""
    },
    {
      "icao": "ESMS",
      "alert": "OK",
      "vis_m": 9999,
      "fzfg": false,
      "metar_trigger": false,
      "taf_trigger": false,
      "metar": "METAR ESMS 150120Z 29002KT 9999 OVC016 03/03 Q1007",
      "taf": "TAF ESMS 142327Z 1500/1524 30005KT 9999 SCT020"
    },
    {
      "icao": "ESSA",
      "alert": "OK",
      "vis_m": 9999,
      "fzfg": false,
      "metar_trigger": false,
      "taf_trigger": false,
      "metar": "METAR ESSA 150120Z 17003KT 9999 FEW003 01/01 Q1006 BECMG 2000 BR BKN003",
      "taf": ""
    },
    {
      "icao": "EYKA",
      "alert": "OK",
      "vis_m": 9999,
      "fzfg": false,
      "metar_trigger": false,
      "taf_trigger": false,
      "metar": "METAR EYKA 150120Z AUTO 14010KT 9999 NCD 06/M01 Q1013",
      "taf": "TAF EYKA 142305Z 1500/1524 14010KT 9000 NSC"
    },
    {
      "icao": "EYPA",
      "alert": "OK",
      "vis_m": 9999,
      "fzfg": false,
      "metar_trigger": false,
      "taf_trigger": false,
      "metar": "METAR EYPA 150120Z 15013KT CAVOK 08/M02 Q1007",
      "taf": "TAF EYPA 142305Z 1500/1524 15011KT 9000 NSC"
    },
    {
      "icao": "EYVI",
      "alert": "OK",
      "vis_m": 9999,
      "fzfg": false,
      "metar_trigger": false,
      "taf_trigger": false,
      "metar": "METAR EYVI 150120Z 14013KT CAVOK 04/M01 Q1014 NOSIG",
      "taf": "TAF EYVI 142306Z 1500/1524 15011KT 9000 NSC"
    },
    {
      "icao": "GCFV",
      "alert": "OK",
      "vis_m": 9999,
      "fzfg": false,
      "metar_trigger": false,
      "taf_trigger": false,
      "metar": "METAR GCFV 150100Z AUTO 01017KT 9999 BKN024 17/12 Q1019",
      "taf": "TAF GCFV 142000Z 1421/1521 03016KT 9999 FEW025 TX20/1514Z TN16/1506Z"
    },
    {
      "icao": "GCLP",
      "alert": "OK",
      "vis_m": 9999,
      "fzfg": false,
      "metar_trigger": false,
      "taf_trigger": false,
      "metar": "METAR GCLP 150100Z 01016KT 9999 FEW025 SCT030 17/10 Q1019 NOSIG",
      "taf": "TAF GCLP 142000Z 1421/1521 01020KT 9999 SCT025 TX20/1514Z TN16/1506Z"
    },
    {
      "icao": "GCTS",
      "alert": "OK",
      "vis_m": 9999,
      "fzfg": false,
      "metar_trigger": false,
      "taf_trigger": false,
      "metar": "METAR GCTS 150100Z 06016KT 9999 FEW030 16/09 Q1019 NOSIG",
      "taf": "TAF GCTS 142000Z 1421/1521 05018KT 9999 FEW030 TX23/1514Z TN16/1506Z"
    },
    {
      "icao": "GMAD",
      "alert": "OK",
      "vis_m": 6000,
      "fzfg": false,
      "metar_trigger": false,
      "taf_trigger": false,
      "metar": "METAR GMAD 150100Z 06003KT 6000 BKN010 14/11 Q1015 NOSIG",
      "taf": "TAF GMAD 142300Z 1500/1606 23003KT 8000 NSC"
    },
    {
      "icao": "GMMN",
      "alert": "OK",
      "vis_m": 9999,
      "fzfg": false,
      "metar_trigger": false,
      "taf_trigger": false,
      "metar": "METAR GMMN 150100Z 34003KT 9999 FEW010 BKN027 13/11 Q1020 NOSIG",
      "taf": "TAF GMMN 142300Z 1500/1606 VRB03KT 9999 SCT010 SCT027"
    },
    {
      "icao": "GMMX",
      "alert": "OK",
      "vis_m": 8000,
      "fzfg": false,
      "metar_trigger": false,
      "taf_trigger": false,
      "metar": "METAR GMMX 150100Z 09006KT 8000 NSC 11/08 Q1019 NOSIG",
      "taf": "TAF GMMX 142300Z 1500/1606 04006KT 8000 SCT026"
    },
    {
      "icao": "HEGN",
      "alert": "OK",
      "vis_m": 3000,
      "fzfg": false,
      "metar_trigger": false,
      "taf_trigger": false,
      "metar": "METAR HEGN 150100Z 33021KT 3000 SA BKN025 20/06 Q1005 NOSIG",
      "taf": "TAF HEGN 142300Z 1500/1606 34018G28KT 6000 SCT025"
    },
    {
      "icao": "HEMA",
      "alert": "OK",
      "vis_m": 9999,
      "fzfg": false,
      "metar_trigger": false,
      "taf_trigger": false,
      "metar": "METAR HEMA 150100Z 30010KT CAVOK 24/05 Q1004 NOSIG",
      "taf": "TAF HEMA 142300Z 1500/1606 32015G25KT 6000 SCT025"
    },
    {
      "icao": "HESH",
      "alert": "OK",
      "vis_m": 9999,
      "fzfg": false,
      "metar_trigger": false,
      "taf_trigger": false,
      "metar": "METAR HESH 150100Z 33008KT CAVOK 22/18 Q1003 NOSIG",
      "taf": "TAF HESH 142300Z 1500/1606 35012KT 6000 SCT025"
    },
    {
      "icao": "HESX",
      "alert": "OK",
      "vis_m": 9999,
      "fzfg": false,
      "metar_trigger": false,
      "taf_trigger": false,
      "metar": "METAR HESX 150100Z 26006KT CAVOK 11/09 Q1007 NOSIG",
      "taf": "TAF HESX 142300Z 1500/1606 25012KT CAVOK"
    },
    {
      "icao": "LATI",
      "alert": "OK",
      "vis_m": 9999,
      "fzfg": false,
      "metar_trigger": false,
      "taf_trigger": false,
      "metar": "METAR LATI 150120Z 15002KT CAVOK 06/03 Q1008 NOSIG",
      "taf": "TAF LATI 142300Z 1500/1524 VRB04KT CAVOK TX20/1512Z TN04/1504Z"
    },
    {
      "icao": "LBPD",
      "alert": "OK",
      "vis_m": 9999,
      "fzfg": false,
      "metar_trigger": false,
      "taf_trigger": false,
      "metar": "METAR LBPD 150100Z AUTO 28004KT 9999 NCD M00/M00 Q1012",
      "taf": "TAF LBPD 142300Z 1500/1524 VRB04KT CAVOK"
    },
    {
      "icao": "LBSF",
      "alert": "OK",
      "vis_m": 9999,
      "fzfg": false,
      "metar_trigger": false,
      "taf_trigger": false,
      "metar": "METAR LBSF 150100Z AUTO 09011KT 9999 NCD 03/00 Q1011 NOSIG",
      "taf": "TAF LBSF 142300Z 1500/1524 10010KT CAVOK"
    },
    {
      "icao": "LBWN",
      "alert": "OK",
      "vis_m": 9999,
      "fzfg": false,
      "metar_trigger": false,
      "taf_trigger": false,
      "metar": "METAR LBWN 150100Z AUTO 01005KT 340V040 9999 BKN022/// 06/04 Q1012 NOSIG",
      "taf": "TAF LBWN 142300Z 1500/1524 VRB04KT 8000 SCT015"
    },
    {
      "icao": "LCLK",
      "alert": "OK",
      "vis_m": 9999,
      "fzfg": false,
      "metar_trigger": false,
      "taf_trigger": false,
      "metar": "METAR LCLK 150100Z 18021KT 9999 FEW020 SCT035 BKN050 17/14 Q0998 NOSIG",
      "taf": "TAF LCLK 142330Z 1500/1600 18018KT 9999 FEW020 SCT040"
    },
    {
      "icao": "LCPH",
      "alert": "OK",
      "vis_m": 1900,
      "fzfg": false,
      "metar_trigger": false,
      "taf_trigger": false,
      "metar": "METAR LCPH 150100Z AUTO 15021KT 100V160 1900 SCT003 BKN008 16/15 Q0993 NOSIG",
      "taf": ""
    },
    {
      "icao": "LEAL",
      "alert": "OK",
      "vis_m": 9999,
      "fzfg": false,
      "metar_trigger": false,
      "taf_trigger": false,
      "metar": "METAR LEAL 150100Z 02006KT 350V060 9999 FEW020 BKN050 14/08 Q1009 NOSIG",
      "taf": "TAF LEAL 142300Z 1500/1524 31009KT 9999 FEW020 TX20/1512Z TN08/1506Z"
    },
    {
      "icao": "LEBB",
      "alert": "OK",
      "vis_m": 9999,
      "fzfg": false,
      "metar_trigger": false,
      "taf_trigger": false,
      "metar": "METAR LEBB 150100Z AUTO VRB02KT 9999 FEW045 BKN050 OVC065 09/07 Q1015",
      "taf": "TAF LEBB 142300Z 1500/1524 28009KT 9999 SCT015 BKN025 TX12/1512Z TN07/1506Z"
    },
    {
      "icao": "LEBL",
      "alert": "OK",
      "vis_m": 9999,
      "fzfg": false,
      "metar_trigger": false,
      "taf_trigger": false,
      "metar": "METAR LEBL 150100Z 34010KT 9999 FEW015 07/05 Q1006 NOSIG",
      "taf": ""
    },
    {
      "icao": "LECH",
      "alert": "OK",
      "vis_m": 8000,
      "fzfg": false,
      "metar_trigger": false,
      "taf_trigger": false,
      "metar": "METAR LECH 150100Z AUTO 30016G27KT 260V340 8000 NCD 08/M01 Q1008",
      "taf": ""
    },
    {
      "icao": "LEMD",
      "alert": "OK",
      "vis_m": 9999,
      "fzfg": false,
      "metar_trigger": false,
      "taf_trigger": false,
      "metar": "METAR LEMD 150100Z 02007KT 9999 FEW049 SCT060 08/00 Q1011 NOSIG",
      "taf": ""
    },
    {
      "icao": "LEMG",
      "alert": "OK",
      "vis_m": 9999,
      "fzfg": false,
      "metar_trigger": false,
      "taf_trigger": false,
      "metar": "METAR LEMG 150100Z 29005KT 260V320 9999 FEW016 BKN037 15/11 Q1012 NOSIG",
      "taf": "TAF LEMG 142300Z 1500/1524 29010KT 9999 FEW030 SCT040 TX18/1515Z TN11/1507Z"
    },
    {
      "icao": "LEVC",
      "alert": "OK",
      "vis_m": 9999,
      "fzfg": false,
      "metar_trigger": false,
      "taf_trigger": false,
      "metar": "METAR LEVC 150100Z 31011KT CAVOK 11/01 Q1009 NOSIG",
      "taf": "TAF LEVC 142300Z 1500/1524 33012KT 9999 FEW030 BKN060 TX18/1512Z TN08/1506Z"
    },
    {
      "icao": "LEXJ",
      "alert": "OK",
      "vis_m": 9999,
      "fzfg": false,
      "metar_trigger": false,
      "taf_trigger": false,
      "metar": "METAR LEXJ 150100Z AUTO 35007KT 300V030 9999 FEW023 BKN068 09/04 Q1017",
      "taf": "TAF LEXJ 142000Z 1421/1521 29009KT 9999 SCT015 BKN025 TX13/1513Z TN09/1505Z"
    },
    {
      "icao": "LEZG",
      "alert": "OK",
      "vis_m": 9999,
      "fzfg": false,
      "metar_trigger": false,
      "taf_trigger": false,
      "metar": "METAR LEZG 150100Z 29016KT 9999 FEW085 07/03 Q1012 NOSIG",
      "taf": "TAF LEZG 142300Z 1500/1524 30015KT 9999 FEW050 SCT070 TX13/1514Z TN06/1506Z"
    },
    {
      "icao": "LEZL",
      "alert": "OK",
      "vis_m": 9999,
      "fzfg": false,
      "metar_trigger": false,
      "taf_trigger": false,
      "metar": "METAR LEZL 150100Z 26008KT 230V290 9999 SCT034 15/13 Q1014 NOSIG",
      "taf": "TAF LEZL 142000Z 1421/1521 28010KT 9999 SCT035 TX21/1515Z TN10/1507Z"
    },
    {
      "icao": "LFBD",
      "alert": "OK",
      "vis_m": 9999,
      "fzfg": false,
      "metar_trigger": false,
      "taf_trigger": false,
      "metar": "METAR LFBD 150100Z AUTO 30005KT CAVOK 04/03 Q1014 TEMPO 1500 MIFG",
      "taf": "TAF LFBD 142300Z 1500/1606 32005KT CAVOK TX14/1514Z TN02/1506Z"
    },
    {
      "icao": "LFLL",
      "alert": "OK",
      "vis_m": 9999,
      "fzfg": false,
      "metar_trigger": false,
      "taf_trigger": false,
      "metar": "METAR LFLL 150100Z 35013KT CAVOK 03/02 Q1008 NOSIG",
      "taf": "TAF LFLL 142300Z 1500/1606 35015KT CAVOK"
    },
    {
      "icao": "LFLS",
      "alert": "OK",
      "vis_m": 9999,
      "fzfg": false,
      "metar_trigger": false,
      "taf_trigger": false,
      "metar": "METAR LFLS 150100Z AUTO 35013KT 9999 FEW013 SCT050 BKN090 03/01 Q1006",
      "taf": ""
    },
    {
      "icao": "LFMN",
      "alert": "OK",
      "vis_m": 9999,
      "fzfg": false,
      "metar_trigger": false,
      "taf_trigger": false,
      "metar": "METAR LFMN 150100Z 36008KT 9999 -RA FEW028 FEW040TCU BKN070 10/07 Q0995 NOSIG",
      "taf": "TAF LFMN 142000Z 1421/1603 34012KT 9999 SCT040 BKN100"
    },
    {
      "icao": "LFOB",
      "alert": "OK",
      "vis_m": 9999,
      "fzfg": false,
      "metar_trigger": false,
      "taf_trigger": false,
      "metar": "METAR LFOB 150100Z AUTO 31009KT CAVOK 00/M01 Q1013 TEMPO 4000 BR",
      "taf": "TAF LFOB 142300Z 1500/1524 33010KT CAVOK"
    },
    {
      "icao": "LFPO",
      "alert": "OK",
      "vis_m": 9999,
      "fzfg": false,
      "metar_trigger": false,
      "taf_trigger": false,
      "metar": "METAR LFPO 150100Z VRB01KT CAVOK 02/M00 Q1013 NOSIG",
      "taf": "TAF LFPO 142300Z 1500/1606 33003KT CAVOK"
    },
    {
      "icao": "LFSB",
      "alert": "OK",
      "vis_m": 9999,
      "fzfg": false,
      "metar_trigger": false,
      "taf_trigger": false,
      "metar": "METAR LFSB 150100Z AUTO 11002KT 9999 FEW037 OVC100 03/02 Q1010 NOSIG",
      "taf": "TAF LFSB 142300Z 1500/1524 VRB03KT 9999 FEW045 BKN070"
    },
    {
      "icao": "LGAV",
      "alert": "OK",
      "vis_m": 9999,
      "fzfg": false,
      "metar_trigger": false,
      "taf_trigger": false,
      "metar": "METAR LGAV 150050Z 35006KT 290V010 9999 FEW030 07/03 Q1009 NOSIG",
      "taf": "TAF LGAV 142300Z 1500/1524 VRB05KT 9999 FEW030"
    },
    {
      "icao": "LGTS",
      "alert": "OK",
      "vis_m": 9999,
      "fzfg": false,
      "metar_trigger": false,
      "taf_trigger": false,
      "metar": "METAR LGTS 150120Z 10008KT 9999 FEW020 04/02 Q1010 NOSIG",
      "taf": "TAF LGTS 142300Z 1500/1524 VRB03KT 9999 FEW030"
    },
    {
      "icao": "LHBP",
      "alert": "OK",
      "vis_m": 9999,
      "fzfg": false,
      "metar_trigger": false,
      "taf_trigger": false,
      "metar": "METAR LHBP 150100Z 09006KT CAVOK 07/M02 Q1008 NOSIG",
      "taf": "TAF LHBP 142315Z 1500/1524 08006KT CAVOK"
    },
    {
      "icao": "LHDC",
      "alert": "OK",
      "vis_m": 9999,
      "fzfg": false,
      "metar_trigger": false,
      "taf_trigger": false,
      "metar": "METAR LHDC 150045Z AUTO 06003KT CAVOK 01/M04 Q1010",
      "taf": "TAF LHDC 141415Z 1415/1424 13006KT CAVOK"
    },
    {
      "icao": "LIBD",
      "alert": "OK",
      "vis_m": 9999,
      "fzfg": false,
      "metar_trigger": false,
      "taf_trigger": false,
      "metar": "METAR LIBD 150120Z 12006KT CAVOK 11/10 Q1004",
      "taf": "TAF LIBD 142300Z 1500/1524 13006KT 9999 SCT020"
    },
    {
      "icao": "LIBG",
      "alert": "OK",
      "vis_m": null,
      "fzfg": false,
      "metar_trigger": false,
      "taf_trigger": false,
      "metar": "",
      "taf": "TAF LIBG 141700Z 1418/1503 VRB05KT 9999 SCT020"
    },
    {
      "icao": "LIBP",
      "alert": "OK",
      "vis_m": 9999,
      "fzfg": false,
      "metar_trigger": false,
      "taf_trigger": false,
      "metar": "METAR LIBP 150120Z AUTO 22003KT 190V270 9999 NCD 06/04 Q1001",
      "taf": "TAF LIBP 142300Z 1500/1524 VRB05KT 9999 FEW040"
    },
    {
      "icao": "LIBR",
      "alert": "OK",
      "vis_m": 9999,
      "fzfg": false,
      "metar_trigger": false,
      "taf_trigger": false,
      "metar": "METAR LIBR 150120Z 16005KT 9999 SCT025 11/09 Q1006",
      "taf": "TAF LIBR 142300Z 1500/1524 14010KT 9999 SCT015"
    },
    {
      "icao": "LICA",
      "alert": "OK",
      "vis_m": 9999,
      "fzfg": false,
      "metar_trigger": false,
      "taf_trigger": false,
      "metar": "METAR LICA 150120Z AUTO 07009KT 9999 NCD 10/08 Q1004",
      "taf": "TAF LICA 142300Z 1500/1524 08014KT 9999 BKN040"
    },
    {
      "icao": "LICC",
      "alert": "OK",
      "vis_m": 9999,
      "fzfg": false,
      "metar_trigger": false,
      "taf_trigger": false,
      "metar": "METAR LICC 150120Z 23006KT 9999 FEW040 08/05 Q1005",
      "taf": "TAF LICC 142300Z 1500/1524 27007KT 9999 SCT030"
    },
    {
      "icao": "LICJ",
      "alert": "OK",
      "vis_m": 9999,
      "fzfg": false,
      "metar_trigger": false,
      "taf_trigger": false,
      "metar": "METAR LICJ 150120Z 16005KT 120V190 CAVOK 15/03 Q1001",
      "taf": "TAF LICJ 142300Z 1500/1524 18012KT 9999 FEW040"
    },
    {
      "icao": "LIMC",
      "alert": "OK",
      "vis_m": 7000,
      "fzfg": false,
      "metar_trigger": false,
      "taf_trigger": false,
      "metar": "METAR LIMC 150120Z 01019KT 7000 RA BKN020 04/03 Q0999 NOSIG",
      "taf": "TAF LIMC 142300Z 1500/1606 01012KT 4000 BR SCT010"
    },
    {
      "icao": "LIME",
      "alert": "OK",
      "vis_m": 9000,
      "fzfg": false,
      "metar_trigger": false,
      "taf_trigger": false,
      "metar": "METAR LIME 150120Z 06009KT 9000 -RA FEW025 BKN045 09/07 Q1000 NOSIG",
      "taf": "TAF LIME 142300Z 1500/1524 08012KT 9999 SCT030 BKN040"
    },
    {
      "icao": "LIMF",
      "alert": "OK",
      "vis_m": 8000,
      "fzfg": false,
      "metar_trigger": false,
      "taf_trigger": false,
      "metar": "METAR LIMF 150120Z 36011KT 8000 RA FEW010 OVC030 06/04 Q0999",
      "taf": "TAF LIMF 142300Z 1500/1524 34010KT 9000 RA FEW010 OVC030"
    },
    {
      "icao": "LIMJ",
      "alert": "OK",
      "vis_m": 7000,
      "fzfg": false,
      "metar_trigger": false,
      "taf_trigger": false,
      "metar": "METAR LIMJ 150120Z 04011KT 7000 -RA BKN016 09/09 Q0996 RERA",
      "taf": "TAF LIMJ 142300Z 1500/1524 10012KT 7000 RA BKN020 BKN040"
    },
    {
      "icao": "LIPE",
      "alert": "OK",
      "vis_m": 9999,
      "fzfg": false,
      "metar_trigger": false,
      "taf_trigger": false,
      "metar": "METAR LIPE 150120Z 11008KT CAVOK 10/07 Q1000",
      "taf": "TAF LIPE 142300Z 1500/1524 13007KT 9999 SCT030"
    },
    {
      "icao": "LIPH",
      "alert": "OK",
      "vis_m": 9999,
      "fzfg": false,
      "metar_trigger": false,
      "taf_trigger": false,
      "metar": "METAR LIPH 150120Z AUTO 08008KT 9999 OVC009/// 13/12 Q1002",
      "taf": "TAF LIPH 142300Z 1500/1524 06012KT 9999 BKN020"
    },
    {
      "icao": "LIPQ",
      "alert": "OK",
      "vis_m": 9999,
      "fzfg": false,
      "metar_trigger": false,
      "taf_trigger": false,
      "metar": "METAR LIPQ 150120Z AUTO 09005KT 9999 FEW035/// BKN100/// 12/08 Q1004",
      "taf": "TAF LIPQ 142300Z 1500/1524 VRB05KT 9999 BKN040"
    },
    {
      "icao": "LIPR",
      "alert": "OK",
      "vis_m": 9999,
      "fzfg": false,
      "metar_trigger": false,
      "taf_trigger": false,
      "metar": "METAR LIPR 150120Z AUTO 08005KT 9999 BKN180/// 11/09 Q1001",
      "taf": "TAF LIPR 142300Z 1500/1524 VRB05KT 9999 SCT060"
    },
    {
      "icao": "LIPX",
      "alert": "OK",
      "vis_m": 9999,
      "fzfg": false,
      "metar_trigger": false,
      "taf_trigger": false,
      "metar": "METAR LIPX 150120Z 07010KT CAVOK 12/09 Q1000",
      "taf": "TAF LIPX 142300Z 1500/1524 09012KT 9999 FEW020 BKN060"
    },
    {
      "icao": "LIPY",
      "alert": "OK",
      "vis_m": 9999,
      "fzfg": false,
      "metar_trigger": false,
      "taf_trigger": false,
      "metar": "METAR LIPY 150120Z AUTO VRB02KT 9999 BKN210/// 08/07 Q1001",
      "taf": "TAF LIPY 142300Z 1500/1524 VRB05KT 9999 SCT020"
    },
    {
      "icao": "LIPZ",
      "alert": "OK",
      "vis_m": 9999,
      "fzfg": false,
      "metar_trigger": false,
      "taf_trigger": false,
      "metar": "METAR LIPZ 150120Z 12011KT 9999 BKN015 13/12 Q1002 NOSIG",
      "taf": "TAF LIPZ 142300Z 1500/1606 13015G25KT 9999 BKN040"
    },
    {
      "icao": "LIRF",
      "alert": "OK",
      "vis_m": 9999,
      "fzfg": false,
      "metar_trigger": false,
      "taf_trigger": false,
      "metar": "METAR LIRF 150120Z 12012KT 9999 SCT025 12/09 Q1001 NOSIG",
      "taf": "TAF LIRF 142300Z 1500/1606 13011KT 9999 SCT025"
    },
    {
      "icao": "LIRN",
      "alert": "OK",
      "vis_m": 9999,
      "fzfg": false,
      "metar_trigger": false,
      "taf_trigger": false,
      "metar": "METAR LIRN 150120Z VRB02KT 9999 SCT030 11/07 Q1003 NOSIG",
      "taf": "TAF LIRN 142300Z 1500/1524 VRB05KT 9999 BKN030"
    },
    {
      "icao": "LIRP",
      "alert": "OK",
      "vis_m": 9999,
      "fzfg": false,
      "metar_trigger": false,
      "taf_trigger": false,
      "metar": "METAR LIRP 150115Z 10013KT 9999 FEW040 13/09 Q0998 NOSIG",
      "taf": "TAF LIRP 142300Z 1500/1524 10012KT 9999 SCT020 SCT050"
    },
    {
      "icao": "LIRZ",
      "alert": "OK",
      "vis_m": 9999,
      "fzfg": false,
      "metar_trigger": false,
      "taf_trigger": false,
      "metar": "METAR LIRZ 150120Z AUTO VRB01KT 9999 FEW160/// 07/06 Q1001",
      "taf": "TAF LIRZ 142300Z 1500/1524 VRB05KT 9999 BKN030"
    },
    {
      "icao": "LJLJ",
      "alert": "OK",
      "vis_m": 9999,
      "fzfg": false,
      "metar_trigger": false,
      "taf_trigger": false,
      "metar": "METAR LJLJ 150100Z VRB02KT 9999 0600SE PRFG FEW001 SCT085 04/04 Q1005 NOSIG",
      "taf": "TAF LJLJ 142300Z 1500/1600 28002KT 9999 FEW001 SCT075"
    },
    {
      "icao": "LKMT",
      "alert": "OK",
      "vis_m": 9999,
      "fzfg": false,
      "metar_trigger": false,
      "taf_trigger": false,
      "metar": "METAR LKMT 150100Z 17008KT CAVOK 12/01 Q1005 NOSIG",
      "taf": "TAF LKMT 142300Z 1500/1524 16010KT CAVOK"
    },
    {
      "icao": "LKPR",
      "alert": "OK",
      "vis_m": 9999,
      "fzfg": false,
      "metar_trigger": false,
      "taf_trigger": false,
      "metar": "METAR LKPR 150100Z 30006KT 9999 FEW015 OVC025 06/04 Q1005 NOSIG",
      "taf": "TAF LKPR 142300Z 1500/1606 32010KT CAVOK"
    },
    {
      "icao": "LLBG",
      "alert": "OK",
      "vis_m": 9999,
      "fzfg": false,
      "metar_trigger": false,
      "taf_trigger": false,
      "metar": "METAR LLBG 150120Z 20009KT 9999 BKN023 16/11 Q1005 NOSIG",
      "taf": "TAF LLBG 142304Z 1500/1524 19006KT 9999 SCT025 TX18/1511Z TN13/1504Z"
    },
    {
      "icao": "LMML",
      "alert": "OK",
      "vis_m": 9999,
      "fzfg": false,
      "metar_trigger": false,
      "taf_trigger": false,
      "metar": "METAR LMML 150115Z 16009KT 9999 FEW018 13/11 Q1005 NOSIG",
      "taf": ""
    },
    {
      "icao": "LOWW",
      "alert": "OK",
      "vis_m": 9999,
      "fzfg": false,
      "metar_trigger": false,
      "taf_trigger": false,
      "metar": "METAR LOWW 150120Z VRB03KT CAVOK 07/03 Q1006 BECMG 32010KT",
      "taf": "TAF LOWW 142315Z 1500/1606 15012KT CAVOK TX15/1514Z TN06/1505Z"
    },
    {
      "icao": "LPFR",
      "alert": "OK",
      "vis_m": 9999,
      "fzfg": false,
      "metar_trigger": false,
      "taf_trigger": false,
      "metar": "METAR LPFR 150100Z 27011KT 9999 FEW010 BKN030 15/13 Q1017",
      "taf": "TAF LPFR 142300Z 1500/1524 28012KT 9999 SCT006 SCT012"
    },
    {
      "icao": "LPMA",
      "alert": "OK",
      "vis_m": 9999,
      "fzfg": false,
      "metar_trigger": false,
      "taf_trigger": false,
      "metar": "METAR LPMA 150100Z 02013KT 340V050 9999 BKN015 16/11 Q1023",
      "taf": "TAF LPMA 142300Z 1500/1524 01012KT 9999 SCT015"
    },
    {
      "icao": "LPPR",
      "alert": "OK",
      "vis_m": 9999,
      "fzfg": false,
      "metar_trigger": false,
      "taf_trigger": false,
      "metar": "METAR LPPR 150100Z 34009KT CAVOK 11/08 Q1018",
      "taf": "TAF LPPR 142300Z 1500/1524 34008KT 9999 FEW012"
    },
    {
      "icao": "LPPS",
      "alert": "OK",
      "vis_m": 9999,
      "fzfg": false,
      "metar_trigger": false,
      "taf_trigger": false,
      "metar": "METAR LPPS 150100Z 03011KT 360V060 9999 FEW014 BKN030 16/11 Q1024",
      "taf": "TAF LPPS 142300Z 1500/1606 03012KT 9999 SCT015 BKN030"
    },
    {
      "icao": "LPPT",
      "alert": "OK",
      "vis_m": 9999,
      "fzfg": false,
      "metar_trigger": false,
      "taf_trigger": false,
      "metar": "METAR LPPT 150100Z 34009KT 9999 FEW006 BKN010 13/12 Q1018",
      "taf": "TAF LPPT 142300Z 1500/1606 33013KT 9999 FEW010 SCT015"
    },
    {
      "icao": "LQBK",
      "alert": "OK",
      "vis_m": 9999,
      "fzfg": false,
      "metar_trigger": false,
      "taf_trigger": false,
      "metar": "METAR LQBK 150100Z 14003KT CAVOK 04/00 Q1006 NOSIG",
      "taf": "TAF LQBK 142300Z 1500/1524 15006KT CAVOK TX19/1513Z TN05/1505Z"
    },
    {
      "icao": "LQSA",
      "alert": "OK",
      "vis_m": 9999,
      "fzfg": false,
      "metar_trigger": false,
      "taf_trigger": false,
      "metar": "METAR LQSA 150100Z VRB02KT CAVOK 01/M01 Q1007",
      "taf": "TAF LQSA 142300Z 1500/1524 VRB02KT CAVOK TX16/1514Z TN00/1505Z"
    },
    {
      "icao": "LQTZ",
      "alert": "OK",
      "vis_m": 9999,
      "fzfg": false,
      "metar_trigger": false,
      "taf_trigger": false,
      "metar": "METAR LQTZ 150100Z 00000KT CAVOK 03/01 Q1006",
      "taf": "TAF LQTZ 142300Z 1500/1524 VRB02KT CAVOK TX19/1513Z TN00/1505Z"
    },
    {
      "icao": "LRBC",
      "alert": "OK",
      "vis_m": 7000,
      "fzfg": false,
      "metar_trigger": false,
      "taf_trigger": false,
      "metar": "METAR LRBC 150100Z 35004KT 7000 BKN037 M01/M02 Q1015",
      "taf": "TAF LRBC 142300Z 1500/1509 VRB04KT 7000 NSC"
    },
    {
      "icao": "LRBS",
      "alert": "OK",
      "vis_m": 7000,
      "fzfg": false,
      "metar_trigger": false,
      "taf_trigger": false,
      "metar": "METAR LRBS 150100Z 05003KT 7000 SCT028 02/01 Q1013 NOSIG",
      "taf": "TAF LRBS 142300Z 1500/1524 05008KT 5000 BR SCT030"
    },
    {
      "icao": "LRBV",
      "alert": "OK",
      "vis_m": 9999,
      "fzfg": false,
      "metar_trigger": false,
      "taf_trigger": false,
      "metar": "METAR LRBV 150100Z AUTO 05004KT 030V090 9999 NCD M00/M03 Q1012",
      "taf": "TAF LRBV 142000Z 1421/1506 12007KT CAVOK"
    },
    {
      "icao": "LRCL",
      "alert": "OK",
      "vis_m": 9999,
      "fzfg": false,
      "metar_trigger": false,
      "taf_trigger": false,
      "metar": "METAR LRCL 150100Z 08004KT 050V110 CAVOK 04/M05 Q1012",
      "taf": "TAF LRCL 142300Z 1500/1509 11008KT CAVOK"
    },
    {
      "icao": "LRCV",
      "alert": "OK",
      "vis_m": 9999,
      "fzfg": false,
      "metar_trigger": false,
      "taf_trigger": false,
      "metar": "METAR LRCV 150100Z 05009KT CAVOK 03/02 Q1013",
      "taf": "TAF LRCV 142300Z 1500/1509 06011KT CAVOK"
    },
    {
      "icao": "LRIA",
      "alert": "OK",
      "vis_m": 9999,
      "fzfg": false,
      "metar_trigger": false,
      "taf_trigger": false,
      "metar": "METAR LRIA 150100Z 06007KT CAVOK 02/M01 Q1016",
      "taf": "TAF LRIA 142300Z 1500/1509 09006KT CAVOK"
    },
    {
      "icao": "LROP",
      "alert": "OK",
      "vis_m": 9999,
      "fzfg": false,
      "metar_trigger": false,
      "taf_trigger": false,
      "metar": "METAR LROP 150100Z 06006KT 9999 SCT031 03/01 Q1014 NOSIG",
      "taf": "TAF LROP 142300Z 1500/1524 05008KT 5000 BR SCT030"
    },
    {
      "icao": "LRSB",
      "alert": "OK",
      "vis_m": 9999,
      "fzfg": false,
      "metar_trigger": false,
      "taf_trigger": false,
      "metar": "METAR LRSB 150100Z 16009KT CAVOK 06/M05 Q1010",
      "taf": "TAF LRSB 142300Z 1500/1524 17008KT CAVOK"
    },
    {
      "icao": "LRSM",
      "alert": "OK",
      "vis_m": 9999,
      "fzfg": false,
      "metar_trigger": false,
      "taf_trigger": false,
      "metar": "METAR LRSM 150100Z AUTO 16007KT 9999 NCD 08/M05 Q1011",
      "taf": ""
    },
    {
      "icao": "LRSV",
      "alert": "OK",
      "vis_m": 9999,
      "fzfg": false,
      "metar_trigger": false,
      "taf_trigger": false,
      "metar": "METAR LRSV 150100Z 13007KT CAVOK 01/00 Q1014",
      "taf": "TAF LRSV 142300Z 1500/1509 16008KT CAVOK"
    },
    {
      "icao": "LRTM",
      "alert": "OK",
      "vis_m": 9999,
      "fzfg": false,
      "metar_trigger": false,
      "taf_trigger": false,
      "metar": "METAR LRTM 150100Z AUTO 09004KT 9999 NCD 01/M05 Q1012",
      "taf": "TAF LRTM 141400Z 1415/1424 12006KT CAVOK"
    },
    {
      "icao": "LRTR",
      "alert": "OK",
      "vis_m": 9999,
      "fzfg": false,
      "metar_trigger": false,
      "taf_trigger": false,
      "metar": "METAR LRTR 150100Z 09009KT CAVOK 03/M01 Q1009",
      "taf": "TAF LRTR 142300Z 1500/1524 10007KT CAVOK"
    },
    {
      "icao": "LTAC",
      "alert": "OK",
      "vis_m": 9999,
      "fzfg": false,
      "metar_trigger": false,
      "taf_trigger": false,
      "metar": "METAR LTAC 150120Z 06005KT CAVOK 01/M06 Q1005 NOSIG",
      "taf": "TAF LTAC 142240Z 1500/1524 VRB02KT CAVOK"
    },
    {
      "icao": "LTFM",
      "alert": "OK",
      "vis_m": 9999,
      "fzfg": false,
      "metar_trigger": false,
      "taf_trigger": false,
      "metar": "METAR LTFM 150120Z 03011KT 9999 SCT012 BKN022 08/04 Q1009 NOSIG",
      "taf": "TAF LTFM 142240Z 1500/1606 04012KT 9999 BKN012 BKN022"
    },
    {
      "icao": "LUKK",
      "alert": "OK",
      "vis_m": 9999,
      "fzfg": false,
      "metar_trigger": false,
      "taf_trigger": false,
      "metar": "METAR LUKK 150100Z 03004KT CAVOK 02/M02 Q1016 NOSIG",
      "taf": "TAF LUKK 142312Z 1500/1524 VRB06KT CAVOK"
    },
    {
      "icao": "LWOH",
      "alert": "OK",
      "vis_m": null,
      "fzfg": false,
      "metar_trigger": false,
      "taf_trigger": false,
      "metar": "",
      "taf": "TAF LWOH 142320Z 1500/1524 34005KT CAVOK"
    },
    {
      "icao": "LWSK",
      "alert": "OK",
      "vis_m": 9999,
      "fzfg": false,
      "metar_trigger": false,
      "taf_trigger": false,
      "metar": "METAR LWSK 150120Z VRB02KT 9999 SCT092 03/M00 Q1009 NOSIG",
      "taf": "TAF LWSK 142320Z 1500/1524 VRB02KT CAVOK"
    },
    {
      "icao": "LYBE",
      "alert": "OK",
      "vis_m": 9999,
      "fzfg": false,
      "metar_trigger": false,
      "taf_trigger": false,
      "metar": "METAR LYBE 150100Z 13017KT CAVOK 08/01 Q1008 NOSIG",
      "taf": "TAF LYBE 142300Z 1500/1524 12016KT CAVOK TX18/1513Z TN05/1524Z"
    },
    {
      "icao": "LYNI",
      "alert": "OK",
      "vis_m": 9999,
      "fzfg": false,
      "metar_trigger": false,
      "taf_trigger": false,
      "metar": "METAR LYNI 150100Z 08010KT CAVOK 09/M00 Q1009 NOSIG",
      "taf": "TAF LYNI 142300Z 1500/1524 02007KT CAVOK TX18/1513Z TN03/1524Z"
    },
    {
      "icao": "LYPG",
      "alert": "OK",
      "vis_m": 9999,
      "fzfg": false,
      "metar_trigger": false,
      "taf_trigger": false,
      "metar": "METAR LYPG 150100Z VRB02KT CAVOK 07/03 Q1008 NOSIG",
      "taf": "TAF LYPG 142300Z 1500/1524 02005KT CAVOK TX20/1513Z TN06/1505Z"
    },
    {
      "icao": "LZIB",
      "alert": "OK",
      "vis_m": 9999,
      "fzfg": false,
      "metar_trigger": false,
      "taf_trigger": false,
      "metar": "METAR LZIB 150100Z 05008KT CAVOK 04/02 Q1006 NOSIG",
      "taf": "TAF LZIB 142315Z 1500/1600 08007KT CAVOK"
    },
    {
      "icao": "LZKZ",
      "alert": "OK",
      "vis_m": 9999,
      "fzfg": false,
      "metar_trigger": false,
      "taf_trigger": false,
      "metar": "METAR LZKZ 150100Z 28005KT CAVOK 03/M03 Q1010 NOSIG",
      "taf": "TAF LZKZ 142315Z 1500/1600 01005KT CAVOK"
    },
    {
      "icao": "LZTT",
      "alert": "OK",
      "vis_m": 9999,
      "fzfg": false,
      "metar_trigger": false,
      "taf_trigger": false,
      "metar": "METAR LZTT 150100Z 26008KT CAVOK 01/M03 Q1009",
      "taf": "TAF LZTT 142315Z 1500/1600 26004KT CAVOK"
    },
    {
      "icao": "OEJN",
      "alert": "OK",
      "vis_m": 9999,
      "fzfg": false,
      "metar_trigger": false,
      "taf_trigger": false,
      "metar": "METAR OEJN 150100Z 16008KT CAVOK 29/12 Q1005 NOSIG",
      "taf": "TAF OEJN 142300Z 1500/1606 15008KT CAVOK"
    },
    {
      "icao": "OEMA",
      "alert": "OK",
      "vis_m": 9999,
      "fzfg": false,
      "metar_trigger": false,
      "taf_trigger": false,
      "metar": "METAR OEMA 150100Z 09007KT CAVOK 26/12 Q1010 NOSIG",
      "taf": "TAF OEMA 142300Z 1500/1606 14007KT CAVOK"
    },
    {
      "icao": "OJAI",
      "alert": "OK",
      "vis_m": 4000,
      "fzfg": false,
      "metar_trigger": false,
      "taf_trigger": false,
      "metar": "METAR OJAI 150100Z 29010KT 4000 BR NSC 12/09 Q1005 NOSIG",
      "taf": "TAF OJAI 142300Z 1500/1606 25012G25KT 4000 RA BR FEW020TCU BKN025"
    },
    {
      "icao": "OMAA",
      "alert": "OK",
      "vis_m": null,
      "fzfg": false,
      "metar_trigger": false,
      "taf_trigger": false,
      "metar": "",
      "taf": ""
    },
    {
      "icao": "OMDB",
      "alert": "OK",
      "vis_m": null,
      "fzfg": false,
      "metar_trigger": false,
      "taf_trigger": false,
      "metar": "",
      "taf": ""
    },
    {
      "icao": "UAAA",
      "alert": "OK",
      "vis_m": 9999,
      "fzfg": false,
      "metar_trigger": false,
      "taf_trigger": false,
      "metar": "METAR UAAA 150100Z 24004MPS 9999 BKN200 M03/M06 Q1025 NOSIG",
      "taf": "TAF UAAA 142301Z 1500/1524 22003MPS 3100 BR FU SCT100 TX06/1509Z TNM06/1501Z"
    },
    {
      "icao": "UBBB",
      "alert": "OK",
      "vis_m": 9999,
      "fzfg": false,
      "metar_trigger": false,
      "taf_trigger": false,
      "metar": "METAR UBBB 150100Z 12010KT 9999 BKN019 09/06 Q1021 NOSIG",
      "taf": "TAF UBBB 142254Z 1500/1524 14008KT 9999 BKN030 TX12/1510Z TN05/1502Z"
    },
    {
      "icao": "UDSG",
      "alert": "OK",
      "vis_m": 2600,
      "fzfg": false,
      "metar_trigger": false,
      "taf_trigger": false,
      "metar": "METAR UDSG 150100Z 36001KT 2600 -SN BR FEW010 OVC026 M00/M00 Q1014 NOSIG",
      "taf": "TAF UDSG 142300Z 1500/1524 VRB06KT 1200 BR OVC010"
    },
    {
      "icao": "UDYZ",
      "alert": "OK",
      "vis_m": 3000,
      "fzfg": false,
      "metar_trigger": false,
      "taf_trigger": false,
      "metar": "METAR UDYZ 150100Z VRB01KT 3000 -SHRA BR BKN030CB 05/05 Q1014 NOSIG",
      "taf": "TAF UDYZ 142300Z 1500/1524 14006KT 6000 BKN040"
    },
    {
      "icao": "UGKO",
      "alert": "OK",
      "vis_m": 9999,
      "fzfg": false,
      "metar_trigger": false,
      "taf_trigger": false,
      "metar": "METAR UGKO 150100Z 08033G47KT CAVOK 11/01 Q1010 NOSIG",
      "taf": "TAF UGKO 142300Z 1500/1524 08033G47KT CAVOK TX14/1511Z TN10/1503Z"
    }
  ]
}