{
  "ts_utc": "2025-12-31T02:03:59Z",
  "threshold_m": 150,
  "source": "stations_override.txt (ICAO list) + aviationweather.gov (METAR/TAF raw)",
  "station_count": 159,
  "stations": [
    {
      "icao": "BIKF",
      "alert": "OK",
      "vis_m": 9999,
      "fzfg": false,
      "metar_trigger": false,
      "taf_trigger": false,
      "metar": "METAR BIKF 310130Z COR 26022KT 9999 -SHRA BKN013 BKN026 06/05 Q1028",
      "taf": "TAF BIKF 310107Z 3103/0103 27027KT 9999 SCT017 BKN020 TX06/3103Z TNM03/0101Z"
    },
    {
      "icao": "BKPR",
      "alert": "OK",
      "vis_m": 9999,
      "fzfg": false,
      "metar_trigger": false,
      "taf_trigger": false,
      "metar": "METAR BKPR 310200Z 36003KT 320V070 CAVOK M06/M11 Q1016 NOSIG",
      "taf": "TAF BKPR 302330Z 3100/3124 33008KT 9999 FEW050"
    },
    {
      "icao": "EBCI",
      "alert": "OK",
      "vis_m": 7000,
      "fzfg": false,
      "metar_trigger": false,
      "taf_trigger": false,
      "metar": "METAR EBCI 310150Z 29003KT 7000 NSC M02/M02 Q1029 NOSIG",
      "taf": "TAF EBCI 302310Z 3100/0106 27006KT 9999 FEW018 SCT035"
    },
    {
      "icao": "EDDB",
      "alert": "OK",
      "vis_m": 9999,
      "fzfg": false,
      "metar_trigger": false,
      "taf_trigger": false,
      "metar": "METAR EDDB 310150Z AUTO 28010KT 9999 FEW048 M03/M06 Q1021 NOSIG",
      "taf": "TAF EDDB 302300Z 3100/3124 31011KT CAVOK"
    },
    {
      "icao": "EDDH",
      "alert": "OK",
      "vis_m": 9999,
      "fzfg": false,
      "metar_trigger": false,
      "taf_trigger": false,
      "metar": "METAR EDDH 310150Z AUTO 26005KT 9999 FEW026 SCT047 01/M02 Q1021 NOSIG",
      "taf": "TAF EDDH 302300Z 3100/0106 27004KT 9999 BKN030"
    },
    {
      "icao": "EDDK",
      "alert": "OK",
      "vis_m": 9000,
      "fzfg": false,
      "metar_trigger": false,
      "taf_trigger": false,
      "metar": "METAR EDDK 310150Z AUTO VRB01KT 9000 NCD M03/M04 Q1028 NOSIG",
      "taf": "TAF EDDK 302300Z 3100/0106 VRB03KT 9999 SCT040"
    },
    {
      "icao": "EDDN",
      "alert": "OK",
      "vis_m": 9999,
      "fzfg": false,
      "metar_trigger": false,
      "taf_trigger": false,
      "metar": "METAR EDDN 310150Z AUTO 11005KT CAVOK M09/M11 Q1025",
      "taf": "TAF EDDN 302300Z 3100/3124 VRB03KT CAVOK"
    },
    {
      "icao": "EDDS",
      "alert": "OK",
      "vis_m": 9999,
      "fzfg": false,
      "metar_trigger": false,
      "taf_trigger": false,
      "metar": "METAR EDDS 310150Z AUTO VRB02KT CAVOK M08/M10 Q1026",
      "taf": "TAF EDDS 302300Z 3100/3124 24004KT CAVOK"
    },
    {
      "icao": "EDFH",
      "alert": "OK",
      "vis_m": 9999,
      "fzfg": false,
      "metar_trigger": false,
      "taf_trigger": false,
      "metar": "METAR EDFH 310150Z 27005KT CAVOK M04/M05 Q1026",
      "taf": "TAF EDFH 302300Z 3100/3124 23004KT 9999 FEW025"
    },
    {
      "icao": "EDJA",
      "alert": "OK",
      "vis_m": 9999,
      "fzfg": false,
      "metar_trigger": false,
      "taf_trigger": false,
      "metar": "METAR EDJA 310150Z AUTO 16005KT 9999 // FEW140/// M10/M11 Q1024",
      "taf": "TAF EDJA 301700Z 3018/3103 VRB03KT 9999 SCT040"
    },
    {
      "icao": "EDLW",
      "alert": "OK",
      "vis_m": 9999,
      "fzfg": false,
      "metar_trigger": false,
      "taf_trigger": false,
      "metar": "METAR EDLW 310150Z AUTO 23007KT 9999 // NCD M01/M02 Q1026",
      "taf": "TAF EDLW 301700Z 3018/3118 24005KT CAVOK"
    },
    {
      "icao": "EDNY",
      "alert": "OK",
      "vis_m": 9999,
      "fzfg": false,
      "metar_trigger": false,
      "taf_trigger": false,
      "metar": "METAR EDNY 310150Z AUTO 06004KT 9999 // NCD M07/M08 Q1025",
      "taf": ""
    },
    {
      "icao": "EDSB",
      "alert": "OK",
      "vis_m": 9999,
      "fzfg": false,
      "metar_trigger": false,
      "taf_trigger": false,
      "metar": "METAR EDSB 310150Z AUTO 02003KT 9999 NCD M06/M07 Q1028",
      "taf": "TAF EDSB 302300Z 3100/3124 03004KT CAVOK"
    },
    {
      "icao": "EETN",
      "alert": "OK",
      "vis_m": 9999,
      "fzfg": false,
      "metar_trigger": false,
      "taf_trigger": false,
      "metar": "METAR EETN 310150Z 01011KT 330V030 CAVOK M06/M12 Q1005",
      "taf": "TAF EETN 302330Z 3100/3124 01012KT CAVOK"
    },
    {
      "icao": "EFTU",
      "alert": "OK",
      "vis_m": 9999,
      "fzfg": false,
      "metar_trigger": false,
      "taf_trigger": false,
      "metar": "METAR EFTU 310150Z AUTO 29004KT CAVOK M13/M14 Q1008",
      "taf": "TAF EFTU 302327Z 3100/3124 35004KT CAVOK"
    },
    {
      "icao": "EGBB",
      "alert": "OK",
      "vis_m": 9999,
      "fzfg": false,
      "metar_trigger": false,
      "taf_trigger": false,
      "metar": "METAR EGBB 310150Z 29003KT CAVOK M03/M03 Q1034",
      "taf": "TAF EGBB 302257Z 3100/3124 34004KT 9999 SCT040"
    },
    {
      "icao": "EGGP",
      "alert": "OK",
      "vis_m": 9999,
      "fzfg": false,
      "metar_trigger": false,
      "taf_trigger": false,
      "metar": "METAR EGGP 310150Z AUTO 27003KT 9999 NCD M00/M02 Q1034",
      "taf": "TAF EGGP 302300Z 3100/3124 32004KT 9999 SCT035"
    },
    {
      "icao": "EGGW",
      "alert": "OK",
      "vis_m": 8000,
      "fzfg": false,
      "metar_trigger": false,
      "taf_trigger": false,
      "metar": "METAR EGGW 310150Z AUTO 34007KT 8000 BKN020 01/M00 Q1032",
      "taf": "TAF EGGW 302302Z 3100/3124 34006KT 9999 FEW040"
    },
    {
      "icao": "EGKK",
      "alert": "OK",
      "vis_m": 6000,
      "fzfg": false,
      "metar_trigger": false,
      "taf_trigger": false,
      "metar": "METAR EGKK 310150Z VRB01KT 6000 NSC M02/M02 Q1032",
      "taf": "TAF EGKK 302304Z 3100/0106 34005KT 9999 FEW040"
    },
    {
      "icao": "EGNM",
      "alert": "OK",
      "vis_m": null,
      "fzfg": false,
      "metar_trigger": false,
      "taf_trigger": false,
      "metar": "",
      "taf": "TAF EGNM 301655Z 3018/3118 35006KT 9999 SCT035"
    },
    {
      "icao": "EGPD",
      "alert": "OK",
      "vis_m": 9999,
      "fzfg": false,
      "metar_trigger": false,
      "taf_trigger": false,
      "metar": "METAR EGPD 310150Z COR AUTO 29013KT 9999 OVC025 04/M01 Q1030 NOSIG",
      "taf": "TAF EGPD 302255Z 3100/3124 28009KT 9999 SCT030"
    },
    {
      "icao": "EGPF",
      "alert": "OK",
      "vis_m": 6000,
      "fzfg": false,
      "metar_trigger": false,
      "taf_trigger": false,
      "metar": "METAR EGPF 310150Z AUTO VRB01KT 6000 OVC022 M05/M05 Q1034",
      "taf": "TAF EGPF 302255Z 3100/3124 VRB02KT 9999 FEW040"
    },
    {
      "icao": "EHBK",
      "alert": "OK",
      "vis_m": 8000,
      "fzfg": false,
      "metar_trigger": false,
      "taf_trigger": false,
      "metar": "METAR EHBK 310155Z AUTO 21008KT 8000 OVC046 M03/M03 Q1028",
      "taf": "TAF EHBK 302316Z 3100/0106 24003KT 9999 BKN045"
    },
    {
      "icao": "EHEH",
      "alert": "OK",
      "vis_m": 4000,
      "fzfg": false,
      "metar_trigger": false,
      "taf_trigger": false,
      "metar": "METAR EHEH 310155Z AUTO 26004KT 4000 BR NCD M03/M03 Q1029 GRN",
      "taf": "TAF EHEH 302141Z 3100/0106 VRB02KT 6000 NSC"
    },
    {
      "icao": "EKBI",
      "alert": "OK",
      "vis_m": 9999,
      "fzfg": false,
      "metar_trigger": false,
      "taf_trigger": false,
      "metar": "METAR EKBI 310150Z AUTO 25006KT 9999 -RA OVC005/// 02/01 Q1018",
      "taf": "TAF EKBI 302327Z 3100/3124 27008KT 9999 SCT030"
    },
    {
      "icao": "EKCH",
      "alert": "OK",
      "vis_m": 9999,
      "fzfg": false,
      "metar_trigger": false,
      "taf_trigger": false,
      "metar": "METAR EKCH 310150Z AUTO 26008KT 9999 OVC100/// M01/M04 Q1016 NOSIG",
      "taf": "TAF EKCH 302327Z 3100/3124 27009KT 9999 FEW040"
    },
    {
      "icao": "ENAL",
      "alert": "OK",
      "vis_m": 9999,
      "fzfg": false,
      "metar_trigger": false,
      "taf_trigger": false,
      "metar": "METAR ENAL 310120Z AUTO 33005KT 300V020 9999 FEW029/// SCT038/// 05/00 Q1016",
      "taf": "TAF ENAL 302300Z 3100/3109 32008KT 9999 FEW020 SCT040"
    },
    {
      "icao": "ENBR",
      "alert": "OK",
      "vis_m": 9999,
      "fzfg": false,
      "metar_trigger": false,
      "taf_trigger": false,
      "metar": "METAR ENBR 310150Z 34003KT 9999 -SHRA FEW005 SCT014 BKN018 02/02 Q1018 RMK WIND 1200FT 34021KT",
      "taf": "TAF ENBR 302300Z 3100/3124 35008KT 9999 -SHRASN SCT010 BKN020"
    },
    {
      "icao": "ENGM",
      "alert": "OK",
      "vis_m": 9999,
      "fzfg": false,
      "metar_trigger": false,
      "taf_trigger": false,
      "metar": "METAR ENGM 310150Z 30003KT 250V340 CAVOK M02/M08 Q1010",
      "taf": "TAF ENGM 302300Z 3100/3124 VRB03KT CAVOK"
    },
    {
      "icao": "ENHD",
      "alert": "OK",
      "vis_m": 9999,
      "fzfg": false,
      "metar_trigger": false,
      "taf_trigger": false,
      "metar": "METAR ENHD 310150Z AUTO 33017KT 300V360 9999 FEW012/// BKN018/// 06/04 Q1018 REDZ RERA",
      "taf": ""
    },
    {
      "icao": "ENTC",
      "alert": "OK",
      "vis_m": 9999,
      "fzfg": false,
      "metar_trigger": false,
      "taf_trigger": false,
      "metar": "METAR ENTC 310150Z AUTO 07005KT 9999 NCD M09/M12 Q1011 RMK WIND 2600FT 01014KT",
      "taf": "TAF ENTC 302300Z 3100/3124 01008KT 9999 -SHSN FEW008 SCT030 BKN035"
    },
    {
      "icao": "ENTO",
      "alert": "OK",
      "vis_m": 9999,
      "fzfg": false,
      "metar_trigger": false,
      "taf_trigger": false,
      "metar": "METAR ENTO 310120Z AUTO 23004KT 9999 // NCD M02/M07 Q1012",
      "taf": "TAF ENTO 302300Z 3100/3124 28005KT CAVOK"
    },
    {
      "icao": "ENVA",
      "alert": "OK",
      "vis_m": 9999,
      "fzfg": false,
      "metar_trigger": false,
      "taf_trigger": false,
      "metar": "METAR ENVA 310150Z AUTO 24005KT 160V280 9999 FEW042/// M01/M03 Q1012 RMK WIND 670FT 35007KT",
      "taf": "TAF ENVA 302300Z 3100/3124 12008KT 9999 -SHSNRA FEW010TCU BKN025"
    },
    {
      "icao": "ENZV",
      "alert": "OK",
      "vis_m": 9999,
      "fzfg": false,
      "metar_trigger": false,
      "taf_trigger": false,
      "metar": "METAR ENZV 310150Z AUTO 33011G22KT 9999 SCT019/// BKN029/// BKN048/// 05/03 Q1018 RERA",
      "taf": "TAF ENZV 302300Z 3100/3124 35005KT 9999 FEW015 BKN030"
    },
    {
      "icao": "EPGD",
      "alert": "OK",
      "vis_m": 9999,
      "fzfg": false,
      "metar_trigger": false,
      "taf_trigger": false,
      "metar": "METAR EPGD 310200Z 30011KT 9999 FEW024TCU M04/M08 Q1011",
      "taf": "TAF EPGD 302330Z 3100/3124 31012KT 8000 -SHSN BKN025CB"
    },
    {
      "icao": "EPKK",
      "alert": "OK",
      "vis_m": 9999,
      "fzfg": false,
      "metar_trigger": false,
      "taf_trigger": false,
      "metar": "METAR EPKK 310200Z 28015KT 9999 SCT020 M04/M08 Q1014",
      "taf": "TAF EPKK 302330Z 3100/3124 27012KT 9999 BKN020"
    },
    {
      "icao": "EPKT",
      "alert": "OK",
      "vis_m": 9999,
      "fzfg": false,
      "metar_trigger": false,
      "taf_trigger": false,
      "metar": "METAR EPKT 310200Z 28012KT 9999 FEW039 M06/M08 Q1014",
      "taf": "TAF EPKT 302330Z 3100/3124 30012KT 9999 BKN020"
    },
    {
      "icao": "EPLB",
      "alert": "OK",
      "vis_m": 9999,
      "fzfg": false,
      "metar_trigger": false,
      "taf_trigger": false,
      "metar": "METAR EPLB 310200Z 29017KT 9999 DRSN SCT014 BKN017 M03/M05 Q1006",
      "taf": "TAF EPLB 302330Z 3100/3124 30018KT 9999 BKN018"
    },
    {
      "icao": "EPMO",
      "alert": "OK",
      "vis_m": 9999,
      "fzfg": false,
      "metar_trigger": false,
      "taf_trigger": false,
      "metar": "METAR EPMO 310200Z 29013KT 9999 -SHSN DRSN SCT011 FEW028CB BKN034 M03/M04 Q1009",
      "taf": "TAF EPMO 302330Z 3100/3124 29015KT 6000 -SHSN BKN012 BKN016CB"
    },
    {
      "icao": "EPPO",
      "alert": "OK",
      "vis_m": 9999,
      "fzfg": false,
      "metar_trigger": false,
      "taf_trigger": false,
      "metar": "METAR EPPO 310200Z 29012KT 9999 SCT046 M03/M07 Q1016",
      "taf": ""
    },
    {
      "icao": "EPRA",
      "alert": "OK",
      "vis_m": 6000,
      "fzfg": false,
      "metar_trigger": false,
      "taf_trigger": false,
      "metar": "METAR EPRA 310200Z 31014G24KT 280V340 6000 -SN FEW005 OVC021 M03/M06 Q1009",
      "taf": "TAF EPRA 302330Z 3100/3109 30014KT 8000 -SN OVC025"
    },
    {
      "icao": "EPRZ",
      "alert": "OK",
      "vis_m": 9999,
      "fzfg": false,
      "metar_trigger": false,
      "taf_trigger": false,
      "metar": "METAR EPRZ 310200Z 28020KT 9999 -SHSN BKN030CB M03/M07 Q1009",
      "taf": ""
    },
    {
      "icao": "EPSC",
      "alert": "OK",
      "vis_m": 9999,
      "fzfg": false,
      "metar_trigger": false,
      "taf_trigger": false,
      "metar": "METAR EPSC 310200Z 26006KT CAVOK M03/M06 Q1017",
      "taf": "TAF EPSC 302330Z 3100/3124 30010KT 9999 SCT040"
    },
    {
      "icao": "EPSY",
      "alert": "OK",
      "vis_m": 9999,
      "fzfg": false,
      "metar_trigger": false,
      "taf_trigger": false,
      "metar": "METAR EPSY 310200Z 32009KT CAVOK M03/M04 Q1007",
      "taf": "TAF EPSY 302330Z 3100/3109 31010KT 9999 BKN040"
    },
    {
      "icao": "EPWA",
      "alert": "OK",
      "vis_m": 4500,
      "fzfg": false,
      "metar_trigger": false,
      "taf_trigger": false,
      "metar": "METAR EPWA 310200Z 30014KT 4500 -SHSN BLSN SCT008 BKN012CB M03/M04 Q1009 RESHSN TEMPO 1500 SHSN BKN007",
      "taf": "TAF EPWA 302330Z 3100/3124 29015KT 4500 -SHSN BKN012 BKN015CB"
    },
    {
      "icao": "EPWR",
      "alert": "OK",
      "vis_m": 9999,
      "fzfg": false,
      "metar_trigger": false,
      "taf_trigger": false,
      "metar": "METAR EPWR 310200Z 28011KT CAVOK M04/M06 Q1017",
      "taf": "TAF EPWR 302330Z 3100/3124 29013KT CAVOK"
    },
    {
      "icao": "ESGG",
      "alert": "OK",
      "vis_m": 9999,
      "fzfg": false,
      "metar_trigger": false,
      "taf_trigger": false,
      "metar": "METAR ESGG 310150Z 25006KT CAVOK 00/M04 Q1012",
      "taf": "TAF ESGG 302330Z 3100/3124 25005KT CAVOK"
    },
    {
      "icao": "ESKN",
      "alert": "OK",
      "vis_m": 9999,
      "fzfg": false,
      "metar_trigger": false,
      "taf_trigger": false,
      "metar": "METAR ESKN 310150Z 25003KT CAVOK M06/M08 Q1010",
      "taf": "TAF ESKN 302330Z 3100/3124 29007KT CAVOK"
    },
    {
      "icao": "ESMS",
      "alert": "OK",
      "vis_m": 9999,
      "fzfg": false,
      "metar_trigger": false,
      "taf_trigger": false,
      "metar": "METAR ESMS 310150Z 29007KT CAVOK M01/M05 Q1016",
      "taf": "TAF ESMS 302327Z 3100/3124 28007KT 9999 FEW040"
    },
    {
      "icao": "ESSA",
      "alert": "OK",
      "vis_m": 9999,
      "fzfg": false,
      "metar_trigger": false,
      "taf_trigger": false,
      "metar": "METAR ESSA 310150Z 00000KT CAVOK M10/M11 Q1009 NOSIG",
      "taf": "TAF ESSA 302330Z 3100/3124 30003KT CAVOK"
    },
    {
      "icao": "EYKA",
      "alert": "OK",
      "vis_m": 9999,
      "fzfg": false,
      "metar_trigger": false,
      "taf_trigger": false,
      "metar": "METAR EYKA 310150Z 34006KT 240V050 9999 SCT048 M04/M06 Q1002",
      "taf": "TAF EYKA 302300Z 3100/3124 32010KT 6000 BKN030"
    },
    {
      "icao": "EYPA",
      "alert": "OK",
      "vis_m": 9999,
      "fzfg": false,
      "metar_trigger": false,
      "taf_trigger": false,
      "metar": "METAR EYPA 310150Z 04007KT CAVOK M07/M13 Q1008",
      "taf": "TAF EYPA 302300Z 3100/3124 01010KT 9000 SCT030"
    },
    {
      "icao": "EYVI",
      "alert": "OK",
      "vis_m": 5000,
      "fzfg": false,
      "metar_trigger": false,
      "taf_trigger": false,
      "metar": "METAR EYVI 310150Z 33011KT 5000 -SN BR BKN013 M05/M07 Q0999 NOSIG",
      "taf": "TAF EYVI 302300Z 3100/3124 32010KT 5000 SN SCT010 BKN020"
    },
    {
      "icao": "GCFV",
      "alert": "OK",
      "vis_m": 9999,
      "fzfg": false,
      "metar_trigger": false,
      "taf_trigger": false,
      "metar": "METAR GCFV 310130Z AUTO 28004KT CAVOK 14/11 Q1021",
      "taf": "TAF GCFV 302000Z 3021/3121 30005KT 9999 FEW025 TX21/3114Z TN14/3106Z"
    },
    {
      "icao": "GCLP",
      "alert": "OK",
      "vis_m": 9999,
      "fzfg": false,
      "metar_trigger": false,
      "taf_trigger": false,
      "metar": "METAR GCLP 310130Z 27004KT CAVOK 16/12 Q1021 NOSIG",
      "taf": "TAF GCLP 302000Z 3021/3121 29003KT 9999 SCT030 TX22/3114Z TN15/3106Z"
    },
    {
      "icao": "GCTS",
      "alert": "OK",
      "vis_m": 9999,
      "fzfg": false,
      "metar_trigger": false,
      "taf_trigger": false,
      "metar": "METAR GCTS 310130Z 04002KT 9999 FEW025 15/11 Q1021 NOSIG",
      "taf": "TAF GCTS 302000Z 3021/3121 30005KT 9999 FEW025 TX24/3114Z TN16/3106Z"
    },
    {
      "icao": "GMAD",
      "alert": "OK",
      "vis_m": 9999,
      "fzfg": false,
      "metar_trigger": false,
      "taf_trigger": false,
      "metar": "METAR GMAD 310200Z 05005KT CAVOK 11/11 Q1021 NOSIG",
      "taf": "TAF GMAD 302300Z 3100/0106 06008KT 8000 SCT020"
    },
    {
      "icao": "GMMN",
      "alert": "OK",
      "vis_m": 9999,
      "fzfg": false,
      "metar_trigger": false,
      "taf_trigger": false,
      "metar": "METAR GMMN 310200Z 19010KT 9999 BKN030 12/10 Q1019 NOSIG",
      "taf": "TAF GMMN 302300Z 3100/0106 21007KT 9999 BKN026"
    },
    {
      "icao": "GMMX",
      "alert": "OK",
      "vis_m": 8000,
      "fzfg": false,
      "metar_trigger": false,
      "taf_trigger": false,
      "metar": "METAR GMMX 310200Z VRB01KT 8000 FEW020 SCT080 10/09 Q1020 NOSIG",
      "taf": "TAF GMMX 302300Z 3100/0106 22006KT 8000 SCT020 SCT080"
    },
    {
      "icao": "HEGN",
      "alert": "OK",
      "vis_m": 9999,
      "fzfg": false,
      "metar_trigger": false,
      "taf_trigger": false,
      "metar": "METAR HEGN 310100Z 00000KT CAVOK 12/07 Q1017 NOSIG",
      "taf": "TAF HEGN 302300Z 3100/0106 28010KT CAVOK"
    },
    {
      "icao": "HEMA",
      "alert": "OK",
      "vis_m": 9999,
      "fzfg": false,
      "metar_trigger": false,
      "taf_trigger": false,
      "metar": "METAR HEMA 310100Z 25006KT CAVOK 15/09 Q1017 NOSIG",
      "taf": "TAF HEMA 302300Z 3100/0106 25010KT CAVOK"
    },
    {
      "icao": "HESH",
      "alert": "OK",
      "vis_m": 9999,
      "fzfg": false,
      "metar_trigger": false,
      "taf_trigger": false,
      "metar": "METAR HESH 310100Z 26005KT CAVOK 15/09 Q1017 NOSIG",
      "taf": "TAF HESH 302300Z 3100/0106 30010KT CAVOK"
    },
    {
      "icao": "HESX",
      "alert": "OK",
      "vis_m": 9999,
      "fzfg": false,
      "metar_trigger": false,
      "taf_trigger": false,
      "metar": "METAR HESX 310100Z 18006KT CAVOK 13/07 Q1015 NOSIG",
      "taf": "TAF HESX 302300Z 3100/0106 20009KT 6000 NSC"
    },
    {
      "icao": "LATI",
      "alert": "OK",
      "vis_m": 9999,
      "fzfg": false,
      "metar_trigger": false,
      "taf_trigger": false,
      "metar": "METAR LATI 310150Z 30009KT CAVOK 04/M11 Q1011 NOSIG",
      "taf": "TAF LATI 302300Z 3100/3124 30007KT 9999 FEW060 BKN080 TX07/3112Z TNM04/3123Z"
    },
    {
      "icao": "LBPD",
      "alert": "OK",
      "vis_m": 9999,
      "fzfg": false,
      "metar_trigger": false,
      "taf_trigger": false,
      "metar": "METAR LBPD 310200Z AUTO 28015KT 9999 NCD M00/M07 Q1014",
      "taf": "TAF LBPD 302300Z 3100/3124 28016KT 9999 SCT050"
    },
    {
      "icao": "LBSF",
      "alert": "OK",
      "vis_m": 9999,
      "fzfg": false,
      "metar_trigger": false,
      "taf_trigger": false,
      "metar": "METAR LBSF 310200Z AUTO 28008KT 9999 NCD M05/M10 Q1014 NOSIG",
      "taf": "TAF LBSF 302300Z 3100/3124 28012KT 9999 SCT050"
    },
    {
      "icao": "LBWN",
      "alert": "OK",
      "vis_m": 9999,
      "fzfg": false,
      "metar_trigger": false,
      "taf_trigger": false,
      "metar": "METAR LBWN 310200Z AUTO 31007KT 270V330 9999 SCT025/// M02/M04 Q1011 NOSIG",
      "taf": "TAF LBWN 302300Z 3100/3124 29012KT 9999 SCT020 BKN045"
    },
    {
      "icao": "LCLK",
      "alert": "OK",
      "vis_m": 9999,
      "fzfg": false,
      "metar_trigger": false,
      "taf_trigger": false,
      "metar": "METAR LCLK 310200Z 27004KT 230V300 9999 FEW025 FEW030TCU SCT047 14/13 Q1009 NOSIG",
      "taf": "TAF LCLK 302330Z 3100/0100 22020KT 9999 FEW020 SCT040"
    },
    {
      "icao": "LCPH",
      "alert": "OK",
      "vis_m": 6000,
      "fzfg": false,
      "metar_trigger": false,
      "taf_trigger": false,
      "metar": "METAR LCPH 310200Z AUTO 27016KT 250V320 6000 BKN049 BKN060 16/13 Q1009 NOSIG",
      "taf": "TAF LCPH 302330Z 3100/0100 24020KT 9999 SCT020 BKN040"
    },
    {
      "icao": "LEAL",
      "alert": "OK",
      "vis_m": 9999,
      "fzfg": false,
      "metar_trigger": false,
      "taf_trigger": false,
      "metar": "METAR LEAL 310130Z 23003KT 190V270 CAVOK 11/06 Q1017 NOSIG",
      "taf": "TAF LEAL 302300Z 3100/3124 29008KT CAVOK TX17/3114Z TN07/3106Z"
    },
    {
      "icao": "LEBB",
      "alert": "OK",
      "vis_m": 9999,
      "fzfg": false,
      "metar_trigger": false,
      "taf_trigger": false,
      "metar": "METAR LEBB 310130Z AUTO VRB02KT 9999 OVC018 08/06 Q1023",
      "taf": "TAF LEBB 302300Z 3100/3124 VRB03KT 9999 SCT010 BKN020 TX10/3114Z TN01/3124Z"
    },
    {
      "icao": "LEBL",
      "alert": "OK",
      "vis_m": 9999,
      "fzfg": false,
      "metar_trigger": false,
      "taf_trigger": false,
      "metar": "METAR LEBL 310130Z 32010KT 9999 FEW027 08/05 Q1017 NOSIG",
      "taf": "TAF LEBL 302300Z 3100/3124 34010KT 9999 FEW020 TX15/3112Z TN07/3107Z"
    },
    {
      "icao": "LECH",
      "alert": "OK",
      "vis_m": 9000,
      "fzfg": false,
      "metar_trigger": false,
      "taf_trigger": false,
      "metar": "METAR LECH 310130Z AUTO 29007KT 230V350 9000 NCD 09/01 Q1017",
      "taf": ""
    },
    {
      "icao": "LEMD",
      "alert": "OK",
      "vis_m": 9999,
      "fzfg": false,
      "metar_trigger": false,
      "taf_trigger": false,
      "metar": "METAR LEMD 310130Z 35002KT CAVOK M00/M00 Q1019 NOSIG",
      "taf": ""
    },
    {
      "icao": "LEMG",
      "alert": "OK",
      "vis_m": 9999,
      "fzfg": false,
      "metar_trigger": false,
      "taf_trigger": false,
      "metar": "METAR LEMG 310130Z 30009KT CAVOK 07/06 Q1020 NOSIG",
      "taf": "TAF LEMG 302300Z 3100/3124 29007KT CAVOK TX18/3114Z TN08/3106Z"
    },
    {
      "icao": "LEVC",
      "alert": "OK",
      "vis_m": 9999,
      "fzfg": false,
      "metar_trigger": false,
      "taf_trigger": false,
      "metar": "METAR LEVC 310130Z 30004KT 250V330 CAVOK 05/03 Q1018 NOSIG",
      "taf": "TAF LEVC 302300Z 3100/3124 29006KT 9999 FEW020 TX17/3114Z TN05/3106Z"
    },
    {
      "icao": "LEXJ",
      "alert": "OK",
      "vis_m": 6000,
      "fzfg": false,
      "metar_trigger": false,
      "taf_trigger": false,
      "metar": "METAR LEXJ 310130Z AUTO 11005KT 080V150 6000 BKN021 BKN041 08/06 Q1023",
      "taf": "TAF LEXJ 302000Z 3021/3121 VRB03KT 9999 SCT015 BKN035 TX10/3115Z TN07/3108Z"
    },
    {
      "icao": "LEZG",
      "alert": "OK",
      "vis_m": 9999,
      "fzfg": false,
      "metar_trigger": false,
      "taf_trigger": false,
      "metar": "METAR LEZG 310130Z 27014KT 9999 BKN032 08/04 Q1018 NOSIG",
      "taf": "TAF LEZG 302300Z 3100/3124 29010KT 9999 FEW020 TX12/3114Z TN05/3106Z"
    },
    {
      "icao": "LEZL",
      "alert": "OK",
      "vis_m": 1900,
      "fzfg": false,
      "metar_trigger": false,
      "taf_trigger": false,
      "metar": "METAR LEZL 310130Z AUTO 03002KT 1900 BR FEW005 06/06 Q1020",
      "taf": ""
    },
    {
      "icao": "LFBD",
      "alert": "OK",
      "vis_m": 9999,
      "fzfg": true,
      "metar_trigger": false,
      "taf_trigger": false,
      "metar": "METAR LFBD 310200Z AUTO 04005KT 9999 4800 NSC M02/M03 Q1023 TEMPO 0800 FZFG VV///",
      "taf": "TAF LFBD 302300Z 3100/0106 02005KT CAVOK TX05/3114Z TNM03/3106Z"
    },
    {
      "icao": "LFLL",
      "alert": "OK",
      "vis_m": 9999,
      "fzfg": false,
      "metar_trigger": false,
      "taf_trigger": false,
      "metar": "METAR LFLL 310200Z 31003KT CAVOK M04/M05 Q1023 NOSIG",
      "taf": "TAF LFLL 302300Z 3100/0106 36005KT CAVOK"
    },
    {
      "icao": "LFLS",
      "alert": "OK",
      "vis_m": 9999,
      "fzfg": false,
      "metar_trigger": false,
      "taf_trigger": false,
      "metar": "METAR LFLS 310200Z AUTO 01006KT CAVOK M03/M05 Q1022",
      "taf": ""
    },
    {
      "icao": "LFMN",
      "alert": "OK",
      "vis_m": 9999,
      "fzfg": false,
      "metar_trigger": false,
      "taf_trigger": false,
      "metar": "METAR LFMN 310200Z 34009KT 9999 FEW038 07/01 Q1015 NOSIG",
      "taf": "TAF LFMN 302000Z 3021/0103 33010KT CAVOK"
    },
    {
      "icao": "LFOB",
      "alert": "OK",
      "vis_m": 9999,
      "fzfg": false,
      "metar_trigger": false,
      "taf_trigger": false,
      "metar": "METAR LFOB 310200Z AUTO 32005KT CAVOK M04/M05 Q1030",
      "taf": ""
    },
    {
      "icao": "LFPO",
      "alert": "OK",
      "vis_m": 9999,
      "fzfg": false,
      "metar_trigger": false,
      "taf_trigger": false,
      "metar": "METAR LFPO 310200Z AUTO 03005KT CAVOK M01/M03 Q1030",
      "taf": "TAF LFPO 301700Z 3018/3124 01005KT CAVOK"
    },
    {
      "icao": "LFSB",
      "alert": "OK",
      "vis_m": 5000,
      "fzfg": true,
      "metar_trigger": false,
      "taf_trigger": false,
      "metar": "METAR LFSB 310200Z AUTO 34002KT 5000 BR NSC M07/M07 Q1026 TEMPO 0300 FZFG VV///",
      "taf": "TAF LFSB 302300Z 3100/3124 31003KT 4000 BR NSC"
    },
    {
      "icao": "LGAV",
      "alert": "OK",
      "vis_m": 9999,
      "fzfg": false,
      "metar_trigger": false,
      "taf_trigger": false,
      "metar": "METAR LGAV 310150Z VRB02KT 9999 DZ FEW025 SCT065 10/06 Q1007 NOSIG",
      "taf": "TAF LGAV 302300Z 3100/3124 35015KT 9999 SCT025 BKN070"
    },
    {
      "icao": "LGTS",
      "alert": "OK",
      "vis_m": 9999,
      "fzfg": false,
      "metar_trigger": false,
      "taf_trigger": false,
      "metar": "METAR LGTS 310150Z 35015G25KT 9999 FEW025 05/M05 Q1012 NOSIG",
      "taf": "TAF LGTS 302300Z 3100/3124 34015G25KT 9999 SCT040"
    },
    {
      "icao": "LHBP",
      "alert": "OK",
      "vis_m": 9999,
      "fzfg": false,
      "metar_trigger": false,
      "taf_trigger": false,
      "metar": "METAR LHBP 310200Z 30016KT CAVOK M03/M07 Q1016 NOSIG",
      "taf": "TAF LHBP 302315Z 3100/3124 31012KT CAVOK"
    },
    {
      "icao": "LHDC",
      "alert": "OK",
      "vis_m": 9999,
      "fzfg": false,
      "metar_trigger": false,
      "taf_trigger": false,
      "metar": "METAR LHDC 310145Z AUTO 28006KT 260V320 CAVOK M05/M08 Q1014",
      "taf": "TAF LHDC 301415Z 3015/3024 36010KT CAVOK"
    },
    {
      "icao": "LIBD",
      "alert": "OK",
      "vis_m": 9999,
      "fzfg": false,
      "metar_trigger": false,
      "taf_trigger": false,
      "metar": "METAR LIBD 310150Z 01011KT 340V040 CAVOK 08/M03 Q1015",
      "taf": "TAF LIBD 302300Z 3100/3124 36015KT 9999 FEW050"
    },
    {
      "icao": "LIBG",
      "alert": "OK",
      "vis_m": null,
      "fzfg": false,
      "metar_trigger": false,
      "taf_trigger": false,
      "metar": "",
      "taf": "TAF LIBG 301700Z 3018/3103 33007KT CAVOK"
    },
    {
      "icao": "LIBP",
      "alert": "OK",
      "vis_m": 9999,
      "fzfg": false,
      "metar_trigger": false,
      "taf_trigger": false,
      "metar": "METAR LIBP 310150Z AUTO 04009KT 9999 OVC060/// 08/M05 Q1020",
      "taf": "TAF LIBP 302300Z 3100/3124 04012KT 9999 SCT045"
    },
    {
      "icao": "LIBR",
      "alert": "OK",
      "vis_m": 9999,
      "fzfg": false,
      "metar_trigger": false,
      "taf_trigger": false,
      "metar": "METAR LIBR 310150Z 36018KT CAVOK 10/00 Q1012",
      "taf": "TAF LIBR 302300Z 3100/3124 01016KT 9999 SCT020"
    },
    {
      "icao": "LICA",
      "alert": "OK",
      "vis_m": 9999,
      "fzfg": false,
      "metar_trigger": false,
      "taf_trigger": false,
      "metar": "METAR LICA 310150Z AUTO 07006KT 9999 OVC071/// 09/08 Q1012",
      "taf": "TAF LICA 302300Z 3100/3124 08010KT 9999 FEW020 SCT060"
    },
    {
      "icao": "LICC",
      "alert": "OK",
      "vis_m": 9999,
      "fzfg": false,
      "metar_trigger": false,
      "taf_trigger": false,
      "metar": "METAR LICC 310150Z 28008KT 9999 FEW060 10/07 Q1012",
      "taf": "TAF LICC 302300Z 3100/3124 29010KT 9999 FEW050"
    },
    {
      "icao": "LICJ",
      "alert": "OK",
      "vis_m": 9999,
      "fzfg": false,
      "metar_trigger": false,
      "taf_trigger": false,
      "metar": "METAR LICJ 310150Z 17007KT 9999 SCT060 12/09 Q1013",
      "taf": "TAF LICJ 302300Z 3100/3124 28010KT 9999 SCT010 SCT040"
    },
    {
      "icao": "LIMC",
      "alert": "OK",
      "vis_m": 9999,
      "fzfg": false,
      "metar_trigger": false,
      "taf_trigger": false,
      "metar": "METAR LIMC 310150Z 05003KT 9999 SCT040 02/01 Q1019 NOSIG",
      "taf": "TAF LIMC 302300Z 3100/0106 03006KT 9999 BKN030"
    },
    {
      "icao": "LIME",
      "alert": "OK",
      "vis_m": 9999,
      "fzfg": false,
      "metar_trigger": false,
      "taf_trigger": false,
      "metar": "METAR LIME 310150Z VRB01KT 9999 SCT040 04/01 Q1019 NOSIG",
      "taf": "TAF LIME 302300Z 3100/3124 VRB05KT 9999 BKN030"
    },
    {
      "icao": "LIMF",
      "alert": "OK",
      "vis_m": 4000,
      "fzfg": false,
      "metar_trigger": false,
      "taf_trigger": false,
      "metar": "METAR LIMF 310150Z 28004KT 4000 BR SCT013 BKN045 04/01 Q1020",
      "taf": "TAF LIMF 302300Z 3100/3124 VRB05KT 1500 BR SCT010"
    },
    {
      "icao": "LIMJ",
      "alert": "OK",
      "vis_m": 9000,
      "fzfg": false,
      "metar_trigger": false,
      "taf_trigger": false,
      "metar": "METAR LIMJ 310150Z 03015KT 9000 NSC 06/00 Q1017",
      "taf": "TAF LIMJ 302300Z 3100/3124 02016KT 9999 FEW020"
    },
    {
      "icao": "LIPE",
      "alert": "OK",
      "vis_m": 1500,
      "fzfg": false,
      "metar_trigger": false,
      "taf_trigger": false,
      "metar": "METAR LIPE 310150Z 27003KT 1500 BR BKN045 SCT060 02/02 Q1020",
      "taf": "TAF LIPE 302300Z 3100/3124 VRB04KT 3000 BR BKN020"
    },
    {
      "icao": "LIPH",
      "alert": "OK",
      "vis_m": 9999,
      "fzfg": false,
      "metar_trigger": false,
      "taf_trigger": false,
      "metar": "METAR LIPH 310150Z AUTO 01002KT 9999 NCD 00/M04 Q1020",
      "taf": "TAF LIPH 302300Z 3100/3124 VRB04KT 9999 SCT045"
    },
    {
      "icao": "LIPQ",
      "alert": "OK",
      "vis_m": 9999,
      "fzfg": false,
      "metar_trigger": false,
      "taf_trigger": false,
      "metar": "METAR LIPQ 310150Z AUTO VRB02KT 9999 SCT077/// M03/M06 Q1020",
      "taf": "TAF LIPQ 302300Z 3100/3124 VRB05KT 9999 SCT050"
    },
    {
      "icao": "LIPR",
      "alert": "OK",
      "vis_m": 2500,
      "fzfg": false,
      "metar_trigger": false,
      "taf_trigger": false,
      "metar": "METAR LIPR 310150Z AUTO VRB01KT 2500 BR BKN073/// 03/03 Q1019",
      "taf": "TAF LIPR 302300Z 3100/3124 29005KT 3000 BR BKN020"
    },
    {
      "icao": "LIPX",
      "alert": "OK",
      "vis_m": 9999,
      "fzfg": false,
      "metar_trigger": false,
      "taf_trigger": false,
      "metar": "METAR LIPX 310150Z 35005KT 9999 BKN045 01/M04 Q1020",
      "taf": "TAF LIPX 302300Z 3100/3124 VRB05KT 9999 SCT040"
    },
    {
      "icao": "LIPY",
      "alert": "OK",
      "vis_m": 9999,
      "fzfg": false,
      "metar_trigger": false,
      "taf_trigger": false,
      "metar": "METAR LIPY 310150Z AUTO 13005KT 100V160 9999 OVC090/// 07/M04 Q1019",
      "taf": "TAF LIPY 302300Z 3100/3124 13006KT 6000 SCT045"
    },
    {
      "icao": "LIPZ",
      "alert": "OK",
      "vis_m": 9999,
      "fzfg": false,
      "metar_trigger": false,
      "taf_trigger": false,
      "metar": "METAR LIPZ 310150Z 36003KT CAVOK 00/M05 Q1020 NOSIG",
      "taf": "TAF LIPZ 302300Z 3100/0106 03006KT 9999 SCT040"
    },
    {
      "icao": "LIRF",
      "alert": "OK",
      "vis_m": 9999,
      "fzfg": false,
      "metar_trigger": false,
      "taf_trigger": false,
      "metar": "METAR LIRF 310150Z 06007KT CAVOK 06/01 Q1014 NOSIG",
      "taf": "TAF LIRF 302300Z 3100/0106 03012KT 9999 SCT030"
    },
    {
      "icao": "LIRN",
      "alert": "OK",
      "vis_m": 9999,
      "fzfg": false,
      "metar_trigger": false,
      "taf_trigger": false,
      "metar": "METAR LIRN 310120Z 04011KT CAVOK 08/M00 Q1014 NOSIG",
      "taf": "TAF LIRN 302300Z 3100/3124 05015KT CAVOK"
    },
    {
      "icao": "LIRP",
      "alert": "OK",
      "vis_m": 9999,
      "fzfg": false,
      "metar_trigger": false,
      "taf_trigger": false,
      "metar": "METAR LIRP 310145Z 10005KT 9999 BKN050 06/03 Q1015 NOSIG",
      "taf": "TAF LIRP 302300Z 3100/3124 09011KT 9999 FEW050"
    },
    {
      "icao": "LIRZ",
      "alert": "OK",
      "vis_m": 9999,
      "fzfg": false,
      "metar_trigger": false,
      "taf_trigger": false,
      "metar": "METAR LIRZ 310150Z AUTO 03010KT 9999 NCD 04/M03 Q1016",
      "taf": "TAF LIRZ 302300Z 3100/3124 04010KT CAVOK"
    },
    {
      "icao": "LJLJ",
      "alert": "OK",
      "vis_m": 9999,
      "fzfg": false,
      "metar_trigger": false,
      "taf_trigger": false,
      "metar": "METAR LJLJ 310130Z VRB02KT 9999 0500SE R30/0250D PRFG FEW001 M08/M08 Q1020 NOSIG",
      "taf": "TAF LJLJ 302300Z 3100/0100 VRB02KT 9999 SCT045 BKN075"
    },
    {
      "icao": "LKMT",
      "alert": "OK",
      "vis_m": 9999,
      "fzfg": false,
      "metar_trigger": false,
      "taf_trigger": false,
      "metar": "METAR LKMT 310200Z 23010KT 9999 FEW036 SCT048 M05/M08 Q1017 NOSIG",
      "taf": "TAF LKMT 302300Z 3100/3124 32008KT 9999 SCT020"
    },
    {
      "icao": "LKPR",
      "alert": "OK",
      "vis_m": 9999,
      "fzfg": false,
      "metar_trigger": false,
      "taf_trigger": false,
      "metar": "METAR LKPR 310200Z 25013KT 9999 SCT028 BKN042 M04/M07 Q1021 NOSIG",
      "taf": "TAF LKPR 302300Z 3100/0106 29013KT 9999 SCT025 BKN040"
    },
    {
      "icao": "LLBG",
      "alert": "OK",
      "vis_m": 9999,
      "fzfg": false,
      "metar_trigger": false,
      "taf_trigger": false,
      "metar": "METAR LLBG 310150Z 15007KT CAVOK 12/07 Q1015 NOSIG",
      "taf": "TAF LLBG 302311Z 3100/3124 15007KT CAVOK"
    },
    {
      "icao": "LMML",
      "alert": "OK",
      "vis_m": 9999,
      "fzfg": false,
      "metar_trigger": false,
      "taf_trigger": false,
      "metar": "METAR LMML 310145Z 25005KT 220V280 9999 FEW020TCU 12/10 Q1014 RETS NOSIG",
      "taf": "TAF LMML 302300Z 3100/3124 30012KT 9999 SCT020TCU"
    },
    {
      "icao": "LOWW",
      "alert": "OK",
      "vis_m": 9999,
      "fzfg": false,
      "metar_trigger": false,
      "taf_trigger": false,
      "metar": "METAR LOWW 310150Z 32019KT 9999 FEW050 M01/M09 Q1020 NOSIG",
      "taf": "TAF LOWW 302315Z 3100/0106 31015KT CAVOK TX02/0106Z TNM03/3106Z"
    },
    {
      "icao": "LPFR",
      "alert": "OK",
      "vis_m": 9999,
      "fzfg": false,
      "metar_trigger": false,
      "taf_trigger": false,
      "metar": "METAR LPFR 310130Z 03008KT CAVOK 11/10 Q1019",
      "taf": "TAF LPFR 302300Z 3100/3124 03007KT CAVOK"
    },
    {
      "icao": "LPMA",
      "alert": "OK",
      "vis_m": 9999,
      "fzfg": false,
      "metar_trigger": false,
      "taf_trigger": false,
      "metar": "METAR LPMA 310130Z VRB01KT 9999 FEW015 16/13 Q1018",
      "taf": "TAF LPMA 302300Z 3100/3124 VRB05KT 9999 SCT013"
    },
    {
      "icao": "LPPR",
      "alert": "OK",
      "vis_m": 5000,
      "fzfg": false,
      "metar_trigger": false,
      "taf_trigger": false,
      "metar": "METAR LPPR 310130Z VRB02KT 5000 BR NSC 06/06 Q1020",
      "taf": "TAF LPPR 302300Z 3100/3124 09005KT CAVOK"
    },
    {
      "icao": "LPPS",
      "alert": "OK",
      "vis_m": 9999,
      "fzfg": false,
      "metar_trigger": false,
      "taf_trigger": false,
      "metar": "METAR LPPS 310130Z 27004KT 9999 SCT010 17/16 Q1018",
      "taf": "TAF LPPS 302300Z 3100/0106 27005KT 9999 SCT010"
    },
    {
      "icao": "LPPT",
      "alert": "OK",
      "vis_m": 8000,
      "fzfg": false,
      "metar_trigger": false,
      "taf_trigger": false,
      "metar": "METAR LPPT 310130Z 35004KT 330V060 8000 FEW001 07/07 Q1020",
      "taf": "TAF LPPT 302300Z 3100/0106 05005KT 5000 BR SCT003"
    },
    {
      "icao": "LQBK",
      "alert": "OK",
      "vis_m": 9999,
      "fzfg": false,
      "metar_trigger": false,
      "taf_trigger": false,
      "metar": "METAR LQBK 310130Z 14003KT 090V170 CAVOK M06/M07 Q1022 NOSIG",
      "taf": "TAF LQBK 302300Z 3100/3124 16005KT CAVOK TX01/3113Z TNM08/3105Z"
    },
    {
      "icao": "LQSA",
      "alert": "OK",
      "vis_m": 9999,
      "fzfg": false,
      "metar_trigger": false,
      "taf_trigger": false,
      "metar": "METAR LQSA 310130Z 13004KT 9999 FEW040 M08/M09 Q1019",
      "taf": "TAF LQSA 302300Z 3100/3124 29005KT 9999 SCT040 TXM00/3113Z TNM10/3106Z"
    },
    {
      "icao": "LQTZ",
      "alert": "OK",
      "vis_m": 6000,
      "fzfg": false,
      "metar_trigger": false,
      "taf_trigger": false,
      "metar": "METAR LQTZ 310130Z VRB02KT 6000 NSC M08/M08 Q1020",
      "taf": "TAF LQTZ 302300Z 3100/3124 27006KT CAVOK TX02/3113Z TNM09/3105Z"
    },
    {
      "icao": "LRBC",
      "alert": "OK",
      "vis_m": 9999,
      "fzfg": false,
      "metar_trigger": false,
      "taf_trigger": false,
      "metar": "METAR LRBC 310130Z 28004KT 250V330 CAVOK M05/M13 Q1007",
      "taf": "TAF LRBC 302300Z 3100/3109 VRB04KT 9999 BKN045"
    },
    {
      "icao": "LRBS",
      "alert": "OK",
      "vis_m": 9999,
      "fzfg": false,
      "metar_trigger": false,
      "taf_trigger": false,
      "metar": "METAR LRBS 310130Z 29005KT 260V320 9999 BKN240 M04/M09 Q1012 NOSIG",
      "taf": "TAF LRBS 302300Z 3100/3124 27007KT CAVOK"
    },
    {
      "icao": "LRBV",
      "alert": "OK",
      "vis_m": 9999,
      "fzfg": false,
      "metar_trigger": false,
      "taf_trigger": false,
      "metar": "METAR LRBV 310130Z AUTO 31009KT 9999 NCD M06/M12 Q1009",
      "taf": "TAF LRBV 302000Z 3021/3106 28008KT 9999 SCT050"
    },
    {
      "icao": "LRCL",
      "alert": "OK",
      "vis_m": 9999,
      "fzfg": false,
      "metar_trigger": false,
      "taf_trigger": false,
      "metar": "METAR LRCL 310130Z 25007KT CAVOK M07/M11 Q1011",
      "taf": "TAF LRCL 302300Z 3100/3109 28008KT 9999 BKN040"
    },
    {
      "icao": "LRCV",
      "alert": "OK",
      "vis_m": 9999,
      "fzfg": false,
      "metar_trigger": false,
      "taf_trigger": false,
      "metar": "METAR LRCV 310130Z 28008KT CAVOK M06/M09 Q1014",
      "taf": "TAF LRCV 302300Z 3100/3109 30010KT CAVOK"
    },
    {
      "icao": "LRIA",
      "alert": "OK",
      "vis_m": 9999,
      "fzfg": false,
      "metar_trigger": false,
      "taf_trigger": false,
      "metar": "METAR LRIA 310130Z 24008KT CAVOK M02/M12 Q1005",
      "taf": "TAF LRIA 302300Z 3100/3109 26008KT CAVOK"
    },
    {
      "icao": "LROP",
      "alert": "OK",
      "vis_m": 9999,
      "fzfg": false,
      "metar_trigger": false,
      "taf_trigger": false,
      "metar": "METAR LROP 310130Z 28009KT CAVOK M05/M10 Q1012 NOSIG",
      "taf": "TAF LROP 302300Z 3100/3124 VRB04KT CAVOK"
    },
    {
      "icao": "LRSB",
      "alert": "OK",
      "vis_m": 9999,
      "fzfg": false,
      "metar_trigger": false,
      "taf_trigger": false,
      "metar": "METAR LRSB 310130Z 28004KT CAVOK M07/M12 Q1011",
      "taf": "TAF LRSB 302300Z 3100/3124 29010KT 9999 SCT040"
    },
    {
      "icao": "LRSM",
      "alert": "OK",
      "vis_m": 9999,
      "fzfg": false,
      "metar_trigger": false,
      "taf_trigger": false,
      "metar": "METAR LRSM 310130Z AUTO 26011KT 9999 BKN043/// OVC050/// M05/M09 Q1012",
      "taf": ""
    },
    {
      "icao": "LRSV",
      "alert": "OK",
      "vis_m": 9999,
      "fzfg": false,
      "metar_trigger": false,
      "taf_trigger": false,
      "metar": "METAR LRSV 310130Z 27010KT CAVOK M05/M12 Q1003",
      "taf": "TAF LRSV 302300Z 3100/3109 26010KT CAVOK"
    },
    {
      "icao": "LRTM",
      "alert": "OK",
      "vis_m": 9999,
      "fzfg": false,
      "metar_trigger": false,
      "taf_trigger": false,
      "metar": "METAR LRTM 310130Z AUTO 25004KT 9999 R25////// SCT100/// M08/M11 Q1011",
      "taf": ""
    },
    {
      "icao": "LRTR",
      "alert": "OK",
      "vis_m": 9999,
      "fzfg": false,
      "metar_trigger": false,
      "taf_trigger": false,
      "metar": "METAR LRTR 310130Z VRB01KT CAVOK M06/M08 Q1016",
      "taf": "TAF LRTR 302300Z 3100/3124 29009KT CAVOK"
    },
    {
      "icao": "LTAC",
      "alert": "OK",
      "vis_m": 7000,
      "fzfg": false,
      "metar_trigger": false,
      "taf_trigger": false,
      "metar": "METAR LTAC 310150Z 17005KT 7000 FEW015 BKN023 BKN080 02/00 Q1002 RESNRA TEMPO 2000 BR RMK RWY21C VRB01KT RWY03L 17004KT 150V210 RWY21R 00000KT RWY03R 19004KT RWY21L VRB02KT",
      "taf": "TAF LTAC 302240Z 3100/3124 VRB02KT 9999 SCT040 BKN100"
    },
    {
      "icao": "LTFM",
      "alert": "OK",
      "vis_m": 9999,
      "fzfg": false,
      "metar_trigger": false,
      "taf_trigger": false,
      "metar": "METAR LTFM 310150Z 33018KT 9999 BKN023 04/M01 Q1010 RESHRASN NOSIG RMK RWY17L 33020KT RWY34L 32015KT RWY16R 32014KT RWY36 34014KT RWY18 34019KT",
      "taf": "TAF LTFM 302240Z 3100/0106 35015KT 9999 SCT025"
    },
    {
      "icao": "LUKK",
      "alert": "OK",
      "vis_m": 9999,
      "fzfg": false,
      "metar_trigger": false,
      "taf_trigger": false,
      "metar": "METAR LUKK 310130Z 27011KT CAVOK M04/M10 Q1005 NOSIG",
      "taf": "TAF LUKK 302318Z 3100/3124 29012KT 9999 SCT035"
    },
    {
      "icao": "LWOH",
      "alert": "OK",
      "vis_m": null,
      "fzfg": false,
      "metar_trigger": false,
      "taf_trigger": false,
      "metar": "",
      "taf": "TAF LWOH 302350Z 3100/3124 33010KT 9999 SCT040 BKN070"
    },
    {
      "icao": "LWSK",
      "alert": "OK",
      "vis_m": 9999,
      "fzfg": false,
      "metar_trigger": false,
      "taf_trigger": false,
      "metar": "METAR LWSK 310150Z 03011KT 9999 FEW060 BKN085 M01/M09 Q1017 NOSIG",
      "taf": "TAF LWSK 302350Z 3100/3124 01010KT 9999 FEW060 SCT090"
    },
    {
      "icao": "LYBE",
      "alert": "OK",
      "vis_m": 9999,
      "fzfg": false,
      "metar_trigger": false,
      "taf_trigger": false,
      "metar": "METAR LYBE 310130Z 26007KT CAVOK M04/M07 Q1019 NOSIG",
      "taf": "TAF LYBE 302300Z 3100/3124 25010KT CAVOK TX00/3112Z TNM06/3106Z"
    },
    {
      "icao": "LYNI",
      "alert": "OK",
      "vis_m": 9999,
      "fzfg": false,
      "metar_trigger": false,
      "taf_trigger": false,
      "metar": "METAR LYNI 310130Z VRB01KT CAVOK M04/M09 Q1018 NOSIG",
      "taf": "TAF LYNI 302300Z 3100/3124 28008KT 9999 SCT040 TXM00/3112Z TNM05/3103Z"
    },
    {
      "icao": "LYPG",
      "alert": "OK",
      "vis_m": 9999,
      "fzfg": false,
      "metar_trigger": false,
      "taf_trigger": false,
      "metar": "METAR LYPG 310130Z 35015KT CAVOK 02/M14 Q1015 NOSIG",
      "taf": "TAF LYPG 302300Z 3100/3124 01015G25KT CAVOK TX07/3112Z TN02/3105Z"
    },
    {
      "icao": "LZIB",
      "alert": "OK",
      "vis_m": 9999,
      "fzfg": false,
      "metar_trigger": false,
      "taf_trigger": false,
      "metar": "METAR LZIB 310200Z 31015KT CAVOK M02/M07 Q1019 NOSIG",
      "taf": "TAF LZIB 302315Z 3100/0100 31012KT 9999 FEW035"
    },
    {
      "icao": "LZKZ",
      "alert": "OK",
      "vis_m": 9999,
      "fzfg": false,
      "metar_trigger": false,
      "taf_trigger": false,
      "metar": "METAR LZKZ 310200Z 32009KT CAVOK M02/M11 Q1011 NOSIG",
      "taf": "TAF LZKZ 302315Z 3100/0100 30009KT 9999 FEW045"
    },
    {
      "icao": "LZTT",
      "alert": "OK",
      "vis_m": 9999,
      "fzfg": false,
      "metar_trigger": false,
      "taf_trigger": false,
      "metar": "METAR LZTT 310200Z 32015G29KT 270V010 9999 SCT040 M06/M14 Q1009",
      "taf": "TAF LZTT 302315Z 3100/0100 26009KT 9999 -SN FEW012 BKN040"
    },
    {
      "icao": "OEJN",
      "alert": "OK",
      "vis_m": 9999,
      "fzfg": false,
      "metar_trigger": false,
      "taf_trigger": false,
      "metar": "METAR OEJN 310200Z 01005KT CAVOK 18/07 Q1014 NOSIG",
      "taf": "TAF OEJN 302300Z 3100/0106 VRB03KT 7000 NSC"
    },
    {
      "icao": "OEMA",
      "alert": "OK",
      "vis_m": 9999,
      "fzfg": false,
      "metar_trigger": false,
      "taf_trigger": false,
      "metar": "METAR OEMA 310200Z 05008KT CAVOK 14/M03 Q1020 NOSIG",
      "taf": "TAF OEMA 302300Z 3100/0106 11008KT CAVOK"
    },
    {
      "icao": "OJAI",
      "alert": "OK",
      "vis_m": 4000,
      "fzfg": false,
      "metar_trigger": false,
      "taf_trigger": false,
      "metar": "METAR OJAI 310200Z 14004KT 4000 BR NSC 05/04 Q1018 NOSIG",
      "taf": "TAF OJAI 302247Z 3100/0106 VRB02KT 4000 BR FEW030"
    },
    {
      "icao": "OMAA",
      "alert": "OK",
      "vis_m": 9999,
      "fzfg": false,
      "metar_trigger": false,
      "taf_trigger": false,
      "metar": "METAR OMAA 310200Z 31020KT 9999 FEW045 20/10 Q1017 NOSIG",
      "taf": "TAF OMAA 302300Z 3100/0106 31013KT 8000 FEW040"
    },
    {
      "icao": "OMDB",
      "alert": "OK",
      "vis_m": 9999,
      "fzfg": false,
      "metar_trigger": false,
      "taf_trigger": false,
      "metar": "METAR OMDB 310200Z 29016KT CAVOK 21/08 Q1016 TEMPO 28020G30KT",
      "taf": "TAF OMDB 302300Z 3100/0106 29012KT 8000 FEW040"
    },
    {
      "icao": "UAAA",
      "alert": "OK",
      "vis_m": 5000,
      "fzfg": false,
      "metar_trigger": false,
      "taf_trigger": false,
      "metar": "METAR UAAA 310130Z 22003MPS 5000 BR SCT100 BKN200 02/M01 Q1009 NOSIG",
      "taf": "TAF UAAA 302301Z 3100/3124 29003MPS 3100 BR FU SCT050CB BKN100 TX07/3109Z TNM02/3101Z"
    },
    {
      "icao": "UBBB",
      "alert": "OK",
      "vis_m": 9999,
      "fzfg": false,
      "metar_trigger": false,
      "taf_trigger": false,
      "metar": "METAR UBBB 310200Z 20021G31KT CAVOK 06/M04 Q1008 NOSIG",
      "taf": "TAF UBBB 302301Z 3100/3124 19018G28KT CAVOK TX10/3110Z TN04/3103Z"
    },
    {
      "icao": "UDSG",
      "alert": "OK",
      "vis_m": 9999,
      "fzfg": false,
      "metar_trigger": false,
      "taf_trigger": false,
      "metar": "METAR UDSG 310130Z 09002KT 9999 NSC M13/M16 Q1014 NOSIG",
      "taf": "TAF UDSG 302258Z 3100/3124 VRB06KT 9999 BKN040"
    },
    {
      "icao": "UDYZ",
      "alert": "OK",
      "vis_m": 9999,
      "fzfg": false,
      "metar_trigger": false,
      "taf_trigger": false,
      "metar": "METAR UDYZ 310130Z 24002KT 9999 NSC M09/M12 Q1017 NOSIG",
      "taf": "TAF UDYZ 302300Z 3100/3124 VRB06KT 6000 NSC"
    },
    {
      "icao": "UGKO",
      "alert": "OK",
      "vis_m": 9999,
      "fzfg": false,
      "metar_trigger": false,
      "taf_trigger": false,
      "metar": "METAR UGKO 310130Z 08015G25KT CAVOK 02/M04 Q1008 NOSIG",
      "taf": "TAF UGKO 302300Z 3100/3124 08015KT CAVOK TX04/3112Z TNM01/3102Z"
    }
  ]
}