{
  "ts_utc": "2026-04-02T07:22:40Z",
  "threshold_m": 150,
  "source": "stations_override.txt (ICAO list) + aviationweather.gov (METAR/TAF raw)",
  "station_count": 159,
  "stations": [
    {
      "icao": "BIKF",
      "alert": "OK",
      "vis_m": 1200,
      "fzfg": false,
      "metar_trigger": false,
      "taf_trigger": false,
      "metar": "METAR BIKF 020700Z 23011KT 1200 R19/P1500N -SN BR OVC004 00/00 Q0995",
      "taf": ""
    },
    {
      "icao": "BKPR",
      "alert": "OK",
      "vis_m": 9999,
      "fzfg": false,
      "metar_trigger": false,
      "taf_trigger": false,
      "metar": "METAR BKPR 020600Z 01017KT 9999 -RA SCT015 BKN030 07/06 Q0998 NOSIG",
      "taf": "TAF BKPR 020530Z 0206/0306 01018KT 9999 SCT015 BKN030"
    },
    {
      "icao": "EBCI",
      "alert": "OK",
      "vis_m": 7000,
      "fzfg": false,
      "metar_trigger": false,
      "taf_trigger": false,
      "metar": "METAR EBCI 020650Z 22007KT 7000 -RADZ FEW015 BKN030 06/04 Q1018 TEMPO 3500 -RADZ BR BKN004",
      "taf": "TAF EBCI 020503Z 0206/0312 26005KT 8000 SCT007 BKN025 BKN040"
    },
    {
      "icao": "EDDB",
      "alert": "OK",
      "vis_m": 9999,
      "fzfg": true,
      "metar_trigger": false,
      "taf_trigger": false,
      "metar": "METAR EDDB 020650Z AUTO VRB02KT 2200 0300 R24R/P2000N R24L/0650U BCFG VV004 01/00 Q1018 BECMG CAVOK",
      "taf": "TAF EDDB 020500Z 0206/0306 23004KT 0300 FZFG BKN001"
    },
    {
      "icao": "EDDH",
      "alert": "OK",
      "vis_m": 9999,
      "fzfg": false,
      "metar_trigger": false,
      "taf_trigger": false,
      "metar": "METAR EDDH 020650Z AUTO 17005KT CAVOK 07/03 Q1016 NOSIG",
      "taf": "TAF EDDH 020500Z 0206/0312 18004KT CAVOK"
    },
    {
      "icao": "EDDK",
      "alert": "OK",
      "vis_m": 9999,
      "fzfg": false,
      "metar_trigger": false,
      "taf_trigger": false,
      "metar": "METAR EDDK 020650Z AUTO 14004KT 110V170 CAVOK 04/M00 Q1017 NOSIG",
      "taf": "TAF EDDK 020500Z 0206/0312 12004KT CAVOK"
    },
    {
      "icao": "EDDN",
      "alert": "OK",
      "vis_m": 9999,
      "fzfg": false,
      "metar_trigger": false,
      "taf_trigger": false,
      "metar": "METAR EDDN 020650Z AUTO 32003KT CAVOK 00/M02 Q1017 NOSIG",
      "taf": "TAF EDDN 020500Z 0206/0306 VRB02KT CAVOK"
    },
    {
      "icao": "EDDS",
      "alert": "OK",
      "vis_m": 9999,
      "fzfg": false,
      "metar_trigger": false,
      "taf_trigger": false,
      "metar": "METAR EDDS 020650Z AUTO VRB01KT CAVOK 03/M01 Q1016 NOSIG",
      "taf": "TAF EDDS 020500Z 0206/0306 VRB01KT CAVOK"
    },
    {
      "icao": "EDFH",
      "alert": "OK",
      "vis_m": 9999,
      "fzfg": false,
      "metar_trigger": false,
      "taf_trigger": false,
      "metar": "METAR EDFH 020650Z 24005KT CAVOK 05/M02 Q1017",
      "taf": "TAF EDFH 020500Z 0206/0306 17004KT CAVOK"
    },
    {
      "icao": "EDJA",
      "alert": "OK",
      "vis_m": 9999,
      "fzfg": false,
      "metar_trigger": false,
      "taf_trigger": false,
      "metar": "METAR EDJA 020650Z 04004KT CAVOK M01/M03 Q1015",
      "taf": "TAF EDJA 020500Z 0206/0215 05005KT 9999 FEW045"
    },
    {
      "icao": "EDLW",
      "alert": "OK",
      "vis_m": 9999,
      "fzfg": false,
      "metar_trigger": false,
      "taf_trigger": false,
      "metar": "METAR EDLW 020650Z 17009KT CAVOK 06/M01 Q1016",
      "taf": "TAF EDLW 020500Z 0206/0306 18008KT CAVOK"
    },
    {
      "icao": "EDNY",
      "alert": "OK",
      "vis_m": 9999,
      "fzfg": false,
      "metar_trigger": false,
      "taf_trigger": false,
      "metar": "METAR EDNY 020650Z 04006KT CAVOK 02/M01 Q1016",
      "taf": "TAF EDNY 020500Z 0206/0215 04006KT CAVOK"
    },
    {
      "icao": "EDSB",
      "alert": "OK",
      "vis_m": 9999,
      "fzfg": false,
      "metar_trigger": false,
      "taf_trigger": false,
      "metar": "METAR EDSB 020650Z VRB01KT CAVOK 02/M00 Q1018",
      "taf": "TAF EDSB 020500Z 0206/0306 VRB02KT CAVOK"
    },
    {
      "icao": "EETN",
      "alert": "OK",
      "vis_m": 9999,
      "fzfg": false,
      "metar_trigger": false,
      "taf_trigger": false,
      "metar": "METAR EETN 020720Z 20013KT CAVOK 05/01 Q1013 NOSIG",
      "taf": "TAF EETN 020530Z 0206/0306 19010KT 9999 SCT003"
    },
    {
      "icao": "EFTU",
      "alert": "OK",
      "vis_m": 9999,
      "fzfg": false,
      "metar_trigger": false,
      "taf_trigger": false,
      "metar": "METAR EFTU 020720Z AUTO 20008KT 9999 FEW009 06/03 Q1010",
      "taf": "TAF EFTU 020532Z 0206/0306 18005KT 9999 BKN045"
    },
    {
      "icao": "EGBB",
      "alert": "OK",
      "vis_m": 9999,
      "fzfg": false,
      "metar_trigger": false,
      "taf_trigger": false,
      "metar": "METAR EGBB 020650Z 36005KT 9999 SCT010 BKN016 05/04 Q1022",
      "taf": "TAF EGBB 020457Z 0206/0306 33010KT 9999 SCT025"
    },
    {
      "icao": "EGGP",
      "alert": "OK",
      "vis_m": 9999,
      "fzfg": false,
      "metar_trigger": false,
      "taf_trigger": false,
      "metar": "METAR EGGP 020650Z 05004KT 010V080 9999 BKN031 05/02 Q1022",
      "taf": "TAF EGGP 020504Z 0206/0306 VRB03KT 9999 FEW015 SCT030"
    },
    {
      "icao": "EGGW",
      "alert": "OK",
      "vis_m": 9999,
      "fzfg": false,
      "metar_trigger": false,
      "taf_trigger": false,
      "metar": "METAR EGGW 020650Z AUTO 35007KT 9999 OVC018 04/02 Q1020",
      "taf": "TAF EGGW 020458Z 0206/0306 33008KT 9999 SCT025"
    },
    {
      "icao": "EGKK",
      "alert": "OK",
      "vis_m": 9999,
      "fzfg": false,
      "metar_trigger": false,
      "taf_trigger": false,
      "metar": "METAR EGKK 020650Z 32007KT 290V360 9999 FEW030 06/02 Q1020",
      "taf": "TAF EGKK 020455Z 0206/0312 34009KT 9999 FEW030"
    },
    {
      "icao": "EGNM",
      "alert": "OK",
      "vis_m": 9999,
      "fzfg": false,
      "metar_trigger": false,
      "taf_trigger": false,
      "metar": "METAR EGNM 020650Z 32006KT CAVOK 02/M00 Q1021",
      "taf": "TAF EGNM 020503Z 0206/0306 34004KT 9999 FEW015 SCT030"
    },
    {
      "icao": "EGPD",
      "alert": "OK",
      "vis_m": 9999,
      "fzfg": false,
      "metar_trigger": false,
      "taf_trigger": false,
      "metar": "METAR EGPD 020650Z COR AUTO 28008KT 9999 NCD 03/M00 Q1020 NOSIG",
      "taf": "TAF EGPD 020456Z 0206/0306 28007KT 9999 FEW040"
    },
    {
      "icao": "EGPF",
      "alert": "OK",
      "vis_m": 9999,
      "fzfg": false,
      "metar_trigger": false,
      "taf_trigger": false,
      "metar": "METAR EGPF 020650Z AUTO VRB02KT 9999 NCD M01/M01 Q1022",
      "taf": "TAF EGPF 020449Z 0206/0306 VRB02KT 9999 FEW040"
    },
    {
      "icao": "EHBK",
      "alert": "OK",
      "vis_m": 9999,
      "fzfg": false,
      "metar_trigger": false,
      "taf_trigger": false,
      "metar": "METAR EHBK 020655Z AUTO 20009KT 9999 SCT036/// 05/01 Q1017 BECMG 7000 -RADZ BKN008",
      "taf": "TAF EHBK 020514Z 0206/0312 20007KT CAVOK"
    },
    {
      "icao": "EHEH",
      "alert": "OK",
      "vis_m": 3400,
      "fzfg": false,
      "metar_trigger": false,
      "taf_trigger": false,
      "metar": "METAR EHEH 020655Z AUTO 22004KT 3400 R21/P3000N BR SCT004 OVC024 07/07 Q1016 REDZ YLO TEMPO 3000 BR SCT005 BKN007 RMK TREND REMOTE BY EHWX",
      "taf": "TAF EHEH 020513Z 0206/0312 19004KT 9999 SCT008"
    },
    {
      "icao": "EKBI",
      "alert": "OK",
      "vis_m": 9999,
      "fzfg": false,
      "metar_trigger": false,
      "taf_trigger": false,
      "metar": "METAR EKBI 020650Z AUTO 20005KT 170V240 9999 OVC008/// 06/05 Q1013",
      "taf": "TAF EKBI 020527Z 0206/0306 19006KT 9999 BKN012"
    },
    {
      "icao": "EKCH",
      "alert": "OK",
      "vis_m": 9999,
      "fzfg": false,
      "metar_trigger": false,
      "taf_trigger": false,
      "metar": "METAR EKCH 020650Z AUTO 20006KT 9999 NCD 06/04 Q1015 NOSIG",
      "taf": ""
    },
    {
      "icao": "ENAL",
      "alert": "OK",
      "vis_m": 9999,
      "fzfg": false,
      "metar_trigger": false,
      "taf_trigger": false,
      "metar": "METAR ENAL 020650Z 32003KT 210V020 9999 FEW031 SCT038 02/M04 Q1015",
      "taf": "TAF ENAL 020500Z 0206/0215 34008KT 9999 FEW015 BKN030"
    },
    {
      "icao": "ENBR",
      "alert": "OK",
      "vis_m": 9999,
      "fzfg": false,
      "metar_trigger": false,
      "taf_trigger": false,
      "metar": "METAR ENBR 020650Z 33014KT CAVOK 02/M02 Q1012 NOSIG RMK WIND 1200FT 34024G35KT",
      "taf": "TAF ENBR 020500Z 0206/0306 34012KT CAVOK"
    },
    {
      "icao": "ENGM",
      "alert": "OK",
      "vis_m": 9999,
      "fzfg": false,
      "metar_trigger": false,
      "taf_trigger": false,
      "metar": "METAR ENGM 020650Z VRB01KT 9999 -RA BKN007 05/04 Q1008 TEMPO 4000 RADZ BR",
      "taf": "TAF ENGM 020500Z 0206/0306 20008KT 9999 BKN008"
    },
    {
      "icao": "ENHD",
      "alert": "OK",
      "vis_m": 9999,
      "fzfg": false,
      "metar_trigger": false,
      "taf_trigger": false,
      "metar": "METAR ENHD 020650Z AUTO 34032KT 9999 NCD 05/M01 Q1010",
      "taf": "TAF ENHD 020500Z 0206/0215 35022KT 9999 FEW015 SCT040"
    },
    {
      "icao": "ENTC",
      "alert": "OK",
      "vis_m": 9999,
      "fzfg": false,
      "metar_trigger": false,
      "taf_trigger": false,
      "metar": "METAR ENTC 020650Z 21031KT 9999 -DZRA FEW023 SCT031 BKN047 02/M02 Q0994 TEMPO 1500 -SHSNRA BKN008 RMK WIND 2600FT 20036G46KT",
      "taf": ""
    },
    {
      "icao": "ENTO",
      "alert": "OK",
      "vis_m": 3000,
      "fzfg": false,
      "metar_trigger": false,
      "taf_trigger": false,
      "metar": "METAR ENTO 020650Z 21010KT 3000 BR OVC001 05/05 Q1008 TEMPO OVC003",
      "taf": ""
    },
    {
      "icao": "ENVA",
      "alert": "OK",
      "vis_m": 9999,
      "fzfg": false,
      "metar_trigger": false,
      "taf_trigger": false,
      "metar": "METAR ENVA 020650Z 23009KT 9999 FEW018 SCT029 BKN046 02/M01 Q1013 TEMPO 4000 SHRASN SCT020CB RMK WIND 670FT 24007KT",
      "taf": "TAF ENVA 020500Z 0206/0306 24005KT 8000 -RASN SCT007 BKN016"
    },
    {
      "icao": "ENZV",
      "alert": "OK",
      "vis_m": 9999,
      "fzfg": false,
      "metar_trigger": false,
      "taf_trigger": false,
      "metar": "METAR ENZV 020650Z 34018KT 9999 VCSH SCT033 BKN046 04/M02 Q1010 NOSIG",
      "taf": "TAF ENZV 020500Z 0206/0306 33012KT 9999 BKN020"
    },
    {
      "icao": "EPGD",
      "alert": "OK",
      "vis_m": 9999,
      "fzfg": false,
      "metar_trigger": false,
      "taf_trigger": false,
      "metar": "METAR EPGD 020700Z 25005KT CAVOK 04/00 Q1017",
      "taf": "TAF EPGD 020530Z 0206/0306 VRB04KT CAVOK"
    },
    {
      "icao": "EPKK",
      "alert": "OK",
      "vis_m": 8000,
      "fzfg": false,
      "metar_trigger": false,
      "taf_trigger": false,
      "metar": "METAR EPKK 020700Z 23002KT 8000 BKN040 05/02 Q1014",
      "taf": "TAF EPKK 020530Z 0206/0306 VRB02KT 8000 NSC"
    },
    {
      "icao": "EPKT",
      "alert": "OK",
      "vis_m": 9999,
      "fzfg": false,
      "metar_trigger": false,
      "taf_trigger": false,
      "metar": "METAR EPKT 020700Z 02006KT CAVOK 05/M00 Q1014",
      "taf": "TAF EPKT 020530Z 0206/0306 02004KT CAVOK"
    },
    {
      "icao": "EPLB",
      "alert": "OK",
      "vis_m": 9999,
      "fzfg": false,
      "metar_trigger": false,
      "taf_trigger": false,
      "metar": "METAR EPLB 020700Z 02005KT CAVOK 08/02 Q1013",
      "taf": "TAF EPLB 020530Z 0206/0306 36006KT 9999 FEW030"
    },
    {
      "icao": "EPMO",
      "alert": "OK",
      "vis_m": 9999,
      "fzfg": false,
      "metar_trigger": false,
      "taf_trigger": false,
      "metar": "METAR EPMO 020700Z 03006KT 360V060 CAVOK 06/M00 Q1016",
      "taf": "TAF EPMO 020530Z 0206/0306 01006KT CAVOK"
    },
    {
      "icao": "EPPO",
      "alert": "OK",
      "vis_m": 9999,
      "fzfg": false,
      "metar_trigger": false,
      "taf_trigger": false,
      "metar": "METAR EPPO 020700Z VRB02KT CAVOK 07/00 Q1017",
      "taf": "TAF EPPO 020530Z 0206/0306 34003KT CAVOK"
    },
    {
      "icao": "EPRA",
      "alert": "OK",
      "vis_m": 9999,
      "fzfg": false,
      "metar_trigger": false,
      "taf_trigger": false,
      "metar": "METAR EPRA 020700Z 01005KT 340V040 CAVOK 06/M01 Q1014",
      "taf": "TAF EPRA 020530Z 0206/0215 36008KT CAVOK"
    },
    {
      "icao": "EPRZ",
      "alert": "OK",
      "vis_m": 9999,
      "fzfg": false,
      "metar_trigger": false,
      "taf_trigger": false,
      "metar": "METAR EPRZ 020700Z 34005KT CAVOK 07/02 Q1012",
      "taf": "TAF EPRZ 020530Z 0206/0306 32005KT 9999 BKN043"
    },
    {
      "icao": "EPSC",
      "alert": "OK",
      "vis_m": 9999,
      "fzfg": false,
      "metar_trigger": false,
      "taf_trigger": false,
      "metar": "METAR EPSC 020700Z 15004KT 9999 SCT048 05/02 Q1017",
      "taf": "TAF EPSC 020530Z 0206/0306 VRB02KT CAVOK"
    },
    {
      "icao": "EPSY",
      "alert": "OK",
      "vis_m": 9999,
      "fzfg": false,
      "metar_trigger": false,
      "taf_trigger": false,
      "metar": "METAR EPSY 020700Z VRB03KT CAVOK 04/M00 Q1016",
      "taf": "TAF EPSY 020530Z 0206/0215 01006KT CAVOK"
    },
    {
      "icao": "EPWA",
      "alert": "OK",
      "vis_m": 9999,
      "fzfg": false,
      "metar_trigger": false,
      "taf_trigger": false,
      "metar": "METAR EPWA 020700Z 02007KT 360V060 CAVOK 06/M02 Q1015 NOSIG",
      "taf": "TAF EPWA 020530Z 0206/0306 01006KT CAVOK"
    },
    {
      "icao": "EPWR",
      "alert": "OK",
      "vis_m": 9999,
      "fzfg": false,
      "metar_trigger": false,
      "taf_trigger": false,
      "metar": "METAR EPWR 020700Z 30005KT CAVOK 04/01 Q1017",
      "taf": "TAF EPWR 020530Z 0206/0306 28005KT CAVOK"
    },
    {
      "icao": "ESGG",
      "alert": "OK",
      "vis_m": 9999,
      "fzfg": false,
      "metar_trigger": false,
      "taf_trigger": false,
      "metar": "METAR ESGG 020650Z 19009KT 9999 BKN007 05/04 Q1012",
      "taf": "TAF ESGG 020530Z 0206/0306 20009KT 9999 BKN008"
    },
    {
      "icao": "ESKN",
      "alert": "OK",
      "vis_m": 9999,
      "fzfg": false,
      "metar_trigger": false,
      "taf_trigger": false,
      "metar": "METAR ESKN 020650Z 23008KT 9999 FEW037 BKN063 08/06 Q1011",
      "taf": "TAF ESKN 020530Z 0206/0306 23008KT CAVOK"
    },
    {
      "icao": "ESMS",
      "alert": "OK",
      "vis_m": 9999,
      "fzfg": false,
      "metar_trigger": false,
      "taf_trigger": false,
      "metar": "METAR ESMS 020650Z 19006KT CAVOK 05/05 Q1015",
      "taf": "TAF ESMS 020527Z 0206/0306 23007KT CAVOK"
    },
    {
      "icao": "ESSA",
      "alert": "OK",
      "vis_m": 9999,
      "fzfg": false,
      "metar_trigger": false,
      "taf_trigger": false,
      "metar": "METAR ESSA 020650Z 23010KT 9999 BKN009 07/05 Q1010 TEMPO BKN012",
      "taf": "TAF ESSA 020530Z 0206/0306 22008KT 9999 BKN025"
    },
    {
      "icao": "EYKA",
      "alert": "OK",
      "vis_m": 9999,
      "fzfg": false,
      "metar_trigger": false,
      "taf_trigger": false,
      "metar": "METAR EYKA 020720Z 34004KT 310V010 CAVOK 06/M00 Q1016",
      "taf": "TAF EYKA 020500Z 0206/0306 VRB04KT 9000 NSC"
    },
    {
      "icao": "EYPA",
      "alert": "OK",
      "vis_m": 4000,
      "fzfg": false,
      "metar_trigger": false,
      "taf_trigger": false,
      "metar": "METAR EYPA 020720Z 20004KT 160V250 4000 BR OVC002 01/01 Q1017",
      "taf": ""
    },
    {
      "icao": "EYVI",
      "alert": "OK",
      "vis_m": 9999,
      "fzfg": false,
      "metar_trigger": false,
      "taf_trigger": false,
      "metar": "METAR EYVI 020720Z 34005KT 310V020 CAVOK 08/M00 Q1015 NOSIG",
      "taf": "TAF EYVI 020500Z 0206/0306 VRB04KT 9000 NSC"
    },
    {
      "icao": "GCFV",
      "alert": "OK",
      "vis_m": 9999,
      "fzfg": false,
      "metar_trigger": false,
      "taf_trigger": false,
      "metar": "METAR GCFV 020700Z 32006KT 9999 FEW020 16/09 Q1018",
      "taf": "TAF GCFV 020200Z 0203/0303 36007KT CAVOK TX24/0214Z TN16/0206Z"
    },
    {
      "icao": "GCLP",
      "alert": "OK",
      "vis_m": 9999,
      "fzfg": false,
      "metar_trigger": false,
      "taf_trigger": false,
      "metar": "METAR GCLP 020700Z 36013KT 9999 FEW020 17/14 Q1018 NOSIG",
      "taf": "TAF GCLP 020200Z 0203/0303 36012KT CAVOK TX24/0214Z TN18/0206Z"
    },
    {
      "icao": "GCTS",
      "alert": "OK",
      "vis_m": 9999,
      "fzfg": false,
      "metar_trigger": false,
      "taf_trigger": false,
      "metar": "METAR GCTS 020700Z 05009KT CAVOK 19/04 Q1018 WS R07 NOSIG",
      "taf": "TAF GCTS 020200Z 0203/0303 05014KT CAVOK TX25/0214Z TN17/0206Z"
    },
    {
      "icao": "GMAD",
      "alert": "OK",
      "vis_m": 6000,
      "fzfg": false,
      "metar_trigger": false,
      "taf_trigger": false,
      "metar": "METAR GMAD 020700Z 01003KT 6000 NSC 10/10 Q1015 NOSIG",
      "taf": "TAF GMAD 020500Z 0206/0312 07004KT 6000 SCT010"
    },
    {
      "icao": "GMMN",
      "alert": "OK",
      "vis_m": 5000,
      "fzfg": false,
      "metar_trigger": false,
      "taf_trigger": false,
      "metar": "SPECI GMMN 020711Z 14003KT 110V200 5000 SCT002 10/08 Q1019 NOSIG",
      "taf": "TAF GMMN 020500Z 0206/0312 15004KT 8000 BKN006"
    },
    {
      "icao": "GMMX",
      "alert": "OK",
      "vis_m": 9999,
      "fzfg": false,
      "metar_trigger": false,
      "taf_trigger": false,
      "metar": "METAR GMMX 020700Z 09003KT CAVOK 11/08 Q1017 NOSIG",
      "taf": "TAF GMMX 020500Z 0206/0312 06006KT CAVOK"
    },
    {
      "icao": "HEGN",
      "alert": "OK",
      "vis_m": 9999,
      "fzfg": false,
      "metar_trigger": false,
      "taf_trigger": false,
      "metar": "METAR HEGN 020700Z 02005KT 9999 SCT020 BKN025 28/09 Q1009 NOSIG",
      "taf": "TAF HEGN 020500Z 0206/0312 16006G16KT 9999 BKN020"
    },
    {
      "icao": "HEMA",
      "alert": "OK",
      "vis_m": 6000,
      "fzfg": false,
      "metar_trigger": false,
      "taf_trigger": false,
      "metar": "METAR HEMA 020700Z 33016KT 6000 NSC 28/14 Q1009 NOSIG",
      "taf": "TAF HEMA 020500Z 0206/0312 08006G18KT 9999 BKN020"
    },
    {
      "icao": "HESH",
      "alert": "OK",
      "vis_m": 8000,
      "fzfg": false,
      "metar_trigger": false,
      "taf_trigger": false,
      "metar": "METAR HESH 020700Z 36013KT 8000 NSC 24/17 Q1009 NOSIG",
      "taf": "TAF HESH 020500Z 0206/0312 12006G16KT 9999 BKN020"
    },
    {
      "icao": "HESX",
      "alert": "OK",
      "vis_m": 200,
      "fzfg": false,
      "metar_trigger": false,
      "taf_trigger": false,
      "metar": "METAR HESX 020700Z 27008KT 0200 R34/0500 FG 17/15 Q1010 NOSIG",
      "taf": "TAF HESX 020550Z 0206/0312 28010KT 9999 SCT025 BKN070"
    },
    {
      "icao": "LATI",
      "alert": "OK",
      "vis_m": 9999,
      "fzfg": false,
      "metar_trigger": false,
      "taf_trigger": false,
      "metar": "METAR LATI 020720Z 29005KT 230V320 9999 FEW050 OVC070 14/06 Q0993 NOSIG",
      "taf": "TAF LATI 020500Z 0206/0306 35010KT 9999 SCT050 BKN070 TX16/0211Z TN06/0304Z"
    },
    {
      "icao": "LBPD",
      "alert": "OK",
      "vis_m": 9999,
      "fzfg": false,
      "metar_trigger": false,
      "taf_trigger": false,
      "metar": "METAR LBPD 020700Z AUTO 15005KT 9999 -RA BKN017/// OVC023/// 09/08 Q0999 NOSIG",
      "taf": "TAF LBPD 020500Z 0206/0306 11010KT 6000 -RA SCT015 BKN020 OVC030"
    },
    {
      "icao": "LBSF",
      "alert": "OK",
      "vis_m": 9999,
      "fzfg": false,
      "metar_trigger": false,
      "taf_trigger": false,
      "metar": "METAR LBSF 020700Z 09005KT 9999 -RA FEW021 SCT030 OVC038 07/05 Q0998 TEMPO 5000 RA",
      "taf": "TAF LBSF 020500Z 0206/0306 09010KT 6000 -RA SCT015 BKN025 OVC040"
    },
    {
      "icao": "LBWN",
      "alert": "OK",
      "vis_m": 9999,
      "fzfg": false,
      "metar_trigger": false,
      "taf_trigger": false,
      "metar": "METAR LBWN 020700Z 05016G26KT 020V100 9999 -RA FEW016 OVC028 09/09 Q1000 TEMPO 5000 RA",
      "taf": "TAF LBWN 020500Z 0206/0306 05014KT 9999 BKN013 BKN040"
    },
    {
      "icao": "LCLK",
      "alert": "OK",
      "vis_m": 8000,
      "fzfg": false,
      "metar_trigger": false,
      "taf_trigger": false,
      "metar": "METAR LCLK 020700Z 01006KT 8000 FEW010 SCT018 BKN040 17/17 Q1006 NOSIG",
      "taf": ""
    },
    {
      "icao": "LCPH",
      "alert": "OK",
      "vis_m": 8000,
      "fzfg": false,
      "metar_trigger": false,
      "taf_trigger": false,
      "metar": "METAR LCPH 020700Z 15011KT 100V160 8000 SCT045 BKN050 21/16 Q1005 TEMPO 5000 DU",
      "taf": ""
    },
    {
      "icao": "LEAL",
      "alert": "OK",
      "vis_m": 9999,
      "fzfg": false,
      "metar_trigger": false,
      "taf_trigger": false,
      "metar": "METAR LEAL 020700Z 29006KT 240V330 CAVOK 15/01 Q1015 NOSIG",
      "taf": "TAF LEAL 020500Z 0206/0306 30012KT CAVOK TX21/0212Z TN13/0305Z"
    },
    {
      "icao": "LEBB",
      "alert": "OK",
      "vis_m": 4000,
      "fzfg": false,
      "metar_trigger": false,
      "taf_trigger": false,
      "metar": "SPECI LEBB 020707Z 27006KT 230V300 4000 RA FEW008 BKN010 BKN025 11/10 Q1023 NOSIG",
      "taf": "TAF LEBB 020500Z 0206/0306 32009KT 9999 FEW020 BKN030 TX13/0214Z TN08/0306Z"
    },
    {
      "icao": "LEBL",
      "alert": "OK",
      "vis_m": 9999,
      "fzfg": false,
      "metar_trigger": false,
      "taf_trigger": false,
      "metar": "METAR LEBL 020700Z 24004KT 210V300 9999 FEW025 12/09 Q1013 NOSIG",
      "taf": "TAF LEBL 020500Z 0206/0306 32006KT 9999 FEW020 SCT030 TX21/0213Z TN09/0206Z"
    },
    {
      "icao": "LECH",
      "alert": "OK",
      "vis_m": 9000,
      "fzfg": false,
      "metar_trigger": false,
      "taf_trigger": false,
      "metar": "METAR LECH 020700Z AUTO 34020G41KT 280V010 9000 NSC 12/01 Q1014",
      "taf": "TAF LECH 020500Z 0206/0306 34020KT CAVOK TX19/0213Z TN11/0305Z"
    },
    {
      "icao": "LEMD",
      "alert": "OK",
      "vis_m": 9999,
      "fzfg": false,
      "metar_trigger": false,
      "taf_trigger": false,
      "metar": "METAR LEMD 020700Z 01010KT 330V060 CAVOK 09/00 Q1020 NOSIG",
      "taf": "TAF LEMD 020500Z 0206/0312 01010KT CAVOK TX18/0215Z TN02/0306Z"
    },
    {
      "icao": "LEMG",
      "alert": "OK",
      "vis_m": 9999,
      "fzfg": false,
      "metar_trigger": false,
      "taf_trigger": false,
      "metar": "METAR LEMG 020700Z 28015KT 9999 FEW080 15/03 Q1016 NOSIG",
      "taf": "TAF LEMG 020500Z 0206/0306 30010KT CAVOK TX24/0213Z TN09/0305Z"
    },
    {
      "icao": "LEVC",
      "alert": "OK",
      "vis_m": 9999,
      "fzfg": false,
      "metar_trigger": false,
      "taf_trigger": false,
      "metar": "METAR LEVC 020700Z 30010KT 270V330 CAVOK 15/01 Q1015 NOSIG",
      "taf": "TAF LEVC 020500Z 0206/0306 31015KT CAVOK TX23/0214Z TN15/0305Z"
    },
    {
      "icao": "LEXJ",
      "alert": "OK",
      "vis_m": 9000,
      "fzfg": false,
      "metar_trigger": false,
      "taf_trigger": false,
      "metar": "METAR LEXJ 020700Z 30009KT 9000 -RA SCT008 BKN022 BKN050 10/09 Q1025",
      "taf": "TAF LEXJ 020200Z 0203/0303 32009KT 9999 SCT010 BKN020 TX14/0215Z TN09/0303Z"
    },
    {
      "icao": "LEZG",
      "alert": "OK",
      "vis_m": 9999,
      "fzfg": false,
      "metar_trigger": false,
      "taf_trigger": false,
      "metar": "METAR LEZG 020700Z 30015G28KT 260V330 9999 FEW040 11/04 Q1018 NOSIG",
      "taf": "TAF LEZG 020500Z 0206/0306 29020KT 9999 SCT050 TX17/0214Z TN10/0305Z"
    },
    {
      "icao": "LEZL",
      "alert": "OK",
      "vis_m": 9999,
      "fzfg": false,
      "metar_trigger": false,
      "taf_trigger": false,
      "metar": "METAR LEZL 020700Z 04004KT CAVOK 11/07 Q1019 NOSIG",
      "taf": "TAF LEZL 020200Z 0203/0303 VRB03KT CAVOK TX26/0215Z TN09/0207Z"
    },
    {
      "icao": "LFBD",
      "alert": "OK",
      "vis_m": 9999,
      "fzfg": false,
      "metar_trigger": false,
      "taf_trigger": false,
      "metar": "METAR LFBD 020700Z AUTO 34006KT 320V040 CAVOK 09/06 Q1021 TEMPO 4000 -SHRA BKN015TCU",
      "taf": "TAF LFBD 020500Z 0206/0312 33005KT CAVOK TX16/0312Z TN07/0305Z"
    },
    {
      "icao": "LFLL",
      "alert": "OK",
      "vis_m": 9999,
      "fzfg": false,
      "metar_trigger": false,
      "taf_trigger": false,
      "metar": "METAR LFLL 020700Z 35010KT CAVOK 04/M00 Q1016 NOSIG",
      "taf": "TAF LFLL 020500Z 0206/0312 36009KT CAVOK"
    },
    {
      "icao": "LFLS",
      "alert": "OK",
      "vis_m": 9999,
      "fzfg": false,
      "metar_trigger": false,
      "taf_trigger": false,
      "metar": "METAR LFLS 020700Z AUTO VRB01KT CAVOK 02/M01 Q1015 TEMPO BKN009",
      "taf": "TAF LFLS 020200Z 0203/0303 23005KT CAVOK"
    },
    {
      "icao": "LFMN",
      "alert": "OK",
      "vis_m": 9999,
      "fzfg": false,
      "metar_trigger": false,
      "taf_trigger": false,
      "metar": "METAR LFMN 020700Z 33011KT CAVOK 11/M04 Q1007 NOSIG",
      "taf": "TAF LFMN 020200Z 0203/0309 33010KT CAVOK"
    },
    {
      "icao": "LFOB",
      "alert": "OK",
      "vis_m": 7000,
      "fzfg": false,
      "metar_trigger": false,
      "taf_trigger": false,
      "metar": "METAR LFOB 020700Z AUTO VRB03KT 7000 FEW017 OVC068 08/08 Q1019 TEMPO 4000 -RADZ BKN007",
      "taf": "TAF LFOB 020500Z 0206/0306 VRB04KT 9999 FEW020 BKN035"
    },
    {
      "icao": "LFPO",
      "alert": "OK",
      "vis_m": 9000,
      "fzfg": false,
      "metar_trigger": false,
      "taf_trigger": false,
      "metar": "METAR LFPO 020700Z 15003KT 9000 BKN010 08/08 Q1019 NOSIG",
      "taf": "TAF LFPO 020500Z 0206/0312 VRB02KT 8000 NSC"
    },
    {
      "icao": "LFSB",
      "alert": "OK",
      "vis_m": 9999,
      "fzfg": false,
      "metar_trigger": false,
      "taf_trigger": false,
      "metar": "METAR LFSB 020700Z AUTO 32005KT CAVOK 03/00 Q1017 NOSIG",
      "taf": "TAF LFSB 020500Z 0206/0306 35005KT 9999 SCT050"
    },
    {
      "icao": "LGAV",
      "alert": "OK",
      "vis_m": 9000,
      "fzfg": false,
      "metar_trigger": false,
      "taf_trigger": false,
      "metar": "METAR LGAV 020650Z 24007KT 9000 SCT018 BKN030 BKN070 12/08 Q0996 NOSIG",
      "taf": "TAF LGAV 020500Z 0206/0306 22014KT 9999 FEW015 BKN025 BKN070"
    },
    {
      "icao": "LGTS",
      "alert": "OK",
      "vis_m": 6000,
      "fzfg": false,
      "metar_trigger": false,
      "taf_trigger": false,
      "metar": "METAR LGTS 020650Z 31014KT 6000 RA SCT006 BKN018 11/10 Q0993 NOSIG",
      "taf": "TAF LGTS 020500Z 0206/0306 33015KT 9999 FEW010 BKN025"
    },
    {
      "icao": "LHBP",
      "alert": "OK",
      "vis_m": 9999,
      "fzfg": false,
      "metar_trigger": false,
      "taf_trigger": false,
      "metar": "METAR LHBP 020700Z 02009KT 340V050 CAVOK 11/04 Q1008 NOSIG",
      "taf": "TAF LHBP 020515Z 0206/0306 34008KT 9999 BKN035"
    },
    {
      "icao": "LHDC",
      "alert": "OK",
      "vis_m": 9999,
      "fzfg": false,
      "metar_trigger": false,
      "taf_trigger": false,
      "metar": "METAR LHDC 020645Z AUTO 04013KT CAVOK 09/05 Q1007 NOSIG",
      "taf": "TAF LHDC 020515Z 0206/0215 05012KT CAVOK"
    },
    {
      "icao": "LIBD",
      "alert": "OK",
      "vis_m": 8000,
      "fzfg": false,
      "metar_trigger": false,
      "taf_trigger": false,
      "metar": "METAR LIBD 020650Z 01007KT 340V050 8000 -RA BKN030 11/10 Q0995",
      "taf": "TAF LIBD 020500Z 0206/0306 04012KT 7000 RA BKN040"
    },
    {
      "icao": "LIBG",
      "alert": "OK",
      "vis_m": 6000,
      "fzfg": false,
      "metar_trigger": false,
      "taf_trigger": false,
      "metar": "METAR LIBG 020650Z 04011KT 6000 RA SCT010 OVC040 11/11 Q0993",
      "taf": "TAF LIBG 020610Z 0207/0215 04012KT 7000 RA OVC030"
    },
    {
      "icao": "LIBP",
      "alert": "OK",
      "vis_m": 9999,
      "fzfg": false,
      "metar_trigger": false,
      "taf_trigger": false,
      "metar": "METAR LIBP 020650Z AUTO 02011KT 340V040 9999 -RA OVC020/// 10/08 Q1001",
      "taf": "TAF LIBP 020500Z 0206/0306 36015KT 7000 RA OVC030"
    },
    {
      "icao": "LIBR",
      "alert": "OK",
      "vis_m": 5000,
      "fzfg": false,
      "metar_trigger": false,
      "taf_trigger": false,
      "metar": "METAR LIBR 020650Z 08014KT 5000 -RA BR BKN030 12/09 Q0993 RERA",
      "taf": "TAF LIBR 020500Z 0206/0306 05015KT 7000 RA OVC040"
    },
    {
      "icao": "LICA",
      "alert": "OK",
      "vis_m": 9999,
      "fzfg": false,
      "metar_trigger": false,
      "taf_trigger": false,
      "metar": "METAR LICA 020650Z AUTO 26006KT 9999 -RA OVC058/// 11/10 Q0992",
      "taf": "TAF LICA 020500Z 0206/0306 VRB05KT 9999 BKN040"
    },
    {
      "icao": "LICC",
      "alert": "OK",
      "vis_m": 9999,
      "fzfg": false,
      "metar_trigger": false,
      "taf_trigger": false,
      "metar": "METAR LICC 020650Z 26005KT 230V290 9999 FEW010 SCT050 12/10 Q0993",
      "taf": "TAF LICC 020500Z 0206/0306 26006KT 9999 SCT030"
    },
    {
      "icao": "LICJ",
      "alert": "OK",
      "vis_m": 9999,
      "fzfg": false,
      "metar_trigger": false,
      "taf_trigger": false,
      "metar": "METAR LICJ 020650Z 34013KT 9999 SCT025 14/10 Q0995",
      "taf": "TAF LICJ 020500Z 0206/0306 35013KT 9999 SCT020"
    },
    {
      "icao": "LIMC",
      "alert": "OK",
      "vis_m": 9999,
      "fzfg": false,
      "metar_trigger": false,
      "taf_trigger": false,
      "metar": "METAR LIMC 020650Z 33003KT 310V010 CAVOK 06/M01 Q1008 NOSIG",
      "taf": "TAF LIMC 020500Z 0206/0312 VRB05KT CAVOK"
    },
    {
      "icao": "LIME",
      "alert": "OK",
      "vis_m": 9999,
      "fzfg": false,
      "metar_trigger": false,
      "taf_trigger": false,
      "metar": "METAR LIME 020650Z 01004KT 350V050 CAVOK 07/M03 Q1008 NOSIG",
      "taf": "TAF LIME 020500Z 0206/0306 01005KT CAVOK"
    },
    {
      "icao": "LIMF",
      "alert": "OK",
      "vis_m": 9999,
      "fzfg": false,
      "metar_trigger": false,
      "taf_trigger": false,
      "metar": "METAR LIMF 020650Z VRB01KT CAVOK 08/M05 Q1008",
      "taf": "TAF LIMF 020500Z 0206/0306 VRB05KT CAVOK"
    },
    {
      "icao": "LIMJ",
      "alert": "OK",
      "vis_m": 9999,
      "fzfg": false,
      "metar_trigger": false,
      "taf_trigger": false,
      "metar": "METAR LIMJ 020650Z 04013KT CAVOK 12/M04 Q1006",
      "taf": "TAF LIMJ 020500Z 0206/0306 02010KT CAVOK"
    },
    {
      "icao": "LIPE",
      "alert": "OK",
      "vis_m": 9999,
      "fzfg": false,
      "metar_trigger": false,
      "taf_trigger": false,
      "metar": "METAR LIPE 020650Z 29004KT 270V330 CAVOK 10/M03 Q1008",
      "taf": "TAF LIPE 020500Z 0206/0306 VRB05KT 9999 SCT060"
    },
    {
      "icao": "LIPH",
      "alert": "OK",
      "vis_m": 9999,
      "fzfg": false,
      "metar_trigger": false,
      "taf_trigger": false,
      "metar": "METAR LIPH 020650Z 32004KT 280V340 CAVOK 10/01 Q1007",
      "taf": "TAF LIPH 020500Z 0206/0306 VRB05KT 9999 SCT060"
    },
    {
      "icao": "LIPQ",
      "alert": "OK",
      "vis_m": 9999,
      "fzfg": false,
      "metar_trigger": false,
      "taf_trigger": false,
      "metar": "METAR LIPQ 020650Z AUTO 07006KT 040V110 9999 FEW220/// 13/M01 Q1007",
      "taf": "TAF LIPQ 020500Z 0206/0306 VRB05KT CAVOK"
    },
    {
      "icao": "LIPR",
      "alert": "OK",
      "vis_m": 9999,
      "fzfg": false,
      "metar_trigger": false,
      "taf_trigger": false,
      "metar": "METAR LIPR 020650Z 05011KT 9999 SCT045 12/04 Q1006",
      "taf": "TAF LIPR 020500Z 0206/0306 04015KT 9999 SCT050"
    },
    {
      "icao": "LIPX",
      "alert": "OK",
      "vis_m": 9999,
      "fzfg": false,
      "metar_trigger": false,
      "taf_trigger": false,
      "metar": "METAR LIPX 020650Z 35003KT CAVOK 08/02 Q1008",
      "taf": "TAF LIPX 020500Z 0206/0306 VRB05KT CAVOK"
    },
    {
      "icao": "LIPY",
      "alert": "OK",
      "vis_m": 9999,
      "fzfg": false,
      "metar_trigger": false,
      "taf_trigger": false,
      "metar": "METAR LIPY 020650Z AUTO 03012KT 9999 -RA SCT034/// OVC068/// 12/08 Q1004",
      "taf": "TAF LIPY 020500Z 0206/0306 03015KT 9999 BKN050"
    },
    {
      "icao": "LIPZ",
      "alert": "OK",
      "vis_m": 9999,
      "fzfg": false,
      "metar_trigger": false,
      "taf_trigger": false,
      "metar": "METAR LIPZ 020650Z 36006KT CAVOK 11/M00 Q1007 NOSIG",
      "taf": "TAF LIPZ 020500Z 0206/0312 VRB06KT CAVOK"
    },
    {
      "icao": "LIRF",
      "alert": "OK",
      "vis_m": 9999,
      "fzfg": false,
      "metar_trigger": false,
      "taf_trigger": false,
      "metar": "METAR LIRF 020650Z 01014KT CAVOK 11/04 Q0998 NOSIG",
      "taf": "TAF LIRF 020500Z 0206/0312 02016KT CAVOK"
    },
    {
      "icao": "LIRN",
      "alert": "OK",
      "vis_m": 9999,
      "fzfg": false,
      "metar_trigger": false,
      "taf_trigger": false,
      "metar": "METAR LIRN 020650Z 01007KT 310V030 9999 SCT020 BKN080 11/07 Q0996 NOSIG",
      "taf": "TAF LIRN 020500Z 0206/0306 03014KT 9999 SCT050"
    },
    {
      "icao": "LIRP",
      "alert": "OK",
      "vis_m": 9999,
      "fzfg": false,
      "metar_trigger": false,
      "taf_trigger": false,
      "metar": "METAR LIRP 020645Z 35004KT CAVOK 11/01 Q1005 NOSIG",
      "taf": "TAF LIRP 020500Z 0206/0306 03005KT 9999 SCT080"
    },
    {
      "icao": "LIRZ",
      "alert": "OK",
      "vis_m": 9999,
      "fzfg": false,
      "metar_trigger": false,
      "taf_trigger": false,
      "metar": "METAR LIRZ 020650Z AUTO 03011KT 9999 BKN034/// 10/04 Q1002",
      "taf": "TAF LIRZ 020500Z 0206/0306 03013KT 9999 BKN040"
    },
    {
      "icao": "LJLJ",
      "alert": "OK",
      "vis_m": 9999,
      "fzfg": false,
      "metar_trigger": false,
      "taf_trigger": false,
      "metar": "METAR LJLJ 020700Z 27001KT 9999 BKN055 04/00 Q1009 NOSIG",
      "taf": "TAF LJLJ 020500Z 0206/0306 30003KT 9999 SCT055"
    },
    {
      "icao": "LKMT",
      "alert": "OK",
      "vis_m": 9999,
      "fzfg": false,
      "metar_trigger": false,
      "taf_trigger": false,
      "metar": "METAR LKMT 020700Z 03009KT CAVOK 06/01 Q1014 NOSIG",
      "taf": "TAF LKMT 020500Z 0206/0306 04008KT CAVOK"
    },
    {
      "icao": "LKPR",
      "alert": "OK",
      "vis_m": 9999,
      "fzfg": false,
      "metar_trigger": false,
      "taf_trigger": false,
      "metar": "METAR LKPR 020700Z 31006KT CAVOK 04/01 Q1016 NOSIG",
      "taf": "TAF LKPR 020500Z 0206/0312 34006KT CAVOK"
    },
    {
      "icao": "LLBG",
      "alert": "OK",
      "vis_m": 9999,
      "fzfg": false,
      "metar_trigger": false,
      "taf_trigger": false,
      "metar": "METAR LLBG 020720Z 20012KT CAVOK 25/15 Q1009 NOSIG RMK BKN110",
      "taf": "TAF LLBG 020502Z 0206/0306 15012KT CAVOK TX26/0208Z TN16/0303Z"
    },
    {
      "icao": "LMML",
      "alert": "OK",
      "vis_m": 9999,
      "fzfg": false,
      "metar_trigger": false,
      "taf_trigger": false,
      "metar": "METAR LMML 020715Z 26018KT 9999 -SHRA SCT017TCU BKN045 12/10 Q0995 NOSIG",
      "taf": "TAF LMML 020500Z 0206/0306 28020G30KT 9999 SCT020"
    },
    {
      "icao": "LOWW",
      "alert": "OK",
      "vis_m": 9999,
      "fzfg": false,
      "metar_trigger": false,
      "taf_trigger": false,
      "metar": "METAR LOWW 020650Z 32012KT 9999 BKN046 07/01 Q1013 NOSIG",
      "taf": "TAF LOWW 020515Z 0206/0312 33015G25KT 9999 BKN040 TX14/0312Z TN06/0206Z"
    },
    {
      "icao": "LPFR",
      "alert": "OK",
      "vis_m": 9999,
      "fzfg": false,
      "metar_trigger": false,
      "taf_trigger": false,
      "metar": "METAR LPFR 020700Z VRB02KT CAVOK 13/07 Q1019",
      "taf": "TAF LPFR 020500Z 0206/0306 02008KT CAVOK"
    },
    {
      "icao": "LPMA",
      "alert": "OK",
      "vis_m": 9999,
      "fzfg": false,
      "metar_trigger": false,
      "taf_trigger": false,
      "metar": "METAR LPMA 020700Z 35015KT 9999 FEW015 18/06 Q1022",
      "taf": "TAF LPMA 020500Z 0206/0306 01015KT 9999 SCT015"
    },
    {
      "icao": "LPPR",
      "alert": "OK",
      "vis_m": 9999,
      "fzfg": false,
      "metar_trigger": false,
      "taf_trigger": false,
      "metar": "METAR LPPR 020700Z 04006KT CAVOK 09/05 Q1022",
      "taf": "TAF LPPR 020500Z 0206/0306 VRB02KT CAVOK"
    },
    {
      "icao": "LPPS",
      "alert": "OK",
      "vis_m": 9999,
      "fzfg": false,
      "metar_trigger": false,
      "taf_trigger": false,
      "metar": "METAR LPPS 020700Z 36011KT 9999 FEW012 15/14 Q1023",
      "taf": "TAF LPPS 020500Z 0206/0312 03010KT 9999 SCT012"
    },
    {
      "icao": "LPPT",
      "alert": "OK",
      "vis_m": 9999,
      "fzfg": false,
      "metar_trigger": false,
      "taf_trigger": false,
      "metar": "METAR LPPT 020700Z 33010KT 9999 FEW010 12/11 Q1021",
      "taf": "TAF LPPT 020500Z 0206/0312 33012KT CAVOK"
    },
    {
      "icao": "LQBK",
      "alert": "OK",
      "vis_m": 9999,
      "fzfg": false,
      "metar_trigger": false,
      "taf_trigger": false,
      "metar": "METAR LQBK 020700Z 31007KT 9999 -RA BKN026 05/02 Q1008 NOSIG",
      "taf": "TAF LQBK 020500Z 0206/0306 29007KT 9999 SCT030 BKN045 TX11/0213Z TN06/0305Z"
    },
    {
      "icao": "LQSA",
      "alert": "OK",
      "vis_m": 9999,
      "fzfg": false,
      "metar_trigger": false,
      "taf_trigger": false,
      "metar": "METAR LQSA 020700Z 29006KT 250V320 9999 SCT015 BKN025 05/03 Q1003 NOSIG",
      "taf": "TAF LQSA 020500Z 0206/0306 28008KT 9999 SCT020 BKN040 TX07/0213Z TN04/0305Z"
    },
    {
      "icao": "LQTZ",
      "alert": "OK",
      "vis_m": 9999,
      "fzfg": false,
      "metar_trigger": false,
      "taf_trigger": false,
      "metar": "METAR LQTZ 020700Z 29006KT 9999 BKN010 OVC030 03/03 Q1006",
      "taf": "TAF LQTZ 020500Z 0206/0306 30005KT 7000 SCT015 OVC030 TX07/0213Z TN03/0305Z"
    },
    {
      "icao": "LRBC",
      "alert": "OK",
      "vis_m": 9999,
      "fzfg": false,
      "metar_trigger": false,
      "taf_trigger": false,
      "metar": "METAR LRBC 020700Z 35011KT 9999 OVC008 07/05 Q1008",
      "taf": "TAF LRBC 020500Z 0206/0215 35012KT 9999 OVC010"
    },
    {
      "icao": "LRBS",
      "alert": "OK",
      "vis_m": 8000,
      "fzfg": false,
      "metar_trigger": false,
      "taf_trigger": false,
      "metar": "METAR LRBS 020700Z 04012KT 010V070 8000 FEW005 OVC006 08/07 Q1004 NOSIG",
      "taf": "TAF LRBS 020500Z 0206/0306 06018KT 9999 BKN010 OVC020"
    },
    {
      "icao": "LRBV",
      "alert": "OK",
      "vis_m": 9999,
      "fzfg": false,
      "metar_trigger": false,
      "taf_trigger": false,
      "metar": "METAR LRBV 020700Z 06004KT 030V090 9999 BKN010 06/04 Q1005",
      "taf": "TAF LRBV 020500Z 0206/0215 VRB04KT 9999 OVC020"
    },
    {
      "icao": "LRCL",
      "alert": "OK",
      "vis_m": 9999,
      "fzfg": false,
      "metar_trigger": false,
      "taf_trigger": false,
      "metar": "METAR LRCL 020700Z 26004KT 230V310 9999 BKN064 06/03 Q1007",
      "taf": "TAF LRCL 020500Z 0206/0215 VRB04KT 9999 SCT055"
    },
    {
      "icao": "LRCV",
      "alert": "OK",
      "vis_m": 1800,
      "fzfg": false,
      "metar_trigger": false,
      "taf_trigger": false,
      "metar": "METAR LRCV 020700Z 08012KT 1800 -RA BR OVC007 07/06 Q1004",
      "taf": "TAF LRCV 020500Z 0206/0215 10014KT 9999 SCT010 BKN020"
    },
    {
      "icao": "LRIA",
      "alert": "OK",
      "vis_m": 1500,
      "fzfg": false,
      "metar_trigger": false,
      "taf_trigger": false,
      "metar": "METAR LRIA 020700Z 31007KT 1500 BR OVC001 06/06 Q1008",
      "taf": ""
    },
    {
      "icao": "LROP",
      "alert": "OK",
      "vis_m": 8000,
      "fzfg": false,
      "metar_trigger": false,
      "taf_trigger": false,
      "metar": "METAR LROP 020700Z 05010G20KT 360V080 8000 OVC008 08/06 Q1004 NOSIG",
      "taf": "TAF LROP 020500Z 0206/0306 06018KT 9999 BKN010 OVC020"
    },
    {
      "icao": "LRSB",
      "alert": "OK",
      "vis_m": 9999,
      "fzfg": false,
      "metar_trigger": false,
      "taf_trigger": false,
      "metar": "METAR LRSB 020700Z 36004KT 9999 FEW003 OVC029 05/05 Q1005",
      "taf": "TAF LRSB 020500Z 0206/0306 VRB04KT 9999 BKN040"
    },
    {
      "icao": "LRSM",
      "alert": "OK",
      "vis_m": 9999,
      "fzfg": false,
      "metar_trigger": false,
      "taf_trigger": false,
      "metar": "METAR LRSM 020700Z 27003KT 240V300 CAVOK 05/03 Q1007",
      "taf": "TAF LRSM 020500Z 0206/0215 VRB04KT CAVOK"
    },
    {
      "icao": "LRSV",
      "alert": "OK",
      "vis_m": 5000,
      "fzfg": false,
      "metar_trigger": false,
      "taf_trigger": false,
      "metar": "METAR LRSV 020700Z 32010KT 5000 BR BKN004 OVC032 06/05 Q1008",
      "taf": "TAF LRSV 020500Z 0206/0215 32010KT 5000 BR BKN005"
    },
    {
      "icao": "LRTM",
      "alert": "OK",
      "vis_m": 900,
      "fzfg": false,
      "metar_trigger": false,
      "taf_trigger": false,
      "metar": "METAR LRTM 020700Z 24004KT 210V280 0900 R07/1500U FG OVC002 04/04 Q1007",
      "taf": "TAF LRTM 020500Z 0206/0215 VRB04KT 0200 FG VV001"
    },
    {
      "icao": "LRTR",
      "alert": "OK",
      "vis_m": 9999,
      "fzfg": false,
      "metar_trigger": false,
      "taf_trigger": false,
      "metar": "METAR LRTR 020700Z 01007KT CAVOK 07/04 Q1004 NOSIG",
      "taf": "TAF LRTR 020500Z 0206/0306 01010KT CAVOK"
    },
    {
      "icao": "LTAC",
      "alert": "OK",
      "vis_m": 6000,
      "fzfg": false,
      "metar_trigger": false,
      "taf_trigger": false,
      "metar": "METAR LTAC 020650Z 02003KT 330V040 6000 -SHRA FEW010 BKN030 BKN080 10/09 Q1004 NOSIG RMK RWY21C 02004KT RWY03L 04003KT 010V070 RWY21R 02004KT RWY03R 00000KT RWY21L 01003KT",
      "taf": "TAF LTAC 020440Z 0206/0306 VRB02KT 9999 SCT040 BKN100"
    },
    {
      "icao": "LTFM",
      "alert": "OK",
      "vis_m": 7000,
      "fzfg": false,
      "metar_trigger": false,
      "taf_trigger": false,
      "metar": "METAR LTFM 020650Z 31007KT 280V340 7000 BKN003 BKN022 11/10 Q0998 NOSIG RMK RWY17L 06006KT RWY34L 32008KT RWY16R 30006KT 270V340 RWY36 32006KT RWY18 31006KT 290V360",
      "taf": "TAF LTFM 020440Z 0206/0312 14013KT 9999 BKN004 BKN020"
    },
    {
      "icao": "LUKK",
      "alert": "OK",
      "vis_m": 8000,
      "fzfg": false,
      "metar_trigger": false,
      "taf_trigger": false,
      "metar": "METAR LUKK 020700Z 01007KT 8000 OVC007 09/08 Q1007 NOSIG",
      "taf": "TAF LUKK 020506Z 0206/0306 VRB06KT 5000 BR BKN005"
    },
    {
      "icao": "LWOH",
      "alert": "OK",
      "vis_m": 9999,
      "fzfg": false,
      "metar_trigger": false,
      "taf_trigger": false,
      "metar": "METAR LWOH 020650Z 34008KT 290V020 9999 DZ OVC033 07/04 Q0994",
      "taf": "TAF LWOH 020530Z 0206/0306 34010KT 9999 RA SCT020 OVC040"
    },
    {
      "icao": "LWSK",
      "alert": "OK",
      "vis_m": 9999,
      "fzfg": false,
      "metar_trigger": false,
      "taf_trigger": false,
      "metar": "METAR LWSK 020720Z VRB01KT 9999 -RA BKN040 OVC070 09/08 Q0996 NOSIG",
      "taf": "TAF LWSK 020530Z 0206/0306 VRB02KT 7000 -RA FEW020 BKN035 OVC050"
    },
    {
      "icao": "LYBE",
      "alert": "OK",
      "vis_m": 9999,
      "fzfg": false,
      "metar_trigger": false,
      "taf_trigger": false,
      "metar": "METAR LYBE 020700Z 30004KT 260V320 9999 FEW010 BKN045 05/03 Q1005 NOSIG",
      "taf": "TAF LYBE 020500Z 0206/0306 35008KT 9999 SCT010 BKN045 TX11/0213Z TN05/0206Z"
    },
    {
      "icao": "LYNI",
      "alert": "OK",
      "vis_m": 9999,
      "fzfg": false,
      "metar_trigger": false,
      "taf_trigger": false,
      "metar": "METAR LYNI 020700Z 02012KT 350V060 9999 FEW020 SCT050 09/05 Q1000 NOSIG",
      "taf": "TAF LYNI 020500Z 0206/0306 04014KT 9999 SCT040 BKN080 TX11/0213Z TN07/0305Z"
    },
    {
      "icao": "LYPG",
      "alert": "OK",
      "vis_m": 9999,
      "fzfg": false,
      "metar_trigger": false,
      "taf_trigger": false,
      "metar": "METAR LYPG 020700Z 01017KT 9999 FEW040 OVC090 14/03 Q0995 TEMPO 01027KT",
      "taf": "TAF LYPG 020500Z 0206/0306 36015KT 9999 FEW050 OVC090 TX16/0212Z TN10/0304Z"
    },
    {
      "icao": "LZIB",
      "alert": "OK",
      "vis_m": 9999,
      "fzfg": false,
      "metar_trigger": false,
      "taf_trigger": false,
      "metar": "METAR LZIB 020700Z 30007KT 9999 -RA BKN043 07/03 Q1011 NOSIG",
      "taf": "TAF LZIB 020515Z 0206/0306 35016KT CAVOK"
    },
    {
      "icao": "LZKZ",
      "alert": "OK",
      "vis_m": 9999,
      "fzfg": false,
      "metar_trigger": false,
      "taf_trigger": false,
      "metar": "METAR LZKZ 020700Z 01021KT CAVOK 09/03 Q1009 NOSIG",
      "taf": "TAF LZKZ 020515Z 0206/0306 01020KT CAVOK"
    },
    {
      "icao": "LZTT",
      "alert": "OK",
      "vis_m": 9999,
      "fzfg": false,
      "metar_trigger": false,
      "taf_trigger": false,
      "metar": "METAR LZTT 020700Z 16003KT 120V210 9999 FEW006 SCT020 BKN056 03/02 Q1011 NOSIG",
      "taf": "TAF LZTT 020515Z 0206/0306 08013KT 9999 -RA FEW005 OVC026"
    },
    {
      "icao": "OEJN",
      "alert": "OK",
      "vis_m": 9999,
      "fzfg": false,
      "metar_trigger": false,
      "taf_trigger": false,
      "metar": "METAR OEJN 020700Z 17006KT CAVOK 34/15 Q1009 NOSIG",
      "taf": "TAF OEJN 020500Z 0206/0312 20010KT 7000 NSC"
    },
    {
      "icao": "OEMA",
      "alert": "OK",
      "vis_m": 9999,
      "fzfg": false,
      "metar_trigger": false,
      "taf_trigger": false,
      "metar": "METAR OEMA 020700Z 10012KT CAVOK 29/02 Q1016 NOSIG",
      "taf": "TAF OEMA 020500Z 0206/0312 15015KT 7000 FEW040"
    },
    {
      "icao": "OJAI",
      "alert": "OK",
      "vis_m": 4000,
      "fzfg": false,
      "metar_trigger": false,
      "taf_trigger": false,
      "metar": "METAR OJAI 020700Z 18008KT 4000 -RA SCT035 SCT080 16/11 Q1014 NOSIG",
      "taf": "TAF OJAI 020500Z 0206/0312 12014KT 4000 BR FEW025TCU SCT030"
    },
    {
      "icao": "OMAA",
      "alert": "OK",
      "vis_m": null,
      "fzfg": false,
      "metar_trigger": false,
      "taf_trigger": false,
      "metar": "",
      "taf": ""
    },
    {
      "icao": "OMDB",
      "alert": "OK",
      "vis_m": null,
      "fzfg": false,
      "metar_trigger": false,
      "taf_trigger": false,
      "metar": "",
      "taf": ""
    },
    {
      "icao": "UAAA",
      "alert": "OK",
      "vis_m": 9999,
      "fzfg": false,
      "metar_trigger": false,
      "taf_trigger": false,
      "metar": "METAR UAAA 020700Z 01003MPS 310V070 9999 FEW100 SCT200 23/03 Q1012 NOSIG",
      "taf": "TAF UAAA 020500Z 0206/0306 03003G08MPS 9999 FEW050 SCT100 TX26/0210Z TN09/0301Z"
    },
    {
      "icao": "UBBB",
      "alert": "OK",
      "vis_m": 9999,
      "fzfg": false,
      "metar_trigger": false,
      "taf_trigger": false,
      "metar": "METAR UBBB 020700Z 17018KT CAVOK 16/10 Q1015 NOSIG",
      "taf": "TAF UBBB 020508Z 0206/0306 15012KT 9999 SCT012 SCT025 TX18/0210Z TN09/0301Z"
    },
    {
      "icao": "UDSG",
      "alert": "OK",
      "vis_m": 9999,
      "fzfg": false,
      "metar_trigger": false,
      "taf_trigger": false,
      "metar": "METAR UDSG 020700Z 24005KT 190V310 9999 FEW049 10/M00 Q1016 NOSIG",
      "taf": "TAF UDSG 020458Z 0206/0306 24006KT 9999 SCT050"
    },
    {
      "icao": "UDYZ",
      "alert": "OK",
      "vis_m": 9999,
      "fzfg": false,
      "metar_trigger": false,
      "taf_trigger": false,
      "metar": "METAR UDYZ 020700Z 12007KT 9999 NSC 14/01 Q1015 NOSIG",
      "taf": "TAF UDYZ 020500Z 0206/0306 22006KT 9999 FEW040"
    },
    {
      "icao": "UGKO",
      "alert": "OK",
      "vis_m": 9999,
      "fzfg": false,
      "metar_trigger": false,
      "taf_trigger": false,
      "metar": "METAR UGKO 020700Z 08025KT CAVOK 20/06 Q1008 NOSIG",
      "taf": "TAF UGKO 020500Z 0206/0306 08010KT CAVOK TX25/0212Z TN13/0302Z"
    }
  ]
}