{
  "ts_utc": "2026-01-21T08:16:36Z",
  "threshold_m": 150,
  "source": "stations_override.txt (ICAO list) + aviationweather.gov (METAR/TAF raw)",
  "station_count": 159,
  "stations": [
    {
      "icao": "BIKF",
      "alert": "OK",
      "vis_m": 9999,
      "fzfg": false,
      "metar_trigger": false,
      "taf_trigger": false,
      "metar": "METAR BIKF 210800Z 04007KT CAVOK 04/01 Q0999",
      "taf": "TAF BIKF 210745Z 2109/2209 05012KT 9999 FEW020 BKN045 TX09/2209Z TN04/2109Z"
    },
    {
      "icao": "BKPR",
      "alert": "OK",
      "vis_m": 9999,
      "fzfg": false,
      "metar_trigger": false,
      "taf_trigger": false,
      "metar": "METAR BKPR 210800Z 12009KT 9999 SCT015 OVC040 M00/M02 Q1017 NOSIG",
      "taf": ""
    },
    {
      "icao": "EBCI",
      "alert": "OK",
      "vis_m": 9999,
      "fzfg": false,
      "metar_trigger": false,
      "taf_trigger": false,
      "metar": "METAR EBCI 210750Z 15008KT CAVOK 05/00 Q1003 NOSIG",
      "taf": "TAF EBCI 210510Z 2106/2212 15009KT 9999 SCT040"
    },
    {
      "icao": "EDDB",
      "alert": "OK",
      "vis_m": 9999,
      "fzfg": false,
      "metar_trigger": false,
      "taf_trigger": false,
      "metar": "METAR EDDB 210750Z AUTO 11005KT CAVOK M06/M08 Q1012 NOSIG",
      "taf": "TAF EDDB 210500Z 2106/2206 12005KT CAVOK"
    },
    {
      "icao": "EDDH",
      "alert": "OK",
      "vis_m": 9999,
      "fzfg": false,
      "metar_trigger": false,
      "taf_trigger": false,
      "metar": "METAR EDDH 210750Z AUTO 10004KT CAVOK M04/M07 Q1010 NOSIG",
      "taf": "TAF EDDH 210500Z 2106/2212 09005KT CAVOK"
    },
    {
      "icao": "EDDK",
      "alert": "OK",
      "vis_m": 9999,
      "fzfg": false,
      "metar_trigger": false,
      "taf_trigger": false,
      "metar": "METAR EDDK 210750Z AUTO 13010KT CAVOK 02/M03 Q1007 NOSIG",
      "taf": "TAF EDDK 210500Z 2106/2212 12009KT CAVOK"
    },
    {
      "icao": "EDDN",
      "alert": "OK",
      "vis_m": 9999,
      "fzfg": false,
      "metar_trigger": false,
      "taf_trigger": false,
      "metar": "METAR EDDN 210750Z AUTO 11006KT CAVOK M07/M10 Q1011 NOSIG",
      "taf": "TAF EDDN 210500Z 2106/2206 11007KT CAVOK"
    },
    {
      "icao": "EDDS",
      "alert": "OK",
      "vis_m": 9999,
      "fzfg": false,
      "metar_trigger": false,
      "taf_trigger": false,
      "metar": "METAR EDDS 210750Z AUTO VRB01KT CAVOK M05/M06 Q1008 NOSIG",
      "taf": "TAF EDDS 210500Z 2106/2206 VRB03KT 3500 BR NSC"
    },
    {
      "icao": "EDFH",
      "alert": "OK",
      "vis_m": 1000,
      "fzfg": true,
      "metar_trigger": false,
      "taf_trigger": false,
      "metar": "METAR EDFH 210750Z 14014KT 1000 R21/P2000N FZFG NSC M04/M04 Q1006",
      "taf": "TAF EDFH 210500Z 2106/2206 14013KT 6000 NSC"
    },
    {
      "icao": "EDJA",
      "alert": "OK",
      "vis_m": 9999,
      "fzfg": false,
      "metar_trigger": false,
      "taf_trigger": false,
      "metar": "METAR EDJA 210750Z VRB02KT CAVOK M06/M07 Q1008",
      "taf": "TAF EDJA 210500Z 2106/2115 VRB02KT CAVOK"
    },
    {
      "icao": "EDLW",
      "alert": "OK",
      "vis_m": 9999,
      "fzfg": false,
      "metar_trigger": false,
      "taf_trigger": false,
      "metar": "METAR EDLW 210750Z 15004KT 090V200 CAVOK 03/M04 Q1006",
      "taf": "TAF EDLW 210500Z 2106/2206 14006KT CAVOK"
    },
    {
      "icao": "EDNY",
      "alert": "OK",
      "vis_m": 600,
      "fzfg": true,
      "metar_trigger": false,
      "taf_trigger": false,
      "metar": "METAR EDNY 210750Z 36003KT 300V050 0600 R24/1000D FZFG VV/// M04/M04 Q1010",
      "taf": "TAF EDNY 210500Z 2106/2115 VRB02KT 0500 FZFG VV001"
    },
    {
      "icao": "EDSB",
      "alert": "OK",
      "vis_m": 900,
      "fzfg": true,
      "metar_trigger": false,
      "taf_trigger": false,
      "metar": "METAR EDSB 210750Z 06003KT 020V090 0900 R21/P2000N FZFG VV/// M01/M02 Q1010",
      "taf": "TAF EDSB 210500Z 2106/2206 VRB03KT 0600 FZFG VV003"
    },
    {
      "icao": "EETN",
      "alert": "OK",
      "vis_m": 4500,
      "fzfg": false,
      "metar_trigger": false,
      "taf_trigger": false,
      "metar": "METAR EETN 210750Z 08007KT 4500 BR BKN002 OVC005 M02/M02 Q1022 NOSIG",
      "taf": "TAF EETN 210530Z 2106/2206 09010KT 6000 BKN003 OVC005"
    },
    {
      "icao": "EFTU",
      "alert": "OK",
      "vis_m": 9999,
      "fzfg": false,
      "metar_trigger": false,
      "taf_trigger": false,
      "metar": "METAR EFTU 210750Z AUTO 07006KT 9999 -SHSN OVC007 M03/M04 Q1023",
      "taf": "TAF EFTU 210530Z 2106/2206 07005KT 9999 -SN FEW005 OVC007"
    },
    {
      "icao": "EGBB",
      "alert": "OK",
      "vis_m": 9999,
      "fzfg": false,
      "metar_trigger": false,
      "taf_trigger": false,
      "metar": "METAR EGBB 210750Z 12010KT 9999 BKN006 05/04 Q0991",
      "taf": "TAF EGBB 210455Z 2106/2206 16008KT 9999 BKN020"
    },
    {
      "icao": "EGGP",
      "alert": "OK",
      "vis_m": 9999,
      "fzfg": false,
      "metar_trigger": false,
      "taf_trigger": false,
      "metar": "METAR EGGP 210750Z 12011KT 9999 SCT025 04/03 Q0990",
      "taf": "TAF EGGP 210500Z 2106/2206 17011KT 9999 SCT012"
    },
    {
      "icao": "EGGW",
      "alert": "OK",
      "vis_m": 9999,
      "fzfg": false,
      "metar_trigger": false,
      "taf_trigger": false,
      "metar": "METAR EGGW 210750Z AUTO 13011KT 9999 -RA FEW005/// SCT012/// BKN036/// //////TCU 05/04 Q0992",
      "taf": "TAF EGGW 210455Z 2106/2206 16012KT 9999 SCT020"
    },
    {
      "icao": "EGKK",
      "alert": "OK",
      "vis_m": 7000,
      "fzfg": false,
      "metar_trigger": false,
      "taf_trigger": false,
      "metar": "METAR EGKK 210750Z 12009KT 7000 -RA SCT006 07/07 Q0993",
      "taf": "TAF EGKK 210455Z 2106/2212 17009KT 9999 SCT016"
    },
    {
      "icao": "EGNM",
      "alert": "OK",
      "vis_m": 8000,
      "fzfg": false,
      "metar_trigger": false,
      "taf_trigger": false,
      "metar": "METAR EGNM 210750Z 13008KT 8000 BKN005 03/03 Q0992",
      "taf": "TAF EGNM 210525Z 2106/2206 15009KT 9999 SCT012"
    },
    {
      "icao": "EGPD",
      "alert": "OK",
      "vis_m": 5000,
      "fzfg": false,
      "metar_trigger": false,
      "taf_trigger": false,
      "metar": "METAR EGPD 210750Z 12015G26KT 5000 RA BKN007 07/05 Q0994 RERA TEMPO 4000 BKN005",
      "taf": ""
    },
    {
      "icao": "EGPF",
      "alert": "OK",
      "vis_m": 9999,
      "fzfg": false,
      "metar_trigger": false,
      "taf_trigger": false,
      "metar": "METAR EGPF 210750Z AUTO 04004KT 9999 -RA OVC022 05/04 Q0989",
      "taf": "TAF EGPF 210456Z 2106/2206 10008KT 9999 FEW015 SCT035"
    },
    {
      "icao": "EHBK",
      "alert": "OK",
      "vis_m": 9999,
      "fzfg": false,
      "metar_trigger": false,
      "taf_trigger": false,
      "metar": "METAR EHBK 210755Z AUTO 15008KT 9999 NSC 06/01 Q1005 NOSIG",
      "taf": "TAF EHBK 210518Z 2106/2212 17010KT CAVOK"
    },
    {
      "icao": "EHEH",
      "alert": "OK",
      "vis_m": 9999,
      "fzfg": false,
      "metar_trigger": false,
      "taf_trigger": false,
      "metar": "METAR EHEH 210755Z AUTO 14006KT 100V240 9999 OVC083 03/M00 Q1004 BLU NOSIG RMK TREND REMOTE BY EHWX",
      "taf": "TAF EHEH 210543Z 2106/2212 13006KT 9999 BKN045"
    },
    {
      "icao": "EKBI",
      "alert": "OK",
      "vis_m": 9999,
      "fzfg": false,
      "metar_trigger": false,
      "taf_trigger": false,
      "metar": "METAR EKBI 210750Z AUTO 09017KT 9999 OVC012/// M01/M03 Q1012",
      "taf": "TAF EKBI 210527Z 2106/2206 08010KT 7000 BKN010"
    },
    {
      "icao": "EKCH",
      "alert": "OK",
      "vis_m": 6000,
      "fzfg": false,
      "metar_trigger": false,
      "taf_trigger": false,
      "metar": "METAR EKCH 210750Z AUTO 06008KT 6000 OVC021/// M00/M01 Q1015 NOSIG",
      "taf": "TAF EKCH 210527Z 2106/2206 07010KT 8000 NSC"
    },
    {
      "icao": "ENAL",
      "alert": "OK",
      "vis_m": 9999,
      "fzfg": false,
      "metar_trigger": false,
      "taf_trigger": false,
      "metar": "METAR ENAL 210750Z 07003KT 030V140 CAVOK 00/M02 Q1013",
      "taf": "TAF ENAL 210500Z 2106/2115 13010KT CAVOK"
    },
    {
      "icao": "ENBR",
      "alert": "OK",
      "vis_m": 9999,
      "fzfg": false,
      "metar_trigger": false,
      "taf_trigger": false,
      "metar": "METAR ENBR 210750Z 03002KT CAVOK M01/M02 Q1011 NOSIG RMK WIND 1200FT 14004KT",
      "taf": "TAF ENBR 210500Z 2106/2206 08005KT CAVOK"
    },
    {
      "icao": "ENGM",
      "alert": "OK",
      "vis_m": 9999,
      "fzfg": false,
      "metar_trigger": false,
      "taf_trigger": false,
      "metar": "METAR ENGM 210750Z 02007KT 9999 -SHSN OVC017 M03/M05 Q1021 NOSIG",
      "taf": "TAF ENGM 210500Z 2106/2206 02008KT 9999 OVC018"
    },
    {
      "icao": "ENHD",
      "alert": "OK",
      "vis_m": 9999,
      "fzfg": false,
      "metar_trigger": false,
      "taf_trigger": false,
      "metar": "METAR ENHD 210750Z 08003KT CAVOK M03/M03 Q1010",
      "taf": "TAF ENHD 210500Z 2106/2115 17005KT CAVOK"
    },
    {
      "icao": "ENTC",
      "alert": "OK",
      "vis_m": 9999,
      "fzfg": false,
      "metar_trigger": false,
      "taf_trigger": false,
      "metar": "METAR ENTC 210750Z 05003KT CAVOK M08/M09 Q1026 NOSIG RMK WIND 2600FT 09004KT",
      "taf": ""
    },
    {
      "icao": "ENTO",
      "alert": "OK",
      "vis_m": 9999,
      "fzfg": false,
      "metar_trigger": false,
      "taf_trigger": false,
      "metar": "METAR ENTO 210750Z 04012KT 9999 OVC016 M03/M06 Q1020 NOSIG",
      "taf": "TAF ENTO 210500Z 2106/2206 03012KT 9999 OVC012"
    },
    {
      "icao": "ENVA",
      "alert": "OK",
      "vis_m": 9999,
      "fzfg": false,
      "metar_trigger": false,
      "taf_trigger": false,
      "metar": "METAR ENVA 210750Z 10004KT 070V130 CAVOK M03/M08 Q1020 NOSIG RMK WIND 670FT 11012KT",
      "taf": "TAF ENVA 210500Z 2106/2206 09008KT CAVOK"
    },
    {
      "icao": "ENZV",
      "alert": "OK",
      "vis_m": 9999,
      "fzfg": false,
      "metar_trigger": false,
      "taf_trigger": false,
      "metar": "METAR ENZV 210750Z 00000KT CAVOK M03/M04 Q1010 NOSIG",
      "taf": "TAF ENZV 210500Z 2106/2206 10005KT CAVOK"
    },
    {
      "icao": "EPGD",
      "alert": "OK",
      "vis_m": 2100,
      "fzfg": false,
      "metar_trigger": false,
      "taf_trigger": false,
      "metar": "METAR EPGD 210800Z VRB01KT 2100 BR NSC M14/M16 Q1014",
      "taf": ""
    },
    {
      "icao": "EPKK",
      "alert": "OK",
      "vis_m": 3200,
      "fzfg": false,
      "metar_trigger": false,
      "taf_trigger": false,
      "metar": "METAR EPKK 210800Z VRB01KT 3200 BR NSC M12/M14 Q1016",
      "taf": "TAF EPKK 210530Z 2106/2206 VRB02KT 2500 BR NSC"
    },
    {
      "icao": "EPKT",
      "alert": "OK",
      "vis_m": 4500,
      "fzfg": false,
      "metar_trigger": false,
      "taf_trigger": false,
      "metar": "METAR EPKT 210800Z VRB02KT 4500 BR NSC M08/M11 Q1015",
      "taf": "TAF EPKT 210530Z 2106/2206 VRB02KT 3500 BR NSC"
    },
    {
      "icao": "EPLB",
      "alert": "OK",
      "vis_m": 2400,
      "fzfg": false,
      "metar_trigger": false,
      "taf_trigger": false,
      "metar": "METAR EPLB 210800Z VRB01KT 2400 BR NSC M14/M15 Q1017",
      "taf": "TAF EPLB 210530Z 2106/2206 VRB03KT 7000 NSC"
    },
    {
      "icao": "EPMO",
      "alert": "OK",
      "vis_m": 4400,
      "fzfg": false,
      "metar_trigger": false,
      "taf_trigger": false,
      "metar": "METAR EPMO 210800Z 15006KT 4400 BR NSC M08/M09 Q1016",
      "taf": "TAF EPMO 210530Z 2106/2206 13005KT 7000 NSC"
    },
    {
      "icao": "EPPO",
      "alert": "OK",
      "vis_m": 9999,
      "fzfg": false,
      "metar_trigger": false,
      "taf_trigger": false,
      "metar": "METAR EPPO 210800Z 12003KT CAVOK M06/M09 Q1014",
      "taf": "TAF EPPO 210530Z 2106/2206 13005KT CAVOK"
    },
    {
      "icao": "EPRA",
      "alert": "OK",
      "vis_m": 9000,
      "fzfg": false,
      "metar_trigger": false,
      "taf_trigger": false,
      "metar": "METAR EPRA 210800Z 15003KT 9000 NSC M09/M13 Q1017",
      "taf": "TAF EPRA 210530Z 2106/2115 15006KT 8000 NSC"
    },
    {
      "icao": "EPRZ",
      "alert": "OK",
      "vis_m": 4000,
      "fzfg": false,
      "metar_trigger": false,
      "taf_trigger": false,
      "metar": "METAR EPRZ 210800Z 10005KT 4000 BR NSC M09/M13 Q1018",
      "taf": "TAF EPRZ 210530Z 2106/2206 10005KT 8000 NSC"
    },
    {
      "icao": "EPSC",
      "alert": "OK",
      "vis_m": 9999,
      "fzfg": false,
      "metar_trigger": false,
      "taf_trigger": false,
      "metar": "METAR EPSC 210800Z 10003KT CAVOK M08/M10 Q1013",
      "taf": "TAF EPSC 210530Z 2106/2206 12007KT CAVOK"
    },
    {
      "icao": "EPSY",
      "alert": "OK",
      "vis_m": 2200,
      "fzfg": false,
      "metar_trigger": false,
      "taf_trigger": false,
      "metar": "METAR EPSY 210800Z 00000KT 2200 BR NSC M17/M18 Q1016",
      "taf": "TAF EPSY 210530Z 2106/2115 VRB02KT 4000 BR NSC"
    },
    {
      "icao": "EPWA",
      "alert": "OK",
      "vis_m": 5000,
      "fzfg": false,
      "metar_trigger": false,
      "taf_trigger": false,
      "metar": "METAR EPWA 210800Z 12005KT 5000 BR NSC M12/M13 Q1017 NOSIG",
      "taf": "TAF EPWA 210530Z 2106/2206 13005KT 7000 NSC"
    },
    {
      "icao": "EPWR",
      "alert": "OK",
      "vis_m": 9999,
      "fzfg": false,
      "metar_trigger": false,
      "taf_trigger": false,
      "metar": "METAR EPWR 210800Z 20011KT CAVOK M01/M07 Q1014",
      "taf": ""
    },
    {
      "icao": "ESGG",
      "alert": "OK",
      "vis_m": 9999,
      "fzfg": false,
      "metar_trigger": false,
      "taf_trigger": false,
      "metar": "METAR ESGG 210750Z 06010KT 9999 OVC008 M02/M04 Q1016",
      "taf": "TAF ESGG 210530Z 2106/2206 07010KT 9000 OVC006"
    },
    {
      "icao": "ESKN",
      "alert": "OK",
      "vis_m": 9999,
      "fzfg": false,
      "metar_trigger": false,
      "taf_trigger": false,
      "metar": "METAR ESKN 210750Z 03005KT 9999 BKN018 M00/M02 Q1019",
      "taf": "TAF ESKN 210530Z 2106/2206 04010KT 9999 OVC020"
    },
    {
      "icao": "ESMS",
      "alert": "OK",
      "vis_m": 9999,
      "fzfg": false,
      "metar_trigger": false,
      "taf_trigger": false,
      "metar": "METAR ESMS 210750Z 09006KT 9999 BKN019 M01/M02 Q1014",
      "taf": "TAF ESMS 210527Z 2106/2206 07008KT 8000 NSC"
    },
    {
      "icao": "ESSA",
      "alert": "OK",
      "vis_m": 9999,
      "fzfg": false,
      "metar_trigger": false,
      "taf_trigger": false,
      "metar": "METAR ESSA 210750Z 06008KT 9999 SCT016 BKN020 M02/M04 Q1020 TEMPO OVC020",
      "taf": ""
    },
    {
      "icao": "EYKA",
      "alert": "OK",
      "vis_m": 4200,
      "fzfg": false,
      "metar_trigger": false,
      "taf_trigger": false,
      "metar": "METAR EYKA 210750Z 14003KT 110V250 4200 BR SCT005 M16/M18 Q1017",
      "taf": "TAF EYKA 210500Z 2106/2206 VRB04KT 5000 BR NSC"
    },
    {
      "icao": "EYPA",
      "alert": "OK",
      "vis_m": 9000,
      "fzfg": false,
      "metar_trigger": false,
      "taf_trigger": false,
      "metar": "METAR EYPA 210750Z 09005KT 9000 NSC M12/M14 Q1017",
      "taf": ""
    },
    {
      "icao": "EYVI",
      "alert": "OK",
      "vis_m": 3200,
      "fzfg": false,
      "metar_trigger": false,
      "taf_trigger": false,
      "metar": "METAR EYVI 210750Z 17003KT 3200 BR NSC M15/M17 Q1017 NOSIG",
      "taf": ""
    },
    {
      "icao": "GCFV",
      "alert": "OK",
      "vis_m": 9999,
      "fzfg": false,
      "metar_trigger": false,
      "taf_trigger": false,
      "metar": "METAR GCFV 210800Z 31007KT 9999 FEW035 15/08 Q1022",
      "taf": "TAF GCFV 210200Z 2103/2203 30005KT 9999 SCT035 TX21/2114Z TN14/2106Z"
    },
    {
      "icao": "GCLP",
      "alert": "OK",
      "vis_m": 9999,
      "fzfg": false,
      "metar_trigger": false,
      "taf_trigger": false,
      "metar": "METAR GCLP 210800Z 34009KT 320V020 9999 FEW035 BKN045 15/11 Q1022 NOSIG",
      "taf": "TAF GCLP 210200Z 2103/2203 33008KT 9999 BKN025 TX21/2114Z TN14/2106Z"
    },
    {
      "icao": "GCTS",
      "alert": "OK",
      "vis_m": 9999,
      "fzfg": false,
      "metar_trigger": false,
      "taf_trigger": false,
      "metar": "METAR GCTS 210800Z 35007KT 9999 FEW030 15/09 Q1022 NOSIG",
      "taf": "TAF GCTS 210200Z 2103/2203 36005KT 9999 FEW035 TX22/2114Z TN14/2106Z"
    },
    {
      "icao": "GMAD",
      "alert": "OK",
      "vis_m": 9999,
      "fzfg": false,
      "metar_trigger": false,
      "taf_trigger": false,
      "metar": "METAR GMAD 210800Z 06006KT 9999 FEW030 07/07 Q1020 NOSIG",
      "taf": "TAF GMAD 210500Z 2106/2212 06008KT"
    },
    {
      "icao": "GMMN",
      "alert": "OK",
      "vis_m": 9999,
      "fzfg": false,
      "metar_trigger": false,
      "taf_trigger": false,
      "metar": "METAR GMMN 210800Z 22007KT 9999 BKN040 09/08 Q1019 NOSIG",
      "taf": "TAF GMMN 210500Z 2106/2212 18006KT 9999 BKN034"
    },
    {
      "icao": "GMMX",
      "alert": "OK",
      "vis_m": 9999,
      "fzfg": false,
      "metar_trigger": false,
      "taf_trigger": false,
      "metar": "METAR GMMX 210800Z VRB01KT CAVOK 06/04 Q1020 NOSIG",
      "taf": "TAF GMMX 210500Z 2106/2212 28006KT 8000 SCT026"
    },
    {
      "icao": "HEGN",
      "alert": "OK",
      "vis_m": 9999,
      "fzfg": false,
      "metar_trigger": false,
      "taf_trigger": false,
      "metar": "METAR HEGN 210800Z 32010KT CAVOK 1805 Q1020 NOSIG",
      "taf": "TAF HEGN 210500Z 2106/2212 01013KT CAVOK"
    },
    {
      "icao": "HEMA",
      "alert": "OK",
      "vis_m": 9999,
      "fzfg": false,
      "metar_trigger": false,
      "taf_trigger": false,
      "metar": "METAR HEMA 210800Z 32012KT CAVOK 21/12 Q1018 NOSIG",
      "taf": "TAF HEMA 210500Z 2106/2212 01015KT CAVOK"
    },
    {
      "icao": "HESH",
      "alert": "OK",
      "vis_m": 9999,
      "fzfg": false,
      "metar_trigger": false,
      "taf_trigger": false,
      "metar": "METAR HESH 210800Z 34011KT CAVOK 20/07 Q1018 NOSIG",
      "taf": "TAF HESH 210500Z 2106/2212 15012KT CAVOK"
    },
    {
      "icao": "HESX",
      "alert": "OK",
      "vis_m": 9999,
      "fzfg": false,
      "metar_trigger": false,
      "taf_trigger": false,
      "metar": "METAR HESX 210800Z 08017KT 9999 SCT020 14/02 Q1017 NOSIG",
      "taf": "TAF HESX 210500Z 2106/2212 08015KT 6000 NSC"
    },
    {
      "icao": "LATI",
      "alert": "OK",
      "vis_m": null,
      "fzfg": false,
      "metar_trigger": false,
      "taf_trigger": false,
      "metar": "",
      "taf": "TAF LATI 210500Z 2106/2206 VRB05KT 9999 -RA SCT035 BKN060 TX10/2112Z TN05/2204Z"
    },
    {
      "icao": "LBPD",
      "alert": "OK",
      "vis_m": 9999,
      "fzfg": false,
      "metar_trigger": false,
      "taf_trigger": false,
      "metar": "METAR LBPD 210800Z AUTO 28005KT 9999 OVC025/// M04/M04 Q1025 NOSIG",
      "taf": "TAF LBPD 210500Z 2106/2206 VRB03KT 9999 SCT040 BKN070"
    },
    {
      "icao": "LBSF",
      "alert": "OK",
      "vis_m": 9999,
      "fzfg": false,
      "metar_trigger": false,
      "taf_trigger": false,
      "metar": "METAR LBSF 210800Z 08012KT 9999 BKN088 M02/M06 Q1022 NOSIG",
      "taf": "TAF LBSF 210500Z 2106/2206 11012KT 9999 BKN060"
    },
    {
      "icao": "LBWN",
      "alert": "OK",
      "vis_m": 9000,
      "fzfg": false,
      "metar_trigger": false,
      "taf_trigger": false,
      "metar": "METAR LBWN 210800Z 07004KT 9000 OVC021 00/00 Q1025 NOSIG",
      "taf": "TAF LBWN 210500Z 2106/2206 VRB03KT 9999 BKN020"
    },
    {
      "icao": "LCLK",
      "alert": "OK",
      "vis_m": 9999,
      "fzfg": false,
      "metar_trigger": false,
      "taf_trigger": false,
      "metar": "METAR LCLK 210800Z 02011KT 360V060 9999 FEW018 12/05 Q1025 NOSIG",
      "taf": "TAF LCLK 210530Z 2106/2206 32009KT CAVOK"
    },
    {
      "icao": "LCPH",
      "alert": "OK",
      "vis_m": 9999,
      "fzfg": false,
      "metar_trigger": false,
      "taf_trigger": false,
      "metar": "METAR LCPH 210800Z AUTO VRB02KT 9999 NCD 12/M01 Q1023 NOSIG",
      "taf": "TAF LCPH 210530Z 2106/2206 06008KT CAVOK"
    },
    {
      "icao": "LEAL",
      "alert": "OK",
      "vis_m": 9999,
      "fzfg": false,
      "metar_trigger": false,
      "taf_trigger": false,
      "metar": "METAR LEAL 210800Z 30014KT 9999 BKN042 12/05 Q1012 NOSIG",
      "taf": "TAF LEAL 210500Z 2106/2206 30012KT 9999 BKN050 TX19/2113Z TN12/2106Z"
    },
    {
      "icao": "LEBB",
      "alert": "OK",
      "vis_m": 9999,
      "fzfg": false,
      "metar_trigger": false,
      "taf_trigger": false,
      "metar": "METAR LEBB 210800Z 18016G31KT 110V230 CAVOK 16/05 Q0999 NOSIG",
      "taf": "TAF LEBB 210500Z 2106/2206 20009KT 9999 FEW060 TX14/2115Z TN07/2206Z"
    },
    {
      "icao": "LEBL",
      "alert": "OK",
      "vis_m": 9999,
      "fzfg": false,
      "metar_trigger": false,
      "taf_trigger": false,
      "metar": "METAR LEBL 210800Z 33007KT 9999 FEW025 10/10 Q1010 NOSIG",
      "taf": ""
    },
    {
      "icao": "LECH",
      "alert": "OK",
      "vis_m": 6000,
      "fzfg": false,
      "metar_trigger": false,
      "taf_trigger": false,
      "metar": "METAR LECH 210800Z AUTO 20004KT 6000 SCT027 OVC032 08/08 Q1011",
      "taf": ""
    },
    {
      "icao": "LEMD",
      "alert": "OK",
      "vis_m": 4000,
      "fzfg": false,
      "metar_trigger": false,
      "taf_trigger": false,
      "metar": "METAR LEMD 210800Z 33004KT 4000 -DZ BR BKN006 OVC020 00/00 Q1011 NOSIG",
      "taf": ""
    },
    {
      "icao": "LEMG",
      "alert": "OK",
      "vis_m": 9999,
      "fzfg": false,
      "metar_trigger": false,
      "taf_trigger": false,
      "metar": "METAR LEMG 210800Z 26006KT 230V290 9999 FEW040 10/05 Q1015 NOSIG",
      "taf": "TAF LEMG 210500Z 2106/2206 30010KT CAVOK TX17/2114Z TN08/2107Z"
    },
    {
      "icao": "LEVC",
      "alert": "OK",
      "vis_m": 9999,
      "fzfg": false,
      "metar_trigger": false,
      "taf_trigger": false,
      "metar": "METAR LEVC 210800Z 25006KT 9999 FEW020 SCT040 BKN048 08/06 Q1012 NOSIG",
      "taf": ""
    },
    {
      "icao": "LEXJ",
      "alert": "OK",
      "vis_m": 9999,
      "fzfg": false,
      "metar_trigger": false,
      "taf_trigger": false,
      "metar": "METAR LEXJ 210800Z 21021G37KT 170V260 9999 FEW060 15/05 Q0996",
      "taf": "TAF LEXJ 210200Z 2103/2203 22009KT 9999 SCT040 TX15/2115Z TN09/2103Z"
    },
    {
      "icao": "LEZG",
      "alert": "OK",
      "vis_m": 9999,
      "fzfg": false,
      "metar_trigger": false,
      "taf_trigger": false,
      "metar": "METAR LEZG 210800Z 10004KT CAVOK 02/02 Q1010 NOSIG",
      "taf": "TAF LEZG 210500Z 2106/2206 VRB04KT 9999 FEW040 TX14/2115Z TN05/2106Z"
    },
    {
      "icao": "LEZL",
      "alert": "OK",
      "vis_m": 9000,
      "fzfg": false,
      "metar_trigger": false,
      "taf_trigger": false,
      "metar": "METAR LEZL 210800Z VRB01KT 9000 -DZ NSC 07/07 Q1015 NOSIG",
      "taf": "TAF LEZL 210200Z 2103/2203 VRB03KT CAVOK TX15/2115Z TN05/2107Z"
    },
    {
      "icao": "LFBD",
      "alert": "OK",
      "vis_m": 9999,
      "fzfg": false,
      "metar_trigger": false,
      "taf_trigger": false,
      "metar": "METAR LFBD 210800Z AUTO 15015KT CAVOK 06/04 Q1001 NOSIG",
      "taf": "TAF LFBD 210500Z 2106/2212 16010KT CAVOK TX13/2114Z TN06/2106Z"
    },
    {
      "icao": "LFLL",
      "alert": "OK",
      "vis_m": 9999,
      "fzfg": false,
      "metar_trigger": false,
      "taf_trigger": false,
      "metar": "METAR LFLL 210800Z 13010KT CAVOK 02/01 Q1007 NOSIG",
      "taf": "TAF LFLL 210500Z 2106/2212 13009KT CAVOK"
    },
    {
      "icao": "LFLS",
      "alert": "OK",
      "vis_m": 9999,
      "fzfg": false,
      "metar_trigger": false,
      "taf_trigger": false,
      "metar": "METAR LFLS 210800Z AUTO 08008KT CAVOK 01/M01 Q1008 NOSIG",
      "taf": "TAF LFLS 210200Z 2103/2203 09005KT CAVOK"
    },
    {
      "icao": "LFMN",
      "alert": "OK",
      "vis_m": 9999,
      "fzfg": false,
      "metar_trigger": false,
      "taf_trigger": false,
      "metar": "METAR LFMN 210800Z 33013KT CAVOK 06/M01 Q1009 NOSIG",
      "taf": "TAF LFMN 210200Z 2103/2209 33010KT CAVOK"
    },
    {
      "icao": "LFOB",
      "alert": "OK",
      "vis_m": 9999,
      "fzfg": false,
      "metar_trigger": false,
      "taf_trigger": false,
      "metar": "METAR LFOB 210800Z AUTO 16012KT 9999 ///TCU 08/06 Q1000 BECMG BKN045",
      "taf": "TAF LFOB 210500Z 2106/2206 16012KT 9999 BKN045"
    },
    {
      "icao": "LFPO",
      "alert": "OK",
      "vis_m": 9999,
      "fzfg": false,
      "metar_trigger": false,
      "taf_trigger": false,
      "metar": "METAR LFPO 210800Z AUTO 17011KT CAVOK 08/05 Q1001",
      "taf": "TAF LFPO 210500Z 2106/2212 17010KT CAVOK"
    },
    {
      "icao": "LFSB",
      "alert": "OK",
      "vis_m": 9999,
      "fzfg": false,
      "metar_trigger": false,
      "taf_trigger": false,
      "metar": "METAR LFSB 210800Z AUTO VRB03KT CAVOK M01/M03 Q1008 NOSIG",
      "taf": "TAF LFSB 210500Z 2106/2206 16005KT CAVOK"
    },
    {
      "icao": "LGAV",
      "alert": "OK",
      "vis_m": 7000,
      "fzfg": false,
      "metar_trigger": false,
      "taf_trigger": false,
      "metar": "METAR LGAV 210750Z 05013KT 7000 -RA SCT018 BKN025 10/07 Q1017 NOSIG",
      "taf": "TAF LGAV 210500Z 2106/2206 10012KT 9999 FEW018 BKN025"
    },
    {
      "icao": "LGTS",
      "alert": "OK",
      "vis_m": 9999,
      "fzfg": false,
      "metar_trigger": false,
      "taf_trigger": false,
      "metar": "METAR LGTS 210750Z 07003KT 9999 FEW005 BKN040 05/03 Q1022 NOSIG",
      "taf": "TAF LGTS 210500Z 2106/2206 11010KT 9999 FEW010 BKN025"
    },
    {
      "icao": "LHBP",
      "alert": "OK",
      "vis_m": 4500,
      "fzfg": false,
      "metar_trigger": false,
      "taf_trigger": false,
      "metar": "METAR LHBP 210800Z 35002KT 4500 BR NSC M09/M10 Q1020 BECMG 6000 NSW",
      "taf": "TAF LHBP 210515Z 2106/2206 VRB03KT 2500 BR NSC"
    },
    {
      "icao": "LHDC",
      "alert": "OK",
      "vis_m": 3900,
      "fzfg": false,
      "metar_trigger": false,
      "taf_trigger": false,
      "metar": "METAR LHDC 210745Z AUTO 05003KT 3900 BR NCD M09/M11 Q1021 NOSIG",
      "taf": "TAF LHDC 210515Z 2106/2115 04006KT 2500 BR NSC"
    },
    {
      "icao": "LIBD",
      "alert": "OK",
      "vis_m": 5000,
      "fzfg": false,
      "metar_trigger": false,
      "taf_trigger": false,
      "metar": "METAR LIBD 210750Z VRB02KT 5000 -RA BKN012 OVC040 06/06 Q1010",
      "taf": "TAF LIBD 210500Z 2106/2206 12008KT 8000 BKN020"
    },
    {
      "icao": "LIBG",
      "alert": "OK",
      "vis_m": 9999,
      "fzfg": false,
      "metar_trigger": false,
      "taf_trigger": false,
      "metar": "METAR LIBG 210750Z 06012KT 9999 -RA FEW015 SCT040 08/08 Q1008",
      "taf": "TAF LIBG 210731Z 2108/2115 05015KT 9999 RA FEW015 SCT040"
    },
    {
      "icao": "LIBP",
      "alert": "OK",
      "vis_m": 9999,
      "fzfg": false,
      "metar_trigger": false,
      "taf_trigger": false,
      "metar": "METAR LIBP 210750Z AUTO 27003KT 9999 BKN044/// OVC080/// 07/06 Q1012",
      "taf": "TAF LIBP 210500Z 2106/2206 VRB05KT 9999 FEW050"
    },
    {
      "icao": "LIBR",
      "alert": "OK",
      "vis_m": 9000,
      "fzfg": false,
      "metar_trigger": false,
      "taf_trigger": false,
      "metar": "METAR LIBR 210750Z 09018KT 9000 OVC045 10/07 Q1009",
      "taf": "TAF LIBR 210500Z 2106/2206 06015KT 8000 RA BKN020"
    },
    {
      "icao": "LICA",
      "alert": "OK",
      "vis_m": 5000,
      "fzfg": false,
      "metar_trigger": false,
      "taf_trigger": false,
      "metar": "METAR LICA 210750Z AUTO 07019KT 5000 RA OVC052/// 11/09 Q1002",
      "taf": "TAF LICA 210500Z 2106/2206 08022G35KT 8000 RA BKN040"
    },
    {
      "icao": "LICC",
      "alert": "OK",
      "vis_m": 9999,
      "fzfg": false,
      "metar_trigger": false,
      "taf_trigger": false,
      "metar": "METAR LICC 210750Z 30003KT 9999 FEW040 SCT070 13/11 Q1001",
      "taf": "TAF LICC 210500Z 2106/2206 VRB06KT 7000 RA BKN030"
    },
    {
      "icao": "LICJ",
      "alert": "OK",
      "vis_m": 9999,
      "fzfg": false,
      "metar_trigger": false,
      "taf_trigger": false,
      "metar": "METAR LICJ 210750Z 09017KT 9999 FEW020 SCT030 BKN070 13/09 Q0999 WS R07",
      "taf": "TAF LICJ 210500Z 2106/2206 07020G40KT 9999 BKN030"
    },
    {
      "icao": "LIMC",
      "alert": "OK",
      "vis_m": 200,
      "fzfg": true,
      "metar_trigger": false,
      "taf_trigger": false,
      "metar": "METAR LIMC 210750Z 02004KT 0200 R35R/0550U R17L/0400N R35L/0225N FZFG OVC001 M00/M00 Q1012 NOSIG",
      "taf": ""
    },
    {
      "icao": "LIME",
      "alert": "OK",
      "vis_m": 9999,
      "fzfg": false,
      "metar_trigger": false,
      "taf_trigger": false,
      "metar": "METAR LIME 210750Z 01005KT CAVOK 00/M02 Q1012 NOSIG",
      "taf": "TAF LIME 210500Z 2106/2206 VRB04KT CAVOK"
    },
    {
      "icao": "LIMF",
      "alert": "OK",
      "vis_m": 7000,
      "fzfg": false,
      "metar_trigger": false,
      "taf_trigger": false,
      "metar": "METAR LIMF 210750Z VRB02KT 7000 NSC M01/M03 Q1012",
      "taf": "TAF LIMF 210500Z 2106/2206 VRB04KT 9999 SCT060"
    },
    {
      "icao": "LIMJ",
      "alert": "OK",
      "vis_m": 9999,
      "fzfg": false,
      "metar_trigger": false,
      "taf_trigger": false,
      "metar": "METAR LIMJ 210750Z 05014KT CAVOK 06/M04 Q1010",
      "taf": "TAF LIMJ 210500Z 2106/2206 02015KT CAVOK"
    },
    {
      "icao": "LIPE",
      "alert": "OK",
      "vis_m": 7000,
      "fzfg": false,
      "metar_trigger": false,
      "taf_trigger": false,
      "metar": "METAR LIPE 210750Z 19004KT 140V200 7000 BKN030 00/M01 Q1014",
      "taf": "TAF LIPE 210500Z 2106/2206 VRB05KT 9999 FEW040"
    },
    {
      "icao": "LIPH",
      "alert": "OK",
      "vis_m": 9999,
      "fzfg": false,
      "metar_trigger": false,
      "taf_trigger": false,
      "metar": "METAR LIPH 210750Z 03005KT CAVOK M02/M07 Q1014",
      "taf": "TAF LIPH 210500Z 2106/2206 VRB05KT CAVOK"
    },
    {
      "icao": "LIPQ",
      "alert": "OK",
      "vis_m": 9999,
      "fzfg": false,
      "metar_trigger": false,
      "taf_trigger": false,
      "metar": "METAR LIPQ 210750Z AUTO 04005KT 9999 NCD M01/M09 Q1014",
      "taf": "TAF LIPQ 210500Z 2106/2206 VRB05KT CAVOK"
    },
    {
      "icao": "LIPR",
      "alert": "OK",
      "vis_m": 9999,
      "fzfg": false,
      "metar_trigger": false,
      "taf_trigger": false,
      "metar": "METAR LIPR 210750Z 29009KT 9999 -RA BKN030 03/M02 Q1013",
      "taf": "TAF LIPR 210500Z 2106/2206 30010KT 9999 SCT040"
    },
    {
      "icao": "LIPX",
      "alert": "OK",
      "vis_m": 9000,
      "fzfg": false,
      "metar_trigger": false,
      "taf_trigger": false,
      "metar": "METAR LIPX 210750Z 36002KT 9000 NSC M03/M05 Q1013",
      "taf": "TAF LIPX 210500Z 2106/2206 VRB04KT CAVOK"
    },
    {
      "icao": "LIPY",
      "alert": "OK",
      "vis_m": 9999,
      "fzfg": false,
      "metar_trigger": false,
      "taf_trigger": false,
      "metar": "METAR LIPY 210750Z AUTO 25004KT 220V280 9999 OVC052/// 04/01 Q1013",
      "taf": "TAF LIPY 210500Z 2106/2206 32008KT 9999 BKN020"
    },
    {
      "icao": "LIPZ",
      "alert": "OK",
      "vis_m": 9999,
      "fzfg": false,
      "metar_trigger": false,
      "taf_trigger": false,
      "metar": "METAR LIPZ 210750Z 03008KT CAVOK M02/M08 Q1014 NOSIG",
      "taf": "TAF LIPZ 210500Z 2106/2212 02007KT CAVOK"
    },
    {
      "icao": "LIRF",
      "alert": "OK",
      "vis_m": 9999,
      "fzfg": false,
      "metar_trigger": false,
      "taf_trigger": false,
      "metar": "METAR LIRF 210750Z 36006KT CAVOK 07/01 Q1007 NOSIG",
      "taf": "TAF LIRF 210500Z 2106/2212 04010KT 9999 SCT055"
    },
    {
      "icao": "LIRN",
      "alert": "OK",
      "vis_m": 9999,
      "fzfg": false,
      "metar_trigger": false,
      "taf_trigger": false,
      "metar": "METAR LIRN 210750Z 04012KT 9999 FEW020 BKN070 08/03 Q1006 NOSIG",
      "taf": "TAF LIRN 210500Z 2106/2206 05015G28KT 9999 BKN060"
    },
    {
      "icao": "LIRP",
      "alert": "OK",
      "vis_m": 9999,
      "fzfg": false,
      "metar_trigger": false,
      "taf_trigger": false,
      "metar": "METAR LIRP 210745Z 17004KT 9999 FEW070 02/M01 Q1010 NOSIG",
      "taf": "TAF LIRP 210500Z 2106/2206 06008KT CAVOK"
    },
    {
      "icao": "LIRZ",
      "alert": "OK",
      "vis_m": 9999,
      "fzfg": false,
      "metar_trigger": false,
      "taf_trigger": false,
      "metar": "METAR LIRZ 210750Z AUTO 02012KT 9999 NCD 06/02 Q1009",
      "taf": "TAF LIRZ 202300Z 2100/2124 06013KT 9999 FEW070"
    },
    {
      "icao": "LJLJ",
      "alert": "OK",
      "vis_m": 9999,
      "fzfg": false,
      "metar_trigger": false,
      "taf_trigger": false,
      "metar": "METAR LJLJ 210800Z 15003KT 120V190 9999 OVC015 M05/M09 Q1017 NOSIG",
      "taf": "TAF LJLJ 210500Z 2106/2206 12003KT 9999 OVC015"
    },
    {
      "icao": "LKMT",
      "alert": "OK",
      "vis_m": 9999,
      "fzfg": false,
      "metar_trigger": false,
      "taf_trigger": false,
      "metar": "METAR LKMT 210800Z 24013KT CAVOK M04/M07 Q1016 NOSIG",
      "taf": "TAF LKMT 210500Z 2106/2206 23014KT CAVOK"
    },
    {
      "icao": "LKPR",
      "alert": "OK",
      "vis_m": 9000,
      "fzfg": false,
      "metar_trigger": false,
      "taf_trigger": false,
      "metar": "METAR LKPR 210800Z 18007KT 9000 BKN011 M07/M09 Q1014 NOSIG",
      "taf": "TAF LKPR 210500Z 2106/2212 13005KT 9999 OVC010"
    },
    {
      "icao": "LLBG",
      "alert": "OK",
      "vis_m": 9999,
      "fzfg": false,
      "metar_trigger": false,
      "taf_trigger": false,
      "metar": "METAR LLBG 210750Z 10009KT CAVOK 14/M02 Q1022 BECMG 10020G30KT RMK FEW140",
      "taf": "TAF LLBG 210505Z 2106/2206 11010KT CAVOK"
    },
    {
      "icao": "LMML",
      "alert": "OK",
      "vis_m": 9999,
      "fzfg": false,
      "metar_trigger": false,
      "taf_trigger": false,
      "metar": "METAR LMML 210815Z 19006KT 160V220 9999 -RA FEW015CB SCT045 12/10 Q1001 NOSIG",
      "taf": "TAF LMML 210500Z 2106/2206 23015KT 9999 SCT015"
    },
    {
      "icao": "LOWW",
      "alert": "OK",
      "vis_m": 4000,
      "fzfg": false,
      "metar_trigger": false,
      "taf_trigger": false,
      "metar": "METAR LOWW 210750Z 14015KT 4000 BR OVC005 M05/M07 Q1017 TEMPO OVC004",
      "taf": "TAF LOWW 210515Z 2106/2212 14013KT 8000 FEW008 BKN010 TXM04/2212Z TNM07/2204Z"
    },
    {
      "icao": "LPFR",
      "alert": "OK",
      "vis_m": 3000,
      "fzfg": false,
      "metar_trigger": false,
      "taf_trigger": false,
      "metar": "METAR LPFR 210800Z 22011KT 3000 -RADZ BR SCT004 SCT010 BKN020 13/12 Q1014",
      "taf": "TAF LPFR 210500Z 2106/2206 24015KT 9999 SCT012 BKN025"
    },
    {
      "icao": "LPMA",
      "alert": "OK",
      "vis_m": 9999,
      "fzfg": false,
      "metar_trigger": false,
      "taf_trigger": false,
      "metar": "METAR LPMA 210800Z 28005KT 260V350 9999 FEW015 15/10 Q1021",
      "taf": "TAF LPMA 210500Z 2106/2206 VRB05KT 9999 SCT015"
    },
    {
      "icao": "LPPR",
      "alert": "OK",
      "vis_m": 2200,
      "fzfg": false,
      "metar_trigger": false,
      "taf_trigger": false,
      "metar": "METAR LPPR 210800Z 20013G27KT 160V240 2200 RA BR BKN004 BKN012 12/12 Q1002",
      "taf": "TAF LPPR 210500Z 2106/2206 19015KT 8000 -RA SCT008 BKN025"
    },
    {
      "icao": "LPPS",
      "alert": "OK",
      "vis_m": 9999,
      "fzfg": false,
      "metar_trigger": false,
      "taf_trigger": false,
      "metar": "METAR LPPS 210800Z 30016KT 9999 SCT006 SCT030 16/15 Q1021",
      "taf": "TAF LPPS 210500Z 2106/2212 29015KT 9999 SCT015"
    },
    {
      "icao": "LPPT",
      "alert": "OK",
      "vis_m": 3000,
      "fzfg": false,
      "metar_trigger": false,
      "taf_trigger": false,
      "metar": "METAR LPPT 210800Z 22013KT 3000 RA BR BKN004 14/14 Q1008",
      "taf": "TAF LPPT 210500Z 2106/2212 21013KT 9999 SCT008 BKN015"
    },
    {
      "icao": "LQBK",
      "alert": "OK",
      "vis_m": 5000,
      "fzfg": false,
      "metar_trigger": false,
      "taf_trigger": false,
      "metar": "METAR LQBK 210800Z 05002KT 5000 BR BKN007 OVC020 M03/M05 Q1019 NOSIG",
      "taf": ""
    },
    {
      "icao": "LQSA",
      "alert": "OK",
      "vis_m": 3000,
      "fzfg": false,
      "metar_trigger": false,
      "taf_trigger": false,
      "metar": "METAR LQSA 210800Z VRB01KT 3000 BR BKN006 OVC015 M06/M06 Q1016 NOSIG",
      "taf": "TAF LQSA 210500Z 2106/2206 VRB02KT 4000 BR BKN008 TX00/2113Z TNM07/2106Z"
    },
    {
      "icao": "LQTZ",
      "alert": "OK",
      "vis_m": 3000,
      "fzfg": false,
      "metar_trigger": false,
      "taf_trigger": false,
      "metar": "METAR LQTZ 210800Z 26002KT 3000 BR OVC007 M05/M05 Q1018",
      "taf": "TAF LQTZ 210500Z 2106/2206 VRB02KT 3000 BR BKN010 TXM00/2114Z TNM06/2205Z"
    },
    {
      "icao": "LRBC",
      "alert": "CRITICAL",
      "vis_m": 150,
      "fzfg": true,
      "metar_trigger": true,
      "taf_trigger": false,
      "metar": "METAR LRBC 210800Z 17010KT 0150 R16/0450U FZFG VV002 M07/M09 Q1022",
      "taf": ""
    },
    {
      "icao": "LRBS",
      "alert": "OK",
      "vis_m": 3000,
      "fzfg": false,
      "metar_trigger": false,
      "taf_trigger": false,
      "metar": "METAR LRBS 210800Z 05003KT 010V080 3000 BR BKN002 M08/M09 Q1025 TEMPO 3000 BKN005",
      "taf": ""
    },
    {
      "icao": "LRBV",
      "alert": "OK",
      "vis_m": 1000,
      "fzfg": true,
      "metar_trigger": false,
      "taf_trigger": false,
      "metar": "METAR LRBV 210800Z 18003KT 150V210 1000 0400NE R21/0800N PRFG VV002 M10/M11 Q1021",
      "taf": "TAF LRBV 210500Z 2106/2115 VRB04KT 0350 FZFG VV001"
    },
    {
      "icao": "LRCL",
      "alert": "OK",
      "vis_m": 1500,
      "fzfg": true,
      "metar_trigger": false,
      "taf_trigger": false,
      "metar": "METAR LRCL 210800Z 08003KT 1500 BCFG SCT001 BKN003 M14/M16 Q1022",
      "taf": "TAF LRCL 210500Z 2106/2115 VRB04KT 0600 FZFG VV002"
    },
    {
      "icao": "LRCV",
      "alert": "OK",
      "vis_m": 8000,
      "fzfg": false,
      "metar_trigger": false,
      "taf_trigger": false,
      "metar": "METAR LRCV 210800Z 00000KT 8000 3500NW BR NSC M05/M07 Q1023",
      "taf": "TAF LRCV 210500Z 2106/2115 VRB04KT 3000 BR NSC"
    },
    {
      "icao": "LRIA",
      "alert": "OK",
      "vis_m": 300,
      "fzfg": true,
      "metar_trigger": false,
      "taf_trigger": false,
      "metar": "METAR LRIA 210800Z 11006KT 0300 R14/0650N FZFG VV001 M08/M10 Q1023",
      "taf": "TAF LRIA 210500Z 2106/2115 11006KT 0300 FZFG VV001"
    },
    {
      "icao": "LROP",
      "alert": "OK",
      "vis_m": 400,
      "fzfg": true,
      "metar_trigger": false,
      "taf_trigger": false,
      "metar": "METAR LROP 210800Z 05006KT 0400 R08R/0800D R08L/1700D FZFG FEW002 BKN005 M09/M11 Q1024 BECMG 1500 BR",
      "taf": ""
    },
    {
      "icao": "LRSB",
      "alert": "CRITICAL",
      "vis_m": 150,
      "fzfg": true,
      "metar_trigger": true,
      "taf_trigger": false,
      "metar": "METAR LRSB 210800Z VRB01KT 0150 R27/0250N FZFG SCT001 M14/M15 Q1020",
      "taf": ""
    },
    {
      "icao": "LRSM",
      "alert": "OK",
      "vis_m": 9999,
      "fzfg": false,
      "metar_trigger": false,
      "taf_trigger": false,
      "metar": "METAR LRSM 210800Z 10005KT CAVOK M09/M11 Q1021",
      "taf": "TAF LRSM 210500Z 2106/2115 VRB04KT 5000 BR NSC"
    },
    {
      "icao": "LRSV",
      "alert": "OK",
      "vis_m": 9999,
      "fzfg": false,
      "metar_trigger": false,
      "taf_trigger": false,
      "metar": "METAR LRSV 210800Z 23006KT CAVOK M08/M10 Q1019",
      "taf": "TAF LRSV 210500Z 2106/2115 VRB04KT CAVOK"
    },
    {
      "icao": "LRTM",
      "alert": "WARNING",
      "vis_m": 400,
      "fzfg": true,
      "metar_trigger": false,
      "taf_trigger": true,
      "metar": "METAR LRTM 210800Z 06003KT 0400 R07/0800U FZFG -SN VV002 M15/M17 Q1023",
      "taf": "TAF LRTM 210500Z 2106/2115 VRB04KT 0150 FZFG VV001"
    },
    {
      "icao": "LRTR",
      "alert": "OK",
      "vis_m": 7000,
      "fzfg": false,
      "metar_trigger": false,
      "taf_trigger": false,
      "metar": "METAR LRTR 210800Z 00000KT 7000 NSC M07/M09 Q1020 NOSIG",
      "taf": "TAF LRTR 210500Z 2106/2206 10008KT CAVOK"
    },
    {
      "icao": "LTAC",
      "alert": "OK",
      "vis_m": 9999,
      "fzfg": false,
      "metar_trigger": false,
      "taf_trigger": false,
      "metar": "METAR LTAC 210750Z 02003KT 320V070 CAVOK M06/M10 Q1027 NOSIG RMK RWY21C VRB01KT RWY03L VRB02KT RWY21R 00000KT RWY03R VRB02KT RWY21L VRB02KT",
      "taf": "TAF LTAC 210440Z 2106/2206 VRB02KT CAVOK"
    },
    {
      "icao": "LTFM",
      "alert": "OK",
      "vis_m": 9999,
      "fzfg": false,
      "metar_trigger": false,
      "taf_trigger": false,
      "metar": "METAR LTFM 210750Z 10010KT CAVOK 04/M04 Q1024 NOSIG RMK RWY17L 10013KT RWY34L 10008KT RWY16R 11012KT RWY36 10010KT RWY18 12010KT",
      "taf": "TAF LTFM 210440Z 2106/2212 09015KT 9999 FEW040"
    },
    {
      "icao": "LUKK",
      "alert": "OK",
      "vis_m": 3700,
      "fzfg": false,
      "metar_trigger": false,
      "taf_trigger": false,
      "metar": "METAR LUKK 210800Z VRB02KT 3700 BR NSC M11/M12 Q1024 TEMPO 1500 BR",
      "taf": "TAF LUKK 210518Z 2106/2206 VRB04KT 3000 BR NSC"
    },
    {
      "icao": "LWOH",
      "alert": "OK",
      "vis_m": 8000,
      "fzfg": false,
      "metar_trigger": false,
      "taf_trigger": false,
      "metar": "METAR LWOH 210750Z 02010KT 350V050 8000 -SN SCT010 OVC033 01/M02 Q1016",
      "taf": "TAF LWOH 210555Z 2106/2206 03010KT 9999 SCT035 BKN070"
    },
    {
      "icao": "LWSK",
      "alert": "OK",
      "vis_m": 1200,
      "fzfg": false,
      "metar_trigger": false,
      "taf_trigger": false,
      "metar": "METAR LWSK 210750Z 03002KT 1200 R34/1600U -SN SCT010 BKN020 OVC030 M01/M02 Q1022 NOSIG",
      "taf": "TAF LWSK 210555Z 2106/2206 VRB02KT 5000 SCT040 OVC070"
    },
    {
      "icao": "LYBE",
      "alert": "OK",
      "vis_m": 500,
      "fzfg": true,
      "metar_trigger": false,
      "taf_trigger": false,
      "metar": "METAR LYBE 210800Z 27003KT 0500 R12L/0700D R30R/0900U FZFG VV001 M06/M06 Q1019 NOSIG",
      "taf": "TAF LYBE 210500Z 2106/2206 27005KT 0500 FZFG BKN001 TX05/2113Z TNM07/2106Z"
    },
    {
      "icao": "LYNI",
      "alert": "OK",
      "vis_m": 9999,
      "fzfg": false,
      "metar_trigger": false,
      "taf_trigger": false,
      "metar": "METAR LYNI 210800Z 11015KT 080V140 9999 SCT080 01/M09 Q1020 NOSIG",
      "taf": "TAF LYNI 210500Z 2106/2206 10008KT CAVOK TX05/2113Z TNM04/2106Z"
    },
    {
      "icao": "LYPG",
      "alert": "OK",
      "vis_m": 8000,
      "fzfg": false,
      "metar_trigger": false,
      "taf_trigger": false,
      "metar": "METAR LYPG 210800Z 28005KT 8000 -RA FEW030 BKN046 OVC070 03/00 Q1015 NOSIG",
      "taf": "TAF LYPG 210500Z 2106/2206 16005KT 9999 SCT040 OVC070 TX08/2113Z TN02/2106Z"
    },
    {
      "icao": "LZIB",
      "alert": "OK",
      "vis_m": 2800,
      "fzfg": false,
      "metar_trigger": false,
      "taf_trigger": false,
      "metar": "METAR LZIB 210800Z 08005KT 2800 BR OVC003 M08/M09 Q1019 BECMG 3000 BR OVC006",
      "taf": ""
    },
    {
      "icao": "LZKZ",
      "alert": "OK",
      "vis_m": 9999,
      "fzfg": false,
      "metar_trigger": false,
      "taf_trigger": false,
      "metar": "METAR LZKZ 210800Z 13002KT 9999 3000S FEW001 M11/M14 Q1020 NOSIG",
      "taf": "TAF LZKZ 210515Z 2106/2206 VRB02KT CAVOK"
    },
    {
      "icao": "LZTT",
      "alert": "OK",
      "vis_m": 9999,
      "fzfg": false,
      "metar_trigger": false,
      "taf_trigger": false,
      "metar": "METAR LZTT 210800Z 17007KT CAVOK M07/M11 Q1016 NOSIG",
      "taf": "TAF LZTT 210515Z 2106/2206 20005KT CAVOK"
    },
    {
      "icao": "OEJN",
      "alert": "OK",
      "vis_m": 9999,
      "fzfg": false,
      "metar_trigger": false,
      "taf_trigger": false,
      "metar": "METAR OEJN 210800Z 01007KT CAVOK 29/09 Q1015 NOSIG",
      "taf": "TAF OEJN 210500Z 2106/2212 01005KT 7000 NSC"
    },
    {
      "icao": "OEMA",
      "alert": "OK",
      "vis_m": 9999,
      "fzfg": false,
      "metar_trigger": false,
      "taf_trigger": false,
      "metar": "METAR OEMA 210800Z 09010KT CAVOK 17/M01 Q1023 NOSIG",
      "taf": "TAF OEMA 210500Z 2106/2212 08012KT 7000 NSC"
    },
    {
      "icao": "OJAI",
      "alert": "OK",
      "vis_m": 4000,
      "fzfg": false,
      "metar_trigger": false,
      "taf_trigger": false,
      "metar": "METAR OJAI 210800Z 11014KT 4000 HZ NSC 05/M03 Q1025 NOSIG",
      "taf": "TAF OJAI 210447Z 2106/2212 08010KT 5000 HZ FEW030"
    },
    {
      "icao": "OMAA",
      "alert": "OK",
      "vis_m": 9999,
      "fzfg": false,
      "metar_trigger": false,
      "taf_trigger": false,
      "metar": "METAR OMAA 210800Z 31013KT 280V350 9999 FEW040 23/10 Q1017 NOSIG",
      "taf": "TAF OMAA 210500Z 2106/2212 20006KT 8000 NSC"
    },
    {
      "icao": "OMDB",
      "alert": "OK",
      "vis_m": 9999,
      "fzfg": false,
      "metar_trigger": false,
      "taf_trigger": false,
      "metar": "METAR OMDB 210800Z 31014KT 280V340 9999 FEW045 23/10 Q1017 NOSIG",
      "taf": "TAF OMDB 210500Z 2106/2212 29014KT 8000 NSC"
    },
    {
      "icao": "UAAA",
      "alert": "OK",
      "vis_m": 2400,
      "fzfg": false,
      "metar_trigger": false,
      "taf_trigger": false,
      "metar": "METAR UAAA 210800Z VRB01MPS 2400 BR FEW007 BKN200 M08/M09 Q1017 NOSIG",
      "taf": "TAF UAAA 210502Z 2106/2206 04003MPS 3100 BR SCT011 BKN050 TXM06/2108Z TNM14/2202Z"
    },
    {
      "icao": "UBBB",
      "alert": "OK",
      "vis_m": 9999,
      "fzfg": false,
      "metar_trigger": false,
      "taf_trigger": false,
      "metar": "METAR UBBB 210800Z 31020G30KT 9999 BKN020 03/M02 Q1027 NOSIG",
      "taf": "TAF UBBB 210502Z 2106/2206 31016G26KT 9999 SCT025 TX04/2110Z TN00/2201Z"
    },
    {
      "icao": "UDSG",
      "alert": "OK",
      "vis_m": 9999,
      "fzfg": false,
      "metar_trigger": false,
      "taf_trigger": false,
      "metar": "METAR UDSG 210800Z 14003KT 9999 NSC M06/M13 Q1024 NOSIG",
      "taf": "TAF UDSG 210500Z 2106/2206 VRB06KT 9999 FEW050"
    },
    {
      "icao": "UDYZ",
      "alert": "OK",
      "vis_m": 9000,
      "fzfg": false,
      "metar_trigger": false,
      "taf_trigger": false,
      "metar": "METAR UDYZ 210800Z VRB02KT 9000 NSC M03/M07 Q1026 NOSIG",
      "taf": "TAF UDYZ 210500Z 2106/2206 VRB06KT 9999 NSC"
    },
    {
      "icao": "UGKO",
      "alert": "OK",
      "vis_m": 4100,
      "fzfg": false,
      "metar_trigger": false,
      "taf_trigger": false,
      "metar": "METAR UGKO 210800Z 26009KT 4100 -RA BR SCT008 BKN010 OVC039 01/00 Q1031 NOSIG",
      "taf": "TAF UGKO 210500Z 2106/2206 26007KT 9999 SCT020 BKN050 TX06/2111Z TNM01/2206Z"
    }
  ]
}