{
  "ts_utc": "2026-07-01T01:57:13Z",
  "threshold_m": 150,
  "source": "stations_override.txt (ICAO list) + aviationweather.gov (METAR/TAF raw)",
  "station_count": 159,
  "stations": [
    {
      "icao": "BIKF",
      "alert": "OK",
      "vis_m": 9000,
      "fzfg": false,
      "metar_trigger": false,
      "taf_trigger": false,
      "metar": "METAR BIKF 010130Z 16018KT 9000 -RA BKN009 OVC035 09/09 Q1008",
      "taf": "TAF BIKF 010109Z 0103/0203 18022G32KT 9999 -RA BKN013 OVC025 TX11/0113Z TN07/0203Z"
    },
    {
      "icao": "BKPR",
      "alert": "OK",
      "vis_m": 9999,
      "fzfg": false,
      "metar_trigger": false,
      "taf_trigger": false,
      "metar": "METAR BKPR 010130Z 32005KT 300V360 9999 FEW075 20/14 Q1018 NOSIG",
      "taf": "TAF BKPR 302330Z 0100/0124 VRB05KT 9999 FEW060"
    },
    {
      "icao": "EBCI",
      "alert": "OK",
      "vis_m": 9999,
      "fzfg": false,
      "metar_trigger": false,
      "taf_trigger": false,
      "metar": "METAR EBCI 010150Z 26005KT CAVOK 14/11 Q1022 NOSIG",
      "taf": "TAF EBCI 302310Z 0100/0206 26005KT 9999 FEW040"
    },
    {
      "icao": "EDDB",
      "alert": "OK",
      "vis_m": 9999,
      "fzfg": false,
      "metar_trigger": false,
      "taf_trigger": false,
      "metar": "METAR EDDB 010150Z AUTO 01005KT CAVOK 19/17 Q1018 NOSIG",
      "taf": "TAF EDDB 302300Z 0100/0124 04006KT 9999 SCT040"
    },
    {
      "icao": "EDDH",
      "alert": "OK",
      "vis_m": 600,
      "fzfg": false,
      "metar_trigger": false,
      "taf_trigger": false,
      "metar": "METAR EDDH 010150Z AUTO VRB01KT 0600 0300 R23/1700U R15/0600D FG FEW001 15/14 Q1019 TEMPO 0500",
      "taf": ""
    },
    {
      "icao": "EDDK",
      "alert": "OK",
      "vis_m": 9999,
      "fzfg": false,
      "metar_trigger": false,
      "taf_trigger": false,
      "metar": "METAR EDDK 010150Z AUTO VRB01KT CAVOK 15/14 Q1020 NOSIG",
      "taf": "TAF EDDK 302300Z 0100/0206 VRB03KT CAVOK"
    },
    {
      "icao": "EDDN",
      "alert": "OK",
      "vis_m": 9999,
      "fzfg": false,
      "metar_trigger": false,
      "taf_trigger": false,
      "metar": "METAR EDDN 010150Z AUTO 26007KT 230V290 9999 +SHRA FEW035 FEW///CB 21/19 Q1017",
      "taf": "TAF EDDN 302300Z 0100/0124 10004KT 9999 SCT035"
    },
    {
      "icao": "EDDS",
      "alert": "OK",
      "vis_m": 9999,
      "fzfg": false,
      "metar_trigger": false,
      "taf_trigger": false,
      "metar": "METAR EDDS 010150Z AUTO VRB01KT 9999 SCT049 20/18 Q1018",
      "taf": "TAF EDDS 302300Z 0100/0124 25006KT CAVOK"
    },
    {
      "icao": "EDFH",
      "alert": "OK",
      "vis_m": 9999,
      "fzfg": false,
      "metar_trigger": false,
      "taf_trigger": false,
      "metar": "METAR EDFH 010150Z 34005KT CAVOK 16/14 Q1020",
      "taf": "TAF EDFH 302300Z 0100/0124 32007KT CAVOK"
    },
    {
      "icao": "EDJA",
      "alert": "OK",
      "vis_m": 9999,
      "fzfg": false,
      "metar_trigger": false,
      "taf_trigger": false,
      "metar": "METAR EDJA 010150Z AUTO 22006KT 9999 // SCT120/// 18/17 Q1019",
      "taf": "TAF EDJA 301700Z 3018/0103 20006KT CAVOK"
    },
    {
      "icao": "EDLW",
      "alert": "OK",
      "vis_m": 9999,
      "fzfg": false,
      "metar_trigger": false,
      "taf_trigger": false,
      "metar": "METAR EDLW 010150Z AUTO 00000KT 9999 // BKN099/// BKN130/// 15/13 Q1020",
      "taf": "TAF EDLW 301700Z 3018/0118 30004KT CAVOK"
    },
    {
      "icao": "EDNY",
      "alert": "OK",
      "vis_m": 9000,
      "fzfg": false,
      "metar_trigger": false,
      "taf_trigger": false,
      "metar": "METAR EDNY 010150Z AUTO VRB02KT 9000 // FEW009/// 19/18 Q1019",
      "taf": "TAF EDNY 301700Z 3018/0103 VRB03KT CAVOK"
    },
    {
      "icao": "EDSB",
      "alert": "OK",
      "vis_m": 9999,
      "fzfg": false,
      "metar_trigger": false,
      "taf_trigger": false,
      "metar": "METAR EDSB 010150Z AUTO 05004KT 9999 FEW018/// SCT063/// BKN096/// 20/18 Q1018",
      "taf": "TAF EDSB 302300Z 0100/0124 22004KT CAVOK"
    },
    {
      "icao": "EETN",
      "alert": "OK",
      "vis_m": 9999,
      "fzfg": false,
      "metar_trigger": false,
      "taf_trigger": false,
      "metar": "METAR EETN 010150Z 35003KT CAVOK 18/14 Q1019",
      "taf": "TAF EETN 302330Z 0100/0124 VRB02KT CAVOK"
    },
    {
      "icao": "EFTU",
      "alert": "OK",
      "vis_m": 9999,
      "fzfg": false,
      "metar_trigger": false,
      "taf_trigger": false,
      "metar": "METAR EFTU 010150Z AUTO 01003KT CAVOK 13/11 Q1020",
      "taf": "TAF EFTU 302327Z 0100/0124 01003KT CAVOK"
    },
    {
      "icao": "EGBB",
      "alert": "OK",
      "vis_m": 9999,
      "fzfg": false,
      "metar_trigger": false,
      "taf_trigger": false,
      "metar": "METAR EGBB 010150Z 28004KT CAVOK 13/12 Q1022",
      "taf": "TAF EGBB 302256Z 0100/0124 30005KT 9999 SCT030"
    },
    {
      "icao": "EGGP",
      "alert": "OK",
      "vis_m": 9999,
      "fzfg": false,
      "metar_trigger": false,
      "taf_trigger": false,
      "metar": "METAR EGGP 010150Z 23003KT 9999 FEW019 BKN024 15/14 Q1021",
      "taf": "TAF EGGP 302255Z 0100/0124 VRB03KT 9999 SCT025"
    },
    {
      "icao": "EGGW",
      "alert": "OK",
      "vis_m": 9999,
      "fzfg": false,
      "metar_trigger": false,
      "taf_trigger": false,
      "metar": "METAR EGGW 010150Z AUTO 29009KT 9999 FEW009 OVC032 16/14 Q1021",
      "taf": ""
    },
    {
      "icao": "EGKK",
      "alert": "OK",
      "vis_m": 9999,
      "fzfg": false,
      "metar_trigger": false,
      "taf_trigger": false,
      "metar": "METAR EGKK 010150Z 25004KT 9999 FEW037 14/13 Q1022",
      "taf": "TAF EGKK 302300Z 0100/0206 25010KT 9999 SCT030"
    },
    {
      "icao": "EGNM",
      "alert": "OK",
      "vis_m": 9999,
      "fzfg": false,
      "metar_trigger": false,
      "taf_trigger": false,
      "metar": "METAR EGNM 010150Z 27007KT 9999 FEW029 14/13 Q1021",
      "taf": "TAF EGNM 302255Z 0100/0124 27004KT 9999 SCT020"
    },
    {
      "icao": "EGPD",
      "alert": "OK",
      "vis_m": 9999,
      "fzfg": false,
      "metar_trigger": false,
      "taf_trigger": false,
      "metar": "METAR EGPD 010150Z AUTO VRB01KT 9999 NCD 11/10 Q1021",
      "taf": "TAF EGPD 302300Z 0100/0124 VRB03KT 9999 FEW045"
    },
    {
      "icao": "EGPF",
      "alert": "OK",
      "vis_m": 9999,
      "fzfg": false,
      "metar_trigger": false,
      "taf_trigger": false,
      "metar": "METAR EGPF 010150Z AUTO 26003KT 9999 FEW011 BKN018 OVC028 15/14 Q1021",
      "taf": "TAF EGPF 302254Z 0100/0124 VRB02KT 9999 BKN024"
    },
    {
      "icao": "EHBK",
      "alert": "OK",
      "vis_m": 9999,
      "fzfg": false,
      "metar_trigger": false,
      "taf_trigger": false,
      "metar": "METAR EHBK 010125Z AUTO 32005KT 9999 NSC 17/15 Q1020",
      "taf": "TAF EHBK 302258Z 0100/0206 VRB02KT CAVOK"
    },
    {
      "icao": "EHEH",
      "alert": "OK",
      "vis_m": 9999,
      "fzfg": false,
      "metar_trigger": false,
      "taf_trigger": false,
      "metar": "METAR EHEH 010125Z AUTO 27001KT 9999 NCD 13/12 Q1020 BLU",
      "taf": "TAF EHEH 302306Z 0100/0206 VRB02KT CAVOK"
    },
    {
      "icao": "EKBI",
      "alert": "OK",
      "vis_m": 9999,
      "fzfg": false,
      "metar_trigger": false,
      "taf_trigger": false,
      "metar": "METAR EKBI 010150Z AUTO 34002KT 9999 OVC096/// 14/12 Q1021",
      "taf": "TAF EKBI 302327Z 0100/0124 32008KT 9999 FEW040"
    },
    {
      "icao": "EKCH",
      "alert": "OK",
      "vis_m": 9999,
      "fzfg": false,
      "metar_trigger": false,
      "taf_trigger": false,
      "metar": "METAR EKCH 010150Z AUTO 04003KT 9999 SCT062/// OVC130/// 18/13 Q1020 NOSIG",
      "taf": "TAF EKCH 302327Z 0100/0124 02008KT 9999 FEW040"
    },
    {
      "icao": "ENAL",
      "alert": "OK",
      "vis_m": 9999,
      "fzfg": false,
      "metar_trigger": false,
      "taf_trigger": false,
      "metar": "METAR ENAL 010150Z AUTO 10003KT 9999 NCD 12/10 Q1021",
      "taf": "TAF ENAL 302300Z 0100/0109 12005KT 9999 BKN050"
    },
    {
      "icao": "ENBR",
      "alert": "OK",
      "vis_m": 9999,
      "fzfg": false,
      "metar_trigger": false,
      "taf_trigger": false,
      "metar": "METAR ENBR 010150Z AUTO VRB02KT 9999 NCD 13/12 Q1021 RMK WIND 1200FT VRB02KT",
      "taf": "TAF ENBR 302300Z 0100/0124 24005KT 9999 FEW020 SCT045"
    },
    {
      "icao": "ENGM",
      "alert": "OK",
      "vis_m": 9999,
      "fzfg": false,
      "metar_trigger": false,
      "taf_trigger": false,
      "metar": "METAR ENGM 010150Z 33002KT CAVOK 12/09 Q1019",
      "taf": "TAF ENGM 302300Z 0100/0124 19010KT CAVOK"
    },
    {
      "icao": "ENHD",
      "alert": "OK",
      "vis_m": 9999,
      "fzfg": false,
      "metar_trigger": false,
      "taf_trigger": false,
      "metar": "METAR ENHD 010150Z AUTO 36002KT 9999 NCD 13/12 Q1021",
      "taf": "TAF ENHD 301400Z 3015/3022 21010KT 9999 FEW030"
    },
    {
      "icao": "ENTC",
      "alert": "OK",
      "vis_m": 9999,
      "fzfg": false,
      "metar_trigger": false,
      "taf_trigger": false,
      "metar": "METAR ENTC 010150Z 22014KT 9999 -RA FEW027 SCT036 BKN046 10/08 Q1012 RMK WIND 2600FT 24019KT",
      "taf": ""
    },
    {
      "icao": "ENTO",
      "alert": "OK",
      "vis_m": 3300,
      "fzfg": false,
      "metar_trigger": false,
      "taf_trigger": false,
      "metar": "METAR ENTO 010150Z AUTO 35003KT 3300 // NCD 13/13 Q1019",
      "taf": "TAF ENTO 302300Z 0100/0124 06003KT CAVOK"
    },
    {
      "icao": "ENVA",
      "alert": "OK",
      "vis_m": 9999,
      "fzfg": false,
      "metar_trigger": false,
      "taf_trigger": false,
      "metar": "METAR ENVA 010150Z AUTO 11005KT 9999 SCT040/// 11/10 Q1022 RMK WIND 670FT 17003KT",
      "taf": "TAF ENVA 302300Z 0100/0124 14003KT 9999 BKN045"
    },
    {
      "icao": "ENZV",
      "alert": "OK",
      "vis_m": 9999,
      "fzfg": false,
      "metar_trigger": false,
      "taf_trigger": false,
      "metar": "METAR ENZV 010150Z AUTO 08002KT 9999 NCD 15/13 Q1021",
      "taf": "TAF ENZV 302300Z 0100/0124 32005KT CAVOK"
    },
    {
      "icao": "EPGD",
      "alert": "OK",
      "vis_m": 9999,
      "fzfg": false,
      "metar_trigger": false,
      "taf_trigger": false,
      "metar": "METAR EPGD 010130Z 12004KT 9999 -SHRA SCT046TCU 16/13 Q1019",
      "taf": "TAF EPGD 302330Z 0100/0124 10005KT 9999 BKN045"
    },
    {
      "icao": "EPKK",
      "alert": "OK",
      "vis_m": 9999,
      "fzfg": false,
      "metar_trigger": false,
      "taf_trigger": false,
      "metar": "METAR EPKK 010130Z 04004KT CAVOK 22/18 Q1015",
      "taf": "TAF EPKK 302330Z 0100/0124 04004KT CAVOK"
    },
    {
      "icao": "EPKT",
      "alert": "OK",
      "vis_m": 9999,
      "fzfg": false,
      "metar_trigger": false,
      "taf_trigger": false,
      "metar": "METAR EPKT 010130Z VRB01KT CAVOK 19/18 Q1015",
      "taf": "TAF EPKT 302330Z 0100/0124 VRB02KT CAVOK"
    },
    {
      "icao": "EPLB",
      "alert": "OK",
      "vis_m": 9999,
      "fzfg": false,
      "metar_trigger": false,
      "taf_trigger": false,
      "metar": "METAR EPLB 010130Z 08002KT CAVOK 21/17 Q1017",
      "taf": "TAF EPLB 302330Z 0100/0124 06005KT CAVOK"
    },
    {
      "icao": "EPMO",
      "alert": "OK",
      "vis_m": 9999,
      "fzfg": false,
      "metar_trigger": false,
      "taf_trigger": false,
      "metar": "METAR EPMO 010130Z 07008KT CAVOK 20/16 Q1017",
      "taf": "TAF EPMO 302330Z 0100/0124 08007KT CAVOK"
    },
    {
      "icao": "EPPO",
      "alert": "OK",
      "vis_m": 9999,
      "fzfg": false,
      "metar_trigger": false,
      "taf_trigger": false,
      "metar": "METAR EPPO 010130Z 06005KT 9999 FEW028 18/17 Q1017",
      "taf": "TAF EPPO 302330Z 0100/0124 04007KT 9999 SCT030"
    },
    {
      "icao": "EPRA",
      "alert": "OK",
      "vis_m": 9999,
      "fzfg": false,
      "metar_trigger": false,
      "taf_trigger": false,
      "metar": "METAR EPRA 010130Z 11008KT CAVOK 23/14 Q1016",
      "taf": "TAF EPRA 302330Z 0100/0109 10008KT CAVOK"
    },
    {
      "icao": "EPRZ",
      "alert": "OK",
      "vis_m": 9999,
      "fzfg": false,
      "metar_trigger": false,
      "taf_trigger": false,
      "metar": "METAR EPRZ 010130Z 09003KT CAVOK 22/18 Q1016",
      "taf": "TAF EPRZ 302330Z 0100/0124 VRB02KT CAVOK"
    },
    {
      "icao": "EPSC",
      "alert": "OK",
      "vis_m": 9999,
      "fzfg": false,
      "metar_trigger": false,
      "taf_trigger": false,
      "metar": "METAR EPSC 010130Z 35003KT 320V020 CAVOK 16/15 Q1018",
      "taf": "TAF EPSC 302330Z 0100/0124 10005KT CAVOK"
    },
    {
      "icao": "EPSY",
      "alert": "OK",
      "vis_m": 9999,
      "fzfg": false,
      "metar_trigger": false,
      "taf_trigger": false,
      "metar": "METAR EPSY 010130Z 01005KT CAVOK 17/14 Q1018",
      "taf": "TAF EPSY 302330Z 0100/0109 02004KT CAVOK"
    },
    {
      "icao": "EPWA",
      "alert": "OK",
      "vis_m": 9999,
      "fzfg": false,
      "metar_trigger": false,
      "taf_trigger": false,
      "metar": "METAR EPWA 010130Z 09007KT CAVOK 23/17 Q1016 NOSIG",
      "taf": "TAF EPWA 302330Z 0100/0124 09007KT CAVOK"
    },
    {
      "icao": "EPWR",
      "alert": "OK",
      "vis_m": 9999,
      "fzfg": false,
      "metar_trigger": false,
      "taf_trigger": false,
      "metar": "METAR EPWR 010130Z 32003KT 270V010 9999 -SHRA FEW007 BKN023CB 20/19 Q1015 RETS",
      "taf": "TAF EPWR 302330Z 0100/0124 34006KT 9999 SCT040"
    },
    {
      "icao": "ESGG",
      "alert": "OK",
      "vis_m": 9999,
      "fzfg": false,
      "metar_trigger": false,
      "taf_trigger": false,
      "metar": "METAR ESGG 010150Z 15004KT CAVOK 14/12 Q1020",
      "taf": "TAF ESGG 302330Z 0100/0124 15003KT CAVOK"
    },
    {
      "icao": "ESKN",
      "alert": "OK",
      "vis_m": 9999,
      "fzfg": false,
      "metar_trigger": false,
      "taf_trigger": false,
      "metar": "METAR ESKN 010150Z 00000KT CAVOK 14/14 Q1020",
      "taf": ""
    },
    {
      "icao": "ESMS",
      "alert": "OK",
      "vis_m": 9999,
      "fzfg": false,
      "metar_trigger": false,
      "taf_trigger": false,
      "metar": "METAR ESMS 010150Z 01002KT CAVOK 14/13 Q1020",
      "taf": "TAF ESMS 302327Z 0100/0124 VRB04KT 9999 FEW040"
    },
    {
      "icao": "ESSA",
      "alert": "OK",
      "vis_m": 9999,
      "fzfg": false,
      "metar_trigger": false,
      "taf_trigger": false,
      "metar": "METAR ESSA 010150Z 15004KT CAVOK 15/12 Q1020 NOSIG",
      "taf": "TAF ESSA 302330Z 0100/0124 13006KT CAVOK"
    },
    {
      "icao": "EYKA",
      "alert": "OK",
      "vis_m": 9999,
      "fzfg": false,
      "metar_trigger": false,
      "taf_trigger": false,
      "metar": "METAR EYKA 010150Z 06005KT CAVOK 16/14 Q1019",
      "taf": "TAF EYKA 302328Z 0100/0124 VRB03KT 9000 NSC"
    },
    {
      "icao": "EYPA",
      "alert": "OK",
      "vis_m": 9999,
      "fzfg": false,
      "metar_trigger": false,
      "taf_trigger": false,
      "metar": "METAR EYPA 010150Z 07005KT CAVOK 15/14 Q1019",
      "taf": "TAF EYPA 302301Z 0100/0124 VRB03KT 9000 NSC"
    },
    {
      "icao": "EYVI",
      "alert": "OK",
      "vis_m": 9999,
      "fzfg": false,
      "metar_trigger": false,
      "taf_trigger": false,
      "metar": "METAR EYVI 010150Z VRB02KT CAVOK 15/13 Q1019 NOSIG",
      "taf": "TAF EYVI 302328Z 0100/0124 VRB03KT 9000 NSC"
    },
    {
      "icao": "GCFV",
      "alert": "OK",
      "vis_m": 8000,
      "fzfg": false,
      "metar_trigger": false,
      "taf_trigger": false,
      "metar": "METAR GCFV 010130Z AUTO 01011KT 8000 NCD 21/18 Q1016",
      "taf": "TAF GCFV 302000Z 3021/0121 35009KT 9999 FEW015 TX28/0114Z TN21/0106Z"
    },
    {
      "icao": "GCLP",
      "alert": "OK",
      "vis_m": 9999,
      "fzfg": false,
      "metar_trigger": false,
      "taf_trigger": false,
      "metar": "METAR GCLP 010130Z 02024KT 9999 FEW020 21/18 Q1016 NOSIG",
      "taf": "TAF GCLP 302000Z 3021/0121 36025KT 9999 FEW020 TX29/0114Z TN23/0106Z"
    },
    {
      "icao": "GCTS",
      "alert": "OK",
      "vis_m": 9999,
      "fzfg": false,
      "metar_trigger": false,
      "taf_trigger": false,
      "metar": "METAR GCTS 010130Z 07007KT 050V110 9999 FEW025 22/17 Q1016 NOSIG",
      "taf": "TAF GCTS 302000Z 3021/0121 05009KT 9999 FEW025 TX29/0114Z TN21/0106Z"
    },
    {
      "icao": "GMAD",
      "alert": "OK",
      "vis_m": 8000,
      "fzfg": false,
      "metar_trigger": false,
      "taf_trigger": false,
      "metar": "METAR GMAD 010130Z 17007KT 140V200 8000 FEW006 21/18 Q1014 NOSIG",
      "taf": "TAF GMAD 302300Z 0100/0206 19007KT 8000 BKN006"
    },
    {
      "icao": "GMMN",
      "alert": "OK",
      "vis_m": 5000,
      "fzfg": false,
      "metar_trigger": false,
      "taf_trigger": false,
      "metar": "METAR GMMN 010130Z VRB01KT 5000 SCT007 20/18 Q1015 NOSIG",
      "taf": ""
    },
    {
      "icao": "GMMX",
      "alert": "OK",
      "vis_m": 9999,
      "fzfg": false,
      "metar_trigger": false,
      "taf_trigger": false,
      "metar": "METAR GMMX 010130Z 23007KT CAVOK 25/15 Q1016 NOSIG",
      "taf": "TAF GMMX 302300Z 0100/0206 24006KT 8000 NSC"
    },
    {
      "icao": "HEGN",
      "alert": "OK",
      "vis_m": 9999,
      "fzfg": false,
      "metar_trigger": false,
      "taf_trigger": false,
      "metar": "METAR HEGN 010100Z 29016KT CAVOK 30/12 Q1006 NOSIG",
      "taf": "TAF HEGN 302300Z 0100/0206 29015KT CAVOK"
    },
    {
      "icao": "HEMA",
      "alert": "OK",
      "vis_m": 9999,
      "fzfg": false,
      "metar_trigger": false,
      "taf_trigger": false,
      "metar": "METAR HEMA 010100Z 31010KT CAVOK 30/06 Q1004 NOSIG",
      "taf": "TAF HEMA 302300Z 0100/0206 30015KT CAVOK"
    },
    {
      "icao": "HESH",
      "alert": "OK",
      "vis_m": 9999,
      "fzfg": false,
      "metar_trigger": false,
      "taf_trigger": false,
      "metar": "METAR HESH 010100Z 36014KT CAVOK 30/16 Q1004 NOSIG",
      "taf": "TAF HESH 302300Z 0100/0206 34010KT CAVOK"
    },
    {
      "icao": "HESX",
      "alert": "OK",
      "vis_m": 4000,
      "fzfg": false,
      "metar_trigger": false,
      "taf_trigger": false,
      "metar": "METAR HESX 010100Z 34006KT 4000 BR NSC 21/19 Q1010 NOSIG",
      "taf": "TAF HESX 302300Z 0100/0206 35009KT CAVOK"
    },
    {
      "icao": "LATI",
      "alert": "OK",
      "vis_m": 9999,
      "fzfg": false,
      "metar_trigger": false,
      "taf_trigger": false,
      "metar": "METAR LATI 010150Z 11005KT CAVOK 22/14 Q1012 NOSIG",
      "taf": "TAF LATI 302300Z 0100/0124 VRB05KT CAVOK TX36/0111Z TN22/0104Z"
    },
    {
      "icao": "LBPD",
      "alert": "OK",
      "vis_m": 9999,
      "fzfg": false,
      "metar_trigger": false,
      "taf_trigger": false,
      "metar": "METAR LBPD 010130Z AUTO 00000KT 9999 SCT077/// 20/14 Q1013",
      "taf": "TAF LBPD 302300Z 0100/0124 VRB03KT 9999 SCT065"
    },
    {
      "icao": "LBSF",
      "alert": "OK",
      "vis_m": 9999,
      "fzfg": false,
      "metar_trigger": false,
      "taf_trigger": false,
      "metar": "METAR LBSF 010130Z AUTO 28005KT 9999 NCD 19/16 Q1017 NOSIG",
      "taf": "TAF LBSF 302300Z 0100/0124 VRB04KT 9999 SCT060"
    },
    {
      "icao": "LBWN",
      "alert": "OK",
      "vis_m": 9999,
      "fzfg": false,
      "metar_trigger": false,
      "taf_trigger": false,
      "metar": "METAR LBWN 010130Z AUTO VRB03KT 9999 NCD 24/18 Q1012 NOSIG",
      "taf": "TAF LBWN 302300Z 0100/0124 VRB03KT CAVOK"
    },
    {
      "icao": "LCLK",
      "alert": "OK",
      "vis_m": 9999,
      "fzfg": false,
      "metar_trigger": false,
      "taf_trigger": false,
      "metar": "METAR LCLK 010130Z VRB02KT CAVOK 22/20 Q1007 NOSIG",
      "taf": "TAF LCLK 302330Z 0100/0200 28006KT 9999 FEW025"
    },
    {
      "icao": "LCPH",
      "alert": "OK",
      "vis_m": 9999,
      "fzfg": false,
      "metar_trigger": false,
      "taf_trigger": false,
      "metar": "METAR LCPH 010130Z AUTO 35005KT 9999 NCD 23/20 Q1007 NOSIG",
      "taf": "TAF LCPH 302330Z 0100/0200 35009KT 9999 FEW020"
    },
    {
      "icao": "LEAL",
      "alert": "OK",
      "vis_m": 9999,
      "fzfg": false,
      "metar_trigger": false,
      "taf_trigger": false,
      "metar": "METAR LEAL 010130Z 29005KT CAVOK 25/24 Q1019 NOSIG",
      "taf": "TAF LEAL 302300Z 0100/0124 VRB04KT CAVOK TX32/0112Z TN23/0106Z"
    },
    {
      "icao": "LEBB",
      "alert": "OK",
      "vis_m": 9999,
      "fzfg": false,
      "metar_trigger": false,
      "taf_trigger": false,
      "metar": "METAR LEBB 010130Z AUTO 31003KT 280V350 9999 SCT024 BKN036 OVC050 20/17 Q1027",
      "taf": "TAF LEBB 302300Z 0100/0124 34007KT 9999 BKN020 TX22/0112Z TN18/0124Z"
    },
    {
      "icao": "LEBL",
      "alert": "OK",
      "vis_m": 9999,
      "fzfg": false,
      "metar_trigger": false,
      "taf_trigger": false,
      "metar": "METAR LEBL 010130Z 28004KT CAVOK 25/23 Q1019 NOSIG",
      "taf": "TAF LEBL 302300Z 0100/0124 VRB04KT CAVOK TX31/0113Z TN24/0106Z"
    },
    {
      "icao": "LECH",
      "alert": "OK",
      "vis_m": 9999,
      "fzfg": false,
      "metar_trigger": false,
      "taf_trigger": false,
      "metar": "METAR LECH 010130Z AUTO VRB01KT CAVOK 23/17 Q1020",
      "taf": "TAF LECH 302300Z 0100/0124 VRB04KT CAVOK TX33/0112Z TN19/0106Z"
    },
    {
      "icao": "LEMD",
      "alert": "OK",
      "vis_m": 9999,
      "fzfg": false,
      "metar_trigger": false,
      "taf_trigger": false,
      "metar": "METAR LEMD 010130Z 36007KT 330V030 CAVOK 25/14 Q1021 NOSIG",
      "taf": "TAF LEMD 302300Z 0100/0206 02010KT CAVOK TX39/0116Z TN20/0105Z"
    },
    {
      "icao": "LEMG",
      "alert": "OK",
      "vis_m": 9999,
      "fzfg": false,
      "metar_trigger": false,
      "taf_trigger": false,
      "metar": "METAR LEMG 010130Z 32001KT CAVOK 23/15 Q1019 NOSIG",
      "taf": "TAF LEMG 302300Z 0100/0124 27006KT 9999 FEW060 TX31/0114Z TN24/0105Z"
    },
    {
      "icao": "LEVC",
      "alert": "OK",
      "vis_m": 9999,
      "fzfg": false,
      "metar_trigger": false,
      "taf_trigger": false,
      "metar": "METAR LEVC 010130Z 31007KT CAVOK 25/17 Q1018 NOSIG",
      "taf": "TAF LEVC 302300Z 0100/0124 VRB04KT CAVOK TX33/0112Z TN24/0106Z"
    },
    {
      "icao": "LEXJ",
      "alert": "OK",
      "vis_m": 9999,
      "fzfg": false,
      "metar_trigger": false,
      "taf_trigger": false,
      "metar": "METAR LEXJ 010130Z AUTO 34003KT 270V010 9999 FEW034 OVC050 20/16 Q1027",
      "taf": "TAF LEXJ 302000Z 3021/0121 33009KT 9999 FEW020 BKN030 TX23/0115Z TN18/0106Z"
    },
    {
      "icao": "LEZG",
      "alert": "OK",
      "vis_m": 9999,
      "fzfg": false,
      "metar_trigger": false,
      "taf_trigger": false,
      "metar": "METAR LEZG 010130Z 29023G33KT CAVOK 21/13 Q1022 NOSIG",
      "taf": "TAF LEZG 302300Z 0100/0124 30020KT CAVOK TX30/0113Z TN18/0106Z"
    },
    {
      "icao": "LEZL",
      "alert": "OK",
      "vis_m": 9999,
      "fzfg": false,
      "metar_trigger": false,
      "taf_trigger": false,
      "metar": "METAR LEZL 010130Z AUTO 20005KT 160V240 CAVOK 28/17 Q1017",
      "taf": "TAF LEZL 302000Z 3021/0121 23010KT CAVOK TX41/0115Z TN24/0105Z"
    },
    {
      "icao": "LFBD",
      "alert": "OK",
      "vis_m": 9999,
      "fzfg": false,
      "metar_trigger": false,
      "taf_trigger": false,
      "metar": "METAR LFBD 010130Z AUTO 27004KT 9999 FEW030 17/14 Q1025 NOSIG",
      "taf": "TAF LFBD 302300Z 0100/0206 26005KT CAVOK TX26/0114Z TN17/0102Z"
    },
    {
      "icao": "LFLL",
      "alert": "OK",
      "vis_m": 9999,
      "fzfg": false,
      "metar_trigger": false,
      "taf_trigger": false,
      "metar": "METAR LFLL 010130Z 00000KT CAVOK 23/13 Q1019 NOSIG",
      "taf": "TAF LFLL 302300Z 0100/0206 35006KT CAVOK"
    },
    {
      "icao": "LFLS",
      "alert": "OK",
      "vis_m": 9999,
      "fzfg": false,
      "metar_trigger": false,
      "taf_trigger": false,
      "metar": "METAR LFLS 010130Z AUTO 15003KT CAVOK 19/14 Q1020",
      "taf": "TAF LFLS 301400Z 3015/0115 34010KT 9999 SCT060"
    },
    {
      "icao": "LFMN",
      "alert": "OK",
      "vis_m": 9999,
      "fzfg": false,
      "metar_trigger": false,
      "taf_trigger": false,
      "metar": "METAR LFMN 010130Z 33010KT CAVOK 26/17 Q1015 NOSIG",
      "taf": "TAF LFMN 302000Z 3021/0203 33010KT CAVOK"
    },
    {
      "icao": "LFOB",
      "alert": "OK",
      "vis_m": 9999,
      "fzfg": false,
      "metar_trigger": false,
      "taf_trigger": false,
      "metar": "METAR LFOB 010130Z AUTO 30005KT CAVOK 11/11 Q1023 NOSIG",
      "taf": "TAF LFOB 302300Z 0100/0124 36007KT CAVOK"
    },
    {
      "icao": "LFPO",
      "alert": "OK",
      "vis_m": 9999,
      "fzfg": false,
      "metar_trigger": false,
      "taf_trigger": false,
      "metar": "METAR LFPO 010130Z AUTO 35010KT CAVOK 18/11 Q1023 NOSIG",
      "taf": "TAF LFPO 302300Z 0100/0206 01009KT CAVOK"
    },
    {
      "icao": "LFSB",
      "alert": "OK",
      "vis_m": 9999,
      "fzfg": false,
      "metar_trigger": false,
      "taf_trigger": false,
      "metar": "METAR LFSB 010130Z AUTO VRB01KT 9999 FEW029/// BKN086/// BKN200/// ///CB 21/19 Q1018 TEMPO 4000 SHRA",
      "taf": "TAF LFSB 302300Z 0100/0124 VRB02KT CAVOK"
    },
    {
      "icao": "LGAV",
      "alert": "OK",
      "vis_m": 9999,
      "fzfg": false,
      "metar_trigger": false,
      "taf_trigger": false,
      "metar": "METAR LGAV 010120Z VRB01KT CAVOK 22/14 Q1010 NOSIG",
      "taf": "TAF LGAV 302300Z 0100/0124 VRB05KT 9999 FEW025"
    },
    {
      "icao": "LGTS",
      "alert": "OK",
      "vis_m": 9999,
      "fzfg": false,
      "metar_trigger": false,
      "taf_trigger": false,
      "metar": "METAR LGTS 010150Z VRB02KT 9999 FEW025 22/17 Q1011 NOSIG",
      "taf": "TAF LGTS 302300Z 0100/0124 34010KT 9999 FEW030"
    },
    {
      "icao": "LHBP",
      "alert": "OK",
      "vis_m": 9999,
      "fzfg": false,
      "metar_trigger": false,
      "taf_trigger": false,
      "metar": "METAR LHBP 010130Z VRB02KT CAVOK 25/16 Q1015 NOSIG",
      "taf": "TAF LHBP 302315Z 0100/0124 VRB03KT CAVOK"
    },
    {
      "icao": "LHDC",
      "alert": "OK",
      "vis_m": 9999,
      "fzfg": false,
      "metar_trigger": false,
      "taf_trigger": false,
      "metar": "METAR LHDC 010115Z AUTO 05005KT CAVOK 21/17 Q1016",
      "taf": "TAF LHDC 301715Z 3018/0103 06007KT CAVOK"
    },
    {
      "icao": "LIBD",
      "alert": "OK",
      "vis_m": 9999,
      "fzfg": false,
      "metar_trigger": false,
      "taf_trigger": false,
      "metar": "METAR LIBD 010150Z AUTO 26004KT 9999 FEW140/// BKN160/// 25/22 Q1013",
      "taf": "TAF LIBD 302300Z 0100/0124 VRB05KT 9000 SCT030"
    },
    {
      "icao": "LIBG",
      "alert": "OK",
      "vis_m": 9999,
      "fzfg": false,
      "metar_trigger": false,
      "taf_trigger": false,
      "metar": "METAR LIBG 010150Z AUTO VRB02KT 9999 BKN170/// 25/20 Q1012",
      "taf": "TAF LIBG 302300Z 0100/0124 VRB05KT CAVOK"
    },
    {
      "icao": "LIBP",
      "alert": "OK",
      "vis_m": 9999,
      "fzfg": false,
      "metar_trigger": false,
      "taf_trigger": false,
      "metar": "METAR LIBP 010150Z AUTO 26003KT 9999 NCD 22/15 Q1014",
      "taf": "TAF LIBP 302300Z 0100/0124 VRB05KT CAVOK"
    },
    {
      "icao": "LIBR",
      "alert": "OK",
      "vis_m": 9999,
      "fzfg": false,
      "metar_trigger": false,
      "taf_trigger": false,
      "metar": "METAR LIBR 010150Z 29005KT CAVOK 26/23 Q1011",
      "taf": "TAF LIBR 302300Z 0100/0124 VRB05KT 9999 SCT030"
    },
    {
      "icao": "LICA",
      "alert": "OK",
      "vis_m": 9999,
      "fzfg": false,
      "metar_trigger": false,
      "taf_trigger": false,
      "metar": "METAR LICA 010150Z AUTO VRB01KT 9999 BKN021/// 25/22 Q1013",
      "taf": "TAF LICA 302300Z 0100/0124 VRB05KT 9999 FEW020"
    },
    {
      "icao": "LICC",
      "alert": "OK",
      "vis_m": 9999,
      "fzfg": false,
      "metar_trigger": false,
      "taf_trigger": false,
      "metar": "METAR LICC 010150Z 25004KT 210V320 CAVOK 24/17 Q1013",
      "taf": "TAF LICC 302300Z 0100/0124 24005KT CAVOK"
    },
    {
      "icao": "LICJ",
      "alert": "OK",
      "vis_m": 9999,
      "fzfg": false,
      "metar_trigger": false,
      "taf_trigger": false,
      "metar": "METAR LICJ 010150Z 19004KT CAVOK 25/20 Q1014",
      "taf": "TAF LICJ 302300Z 0100/0124 VRB05KT CAVOK"
    },
    {
      "icao": "LIMC",
      "alert": "OK",
      "vis_m": 9999,
      "fzfg": false,
      "metar_trigger": false,
      "taf_trigger": false,
      "metar": "METAR LIMC 010150Z VRB02KT CAVOK 23/19 Q1015 NOSIG",
      "taf": "TAF LIMC 302300Z 0100/0206 VRB05KT 9999 SCT050"
    },
    {
      "icao": "LIME",
      "alert": "OK",
      "vis_m": 9999,
      "fzfg": false,
      "metar_trigger": false,
      "taf_trigger": false,
      "metar": "METAR LIME 010150Z VRB02KT CAVOK 24/18 Q1015 NOSIG",
      "taf": "TAF LIME 302300Z 0100/0124 VRB05KT 9999 FEW050"
    },
    {
      "icao": "LIMF",
      "alert": "OK",
      "vis_m": 9999,
      "fzfg": false,
      "metar_trigger": false,
      "taf_trigger": false,
      "metar": "METAR LIMF 010150Z 26003KT 240V300 CAVOK 23/18 Q1016",
      "taf": "TAF LIMF 302300Z 0100/0124 VRB05KT 9999 FEW040"
    },
    {
      "icao": "LIMJ",
      "alert": "OK",
      "vis_m": 9999,
      "fzfg": false,
      "metar_trigger": false,
      "taf_trigger": false,
      "metar": "METAR LIMJ 010150Z VRB03KT CAVOK 26/19 Q1014",
      "taf": "TAF LIMJ 302300Z 0100/0124 VRB05KT CAVOK"
    },
    {
      "icao": "LIPE",
      "alert": "OK",
      "vis_m": 9999,
      "fzfg": false,
      "metar_trigger": false,
      "taf_trigger": false,
      "metar": "METAR LIPE 010150Z AUTO 20007KT 9999 NCD 25/18 Q1013",
      "taf": "TAF LIPE 302300Z 0100/0124 VRB05KT 9999 SCT030"
    },
    {
      "icao": "LIPH",
      "alert": "OK",
      "vis_m": 9999,
      "fzfg": false,
      "metar_trigger": false,
      "taf_trigger": false,
      "metar": "METAR LIPH 010150Z AUTO 02003KT 340V060 9999 NCD 26/21 Q1013",
      "taf": "TAF LIPH 302300Z 0100/0124 VRB05KT 9999 FEW040"
    },
    {
      "icao": "LIPQ",
      "alert": "OK",
      "vis_m": 9999,
      "fzfg": false,
      "metar_trigger": false,
      "taf_trigger": false,
      "metar": "METAR LIPQ 010150Z AUTO 01003KT 9999 NCD 20/17 Q1013",
      "taf": "TAF LIPQ 302300Z 0100/0124 VRB05KT 9999 FEW040"
    },
    {
      "icao": "LIPR",
      "alert": "OK",
      "vis_m": 9999,
      "fzfg": false,
      "metar_trigger": false,
      "taf_trigger": false,
      "metar": "METAR LIPR 010150Z AUTO 24003KT 9999 NCD 25/19 Q1014",
      "taf": "TAF LIPR 302300Z 0100/0124 VRB05KT CAVOK"
    },
    {
      "icao": "LIPX",
      "alert": "OK",
      "vis_m": 9999,
      "fzfg": false,
      "metar_trigger": false,
      "taf_trigger": false,
      "metar": "METAR LIPX 010150Z 27004KT CAVOK 24/21 Q1014",
      "taf": "TAF LIPX 302300Z 0100/0124 VRB05KT CAVOK"
    },
    {
      "icao": "LIPY",
      "alert": "OK",
      "vis_m": 9999,
      "fzfg": false,
      "metar_trigger": false,
      "taf_trigger": false,
      "metar": "METAR LIPY 010150Z AUTO 17003KT 9999 NCD 24/15 Q1014",
      "taf": "TAF LIPY 302300Z 0100/0124 VRB05KT CAVOK"
    },
    {
      "icao": "LIPZ",
      "alert": "OK",
      "vis_m": 9999,
      "fzfg": false,
      "metar_trigger": false,
      "taf_trigger": false,
      "metar": "METAR LIPZ 010150Z 04005KT CAVOK 25/23 Q1013 NOSIG",
      "taf": "TAF LIPZ 302300Z 0100/0206 VRB05KT 9999 FEW040"
    },
    {
      "icao": "LIRF",
      "alert": "OK",
      "vis_m": 9999,
      "fzfg": false,
      "metar_trigger": false,
      "taf_trigger": false,
      "metar": "METAR LIRF 010150Z 33004KT CAVOK 22/20 Q1013 NOSIG",
      "taf": "TAF LIRF 302300Z 0100/0206 VRB05KT CAVOK"
    },
    {
      "icao": "LIRN",
      "alert": "OK",
      "vis_m": 9999,
      "fzfg": false,
      "metar_trigger": false,
      "taf_trigger": false,
      "metar": "METAR LIRN 010150Z 35003KT 300V020 9999 FEW080 25/19 Q1014 NOSIG",
      "taf": "TAF LIRN 302300Z 0100/0124 VRB05KT CAVOK"
    },
    {
      "icao": "LIRP",
      "alert": "OK",
      "vis_m": 9999,
      "fzfg": false,
      "metar_trigger": false,
      "taf_trigger": false,
      "metar": "METAR LIRP 010145Z 17002KT CAVOK 21/19 Q1015 NOSIG",
      "taf": "TAF LIRP 302300Z 0100/0124 VRB03KT CAVOK"
    },
    {
      "icao": "LIRZ",
      "alert": "OK",
      "vis_m": 9999,
      "fzfg": false,
      "metar_trigger": false,
      "taf_trigger": false,
      "metar": "METAR LIRZ 010150Z AUTO 02006KT 330V030 9999 NCD 20/16 Q1016",
      "taf": "TAF LIRZ 302300Z 0100/0124 VRB05KT CAVOK"
    },
    {
      "icao": "LJLJ",
      "alert": "OK",
      "vis_m": 9999,
      "fzfg": false,
      "metar_trigger": false,
      "taf_trigger": false,
      "metar": "METAR LJLJ 010130Z 35003KT CAVOK 17/15 Q1017 NOSIG",
      "taf": "TAF LJLJ 302300Z 0100/0200 32005KT 9999 FEW060"
    },
    {
      "icao": "LKMT",
      "alert": "OK",
      "vis_m": 9999,
      "fzfg": false,
      "metar_trigger": false,
      "taf_trigger": false,
      "metar": "METAR LKMT 010130Z VRB02KT CAVOK 20/20 Q1016 NOSIG",
      "taf": "TAF LKMT 302300Z 0100/0124 15005KT CAVOK"
    },
    {
      "icao": "LKPR",
      "alert": "OK",
      "vis_m": 9999,
      "fzfg": false,
      "metar_trigger": false,
      "taf_trigger": false,
      "metar": "METAR LKPR 010130Z VRB01KT 9999 VCTS FEW010 SCT040CB 20/19 Q1017 TEMPO 6000 TSRA",
      "taf": "TAF LKPR 302300Z 0100/0206 34008KT CAVOK"
    },
    {
      "icao": "LLBG",
      "alert": "OK",
      "vis_m": 9999,
      "fzfg": false,
      "metar_trigger": false,
      "taf_trigger": false,
      "metar": "METAR LLBG 010150Z 14005KT CAVOK 23/19 Q1009 TEMPO BKN011",
      "taf": "TAF LLBG 302307Z 0100/0124 VRB04KT 9999 FEW020 TX31/0111Z TN22/0102Z"
    },
    {
      "icao": "LMML",
      "alert": "OK",
      "vis_m": 9999,
      "fzfg": false,
      "metar_trigger": false,
      "taf_trigger": false,
      "metar": "METAR LMML 010145Z 26003KT 9999 FEW015 26/23 Q1014 NOSIG",
      "taf": "TAF LMML 302300Z 0100/0124 30005KT 9999 FEW018"
    },
    {
      "icao": "LOWW",
      "alert": "OK",
      "vis_m": 9999,
      "fzfg": false,
      "metar_trigger": false,
      "taf_trigger": false,
      "metar": "METAR LOWW 010150Z 32003KT CAVOK 23/15 Q1016 NOSIG",
      "taf": "TAF LOWW 302315Z 0100/0206 32010KT CAVOK TX32/0111Z TN19/0203Z"
    },
    {
      "icao": "LPFR",
      "alert": "OK",
      "vis_m": 9999,
      "fzfg": false,
      "metar_trigger": false,
      "taf_trigger": false,
      "metar": "METAR LPFR 010130Z VRB02KT CAVOK 26/18 Q1017",
      "taf": "TAF LPFR 302300Z 0100/0124 VRB02KT CAVOK"
    },
    {
      "icao": "LPMA",
      "alert": "OK",
      "vis_m": 9999,
      "fzfg": false,
      "metar_trigger": false,
      "taf_trigger": false,
      "metar": "METAR LPMA 010130Z 02019KT 330V040 9999 FEW014 21/16 Q1022",
      "taf": "TAF LPMA 302300Z 0100/0124 02018G30KT 9999 SCT015"
    },
    {
      "icao": "LPPR",
      "alert": "OK",
      "vis_m": 9999,
      "fzfg": false,
      "metar_trigger": false,
      "taf_trigger": false,
      "metar": "METAR LPPR 010130Z 01003KT 320V060 CAVOK 17/15 Q1020",
      "taf": "TAF LPPR 302300Z 0100/0124 36005KT CAVOK"
    },
    {
      "icao": "LPPS",
      "alert": "OK",
      "vis_m": 9999,
      "fzfg": false,
      "metar_trigger": false,
      "taf_trigger": false,
      "metar": "METAR LPPS 010130Z 04013G23KT 360V080 9999 SCT014 BKN030 20/15 Q1023",
      "taf": "TAF LPPS 302300Z 0100/0206 02015KT 9999 SCT015 BKN030"
    },
    {
      "icao": "LPPT",
      "alert": "OK",
      "vis_m": 9999,
      "fzfg": false,
      "metar_trigger": false,
      "taf_trigger": false,
      "metar": "METAR LPPT 010130Z 33013KT 9999 FEW014 19/15 Q1020 WS R02 NOSIG",
      "taf": "TAF LPPT 302300Z 0100/0206 33010KT CAVOK"
    },
    {
      "icao": "LQBK",
      "alert": "OK",
      "vis_m": 9999,
      "fzfg": false,
      "metar_trigger": false,
      "taf_trigger": false,
      "metar": "METAR LQBK 010130Z 24010KT 200V260 9999 SCT047 22/16 Q1015 NOSIG",
      "taf": "TAF LQBK 302300Z 0100/0124 15005KT CAVOK TX33/0112Z TN17/0123Z"
    },
    {
      "icao": "LQSA",
      "alert": "OK",
      "vis_m": 9999,
      "fzfg": false,
      "metar_trigger": false,
      "taf_trigger": false,
      "metar": "METAR LQSA 010130Z VRB02KT 9999 SCT065 18/17 Q1019 RERA",
      "taf": ""
    },
    {
      "icao": "LQTZ",
      "alert": "OK",
      "vis_m": 9999,
      "fzfg": false,
      "metar_trigger": false,
      "taf_trigger": false,
      "metar": "METAR LQTZ 010130Z 01003KT 340V040 CAVOK 19/19 Q1016",
      "taf": "TAF LQTZ 302300Z 0100/0124 03005KT 9999 FEW050 TX31/0113Z TN19/0103Z"
    },
    {
      "icao": "LRBC",
      "alert": "OK",
      "vis_m": 9999,
      "fzfg": false,
      "metar_trigger": false,
      "taf_trigger": false,
      "metar": "METAR LRBC 010130Z AUTO 34002KT 9999 SCT062/// 21/19 Q1016",
      "taf": "TAF LRBC 302300Z 0100/0109 33005KT CAVOK"
    },
    {
      "icao": "LRBS",
      "alert": "OK",
      "vis_m": 9999,
      "fzfg": false,
      "metar_trigger": false,
      "taf_trigger": false,
      "metar": "METAR LRBS 010130Z 29007KT 240V350 9999 -TSRA BKN040CB 20/19 Q1015 TEMPO 5000 TSRA",
      "taf": ""
    },
    {
      "icao": "LRBV",
      "alert": "OK",
      "vis_m": 9999,
      "fzfg": false,
      "metar_trigger": false,
      "taf_trigger": false,
      "metar": "METAR LRBV 010130Z AUTO VRB02KT 9999 NCD 17/17 Q1019",
      "taf": "TAF LRBV 302000Z 3021/0106 VRB04KT 9999 SCT040"
    },
    {
      "icao": "LRCL",
      "alert": "OK",
      "vis_m": 9999,
      "fzfg": false,
      "metar_trigger": false,
      "taf_trigger": false,
      "metar": "METAR LRCL 010130Z VRB02KT CAVOK 20/18 Q1017",
      "taf": "TAF LRCL 302300Z 0100/0109 VRB04KT CAVOK"
    },
    {
      "icao": "LRCV",
      "alert": "OK",
      "vis_m": 9999,
      "fzfg": false,
      "metar_trigger": false,
      "taf_trigger": false,
      "metar": "METAR LRCV 010130Z 30006KT 9999 -SHRA SCT049CB 21/20 Q1017",
      "taf": "TAF LRCV 302300Z 0100/0109 06010KT 9999 SCT045"
    },
    {
      "icao": "LRIA",
      "alert": "OK",
      "vis_m": 9999,
      "fzfg": false,
      "metar_trigger": false,
      "taf_trigger": false,
      "metar": "METAR LRIA 010130Z 29002KT CAVOK 22/19 Q1016",
      "taf": "TAF LRIA 302300Z 0100/0109 05005KT CAVOK"
    },
    {
      "icao": "LROP",
      "alert": "OK",
      "vis_m": 9999,
      "fzfg": false,
      "metar_trigger": false,
      "taf_trigger": false,
      "metar": "METAR LROP 010130Z 27010KT 9999 -TSRA BKN055CB 20/19 Q1016 TEMPO 5000 -TSRA",
      "taf": "TAF LROP 302300Z 0100/0124 33012KT 9999 SCT045"
    },
    {
      "icao": "LRSB",
      "alert": "OK",
      "vis_m": 9999,
      "fzfg": false,
      "metar_trigger": false,
      "taf_trigger": false,
      "metar": "METAR LRSB 010130Z 12003KT CAVOK 20/18 Q1018",
      "taf": "TAF LRSB 302300Z 0100/0124 VRB04KT CAVOK"
    },
    {
      "icao": "LRSM",
      "alert": "OK",
      "vis_m": 9999,
      "fzfg": false,
      "metar_trigger": false,
      "taf_trigger": false,
      "metar": "METAR LRSM 010130Z AUTO 10005KT 9999 NCD 21/16 Q1016",
      "taf": "TAF LRSM 302000Z 3021/0106 VRB04KT CAVOK"
    },
    {
      "icao": "LRSV",
      "alert": "OK",
      "vis_m": 9999,
      "fzfg": false,
      "metar_trigger": false,
      "taf_trigger": false,
      "metar": "METAR LRSV 010130Z 36004KT CAVOK 24/19 Q1018",
      "taf": "TAF LRSV 302300Z 0100/0109 VRB04KT CAVOK"
    },
    {
      "icao": "LRTM",
      "alert": "OK",
      "vis_m": 9999,
      "fzfg": false,
      "metar_trigger": false,
      "taf_trigger": false,
      "metar": "METAR LRTM 010130Z 09003KT CAVOK 18/18 Q1018",
      "taf": "TAF LRTM 302300Z 0100/0109 VRB04KT 9999 SCT040"
    },
    {
      "icao": "LRTR",
      "alert": "OK",
      "vis_m": 9999,
      "fzfg": false,
      "metar_trigger": false,
      "taf_trigger": false,
      "metar": "METAR LRTR 010130Z VRB01KT CAVOK 22/18 Q1015",
      "taf": "TAF LRTR 302300Z 0100/0124 03010KT 9999 SCT045"
    },
    {
      "icao": "LTAC",
      "alert": "OK",
      "vis_m": 9999,
      "fzfg": false,
      "metar_trigger": false,
      "taf_trigger": false,
      "metar": "METAR LTAC 010150Z 03007KT CAVOK 16/10 Q1016 NOSIG",
      "taf": "TAF LTAC 302240Z 0100/0124 06008KT CAVOK"
    },
    {
      "icao": "LTFM",
      "alert": "OK",
      "vis_m": 9999,
      "fzfg": false,
      "metar_trigger": false,
      "taf_trigger": false,
      "metar": "METAR LTFM 010150Z 03011KT 9999 FEW007 23/21 Q1011 NOSIG",
      "taf": "TAF LTFM 302240Z 0100/0206 04010KT 9999 SCT007"
    },
    {
      "icao": "LUKK",
      "alert": "OK",
      "vis_m": 9999,
      "fzfg": false,
      "metar_trigger": false,
      "taf_trigger": false,
      "metar": "METAR LUKK 010130Z 02007KT CAVOK 24/18 Q1016 NOSIG",
      "taf": "TAF LUKK 302302Z 0100/0124 04008KT CAVOK"
    },
    {
      "icao": "LWOH",
      "alert": "OK",
      "vis_m": 9999,
      "fzfg": false,
      "metar_trigger": false,
      "taf_trigger": false,
      "metar": "METAR LWOH 010150Z 35006KT 310V020 CAVOK 14/13 Q1017",
      "taf": "TAF LWOH 302310Z 0100/0124 03006KT 9999 FEW050 SCT090 TEMP0 0110/1016 VRB15G25KT TSRA FEW033CB BKN045"
    },
    {
      "icao": "LWSK",
      "alert": "OK",
      "vis_m": 9999,
      "fzfg": false,
      "metar_trigger": false,
      "taf_trigger": false,
      "metar": "METAR LWSK 010150Z 08005KT 030V110 CAVOK 20/17 Q1015 NOSIG",
      "taf": "TAF LWSK 302310Z 0100/0124 VRB02KT 9999 FEW050 SCT090"
    },
    {
      "icao": "LYBE",
      "alert": "OK",
      "vis_m": 9999,
      "fzfg": false,
      "metar_trigger": false,
      "taf_trigger": false,
      "metar": "METAR LYBE 010130Z 29005KT CAVOK 22/19 Q1015 NOSIG",
      "taf": ""
    },
    {
      "icao": "LYNI",
      "alert": "OK",
      "vis_m": 9999,
      "fzfg": false,
      "metar_trigger": false,
      "taf_trigger": false,
      "metar": "METAR LYNI 010130Z 09017KT 070V130 9999 -RA FEW040 SCT050 21/18 Q1017 RETSRA NOSIG",
      "taf": "TAF LYNI 302300Z 0100/0124 35005KT CAVOK TX33/0114Z TN19/0103Z"
    },
    {
      "icao": "LYPG",
      "alert": "OK",
      "vis_m": 9999,
      "fzfg": false,
      "metar_trigger": false,
      "taf_trigger": false,
      "metar": "METAR LYPG 010130Z 32010KT 9999 SCT034 SCT040 23/18 Q1014 NOSIG",
      "taf": "TAF LYPG 302300Z 0100/0124 34008KT 9999 SCT040 SCT080 TX36/0113Z TN21/0103Z"
    },
    {
      "icao": "LZIB",
      "alert": "OK",
      "vis_m": 9999,
      "fzfg": false,
      "metar_trigger": false,
      "taf_trigger": false,
      "metar": "METAR LZIB 010130Z 36009KT CAVOK 27/18 Q1015 NOSIG",
      "taf": "TAF LZIB 302315Z 0100/0200 04005KT CAVOK"
    },
    {
      "icao": "LZKZ",
      "alert": "OK",
      "vis_m": 9999,
      "fzfg": false,
      "metar_trigger": false,
      "taf_trigger": false,
      "metar": "METAR LZKZ 010130Z VRB02KT CAVOK 23/17 Q1017 NOSIG",
      "taf": "TAF LZKZ 302315Z 0100/0200 01004KT CAVOK"
    },
    {
      "icao": "LZTT",
      "alert": "OK",
      "vis_m": 9999,
      "fzfg": false,
      "metar_trigger": false,
      "taf_trigger": false,
      "metar": "METAR LZTT 010130Z 28005KT 9999 FEW050 19/19 Q1019",
      "taf": "TAF LZTT 302315Z 0100/0200 22004KT 9999 FEW065"
    },
    {
      "icao": "OEJN",
      "alert": "OK",
      "vis_m": 9999,
      "fzfg": false,
      "metar_trigger": false,
      "taf_trigger": false,
      "metar": "METAR OEJN 010100Z 35010KT CAVOK 30/16 Q1002 NOSIG",
      "taf": "TAF OEJN 302300Z 0100/0206 36006KT CAVOK"
    },
    {
      "icao": "OEMA",
      "alert": "OK",
      "vis_m": 9999,
      "fzfg": false,
      "metar_trigger": false,
      "taf_trigger": false,
      "metar": "METAR OEMA 010100Z 03007KT CAVOK 33/M02 Q1008 NOSIG",
      "taf": "TAF OEMA 302300Z 0100/0206 VRB03KT CAVOK"
    },
    {
      "icao": "OJAI",
      "alert": "OK",
      "vis_m": 5000,
      "fzfg": false,
      "metar_trigger": false,
      "taf_trigger": false,
      "metar": "METAR OJAI 010100Z 00000KT 5000 HZ NSC 16/06 Q1012 NOSIG",
      "taf": "TAF OJAI 302248Z 0100/0206 28006KT 5000 HZ NSC"
    },
    {
      "icao": "OMAA",
      "alert": "OK",
      "vis_m": 9999,
      "fzfg": false,
      "metar_trigger": false,
      "taf_trigger": false,
      "metar": "METAR OMAA 010130Z VRB01KT CAVOK 31/24 Q0997 NOSIG",
      "taf": "TAF OMAA 302300Z 0100/0206 21005KT 8000 NSC"
    },
    {
      "icao": "OMDB",
      "alert": "OK",
      "vis_m": 9999,
      "fzfg": false,
      "metar_trigger": false,
      "taf_trigger": false,
      "metar": "METAR OMDB 010130Z 19007KT CAVOK 31/26 Q0996 NOSIG",
      "taf": "TAF OMDB 302300Z 0100/0206 19005KT 8000 NSC"
    },
    {
      "icao": "UAAA",
      "alert": "OK",
      "vis_m": 9999,
      "fzfg": false,
      "metar_trigger": false,
      "taf_trigger": false,
      "metar": "METAR UAAA 010130Z 15004MPS 9999 -SHRA BKN050CB OVC100 20/16 Q1010 NOSIG",
      "taf": "TAF UAAA 302304Z 0100/0124 25003G08MPS 9999 BKN040CB OVC100 TX27/0110Z TN20/0101Z"
    },
    {
      "icao": "UBBB",
      "alert": "OK",
      "vis_m": 9999,
      "fzfg": false,
      "metar_trigger": false,
      "taf_trigger": false,
      "metar": "METAR UBBB 010130Z 30006KT 9999 FEW060CB 22/16 Q1011 NOSIG",
      "taf": "TAF UBBB 302305Z 0100/0124 32006KT 9999 FEW060CB TX29/0110Z TN19/0101Z"
    },
    {
      "icao": "UDSG",
      "alert": "OK",
      "vis_m": 9999,
      "fzfg": false,
      "metar_trigger": false,
      "taf_trigger": false,
      "metar": "METAR UDSG 010130Z 08004KT 9999 NSC 07/06 Q1019 NOSIG",
      "taf": "TAF UDSG 302300Z 0100/0124 36006KT 9999 FEW050"
    },
    {
      "icao": "UDYZ",
      "alert": "OK",
      "vis_m": 9999,
      "fzfg": false,
      "metar_trigger": false,
      "taf_trigger": false,
      "metar": "METAR UDYZ 010130Z 32003KT 270V360 9999 NSC 17/09 Q1014 NOSIG",
      "taf": "TAF UDYZ 302300Z 0100/0124 04006KT 9999 FEW040"
    },
    {
      "icao": "UGKO",
      "alert": "OK",
      "vis_m": 9999,
      "fzfg": false,
      "metar_trigger": false,
      "taf_trigger": false,
      "metar": "METAR UGKO 010130Z 14002KT 9999 BKN095 19/18 Q1013 NOSIG",
      "taf": "TAF UGKO 302300Z 0100/0124 08007KT 9999 SCT080 TX30/0111Z TN18/0102Z"
    }
  ]
}