{
  "ts_utc": "2026-01-14T02:09:55Z",
  "threshold_m": 150,
  "source": "stations_override.txt (ICAO list) + aviationweather.gov (METAR/TAF raw)",
  "station_count": 159,
  "stations": [
    {
      "icao": "BIKF",
      "alert": "OK",
      "vis_m": 9999,
      "fzfg": false,
      "metar_trigger": false,
      "taf_trigger": false,
      "metar": "METAR BIKF 140200Z 08005KT 030V110 CAVOK M03/M06 Q0992",
      "taf": "TAF BIKF 140105Z 1403/1503 01015KT 9999 SCT035 TX01/1419Z TNM04/1403Z"
    },
    {
      "icao": "BKPR",
      "alert": "OK",
      "vis_m": 9999,
      "fzfg": false,
      "metar_trigger": false,
      "taf_trigger": false,
      "metar": "METAR BKPR 140200Z VRB01KT 9999 FEW050 01/M00 Q1024 NOSIG",
      "taf": "TAF BKPR 132330Z 1400/1424 32005KT CAVOK"
    },
    {
      "icao": "EBCI",
      "alert": "OK",
      "vis_m": 9999,
      "fzfg": false,
      "metar_trigger": false,
      "taf_trigger": false,
      "metar": "METAR EBCI 140150Z 21011KT CAVOK 10/06 Q1010 NOSIG",
      "taf": "TAF EBCI 132316Z 1400/1506 21009KT 9999 SCT008 BKN018"
    },
    {
      "icao": "EDDB",
      "alert": "OK",
      "vis_m": 7000,
      "fzfg": false,
      "metar_trigger": false,
      "taf_trigger": false,
      "metar": "METAR EDDB 140150Z AUTO 15008KT 7000 NSC 03/03 Q1011 NOSIG",
      "taf": "TAF EDDB 132300Z 1400/1424 17007KT 8000 SCT030"
    },
    {
      "icao": "EDDH",
      "alert": "OK",
      "vis_m": 9999,
      "fzfg": false,
      "metar_trigger": false,
      "taf_trigger": false,
      "metar": "METAR EDDH 140150Z AUTO 20006KT 170V230 9999 -RA OVC017 06/05 Q1006 TEMPO 3000 RA BKN004",
      "taf": "TAF EDDH 132300Z 1400/1506 17007KT 6000 SCT003 BKN020"
    },
    {
      "icao": "EDDK",
      "alert": "OK",
      "vis_m": 9999,
      "fzfg": false,
      "metar_trigger": false,
      "taf_trigger": false,
      "metar": "METAR EDDK 140150Z AUTO 21006KT 180V240 CAVOK 10/06 Q1010 NOSIG",
      "taf": "TAF EDDK 132300Z 1400/1506 17009KT CAVOK"
    },
    {
      "icao": "EDDN",
      "alert": "OK",
      "vis_m": 9999,
      "fzfg": false,
      "metar_trigger": false,
      "taf_trigger": false,
      "metar": "METAR EDDN 140150Z AUTO 11007KT 9999 FEW044 02/01 Q1014",
      "taf": "TAF EDDN 132300Z 1400/1424 12006KT CAVOK"
    },
    {
      "icao": "EDDS",
      "alert": "OK",
      "vis_m": 9999,
      "fzfg": false,
      "metar_trigger": false,
      "taf_trigger": false,
      "metar": "METAR EDDS 140150Z AUTO VRB02KT CAVOK 02/01 Q1013",
      "taf": "TAF EDDS 132300Z 1400/1424 VRB02KT CAVOK"
    },
    {
      "icao": "EDFH",
      "alert": "OK",
      "vis_m": 9999,
      "fzfg": false,
      "metar_trigger": false,
      "taf_trigger": false,
      "metar": "METAR EDFH 140150Z 21009KT CAVOK 08/05 Q1012",
      "taf": "TAF EDFH 132300Z 1400/1424 18008KT 9999 FEW040"
    },
    {
      "icao": "EDJA",
      "alert": "OK",
      "vis_m": 9999,
      "fzfg": false,
      "metar_trigger": false,
      "taf_trigger": false,
      "metar": "METAR EDJA 140150Z AUTO 20003KT 9999 // FEW140/// M01/M02 Q1015",
      "taf": "TAF EDJA 131700Z 1318/1403 19005KT CAVOK"
    },
    {
      "icao": "EDLW",
      "alert": "OK",
      "vis_m": 9999,
      "fzfg": false,
      "metar_trigger": false,
      "taf_trigger": false,
      "metar": "METAR EDLW 140150Z AUTO 21013KT 9999 // BKN027/// BKN076/// 10/06 Q1008",
      "taf": "TAF EDLW 131700Z 1318/1418 18012KT CAVOK"
    },
    {
      "icao": "EDNY",
      "alert": "OK",
      "vis_m": 1000,
      "fzfg": false,
      "metar_trigger": false,
      "taf_trigger": false,
      "metar": "METAR EDNY 140150Z AUTO 00000KT 1000 0800 R06/0900U // FEW002/// SCT240/// M03/M03 Q1017",
      "taf": ""
    },
    {
      "icao": "EDSB",
      "alert": "OK",
      "vis_m": 9999,
      "fzfg": false,
      "metar_trigger": false,
      "taf_trigger": false,
      "metar": "METAR EDSB 140150Z AUTO 20008KT 9999 // FEW240/// 07/04 Q1014",
      "taf": "TAF EDSB 132300Z 1400/1424 21004KT CAVOK"
    },
    {
      "icao": "EETN",
      "alert": "OK",
      "vis_m": 9999,
      "fzfg": false,
      "metar_trigger": false,
      "taf_trigger": false,
      "metar": "METAR EETN 140150Z 15002KT 9999 OVC003 M15/M17 Q1022",
      "taf": "TAF EETN 132330Z 1400/1424 14005KT 9999 SCT020"
    },
    {
      "icao": "EFTU",
      "alert": "OK",
      "vis_m": 9999,
      "fzfg": false,
      "metar_trigger": false,
      "taf_trigger": false,
      "metar": "METAR EFTU 140150Z AUTO 14009KT 110V170 9999 OVC008 M07/M08 Q1020",
      "taf": "TAF EFTU 132331Z 1400/1424 12006KT 9999 OVC010"
    },
    {
      "icao": "EGBB",
      "alert": "OK",
      "vis_m": 9999,
      "fzfg": false,
      "metar_trigger": false,
      "taf_trigger": false,
      "metar": "METAR EGBB 140150Z 23003KT CAVOK M02/M02 Q1010",
      "taf": "TAF EGBB 132255Z 1400/1424 25007KT 9999 FEW025"
    },
    {
      "icao": "EGGP",
      "alert": "OK",
      "vis_m": 9999,
      "fzfg": false,
      "metar_trigger": false,
      "taf_trigger": false,
      "metar": "METAR EGGP 140150Z AUTO 22006KT 9999 NCD 01/M00 Q1010",
      "taf": ""
    },
    {
      "icao": "EGGW",
      "alert": "OK",
      "vis_m": 9999,
      "fzfg": false,
      "metar_trigger": false,
      "taf_trigger": false,
      "metar": "METAR EGGW 140150Z AUTO 30007KT 9999 NCD 02/01 Q1010",
      "taf": "TAF EGGW 132301Z 1400/1424 30005KT 9999 FEW010"
    },
    {
      "icao": "EGKK",
      "alert": "OK",
      "vis_m": 9999,
      "fzfg": false,
      "metar_trigger": false,
      "taf_trigger": false,
      "metar": "METAR EGKK 140150Z 33003KT CAVOK 05/04 Q1010",
      "taf": "TAF EGKK 132254Z 1400/1506 32010KT 9999 FEW015 SCT025"
    },
    {
      "icao": "EGNM",
      "alert": "OK",
      "vis_m": null,
      "fzfg": false,
      "metar_trigger": false,
      "taf_trigger": false,
      "metar": "",
      "taf": "TAF EGNM 132258Z 1400/1424 27010KT 9999 FEW025"
    },
    {
      "icao": "EGPD",
      "alert": "OK",
      "vis_m": 9999,
      "fzfg": false,
      "metar_trigger": false,
      "taf_trigger": false,
      "metar": "METAR EGPD 140150Z COR AUTO 23010KT 9999 NCD 02/M02 Q1001 NOSIG",
      "taf": "TAF EGPD 132255Z 1400/1424 24009KT 9999 FEW040"
    },
    {
      "icao": "EGPF",
      "alert": "OK",
      "vis_m": 9999,
      "fzfg": false,
      "metar_trigger": false,
      "taf_trigger": false,
      "metar": "METAR EGPF 140150Z AUTO 22009KT 9999 //////TCU 03/01 Q1005",
      "taf": "TAF EGPF 132302Z 1400/1424 26009KT 9999 SCT025"
    },
    {
      "icao": "EHBK",
      "alert": "OK",
      "vis_m": 9999,
      "fzfg": false,
      "metar_trigger": false,
      "taf_trigger": false,
      "metar": "METAR EHBK 140155Z AUTO 21012KT 9999 NSC 10/07 Q1009",
      "taf": "TAF EHBK 132310Z 1400/1506 20013KT 9999 BKN018"
    },
    {
      "icao": "EHEH",
      "alert": "OK",
      "vis_m": 5000,
      "fzfg": false,
      "metar_trigger": false,
      "taf_trigger": false,
      "metar": "METAR EHEH 140155Z AUTO 22006KT 5000 +DZ OVC015 09/08 Q1008 WHT",
      "taf": "TAF EHEH 132310Z 1400/1506 19010KT 9999 SCT030"
    },
    {
      "icao": "EKBI",
      "alert": "OK",
      "vis_m": 1300,
      "fzfg": false,
      "metar_trigger": false,
      "taf_trigger": false,
      "metar": "METAR EKBI 140150Z AUTO 19006KT 1300 R09/P1500N R27/P1500N -DZ BCFG OVC002/// 04/04 Q1002",
      "taf": ""
    },
    {
      "icao": "EKCH",
      "alert": "OK",
      "vis_m": 4400,
      "fzfg": false,
      "metar_trigger": false,
      "taf_trigger": false,
      "metar": "METAR EKCH 140150Z 15013KT 4400 -RA OVC003 03/03 Q1006 BECMG 6000 RA",
      "taf": "TAF EKCH 132327Z 1400/1424 15015KT 0600 FG OVC004"
    },
    {
      "icao": "ENAL",
      "alert": "OK",
      "vis_m": 9999,
      "fzfg": false,
      "metar_trigger": false,
      "taf_trigger": false,
      "metar": "METAR ENAL 140150Z AUTO 13015KT 9999 NCD 05/M03 Q0993",
      "taf": "TAF ENAL 132300Z 1400/1409 13015KT 9999 BKN050"
    },
    {
      "icao": "ENBR",
      "alert": "OK",
      "vis_m": 9999,
      "fzfg": false,
      "metar_trigger": false,
      "taf_trigger": false,
      "metar": "METAR ENBR 140150Z 12012KT 9999 -RA OVC021 03/01 Q0995 RMK WIND 1200FT 14026KT",
      "taf": ""
    },
    {
      "icao": "ENGM",
      "alert": "OK",
      "vis_m": 4300,
      "fzfg": false,
      "metar_trigger": false,
      "taf_trigger": false,
      "metar": "METAR ENGM 140150Z 04005KT 4300 -SN FEW005 BKN015 M03/M04 Q1004",
      "taf": "TAF ENGM 132300Z 1400/1424 05010KT 3000 -SN FEW008 BKN015"
    },
    {
      "icao": "ENHD",
      "alert": "OK",
      "vis_m": 3800,
      "fzfg": false,
      "metar_trigger": false,
      "taf_trigger": false,
      "metar": "METAR ENHD 140150Z AUTO 14014KT 3800 R13///// R31/P2000N +RA FEW002/// BKN005/// 04/03 Q0996 REDZRA",
      "taf": ""
    },
    {
      "icao": "ENTC",
      "alert": "OK",
      "vis_m": 9999,
      "fzfg": false,
      "metar_trigger": false,
      "taf_trigger": false,
      "metar": "METAR ENTC 140150Z AUTO 19015KT 9999 SCT048/// OVC060/// M05/M12 Q1010 RMK WIND 2600FT 17009KT",
      "taf": "TAF ENTC 132300Z 1400/1424 19014KT 9999 BKN055"
    },
    {
      "icao": "ENTO",
      "alert": "OK",
      "vis_m": 1000,
      "fzfg": false,
      "metar_trigger": false,
      "taf_trigger": false,
      "metar": "METAR ENTO 140150Z AUTO 04006KT 1000 R18/P2000N R36/P2000N SN VV003 M00/M00 Q1002",
      "taf": "TAF ENTO 132300Z 1400/1424 VRB07KT 3000 -SN VV005"
    },
    {
      "icao": "ENVA",
      "alert": "OK",
      "vis_m": 9999,
      "fzfg": false,
      "metar_trigger": false,
      "taf_trigger": false,
      "metar": "METAR ENVA 140150Z AUTO 14009G23KT 080V180 9999 NCD 02/M06 Q1002 RMK WIND 670FT 15018G34KT",
      "taf": "TAF ENVA 132300Z 1400/1424 11009KT CAVOK"
    },
    {
      "icao": "ENZV",
      "alert": "OK",
      "vis_m": 4900,
      "fzfg": false,
      "metar_trigger": false,
      "taf_trigger": false,
      "metar": "METAR ENZV 140150Z 14011KT 4900 DZ SCT005 BKN009 BKN012 03/02 Q0997 REDZRA",
      "taf": "TAF ENZV 132300Z 1400/1424 13018KT 9999 -RA FEW020 BKN035"
    },
    {
      "icao": "EPGD",
      "alert": "OK",
      "vis_m": 7000,
      "fzfg": false,
      "metar_trigger": false,
      "taf_trigger": false,
      "metar": "METAR EPGD 140200Z 16010KT 7000 BKN013 M04/M05 Q1016",
      "taf": "TAF EPGD 132330Z 1400/1424 15010KT 8000 BKN030"
    },
    {
      "icao": "EPKK",
      "alert": "OK",
      "vis_m": 2700,
      "fzfg": false,
      "metar_trigger": false,
      "taf_trigger": false,
      "metar": "METAR EPKK 140200Z 05004KT 2700 BR SCT006 OVC007 M03/M04 Q1019",
      "taf": "TAF EPKK 132330Z 1400/1424 06004KT 2000 BR OVC007"
    },
    {
      "icao": "EPKT",
      "alert": "OK",
      "vis_m": 300,
      "fzfg": true,
      "metar_trigger": false,
      "taf_trigger": false,
      "metar": "METAR EPKT 140200Z 12005KT 0300 R26/0900N FZFG OVC001 M01/M01 Q1017",
      "taf": "TAF EPKT 132330Z 1400/1424 18004KT 2000 BR OVC007"
    },
    {
      "icao": "EPLB",
      "alert": "OK",
      "vis_m": 2000,
      "fzfg": false,
      "metar_trigger": false,
      "taf_trigger": false,
      "metar": "METAR EPLB 140200Z VRB01KT 2000 BR OVC004 M12/M13 Q1021",
      "taf": "TAF EPLB 132330Z 1400/1424 VRB02KT 3000 BR BKN006"
    },
    {
      "icao": "EPMO",
      "alert": "OK",
      "vis_m": 600,
      "fzfg": true,
      "metar_trigger": false,
      "taf_trigger": false,
      "metar": "METAR EPMO 140200Z 11006KT 0600 R08/0550N FZFG OVC003 M09/M10 Q1020",
      "taf": "TAF EPMO 132330Z 1400/1424 12007KT 3000 BR NSC"
    },
    {
      "icao": "EPPO",
      "alert": "OK",
      "vis_m": 3200,
      "fzfg": false,
      "metar_trigger": false,
      "taf_trigger": false,
      "metar": "METAR EPPO 140200Z 13009KT 3200 BR FEW005 BKN043 M00/M02 Q1015",
      "taf": ""
    },
    {
      "icao": "EPRA",
      "alert": "OK",
      "vis_m": 4800,
      "fzfg": false,
      "metar_trigger": false,
      "taf_trigger": false,
      "metar": "METAR EPRA 140200Z 14006KT 4800 BR BKN003 M11/M13 Q1020",
      "taf": "TAF EPRA 132330Z 1400/1409 12005KT 4000 BR BKN004"
    },
    {
      "icao": "EPRZ",
      "alert": "OK",
      "vis_m": 2400,
      "fzfg": false,
      "metar_trigger": false,
      "taf_trigger": false,
      "metar": "METAR EPRZ 140200Z 09004KT 2400 BR OVC018 M06/M07 Q1020",
      "taf": "TAF EPRZ 132330Z 1400/1424 20004KT 9999 OVC017"
    },
    {
      "icao": "EPSC",
      "alert": "OK",
      "vis_m": 2400,
      "fzfg": false,
      "metar_trigger": false,
      "taf_trigger": false,
      "metar": "METAR EPSC 140200Z 13016KT 2400 -FZRA BR SCT004 BKN025 01/01 Q1011",
      "taf": "TAF EPSC 132330Z 1400/1424 14013KT 1800 BR OVC002"
    },
    {
      "icao": "EPSY",
      "alert": "OK",
      "vis_m": 4700,
      "fzfg": false,
      "metar_trigger": false,
      "taf_trigger": false,
      "metar": "METAR EPSY 140200Z 13005KT 080V180 4700 BR SCT004 M13/M14 Q1020",
      "taf": "TAF EPSY 132330Z 1400/1409 VRB02KT 4000 BR NSC"
    },
    {
      "icao": "EPWA",
      "alert": "OK",
      "vis_m": 2600,
      "fzfg": true,
      "metar_trigger": false,
      "taf_trigger": false,
      "metar": "METAR EPWA 140200Z 12007KT 2600 MIFG BR BKN001 M10/M11 Q1020 TEMPO 0600 FZFG",
      "taf": "TAF EPWA 132330Z 1400/1424 12006KT 4000 BR NSC"
    },
    {
      "icao": "EPWR",
      "alert": "OK",
      "vis_m": 7000,
      "fzfg": false,
      "metar_trigger": false,
      "taf_trigger": false,
      "metar": "METAR EPWR 140200Z 12009KT 7000 NSC 01/00 Q1015",
      "taf": "TAF EPWR 132330Z 1400/1424 11008KT 5000 BR BKN035"
    },
    {
      "icao": "ESGG",
      "alert": "OK",
      "vis_m": 9999,
      "fzfg": false,
      "metar_trigger": false,
      "taf_trigger": false,
      "metar": "METAR ESGG 140150Z 13013KT 9999 -RA OVC002 01/01 Q1003",
      "taf": "TAF ESGG 132330Z 1400/1424 15010KT 0200 FG VV002"
    },
    {
      "icao": "ESKN",
      "alert": "OK",
      "vis_m": 2300,
      "fzfg": false,
      "metar_trigger": false,
      "taf_trigger": false,
      "metar": "METAR ESKN 140150Z 13015KT 2300 -SN VV017 00/M01 Q1013",
      "taf": "TAF ESKN 132330Z 1400/1424 16016G26KT 8000 -SN BKN018"
    },
    {
      "icao": "ESMS",
      "alert": "OK",
      "vis_m": 1800,
      "fzfg": false,
      "metar_trigger": false,
      "taf_trigger": false,
      "metar": "METAR ESMS 140150Z 13013KT 1800 RA OVC002 02/02 Q1007",
      "taf": "TAF ESMS 132327Z 1400/1424 13010KT 0150 FG OVC002"
    },
    {
      "icao": "ESSA",
      "alert": "OK",
      "vis_m": 5000,
      "fzfg": false,
      "metar_trigger": false,
      "taf_trigger": false,
      "metar": "METAR ESSA 140150Z 14012KT 5000 -SN SCT011 BKN014 M01/M02 Q1014 TEMPO 2500 -SN",
      "taf": "TAF ESSA 132330Z 1400/1424 14010KT 9999 -SN FEW008 BKN030"
    },
    {
      "icao": "EYKA",
      "alert": "OK",
      "vis_m": 5000,
      "fzfg": false,
      "metar_trigger": false,
      "taf_trigger": false,
      "metar": "METAR EYKA 140150Z 10003KT 5000 BR OVC003 M15/M17 Q1023",
      "taf": "TAF EYKA 132300Z 1400/1424 VRB04KT 5000 BR SCT005"
    },
    {
      "icao": "EYPA",
      "alert": "OK",
      "vis_m": 8000,
      "fzfg": false,
      "metar_trigger": false,
      "taf_trigger": false,
      "metar": "METAR EYPA 140150Z 15008KT 8000 OVC004 M09/M10 Q1020",
      "taf": ""
    },
    {
      "icao": "EYVI",
      "alert": "OK",
      "vis_m": 5000,
      "fzfg": false,
      "metar_trigger": false,
      "taf_trigger": false,
      "metar": "METAR EYVI 140150Z VRB02KT 5000 BR OVC002 M10/M12 Q1022 NOSIG",
      "taf": "TAF EYVI 132300Z 1400/1424 VRB04KT 5000 BR BKN002"
    },
    {
      "icao": "GCFV",
      "alert": "OK",
      "vis_m": 9999,
      "fzfg": false,
      "metar_trigger": false,
      "taf_trigger": false,
      "metar": "METAR GCFV 140200Z AUTO 33008KT CAVOK 15/10 Q1020",
      "taf": ""
    },
    {
      "icao": "GCLP",
      "alert": "OK",
      "vis_m": 9999,
      "fzfg": false,
      "metar_trigger": false,
      "taf_trigger": false,
      "metar": "METAR GCLP 140200Z 34010KT 9999 FEW035 BKN055 16/09 Q1021 NOSIG",
      "taf": "TAF GCLP 132000Z 1321/1421 36018KT 9999 SCT030 TX21/1414Z TN16/1406Z"
    },
    {
      "icao": "GCTS",
      "alert": "OK",
      "vis_m": 9999,
      "fzfg": false,
      "metar_trigger": false,
      "taf_trigger": false,
      "metar": "METAR GCTS 140200Z 01005KT 350V070 9999 FEW040 16/09 Q1021 NOSIG",
      "taf": "TAF GCTS 132000Z 1321/1421 02005KT 9999 SCT040 TX22/1414Z TN14/1406Z"
    },
    {
      "icao": "GMAD",
      "alert": "OK",
      "vis_m": 9999,
      "fzfg": false,
      "metar_trigger": false,
      "taf_trigger": false,
      "metar": "METAR GMAD 140200Z 05006KT CAVOK 12/11 Q1018 NOSIG",
      "taf": "TAF GMAD 132300Z 1400/1506 06006KT 8000 SCT020 BKN080"
    },
    {
      "icao": "GMMN",
      "alert": "OK",
      "vis_m": 9999,
      "fzfg": false,
      "metar_trigger": false,
      "taf_trigger": false,
      "metar": "METAR GMMN 140200Z 22005KT 9999 SCT013 BKN016 10/08 Q1018 NOSIG",
      "taf": "TAF GMMN 132300Z 1400/1506 20010KT 9999 SCT030 SCT100"
    },
    {
      "icao": "GMMX",
      "alert": "OK",
      "vis_m": 6000,
      "fzfg": false,
      "metar_trigger": false,
      "taf_trigger": false,
      "metar": "METAR GMMX 140200Z 05008KT 6000 RA SCT010 BKN016 11/09 Q1018 TEMPO 3000 SHRA",
      "taf": "TAF GMMX 132300Z 1400/1506 12006KT 8000 SCT010 BKN016"
    },
    {
      "icao": "HEGN",
      "alert": "OK",
      "vis_m": 9999,
      "fzfg": false,
      "metar_trigger": false,
      "taf_trigger": false,
      "metar": "METAR HEGN 140100Z 29009KT CAVOK 13/02 Q1022 NOSIG",
      "taf": "TAF HEGN 132300Z 1400/1506 29010G20KT 6000 NSC"
    },
    {
      "icao": "HEMA",
      "alert": "OK",
      "vis_m": 9999,
      "fzfg": false,
      "metar_trigger": false,
      "taf_trigger": false,
      "metar": "METAR HEMA 140100Z 27009KT CAVOK 12/01 Q1021 NOSIG",
      "taf": "TAF HEMA 132300Z 1400/1506 30010G20KT 8000 NSC"
    },
    {
      "icao": "HESH",
      "alert": "OK",
      "vis_m": 9999,
      "fzfg": false,
      "metar_trigger": false,
      "taf_trigger": false,
      "metar": "METAR HESH 140100Z 28004KT CAVOK 14/04 Q1021 NOSIG",
      "taf": "TAF HESH 132300Z 1400/1506 33012KT 8000 NSC"
    },
    {
      "icao": "HESX",
      "alert": "OK",
      "vis_m": 9999,
      "fzfg": false,
      "metar_trigger": false,
      "taf_trigger": false,
      "metar": "METAR HESX 140100Z 28003KT CAVOK 10/04 Q1023 NOSIG",
      "taf": "TAF HESX 132300Z 1400/1506 29009KT 6000 SCT030"
    },
    {
      "icao": "LATI",
      "alert": "OK",
      "vis_m": 9999,
      "fzfg": false,
      "metar_trigger": false,
      "taf_trigger": false,
      "metar": "METAR LATI 140150Z 18004KT 9999 SCT035 BKN060 06/03 Q1026 NOSIG",
      "taf": "TAF LATI 132300Z 1400/1424 VRB05KT 9999 SCT025 BKN060 TX12/1412Z TN03/1405Z"
    },
    {
      "icao": "LBPD",
      "alert": "OK",
      "vis_m": 9999,
      "fzfg": false,
      "metar_trigger": false,
      "taf_trigger": false,
      "metar": "METAR LBPD 140200Z AUTO 11005KT 9999 BKN065/// M01/M05 Q1021",
      "taf": "TAF LBPD 132300Z 1400/1424 VRB04KT 9999 OVC050"
    },
    {
      "icao": "LBSF",
      "alert": "OK",
      "vis_m": 9999,
      "fzfg": false,
      "metar_trigger": false,
      "taf_trigger": false,
      "metar": "METAR LBSF 140200Z AUTO 11004KT 060V150 9999 BKN040/// 01/M02 Q1022 NOSIG",
      "taf": "TAF LBSF 132300Z 1400/1424 30010KT 9999 OVC040"
    },
    {
      "icao": "LBWN",
      "alert": "OK",
      "vis_m": 9999,
      "fzfg": false,
      "metar_trigger": false,
      "taf_trigger": false,
      "metar": "METAR LBWN 140200Z AUTO 27003KT 9999 BKN013/// BKN018/// M00/M00 Q1021 NOSIG",
      "taf": "TAF LBWN 132300Z 1400/1424 VRB03KT 9999 SCT030"
    },
    {
      "icao": "LCLK",
      "alert": "OK",
      "vis_m": 9999,
      "fzfg": false,
      "metar_trigger": false,
      "taf_trigger": false,
      "metar": "METAR LCLK 140200Z 30005KT 9999 FEW060 06/03 Q1019 NOSIG",
      "taf": "TAF LCLK 132330Z 1400/1500 33009KT 9999 FEW020"
    },
    {
      "icao": "LCPH",
      "alert": "OK",
      "vis_m": 9999,
      "fzfg": false,
      "metar_trigger": false,
      "taf_trigger": false,
      "metar": "METAR LCPH 140200Z AUTO 01003KT 9999 FEW045 08/01 Q1019 NOSIG",
      "taf": "TAF LCPH 132330Z 1400/1500 35008KT 9999 FEW020"
    },
    {
      "icao": "LEAL",
      "alert": "OK",
      "vis_m": 9000,
      "fzfg": false,
      "metar_trigger": false,
      "taf_trigger": false,
      "metar": "METAR LEAL 140200Z 27004KT 9000 NSC 09/07 Q1017 NOSIG",
      "taf": "TAF LEAL 132300Z 1400/1424 VRB04KT 9999 SCT010 TX16/1413Z TN06/1406Z"
    },
    {
      "icao": "LEBB",
      "alert": "OK",
      "vis_m": 9999,
      "fzfg": false,
      "metar_trigger": false,
      "taf_trigger": false,
      "metar": "METAR LEBB 140200Z AUTO VRB02KT CAVOK 14/06 Q1013",
      "taf": "TAF LEBB 132300Z 1400/1424 13008KT 9999 FEW040 SCT060 TX18/1413Z TN07/1424Z"
    },
    {
      "icao": "LEBL",
      "alert": "OK",
      "vis_m": 9000,
      "fzfg": false,
      "metar_trigger": false,
      "taf_trigger": false,
      "metar": "METAR LEBL 140200Z 33007KT 9000 FEW015 09/08 Q1017 NOSIG",
      "taf": "TAF LEBL 132300Z 1400/1424 34007KT 9999 FEW010 BKN020 TX15/1412Z TN06/1406Z"
    },
    {
      "icao": "LECH",
      "alert": "OK",
      "vis_m": 1300,
      "fzfg": false,
      "metar_trigger": false,
      "taf_trigger": false,
      "metar": "METAR LECH 140200Z AUTO 32003KT 1300 R06/1500D BR FEW012 04/04 Q1017",
      "taf": ""
    },
    {
      "icao": "LEMD",
      "alert": "OK",
      "vis_m": 4000,
      "fzfg": false,
      "metar_trigger": false,
      "taf_trigger": false,
      "metar": "METAR LEMD 140200Z VRB01KT 4000 BR SCT035 BKN040 06/06 Q1016 NOSIG",
      "taf": "TAF LEMD 132300Z 1400/1506 VRB03KT 9999 SCT030 TX12/1415Z TN04/1407Z"
    },
    {
      "icao": "LEMG",
      "alert": "OK",
      "vis_m": 9999,
      "fzfg": false,
      "metar_trigger": false,
      "taf_trigger": false,
      "metar": "METAR LEMG 140200Z 00000KT 9999 FEW030 BKN060 10/09 Q1017 NOSIG",
      "taf": "TAF LEMG 132300Z 1400/1424 27008KT 9999 FEW030 TX17/1414Z TN10/1407Z"
    },
    {
      "icao": "LEVC",
      "alert": "OK",
      "vis_m": 4500,
      "fzfg": false,
      "metar_trigger": false,
      "taf_trigger": false,
      "metar": "METAR LEVC 140200Z 30004KT 4500 BR NSC 05/04 Q1017 NOSIG",
      "taf": "TAF LEVC 132300Z 1400/1424 VRB04KT 9999 FEW015 TX19/1414Z TN04/1406Z"
    },
    {
      "icao": "LEXJ",
      "alert": "OK",
      "vis_m": 5000,
      "fzfg": false,
      "metar_trigger": false,
      "taf_trigger": false,
      "metar": "METAR LEXJ 140200Z AUTO 26006KT 230V290 5000 HZ NSC 12/06 Q1013",
      "taf": "TAF LEXJ 132000Z 1321/1421 21009KT 9999 SCT080 TX17/1412Z TN13/1408Z"
    },
    {
      "icao": "LEZG",
      "alert": "OK",
      "vis_m": 5000,
      "fzfg": false,
      "metar_trigger": false,
      "taf_trigger": false,
      "metar": "METAR LEZG 140200Z 12005KT 5000 BR FEW085 07/07 Q1016 NOSIG",
      "taf": "TAF LEZG 132300Z 1400/1424 10005KT 9999 FEW010 TX14/1415Z TN05/1406Z"
    },
    {
      "icao": "LEZL",
      "alert": "OK",
      "vis_m": 8000,
      "fzfg": false,
      "metar_trigger": false,
      "taf_trigger": false,
      "metar": "METAR LEZL 140200Z AUTO 00000KT 8000 BKN008 BKN034 11/11 Q1017",
      "taf": "TAF LEZL 132000Z 1321/1421 VRB03KT 9999 FEW030 TX17/1415Z TN08/1407Z"
    },
    {
      "icao": "LFBD",
      "alert": "OK",
      "vis_m": 9999,
      "fzfg": false,
      "metar_trigger": false,
      "taf_trigger": false,
      "metar": "METAR LFBD 140200Z AUTO 15009KT CAVOK 10/08 Q1013 NOSIG",
      "taf": "TAF LFBD 132300Z 1400/1506 15005KT CAVOK TX15/1414Z TN05/1502Z"
    },
    {
      "icao": "LFLL",
      "alert": "OK",
      "vis_m": 9999,
      "fzfg": false,
      "metar_trigger": false,
      "taf_trigger": false,
      "metar": "METAR LFLL 140200Z 18011KT 150V210 CAVOK 12/06 Q1018 NOSIG",
      "taf": "TAF LFLL 132300Z 1400/1506 18012KT CAVOK"
    },
    {
      "icao": "LFLS",
      "alert": "OK",
      "vis_m": 9999,
      "fzfg": false,
      "metar_trigger": false,
      "taf_trigger": false,
      "metar": "METAR LFLS 140200Z AUTO 11004KT 070V210 CAVOK 05/03 Q1018",
      "taf": ""
    },
    {
      "icao": "LFMN",
      "alert": "OK",
      "vis_m": 9999,
      "fzfg": false,
      "metar_trigger": false,
      "taf_trigger": false,
      "metar": "METAR LFMN 140200Z 33008KT 9999 SCT043 10/06 Q1022 NOSIG",
      "taf": "TAF LFMN 132000Z 1321/1503 34010KT 9999 BKN035"
    },
    {
      "icao": "LFOB",
      "alert": "OK",
      "vis_m": 9999,
      "fzfg": false,
      "metar_trigger": false,
      "taf_trigger": false,
      "metar": "METAR LFOB 140200Z AUTO 23006KT 200V260 CAVOK 10/07 Q1011 BECMG OVC009",
      "taf": "TAF LFOB 132300Z 1400/1424 20007KT CAVOK"
    },
    {
      "icao": "LFPO",
      "alert": "OK",
      "vis_m": 9999,
      "fzfg": false,
      "metar_trigger": false,
      "taf_trigger": false,
      "metar": "METAR LFPO 140200Z AUTO 20006KT CAVOK 10/06 Q1012 TEMPO 4000 -RA BKN005",
      "taf": "TAF LFPO 132300Z 1400/1506 20005KT CAVOK"
    },
    {
      "icao": "LFSB",
      "alert": "OK",
      "vis_m": 9999,
      "fzfg": false,
      "metar_trigger": false,
      "taf_trigger": false,
      "metar": "METAR LFSB 140200Z AUTO 19007KT CAVOK 03/01 Q1016 NOSIG",
      "taf": "TAF LFSB 132300Z 1400/1424 17005KT CAVOK"
    },
    {
      "icao": "LGAV",
      "alert": "OK",
      "vis_m": 9999,
      "fzfg": false,
      "metar_trigger": false,
      "taf_trigger": false,
      "metar": "METAR LGAV 140150Z 36009KT 9999 FEW025 07/02 Q1024 NOSIG",
      "taf": "TAF LGAV 132300Z 1400/1424 VRB03KT 9999 FEW025"
    },
    {
      "icao": "LGTS",
      "alert": "OK",
      "vis_m": 9999,
      "fzfg": false,
      "metar_trigger": false,
      "taf_trigger": false,
      "metar": "METAR LGTS 140150Z VRB03KT 9999 FEW025 M02/M05 Q1025 NOSIG",
      "taf": "TAF LGTS 132300Z 1400/1424 34013KT 9999 FEW025"
    },
    {
      "icao": "LHBP",
      "alert": "OK",
      "vis_m": 7000,
      "fzfg": false,
      "metar_trigger": false,
      "taf_trigger": false,
      "metar": "METAR LHBP 140200Z 12007KT 7000 OVC007 M06/M07 Q1023 NOSIG",
      "taf": "TAF LHBP 132315Z 1400/1424 VRB03KT 6000 OVC015"
    },
    {
      "icao": "LHDC",
      "alert": "OK",
      "vis_m": 5000,
      "fzfg": false,
      "metar_trigger": false,
      "taf_trigger": false,
      "metar": "METAR LHDC 140145Z AUTO VRB01KT 5000 BR BKN009 OVC040 M07/M08 Q1024",
      "taf": "TAF LHDC 131415Z 1315/1324 06005KT 8000 BKN010 OVC025"
    },
    {
      "icao": "LIBD",
      "alert": "OK",
      "vis_m": 9999,
      "fzfg": false,
      "metar_trigger": false,
      "taf_trigger": false,
      "metar": "METAR LIBD 140150Z 21007KT CAVOK 05/03 Q1025",
      "taf": "TAF LIBD 132300Z 1400/1424 22007KT 9999 FEW040"
    },
    {
      "icao": "LIBG",
      "alert": "OK",
      "vis_m": null,
      "fzfg": false,
      "metar_trigger": false,
      "taf_trigger": false,
      "metar": "",
      "taf": "TAF LIBG 131700Z 1318/1403 VRB04KT 9999 FEW040"
    },
    {
      "icao": "LIBP",
      "alert": "OK",
      "vis_m": 9999,
      "fzfg": false,
      "metar_trigger": false,
      "taf_trigger": false,
      "metar": "METAR LIBP 140150Z AUTO 21004KT 9999 NCD 03/03 Q1024",
      "taf": "TAF LIBP 132300Z 1400/1424 VRB06KT CAVOK"
    },
    {
      "icao": "LIBR",
      "alert": "OK",
      "vis_m": 9999,
      "fzfg": false,
      "metar_trigger": false,
      "taf_trigger": false,
      "metar": "METAR LIBR 140150Z 25006KT 220V320 CAVOK 05/03 Q1025",
      "taf": "TAF LIBR 132300Z 1400/1424 VRB06KT 9999 FEW030"
    },
    {
      "icao": "LICA",
      "alert": "OK",
      "vis_m": 9999,
      "fzfg": false,
      "metar_trigger": false,
      "taf_trigger": false,
      "metar": "METAR LICA 140150Z AUTO 08007KT 9999 NCD 02/02 Q1026",
      "taf": "TAF LICA 132300Z 1400/1424 VRB05KT CAVOK"
    },
    {
      "icao": "LICC",
      "alert": "OK",
      "vis_m": 9999,
      "fzfg": false,
      "metar_trigger": false,
      "taf_trigger": false,
      "metar": "METAR LICC 140150Z 24009KT 9999 FEW035 09/05 Q1025",
      "taf": "TAF LICC 132300Z 1400/1424 26010KT CAVOK"
    },
    {
      "icao": "LICJ",
      "alert": "OK",
      "vis_m": 9999,
      "fzfg": false,
      "metar_trigger": false,
      "taf_trigger": false,
      "metar": "METAR LICJ 140150Z 16006KT 130V210 CAVOK 14/06 Q1025",
      "taf": "TAF LICJ 132300Z 1400/1424 18010KT CAVOK"
    },
    {
      "icao": "LIMC",
      "alert": "OK",
      "vis_m": 4000,
      "fzfg": false,
      "metar_trigger": false,
      "taf_trigger": false,
      "metar": "METAR LIMC 140150Z 00000KT 4000 BR VCFG OVC045 03/02 Q1023 NOSIG",
      "taf": "TAF LIMC 132300Z 1400/1506 VRB05KT 9999 BKN040"
    },
    {
      "icao": "LIME",
      "alert": "OK",
      "vis_m": 3000,
      "fzfg": false,
      "metar_trigger": false,
      "taf_trigger": false,
      "metar": "METAR LIME 140150Z 22002KT 3000 -RA BR BKN025 03/03 Q1023 NOSIG",
      "taf": "TAF LIME 132300Z 1400/1424 VRB04KT 4000 BR SCT035"
    },
    {
      "icao": "LIMF",
      "alert": "OK",
      "vis_m": 9999,
      "fzfg": false,
      "metar_trigger": false,
      "taf_trigger": false,
      "metar": "METAR LIMF 140150Z AUTO 04003KT 9999 BKN039/// BKN053/// 03/M02 Q1023",
      "taf": "TAF LIMF 132300Z 1400/1424 VRB03KT 9999 SCT040"
    },
    {
      "icao": "LIMJ",
      "alert": "OK",
      "vis_m": 9999,
      "fzfg": false,
      "metar_trigger": false,
      "taf_trigger": false,
      "metar": "METAR LIMJ 140150Z VRB01KT 9999 FEW022 BKN040 11/10 Q1022",
      "taf": "TAF LIMJ 132300Z 1400/1424 VRB05KT 9999 BKN020 BKN040"
    },
    {
      "icao": "LIPE",
      "alert": "OK",
      "vis_m": 9999,
      "fzfg": false,
      "metar_trigger": false,
      "taf_trigger": false,
      "metar": "METAR LIPE 140150Z 25001KT CAVOK 04/01 Q1023",
      "taf": "TAF LIPE 132300Z 1400/1424 VRB04KT 9999 BKN060"
    },
    {
      "icao": "LIPH",
      "alert": "OK",
      "vis_m": 9999,
      "fzfg": false,
      "metar_trigger": false,
      "taf_trigger": false,
      "metar": "METAR LIPH 140150Z AUTO 29003KT 250V330 9999 OVC028/// 04/00 Q1023",
      "taf": "TAF LIPH 132300Z 1400/1424 VRB04KT 9999 BKN040"
    },
    {
      "icao": "LIPQ",
      "alert": "OK",
      "vis_m": 9000,
      "fzfg": false,
      "metar_trigger": false,
      "taf_trigger": false,
      "metar": "METAR LIPQ 140150Z AUTO VRB02KT 9000 OVC033/// 05/03 Q1023",
      "taf": "TAF LIPQ 132300Z 1400/1424 VRB04KT 9999 BKN035"
    },
    {
      "icao": "LIPR",
      "alert": "OK",
      "vis_m": 8000,
      "fzfg": false,
      "metar_trigger": false,
      "taf_trigger": false,
      "metar": "METAR LIPR 140150Z AUTO 26003KT 8000 FEW075/// 03/01 Q1023",
      "taf": "TAF LIPR 132300Z 1400/1424 VRB05KT 9999 SCT050"
    },
    {
      "icao": "LIPX",
      "alert": "OK",
      "vis_m": 6000,
      "fzfg": false,
      "metar_trigger": false,
      "taf_trigger": false,
      "metar": "METAR LIPX 140150Z 36002KT 6000 OVC017 04/03 Q1023",
      "taf": "TAF LIPX 132300Z 1400/1424 VRB04KT 9999 BKN040"
    },
    {
      "icao": "LIPY",
      "alert": "OK",
      "vis_m": 9999,
      "fzfg": false,
      "metar_trigger": false,
      "taf_trigger": false,
      "metar": "METAR LIPY 140150Z AUTO 18005KT 9999 BKN056/// 10/04 Q1023",
      "taf": "TAF LIPY 132300Z 1400/1424 VRB05KT 9999 SCT050"
    },
    {
      "icao": "LIPZ",
      "alert": "OK",
      "vis_m": 9999,
      "fzfg": false,
      "metar_trigger": false,
      "taf_trigger": false,
      "metar": "METAR LIPZ 140150Z 28002KT 9999 BKN025 05/02 Q1023 NOSIG",
      "taf": "TAF LIPZ 132300Z 1400/1506 VRB04KT 9999 BKN040"
    },
    {
      "icao": "LIRF",
      "alert": "OK",
      "vis_m": 9999,
      "fzfg": false,
      "metar_trigger": false,
      "taf_trigger": false,
      "metar": "METAR LIRF 140150Z 09006KT 9999 FEW050 08/06 Q1024 NOSIG",
      "taf": "TAF LIRF 132300Z 1400/1506 09007KT 9999 SCT030"
    },
    {
      "icao": "LIRN",
      "alert": "OK",
      "vis_m": 9999,
      "fzfg": false,
      "metar_trigger": false,
      "taf_trigger": false,
      "metar": "METAR LIRN 140150Z VRB01KT 9999 SCT050 08/06 Q1025 NOSIG",
      "taf": "TAF LIRN 132300Z 1400/1424 VRB05KT 9999 SCT030"
    },
    {
      "icao": "LIRP",
      "alert": "OK",
      "vis_m": 9999,
      "fzfg": false,
      "metar_trigger": false,
      "taf_trigger": false,
      "metar": "METAR LIRP 140145Z 11005KT 9999 SCT030 09/08 Q1023 NOSIG",
      "taf": "TAF LIRP 132300Z 1400/1424 12005KT 9999 SCT030 BKN050"
    },
    {
      "icao": "LIRZ",
      "alert": "OK",
      "vis_m": 9999,
      "fzfg": false,
      "metar_trigger": false,
      "taf_trigger": false,
      "metar": "METAR LIRZ 140150Z AUTO 28003KT 9999 BKN031/// 06/05 Q1024",
      "taf": "TAF LIRZ 132300Z 1400/1424 VRB05KT 9999 SCT050"
    },
    {
      "icao": "LJLJ",
      "alert": "OK",
      "vis_m": 9999,
      "fzfg": false,
      "metar_trigger": false,
      "taf_trigger": false,
      "metar": "METAR LJLJ 140200Z 29006KT 9999 FEW003 SCT035 BKN045 01/00 Q1020 NOSIG",
      "taf": "TAF LJLJ 132300Z 1400/1500 28005KT 9999 FEW003 BKN025 OVC030"
    },
    {
      "icao": "LKMT",
      "alert": "OK",
      "vis_m": 4500,
      "fzfg": false,
      "metar_trigger": false,
      "taf_trigger": false,
      "metar": "METAR LKMT 140200Z 23009KT 4500 BR OVC024 00/M01 Q1018 NOSIG",
      "taf": "TAF LKMT 132300Z 1400/1424 23012KT 4000 BR SCT005 OVC030"
    },
    {
      "icao": "LKPR",
      "alert": "OK",
      "vis_m": 200,
      "fzfg": false,
      "metar_trigger": false,
      "taf_trigger": false,
      "metar": "METAR LKPR 140200Z 00000KT 0200 R24/0275N R30/0375N FG VV001 00/00 Q1015 NOSIG",
      "taf": "TAF LKPR 132300Z 1400/1506 17004KT 0500 FG VV002"
    },
    {
      "icao": "LLBG",
      "alert": "OK",
      "vis_m": 9999,
      "fzfg": false,
      "metar_trigger": false,
      "taf_trigger": false,
      "metar": "METAR LLBG 140150Z 29015KT 9999 FEW050 13/08 Q1019 TEMPO 8000 RA BKN030 RMK BKN054",
      "taf": "TAF LLBG 132311Z 1400/1424 30015KT 9999 SCT040"
    },
    {
      "icao": "LMML",
      "alert": "OK",
      "vis_m": 9999,
      "fzfg": false,
      "metar_trigger": false,
      "taf_trigger": false,
      "metar": "METAR LMML 140145Z 22006KT 9999 BKN021 14/11 Q1026 NOSIG",
      "taf": "TAF LMML 132300Z 1400/1424 20010KT 9999 SCT025"
    },
    {
      "icao": "LOWW",
      "alert": "OK",
      "vis_m": 3700,
      "fzfg": false,
      "metar_trigger": false,
      "taf_trigger": false,
      "metar": "METAR LOWW 140150Z 14009KT 100V160 3700 BR BKN004 M02/M03 Q1019 TEMPO 2000 BR",
      "taf": "TAF LOWW 132315Z 1400/1506 13008KT 4000 BR BKN006 TXM01/1400Z TNM02/1411Z"
    },
    {
      "icao": "LPFR",
      "alert": "OK",
      "vis_m": 9999,
      "fzfg": false,
      "metar_trigger": false,
      "taf_trigger": false,
      "metar": "METAR LPFR 140200Z 02008KT CAVOK 10/09 Q1016",
      "taf": "TAF LPFR 132300Z 1400/1424 VRB02KT 9999 FEW008"
    },
    {
      "icao": "LPMA",
      "alert": "OK",
      "vis_m": 9999,
      "fzfg": false,
      "metar_trigger": false,
      "taf_trigger": false,
      "metar": "METAR LPMA 140200Z 02008KT 330V050 9999 BKN015 16/08 Q1023",
      "taf": "TAF LPMA 132300Z 1400/1424 35010KT 9999 SCT015"
    },
    {
      "icao": "LPPR",
      "alert": "OK",
      "vis_m": 8000,
      "fzfg": false,
      "metar_trigger": false,
      "taf_trigger": false,
      "metar": "METAR LPPR 140200Z 16006KT 8000 -SHRA SCT006 BKN014 11/11 Q1013",
      "taf": "TAF LPPR 132300Z 1400/1424 17007KT 9999 SCT012 BKN025"
    },
    {
      "icao": "LPPS",
      "alert": "OK",
      "vis_m": 9999,
      "fzfg": false,
      "metar_trigger": false,
      "taf_trigger": false,
      "metar": "METAR LPPS 140200Z 35015KT 9999 SCT015 15/05 Q1023",
      "taf": "TAF LPPS 132300Z 1400/1506 35018KT 9999 SCT015"
    },
    {
      "icao": "LPPT",
      "alert": "OK",
      "vis_m": 9999,
      "fzfg": false,
      "metar_trigger": false,
      "taf_trigger": false,
      "metar": "METAR LPPT 140200Z 24006KT 9999 FEW020 10/09 Q1016",
      "taf": "TAF LPPT 132300Z 1400/1506 VRB05KT 9999 SCT012"
    },
    {
      "icao": "LQBK",
      "alert": "OK",
      "vis_m": 9999,
      "fzfg": false,
      "metar_trigger": false,
      "taf_trigger": false,
      "metar": "METAR LQBK 140200Z 18009KT CAVOK 04/02 Q1021 NOSIG",
      "taf": "TAF LQBK 132300Z 1400/1424 21006KT CAVOK TX11/1413Z TNM01/1406Z"
    },
    {
      "icao": "LQSA",
      "alert": "OK",
      "vis_m": 250,
      "fzfg": true,
      "metar_trigger": false,
      "taf_trigger": false,
      "metar": "METAR LQSA 140200Z VRB02KT 0250 R11/0275N FZFG VV003 M04/M04 Q1024",
      "taf": "TAF LQSA 132300Z 1400/1424 VRB02KT 2000 BR BKN008 TX08/1414Z TNM03/1406Z"
    },
    {
      "icao": "LQTZ",
      "alert": "OK",
      "vis_m": 4000,
      "fzfg": false,
      "metar_trigger": false,
      "taf_trigger": false,
      "metar": "METAR LQTZ 140200Z 05002KT 4000 BR BKN050 01/01 Q1022",
      "taf": "TAF LQTZ 132300Z 1400/1424 VRB02KT 4000 BR SCT005 TX03/1413Z TNM02/1405Z"
    },
    {
      "icao": "LRBC",
      "alert": "OK",
      "vis_m": 9999,
      "fzfg": false,
      "metar_trigger": false,
      "taf_trigger": false,
      "metar": "METAR LRBC 140200Z 03004KT 9999 BKN031 OVC063 M03/M07 Q1022",
      "taf": "TAF LRBC 132300Z 1400/1409 VRB04KT 9999 BKN045"
    },
    {
      "icao": "LRBS",
      "alert": "OK",
      "vis_m": 3500,
      "fzfg": false,
      "metar_trigger": false,
      "taf_trigger": false,
      "metar": "METAR LRBS 140200Z 25001KT 3500 BR NSC M07/M08 Q1023 TEMPO 1500 BR",
      "taf": "TAF LRBS 132300Z 1400/1424 VRB04KT 9999 BKN040"
    },
    {
      "icao": "LRBV",
      "alert": "OK",
      "vis_m": 4100,
      "fzfg": false,
      "metar_trigger": false,
      "taf_trigger": false,
      "metar": "METAR LRBV 140200Z AUTO 06003KT 4100 OVC005/// M05/M05 Q1021",
      "taf": "TAF LRBV 132000Z 1321/1406 VRB04KT 3000 -SN BR SCT010 OVC015"
    },
    {
      "icao": "LRCL",
      "alert": "OK",
      "vis_m": 9999,
      "fzfg": false,
      "metar_trigger": false,
      "taf_trigger": false,
      "metar": "METAR LRCL 140200Z VRB02KT 9999 BKN009 OVC016 M06/M08 Q1023",
      "taf": "TAF LRCL 132300Z 1400/1409 VRB02KT 9999 OVC025"
    },
    {
      "icao": "LRCV",
      "alert": "OK",
      "vis_m": 4300,
      "fzfg": false,
      "metar_trigger": false,
      "taf_trigger": false,
      "metar": "METAR LRCV 140200Z 11002KT 4300 BR OVC008 M03/M04 Q1022",
      "taf": "TAF LRCV 132300Z 1400/1409 VRB04KT 5000 BR SCT010 BKN025"
    },
    {
      "icao": "LRIA",
      "alert": "OK",
      "vis_m": 7000,
      "fzfg": false,
      "metar_trigger": false,
      "taf_trigger": false,
      "metar": "METAR LRIA 140200Z 29004KT 250V320 7000 NSC M08/M09 Q1023",
      "taf": "TAF LRIA 132300Z 1400/1409 VRB04KT 5000 BR SCT025"
    },
    {
      "icao": "LROP",
      "alert": "OK",
      "vis_m": 2000,
      "fzfg": true,
      "metar_trigger": false,
      "taf_trigger": false,
      "metar": "METAR LROP 140200Z 28002KT 2000 BR NSC M09/M10 Q1023 TEMPO 0800 FZFG",
      "taf": "TAF LROP 132300Z 1400/1424 VRB04KT 5000 BR BKN040"
    },
    {
      "icao": "LRSB",
      "alert": "OK",
      "vis_m": 900,
      "fzfg": false,
      "metar_trigger": false,
      "taf_trigger": false,
      "metar": "METAR LRSB 140200Z AUTO 29002KT 0900 R27/1200D SG BKN002/// BKN004/// M05/M05 Q1022",
      "taf": ""
    },
    {
      "icao": "LRSM",
      "alert": "OK",
      "vis_m": null,
      "fzfg": false,
      "metar_trigger": false,
      "taf_trigger": false,
      "metar": "",
      "taf": ""
    },
    {
      "icao": "LRSV",
      "alert": "OK",
      "vis_m": 8000,
      "fzfg": false,
      "metar_trigger": false,
      "taf_trigger": false,
      "metar": "METAR LRSV 140200Z 33002KT 8000 BKN048 M07/M08 Q1020",
      "taf": "TAF LRSV 132300Z 1400/1409 33006KT 9999 BKN040"
    },
    {
      "icao": "LRTM",
      "alert": "OK",
      "vis_m": 7000,
      "fzfg": false,
      "metar_trigger": false,
      "taf_trigger": false,
      "metar": "METAR LRTM 140200Z AUTO 22002KT 7000 SCT013/// BKN018/// M06/M08 Q1023",
      "taf": ""
    },
    {
      "icao": "LRTR",
      "alert": "OK",
      "vis_m": 3000,
      "fzfg": false,
      "metar_trigger": false,
      "taf_trigger": false,
      "metar": "METAR LRTR 140200Z 05002KT 3000 BR FEW009 OVC043 M04/M04 Q1023",
      "taf": "TAF LRTR 132300Z 1400/1424 VRB04KT 3000 BR SCT005 BKN010"
    },
    {
      "icao": "LTAC",
      "alert": "OK",
      "vis_m": 9999,
      "fzfg": false,
      "metar_trigger": false,
      "taf_trigger": false,
      "metar": "METAR LTAC 140150Z VRB01KT CAVOK M07/M10 Q1019 NOSIG RMK RWY21C 03002KT RWY03L 06002KT RWY21R 03003KT RWY03R VRB01KT RWY21L VRB01KT",
      "taf": "TAF LTAC 132240Z 1400/1424 VRB02KT CAVOK"
    },
    {
      "icao": "LTFM",
      "alert": "OK",
      "vis_m": 9999,
      "fzfg": false,
      "metar_trigger": false,
      "taf_trigger": false,
      "metar": "METAR LTFM 140150Z 22014KT 9999 -SHRASN BKN020 BKN090 02/01 Q1021 NOSIG RMK RWY17L 22013KT RWY34L 21013KT RWY16R 21010KT RWY36 21013KT RWY18 22014KT",
      "taf": "TAF LTFM 132240Z 1400/1506 21012KT 9999 -SHRASN SCT013 BKN025"
    },
    {
      "icao": "LUKK",
      "alert": "OK",
      "vis_m": 4900,
      "fzfg": false,
      "metar_trigger": false,
      "taf_trigger": false,
      "metar": "METAR LUKK 140200Z VRB03KT 4900 BR FU NSC M12/M13 Q1022 TEMPO 1000 BR",
      "taf": "TAF LUKK 132321Z 1400/1424 VRB04KT 5000 BR SCT020"
    },
    {
      "icao": "LWOH",
      "alert": "OK",
      "vis_m": null,
      "fzfg": false,
      "metar_trigger": false,
      "taf_trigger": false,
      "metar": "",
      "taf": "TAF LWOH 132340Z 1400/1424 VRB02KT 9999 SCT040"
    },
    {
      "icao": "LWSK",
      "alert": "OK",
      "vis_m": 9999,
      "fzfg": false,
      "metar_trigger": false,
      "taf_trigger": false,
      "metar": "METAR LWSK 140150Z 05002KT CAVOK M05/M07 Q1026 NOSIG",
      "taf": "TAF LWSK 132340Z 1400/1424 VRB02KT CAVOK"
    },
    {
      "icao": "LYBE",
      "alert": "OK",
      "vis_m": 9000,
      "fzfg": false,
      "metar_trigger": false,
      "taf_trigger": false,
      "metar": "METAR LYBE 140200Z 09006KT 9000 BKN047 02/M01 Q1023 NOSIG",
      "taf": "TAF LYBE 132300Z 1400/1424 05005KT 6000 BKN040 TX06/1412Z TN00/1405Z"
    },
    {
      "icao": "LYNI",
      "alert": "OK",
      "vis_m": 6000,
      "fzfg": false,
      "metar_trigger": false,
      "taf_trigger": false,
      "metar": "METAR LYNI 140200Z 11006KT 6000 BKN050 01/00 Q1024 NOSIG",
      "taf": "TAF LYNI 132300Z 1400/1424 09004KT 6000 BKN050 TX04/1413Z TN00/1406Z"
    },
    {
      "icao": "LYPG",
      "alert": "OK",
      "vis_m": 9999,
      "fzfg": false,
      "metar_trigger": false,
      "taf_trigger": false,
      "metar": "METAR LYPG 140200Z 32002KT 9999 SCT040 BKN070 03/02 Q1027 NOSIG",
      "taf": "TAF LYPG 132300Z 1400/1424 36005KT 9999 SCT034 BKN070 TX11/1413Z TN01/1406Z"
    },
    {
      "icao": "LZIB",
      "alert": "OK",
      "vis_m": 5000,
      "fzfg": false,
      "metar_trigger": false,
      "taf_trigger": false,
      "metar": "METAR LZIB 140200Z 04009KT 5000 BR BKN007 M04/M05 Q1021 NOSIG",
      "taf": ""
    },
    {
      "icao": "LZKZ",
      "alert": "OK",
      "vis_m": 9999,
      "fzfg": false,
      "metar_trigger": false,
      "taf_trigger": false,
      "metar": "METAR LZKZ 140200Z 18004KT 150V210 9999 OVC028 M07/M09 Q1023 NOSIG",
      "taf": "TAF LZKZ 132315Z 1400/1500 VRB02KT 7000 FEW014 OVC028"
    },
    {
      "icao": "LZTT",
      "alert": "OK",
      "vis_m": 9999,
      "fzfg": false,
      "metar_trigger": false,
      "taf_trigger": false,
      "metar": "METAR LZTT 140200Z 10002KT 9999 OVC012 M06/M08 Q1018",
      "taf": "TAF LZTT 132315Z 1400/1500 VRB02KT 8000 OVC012"
    },
    {
      "icao": "OEJN",
      "alert": "OK",
      "vis_m": 9999,
      "fzfg": false,
      "metar_trigger": false,
      "taf_trigger": false,
      "metar": "METAR OEJN 140200Z 36007KT CAVOK 22/14 Q1016 NOSIG",
      "taf": "TAF OEJN 132300Z 1400/1506 02008KT 7000 FEW040"
    },
    {
      "icao": "OEMA",
      "alert": "OK",
      "vis_m": 9999,
      "fzfg": false,
      "metar_trigger": false,
      "taf_trigger": false,
      "metar": "METAR OEMA 140200Z 33006KT CAVOK 15/04 Q1019 NOSIG",
      "taf": "TAF OEMA 132300Z 1400/1506 33005KT CAVOK"
    },
    {
      "icao": "OJAI",
      "alert": "OK",
      "vis_m": 2000,
      "fzfg": false,
      "metar_trigger": false,
      "taf_trigger": false,
      "metar": "METAR OJAI 140200Z 27022KT 2000 BR BKN025 SCT030 06/05 Q1017 NOSIG",
      "taf": "TAF OJAI 132237Z 1400/1506 24018KT 3000 -RA BR BKN035"
    },
    {
      "icao": "OMAA",
      "alert": "OK",
      "vis_m": 7000,
      "fzfg": false,
      "metar_trigger": false,
      "taf_trigger": false,
      "metar": "METAR OMAA 140200Z 11005KT 7000 NSC 16/10 Q1017 NOSIG",
      "taf": "TAF OMAA 132300Z 1400/1506 12005KT 7000 NSC"
    },
    {
      "icao": "OMDB",
      "alert": "OK",
      "vis_m": 7000,
      "fzfg": false,
      "metar_trigger": false,
      "taf_trigger": false,
      "metar": "METAR OMDB 140200Z VRB01KT 7000 NSC 18/12 Q1018 NOSIG",
      "taf": "TAF OMDB 132300Z 1400/1506 13005KT 6000 NSC"
    },
    {
      "icao": "UAAA",
      "alert": "OK",
      "vis_m": 3700,
      "fzfg": false,
      "metar_trigger": false,
      "taf_trigger": false,
      "metar": "METAR UAAA 140200Z 19002MPS 160V220 3700 BR OVC005 M02/M03 Q1018 NOSIG RMK QBB160",
      "taf": ""
    },
    {
      "icao": "UBBB",
      "alert": "OK",
      "vis_m": 9999,
      "fzfg": false,
      "metar_trigger": false,
      "taf_trigger": false,
      "metar": "METAR UBBB 140200Z 33026G36KT 9999 -SHRA SCT014 BKN028CB OVC028 04/02 Q1014 NOSIG",
      "taf": "TAF UBBB 132258Z 1400/1424 32024G34KT 8000 SCT010 FEW030CB OVC030 TX06/1410Z TN03/1401Z"
    },
    {
      "icao": "UDSG",
      "alert": "OK",
      "vis_m": 9999,
      "fzfg": false,
      "metar_trigger": false,
      "taf_trigger": false,
      "metar": "METAR UDSG 140200Z 34015KT 9999 BKN040 M06/M12 Q1011 NOSIG",
      "taf": "TAF UDSG 132300Z 1400/1424 VRB06KT 5000 BR BKN030"
    },
    {
      "icao": "UDYZ",
      "alert": "OK",
      "vis_m": 9999,
      "fzfg": false,
      "metar_trigger": false,
      "taf_trigger": false,
      "metar": "METAR UDYZ 140200Z 10008KT 9999 BKN013 M00/M03 Q1011 NOSIG",
      "taf": "TAF UDYZ 132300Z 1400/1424 14006KT 2300 BR SCT040"
    },
    {
      "icao": "UGKO",
      "alert": "OK",
      "vis_m": 9999,
      "fzfg": false,
      "metar_trigger": false,
      "taf_trigger": false,
      "metar": "METAR UGKO 140200Z 30005KT 9999 SCT043 BKN054 02/01 Q1021 NOSIG",
      "taf": "TAF UGKO 132300Z 1400/1424 26007KT 9999 SCT017 BKN050 TX06/1411Z TN01/1403Z"
    }
  ]
}