{
  "ts_utc": "2026-03-28T17:04:12Z",
  "threshold_m": 150,
  "source": "stations_override.txt (ICAO list) + aviationweather.gov (METAR/TAF raw)",
  "station_count": 159,
  "stations": [
    {
      "icao": "BIKF",
      "alert": "OK",
      "vis_m": 1000,
      "fzfg": false,
      "metar_trigger": false,
      "taf_trigger": false,
      "metar": "METAR BIKF 281630Z 11032KT 1000 R10/0750N -SN BR OVC010 00/M01 Q0994",
      "taf": "TAF BIKF 281658Z 2818/2918 12044G58KT 1000 SN OVC005 TX04/2912Z TN00/2818Z"
    },
    {
      "icao": "BKPR",
      "alert": "OK",
      "vis_m": 9999,
      "fzfg": false,
      "metar_trigger": false,
      "taf_trigger": false,
      "metar": "METAR BKPR 281700Z 34006KT 9999 FEW020 BKN045 03/02 Q1004 NOSIG",
      "taf": "TAF BKPR 281130Z 2812/2912 35008KT 9999 SCT010 BKN025"
    },
    {
      "icao": "EBCI",
      "alert": "OK",
      "vis_m": 9999,
      "fzfg": false,
      "metar_trigger": false,
      "taf_trigger": false,
      "metar": "METAR EBCI 281650Z 31008KT 280V350 9999 FEW046 07/M02 Q1023 NOSIG",
      "taf": "TAF EBCI 281100Z 2812/2918 31011KT 9999 SCT040"
    },
    {
      "icao": "EDDB",
      "alert": "OK",
      "vis_m": 9999,
      "fzfg": false,
      "metar_trigger": false,
      "taf_trigger": false,
      "metar": "METAR EDDB 281650Z AUTO 28010KT 9999 BKN017 OVC023 07/03 Q1016 BECMG BKN012",
      "taf": "TAF EDDB 281100Z 2812/2912 23012KT 9999 BKN035"
    },
    {
      "icao": "EDDH",
      "alert": "OK",
      "vis_m": 9999,
      "fzfg": false,
      "metar_trigger": false,
      "taf_trigger": false,
      "metar": "METAR EDDH 281650Z AUTO 30008KT 260V320 CAVOK 07/02 Q1017 NOSIG",
      "taf": "TAF EDDH 281100Z 2812/2918 29009KT 9999 SCT020"
    },
    {
      "icao": "EDDK",
      "alert": "OK",
      "vis_m": 9999,
      "fzfg": false,
      "metar_trigger": false,
      "taf_trigger": false,
      "metar": "METAR EDDK 281650Z AUTO VRB02KT 9999 VCSH FEW049 FEW///CB 06/05 Q1021 NOSIG",
      "taf": "TAF EDDK 281100Z 2812/2918 31010KT 9999 BKN025"
    },
    {
      "icao": "EDDN",
      "alert": "OK",
      "vis_m": 9999,
      "fzfg": false,
      "metar_trigger": false,
      "taf_trigger": false,
      "metar": "METAR EDDN 281650Z AUTO 29010KT 9999 -RA SCT011 BKN031 OVC037 03/01 Q1018 BECMG 4000 -RASN BKN005",
      "taf": "TAF EDDN 281100Z 2812/2912 28009KT CAVOK"
    },
    {
      "icao": "EDDS",
      "alert": "OK",
      "vis_m": 9999,
      "fzfg": false,
      "metar_trigger": false,
      "taf_trigger": false,
      "metar": "METAR EDDS 281650Z AUTO 25005KT 220V280 9999 -RA SCT008 BKN011 BKN027 03/01 Q1019 TEMPO SNRA BKN008",
      "taf": "TAF EDDS 281100Z 2812/2912 28005KT 9999 SCT040"
    },
    {
      "icao": "EDFH",
      "alert": "OK",
      "vis_m": 9999,
      "fzfg": false,
      "metar_trigger": false,
      "taf_trigger": false,
      "metar": "METAR EDFH 281650Z 33006KT 300V020 9999 FEW007 04/02 Q1019",
      "taf": "TAF EDFH 281100Z 2812/2912 30007KT 8000 SCT005 BKN010"
    },
    {
      "icao": "EDJA",
      "alert": "OK",
      "vis_m": 9999,
      "fzfg": false,
      "metar_trigger": false,
      "taf_trigger": false,
      "metar": "METAR EDJA 281650Z 25013G28KT 9999 SCT044 BKN050 OVC058 04/M03 Q1017",
      "taf": "TAF EDJA 281400Z 2815/2824 27008KT 9999 FEW012 OVC030"
    },
    {
      "icao": "EDLW",
      "alert": "OK",
      "vis_m": 9999,
      "fzfg": false,
      "metar_trigger": false,
      "taf_trigger": false,
      "metar": "METAR EDLW 281650Z 26003KT 220V300 9999 SCT025 06/04 Q1019",
      "taf": "TAF EDLW 281100Z 2812/2912 30006KT 9999 BKN015"
    },
    {
      "icao": "EDNY",
      "alert": "OK",
      "vis_m": 9999,
      "fzfg": false,
      "metar_trigger": false,
      "taf_trigger": false,
      "metar": "METAR EDNY 281650Z 28007KT 220V330 9999 -RA FEW020 OVC034 04/01 Q1019",
      "taf": "TAF EDNY 281400Z 2815/2824 25010KT 9999 FEW020 OVC050"
    },
    {
      "icao": "EDSB",
      "alert": "OK",
      "vis_m": 7000,
      "fzfg": false,
      "metar_trigger": false,
      "taf_trigger": false,
      "metar": "METAR EDSB 281650Z 19006KT 7000 RA SCT007 BKN009 OVC012 03/02 Q1021",
      "taf": "TAF EDSB 281100Z 2812/2912 21006KT 9999 BKN030"
    },
    {
      "icao": "EETN",
      "alert": "OK",
      "vis_m": 9999,
      "fzfg": false,
      "metar_trigger": false,
      "taf_trigger": false,
      "metar": "METAR EETN 281650Z 18003KT CAVOK 04/M01 Q1017 NOSIG",
      "taf": "TAF EETN 281130Z 2812/2912 20010KT CAVOK"
    },
    {
      "icao": "EFTU",
      "alert": "OK",
      "vis_m": 9999,
      "fzfg": false,
      "metar_trigger": false,
      "taf_trigger": false,
      "metar": "METAR EFTU 281650Z AUTO 18009KT 140V210 9999 FEW009 02/00 Q1014",
      "taf": "TAF EFTU 281431Z 2815/2915 18009KT 9999 FEW014"
    },
    {
      "icao": "EGBB",
      "alert": "OK",
      "vis_m": 9999,
      "fzfg": false,
      "metar_trigger": false,
      "taf_trigger": false,
      "metar": "METAR EGBB 281650Z 32020G31KT 9999 SCT045 09/M02 Q1027",
      "taf": ""
    },
    {
      "icao": "EGGP",
      "alert": "OK",
      "vis_m": 9999,
      "fzfg": false,
      "metar_trigger": false,
      "taf_trigger": false,
      "metar": "METAR EGGP 281620Z 29016KT 9999 FEW025CB 07/01 Q1027",
      "taf": "TAF EGGP 281105Z 2812/2912 29020G30KT 9999 FEW030"
    },
    {
      "icao": "EGGW",
      "alert": "OK",
      "vis_m": 9999,
      "fzfg": false,
      "metar_trigger": false,
      "taf_trigger": false,
      "metar": "METAR EGGW 281650Z 32022KT 9999 -SHRA FEW045 07/M02 Q1026",
      "taf": "TAF EGGW 281058Z 2812/2912 30014KT 9999 SCT040"
    },
    {
      "icao": "EGKK",
      "alert": "OK",
      "vis_m": 9999,
      "fzfg": false,
      "metar_trigger": false,
      "taf_trigger": false,
      "metar": "METAR EGKK 281650Z 30014KT CAVOK 09/M02 Q1026",
      "taf": "TAF EGKK 281057Z 2812/2918 31012KT 9999 SCT040"
    },
    {
      "icao": "EGNM",
      "alert": "OK",
      "vis_m": 9999,
      "fzfg": false,
      "metar_trigger": false,
      "taf_trigger": false,
      "metar": "METAR EGNM 281650Z 27018KT 9999 FEW029CB SCT036 07/00 Q1024",
      "taf": ""
    },
    {
      "icao": "EGPD",
      "alert": "OK",
      "vis_m": 9999,
      "fzfg": false,
      "metar_trigger": false,
      "taf_trigger": false,
      "metar": "METAR EGPD 281650Z COR AUTO 27016KT 9999 NCD 07/M01 Q1018 NOSIG",
      "taf": ""
    },
    {
      "icao": "EGPF",
      "alert": "OK",
      "vis_m": 9999,
      "fzfg": false,
      "metar_trigger": false,
      "taf_trigger": false,
      "metar": "METAR EGPF 281650Z AUTO 27015KT 9999 //////TCU 06/01 Q1024",
      "taf": "TAF EGPF 281057Z 2812/2912 29012KT 9999 SCT030"
    },
    {
      "icao": "EHBK",
      "alert": "OK",
      "vis_m": 9999,
      "fzfg": false,
      "metar_trigger": false,
      "taf_trigger": false,
      "metar": "METAR EHBK 281655Z AUTO 29010KT 250V340 9999 NSC 08/M01 Q1021 NOSIG",
      "taf": "TAF EHBK 281109Z 2812/2918 30010KT 9999 BKN020"
    },
    {
      "icao": "EHEH",
      "alert": "OK",
      "vis_m": 9999,
      "fzfg": false,
      "metar_trigger": false,
      "taf_trigger": false,
      "metar": "METAR EHEH 281655Z AUTO 30006KT 220V350 9999 NCD 08/M01 Q1022 BLU NOSIG RMK TREND REMOTE BY EHWX",
      "taf": "TAF EHEH 281112Z 2812/2918 32008G18KT 9999 SCT030 SCT040"
    },
    {
      "icao": "EKBI",
      "alert": "OK",
      "vis_m": 9999,
      "fzfg": false,
      "metar_trigger": false,
      "taf_trigger": false,
      "metar": "METAR EKBI 281650Z AUTO 27011KT 230V290 9999 SCT035/// 07/00 Q1015",
      "taf": "TAF EKBI 281427Z 2815/2915 27010KT 9999 SCT020"
    },
    {
      "icao": "EKCH",
      "alert": "OK",
      "vis_m": 9999,
      "fzfg": false,
      "metar_trigger": false,
      "taf_trigger": false,
      "metar": "METAR EKCH 281650Z AUTO 20004KT 9999 SCT027/// BKN030/// OVC047/// 06/05 Q1015 NOSIG",
      "taf": "TAF EKCH 281427Z 2815/2915 20008KT 9999 BKN006"
    },
    {
      "icao": "ENAL",
      "alert": "OK",
      "vis_m": 9999,
      "fzfg": false,
      "metar_trigger": false,
      "taf_trigger": false,
      "metar": "METAR ENAL 281650Z 20013KT 9999 -RA FEW005 SCT030 05/02 Q1003",
      "taf": "TAF ENAL 281400Z 2815/2824 19015KT 9999 FEW010 BKN030"
    },
    {
      "icao": "ENBR",
      "alert": "OK",
      "vis_m": 9999,
      "fzfg": false,
      "metar_trigger": false,
      "taf_trigger": false,
      "metar": "METAR ENBR 281650Z 24011KT 9999 VCSH FEW015CB SCT030 06/00 Q1008 NOSIG RMK WIND 1200FT 25016KT",
      "taf": ""
    },
    {
      "icao": "ENGM",
      "alert": "OK",
      "vis_m": 9999,
      "fzfg": false,
      "metar_trigger": false,
      "taf_trigger": false,
      "metar": "METAR ENGM 281650Z 21010KT 9999 FEW043 07/M02 Q1008 NOSIG",
      "taf": "TAF ENGM 281100Z 2812/2912 20005KT 9999 SCT015"
    },
    {
      "icao": "ENHD",
      "alert": "OK",
      "vis_m": 9999,
      "fzfg": false,
      "metar_trigger": false,
      "taf_trigger": false,
      "metar": "METAR ENHD 281650Z 25014KT 9999 FEW015 07/02 Q1010",
      "taf": "TAF ENHD 281400Z 2815/2823 25012KT 9999 -SHRA FEW012TCU BKN025"
    },
    {
      "icao": "ENTC",
      "alert": "OK",
      "vis_m": 9999,
      "fzfg": false,
      "metar_trigger": false,
      "taf_trigger": false,
      "metar": "METAR ENTC 281650Z 26008KT 9999 SCT046 BKN060 02/M01 Q1001 TEMPO 20010KT RMK WIND 2600FT 19014KT",
      "taf": ""
    },
    {
      "icao": "ENTO",
      "alert": "OK",
      "vis_m": 9999,
      "fzfg": false,
      "metar_trigger": false,
      "taf_trigger": false,
      "metar": "METAR ENTO 281650Z 21010KT CAVOK 08/M00 Q1009 NOSIG",
      "taf": "TAF ENTO 281100Z 2812/2912 21008KT 9999 SCT015"
    },
    {
      "icao": "ENVA",
      "alert": "OK",
      "vis_m": 9999,
      "fzfg": false,
      "metar_trigger": false,
      "taf_trigger": false,
      "metar": "METAR ENVA 281650Z 17007KT CAVOK 08/M05 Q1003 RMK WIND 670FT 18010KT",
      "taf": ""
    },
    {
      "icao": "ENZV",
      "alert": "OK",
      "vis_m": 9999,
      "fzfg": false,
      "metar_trigger": false,
      "taf_trigger": false,
      "metar": "METAR ENZV 281650Z 27009KT 9999 SCT045 08/03 Q1011 NOSIG",
      "taf": ""
    },
    {
      "icao": "EPGD",
      "alert": "OK",
      "vis_m": 9999,
      "fzfg": false,
      "metar_trigger": false,
      "taf_trigger": false,
      "metar": "METAR EPGD 281700Z 06005KT 040V100 CAVOK 06/00 Q1016",
      "taf": "TAF EPGD 281130Z 2812/2912 VRB05KT CAVOK"
    },
    {
      "icao": "EPKK",
      "alert": "OK",
      "vis_m": 4500,
      "fzfg": false,
      "metar_trigger": false,
      "taf_trigger": false,
      "metar": "METAR EPKK 281700Z 22007KT 4500 BR FEW010 BKN015 04/03 Q1013",
      "taf": "TAF EPKK 281430Z 2815/2915 22004KT 9999 BKN015"
    },
    {
      "icao": "EPKT",
      "alert": "OK",
      "vis_m": 9999,
      "fzfg": false,
      "metar_trigger": false,
      "taf_trigger": false,
      "metar": "METAR EPKT 281700Z 33004KT 9999 BKN023 07/04 Q1013",
      "taf": ""
    },
    {
      "icao": "EPLB",
      "alert": "OK",
      "vis_m": 9999,
      "fzfg": false,
      "metar_trigger": false,
      "taf_trigger": false,
      "metar": "METAR EPLB 281700Z 04007KT CAVOK 15/02 Q1011",
      "taf": "TAF EPLB 281130Z 2812/2912 04010KT CAVOK"
    },
    {
      "icao": "EPMO",
      "alert": "OK",
      "vis_m": 9999,
      "fzfg": false,
      "metar_trigger": false,
      "taf_trigger": false,
      "metar": "METAR EPMO 281700Z 35005KT CAVOK 12/04 Q1013",
      "taf": "TAF EPMO 281130Z 2812/2912 02010KT CAVOK"
    },
    {
      "icao": "EPPO",
      "alert": "OK",
      "vis_m": 9999,
      "fzfg": false,
      "metar_trigger": false,
      "taf_trigger": false,
      "metar": "METAR EPPO 281700Z 33002KT 9999 BKN049 09/M04 Q1016",
      "taf": "TAF EPPO 281130Z 2812/2912 VRB02KT CAVOK"
    },
    {
      "icao": "EPRA",
      "alert": "OK",
      "vis_m": 9999,
      "fzfg": false,
      "metar_trigger": false,
      "taf_trigger": false,
      "metar": "METAR EPRA 281700Z 34005KT CAVOK 14/03 Q1012",
      "taf": "TAF EPRA 281430Z 2815/2824 02008KT CAVOK"
    },
    {
      "icao": "EPRZ",
      "alert": "OK",
      "vis_m": 7000,
      "fzfg": false,
      "metar_trigger": false,
      "taf_trigger": false,
      "metar": "METAR EPRZ 281700Z 26008KT 7000 NSC 09/08 Q1010",
      "taf": "TAF EPRZ 281130Z 2812/2912 VRB02KT 9999 BKN025"
    },
    {
      "icao": "EPSC",
      "alert": "OK",
      "vis_m": 9999,
      "fzfg": false,
      "metar_trigger": false,
      "taf_trigger": false,
      "metar": "METAR EPSC 281700Z 32007KT CAVOK 07/02 Q1016",
      "taf": "TAF EPSC 281130Z 2812/2912 19010KT CAVOK"
    },
    {
      "icao": "EPSY",
      "alert": "OK",
      "vis_m": 9999,
      "fzfg": false,
      "metar_trigger": false,
      "taf_trigger": false,
      "metar": "METAR EPSY 281700Z 35006KT CAVOK 08/01 Q1015",
      "taf": "TAF EPSY 281430Z 2815/2824 36008KT CAVOK"
    },
    {
      "icao": "EPWA",
      "alert": "OK",
      "vis_m": 9999,
      "fzfg": false,
      "metar_trigger": false,
      "taf_trigger": false,
      "metar": "METAR EPWA 281700Z 01007KT 320V020 CAVOK 14/03 Q1013 NOSIG",
      "taf": "TAF EPWA 281430Z 2815/2915 01008KT CAVOK"
    },
    {
      "icao": "EPWR",
      "alert": "OK",
      "vis_m": 9999,
      "fzfg": false,
      "metar_trigger": false,
      "taf_trigger": false,
      "metar": "METAR EPWR 281700Z 34005KT 300V360 9999 -RA OVC040 05/01 Q1016",
      "taf": ""
    },
    {
      "icao": "ESGG",
      "alert": "OK",
      "vis_m": 9999,
      "fzfg": false,
      "metar_trigger": false,
      "taf_trigger": false,
      "metar": "METAR ESGG 281650Z 26006KT 9999 FEW040 06/02 Q1013",
      "taf": "TAF ESGG 281430Z 2815/2915 21007KT 9999 SCT020"
    },
    {
      "icao": "ESKN",
      "alert": "OK",
      "vis_m": 9999,
      "fzfg": false,
      "metar_trigger": false,
      "taf_trigger": false,
      "metar": "METAR ESKN 281650Z 20008KT 170V230 9999 FEW031 BKN071 06/02 Q1012",
      "taf": "TAF ESKN 281430Z 2815/2915 19009KT 9999 BKN020"
    },
    {
      "icao": "ESMS",
      "alert": "OK",
      "vis_m": 7000,
      "fzfg": false,
      "metar_trigger": false,
      "taf_trigger": false,
      "metar": "METAR ESMS 281650Z 20004KT 7000 BKN004 05/05 Q1014 RERA",
      "taf": "TAF ESMS 281427Z 2815/2915 26008KT 8000 BKN004"
    },
    {
      "icao": "ESSA",
      "alert": "OK",
      "vis_m": 9999,
      "fzfg": false,
      "metar_trigger": false,
      "taf_trigger": false,
      "metar": "METAR ESSA 281650Z 18008KT 9999 BKN033 BKN040 OVC098 05/01 Q1011 NOSIG",
      "taf": "TAF ESSA 281430Z 2815/2915 19009KT 9999 BKN020"
    },
    {
      "icao": "EYKA",
      "alert": "OK",
      "vis_m": 9999,
      "fzfg": false,
      "metar_trigger": false,
      "taf_trigger": false,
      "metar": "METAR EYKA 281650Z 01004KT CAVOK 11/02 Q1016",
      "taf": "TAF EYKA 281100Z 2812/2912 VRB03KT 9000 NSC"
    },
    {
      "icao": "EYPA",
      "alert": "OK",
      "vis_m": 9999,
      "fzfg": false,
      "metar_trigger": false,
      "taf_trigger": false,
      "metar": "METAR EYPA 281650Z 30003KT CAVOK M00/M01 Q1017",
      "taf": "TAF EYPA 281100Z 2812/2912 VRB03KT 9000 FEW015"
    },
    {
      "icao": "EYVI",
      "alert": "OK",
      "vis_m": 9999,
      "fzfg": false,
      "metar_trigger": false,
      "taf_trigger": false,
      "metar": "METAR EYVI 281650Z 02006KT CAVOK 08/M00 Q1015 NOSIG",
      "taf": "TAF EYVI 281101Z 2812/2912 VRB04KT CAVOK"
    },
    {
      "icao": "GCFV",
      "alert": "OK",
      "vis_m": 9999,
      "fzfg": false,
      "metar_trigger": false,
      "taf_trigger": false,
      "metar": "METAR GCFV 281630Z 03017KT 9999 FEW030 20/13 Q1018",
      "taf": "TAF GCFV 281400Z 2815/2915 03013KT 9999 FEW020 TX22/2914Z TN16/2906Z"
    },
    {
      "icao": "GCLP",
      "alert": "OK",
      "vis_m": 9999,
      "fzfg": false,
      "metar_trigger": false,
      "taf_trigger": false,
      "metar": "METAR GCLP 281630Z 02024KT 9999 FEW028 21/14 Q1018 NOSIG",
      "taf": "TAF GCLP 281400Z 2815/2915 01022KT 9999 FEW020 TX22/2914Z TN17/2906Z"
    },
    {
      "icao": "GCTS",
      "alert": "OK",
      "vis_m": 9999,
      "fzfg": false,
      "metar_trigger": false,
      "taf_trigger": false,
      "metar": "METAR GCTS 281630Z 09017KT 9999 FEW025 22/12 Q1019 NOSIG",
      "taf": "TAF GCTS 281400Z 2815/2915 06015KT 9999 FEW025 TX24/2914Z TN16/2906Z"
    },
    {
      "icao": "GMAD",
      "alert": "OK",
      "vis_m": 8000,
      "fzfg": false,
      "metar_trigger": false,
      "taf_trigger": false,
      "metar": "METAR GMAD 281700Z 24014KT 8000 SCT020 21/13 Q1015 NOSIG",
      "taf": "TAF GMAD 281100Z 2812/2918 26010KT 8000 BKN020"
    },
    {
      "icao": "GMMN",
      "alert": "OK",
      "vis_m": 9999,
      "fzfg": false,
      "metar_trigger": false,
      "taf_trigger": false,
      "metar": "METAR GMMN 281700Z 01012KT 9999 SCT020 18/14 Q1016 NOSIG",
      "taf": "TAF GMMN 281100Z 2812/2918 18004KT 9999 BKN020"
    },
    {
      "icao": "GMMX",
      "alert": "OK",
      "vis_m": 9999,
      "fzfg": false,
      "metar_trigger": false,
      "taf_trigger": false,
      "metar": "METAR GMMX 281700Z 32004KT 260V010 9999 SCT023 23/12 Q1015 NOSIG",
      "taf": "TAF GMMX 281100Z 2812/2918 22005KT 8000 SCT016"
    },
    {
      "icao": "HEGN",
      "alert": "OK",
      "vis_m": 9999,
      "fzfg": false,
      "metar_trigger": false,
      "taf_trigger": false,
      "metar": "METAR HEGN 281600Z 14006KT CAVOK 22/14 Q1012 NOSIG",
      "taf": "TAF HEGN 281700Z 2818/2924 13010KT CAVOK"
    },
    {
      "icao": "HEMA",
      "alert": "OK",
      "vis_m": 9999,
      "fzfg": false,
      "metar_trigger": false,
      "taf_trigger": false,
      "metar": "METAR HEMA 281600Z 09009KT CAVOK 22/13 Q1003 NOSIG",
      "taf": "TAF HEMA 281700Z 2818/2924 11010KT CAVOK"
    },
    {
      "icao": "HESH",
      "alert": "OK",
      "vis_m": 9999,
      "fzfg": false,
      "metar_trigger": false,
      "taf_trigger": false,
      "metar": "METAR HESH 281600Z 17008KT CAVOK 23/11 Q1012 NOSIG",
      "taf": "TAF HESH 281700Z 2818/2924 15010KT CAVOK"
    },
    {
      "icao": "HESX",
      "alert": "OK",
      "vis_m": 9999,
      "fzfg": false,
      "metar_trigger": false,
      "taf_trigger": false,
      "metar": "METAR HESX 281600Z 18010KT 9999 SCT020 25/00 Q1007 NOSIG",
      "taf": "TAF HESX 281700Z 2818/2924 19011KT 9999 SCT025"
    },
    {
      "icao": "LATI",
      "alert": "OK",
      "vis_m": 9999,
      "fzfg": false,
      "metar_trigger": false,
      "taf_trigger": false,
      "metar": "METAR LATI 281650Z 31007KT 9999 FEW040 SCT110 11/04 Q1002 NOSIG",
      "taf": "TAF LATI 281100Z 2812/2912 32012KT 9999 FEW030TCU BKN060 TX18/2912Z TN04/2905Z"
    },
    {
      "icao": "LBPD",
      "alert": "OK",
      "vis_m": 9999,
      "fzfg": false,
      "metar_trigger": false,
      "taf_trigger": false,
      "metar": "METAR LBPD 281700Z AUTO 28006KT 9999 FEW043/// BKN054/// OVC240/// 09/06 Q1001 NOSIG",
      "taf": "TAF LBPD 281100Z 2812/2912 VRB03KT 9999 BKN020 BKN040"
    },
    {
      "icao": "LBSF",
      "alert": "OK",
      "vis_m": 9999,
      "fzfg": false,
      "metar_trigger": false,
      "taf_trigger": false,
      "metar": "METAR LBSF 281700Z AUTO 28012KT 9999 BKN071/// 05/00 Q1002 NOSIG",
      "taf": "TAF LBSF 281100Z 2812/2912 30012KT 9999 FEW008 BKN020 BKN030"
    },
    {
      "icao": "LBWN",
      "alert": "OK",
      "vis_m": 9999,
      "fzfg": false,
      "metar_trigger": false,
      "taf_trigger": false,
      "metar": "METAR LBWN 281700Z AUTO 11007KT 9999 OVC007/// 10/10 Q1002 NOSIG",
      "taf": "TAF LBWN 281100Z 2812/2912 10012KT 9999 SCT007 BKN015 OVC020"
    },
    {
      "icao": "LCLK",
      "alert": "OK",
      "vis_m": 9999,
      "fzfg": false,
      "metar_trigger": false,
      "taf_trigger": false,
      "metar": "METAR LCLK 281700Z 19007KT 9999 FEW050 18/15 Q1010 NOSIG",
      "taf": "TAF LCLK 281130Z 2812/2912 21015KT 9999 FEW025"
    },
    {
      "icao": "LCPH",
      "alert": "OK",
      "vis_m": 9999,
      "fzfg": false,
      "metar_trigger": false,
      "taf_trigger": false,
      "metar": "METAR LCPH 281700Z VRB03KT CAVOK 18/08 Q1009 NOSIG",
      "taf": "TAF LCPH 281130Z 2812/2912 15012KT 9999 FEW025"
    },
    {
      "icao": "LEAL",
      "alert": "OK",
      "vis_m": 9999,
      "fzfg": false,
      "metar_trigger": false,
      "taf_trigger": false,
      "metar": "METAR LEAL 281630Z 17008KT 140V220 9999 FEW069 16/10 Q1019 NOSIG",
      "taf": "TAF LEAL 281100Z 2812/2912 18010KT 9999 FEW025 TX18/2812Z TN08/2906Z"
    },
    {
      "icao": "LEBB",
      "alert": "OK",
      "vis_m": 9999,
      "fzfg": false,
      "metar_trigger": false,
      "taf_trigger": false,
      "metar": "METAR LEBB 281630Z 35011KT 300V020 9999 FEW020 BKN034 OVC043 12/05 Q1030 NOSIG",
      "taf": ""
    },
    {
      "icao": "LEBL",
      "alert": "OK",
      "vis_m": 9999,
      "fzfg": false,
      "metar_trigger": false,
      "taf_trigger": false,
      "metar": "METAR LEBL 281630Z 24014KT 9999 FEW025 SCT030 16/09 Q1016 NOSIG",
      "taf": ""
    },
    {
      "icao": "LECH",
      "alert": "OK",
      "vis_m": 9999,
      "fzfg": false,
      "metar_trigger": false,
      "taf_trigger": false,
      "metar": "METAR LECH 281630Z AUTO 33011G22KT 280V020 CAVOK 17/02 Q1019",
      "taf": ""
    },
    {
      "icao": "LEMD",
      "alert": "OK",
      "vis_m": 9999,
      "fzfg": false,
      "metar_trigger": false,
      "taf_trigger": false,
      "metar": "METAR LEMD 281630Z 01011KT 340V040 CAVOK 16/01 Q1022 NOSIG",
      "taf": "TAF LEMD 281100Z 2812/2918 01012KT CAVOK TX19/2815Z TN02/2906Z"
    },
    {
      "icao": "LEMG",
      "alert": "OK",
      "vis_m": 9999,
      "fzfg": false,
      "metar_trigger": false,
      "taf_trigger": false,
      "metar": "METAR LEMG 281630Z 15009KT 110V190 9999 FEW024 16/10 Q1019 NOSIG",
      "taf": "TAF LEMG 281100Z 2812/2912 13010KT 9999 FEW030 TX19/2813Z TN10/2907Z"
    },
    {
      "icao": "LEVC",
      "alert": "OK",
      "vis_m": 9999,
      "fzfg": false,
      "metar_trigger": false,
      "taf_trigger": false,
      "metar": "METAR LEVC 281630Z 14008KT 110V170 9999 FEW022 16/07 Q1019 NOSIG",
      "taf": "TAF LEVC 281100Z 2812/2912 VRB03KT 9999 FEW025 TX19/2813Z TN08/2906Z"
    },
    {
      "icao": "LEXJ",
      "alert": "OK",
      "vis_m": 9999,
      "fzfg": false,
      "metar_trigger": false,
      "taf_trigger": false,
      "metar": "METAR LEXJ 281630Z 03011KT 350V070 9999 SCT022 BKN030 BKN045 12/05 Q1032",
      "taf": "TAF LEXJ 281400Z 2815/2915 01009KT 9999 SCT010 BKN020 TX13/2914Z TN10/2906Z"
    },
    {
      "icao": "LEZG",
      "alert": "OK",
      "vis_m": 9999,
      "fzfg": false,
      "metar_trigger": false,
      "taf_trigger": false,
      "metar": "METAR LEZG 281630Z 31024G39KT 280V340 9999 FEW045 15/05 Q1021 NOSIG",
      "taf": "TAF LEZG 281100Z 2812/2912 31020KT 9999 FEW045 TX17/2814Z TN05/2906Z"
    },
    {
      "icao": "LEZL",
      "alert": "OK",
      "vis_m": 9999,
      "fzfg": false,
      "metar_trigger": false,
      "taf_trigger": false,
      "metar": "METAR LEZL 281630Z 31001KT CAVOK 24/08 Q1018 NOSIG",
      "taf": "TAF LEZL 281400Z 2815/2915 06008KT CAVOK TX25/2815Z TN12/2907Z"
    },
    {
      "icao": "LFBD",
      "alert": "OK",
      "vis_m": 9999,
      "fzfg": false,
      "metar_trigger": false,
      "taf_trigger": false,
      "metar": "METAR LFBD 281700Z AUTO 36017KT CAVOK 12/01 Q1027 TEMPO 35015G25KT 4500 -SHRA BKN040TCU",
      "taf": "TAF LFBD 281100Z 2812/2918 35015KT 9999 BKN010 TX13/2915Z TN04/2905Z"
    },
    {
      "icao": "LFLL",
      "alert": "OK",
      "vis_m": 9999,
      "fzfg": false,
      "metar_trigger": false,
      "taf_trigger": false,
      "metar": "METAR LFLL 281700Z 36009KT 9999 SCT012 BKN080 06/04 Q1021 NOSIG",
      "taf": "TAF LFLL 281100Z 2812/2918 35010KT 9999 BKN035"
    },
    {
      "icao": "LFLS",
      "alert": "OK",
      "vis_m": 9999,
      "fzfg": false,
      "metar_trigger": false,
      "taf_trigger": false,
      "metar": "METAR LFLS 281700Z AUTO 36007KT 330V040 9999 -RA BKN013 BKN020 BKN043 05/03 Q1020 BECMG BKN030",
      "taf": "TAF LFLS 281400Z 2815/2915 36010KT 9999 BKN030"
    },
    {
      "icao": "LFMN",
      "alert": "OK",
      "vis_m": 9999,
      "fzfg": false,
      "metar_trigger": false,
      "taf_trigger": false,
      "metar": "METAR LFMN 281700Z COR 23011KT CAVOK 15/05 Q1009 NOSIG",
      "taf": "TAF LFMN 281400Z 2815/2921 20015KT CAVOK"
    },
    {
      "icao": "LFOB",
      "alert": "OK",
      "vis_m": 9999,
      "fzfg": false,
      "metar_trigger": false,
      "taf_trigger": false,
      "metar": "METAR LFOB 281700Z AUTO 32015KT 9999 FEW044 09/M01 Q1025 TEMPO VRB20G35KT 2500 -TSRAGS SCT008 SCT014CB",
      "taf": ""
    },
    {
      "icao": "LFPO",
      "alert": "OK",
      "vis_m": 9999,
      "fzfg": false,
      "metar_trigger": false,
      "taf_trigger": false,
      "metar": "METAR LFPO 281700Z 34013KT 310V010 9999 SCT040 09/M02 Q1025 NOSIG",
      "taf": "TAF LFPO 281100Z 2812/2918 34012KT 9999 SCT020"
    },
    {
      "icao": "LFSB",
      "alert": "OK",
      "vis_m": 9999,
      "fzfg": false,
      "metar_trigger": false,
      "taf_trigger": false,
      "metar": "METAR LFSB 281700Z AUTO 27004KT 220V320 9999 SCT012 OVC020 04/02 Q1021 TEMPO BKN020 FEW025TCU",
      "taf": "TAF LFSB 281100Z 2812/2912 18005KT CAVOK"
    },
    {
      "icao": "LGAV",
      "alert": "OK",
      "vis_m": 9999,
      "fzfg": false,
      "metar_trigger": false,
      "taf_trigger": false,
      "metar": "METAR LGAV 281650Z 34006KT 9999 DZ SCT020 11/06 Q1001 NOSIG",
      "taf": "TAF LGAV 281100Z 2812/2912 21010KT 9999 FEW025 SCT070"
    },
    {
      "icao": "LGTS",
      "alert": "OK",
      "vis_m": 9999,
      "fzfg": false,
      "metar_trigger": false,
      "taf_trigger": false,
      "metar": "METAR LGTS 281650Z 08005KT 9999 FEW018TCU SCT025 11/07 Q1000 NOSIG",
      "taf": "TAF LGTS 281100Z 2812/2912 VRB03KT 9999 SCT025"
    },
    {
      "icao": "LHBP",
      "alert": "OK",
      "vis_m": 9999,
      "fzfg": false,
      "metar_trigger": false,
      "taf_trigger": false,
      "metar": "METAR LHBP 281700Z 32015KT 9999 -RA NSC 08/05 Q1008 TEMPO 5000 SHRA SCT028TCU OVC035",
      "taf": "TAF LHBP 281115Z 2812/2912 33010KT CAVOK"
    },
    {
      "icao": "LHDC",
      "alert": "OK",
      "vis_m": 9999,
      "fzfg": false,
      "metar_trigger": false,
      "taf_trigger": false,
      "metar": "METAR LHDC 281645Z AUTO 02008KT 340V050 CAVOK 14/06 Q1005 NOSIG",
      "taf": "TAF LHDC 281415Z 2815/2824 03009KT CAVOK"
    },
    {
      "icao": "LIBD",
      "alert": "OK",
      "vis_m": 7000,
      "fzfg": false,
      "metar_trigger": false,
      "taf_trigger": false,
      "metar": "METAR LIBD 281650Z 33012KT 7000 -RA OVC018 09/07 Q1006",
      "taf": "TAF LIBD 281100Z 2812/2912 28012KT 8000 BKN015"
    },
    {
      "icao": "LIBG",
      "alert": "OK",
      "vis_m": 9999,
      "fzfg": false,
      "metar_trigger": false,
      "taf_trigger": false,
      "metar": "METAR LIBG 281550Z 32017G27KT 290V350 9999 SCT030 11/05 Q1004",
      "taf": "TAF LIBG 281400Z 2815/2824 32012KT 9999 SCT030"
    },
    {
      "icao": "LIBP",
      "alert": "OK",
      "vis_m": 9999,
      "fzfg": false,
      "metar_trigger": false,
      "taf_trigger": false,
      "metar": "METAR LIBP 281650Z AUTO 35007KT 320V020 9999 NCD 12/03 Q1009",
      "taf": "TAF LIBP 281100Z 2812/2912 34015KT 9999 OVC040"
    },
    {
      "icao": "LIBR",
      "alert": "OK",
      "vis_m": 9999,
      "fzfg": false,
      "metar_trigger": false,
      "taf_trigger": false,
      "metar": "METAR LIBR 281650Z 35014KT 9999 BKN040 12/04 Q1004",
      "taf": "TAF LIBR 281100Z 2812/2912 32020KT 9999 FEW015"
    },
    {
      "icao": "LICA",
      "alert": "OK",
      "vis_m": 9999,
      "fzfg": false,
      "metar_trigger": false,
      "taf_trigger": false,
      "metar": "METAR LICA 281650Z AUTO 29011KT 9999 OVC054/// 12/05 Q1007",
      "taf": "TAF LICA 281100Z 2812/2912 28015KT 9999 SCT040"
    },
    {
      "icao": "LICC",
      "alert": "OK",
      "vis_m": 9999,
      "fzfg": false,
      "metar_trigger": false,
      "taf_trigger": false,
      "metar": "METAR LICC 281650Z 30007KT 230V360 9999 BKN080 14/08 Q1007",
      "taf": "TAF LICC 281100Z 2812/2912 10010KT 9999 FEW040"
    },
    {
      "icao": "LICJ",
      "alert": "OK",
      "vis_m": 9999,
      "fzfg": false,
      "metar_trigger": false,
      "taf_trigger": false,
      "metar": "METAR LICJ 281650Z 32018KT 9999 FEW035 14/07 Q1010",
      "taf": "TAF LICJ 281100Z 2812/2912 32016KT 9999 SCT030"
    },
    {
      "icao": "LIMC",
      "alert": "OK",
      "vis_m": 9999,
      "fzfg": false,
      "metar_trigger": false,
      "taf_trigger": false,
      "metar": "METAR LIMC 281650Z 21005KT CAVOK 15/M03 Q1009 BECMG 01015KT",
      "taf": "TAF LIMC 281100Z 2812/2918 VRB05KT CAVOK"
    },
    {
      "icao": "LIME",
      "alert": "OK",
      "vis_m": 9999,
      "fzfg": false,
      "metar_trigger": false,
      "taf_trigger": false,
      "metar": "METAR LIME 281650Z 17003KT 150V210 9999 FEW090 14/M01 Q1008 NOSIG",
      "taf": "TAF LIME 281100Z 2812/2912 23010KT CAVOK"
    },
    {
      "icao": "LIMF",
      "alert": "OK",
      "vis_m": 9999,
      "fzfg": false,
      "metar_trigger": false,
      "taf_trigger": false,
      "metar": "METAR LIMF 281650Z 21004KT CAVOK 15/M05 Q1009",
      "taf": "TAF LIMF 281100Z 2812/2912 VRB05KT 9999 FEW060"
    },
    {
      "icao": "LIMJ",
      "alert": "OK",
      "vis_m": 9999,
      "fzfg": false,
      "metar_trigger": false,
      "taf_trigger": false,
      "metar": "METAR LIMJ 281650Z VRB01KT CAVOK 15/05 Q1009",
      "taf": "TAF LIMJ 281100Z 2812/2912 23012KT CAVOK"
    },
    {
      "icao": "LIPE",
      "alert": "OK",
      "vis_m": 9999,
      "fzfg": false,
      "metar_trigger": false,
      "taf_trigger": false,
      "metar": "METAR LIPE 281650Z VRB02KT CAVOK 16/01 Q1008",
      "taf": "TAF LIPE 281100Z 2812/2912 VRB05KT CAVOK"
    },
    {
      "icao": "LIPH",
      "alert": "OK",
      "vis_m": 9999,
      "fzfg": false,
      "metar_trigger": false,
      "taf_trigger": false,
      "metar": "METAR LIPH 281650Z 25006KT CAVOK 15/02 Q1008",
      "taf": "TAF LIPH 281100Z 2812/2912 25010KT CAVOK"
    },
    {
      "icao": "LIPQ",
      "alert": "OK",
      "vis_m": 9999,
      "fzfg": false,
      "metar_trigger": false,
      "taf_trigger": false,
      "metar": "METAR LIPQ 281650Z AUTO 24007KT 9999 NCD 14/02 Q1008",
      "taf": "TAF LIPQ 281100Z 2812/2912 25010KT CAVOK"
    },
    {
      "icao": "LIPR",
      "alert": "OK",
      "vis_m": 9999,
      "fzfg": false,
      "metar_trigger": false,
      "taf_trigger": false,
      "metar": "METAR LIPR 281650Z 11004KT CAVOK 12/02 Q1009",
      "taf": "TAF LIPR 281100Z 2812/2912 35010KT CAVOK"
    },
    {
      "icao": "LIPX",
      "alert": "OK",
      "vis_m": 9999,
      "fzfg": false,
      "metar_trigger": false,
      "taf_trigger": false,
      "metar": "METAR LIPX 281650Z 23006KT CAVOK 15/00 Q1008",
      "taf": "TAF LIPX 281100Z 2812/2912 26010KT CAVOK"
    },
    {
      "icao": "LIPY",
      "alert": "OK",
      "vis_m": 9999,
      "fzfg": false,
      "metar_trigger": false,
      "taf_trigger": false,
      "metar": "METAR LIPY 281650Z AUTO 33004KT 9999 NCD 12/02 Q1009",
      "taf": "TAF LIPY 281100Z 2812/2912 35015KT CAVOK"
    },
    {
      "icao": "LIPZ",
      "alert": "OK",
      "vis_m": 9999,
      "fzfg": false,
      "metar_trigger": false,
      "taf_trigger": false,
      "metar": "METAR LIPZ 281650Z 24009KT CAVOK 15/01 Q1008 NOSIG",
      "taf": "TAF LIPZ 281100Z 2812/2918 22010KT CAVOK"
    },
    {
      "icao": "LIRF",
      "alert": "OK",
      "vis_m": 9999,
      "fzfg": false,
      "metar_trigger": false,
      "taf_trigger": false,
      "metar": "METAR LIRF 281650Z 30016KT CAVOK 15/08 Q1008 NOSIG",
      "taf": "TAF LIRF 281100Z 2812/2918 35016KT CAVOK"
    },
    {
      "icao": "LIRN",
      "alert": "OK",
      "vis_m": 9999,
      "fzfg": false,
      "metar_trigger": false,
      "taf_trigger": false,
      "metar": "METAR LIRN 281650Z 27007KT 9999 FEW060 13/04 Q1008 NOSIG",
      "taf": "TAF LIRN 281100Z 2812/2912 VRB06KT 9999 SCT050"
    },
    {
      "icao": "LIRP",
      "alert": "OK",
      "vis_m": 9999,
      "fzfg": false,
      "metar_trigger": false,
      "taf_trigger": false,
      "metar": "METAR LIRP 281645Z 28010KT CAVOK 14/06 Q1010 NOSIG",
      "taf": "TAF LIRP 281100Z 2812/2912 27010KT 9999 FEW020"
    },
    {
      "icao": "LIRZ",
      "alert": "OK",
      "vis_m": 9999,
      "fzfg": false,
      "metar_trigger": false,
      "taf_trigger": false,
      "metar": "METAR LIRZ 281650Z AUTO 04009KT 9999 NCD 13/01 Q1008",
      "taf": "TAF LIRZ 281100Z 2812/2912 02013KT 9999 FEW050"
    },
    {
      "icao": "LJLJ",
      "alert": "OK",
      "vis_m": 9999,
      "fzfg": false,
      "metar_trigger": false,
      "taf_trigger": false,
      "metar": "METAR LJLJ 281630Z 34009KT 320V020 9999 FEW080 12/M05 Q1008 NOSIG",
      "taf": "TAF LJLJ 281700Z 2818/2918 35010KT 9999 FEW080"
    },
    {
      "icao": "LKMT",
      "alert": "OK",
      "vis_m": 9999,
      "fzfg": false,
      "metar_trigger": false,
      "taf_trigger": false,
      "metar": "METAR LKMT 281700Z 01006KT 9999 OVC025 05/00 Q1014 NOSIG",
      "taf": "TAF LKMT 281100Z 2812/2912 01010KT 9999 OVC027"
    },
    {
      "icao": "LKPR",
      "alert": "OK",
      "vis_m": 9999,
      "fzfg": false,
      "metar_trigger": false,
      "taf_trigger": false,
      "metar": "METAR LKPR 281700Z 31005KT 9999 FEW040 07/M07 Q1015 NOSIG",
      "taf": "TAF LKPR 281400Z 2815/2921 32008KT CAVOK"
    },
    {
      "icao": "LLBG",
      "alert": "OK",
      "vis_m": 9999,
      "fzfg": false,
      "metar_trigger": false,
      "taf_trigger": false,
      "metar": "METAR LLBG 281650Z 06004KT CAVOK 19/07 Q1011 NOSIG",
      "taf": "TAF LLBG 281701Z 2818/2918 15005KT CAVOK TX18/2912Z TN14/2903Z"
    },
    {
      "icao": "LMML",
      "alert": "OK",
      "vis_m": 9999,
      "fzfg": false,
      "metar_trigger": false,
      "taf_trigger": false,
      "metar": "METAR LMML 281645Z 30020KT 9999 FEW026 14/08 Q1009 NOSIG",
      "taf": "TAF LMML 281100Z 2812/2912 30020G30KT 9999 SCT025"
    },
    {
      "icao": "LOWW",
      "alert": "OK",
      "vis_m": 9999,
      "fzfg": false,
      "metar_trigger": false,
      "taf_trigger": false,
      "metar": "METAR LOWW 281650Z 32011KT 9999 BKN038 06/M03 Q1014 NOSIG",
      "taf": "TAF LOWW 281415Z 2815/2921 31020KT 9999 SCT030 OVC040 TX07/2816Z TN04/2906Z"
    },
    {
      "icao": "LPFR",
      "alert": "OK",
      "vis_m": 9999,
      "fzfg": false,
      "metar_trigger": false,
      "taf_trigger": false,
      "metar": "METAR LPFR 281630Z 25009KT CAVOK 17/13 Q1019",
      "taf": "TAF LPFR 281100Z 2812/2912 15008KT CAVOK"
    },
    {
      "icao": "LPMA",
      "alert": "OK",
      "vis_m": 9999,
      "fzfg": false,
      "metar_trigger": false,
      "taf_trigger": false,
      "metar": "METAR LPMA 281630Z 01017KT 340V040 9999 SCT015 17/11 Q1023",
      "taf": "TAF LPMA 281100Z 2812/2912 02018KT 9999 SCT015"
    },
    {
      "icao": "LPPR",
      "alert": "OK",
      "vis_m": 9999,
      "fzfg": false,
      "metar_trigger": false,
      "taf_trigger": false,
      "metar": "METAR LPPR 281630Z 32009KT CAVOK 19/09 Q1024",
      "taf": "TAF LPPR 281100Z 2812/2912 36007KT CAVOK"
    },
    {
      "icao": "LPPS",
      "alert": "OK",
      "vis_m": 9999,
      "fzfg": false,
      "metar_trigger": false,
      "taf_trigger": false,
      "metar": "METAR LPPS 281630Z 03012KT 010V070 9999 SCT014 BKN030 17/12 Q1023",
      "taf": "TAF LPPS 281100Z 2812/2918 04013KT 9999 SCT014 SCT030"
    },
    {
      "icao": "LPPT",
      "alert": "OK",
      "vis_m": 9999,
      "fzfg": false,
      "metar_trigger": false,
      "taf_trigger": false,
      "metar": "METAR LPPT 281630Z 34014KT 300V360 CAVOK 21/09 Q1021",
      "taf": "TAF LPPT 281100Z 2812/2918 05012KT CAVOK"
    },
    {
      "icao": "LQBK",
      "alert": "OK",
      "vis_m": 9999,
      "fzfg": false,
      "metar_trigger": false,
      "taf_trigger": false,
      "metar": "METAR LQBK 281630Z 25004KT 9999 RA BKN025 OVC035 05/02 Q1010 NOSIG",
      "taf": ""
    },
    {
      "icao": "LQSA",
      "alert": "OK",
      "vis_m": 9999,
      "fzfg": false,
      "metar_trigger": false,
      "taf_trigger": false,
      "metar": "METAR LQSA 281630Z 30007KT 9999 -RA SCT017 BKN035 02/01 Q1007 NOSIG",
      "taf": "TAF LQSA 281100Z 2812/2912 28007KT 8000 SCT015 BKN035 TX03/2912Z TN00/2906Z"
    },
    {
      "icao": "LQTZ",
      "alert": "OK",
      "vis_m": 1700,
      "fzfg": false,
      "metar_trigger": false,
      "taf_trigger": false,
      "metar": "METAR LQTZ 281630Z 31004KT 1700 SN BR OVC005 00/00 Q1009 RESN",
      "taf": ""
    },
    {
      "icao": "LRBC",
      "alert": "OK",
      "vis_m": 3000,
      "fzfg": false,
      "metar_trigger": false,
      "taf_trigger": false,
      "metar": "METAR LRBC 281630Z VRB02KT 3000 -RA BR OVC013 10/09 Q1005",
      "taf": "TAF LRBC 281400Z 2815/2824 VRB04KT 5000 -RA BR OVC035"
    },
    {
      "icao": "LRBS",
      "alert": "OK",
      "vis_m": 9999,
      "fzfg": false,
      "metar_trigger": false,
      "taf_trigger": false,
      "metar": "METAR LRBS 281630Z 03006KT 350V060 9999 BKN007 10/08 Q1003 NOSIG",
      "taf": "TAF LRBS 281100Z 2812/2912 05012KT 9999 BKN005 OVC020"
    },
    {
      "icao": "LRBV",
      "alert": "OK",
      "vis_m": 9999,
      "fzfg": false,
      "metar_trigger": false,
      "taf_trigger": false,
      "metar": "METAR LRBV 281630Z VRB03KT 9999 -RA BKN008 OVC016 06/04 Q1004",
      "taf": "TAF LRBV 281400Z 2815/2824 VRB04KT 9999 BKN040"
    },
    {
      "icao": "LRCL",
      "alert": "OK",
      "vis_m": 8000,
      "fzfg": false,
      "metar_trigger": false,
      "taf_trigger": false,
      "metar": "METAR LRCL 281630Z 26005KT 8000 -RA OVC030 08/07 Q1005",
      "taf": "TAF LRCL 281400Z 2815/2824 VRB04KT 9999 OVC035"
    },
    {
      "icao": "LRCV",
      "alert": "OK",
      "vis_m": 9999,
      "fzfg": false,
      "metar_trigger": false,
      "taf_trigger": false,
      "metar": "METAR LRCV 281630Z 05011KT 9999 BKN019 09/08 Q1003",
      "taf": "TAF LRCV 281400Z 2815/2824 07012KT 9999 BKN015 BKN025"
    },
    {
      "icao": "LRIA",
      "alert": "OK",
      "vis_m": 9999,
      "fzfg": false,
      "metar_trigger": false,
      "taf_trigger": false,
      "metar": "METAR LRIA 281630Z 14005KT 9999 -RA SCT013 11/09 Q1005",
      "taf": "TAF LRIA 281400Z 2815/2824 03009KT 9999 SCT040"
    },
    {
      "icao": "LROP",
      "alert": "OK",
      "vis_m": 9999,
      "fzfg": false,
      "metar_trigger": false,
      "taf_trigger": false,
      "metar": "METAR LROP 281630Z 04011KT 9999 OVC008 10/10 Q1003 NOSIG",
      "taf": "TAF LROP 281100Z 2812/2912 06020KT 9999 BKN005 OVC020"
    },
    {
      "icao": "LRSB",
      "alert": "OK",
      "vis_m": 9999,
      "fzfg": false,
      "metar_trigger": false,
      "taf_trigger": false,
      "metar": "METAR LRSB 281630Z 24003KT 9999 -RA SCT012 BKN023 BKN030 07/06 Q1003",
      "taf": "TAF LRSB 281100Z 2812/2912 10012KT 9999 BKN040"
    },
    {
      "icao": "LRSM",
      "alert": "OK",
      "vis_m": 9999,
      "fzfg": false,
      "metar_trigger": false,
      "taf_trigger": false,
      "metar": "METAR LRSM 281630Z AUTO 33005KT 9999 SCT075/// BKN090/// 12/08 Q1005",
      "taf": ""
    },
    {
      "icao": "LRSV",
      "alert": "OK",
      "vis_m": 9999,
      "fzfg": false,
      "metar_trigger": false,
      "taf_trigger": false,
      "metar": "METAR LRSV 281630Z 35012KT CAVOK 12/06 Q1005",
      "taf": "TAF LRSV 281400Z 2815/2824 35008KT 9999 SCT035"
    },
    {
      "icao": "LRTM",
      "alert": "OK",
      "vis_m": 9999,
      "fzfg": false,
      "metar_trigger": false,
      "taf_trigger": false,
      "metar": "METAR LRTM 281630Z 35003KT 9999 -RA OVC043 09/07 Q1004",
      "taf": "TAF LRTM 281400Z 2815/2824 VRB04KT 9999 OVC040"
    },
    {
      "icao": "LRTR",
      "alert": "OK",
      "vis_m": 9999,
      "fzfg": false,
      "metar_trigger": false,
      "taf_trigger": false,
      "metar": "METAR LRTR 281630Z COR 36006KT 9999 FEW045 11/08 Q1003",
      "taf": "TAF LRTR 281100Z 2812/2912 36010KT 9999 BKN040"
    },
    {
      "icao": "LTAC",
      "alert": "OK",
      "vis_m": 8000,
      "fzfg": false,
      "metar_trigger": false,
      "taf_trigger": false,
      "metar": "METAR LTAC 281650Z 23003KT 120V250 8000 -SHRA BKN030 BKN080 09/06 Q1007 NOSIG RMK RWY21C 22003KT RWY03L VRB02KT RWY21R 22004KT RWY03R VRB02KT RWY21L 23003KT 180V250",
      "taf": "TAF LTAC 281640Z 2818/2918 20009KT 9999 SCT035 BKN090"
    },
    {
      "icao": "LTFM",
      "alert": "OK",
      "vis_m": 7000,
      "fzfg": false,
      "metar_trigger": false,
      "taf_trigger": false,
      "metar": "METAR LTFM 281650Z 14008KT 7000 -SHRA FEW006 BKN025 BKN080 10/09 Q1001 NOSIG RMK RWY17L 13008KT RWY34L 13006KT RWY16R 13008KT RWY36 14009KT 110V230 RWY18 13008KT",
      "taf": "TAF LTFM 281640Z 2818/2924 16012KT 9999 -RA SCT006 BKN025"
    },
    {
      "icao": "LUKK",
      "alert": "OK",
      "vis_m": 9999,
      "fzfg": false,
      "metar_trigger": false,
      "taf_trigger": false,
      "metar": "METAR LUKK 281630Z 16010KT 130V190 CAVOK 13/08 Q1006 NOSIG",
      "taf": "TAF LUKK 281110Z 2812/2912 10009KT 9999 SCT040"
    },
    {
      "icao": "LWOH",
      "alert": "OK",
      "vis_m": 9999,
      "fzfg": false,
      "metar_trigger": false,
      "taf_trigger": false,
      "metar": "METAR LWOH 281650Z VRB02KT 9999 FEW035 SCT040 BKN090 07/03 Q1001",
      "taf": "TAF LWOH 281530Z 2815/2915 33008KT 9999 SCT040 BKN080"
    },
    {
      "icao": "LWSK",
      "alert": "OK",
      "vis_m": 9999,
      "fzfg": false,
      "metar_trigger": false,
      "taf_trigger": false,
      "metar": "METAR LWSK 281650Z VRB04KT 9999 BKN035 OVC070 08/01 Q1004 NOSIG",
      "taf": "TAF LWSK 281135Z 2812/2912 02012KT 9999 BKN050"
    },
    {
      "icao": "LYBE",
      "alert": "OK",
      "vis_m": 8000,
      "fzfg": false,
      "metar_trigger": false,
      "taf_trigger": false,
      "metar": "METAR LYBE 281630Z 28014KT 8000 -RA BKN004 05/05 Q1005 NOSIG",
      "taf": "TAF LYBE 281100Z 2812/2912 30012KT 8000 BKN010 BKN030 TX08/2912Z TN05/2905Z"
    },
    {
      "icao": "LYNI",
      "alert": "OK",
      "vis_m": 6000,
      "fzfg": false,
      "metar_trigger": false,
      "taf_trigger": false,
      "metar": "METAR LYNI 281630Z VRB02KT 6000 -DZ BKN005 OVC010 02/02 Q1005 NOSIG",
      "taf": "TAF LYNI 281100Z 2812/2912 30005KT 2000 SN BKN004 OVC025 TX08/2912Z TN00/2812Z"
    },
    {
      "icao": "LYPG",
      "alert": "OK",
      "vis_m": 9999,
      "fzfg": false,
      "metar_trigger": false,
      "taf_trigger": false,
      "metar": "METAR LYPG 281630Z 36014KT 9999 FEW030 SCT090 12/M02 Q1003 NOSIG",
      "taf": ""
    },
    {
      "icao": "LZIB",
      "alert": "OK",
      "vis_m": 9999,
      "fzfg": false,
      "metar_trigger": false,
      "taf_trigger": false,
      "metar": "METAR LZIB 281700Z 31016G27KT 9999 FEW036 06/M01 Q1012 NOSIG",
      "taf": "TAF LZIB 281115Z 2812/2912 33016KT 9999 FEW027 BKN035"
    },
    {
      "icao": "LZKZ",
      "alert": "OK",
      "vis_m": 9999,
      "fzfg": false,
      "metar_trigger": false,
      "taf_trigger": false,
      "metar": "METAR LZKZ 281700Z 36015KT CAVOK 11/05 Q1008 NOSIG",
      "taf": "TAF LZKZ 281115Z 2812/2912 01020KT 9999 FEW025 BKN040"
    },
    {
      "icao": "LZTT",
      "alert": "OK",
      "vis_m": 9999,
      "fzfg": false,
      "metar_trigger": false,
      "taf_trigger": false,
      "metar": "METAR LZTT 281700Z 13008KT 9999 FEW007 SCT020 BKN046 04/03 Q1010 NOSIG",
      "taf": ""
    },
    {
      "icao": "OEJN",
      "alert": "OK",
      "vis_m": 9999,
      "fzfg": false,
      "metar_trigger": false,
      "taf_trigger": false,
      "metar": "METAR OEJN 281700Z 33012KT CAVOK 25/12 Q1011 NOSIG",
      "taf": "TAF OEJN 281700Z 2818/2924 01006KT CAVOK"
    },
    {
      "icao": "OEMA",
      "alert": "OK",
      "vis_m": 9999,
      "fzfg": false,
      "metar_trigger": false,
      "taf_trigger": false,
      "metar": "METAR OEMA 281700Z 33003KT CAVOK 25/00 Q1013 NOSIG",
      "taf": "TAF OEMA 281700Z 2818/2924 VRB03KT CAVOK"
    },
    {
      "icao": "OJAI",
      "alert": "OK",
      "vis_m": 5000,
      "fzfg": false,
      "metar_trigger": false,
      "taf_trigger": false,
      "metar": "METAR OJAI 281600Z 22010KT 5000 HZ NSC 15/07 Q1013 NOSIG",
      "taf": "TAF OJAI 281039Z 2812/2918 24012KT 5000 HZ FEW035"
    },
    {
      "icao": "OMAA",
      "alert": "OK",
      "vis_m": null,
      "fzfg": false,
      "metar_trigger": false,
      "taf_trigger": false,
      "metar": "",
      "taf": ""
    },
    {
      "icao": "OMDB",
      "alert": "OK",
      "vis_m": null,
      "fzfg": false,
      "metar_trigger": false,
      "taf_trigger": false,
      "metar": "",
      "taf": ""
    },
    {
      "icao": "UAAA",
      "alert": "OK",
      "vis_m": 5000,
      "fzfg": false,
      "metar_trigger": false,
      "taf_trigger": false,
      "metar": "METAR UAAA 281630Z 20002MPS 5000 FU NSC 10/M01 Q1007 NOSIG",
      "taf": "TAF UAAA 281102Z 2812/2912 21002MPS 9999 FEW100 TX20/2910Z TN05/2901Z"
    },
    {
      "icao": "UBBB",
      "alert": "OK",
      "vis_m": 9999,
      "fzfg": false,
      "metar_trigger": false,
      "taf_trigger": false,
      "metar": "METAR UBBB 281700Z 19010KT 9999 -SHRA SCT005 SCT030CB OVC030 12/11 Q1001 NOSIG",
      "taf": "TAF UBBB 281659Z 2818/2918 20010KT 9999 -SHRA SCT008 SCT030CB OVC030 TX15/2911Z TN11/2901Z"
    },
    {
      "icao": "UDSG",
      "alert": "OK",
      "vis_m": 9999,
      "fzfg": false,
      "metar_trigger": false,
      "taf_trigger": false,
      "metar": "METAR UDSG 281630Z 02004KT 9999 SCT046CB 07/M01 Q1006 NOSIG",
      "taf": "TAF UDSG 281058Z 2812/2912 24006KT 9999 BKN040"
    },
    {
      "icao": "UDYZ",
      "alert": "OK",
      "vis_m": 9999,
      "fzfg": false,
      "metar_trigger": false,
      "taf_trigger": false,
      "metar": "METAR UDYZ 281630Z VRB01KT 9999 SCT046 11/06 Q1003 NOSIG",
      "taf": "TAF UDYZ 281100Z 2812/2912 02006KT 9999 SCT040"
    },
    {
      "icao": "UGKO",
      "alert": "OK",
      "vis_m": 9999,
      "fzfg": false,
      "metar_trigger": false,
      "taf_trigger": false,
      "metar": "METAR UGKO 281630Z 25007KT CAVOK 11/08 Q1006 NOSIG",
      "taf": "TAF UGKO 281100Z 2812/2912 26007KT CAVOK TX17/2911Z TN06/2903Z"
    }
  ]
}