{
  "ts_utc": "2026-05-02T07:24:41Z",
  "threshold_m": 150,
  "source": "stations_override.txt (ICAO list) + aviationweather.gov (METAR/TAF raw)",
  "station_count": 159,
  "stations": [
    {
      "icao": "BIKF",
      "alert": "OK",
      "vis_m": 9999,
      "fzfg": false,
      "metar_trigger": false,
      "taf_trigger": false,
      "metar": "METAR BIKF 020700Z 18003KT CAVOK 01/M04 Q1020",
      "taf": "TAF BIKF 020406Z 0206/0306 27005KT 9999 SCT030 TX07/0215Z TN00/0206Z"
    },
    {
      "icao": "BKPR",
      "alert": "OK",
      "vis_m": null,
      "fzfg": false,
      "metar_trigger": false,
      "taf_trigger": false,
      "metar": "",
      "taf": "TAF BKPR 020530Z 0206/0306 01008KT 9999 FEW050"
    },
    {
      "icao": "EBCI",
      "alert": "OK",
      "vis_m": 9999,
      "fzfg": false,
      "metar_trigger": false,
      "taf_trigger": false,
      "metar": "METAR EBCI 020650Z 19005KT CAVOK 17/10 Q1020 NOSIG",
      "taf": "TAF EBCI 020509Z 0206/0312 22006KT CAVOK"
    },
    {
      "icao": "EDDB",
      "alert": "OK",
      "vis_m": 9999,
      "fzfg": false,
      "metar_trigger": false,
      "taf_trigger": false,
      "metar": "METAR EDDB 020720Z AUTO 20005KT 160V220 CAVOK 18/08 Q1023 NOSIG",
      "taf": "TAF EDDB 020500Z 0206/0306 VRB03KT CAVOK"
    },
    {
      "icao": "EDDH",
      "alert": "OK",
      "vis_m": 9999,
      "fzfg": false,
      "metar_trigger": false,
      "taf_trigger": false,
      "metar": "METAR EDDH 020720Z AUTO 17007KT 140V210 CAVOK 18/08 Q1019 NOSIG",
      "taf": "TAF EDDH 020500Z 0206/0312 14006KT CAVOK"
    },
    {
      "icao": "EDDK",
      "alert": "OK",
      "vis_m": 9999,
      "fzfg": false,
      "metar_trigger": false,
      "taf_trigger": false,
      "metar": "METAR EDDK 020720Z AUTO 14005KT CAVOK 18/06 Q1020 NOSIG",
      "taf": "TAF EDDK 020500Z 0206/0312 11004KT CAVOK"
    },
    {
      "icao": "EDDN",
      "alert": "OK",
      "vis_m": 9999,
      "fzfg": false,
      "metar_trigger": false,
      "taf_trigger": false,
      "metar": "METAR EDDN 020720Z AUTO 13003KT 090V210 CAVOK 16/05 Q1024 NOSIG",
      "taf": "TAF EDDN 020500Z 0206/0306 VRB03KT CAVOK"
    },
    {
      "icao": "EDDS",
      "alert": "OK",
      "vis_m": 9999,
      "fzfg": false,
      "metar_trigger": false,
      "taf_trigger": false,
      "metar": "METAR EDDS 020720Z AUTO VRB02KT CAVOK 16/05 Q1022 NOSIG",
      "taf": "TAF EDDS 020500Z 0206/0306 VRB03KT CAVOK"
    },
    {
      "icao": "EDFH",
      "alert": "OK",
      "vis_m": 9999,
      "fzfg": false,
      "metar_trigger": false,
      "taf_trigger": false,
      "metar": "METAR EDFH 020650Z 14008KT CAVOK 14/05 Q1022",
      "taf": "TAF EDFH 020500Z 0206/0306 14009KT CAVOK"
    },
    {
      "icao": "EDJA",
      "alert": "OK",
      "vis_m": 9999,
      "fzfg": false,
      "metar_trigger": false,
      "taf_trigger": false,
      "metar": "METAR EDJA 020650Z 24004KT 200V290 CAVOK 13/05 Q1023",
      "taf": "TAF EDJA 020500Z 0206/0215 VRB03KT CAVOK"
    },
    {
      "icao": "EDLW",
      "alert": "OK",
      "vis_m": 9999,
      "fzfg": false,
      "metar_trigger": false,
      "taf_trigger": false,
      "metar": "METAR EDLW 020650Z 17008KT CAVOK 18/05 Q1019",
      "taf": "TAF EDLW 020500Z 0206/0306 16007KT CAVOK"
    },
    {
      "icao": "EDNY",
      "alert": "OK",
      "vis_m": 9999,
      "fzfg": false,
      "metar_trigger": false,
      "taf_trigger": false,
      "metar": "METAR EDNY 020650Z VRB01KT CAVOK 13/06 Q1024",
      "taf": "TAF EDNY 020500Z 0206/0215 VRB03KT CAVOK"
    },
    {
      "icao": "EDSB",
      "alert": "OK",
      "vis_m": 9999,
      "fzfg": false,
      "metar_trigger": false,
      "taf_trigger": false,
      "metar": "METAR EDSB 020650Z VRB02KT CAVOK 13/06 Q1022",
      "taf": "TAF EDSB 020500Z 0206/0306 VRB03KT CAVOK"
    },
    {
      "icao": "EETN",
      "alert": "OK",
      "vis_m": 9999,
      "fzfg": false,
      "metar_trigger": false,
      "taf_trigger": false,
      "metar": "METAR EETN 020720Z 25014KT CAVOK 15/04 Q1012 NOSIG",
      "taf": "TAF EETN 020530Z 0206/0306 26013KT CAVOK"
    },
    {
      "icao": "EFTU",
      "alert": "OK",
      "vis_m": 9999,
      "fzfg": false,
      "metar_trigger": false,
      "taf_trigger": false,
      "metar": "METAR EFTU 020720Z AUTO 27010KT 240V300 CAVOK 16/04 Q1011",
      "taf": "TAF EFTU 020531Z 0206/0306 26010KT CAVOK"
    },
    {
      "icao": "EGBB",
      "alert": "OK",
      "vis_m": 9999,
      "fzfg": false,
      "metar_trigger": false,
      "taf_trigger": false,
      "metar": "METAR EGBB 020650Z 28004KT 220V320 CAVOK 10/08 Q1018",
      "taf": "TAF EGBB 020454Z 0206/0306 23003KT 6000 FEW040"
    },
    {
      "icao": "EGGP",
      "alert": "OK",
      "vis_m": 9999,
      "fzfg": false,
      "metar_trigger": false,
      "taf_trigger": false,
      "metar": "METAR EGGP 020650Z 13004KT CAVOK 08/08 Q1017",
      "taf": "TAF EGGP 020458Z 0206/0306 VRB03KT 9999 SCT040"
    },
    {
      "icao": "EGGW",
      "alert": "OK",
      "vis_m": 9999,
      "fzfg": false,
      "metar_trigger": false,
      "taf_trigger": false,
      "metar": "METAR EGGW 020650Z AUTO 23004KT 9999 NCD 11/09 Q1018",
      "taf": "TAF EGGW 020457Z 0206/0306 23004KT 9999 FEW045"
    },
    {
      "icao": "EGKK",
      "alert": "OK",
      "vis_m": 4800,
      "fzfg": false,
      "metar_trigger": false,
      "taf_trigger": false,
      "metar": "METAR EGKK 020650Z 23004KT 4800 BR BKN004 11/10 Q1018",
      "taf": "TAF EGKK 020459Z 0206/0312 24004KT 9999 FEW048"
    },
    {
      "icao": "EGNM",
      "alert": "OK",
      "vis_m": 9999,
      "fzfg": false,
      "metar_trigger": false,
      "taf_trigger": false,
      "metar": "METAR EGNM 020650Z 26015KT 9999 BKN012 10/07 Q1016",
      "taf": ""
    },
    {
      "icao": "EGPD",
      "alert": "OK",
      "vis_m": 9999,
      "fzfg": false,
      "metar_trigger": false,
      "taf_trigger": false,
      "metar": "METAR EGPD 020650Z COR AUTO 02003KT 320V060 9999 NCD 12/08 Q1013 NOSIG",
      "taf": "TAF EGPD 020454Z 0206/0306 27005KT CAVOK"
    },
    {
      "icao": "EGPF",
      "alert": "OK",
      "vis_m": 9000,
      "fzfg": false,
      "metar_trigger": false,
      "taf_trigger": false,
      "metar": "METAR EGPF 020650Z AUTO 24004KT 9000 BKN015 BKN034 11/10 Q1014",
      "taf": "TAF EGPF 020456Z 0206/0306 02004KT 9999 BKN030"
    },
    {
      "icao": "EHBK",
      "alert": "OK",
      "vis_m": 9999,
      "fzfg": false,
      "metar_trigger": false,
      "taf_trigger": false,
      "metar": "METAR EHBK 020655Z AUTO 20010KT 9999 NSC 15/06 Q1019 NOSIG",
      "taf": "TAF EHBK 020513Z 0206/0312 19004KT CAVOK"
    },
    {
      "icao": "EHEH",
      "alert": "OK",
      "vis_m": 9999,
      "fzfg": false,
      "metar_trigger": false,
      "taf_trigger": false,
      "metar": "METAR EHEH 020655Z AUTO 19005KT 150V220 9999 SCT081 SCT087 BKN092 15/06 Q1019 BLU NOSIG RMK TREND REMOTE BY EHWX",
      "taf": "TAF EHEH 020510Z 0206/0312 19005KT CAVOK"
    },
    {
      "icao": "EKBI",
      "alert": "OK",
      "vis_m": 9999,
      "fzfg": false,
      "metar_trigger": false,
      "taf_trigger": false,
      "metar": "METAR EKBI 020720Z AUTO 20008KT 9999 NCD 18/07 Q1017",
      "taf": "TAF EKBI 020527Z 0206/0306 14006KT CAVOK"
    },
    {
      "icao": "EKCH",
      "alert": "OK",
      "vis_m": 9999,
      "fzfg": false,
      "metar_trigger": false,
      "taf_trigger": false,
      "metar": "METAR EKCH 020720Z AUTO 20011KT 9999 NCD 14/08 Q1020 NOSIG",
      "taf": "TAF EKCH 020527Z 0206/0306 19010KT CAVOK"
    },
    {
      "icao": "ENAL",
      "alert": "OK",
      "vis_m": 9999,
      "fzfg": false,
      "metar_trigger": false,
      "taf_trigger": false,
      "metar": "METAR ENAL 020650Z 34008KT 290V010 9999 -RA FEW005 SCT009 BKN016 06/04 Q1012",
      "taf": "TAF ENAL 020500Z 0206/0215 25015KT 9999 -RA FEW010 BKN025"
    },
    {
      "icao": "ENBR",
      "alert": "OK",
      "vis_m": 9999,
      "fzfg": false,
      "metar_trigger": false,
      "taf_trigger": false,
      "metar": "METAR ENBR 020650Z 13006KT 9999 -RA FEW050 07/05 Q1013 TEMPO RA RMK WIND 1200FT 14018KT",
      "taf": "TAF ENBR 020500Z 0206/0306 17010KT 9999 -RA FEW020 BKN045"
    },
    {
      "icao": "ENGM",
      "alert": "OK",
      "vis_m": 9999,
      "fzfg": false,
      "metar_trigger": false,
      "taf_trigger": false,
      "metar": "METAR ENGM 020650Z 18007KT CAVOK 12/02 Q1012 NOSIG",
      "taf": "TAF ENGM 020500Z 0206/0306 18008KT CAVOK"
    },
    {
      "icao": "ENHD",
      "alert": "OK",
      "vis_m": 9999,
      "fzfg": false,
      "metar_trigger": false,
      "taf_trigger": false,
      "metar": "METAR ENHD 020650Z 15006KT 9999 -SHRA NSC 09/05 Q1013",
      "taf": "TAF ENHD 020500Z 0206/0215 16010KT 9999 -RA FEW020 BKN045"
    },
    {
      "icao": "ENTC",
      "alert": "OK",
      "vis_m": 9999,
      "fzfg": false,
      "metar_trigger": false,
      "taf_trigger": false,
      "metar": "METAR ENTC 020650Z 23018KT 9999 -RA FEW020 BKN035 05/02 Q0991 TEMPO 4000 SHRA VV012 RMK WIND 2600FT 19026KT",
      "taf": ""
    },
    {
      "icao": "ENTO",
      "alert": "OK",
      "vis_m": 9999,
      "fzfg": false,
      "metar_trigger": false,
      "taf_trigger": false,
      "metar": "METAR ENTO 020650Z 21009KT CAVOK 13/03 Q1014 NOSIG",
      "taf": "TAF ENTO 020500Z 0206/0306 21010KT CAVOK"
    },
    {
      "icao": "ENVA",
      "alert": "OK",
      "vis_m": 9999,
      "fzfg": false,
      "metar_trigger": false,
      "taf_trigger": false,
      "metar": "METAR ENVA 020650Z VRB02KT 9999 -RA SCT024 BKN030 08/07 Q1009 NOSIG RMK WIND 670FT 22010KT",
      "taf": "TAF ENVA 020500Z 0206/0306 VRB04KT 9999 -RA FEW015 BKN025"
    },
    {
      "icao": "ENZV",
      "alert": "OK",
      "vis_m": 9999,
      "fzfg": false,
      "metar_trigger": false,
      "taf_trigger": false,
      "metar": "METAR ENZV 020650Z 19003KT CAVOK 11/03 Q1013 NOSIG",
      "taf": "TAF ENZV 020500Z 0206/0306 17008KT CAVOK"
    },
    {
      "icao": "EPGD",
      "alert": "OK",
      "vis_m": 9999,
      "fzfg": false,
      "metar_trigger": false,
      "taf_trigger": false,
      "metar": "METAR EPGD 020700Z 25006KT CAVOK 18/03 Q1023",
      "taf": "TAF EPGD 020530Z 0206/0306 25005KT CAVOK"
    },
    {
      "icao": "EPKK",
      "alert": "OK",
      "vis_m": 9999,
      "fzfg": false,
      "metar_trigger": false,
      "taf_trigger": false,
      "metar": "METAR EPKK 020700Z VRB02KT CAVOK 13/05 Q1025",
      "taf": "TAF EPKK 020530Z 0206/0306 VRB02KT CAVOK"
    },
    {
      "icao": "EPKT",
      "alert": "OK",
      "vis_m": 9999,
      "fzfg": false,
      "metar_trigger": false,
      "taf_trigger": false,
      "metar": "METAR EPKT 020700Z 03003KT 350V070 CAVOK 18/04 Q1025",
      "taf": "TAF EPKT 020530Z 0206/0306 07005KT CAVOK"
    },
    {
      "icao": "EPLB",
      "alert": "OK",
      "vis_m": 9999,
      "fzfg": false,
      "metar_trigger": false,
      "taf_trigger": false,
      "metar": "METAR EPLB 020700Z 23005KT CAVOK 14/05 Q1026",
      "taf": "TAF EPLB 020530Z 0206/0306 VRB05KT CAVOK"
    },
    {
      "icao": "EPMO",
      "alert": "OK",
      "vis_m": 9999,
      "fzfg": false,
      "metar_trigger": false,
      "taf_trigger": false,
      "metar": "METAR EPMO 020700Z 22006KT 180V240 CAVOK 17/05 Q1024",
      "taf": "TAF EPMO 020530Z 0206/0306 VRB03KT CAVOK"
    },
    {
      "icao": "EPPO",
      "alert": "OK",
      "vis_m": 9999,
      "fzfg": false,
      "metar_trigger": false,
      "taf_trigger": false,
      "metar": "METAR EPPO 020700Z 17003KT 150V220 CAVOK 18/06 Q1024",
      "taf": "TAF EPPO 020530Z 0206/0306 VRB02KT CAVOK"
    },
    {
      "icao": "EPRA",
      "alert": "OK",
      "vis_m": 9999,
      "fzfg": false,
      "metar_trigger": false,
      "taf_trigger": false,
      "metar": "METAR EPRA 020700Z 25004KT 220V300 CAVOK 16/04 Q1025",
      "taf": "TAF EPRA 020530Z 0206/0215 25008KT CAVOK"
    },
    {
      "icao": "EPRZ",
      "alert": "OK",
      "vis_m": 9999,
      "fzfg": false,
      "metar_trigger": false,
      "taf_trigger": false,
      "metar": "METAR EPRZ 020700Z VRB02KT CAVOK 14/05 Q1026",
      "taf": "TAF EPRZ 020530Z 0206/0306 02004KT CAVOK"
    },
    {
      "icao": "EPSC",
      "alert": "OK",
      "vis_m": 9999,
      "fzfg": false,
      "metar_trigger": false,
      "taf_trigger": false,
      "metar": "METAR EPSC 020700Z 16006KT 130V190 CAVOK 17/04 Q1023",
      "taf": "TAF EPSC 020530Z 0206/0306 12005KT CAVOK"
    },
    {
      "icao": "EPSY",
      "alert": "OK",
      "vis_m": 9999,
      "fzfg": false,
      "metar_trigger": false,
      "taf_trigger": false,
      "metar": "METAR EPSY 020700Z 24007KT 210V280 CAVOK 18/04 Q1023",
      "taf": "TAF EPSY 020530Z 0206/0215 VRB02KT CAVOK"
    },
    {
      "icao": "EPWA",
      "alert": "OK",
      "vis_m": 9999,
      "fzfg": false,
      "metar_trigger": false,
      "taf_trigger": false,
      "metar": "METAR EPWA 020700Z 23005KT 190V260 CAVOK 18/05 Q1024 NOSIG",
      "taf": "TAF EPWA 020530Z 0206/0306 VRB03KT CAVOK"
    },
    {
      "icao": "EPWR",
      "alert": "OK",
      "vis_m": 9999,
      "fzfg": false,
      "metar_trigger": false,
      "taf_trigger": false,
      "metar": "METAR EPWR 020700Z VRB02KT CAVOK 17/06 Q1025",
      "taf": "TAF EPWR 020530Z 0206/0306 VRB02KT CAVOK"
    },
    {
      "icao": "ESGG",
      "alert": "OK",
      "vis_m": 9999,
      "fzfg": false,
      "metar_trigger": false,
      "taf_trigger": false,
      "metar": "METAR ESGG 020650Z 19010KT CAVOK 15/06 Q1016",
      "taf": "TAF ESGG 020530Z 0206/0306 18008KT CAVOK"
    },
    {
      "icao": "ESKN",
      "alert": "OK",
      "vis_m": 9999,
      "fzfg": false,
      "metar_trigger": false,
      "taf_trigger": false,
      "metar": "METAR ESKN 020650Z 24012KT CAVOK 17/03 Q1016",
      "taf": "TAF ESKN 020530Z 0206/0306 25010KT CAVOK"
    },
    {
      "icao": "ESMS",
      "alert": "OK",
      "vis_m": 9999,
      "fzfg": false,
      "metar_trigger": false,
      "taf_trigger": false,
      "metar": "METAR ESMS 020650Z 18010KT CAVOK 16/06 Q1020",
      "taf": "TAF ESMS 020527Z 0206/0306 19010KT CAVOK"
    },
    {
      "icao": "ESSA",
      "alert": "OK",
      "vis_m": 9999,
      "fzfg": false,
      "metar_trigger": false,
      "taf_trigger": false,
      "metar": "METAR ESSA 020650Z 25018KT CAVOK 14/M00 Q1013 NOSIG",
      "taf": "TAF ESSA 020530Z 0206/0306 25012KT CAVOK"
    },
    {
      "icao": "EYKA",
      "alert": "OK",
      "vis_m": 9999,
      "fzfg": false,
      "metar_trigger": false,
      "taf_trigger": false,
      "metar": "METAR EYKA 020720Z 26009KT 210V280 CAVOK 16/03 Q1020",
      "taf": "TAF EYKA 020500Z 0206/0306 VRB03KT CAVOK"
    },
    {
      "icao": "EYPA",
      "alert": "OK",
      "vis_m": 9999,
      "fzfg": false,
      "metar_trigger": false,
      "taf_trigger": false,
      "metar": "METAR EYPA 020720Z 28003KT 210V340 CAVOK 13/05 Q1021",
      "taf": "TAF EYPA 020500Z 0206/0306 VRB03KT CAVOK"
    },
    {
      "icao": "EYVI",
      "alert": "OK",
      "vis_m": 9999,
      "fzfg": false,
      "metar_trigger": false,
      "taf_trigger": false,
      "metar": "METAR EYVI 020720Z 25007KT 220V290 CAVOK 16/04 Q1021 NOSIG",
      "taf": "TAF EYVI 020500Z 0206/0306 26010KT CAVOK"
    },
    {
      "icao": "GCFV",
      "alert": "OK",
      "vis_m": 9999,
      "fzfg": false,
      "metar_trigger": false,
      "taf_trigger": false,
      "metar": "METAR GCFV 020700Z 34007KT 9999 FEW018 18/14 Q1018",
      "taf": "TAF GCFV 020200Z 0203/0303 04010KT 9999 FEW020 TX22/0214Z TN16/0206Z"
    },
    {
      "icao": "GCLP",
      "alert": "OK",
      "vis_m": 9999,
      "fzfg": false,
      "metar_trigger": false,
      "taf_trigger": false,
      "metar": "METAR GCLP 020700Z 36010KT 9999 FEW016 19/15 Q1019 NOSIG",
      "taf": "TAF GCLP 020200Z 0203/0303 36010KT 9999 FEW025 TX23/0214Z TN16/0206Z"
    },
    {
      "icao": "GCTS",
      "alert": "OK",
      "vis_m": 9999,
      "fzfg": false,
      "metar_trigger": false,
      "taf_trigger": false,
      "metar": "METAR GCTS 020700Z 01006KT 350V060 9999 SCT028 17/12 Q1019 NOSIG",
      "taf": "TAF GCTS 020200Z 0203/0303 04006KT 9999 FEW030 TX24/0214Z TN15/0206Z"
    },
    {
      "icao": "GMAD",
      "alert": "OK",
      "vis_m": 8000,
      "fzfg": false,
      "metar_trigger": false,
      "taf_trigger": false,
      "metar": "METAR GMAD 020700Z 00000KT 8000 FEW016 15/13 Q1016 NOSIG",
      "taf": "TAF GMAD 020500Z 0206/0312 08006KT CAVOK"
    },
    {
      "icao": "GMMN",
      "alert": "OK",
      "vis_m": 9999,
      "fzfg": false,
      "metar_trigger": false,
      "taf_trigger": false,
      "metar": "METAR GMMN 020700Z 35004KT 320V030 9999 BKN017 16/13 Q1018 NOSIG",
      "taf": "TAF GMMN 020500Z 0206/0312 02006KT 9999 BKN012"
    },
    {
      "icao": "GMMX",
      "alert": "OK",
      "vis_m": 8000,
      "fzfg": false,
      "metar_trigger": false,
      "taf_trigger": false,
      "metar": "METAR GMMX 020700Z 26007KT 8000 NSC 14/12 Q1018 NOSIG",
      "taf": "TAF GMMX 020500Z 0206/0312 06006KT 8000 SCT026"
    },
    {
      "icao": "HEGN",
      "alert": "OK",
      "vis_m": 9999,
      "fzfg": false,
      "metar_trigger": false,
      "taf_trigger": false,
      "metar": "METAR HEGN 020700Z 05005KT CAVOK 28/10 Q1011 NOSIG",
      "taf": "TAF HEGN 020500Z 0206/0312 12015KT CAVOK"
    },
    {
      "icao": "HEMA",
      "alert": "OK",
      "vis_m": 9999,
      "fzfg": false,
      "metar_trigger": false,
      "taf_trigger": false,
      "metar": "METAR HEMA 020700Z 34006KT CAVOK 29/02 Q1011 NOSIG",
      "taf": "TAF HEMA 020500Z 0206/0312 13015KT CAVOK"
    },
    {
      "icao": "HESH",
      "alert": "OK",
      "vis_m": 9999,
      "fzfg": false,
      "metar_trigger": false,
      "taf_trigger": false,
      "metar": "METAR HESH 020700Z 36012KT CAVOK 27/13 Q1011 NOSIG",
      "taf": "TAF HESH 020500Z 0206/0312 16011KT CAVOK"
    },
    {
      "icao": "HESX",
      "alert": "OK",
      "vis_m": 9999,
      "fzfg": false,
      "metar_trigger": false,
      "taf_trigger": false,
      "metar": "METAR HESX 020700Z 13010KT CAVOK 25/06 Q1009 NOSIG",
      "taf": "TAF HESX 020500Z 0206/0312 02010KT CAVOK"
    },
    {
      "icao": "LATI",
      "alert": "OK",
      "vis_m": 9999,
      "fzfg": false,
      "metar_trigger": false,
      "taf_trigger": false,
      "metar": "METAR LATI 020720Z 33003KT 270V020 CAVOK 16/M01 Q1021 NOSIG",
      "taf": "TAF LATI 020500Z 0206/0306 VRB05KT CAVOK TX22/0212Z TN05/0304Z"
    },
    {
      "icao": "LBPD",
      "alert": "OK",
      "vis_m": 9999,
      "fzfg": false,
      "metar_trigger": false,
      "taf_trigger": false,
      "metar": "METAR LBPD 020700Z AUTO 31008KT 270V330 9999 BKN099/// 11/01 Q1023 NOSIG",
      "taf": "TAF LBPD 020500Z 0206/0306 30010KT 9999 BKN060"
    },
    {
      "icao": "LBSF",
      "alert": "OK",
      "vis_m": 9999,
      "fzfg": false,
      "metar_trigger": false,
      "taf_trigger": false,
      "metar": "METAR LBSF 020700Z VRB02KT 9999 FEW032 SCT052 06/00 Q1023 NOSIG",
      "taf": "TAF LBSF 020500Z 0206/0306 VRB03KT 9999 FEW030 BKN050"
    },
    {
      "icao": "LBWN",
      "alert": "OK",
      "vis_m": 9999,
      "fzfg": false,
      "metar_trigger": false,
      "taf_trigger": false,
      "metar": "METAR LBWN 020700Z 03010KT 350V080 CAVOK 13/M02 Q1022 NOSIG",
      "taf": "TAF LBWN 020500Z 0206/0306 33010KT 9999 SCT045"
    },
    {
      "icao": "LCLK",
      "alert": "OK",
      "vis_m": 9999,
      "fzfg": false,
      "metar_trigger": false,
      "taf_trigger": false,
      "metar": "METAR LCLK 020700Z 21015KT 9999 FEW018 SCT040 22/17 Q1011 NOSIG",
      "taf": "TAF LCLK 020530Z 0206/0306 15005KT 9999 FEW020"
    },
    {
      "icao": "LCPH",
      "alert": "OK",
      "vis_m": 9999,
      "fzfg": false,
      "metar_trigger": false,
      "taf_trigger": false,
      "metar": "METAR LCPH 020700Z 03004KT 010V080 9999 FEW020 20/13 Q1012 NOSIG",
      "taf": "TAF LCPH 020530Z 0206/0306 04005KT 9999 FEW020"
    },
    {
      "icao": "LEAL",
      "alert": "OK",
      "vis_m": 9999,
      "fzfg": false,
      "metar_trigger": false,
      "taf_trigger": false,
      "metar": "METAR LEAL 020700Z 08005KT 020V110 9999 SCT016 BKN047 20/16 Q1021 NOSIG",
      "taf": "TAF LEAL 020500Z 0206/0306 03006KT 9999 SCT025 SCT030 TX22/0213Z TN15/0206Z"
    },
    {
      "icao": "LEBB",
      "alert": "OK",
      "vis_m": 9999,
      "fzfg": false,
      "metar_trigger": false,
      "taf_trigger": false,
      "metar": "METAR LEBB 020700Z 12010KT 080V160 9999 FEW025 19/13 Q1016 NOSIG",
      "taf": "TAF LEBB 020500Z 0206/0306 14009KT 9999 FEW035 TX24/0213Z TN12/0306Z"
    },
    {
      "icao": "LEBL",
      "alert": "OK",
      "vis_m": 8000,
      "fzfg": false,
      "metar_trigger": false,
      "taf_trigger": false,
      "metar": "METAR LEBL 020700Z 06008KT 8000 FEW011 BKN050 18/16 Q1023 NOSIG",
      "taf": "TAF LEBL 020500Z 0206/0306 07008KT 9999 SCT020 TX21/0212Z TN17/0206Z"
    },
    {
      "icao": "LECH",
      "alert": "OK",
      "vis_m": 8000,
      "fzfg": false,
      "metar_trigger": false,
      "taf_trigger": false,
      "metar": "METAR LECH 020700Z AUTO 08003KT 8000 BKN010 OVC029 15/15 Q1022",
      "taf": "TAF LECH 020500Z 0206/0306 VRB04KT 9999 SCT015 BKN025 TX21/0212Z TN12/0206Z"
    },
    {
      "icao": "LEMD",
      "alert": "OK",
      "vis_m": 9000,
      "fzfg": false,
      "metar_trigger": false,
      "taf_trigger": false,
      "metar": "METAR LEMD 020700Z VRB02KT 9000 -SHRA FEW018 SCT025TCU BKN080 14/14 Q1019 RESHRA TEMPO SHRA",
      "taf": ""
    },
    {
      "icao": "LEMG",
      "alert": "OK",
      "vis_m": 8000,
      "fzfg": false,
      "metar_trigger": false,
      "taf_trigger": false,
      "metar": "METAR LEMG 020700Z 14008KT 110V170 8000 FEW015 BKN025 18/17 Q1019 NOSIG",
      "taf": "TAF LEMG 020500Z 0206/0306 14010KT 9999 SCT020 TX23/0214Z TN14/0206Z"
    },
    {
      "icao": "LEVC",
      "alert": "OK",
      "vis_m": 8000,
      "fzfg": false,
      "metar_trigger": false,
      "taf_trigger": false,
      "metar": "METAR LEVC 020700Z 05004KT 360V100 8000 SCT018 BKN025 OVC049 19/16 Q1021 NOSIG",
      "taf": "TAF LEVC 020500Z 0206/0306 02005KT 9999 SCT020 SCT030 TX22/0213Z TN16/0206Z"
    },
    {
      "icao": "LEXJ",
      "alert": "OK",
      "vis_m": 9000,
      "fzfg": false,
      "metar_trigger": false,
      "taf_trigger": false,
      "metar": "METAR LEXJ 020700Z 28006KT 240V310 9000 SCT012 BKN018 16/15 Q1016",
      "taf": "TAF LEXJ 020200Z 0203/0303 25007KT 9999 SCT010 BKN020 TX18/0213Z TN15/0206Z"
    },
    {
      "icao": "LEZG",
      "alert": "OK",
      "vis_m": 9999,
      "fzfg": false,
      "metar_trigger": false,
      "taf_trigger": false,
      "metar": "METAR LEZG 020700Z 12009KT 080V150 9999 OVC017 16/13 Q1021 NOSIG",
      "taf": "TAF LEZG 020500Z 0206/0306 12011KT 9999 SCT020 SCT040 TX21/0214Z TN14/0206Z"
    },
    {
      "icao": "LEZL",
      "alert": "OK",
      "vis_m": 9999,
      "fzfg": false,
      "metar_trigger": false,
      "taf_trigger": false,
      "metar": "METAR LEZL 020700Z 00000KT 9999 FEW040 17/14 Q1018 NOSIG",
      "taf": "TAF LEZL 020200Z 0203/0303 VRB03KT 9999 FEW025 TX28/0215Z TN13/0206Z"
    },
    {
      "icao": "LFBD",
      "alert": "OK",
      "vis_m": 9999,
      "fzfg": false,
      "metar_trigger": false,
      "taf_trigger": false,
      "metar": "METAR LFBD 020700Z AUTO 17006KT 150V210 9999 ///CB 15/11 Q1017 TEMPO 4000 -SHRA",
      "taf": ""
    },
    {
      "icao": "LFLL",
      "alert": "OK",
      "vis_m": 9999,
      "fzfg": false,
      "metar_trigger": false,
      "taf_trigger": false,
      "metar": "METAR LFLL 020700Z 15009KT CAVOK 17/07 Q1023 NOSIG",
      "taf": "TAF LFLL 020500Z 0206/0312 18010KT CAVOK"
    },
    {
      "icao": "LFLS",
      "alert": "OK",
      "vis_m": 9999,
      "fzfg": false,
      "metar_trigger": false,
      "taf_trigger": false,
      "metar": "METAR LFLS 020700Z AUTO 18005KT 150V220 CAVOK 15/08 Q1024 NOSIG",
      "taf": "TAF LFLS 020200Z 0203/0303 09007KT CAVOK"
    },
    {
      "icao": "LFMN",
      "alert": "OK",
      "vis_m": 9999,
      "fzfg": false,
      "metar_trigger": false,
      "taf_trigger": false,
      "metar": "METAR LFMN 020700Z 36005KT 320V030 CAVOK 18/08 Q1026 NOSIG",
      "taf": "TAF LFMN 020200Z 0203/0309 33006KT CAVOK"
    },
    {
      "icao": "LFOB",
      "alert": "OK",
      "vis_m": 300,
      "fzfg": false,
      "metar_trigger": false,
      "taf_trigger": false,
      "metar": "METAR LFOB 020700Z AUTO VRB03KT 0300 0250 R30/0375N R12/0550N FG VV/// 14/14 Q1019 TEMPO 0400 FG",
      "taf": "TAF LFOB 020500Z 0206/0306 VRB02KT 3000 BR BKN004"
    },
    {
      "icao": "LFPO",
      "alert": "OK",
      "vis_m": 9999,
      "fzfg": false,
      "metar_trigger": false,
      "taf_trigger": false,
      "metar": "METAR LFPO 020700Z VRB01KT CAVOK 16/14 Q1019 NOSIG",
      "taf": "TAF LFPO 020500Z 0206/0312 18005KT 9000 NSC"
    },
    {
      "icao": "LFSB",
      "alert": "OK",
      "vis_m": 9999,
      "fzfg": false,
      "metar_trigger": false,
      "taf_trigger": false,
      "metar": "METAR LFSB 020700Z AUTO 15007KT CAVOK 15/05 Q1023 NOSIG",
      "taf": "TAF LFSB 020500Z 0206/0306 17004KT CAVOK"
    },
    {
      "icao": "LGAV",
      "alert": "OK",
      "vis_m": 9999,
      "fzfg": false,
      "metar_trigger": false,
      "taf_trigger": false,
      "metar": "METAR LGAV 020650Z 04018KT 9999 SCT020 12/02 Q1018 NOSIG",
      "taf": "TAF LGAV 020500Z 0206/0306 01017KT 9999 SCT020 BKN060"
    },
    {
      "icao": "LGTS",
      "alert": "OK",
      "vis_m": 9999,
      "fzfg": false,
      "metar_trigger": false,
      "taf_trigger": false,
      "metar": "METAR LGTS 020650Z 30008KT 9999 FEW016 11/07 Q1023 NOSIG",
      "taf": "TAF LGTS 020500Z 0206/0306 VRB03KT 9999 BKN035"
    },
    {
      "icao": "LHBP",
      "alert": "OK",
      "vis_m": 9999,
      "fzfg": false,
      "metar_trigger": false,
      "taf_trigger": false,
      "metar": "METAR LHBP 020700Z 32006KT 300V360 CAVOK 16/02 Q1024 NOSIG",
      "taf": "TAF LHBP 020515Z 0206/0306 VRB03KT CAVOK"
    },
    {
      "icao": "LHDC",
      "alert": "OK",
      "vis_m": 9999,
      "fzfg": false,
      "metar_trigger": false,
      "taf_trigger": false,
      "metar": "METAR LHDC 020645Z AUTO 05006KT 010V100 CAVOK 15/03 Q1023 NOSIG",
      "taf": "TAF LHDC 020515Z 0206/0215 VRB03KT CAVOK"
    },
    {
      "icao": "LIBD",
      "alert": "OK",
      "vis_m": 9999,
      "fzfg": false,
      "metar_trigger": false,
      "taf_trigger": false,
      "metar": "METAR LIBD 020720Z 01009KT 320V040 CAVOK 18/04 Q1022",
      "taf": "TAF LIBD 020500Z 0206/0306 VRB05KT CAVOK"
    },
    {
      "icao": "LIBG",
      "alert": "OK",
      "vis_m": 9999,
      "fzfg": false,
      "metar_trigger": false,
      "taf_trigger": false,
      "metar": "METAR LIBG 020650Z 02017KT CAVOK 16/05 Q1021",
      "taf": "TAF LIBG 020632Z 0207/0215 03013KT CAVOK"
    },
    {
      "icao": "LIBP",
      "alert": "OK",
      "vis_m": 9999,
      "fzfg": false,
      "metar_trigger": false,
      "taf_trigger": false,
      "metar": "METAR LIBP 020720Z AUTO 19004KT 140V230 9999 NCD 17/07 Q1025",
      "taf": "TAF LIBP 020500Z 0206/0306 24007KT 9999 FEW050"
    },
    {
      "icao": "LIBR",
      "alert": "OK",
      "vis_m": 9999,
      "fzfg": false,
      "metar_trigger": false,
      "taf_trigger": false,
      "metar": "METAR LIBR 020720Z 03017KT 9999 FEW048 16/06 Q1021",
      "taf": "TAF LIBR 020500Z 0206/0306 06018KT CAVOK"
    },
    {
      "icao": "LICA",
      "alert": "OK",
      "vis_m": 9999,
      "fzfg": false,
      "metar_trigger": false,
      "taf_trigger": false,
      "metar": "METAR LICA 020720Z AUTO 27007KT 9999 FEW080/// 17/01 Q1020",
      "taf": "TAF LICA 020500Z 0206/0306 VRB05KT CAVOK"
    },
    {
      "icao": "LICC",
      "alert": "OK",
      "vis_m": 9999,
      "fzfg": false,
      "metar_trigger": false,
      "taf_trigger": false,
      "metar": "METAR LICC 020720Z 25008KT 220V290 CAVOK 16/12 Q1020",
      "taf": "TAF LICC 020500Z 0206/0306 24005KT CAVOK"
    },
    {
      "icao": "LICJ",
      "alert": "OK",
      "vis_m": 9999,
      "fzfg": false,
      "metar_trigger": false,
      "taf_trigger": false,
      "metar": "METAR LICJ 020720Z 05016KT CAVOK 18/06 Q1021",
      "taf": "TAF LICJ 020500Z 0206/0306 04016KT CAVOK"
    },
    {
      "icao": "LIMC",
      "alert": "OK",
      "vis_m": 9999,
      "fzfg": false,
      "metar_trigger": false,
      "taf_trigger": false,
      "metar": "METAR LIMC 020650Z 33003KT CAVOK 15/08 Q1027 NOSIG",
      "taf": "TAF LIMC 020500Z 0206/0312 VRB05KT CAVOK"
    },
    {
      "icao": "LIME",
      "alert": "OK",
      "vis_m": 9999,
      "fzfg": false,
      "metar_trigger": false,
      "taf_trigger": false,
      "metar": "METAR LIME 020650Z VRB02KT CAVOK 16/05 Q1027 NOSIG",
      "taf": "TAF LIME 020500Z 0206/0306 VRB05KT CAVOK"
    },
    {
      "icao": "LIMF",
      "alert": "OK",
      "vis_m": 9999,
      "fzfg": false,
      "metar_trigger": false,
      "taf_trigger": false,
      "metar": "METAR LIMF 020650Z VRB01KT CAVOK 14/08 Q1027",
      "taf": "TAF LIMF 020500Z 0206/0306 VRB05KT CAVOK"
    },
    {
      "icao": "LIMJ",
      "alert": "OK",
      "vis_m": 9999,
      "fzfg": false,
      "metar_trigger": false,
      "taf_trigger": false,
      "metar": "METAR LIMJ 020650Z VRB01KT CAVOK 19/06 Q1026",
      "taf": "TAF LIMJ 020500Z 0206/0306 VRB05KT CAVOK"
    },
    {
      "icao": "LIPE",
      "alert": "OK",
      "vis_m": 9999,
      "fzfg": false,
      "metar_trigger": false,
      "taf_trigger": false,
      "metar": "METAR LIPE 020650Z 21004KT 190V250 CAVOK 13/03 Q1026",
      "taf": "TAF LIPE 020500Z 0206/0306 VRB05KT CAVOK"
    },
    {
      "icao": "LIPH",
      "alert": "OK",
      "vis_m": 9999,
      "fzfg": false,
      "metar_trigger": false,
      "taf_trigger": false,
      "metar": "METAR LIPH 020720Z VRB01KT CAVOK 18/05 Q1026",
      "taf": "TAF LIPH 020500Z 0206/0306 VRB05KT CAVOK"
    },
    {
      "icao": "LIPQ",
      "alert": "OK",
      "vis_m": 9999,
      "fzfg": false,
      "metar_trigger": false,
      "taf_trigger": false,
      "metar": "METAR LIPQ 020720Z AUTO VRB01KT 9999 NCD 17/06 Q1025",
      "taf": "TAF LIPQ 020500Z 0206/0306 VRB05KT CAVOK"
    },
    {
      "icao": "LIPR",
      "alert": "OK",
      "vis_m": 9999,
      "fzfg": false,
      "metar_trigger": false,
      "taf_trigger": false,
      "metar": "METAR LIPR 020720Z 31007KT CAVOK 17/02 Q1026",
      "taf": "TAF LIPR 020500Z 0206/0306 VRB05KT CAVOK"
    },
    {
      "icao": "LIPX",
      "alert": "OK",
      "vis_m": 9999,
      "fzfg": false,
      "metar_trigger": false,
      "taf_trigger": false,
      "metar": "METAR LIPX 020720Z 29005KT 260V010 CAVOK 18/05 Q1026",
      "taf": "TAF LIPX 020500Z 0206/0306 VRB05KT 9999 FEW060"
    },
    {
      "icao": "LIPY",
      "alert": "OK",
      "vis_m": 9999,
      "fzfg": false,
      "metar_trigger": false,
      "taf_trigger": false,
      "metar": "METAR LIPY 020720Z AUTO 25003KT 200V310 9999 NCD 16/07 Q1026",
      "taf": "TAF LIPY 020500Z 0206/0306 VRB05KT CAVOK"
    },
    {
      "icao": "LIPZ",
      "alert": "OK",
      "vis_m": 9999,
      "fzfg": false,
      "metar_trigger": false,
      "taf_trigger": false,
      "metar": "METAR LIPZ 020650Z 06003KT 030V090 CAVOK 14/07 Q1026 NOSIG",
      "taf": "TAF LIPZ 020500Z 0206/0312 VRB05KT CAVOK"
    },
    {
      "icao": "LIRF",
      "alert": "OK",
      "vis_m": 9999,
      "fzfg": false,
      "metar_trigger": false,
      "taf_trigger": false,
      "metar": "METAR LIRF 020650Z 04007KT CAVOK 15/01 Q1024 NOSIG",
      "taf": "TAF LIRF 020500Z 0206/0312 02008KT CAVOK"
    },
    {
      "icao": "LIRN",
      "alert": "OK",
      "vis_m": 9999,
      "fzfg": false,
      "metar_trigger": false,
      "taf_trigger": false,
      "metar": "METAR LIRN 020650Z 03008KT CAVOK 16/04 Q1023 NOSIG",
      "taf": "TAF LIRN 020500Z 0206/0306 01005KT CAVOK"
    },
    {
      "icao": "LIRP",
      "alert": "OK",
      "vis_m": 9999,
      "fzfg": false,
      "metar_trigger": false,
      "taf_trigger": false,
      "metar": "METAR LIRP 020645Z 10003KT CAVOK 13/04 Q1026 NOSIG",
      "taf": "TAF LIRP 020500Z 0206/0306 10005KT CAVOK"
    },
    {
      "icao": "LIRZ",
      "alert": "OK",
      "vis_m": 9999,
      "fzfg": false,
      "metar_trigger": false,
      "taf_trigger": false,
      "metar": "METAR LIRZ 020720Z AUTO 33004KT 270V040 9999 NCD 15/03 Q1025",
      "taf": "TAF LIRZ 020500Z 0206/0306 VRB05KT CAVOK"
    },
    {
      "icao": "LJLJ",
      "alert": "OK",
      "vis_m": 9999,
      "fzfg": false,
      "metar_trigger": false,
      "taf_trigger": false,
      "metar": "METAR LJLJ 020700Z 34002KT CAVOK 11/06 Q1026 NOSIG",
      "taf": "TAF LJLJ 020500Z 0206/0306 VRB02KT CAVOK"
    },
    {
      "icao": "LKMT",
      "alert": "OK",
      "vis_m": 9999,
      "fzfg": false,
      "metar_trigger": false,
      "taf_trigger": false,
      "metar": "METAR LKMT 020700Z VRB01KT CAVOK 14/05 Q1025 NOSIG",
      "taf": "TAF LKMT 020500Z 0206/0306 03008KT CAVOK"
    },
    {
      "icao": "LKPR",
      "alert": "OK",
      "vis_m": 9999,
      "fzfg": false,
      "metar_trigger": false,
      "taf_trigger": false,
      "metar": "METAR LKPR 020700Z VRB02KT CAVOK 15/04 Q1025 NOSIG",
      "taf": "TAF LKPR 020500Z 0206/0312 VRB02KT CAVOK"
    },
    {
      "icao": "LLBG",
      "alert": "OK",
      "vis_m": 9999,
      "fzfg": false,
      "metar_trigger": false,
      "taf_trigger": false,
      "metar": "METAR LLBG 020720Z VRB03KT CAVOK 24/03 Q1011 NOSIG",
      "taf": "TAF LLBG 020505Z 0206/0306 VRB03KT CAVOK TX30/0212Z TN14/0304Z"
    },
    {
      "icao": "LMML",
      "alert": "OK",
      "vis_m": 9999,
      "fzfg": false,
      "metar_trigger": false,
      "taf_trigger": false,
      "metar": "METAR LMML 020715Z 02009KT 340V050 9999 FEW032 18/09 Q1020 NOSIG",
      "taf": "TAF LMML 020500Z 0206/0306 04010KT 9999 FEW030"
    },
    {
      "icao": "LOWW",
      "alert": "OK",
      "vis_m": 9999,
      "fzfg": false,
      "metar_trigger": false,
      "taf_trigger": false,
      "metar": "METAR LOWW 020650Z 36003KT 310V040 CAVOK 16/07 Q1025 NOSIG",
      "taf": "TAF LOWW 020515Z 0206/0312 01008KT CAVOK TX24/0214Z TN10/0302Z"
    },
    {
      "icao": "LPFR",
      "alert": "OK",
      "vis_m": 9999,
      "fzfg": false,
      "metar_trigger": false,
      "taf_trigger": false,
      "metar": "METAR LPFR 020700Z 04005KT 9999 FEW030 17/10 Q1017",
      "taf": "TAF LPFR 020500Z 0206/0306 VRB02KT CAVOK"
    },
    {
      "icao": "LPMA",
      "alert": "OK",
      "vis_m": 9999,
      "fzfg": false,
      "metar_trigger": false,
      "taf_trigger": false,
      "metar": "METAR LPMA 020700Z VRB01KT 9999 FEW015 16/10 Q1019",
      "taf": "TAF LPMA 020500Z 0206/0306 VRB05KT 9999 SCT015"
    },
    {
      "icao": "LPPR",
      "alert": "OK",
      "vis_m": 9999,
      "fzfg": false,
      "metar_trigger": false,
      "taf_trigger": false,
      "metar": "METAR LPPR 020700Z VRB01KT 9999 -RA FEW017 BKN040 14/11 Q1016",
      "taf": "TAF LPPR 020500Z 0206/0306 12005KT 9999 SCT035"
    },
    {
      "icao": "LPPS",
      "alert": "OK",
      "vis_m": 9999,
      "fzfg": false,
      "metar_trigger": false,
      "taf_trigger": false,
      "metar": "METAR LPPS 020700Z 29007KT 9999 SCT012 17/15 Q1019",
      "taf": "TAF LPPS 020500Z 0206/0312 28008KT 9999 SCT015"
    },
    {
      "icao": "LPPT",
      "alert": "OK",
      "vis_m": 9999,
      "fzfg": false,
      "metar_trigger": false,
      "taf_trigger": false,
      "metar": "METAR LPPT 020700Z 16006KT 130V210 9999 FEW010 16/14 Q1017",
      "taf": "TAF LPPT 020500Z 0206/0312 VRB02KT 9999 SCT035"
    },
    {
      "icao": "LQBK",
      "alert": "OK",
      "vis_m": 9999,
      "fzfg": false,
      "metar_trigger": false,
      "taf_trigger": false,
      "metar": "METAR LQBK 020700Z VRB02KT CAVOK 15/03 Q1025 NOSIG",
      "taf": "TAF LQBK 020500Z 0206/0306 VRB02KT CAVOK TX19/0213Z TN09/0304Z"
    },
    {
      "icao": "LQSA",
      "alert": "OK",
      "vis_m": 9999,
      "fzfg": false,
      "metar_trigger": false,
      "taf_trigger": false,
      "metar": "METAR LQSA 020700Z VRB02KT CAVOK 08/02 Q1025 NOSIG",
      "taf": "TAF LQSA 020500Z 0206/0306 31005KT CAVOK TX18/0214Z TN04/0304Z"
    },
    {
      "icao": "LQTZ",
      "alert": "OK",
      "vis_m": 9999,
      "fzfg": false,
      "metar_trigger": false,
      "taf_trigger": false,
      "metar": "METAR LQTZ 020700Z VRB01KT CAVOK 11/04 Q1025",
      "taf": "TAF LQTZ 020500Z 0206/0306 VRB02KT 9999 SCT050 TX17/0213Z TN06/0304Z"
    },
    {
      "icao": "LRBC",
      "alert": "OK",
      "vis_m": 9999,
      "fzfg": false,
      "metar_trigger": false,
      "taf_trigger": false,
      "metar": "METAR LRBC 020700Z 34008KT 9999 FEW019 SCT051 10/05 Q1024",
      "taf": "TAF LRBC 020500Z 0206/0215 01008KT 9999 BKN060"
    },
    {
      "icao": "LRBS",
      "alert": "OK",
      "vis_m": 9999,
      "fzfg": false,
      "metar_trigger": false,
      "taf_trigger": false,
      "metar": "METAR LRBS 020700Z 07008KT 010V100 9999 FEW028 12/06 Q1023 NOSIG",
      "taf": "TAF LRBS 020500Z 0206/0306 VRB04KT 9999 SCT035"
    },
    {
      "icao": "LRBV",
      "alert": "OK",
      "vis_m": 9999,
      "fzfg": false,
      "metar_trigger": false,
      "taf_trigger": false,
      "metar": "METAR LRBV 020700Z 11008KT 080V140 9999 FEW050 BKN087 08/00 Q1023",
      "taf": "TAF LRBV 020500Z 0206/0215 VRB03KT 9999 SCT060"
    },
    {
      "icao": "LRCL",
      "alert": "OK",
      "vis_m": 9999,
      "fzfg": false,
      "metar_trigger": false,
      "taf_trigger": false,
      "metar": "METAR LRCL 020700Z 09003KT 050V120 CAVOK 10/01 Q1024",
      "taf": "TAF LRCL 020500Z 0206/0215 VRB04KT CAVOK"
    },
    {
      "icao": "LRCV",
      "alert": "OK",
      "vis_m": 9999,
      "fzfg": false,
      "metar_trigger": false,
      "taf_trigger": false,
      "metar": "METAR LRCV 020700Z VRB01KT CAVOK 11/05 Q1023",
      "taf": "TAF LRCV 020500Z 0206/0215 VRB03KT CAVOK"
    },
    {
      "icao": "LRIA",
      "alert": "OK",
      "vis_m": 9999,
      "fzfg": false,
      "metar_trigger": false,
      "taf_trigger": false,
      "metar": "METAR LRIA 020700Z 07003KT 010V120 CAVOK 09/02 Q1024",
      "taf": "TAF LRIA 020500Z 0206/0215 VRB04KT CAVOK"
    },
    {
      "icao": "LROP",
      "alert": "OK",
      "vis_m": 9999,
      "fzfg": false,
      "metar_trigger": false,
      "taf_trigger": false,
      "metar": "METAR LROP 020700Z 06007KT CAVOK 13/04 Q1023 NOSIG",
      "taf": "TAF LROP 020500Z 0206/0306 VRB04KT 9999 SCT035"
    },
    {
      "icao": "LRSB",
      "alert": "OK",
      "vis_m": 9999,
      "fzfg": false,
      "metar_trigger": false,
      "taf_trigger": false,
      "metar": "METAR LRSB 020700Z 36003KT 310V030 9999 FEW070 SCT085 09/M01 Q1023",
      "taf": "TAF LRSB 020500Z 0206/0306 VRB04KT 9999 SCT065"
    },
    {
      "icao": "LRSM",
      "alert": "OK",
      "vis_m": 9999,
      "fzfg": false,
      "metar_trigger": false,
      "taf_trigger": false,
      "metar": "METAR LRSM 020700Z 08006KT 050V110 CAVOK 13/02 Q1024",
      "taf": "TAF LRSM 020500Z 0206/0215 VRB04KT CAVOK"
    },
    {
      "icao": "LRSV",
      "alert": "OK",
      "vis_m": 9999,
      "fzfg": false,
      "metar_trigger": false,
      "taf_trigger": false,
      "metar": "METAR LRSV 020700Z 01006KT 350V060 9999 SCT045 09/05 Q1024",
      "taf": "TAF LRSV 020500Z 0206/0215 34008KT 9999 BKN040"
    },
    {
      "icao": "LRTM",
      "alert": "OK",
      "vis_m": 9999,
      "fzfg": false,
      "metar_trigger": false,
      "taf_trigger": false,
      "metar": "METAR LRTM 020700Z VRB01KT CAVOK 09/02 Q1024",
      "taf": "TAF LRTM 020500Z 0206/0215 VRB03KT CAVOK"
    },
    {
      "icao": "LRTR",
      "alert": "OK",
      "vis_m": 9999,
      "fzfg": false,
      "metar_trigger": false,
      "taf_trigger": false,
      "metar": "METAR LRTR 020700Z VRB02KT 9999 FEW035 12/02 Q1024 NOSIG",
      "taf": "TAF LRTR 020500Z 0206/0306 09006KT CAVOK"
    },
    {
      "icao": "LTAC",
      "alert": "OK",
      "vis_m": 9999,
      "fzfg": false,
      "metar_trigger": false,
      "taf_trigger": false,
      "metar": "METAR LTAC 020650Z 10014KT 9999 FEW016 BKN021 BKN080 06/01 Q1014 NOSIG RMK RWY21C 07013KT RWY03L 08013KT RWY21R 05015KT RWY03R 06013KT RWY21L 08013KT",
      "taf": "TAF LTAC 020440Z 0206/0306 04012KT 9999 SCT035 BKN090"
    },
    {
      "icao": "LTFM",
      "alert": "OK",
      "vis_m": 9999,
      "fzfg": false,
      "metar_trigger": false,
      "taf_trigger": false,
      "metar": "METAR LTFM 020650Z 04019KT 9999 SCT029 SCT090 10/04 Q1020 NOSIG RMK RWY17L 04017KT RWY34L 02017KT RWY16R 04018KT RWY36 04018KT RWY18 05016KT",
      "taf": "TAF LTFM 020440Z 0206/0312 04017KT 9999 SCT032 BKN090"
    },
    {
      "icao": "LUKK",
      "alert": "OK",
      "vis_m": 9999,
      "fzfg": false,
      "metar_trigger": false,
      "taf_trigger": false,
      "metar": "METAR LUKK 020700Z 07008KT 020V120 CAVOK 11/M03 Q1024 NOSIG",
      "taf": "TAF LUKK 020507Z 0206/0306 VRB05KT 9999 SCT040"
    },
    {
      "icao": "LWOH",
      "alert": "OK",
      "vis_m": 9999,
      "fzfg": false,
      "metar_trigger": false,
      "taf_trigger": false,
      "metar": "METAR LWOH 020720Z 36009KT 270V080 9999 FEW050 10/M05 Q1021",
      "taf": "TAF LWOH 020530Z 0206/0306 01010KT CAVOK"
    },
    {
      "icao": "LWSK",
      "alert": "OK",
      "vis_m": 9999,
      "fzfg": false,
      "metar_trigger": false,
      "taf_trigger": false,
      "metar": "METAR LWSK 020650Z COR VRB02KT CAVOK 09/01 Q1024 NOSIG",
      "taf": "TAF LWSK 020530Z 0206/0306 VRB02KT CAVOK"
    },
    {
      "icao": "LYBE",
      "alert": "OK",
      "vis_m": 9999,
      "fzfg": false,
      "metar_trigger": false,
      "taf_trigger": false,
      "metar": "METAR LYBE 020700Z 30003KT 220V030 CAVOK 11/03 Q1024 NOSIG",
      "taf": "TAF LYBE 020500Z 0206/0306 22004KT CAVOK TX20/0213Z TN06/0206Z"
    },
    {
      "icao": "LYNI",
      "alert": "OK",
      "vis_m": 9999,
      "fzfg": false,
      "metar_trigger": false,
      "taf_trigger": false,
      "metar": "METAR LYNI 020700Z VRB02KT CAVOK 11/04 Q1024 NOSIG",
      "taf": "TAF LYNI 020500Z 0206/0306 09004KT 9999 SCT080 TX17/0213Z TN05/0304Z"
    },
    {
      "icao": "LYPG",
      "alert": "OK",
      "vis_m": 9999,
      "fzfg": false,
      "metar_trigger": false,
      "taf_trigger": false,
      "metar": "METAR LYPG 020700Z 09003KT 070V150 9999 FEW050 16/M01 Q1022 NOSIG",
      "taf": "TAF LYPG 020500Z 0206/0306 36008KT 9999 FEW050 TX21/0214Z TN10/0304Z"
    },
    {
      "icao": "LZIB",
      "alert": "OK",
      "vis_m": 9999,
      "fzfg": false,
      "metar_trigger": false,
      "taf_trigger": false,
      "metar": "METAR LZIB 020700Z VRB03KT CAVOK 16/05 Q1025 NOSIG",
      "taf": "TAF LZIB 020515Z 0206/0306 VRB02KT CAVOK"
    },
    {
      "icao": "LZKZ",
      "alert": "OK",
      "vis_m": 9999,
      "fzfg": false,
      "metar_trigger": false,
      "taf_trigger": false,
      "metar": "METAR LZKZ 020700Z 03008KT 360V060 CAVOK 15/03 Q1024 NOSIG",
      "taf": "TAF LZKZ 020515Z 0206/0306 36006KT CAVOK"
    },
    {
      "icao": "LZTT",
      "alert": "OK",
      "vis_m": 9999,
      "fzfg": false,
      "metar_trigger": false,
      "taf_trigger": false,
      "metar": "METAR LZTT 020700Z 12004KT 060V200 9999 FEW053 13/03 Q1025 BECMG 08010KT",
      "taf": "TAF LZTT 020515Z 0206/0306 31005KT 9999 FEW050"
    },
    {
      "icao": "OEJN",
      "alert": "OK",
      "vis_m": 9999,
      "fzfg": false,
      "metar_trigger": false,
      "taf_trigger": false,
      "metar": "METAR OEJN 020700Z 35010KT CAVOK 33/07 Q1010 NOSIG",
      "taf": "TAF OEJN 020500Z 0206/0312 32015KT CAVOK"
    },
    {
      "icao": "OEMA",
      "alert": "OK",
      "vis_m": 9999,
      "fzfg": false,
      "metar_trigger": false,
      "taf_trigger": false,
      "metar": "METAR OEMA 020700Z VRB02KT CAVOK 30/M03 Q1015 NOSIG",
      "taf": "TAF OEMA 020500Z 0206/0312 30012KT CAVOK"
    },
    {
      "icao": "OJAI",
      "alert": "OK",
      "vis_m": 5000,
      "fzfg": false,
      "metar_trigger": false,
      "taf_trigger": false,
      "metar": "METAR OJAI 020700Z 24003KT 5000 HZ NSC 20/02 Q1014 NOSIG",
      "taf": "TAF OJAI 020447Z 0206/0312 30012KT 5000 HZ NSC"
    },
    {
      "icao": "OMAA",
      "alert": "OK",
      "vis_m": 9999,
      "fzfg": false,
      "metar_trigger": false,
      "taf_trigger": false,
      "metar": "METAR OMAA 020700Z 35010KT CAVOK 35/10 Q1009 NOSIG",
      "taf": "TAF OMAA 020500Z 0206/0312 33011KT CAVOK"
    },
    {
      "icao": "OMDB",
      "alert": "OK",
      "vis_m": 9999,
      "fzfg": false,
      "metar_trigger": false,
      "taf_trigger": false,
      "metar": "METAR OMDB 020700Z 31008KT 280V350 CAVOK 36/13 Q1008 NOSIG",
      "taf": "TAF OMDB 020500Z 0206/0312 22005KT CAVOK"
    },
    {
      "icao": "UAAA",
      "alert": "OK",
      "vis_m": 9999,
      "fzfg": false,
      "metar_trigger": false,
      "taf_trigger": false,
      "metar": "METAR UAAA 020700Z 04004MPS 020V080 9999 SCT100 BKN200 25/12 Q1012 NOSIG",
      "taf": "TAF UAAA 020505Z 0206/0306 04004G09MPS 9999 SCT050CB BKN100 TX28/0209Z TN15/0301Z"
    },
    {
      "icao": "UBBB",
      "alert": "OK",
      "vis_m": 9999,
      "fzfg": false,
      "metar_trigger": false,
      "taf_trigger": false,
      "metar": "METAR UBBB 020700Z 18014KT 9999 FEW030 17/11 Q1013 NOSIG",
      "taf": "TAF UBBB 020501Z 0206/0306 19014KT 9999 SCT020 TX19/0209Z TN11/0301Z"
    },
    {
      "icao": "UDSG",
      "alert": "OK",
      "vis_m": 9999,
      "fzfg": false,
      "metar_trigger": false,
      "taf_trigger": false,
      "metar": "METAR UDSG 020700Z 23005KT 9999 -SHRA SCT020CB OVC036 11/07 Q1016 NOSIG",
      "taf": "TAF UDSG 020458Z 0206/0306 06006KT 9999 BKN040"
    },
    {
      "icao": "UDYZ",
      "alert": "OK",
      "vis_m": 9999,
      "fzfg": false,
      "metar_trigger": false,
      "taf_trigger": false,
      "metar": "METAR UDYZ 020700Z 30005KT 9999 FEW043CB 19/06 Q1013 NOSIG",
      "taf": "TAF UDYZ 020500Z 0206/0306 22006KT 9999 FEW040"
    },
    {
      "icao": "UGKO",
      "alert": "OK",
      "vis_m": 9999,
      "fzfg": false,
      "metar_trigger": false,
      "taf_trigger": false,
      "metar": "METAR UGKO 020700Z VRB02KT 9999 BKN009 OVC017 12/10 Q1016 NOSIG",
      "taf": "TAF UGKO 020500Z 0206/0306 26007KT 9999 SCT020 BKN050 TX14/0211Z TN08/0302Z"
    }
  ]
}