{
  "ts_utc": "2026-06-11T01:37:47Z",
  "threshold_m": 150,
  "source": "stations_override.txt (ICAO list) + aviationweather.gov (METAR/TAF raw)",
  "station_count": 159,
  "stations": [
    {
      "icao": "BIKF",
      "alert": "OK",
      "vis_m": 9999,
      "fzfg": false,
      "metar_trigger": false,
      "taf_trigger": false,
      "metar": "METAR BIKF 110130Z 04005KT CAVOK 09/08 Q1002",
      "taf": "TAF BIKF 110108Z 1103/1203 12005KT 9999 FEW020 BKN035 TX14/1115Z TN07/1106Z"
    },
    {
      "icao": "BKPR",
      "alert": "OK",
      "vis_m": 9999,
      "fzfg": false,
      "metar_trigger": false,
      "taf_trigger": false,
      "metar": "METAR BKPR 110130Z 08002KT CAVOK 15/13 Q1015 NOSIG",
      "taf": "TAF BKPR 102330Z 1100/1124 VRB05KT CAVOK"
    },
    {
      "icao": "EBCI",
      "alert": "OK",
      "vis_m": 9999,
      "fzfg": false,
      "metar_trigger": false,
      "taf_trigger": false,
      "metar": "METAR EBCI 110120Z 21007KT 9999 FEW015 09/07 Q1020 NOSIG",
      "taf": "TAF EBCI 102310Z 1100/1206 24008KT 9999 FEW020 SCT040"
    },
    {
      "icao": "EDDB",
      "alert": "OK",
      "vis_m": 9999,
      "fzfg": false,
      "metar_trigger": false,
      "taf_trigger": false,
      "metar": "METAR EDDB 110120Z AUTO 21004KT 170V280 CAVOK 12/11 Q1015 NOSIG",
      "taf": "TAF EDDB 102300Z 1100/1124 25005KT CAVOK"
    },
    {
      "icao": "EDDH",
      "alert": "OK",
      "vis_m": 9999,
      "fzfg": false,
      "metar_trigger": false,
      "taf_trigger": false,
      "metar": "METAR EDDH 110120Z AUTO VRB01KT CAVOK 08/08 Q1017 NOSIG",
      "taf": "TAF EDDH 102300Z 1100/1206 VRB02KT 9999 FEW035"
    },
    {
      "icao": "EDDK",
      "alert": "OK",
      "vis_m": 9999,
      "fzfg": false,
      "metar_trigger": false,
      "taf_trigger": false,
      "metar": "METAR EDDK 110120Z AUTO VRB01KT 9999 FEW038 SCT049 09/09 Q1019 TEMPO SHRA SCT030CB",
      "taf": "TAF EDDK 102300Z 1100/1206 VRB03KT 9999 SCT040"
    },
    {
      "icao": "EDDN",
      "alert": "OK",
      "vis_m": 9999,
      "fzfg": false,
      "metar_trigger": false,
      "taf_trigger": false,
      "metar": "METAR EDDN 110120Z AUTO 18004KT 160V220 9999 SCT030 09/08 Q1019",
      "taf": "TAF EDDN 102300Z 1100/1124 22004KT 9999 BKN040"
    },
    {
      "icao": "EDDS",
      "alert": "OK",
      "vis_m": 9999,
      "fzfg": false,
      "metar_trigger": false,
      "taf_trigger": false,
      "metar": "METAR EDDS 110120Z AUTO VRB02KT 9999 BKN048 11/08 Q1019",
      "taf": "TAF EDDS 102300Z 1100/1124 23005KT 9999 FEW045"
    },
    {
      "icao": "EDFH",
      "alert": "OK",
      "vis_m": 9999,
      "fzfg": false,
      "metar_trigger": false,
      "taf_trigger": false,
      "metar": "METAR EDFH 110120Z 24006KT CAVOK 07/06 Q1019",
      "taf": "TAF EDFH 102300Z 1100/1124 26005KT 9999 FEW035"
    },
    {
      "icao": "EDJA",
      "alert": "OK",
      "vis_m": 9999,
      "fzfg": false,
      "metar_trigger": false,
      "taf_trigger": false,
      "metar": "METAR EDJA 110120Z AUTO 22005KT 9999 // SCT055/// BKN066/// OVC095/// 08/07 Q1021",
      "taf": "TAF EDJA 101700Z 1018/1103 22008KT 9999 SCT020 BKN040"
    },
    {
      "icao": "EDLW",
      "alert": "OK",
      "vis_m": 9999,
      "fzfg": false,
      "metar_trigger": false,
      "taf_trigger": false,
      "metar": "METAR EDLW 110120Z AUTO 21006KT 9999 // FEW063/// BKN086/// 10/08 Q1018",
      "taf": "TAF EDLW 101700Z 1018/1118 20004KT 9999 SCT030"
    },
    {
      "icao": "EDNY",
      "alert": "OK",
      "vis_m": 9999,
      "fzfg": false,
      "metar_trigger": false,
      "taf_trigger": false,
      "metar": "METAR EDNY 110120Z AUTO VRB02KT 9999 // FEW038/// BKN092/// 09/08 Q1021",
      "taf": "TAF EDNY 101700Z 1018/1103 VRB03KT 9999 SCT020 BKN045"
    },
    {
      "icao": "EDSB",
      "alert": "OK",
      "vis_m": 9999,
      "fzfg": false,
      "metar_trigger": false,
      "taf_trigger": false,
      "metar": "METAR EDSB 110120Z AUTO 20006KT 9999 // SCT063/// BKN095/// BKN110/// 11/10 Q1021",
      "taf": "TAF EDSB 102300Z 1100/1124 23007KT 9999 FEW045"
    },
    {
      "icao": "EETN",
      "alert": "OK",
      "vis_m": 9999,
      "fzfg": false,
      "metar_trigger": false,
      "taf_trigger": false,
      "metar": "METAR EETN 110120Z 21005KT CAVOK 11/08 Q1018",
      "taf": ""
    },
    {
      "icao": "EFTU",
      "alert": "OK",
      "vis_m": 9999,
      "fzfg": false,
      "metar_trigger": false,
      "taf_trigger": false,
      "metar": "METAR EFTU 110120Z AUTO 18005KT CAVOK 12/11 Q1016",
      "taf": "TAF EFTU 102329Z 1100/1124 18005KT 9999 FEW010"
    },
    {
      "icao": "EGBB",
      "alert": "OK",
      "vis_m": 9999,
      "fzfg": false,
      "metar_trigger": false,
      "taf_trigger": false,
      "metar": "METAR EGBB 110120Z 17003KT 150V210 CAVOK 08/07 Q1019",
      "taf": "TAF EGBB 102300Z 1100/1124 20005KT 9999 SCT045"
    },
    {
      "icao": "EGGP",
      "alert": "OK",
      "vis_m": 9999,
      "fzfg": false,
      "metar_trigger": false,
      "taf_trigger": false,
      "metar": "METAR EGGP 110120Z VRB02KT CAVOK 10/08 Q1017",
      "taf": "TAF EGGP 102302Z 1100/1124 19006KT 9999 FEW040"
    },
    {
      "icao": "EGGW",
      "alert": "OK",
      "vis_m": 9999,
      "fzfg": false,
      "metar_trigger": false,
      "taf_trigger": false,
      "metar": "METAR EGGW 110120Z AUTO 24005KT 9999 NCD 09/07 Q1019",
      "taf": "TAF EGGW 102255Z 1100/1124 22005KT CAVOK"
    },
    {
      "icao": "EGKK",
      "alert": "OK",
      "vis_m": 9999,
      "fzfg": false,
      "metar_trigger": false,
      "taf_trigger": false,
      "metar": "METAR EGKK 110120Z 20004KT CAVOK 09/08 Q1020",
      "taf": "TAF EGKK 102259Z 1100/1206 26005KT 9999 FEW040"
    },
    {
      "icao": "EGNM",
      "alert": "OK",
      "vis_m": 9999,
      "fzfg": false,
      "metar_trigger": false,
      "taf_trigger": false,
      "metar": "METAR EGNM 110120Z 24005KT CAVOK 08/06 Q1017",
      "taf": "TAF EGNM 102301Z 1100/1124 24005KT 9999 FEW040"
    },
    {
      "icao": "EGPD",
      "alert": "OK",
      "vis_m": 9999,
      "fzfg": false,
      "metar_trigger": false,
      "taf_trigger": false,
      "metar": "METAR EGPD 110120Z COR AUTO 08002KT 9999 NCD 07/06 Q1012 NOSIG",
      "taf": "TAF EGPD 102254Z 1100/1124 23005KT 9999 FEW045"
    },
    {
      "icao": "EGPF",
      "alert": "OK",
      "vis_m": 9999,
      "fzfg": false,
      "metar_trigger": false,
      "taf_trigger": false,
      "metar": "METAR EGPF 110120Z AUTO 22008KT 9999 NCD 10/08 Q1014",
      "taf": "TAF EGPF 102258Z 1100/1124 20006KT 9999 SCT030"
    },
    {
      "icao": "EHBK",
      "alert": "OK",
      "vis_m": 9999,
      "fzfg": false,
      "metar_trigger": false,
      "taf_trigger": false,
      "metar": "METAR EHBK 110125Z AUTO 19007KT 9999 BKN026/// 09/08 Q1019",
      "taf": "TAF EHBK 102310Z 1100/1206 21005KT 9999 BKN035"
    },
    {
      "icao": "EHEH",
      "alert": "OK",
      "vis_m": 9999,
      "fzfg": false,
      "metar_trigger": false,
      "taf_trigger": false,
      "metar": "METAR EHEH 110125Z AUTO 21004KT 9999 FEW140 09/08 Q1018 BLU",
      "taf": "TAF EHEH 102335Z 1100/1206 21005KT CAVOK"
    },
    {
      "icao": "EKBI",
      "alert": "OK",
      "vis_m": 8000,
      "fzfg": false,
      "metar_trigger": false,
      "taf_trigger": false,
      "metar": "METAR EKBI 110120Z AUTO 12002KT 8000 BCFG FEW003/// 05/05 Q1016",
      "taf": "TAF EKBI 102327Z 1100/1124 VRB03KT 9999 SCT030"
    },
    {
      "icao": "EKCH",
      "alert": "OK",
      "vis_m": 9999,
      "fzfg": false,
      "metar_trigger": false,
      "taf_trigger": false,
      "metar": "METAR EKCH 110120Z AUTO 25004KT 9999 NCD 10/07 Q1016 TEMPO SHRA FEW020CB",
      "taf": "TAF EKCH 102327Z 1100/1124 27006KT 9999 SCT030"
    },
    {
      "icao": "ENAL",
      "alert": "OK",
      "vis_m": 9999,
      "fzfg": false,
      "metar_trigger": false,
      "taf_trigger": false,
      "metar": "METAR ENAL 110120Z AUTO 19009KT 9999 BKN038/// 11/05 Q1008",
      "taf": "TAF ENAL 102300Z 1100/1109 20009KT 9999 FEW030"
    },
    {
      "icao": "ENBR",
      "alert": "OK",
      "vis_m": 9999,
      "fzfg": false,
      "metar_trigger": false,
      "taf_trigger": false,
      "metar": "METAR ENBR 110120Z 13004KT 9999 FEW009 BKN016 09/08 Q1011 RMK WIND 1200FT 22009KT",
      "taf": "TAF ENBR 102300Z 1100/1124 24007KT 9999 -SHRA FEW015TCU BKN030"
    },
    {
      "icao": "ENGM",
      "alert": "OK",
      "vis_m": 9999,
      "fzfg": false,
      "metar_trigger": false,
      "taf_trigger": false,
      "metar": "METAR ENGM 110120Z 20004KT CAVOK 08/07 Q1010",
      "taf": "TAF ENGM 102300Z 1100/1124 18007KT 9999 FEW020 SCT040"
    },
    {
      "icao": "ENHD",
      "alert": "OK",
      "vis_m": 9999,
      "fzfg": false,
      "metar_trigger": false,
      "taf_trigger": false,
      "metar": "METAR ENHD 110120Z AUTO 22008KT 9999 SCT045/// 11/07 Q1012",
      "taf": "TAF ENHD 101400Z 1015/1022 27012KT 9999 -SHRA FEW015TCU SCT025"
    },
    {
      "icao": "ENTC",
      "alert": "OK",
      "vis_m": 9999,
      "fzfg": false,
      "metar_trigger": false,
      "taf_trigger": false,
      "metar": "METAR ENTC 110120Z AUTO 22009KT 160V240 9999 -RA SCT061/// 15/11 Q1001 RMK WIND 2600FT 18019KT",
      "taf": ""
    },
    {
      "icao": "ENTO",
      "alert": "OK",
      "vis_m": 9999,
      "fzfg": false,
      "metar_trigger": false,
      "taf_trigger": false,
      "metar": "METAR ENTO 110120Z AUTO 26005KT 9999 NCD 08/06 Q1011",
      "taf": "TAF ENTO 102300Z 1100/1124 25007KT 9999 FEW030"
    },
    {
      "icao": "ENVA",
      "alert": "OK",
      "vis_m": 9999,
      "fzfg": false,
      "metar_trigger": false,
      "taf_trigger": false,
      "metar": "METAR ENVA 110120Z AUTO 14004KT 090V170 9999 FEW026/// OVC045/// 09/09 Q1009 RMK WIND 670FT 13003KT",
      "taf": "TAF ENVA 102300Z 1100/1124 VRB05KT 9999 BKN045"
    },
    {
      "icao": "ENZV",
      "alert": "OK",
      "vis_m": 9999,
      "fzfg": false,
      "metar_trigger": false,
      "taf_trigger": false,
      "metar": "METAR ENZV 110120Z 14006KT 9999 FEW023TCU 08/06 Q1013",
      "taf": "TAF ENZV 102300Z 1100/1124 26008KT 9999 -SHRA FEW020TCU SCT030"
    },
    {
      "icao": "EPGD",
      "alert": "OK",
      "vis_m": 9999,
      "fzfg": false,
      "metar_trigger": false,
      "taf_trigger": false,
      "metar": "METAR EPGD 110130Z 29007KT 9999 -RA FEW047 12/11 Q1015",
      "taf": ""
    },
    {
      "icao": "EPKK",
      "alert": "OK",
      "vis_m": 2400,
      "fzfg": false,
      "metar_trigger": false,
      "taf_trigger": false,
      "metar": "METAR EPKK 110130Z 26009KT 2400 RA BR SCT003 BKN006 OVC012 12/12 Q1012",
      "taf": ""
    },
    {
      "icao": "EPKT",
      "alert": "OK",
      "vis_m": 3100,
      "fzfg": false,
      "metar_trigger": false,
      "taf_trigger": false,
      "metar": "METAR EPKT 110130Z 29004KT 3100 RA BR SCT001 OVC004 11/10 Q1012",
      "taf": "TAF EPKT 102330Z 1100/1124 02005KT 9999 OVC005"
    },
    {
      "icao": "EPLB",
      "alert": "OK",
      "vis_m": 6000,
      "fzfg": false,
      "metar_trigger": false,
      "taf_trigger": false,
      "metar": "METAR EPLB 110130Z 12003KT 6000 BKN004 15/15 Q1011",
      "taf": "TAF EPLB 102330Z 1100/1124 04008KT 9999 BKN030"
    },
    {
      "icao": "EPMO",
      "alert": "OK",
      "vis_m": 9999,
      "fzfg": false,
      "metar_trigger": false,
      "taf_trigger": false,
      "metar": "METAR EPMO 110130Z 02011KT 9999 SCT007 BKN028 12/12 Q1012",
      "taf": "TAF EPMO 102330Z 1100/1124 02010KT 9999 -RA BKN030"
    },
    {
      "icao": "EPPO",
      "alert": "OK",
      "vis_m": 9999,
      "fzfg": false,
      "metar_trigger": false,
      "taf_trigger": false,
      "metar": "METAR EPPO 110130Z 29003KT 9999 -RA NSC 12/11 Q1015",
      "taf": "TAF EPPO 102330Z 1100/1124 30006KT CAVOK"
    },
    {
      "icao": "EPRA",
      "alert": "OK",
      "vis_m": 9999,
      "fzfg": false,
      "metar_trigger": false,
      "taf_trigger": false,
      "metar": "METAR EPRA 110130Z 01006KT 320V040 9999 BKN003 12/12 Q1010",
      "taf": ""
    },
    {
      "icao": "EPRZ",
      "alert": "OK",
      "vis_m": 9999,
      "fzfg": false,
      "metar_trigger": false,
      "taf_trigger": false,
      "metar": "METAR EPRZ 110130Z 08004KT CAVOK 16/16 Q1009",
      "taf": "TAF EPRZ 102330Z 1100/1124 12007KT 9999 BKN030"
    },
    {
      "icao": "EPSC",
      "alert": "OK",
      "vis_m": 6000,
      "fzfg": false,
      "metar_trigger": false,
      "taf_trigger": false,
      "metar": "METAR EPSC 110130Z 12001KT 6000 NSC 09/09 Q1015",
      "taf": "TAF EPSC 102330Z 1100/1124 VRB03KT CAVOK"
    },
    {
      "icao": "EPSY",
      "alert": "OK",
      "vis_m": 5000,
      "fzfg": false,
      "metar_trigger": false,
      "taf_trigger": false,
      "metar": "METAR EPSY 110130Z 03004KT 5000 RA BR BKN034 12/11 Q1014",
      "taf": "TAF EPSY 102330Z 1100/1109 VRB02KT 9999 -RA BKN040"
    },
    {
      "icao": "EPWA",
      "alert": "OK",
      "vis_m": 9999,
      "fzfg": false,
      "metar_trigger": false,
      "taf_trigger": false,
      "metar": "METAR EPWA 110130Z 02012KT 360V060 9999 -RA FEW009 BKN021 13/12 Q1011 BECMG BKN007",
      "taf": "TAF EPWA 102330Z 1100/1124 36010KT 9999 -RA BKN025"
    },
    {
      "icao": "EPWR",
      "alert": "OK",
      "vis_m": 4000,
      "fzfg": false,
      "metar_trigger": false,
      "taf_trigger": false,
      "metar": "METAR EPWR 110130Z 30007KT 4000 -RA BR SCT002 BKN004 11/11 Q1015",
      "taf": ""
    },
    {
      "icao": "ESGG",
      "alert": "OK",
      "vis_m": 2200,
      "fzfg": false,
      "metar_trigger": false,
      "taf_trigger": false,
      "metar": "METAR ESGG 110120Z 19004KT 2200 BR FEW021 07/07 Q1014",
      "taf": "TAF ESGG 102330Z 1100/1124 20004KT CAVOK"
    },
    {
      "icao": "ESKN",
      "alert": "OK",
      "vis_m": 9999,
      "fzfg": false,
      "metar_trigger": false,
      "taf_trigger": false,
      "metar": "METAR ESKN 110120Z 20002KT CAVOK 08/07 Q1014",
      "taf": "TAF ESKN 102330Z 1100/1124 20004KT CAVOK"
    },
    {
      "icao": "ESMS",
      "alert": "OK",
      "vis_m": 9999,
      "fzfg": false,
      "metar_trigger": false,
      "taf_trigger": false,
      "metar": "METAR ESMS 110120Z 22004KT CAVOK 08/08 Q1015",
      "taf": "TAF ESMS 102327Z 1100/1124 VRB03KT 9999 SCT030"
    },
    {
      "icao": "ESSA",
      "alert": "OK",
      "vis_m": 9999,
      "fzfg": false,
      "metar_trigger": false,
      "taf_trigger": false,
      "metar": "METAR ESSA 110120Z 16003KT CAVOK 08/06 Q1014 NOSIG",
      "taf": "TAF ESSA 102330Z 1100/1124 19005KT CAVOK"
    },
    {
      "icao": "EYKA",
      "alert": "OK",
      "vis_m": 9999,
      "fzfg": false,
      "metar_trigger": false,
      "taf_trigger": false,
      "metar": "METAR EYKA 110120Z 04006KT CAVOK 15/10 Q1016",
      "taf": "TAF EYKA 102300Z 1100/1124 VRB04KT 9000 SCT040CB OVC045"
    },
    {
      "icao": "EYPA",
      "alert": "OK",
      "vis_m": 9999,
      "fzfg": false,
      "metar_trigger": false,
      "taf_trigger": false,
      "metar": "METAR EYPA 110120Z 10005KT CAVOK 11/09 Q1017",
      "taf": "TAF EYPA 102300Z 1100/1124 VRB04KT 9000 NSC"
    },
    {
      "icao": "EYVI",
      "alert": "OK",
      "vis_m": 9999,
      "fzfg": false,
      "metar_trigger": false,
      "taf_trigger": false,
      "metar": "METAR EYVI 110120Z 04007KT 9999 FEW072CB 14/11 Q1015 NOSIG",
      "taf": "TAF EYVI 102300Z 1100/1124 VRB05KT 9000 SCT035CB OVC040"
    },
    {
      "icao": "GCFV",
      "alert": "OK",
      "vis_m": 9999,
      "fzfg": false,
      "metar_trigger": false,
      "taf_trigger": false,
      "metar": "METAR GCFV 110130Z AUTO 04013KT 9999 OVC019 20/16 Q1017",
      "taf": "TAF GCFV 102000Z 1021/1121 03013KT 9999 BKN016 TX25/1114Z TN18/1106Z"
    },
    {
      "icao": "GCLP",
      "alert": "OK",
      "vis_m": 9999,
      "fzfg": false,
      "metar_trigger": false,
      "taf_trigger": false,
      "metar": "METAR GCLP 110130Z 01019KT 9999 SCT020 20/15 Q1017 NOSIG",
      "taf": "TAF GCLP 102000Z 1021/1121 01022KT 9999 SCT020 TX25/1114Z TN18/1106Z"
    },
    {
      "icao": "GCTS",
      "alert": "OK",
      "vis_m": 9999,
      "fzfg": false,
      "metar_trigger": false,
      "taf_trigger": false,
      "metar": "METAR GCTS 110130Z 06011KT 9999 FEW025 19/14 Q1017 NOSIG",
      "taf": "TAF GCTS 102000Z 1021/1121 04009KT 9999 SCT020 TX26/1114Z TN19/1106Z"
    },
    {
      "icao": "GMAD",
      "alert": "OK",
      "vis_m": 8000,
      "fzfg": false,
      "metar_trigger": false,
      "taf_trigger": false,
      "metar": "METAR GMAD 110130Z 08003KT 8000 FEW013 16/15 Q1014 NOSIG",
      "taf": "TAF GMAD 102300Z 1100/1206 23003KT 8000 OVC010"
    },
    {
      "icao": "GMMN",
      "alert": "OK",
      "vis_m": 9999,
      "fzfg": false,
      "metar_trigger": false,
      "taf_trigger": false,
      "metar": "METAR GMMN 110130Z 30006KT 9999 BKN010 20/17 Q1015 NOSIG",
      "taf": "TAF GMMN 102300Z 1100/1206 34003KT 9999 SCT010"
    },
    {
      "icao": "GMMX",
      "alert": "OK",
      "vis_m": 9999,
      "fzfg": false,
      "metar_trigger": false,
      "taf_trigger": false,
      "metar": "METAR GMMX 110130Z 24006KT 220V280 CAVOK 21/15 Q1015 NOSIG",
      "taf": "TAF GMMX 102300Z 1100/1206 06006KT 8000 NSC"
    },
    {
      "icao": "HEGN",
      "alert": "OK",
      "vis_m": 9999,
      "fzfg": false,
      "metar_trigger": false,
      "taf_trigger": false,
      "metar": "METAR HEGN 110100Z 30010KT CAVOK 29/11 Q1008 NOSIG",
      "taf": "TAF HEGN 102300Z 1100/1206 32012KT CAVOK"
    },
    {
      "icao": "HEMA",
      "alert": "OK",
      "vis_m": 9999,
      "fzfg": false,
      "metar_trigger": false,
      "taf_trigger": false,
      "metar": "METAR HEMA 110100Z 31015KT CAVOK 29/09 Q1008 NOSIG",
      "taf": "TAF HEMA 102300Z 1100/1206 30014KT CAVOK"
    },
    {
      "icao": "HESH",
      "alert": "OK",
      "vis_m": 9999,
      "fzfg": false,
      "metar_trigger": false,
      "taf_trigger": false,
      "metar": "METAR HESH 110100Z 34006KT CAVOK 29/17 Q1008 NOSIG",
      "taf": "TAF HESH 102300Z 1100/1206 35010KT CAVOK"
    },
    {
      "icao": "HESX",
      "alert": "OK",
      "vis_m": 6000,
      "fzfg": false,
      "metar_trigger": false,
      "taf_trigger": false,
      "metar": "METAR HESX 110100Z VRB03KT 6000 NSC 20/17 Q1012 NOSIG",
      "taf": "TAF HESX 102300Z 1100/1206 36008KT CAVOK"
    },
    {
      "icao": "LATI",
      "alert": "OK",
      "vis_m": 9999,
      "fzfg": false,
      "metar_trigger": false,
      "taf_trigger": false,
      "metar": "METAR LATI 110120Z 17004KT CAVOK 19/16 Q1014 NOSIG",
      "taf": "TAF LATI 102300Z 1100/1124 VRB05KT CAVOK TX33/1112Z TN17/1104Z"
    },
    {
      "icao": "LBPD",
      "alert": "OK",
      "vis_m": 9999,
      "fzfg": false,
      "metar_trigger": false,
      "taf_trigger": false,
      "metar": "METAR LBPD 110130Z AUTO 00000KT 9999 NCD 15/15 Q1015",
      "taf": "TAF LBPD 102300Z 1100/1124 VRB04KT 9999 SCT060"
    },
    {
      "icao": "LBSF",
      "alert": "OK",
      "vis_m": 9999,
      "fzfg": false,
      "metar_trigger": false,
      "taf_trigger": false,
      "metar": "METAR LBSF 110130Z AUTO 10006KT 9999 NCD 14/12 Q1016 NOSIG",
      "taf": "TAF LBSF 102300Z 1100/1124 VRB04KT 9999 SCT060"
    },
    {
      "icao": "LBWN",
      "alert": "OK",
      "vis_m": 9999,
      "fzfg": false,
      "metar_trigger": false,
      "taf_trigger": false,
      "metar": "METAR LBWN 110130Z AUTO 01003KT 330V050 9999 NCD 14/14 Q1014 TEMPO 5000 BR",
      "taf": "TAF LBWN 102300Z 1100/1124 VRB04KT CAVOK"
    },
    {
      "icao": "LCLK",
      "alert": "OK",
      "vis_m": 9999,
      "fzfg": false,
      "metar_trigger": false,
      "taf_trigger": false,
      "metar": "METAR LCLK 110130Z 28002KT 9999 FEW012 21/20 Q1010 NOSIG",
      "taf": "TAF LCLK 102330Z 1100/1200 26005KT 9999 FEW030"
    },
    {
      "icao": "LCPH",
      "alert": "OK",
      "vis_m": 9999,
      "fzfg": false,
      "metar_trigger": false,
      "taf_trigger": false,
      "metar": "METAR LCPH 110130Z AUTO 06004KT 010V080 9999 NCD 20/15 Q1010 NOSIG",
      "taf": "TAF LCPH 102330Z 1100/1200 36007KT 9999 FEW015"
    },
    {
      "icao": "LEAL",
      "alert": "OK",
      "vis_m": 9999,
      "fzfg": false,
      "metar_trigger": false,
      "taf_trigger": false,
      "metar": "METAR LEAL 110130Z 08008KT 9999 SCT018 BKN021 23/18 Q1020 NOSIG",
      "taf": "TAF LEAL 102300Z 1100/1124 08010KT 9999 SCT020 TX27/1112Z TN20/1105Z"
    },
    {
      "icao": "LEBB",
      "alert": "OK",
      "vis_m": 9999,
      "fzfg": false,
      "metar_trigger": false,
      "taf_trigger": false,
      "metar": "METAR LEBB 110130Z AUTO 09003KT 9999 FEW027 12/11 Q1026",
      "taf": "TAF LEBB 102300Z 1100/1124 VRB03KT 9999 SCT035 TX23/1113Z TN13/1104Z"
    },
    {
      "icao": "LEBL",
      "alert": "OK",
      "vis_m": 9999,
      "fzfg": false,
      "metar_trigger": false,
      "taf_trigger": false,
      "metar": "METAR LEBL 110130Z 21006KT 9999 FEW030 BKN050 21/15 Q1021 NOSIG",
      "taf": "TAF LEBL 102300Z 1100/1124 23006KT 9999 SCT025 TX25/1113Z TN19/1105Z"
    },
    {
      "icao": "LECH",
      "alert": "OK",
      "vis_m": 9999,
      "fzfg": false,
      "metar_trigger": false,
      "taf_trigger": false,
      "metar": "METAR LECH 110130Z AUTO VRB01KT CAVOK 15/13 Q1022",
      "taf": "TAF LECH 102300Z 1100/1124 VRB04KT 9999 FEW040 TX28/1113Z TN14/1105Z"
    },
    {
      "icao": "LEMD",
      "alert": "OK",
      "vis_m": 9999,
      "fzfg": false,
      "metar_trigger": false,
      "taf_trigger": false,
      "metar": "METAR LEMD 110130Z 01004KT 290V090 CAVOK 18/07 Q1022 NOSIG",
      "taf": "TAF LEMD 102300Z 1100/1206 03007KT CAVOK TX33/1116Z TN15/1105Z"
    },
    {
      "icao": "LEMG",
      "alert": "OK",
      "vis_m": 9999,
      "fzfg": false,
      "metar_trigger": false,
      "taf_trigger": false,
      "metar": "METAR LEMG 110130Z 10007KT 9999 FEW015 BKN030 23/19 Q1019 NOSIG",
      "taf": "TAF LEMG 102300Z 1100/1124 13009KT 9999 SCT030 TX27/1114Z TN20/1107Z"
    },
    {
      "icao": "LEVC",
      "alert": "OK",
      "vis_m": 9999,
      "fzfg": false,
      "metar_trigger": false,
      "taf_trigger": false,
      "metar": "METAR LEVC 110130Z 27002KT CAVOK 19/15 Q1021 NOSIG",
      "taf": "TAF LEVC 102300Z 1100/1124 VRB04KT 9999 FEW020 TX26/1112Z TN18/1105Z"
    },
    {
      "icao": "LEXJ",
      "alert": "OK",
      "vis_m": 9999,
      "fzfg": false,
      "metar_trigger": false,
      "taf_trigger": false,
      "metar": "METAR LEXJ 110130Z AUTO VRB02KT CAVOK 13/11 Q1026",
      "taf": "TAF LEXJ 102000Z 1021/1121 20005KT 9999 SCT020 BKN040 TX22/1115Z TN13/1105Z"
    },
    {
      "icao": "LEZG",
      "alert": "OK",
      "vis_m": 9999,
      "fzfg": false,
      "metar_trigger": false,
      "taf_trigger": false,
      "metar": "METAR LEZG 110130Z 29020KT CAVOK 15/07 Q1023 NOSIG",
      "taf": "TAF LEZG 102300Z 1100/1124 31015KT CAVOK TX29/1115Z TN13/1105Z"
    },
    {
      "icao": "LEZL",
      "alert": "OK",
      "vis_m": 9999,
      "fzfg": false,
      "metar_trigger": false,
      "taf_trigger": false,
      "metar": "METAR LEZL 110130Z AUTO 21003KT 160V250 CAVOK 24/17 Q1016",
      "taf": "TAF LEZL 102000Z 1021/1121 22010KT CAVOK TX38/1115Z TN20/1106Z"
    },
    {
      "icao": "LFBD",
      "alert": "OK",
      "vis_m": 9999,
      "fzfg": false,
      "metar_trigger": false,
      "taf_trigger": false,
      "metar": "METAR LFBD 110130Z AUTO 24002KT CAVOK 10/09 Q1025 NOSIG",
      "taf": "TAF LFBD 102300Z 1100/1206 24005KT 9999 SCT040 TX23/1115Z TN10/1103Z"
    },
    {
      "icao": "LFLL",
      "alert": "OK",
      "vis_m": 9999,
      "fzfg": false,
      "metar_trigger": false,
      "taf_trigger": false,
      "metar": "METAR LFLL 110130Z 04002KT CAVOK 13/10 Q1022 NOSIG",
      "taf": "TAF LFLL 102300Z 1100/1206 VRB02KT CAVOK"
    },
    {
      "icao": "LFLS",
      "alert": "OK",
      "vis_m": 9999,
      "fzfg": false,
      "metar_trigger": false,
      "taf_trigger": false,
      "metar": "METAR LFLS 110130Z AUTO 11005KT CAVOK 07/06 Q1022",
      "taf": "TAF LFLS 101400Z 1015/1115 36012KT CAVOK"
    },
    {
      "icao": "LFMN",
      "alert": "OK",
      "vis_m": 9999,
      "fzfg": false,
      "metar_trigger": false,
      "taf_trigger": false,
      "metar": "METAR LFMN 110130Z 28010KT CAVOK 21/15 Q1012 TEMPO 26010KT",
      "taf": "TAF LFMN 102000Z 1021/1203 08015KT CAVOK"
    },
    {
      "icao": "LFOB",
      "alert": "OK",
      "vis_m": 9999,
      "fzfg": false,
      "metar_trigger": false,
      "taf_trigger": false,
      "metar": "METAR LFOB 110130Z AUTO 25007KT CAVOK 09/08 Q1021 NOSIG",
      "taf": "TAF LFOB 102300Z 1100/1124 26005KT 9999 FEW020"
    },
    {
      "icao": "LFPO",
      "alert": "OK",
      "vis_m": 9999,
      "fzfg": false,
      "metar_trigger": false,
      "taf_trigger": false,
      "metar": "METAR LFPO 110130Z AUTO VRB01KT CAVOK 10/08 Q1022 NOSIG",
      "taf": "TAF LFPO 102300Z 1100/1206 26005KT CAVOK"
    },
    {
      "icao": "LFSB",
      "alert": "OK",
      "vis_m": 9999,
      "fzfg": false,
      "metar_trigger": false,
      "taf_trigger": false,
      "metar": "METAR LFSB 110130Z AUTO 24005KT 200V270 9999 RA FEW037 BKN056 BKN066 11/09 Q1022 BECMG NSW",
      "taf": "TAF LFSB 102300Z 1100/1124 21004KT 9999 FEW030 BKN060"
    },
    {
      "icao": "LGAV",
      "alert": "OK",
      "vis_m": 9999,
      "fzfg": false,
      "metar_trigger": false,
      "taf_trigger": false,
      "metar": "METAR LGAV 110120Z VRB01KT CAVOK 18/07 Q1014 NOSIG",
      "taf": "TAF LGAV 102300Z 1100/1124 VRB03KT 9999 FEW025"
    },
    {
      "icao": "LGTS",
      "alert": "OK",
      "vis_m": 9999,
      "fzfg": false,
      "metar_trigger": false,
      "taf_trigger": false,
      "metar": "METAR LGTS 110120Z 12006KT 9999 FEW025 19/16 Q1013 NOSIG",
      "taf": "TAF LGTS 102300Z 1100/1124 VRB03KT 9999 FEW030"
    },
    {
      "icao": "LHBP",
      "alert": "OK",
      "vis_m": 9999,
      "fzfg": false,
      "metar_trigger": false,
      "taf_trigger": false,
      "metar": "METAR LHBP 110130Z 31016KT 9999 -SHRA FEW010 FEW030TCU BKN070 14/13 Q1013 TEMPO TL0200 4000 SHRA BKN008 SCT030TCU OVC040",
      "taf": "TAF LHBP 102315Z 1100/1124 31015G25KT 9999 SCT025 BKN080"
    },
    {
      "icao": "LHDC",
      "alert": "OK",
      "vis_m": 9999,
      "fzfg": false,
      "metar_trigger": false,
      "taf_trigger": false,
      "metar": "METAR LHDC 110115Z AUTO 15007KT CAVOK 20/13 Q1008",
      "taf": "TAF LHDC 101415Z 1015/1024 VRB03KT CAVOK"
    },
    {
      "icao": "LIBD",
      "alert": "OK",
      "vis_m": 9999,
      "fzfg": false,
      "metar_trigger": false,
      "taf_trigger": false,
      "metar": "METAR LIBD 110120Z 22008KT CAVOK 24/14 Q1011",
      "taf": "TAF LIBD 102300Z 1100/1124 23006KT 9999 FEW040"
    },
    {
      "icao": "LIBG",
      "alert": "OK",
      "vis_m": 9999,
      "fzfg": false,
      "metar_trigger": false,
      "taf_trigger": false,
      "metar": "METAR LIBG 110120Z AUTO 03002KT 9999 NCD 20/18 Q1012",
      "taf": "TAF LIBG 102300Z 1100/1124 VRB05KT CAVOK"
    },
    {
      "icao": "LIBP",
      "alert": "OK",
      "vis_m": 9999,
      "fzfg": false,
      "metar_trigger": false,
      "taf_trigger": false,
      "metar": "METAR LIBP 110120Z AUTO VRB03KT 9999 FEW130/// 23/13 Q1011",
      "taf": "TAF LIBP 102300Z 1100/1124 VRB05KT 9999 FEW070"
    },
    {
      "icao": "LIBR",
      "alert": "OK",
      "vis_m": 9999,
      "fzfg": false,
      "metar_trigger": false,
      "taf_trigger": false,
      "metar": "METAR LIBR 110120Z AUTO 22008KT 9999 NCD 23/19 Q1012",
      "taf": "TAF LIBR 102300Z 1100/1124 VRB05KT 9999 FEW040"
    },
    {
      "icao": "LICA",
      "alert": "OK",
      "vis_m": 9999,
      "fzfg": false,
      "metar_trigger": false,
      "taf_trigger": false,
      "metar": "METAR LICA 110120Z AUTO 08004KT 9999 NCD 16/15 Q1014",
      "taf": "TAF LICA 102300Z 1100/1124 VRB05KT CAVOK"
    },
    {
      "icao": "LICC",
      "alert": "OK",
      "vis_m": 9999,
      "fzfg": false,
      "metar_trigger": false,
      "taf_trigger": false,
      "metar": "METAR LICC 110120Z 25004KT 9999 BKN120 21/13 Q1013",
      "taf": "TAF LICC 102300Z 1100/1124 VRB05KT CAVOK"
    },
    {
      "icao": "LICJ",
      "alert": "OK",
      "vis_m": 9999,
      "fzfg": false,
      "metar_trigger": false,
      "taf_trigger": false,
      "metar": "METAR LICJ 110120Z VRB02KT CAVOK 24/15 Q1014",
      "taf": "TAF LICJ 102300Z 1100/1124 VRB05KT CAVOK"
    },
    {
      "icao": "LIMC",
      "alert": "OK",
      "vis_m": 9999,
      "fzfg": false,
      "metar_trigger": false,
      "taf_trigger": false,
      "metar": "METAR LIMC 110120Z 03008KT CAVOK 18/01 Q1014 NOSIG",
      "taf": "TAF LIMC 102300Z 1100/1206 03008KT CAVOK"
    },
    {
      "icao": "LIME",
      "alert": "OK",
      "vis_m": 9999,
      "fzfg": false,
      "metar_trigger": false,
      "taf_trigger": false,
      "metar": "METAR LIME 110120Z 02005KT CAVOK 15/08 Q1014 NOSIG",
      "taf": "TAF LIME 102300Z 1100/1124 VRB05KT 9999 FEW040"
    },
    {
      "icao": "LIMF",
      "alert": "OK",
      "vis_m": 9999,
      "fzfg": false,
      "metar_trigger": false,
      "taf_trigger": false,
      "metar": "METAR LIMF 110120Z 27003KT 200V360 9999 FEW070 BKN150 17/09 Q1015",
      "taf": "TAF LIMF 102300Z 1100/1124 VRB05KT 9999 FEW030"
    },
    {
      "icao": "LIMJ",
      "alert": "OK",
      "vis_m": 9999,
      "fzfg": false,
      "metar_trigger": false,
      "taf_trigger": false,
      "metar": "METAR LIMJ 110120Z 10004KT CAVOK 19/11 Q1013",
      "taf": "TAF LIMJ 102300Z 1100/1124 35008KT 9999 SCT040"
    },
    {
      "icao": "LIPE",
      "alert": "OK",
      "vis_m": 9999,
      "fzfg": false,
      "metar_trigger": false,
      "taf_trigger": false,
      "metar": "METAR LIPE 110120Z AUTO 21004KT 190V310 9999 BKN099/// 18/07 Q1013",
      "taf": "TAF LIPE 102300Z 1100/1124 29008KT 9999 FEW050"
    },
    {
      "icao": "LIPH",
      "alert": "OK",
      "vis_m": 9999,
      "fzfg": false,
      "metar_trigger": false,
      "taf_trigger": false,
      "metar": "METAR LIPH 110120Z AUTO 27003KT 9999 NCD 14/11 Q1012",
      "taf": "TAF LIPH 102300Z 1100/1124 VRB05KT 9999 FEW030"
    },
    {
      "icao": "LIPQ",
      "alert": "OK",
      "vis_m": null,
      "fzfg": false,
      "metar_trigger": false,
      "taf_trigger": false,
      "metar": "METAR LIPQ 110120Z AUTO 36002KT //// // BKN027/// 16/15 Q1012",
      "taf": "TAF LIPQ 102300Z 1100/1124 07012KT 9999 SCT040"
    },
    {
      "icao": "LIPR",
      "alert": "OK",
      "vis_m": 9999,
      "fzfg": false,
      "metar_trigger": false,
      "taf_trigger": false,
      "metar": "METAR LIPR 110120Z AUTO VRB01KT 9999 SCT073/// 20/12 Q1012",
      "taf": "TAF LIPR 102300Z 1100/1124 22012KT 9999 FEW060"
    },
    {
      "icao": "LIPX",
      "alert": "OK",
      "vis_m": 9999,
      "fzfg": false,
      "metar_trigger": false,
      "taf_trigger": false,
      "metar": "METAR LIPX 110120Z 35011KT CAVOK 18/03 Q1013",
      "taf": "TAF LIPX 102300Z 1100/1124 01008KT 9999 FEW030"
    },
    {
      "icao": "LIPY",
      "alert": "OK",
      "vis_m": 9999,
      "fzfg": false,
      "metar_trigger": false,
      "taf_trigger": false,
      "metar": "METAR LIPY 110120Z AUTO 22004KT 9999 FEW062/// BKN096/// 22/14 Q1012",
      "taf": "TAF LIPY 102300Z 1100/1124 22009KT 9999 SCT060"
    },
    {
      "icao": "LIPZ",
      "alert": "OK",
      "vis_m": 9999,
      "fzfg": false,
      "metar_trigger": false,
      "taf_trigger": false,
      "metar": "METAR LIPZ 110120Z 33005KT CAVOK 16/10 Q1012 NOSIG",
      "taf": "TAF LIPZ 102300Z 1100/1206 03013KT CAVOK"
    },
    {
      "icao": "LIRF",
      "alert": "OK",
      "vis_m": 9999,
      "fzfg": false,
      "metar_trigger": false,
      "taf_trigger": false,
      "metar": "METAR LIRF 110120Z 27005KT CAVOK 21/16 Q1014 NOSIG",
      "taf": "TAF LIRF 102300Z 1100/1206 21010KT CAVOK"
    },
    {
      "icao": "LIRN",
      "alert": "OK",
      "vis_m": 9999,
      "fzfg": false,
      "metar_trigger": false,
      "taf_trigger": false,
      "metar": "METAR LIRN 110120Z VRB02KT CAVOK 21/15 Q1014 NOSIG",
      "taf": "TAF LIRN 102300Z 1100/1124 VRB05KT CAVOK"
    },
    {
      "icao": "LIRP",
      "alert": "OK",
      "vis_m": 9999,
      "fzfg": false,
      "metar_trigger": false,
      "taf_trigger": false,
      "metar": "METAR LIRP 110115Z VRB02KT CAVOK 16/13 Q1013 NOSIG",
      "taf": "TAF LIRP 102300Z 1100/1124 11005KT CAVOK"
    },
    {
      "icao": "LIRZ",
      "alert": "OK",
      "vis_m": 9999,
      "fzfg": false,
      "metar_trigger": false,
      "taf_trigger": false,
      "metar": "METAR LIRZ 110120Z AUTO 26004KT 9999 BKN027/// 20/16 Q1014",
      "taf": "TAF LIRZ 102300Z 1100/1124 VRB05KT CAVOK"
    },
    {
      "icao": "LJLJ",
      "alert": "OK",
      "vis_m": 9999,
      "fzfg": false,
      "metar_trigger": false,
      "taf_trigger": false,
      "metar": "METAR LJLJ 110100Z 06004KT 020V100 9999 FEW007 BKN068 BKN090 12/11 Q1016 NOSIG",
      "taf": "TAF LJLJ 102300Z 1100/1200 30004KT 9999 FEW005 BKN030"
    },
    {
      "icao": "LKMT",
      "alert": "OK",
      "vis_m": 9000,
      "fzfg": false,
      "metar_trigger": false,
      "taf_trigger": false,
      "metar": "METAR LKMT 110130Z VRB02KT 9000 -RA SCT007 BKN012 11/11 Q1014 NOSIG",
      "taf": "TAF LKMT 102300Z 1100/1124 02010KT 8000 -RA BKN010 OVC020"
    },
    {
      "icao": "LKPR",
      "alert": "OK",
      "vis_m": 9999,
      "fzfg": false,
      "metar_trigger": false,
      "taf_trigger": false,
      "metar": "METAR LKPR 110130Z 24008KT 9999 -RA SCT045 BKN048 10/09 Q1018 NOSIG",
      "taf": "TAF LKPR 102300Z 1100/1206 20004KT 9999 SCT025 BKN030"
    },
    {
      "icao": "LLBG",
      "alert": "OK",
      "vis_m": 9999,
      "fzfg": false,
      "metar_trigger": false,
      "taf_trigger": false,
      "metar": "METAR LLBG 110120Z 16005KT 9999 FEW024 22/19 Q1011 NOSIG",
      "taf": "TAF LLBG 102300Z 1100/1124 VRB04KT 9999 SCT025 TX29/1110Z TN19/1103Z"
    },
    {
      "icao": "LMML",
      "alert": "OK",
      "vis_m": 9999,
      "fzfg": false,
      "metar_trigger": false,
      "taf_trigger": false,
      "metar": "METAR LMML 110115Z 20002KT CAVOK 22/20 Q1015 NOSIG",
      "taf": "TAF LMML 102300Z 1100/1124 27007KT 9999 FEW015"
    },
    {
      "icao": "LOWW",
      "alert": "OK",
      "vis_m": 9999,
      "fzfg": false,
      "metar_trigger": false,
      "taf_trigger": false,
      "metar": "METAR LOWW 110120Z 31013KT 9999 FEW016 11/09 Q1017 NOSIG",
      "taf": "TAF LOWW 102315Z 1100/1206 30014KT 9999 FEW050 TX18/1112Z TN11/1103Z"
    },
    {
      "icao": "LPFR",
      "alert": "OK",
      "vis_m": 9999,
      "fzfg": false,
      "metar_trigger": false,
      "taf_trigger": false,
      "metar": "METAR LPFR 110130Z 09007KT CAVOK 20/18 Q1016",
      "taf": "TAF LPFR 102300Z 1100/1124 VRB02KT CAVOK"
    },
    {
      "icao": "LPMA",
      "alert": "OK",
      "vis_m": 9999,
      "fzfg": false,
      "metar_trigger": false,
      "taf_trigger": false,
      "metar": "METAR LPMA 110130Z 35018KT 9999 FEW015 21/06 Q1020",
      "taf": "TAF LPMA 102300Z 1100/1124 01015KT 9999 SCT015"
    },
    {
      "icao": "LPPR",
      "alert": "OK",
      "vis_m": 9999,
      "fzfg": false,
      "metar_trigger": false,
      "taf_trigger": false,
      "metar": "METAR LPPR 110130Z 36002KT CAVOK 16/10 Q1019",
      "taf": "TAF LPPR 102300Z 1100/1124 VRB02KT CAVOK"
    },
    {
      "icao": "LPPS",
      "alert": "OK",
      "vis_m": 9999,
      "fzfg": false,
      "metar_trigger": false,
      "taf_trigger": false,
      "metar": "METAR LPPS 110130Z 01010KT 9999 SCT012 18/15 Q1021",
      "taf": "TAF LPPS 102300Z 1100/1206 02013KT 9999 SCT014"
    },
    {
      "icao": "LPPT",
      "alert": "OK",
      "vis_m": 9999,
      "fzfg": false,
      "metar_trigger": false,
      "taf_trigger": false,
      "metar": "METAR LPPT 110130Z 33008KT 300V360 CAVOK 20/10 Q1017",
      "taf": "TAF LPPT 102300Z 1100/1206 34010KT CAVOK"
    },
    {
      "icao": "LQBK",
      "alert": "OK",
      "vis_m": 9999,
      "fzfg": false,
      "metar_trigger": false,
      "taf_trigger": false,
      "metar": "METAR LQBK 110130Z 28011KT 9999 FEW013 15/12 Q1015 NOSIG",
      "taf": "TAF LQBK 102300Z 1100/1124 15005KT 9999 SCT035 TX17/1100Z TN12/1123Z"
    },
    {
      "icao": "LQSA",
      "alert": "OK",
      "vis_m": 9999,
      "fzfg": false,
      "metar_trigger": false,
      "taf_trigger": false,
      "metar": "METAR LQSA 110130Z 30003KT 270V020 CAVOK 15/11 Q1013",
      "taf": "TAF LQSA 102300Z 1100/1124 VRB02KT 9999 SCT060 TX22/1112Z TN14/1103Z"
    },
    {
      "icao": "LQTZ",
      "alert": "OK",
      "vis_m": 9999,
      "fzfg": false,
      "metar_trigger": false,
      "taf_trigger": false,
      "metar": "METAR LQTZ 110130Z 30004KT CAVOK 16/16 Q1011",
      "taf": "TAF LQTZ 102300Z 1100/1124 30006KT 9999 SCT040 TX17/1100Z TN12/1123Z"
    },
    {
      "icao": "LRBC",
      "alert": "OK",
      "vis_m": 9999,
      "fzfg": false,
      "metar_trigger": false,
      "taf_trigger": false,
      "metar": "METAR LRBC 110130Z 31003KT CAVOK 15/14 Q1014",
      "taf": "TAF LRBC 102300Z 1100/1109 VRB04KT CAVOK"
    },
    {
      "icao": "LRBS",
      "alert": "OK",
      "vis_m": 9999,
      "fzfg": false,
      "metar_trigger": false,
      "taf_trigger": false,
      "metar": "METAR LRBS 110130Z 01003KT 340V040 CAVOK 18/17 Q1013 NOSIG",
      "taf": "TAF LRBS 102300Z 1100/1124 VRB04KT CAVOK"
    },
    {
      "icao": "LRBV",
      "alert": "OK",
      "vis_m": 9999,
      "fzfg": false,
      "metar_trigger": false,
      "taf_trigger": false,
      "metar": "METAR LRBV 110130Z AUTO VRB02KT 9999 NCD 13/11 Q1015",
      "taf": "TAF LRBV 101700Z 1018/1103 20012KT 9999 FEW050CB"
    },
    {
      "icao": "LRCL",
      "alert": "OK",
      "vis_m": 9999,
      "fzfg": false,
      "metar_trigger": false,
      "taf_trigger": false,
      "metar": "METAR LRCL 110130Z 00000KT CAVOK 14/12 Q1012",
      "taf": "TAF LRCL 102300Z 1100/1109 VRB04KT CAVOK"
    },
    {
      "icao": "LRCV",
      "alert": "OK",
      "vis_m": 9999,
      "fzfg": false,
      "metar_trigger": false,
      "taf_trigger": false,
      "metar": "METAR LRCV 110130Z 07006KT CAVOK 16/16 Q1013",
      "taf": "TAF LRCV 102300Z 1100/1109 07008KT CAVOK"
    },
    {
      "icao": "LRIA",
      "alert": "OK",
      "vis_m": 9999,
      "fzfg": false,
      "metar_trigger": false,
      "taf_trigger": false,
      "metar": "METAR LRIA 110130Z 07005KT CAVOK 18/13 Q1014",
      "taf": "TAF LRIA 102300Z 1100/1109 VRB04KT CAVOK"
    },
    {
      "icao": "LROP",
      "alert": "OK",
      "vis_m": 9999,
      "fzfg": false,
      "metar_trigger": false,
      "taf_trigger": false,
      "metar": "METAR LROP 110130Z 02006KT CAVOK 18/17 Q1013 NOSIG",
      "taf": "TAF LROP 102300Z 1100/1124 VRB04KT CAVOK"
    },
    {
      "icao": "LRSB",
      "alert": "OK",
      "vis_m": 9999,
      "fzfg": false,
      "metar_trigger": false,
      "taf_trigger": false,
      "metar": "METAR LRSB 110130Z 11004KT CAVOK 14/13 Q1013",
      "taf": "TAF LRSB 102300Z 1100/1124 16006KT CAVOK"
    },
    {
      "icao": "LRSM",
      "alert": "OK",
      "vis_m": 9999,
      "fzfg": false,
      "metar_trigger": false,
      "taf_trigger": false,
      "metar": "METAR LRSM 110130Z AUTO 10007KT 9999 FEW120/// 18/13 Q1010",
      "taf": "TAF LRSM 101400Z 1015/1024 12006KT CAVOK"
    },
    {
      "icao": "LRSV",
      "alert": "OK",
      "vis_m": 9999,
      "fzfg": false,
      "metar_trigger": false,
      "taf_trigger": false,
      "metar": "METAR LRSV 110130Z 19006KT CAVOK 17/12 Q1014",
      "taf": "TAF LRSV 102300Z 1100/1109 VRB04KT CAVOK"
    },
    {
      "icao": "LRTM",
      "alert": "OK",
      "vis_m": 9999,
      "fzfg": false,
      "metar_trigger": false,
      "taf_trigger": false,
      "metar": "METAR LRTM 110130Z 09005KT CAVOK 15/14 Q1013",
      "taf": "TAF LRTM 102300Z 1100/1109 12006KT CAVOK"
    },
    {
      "icao": "LRTR",
      "alert": "OK",
      "vis_m": 9999,
      "fzfg": false,
      "metar_trigger": false,
      "taf_trigger": false,
      "metar": "METAR LRTR 110130Z 09007KT CAVOK 18/15 Q1009",
      "taf": "TAF LRTR 102300Z 1100/1124 17006KT 9999 FEW040"
    },
    {
      "icao": "LTAC",
      "alert": "OK",
      "vis_m": 9999,
      "fzfg": false,
      "metar_trigger": false,
      "taf_trigger": false,
      "metar": "METAR LTAC 110120Z VRB01KT CAVOK 11/09 Q1016 NOSIG RMK RWY21C 04002KT RWY03L VRB02KT RWY21R 03002KT RWY03R 05001KT RWY21L 10003KT",
      "taf": "TAF LTAC 102240Z 1100/1124 VRB02KT CAVOK"
    },
    {
      "icao": "LTFM",
      "alert": "OK",
      "vis_m": 9999,
      "fzfg": false,
      "metar_trigger": false,
      "taf_trigger": false,
      "metar": "METAR LTFM 110120Z 07006KT 030V090 9999 FEW012 19/17 Q1014 NOSIG RMK RWY17L 05006KT RWY34L 05006KT RWY16R 06007KT RWY36 06007KT RWY18 07007KT",
      "taf": "TAF LTFM 102240Z 1100/1206 07004KT 9999 SCT013"
    },
    {
      "icao": "LUKK",
      "alert": "OK",
      "vis_m": 9999,
      "fzfg": false,
      "metar_trigger": false,
      "taf_trigger": false,
      "metar": "METAR LUKK 110130Z 29001KT CAVOK 16/15 Q1014 NOSIG",
      "taf": "TAF LUKK 102303Z 1100/1124 VRB04KT CAVOK"
    },
    {
      "icao": "LWOH",
      "alert": "OK",
      "vis_m": null,
      "fzfg": false,
      "metar_trigger": false,
      "taf_trigger": false,
      "metar": "",
      "taf": "TAF LWOH 102340Z 1100/1124 VRB03KT 9999 FEW040"
    },
    {
      "icao": "LWSK",
      "alert": "OK",
      "vis_m": 9999,
      "fzfg": false,
      "metar_trigger": false,
      "taf_trigger": false,
      "metar": "METAR LWSK 110120Z 04005KT CAVOK 17/14 Q1014 NOSIG",
      "taf": "TAF LWSK 102340Z 1100/1124 VRB02KT CAVOK"
    },
    {
      "icao": "LYBE",
      "alert": "OK",
      "vis_m": 9999,
      "fzfg": false,
      "metar_trigger": false,
      "taf_trigger": false,
      "metar": "METAR LYBE 110130Z 19005KT CAVOK 22/17 Q1009 BECMG 33012KT",
      "taf": "TAF LYBE 102300Z 1100/1124 16006KT CAVOK TX24/1101Z TN13/1124Z"
    },
    {
      "icao": "LYNI",
      "alert": "OK",
      "vis_m": 9999,
      "fzfg": false,
      "metar_trigger": false,
      "taf_trigger": false,
      "metar": "METAR LYNI 110130Z VRB02KT CAVOK 19/15 Q1012 NOSIG",
      "taf": "TAF LYNI 102300Z 1100/1124 09008KT CAVOK TX28/1113Z TN13/1124Z"
    },
    {
      "icao": "LYPG",
      "alert": "OK",
      "vis_m": 9999,
      "fzfg": false,
      "metar_trigger": false,
      "taf_trigger": false,
      "metar": "METAR LYPG 110130Z 00000KT CAVOK 19/14 Q1014 NOSIG",
      "taf": "TAF LYPG 102300Z 1100/1124 36005KT CAVOK TX31/1114Z TN20/1103Z"
    },
    {
      "icao": "LZIB",
      "alert": "OK",
      "vis_m": 9999,
      "fzfg": false,
      "metar_trigger": false,
      "taf_trigger": false,
      "metar": "METAR LZIB 110130Z 30013KT 9999 FEW015 12/09 Q1016 NOSIG",
      "taf": ""
    },
    {
      "icao": "LZKZ",
      "alert": "OK",
      "vis_m": 9999,
      "fzfg": false,
      "metar_trigger": false,
      "taf_trigger": false,
      "metar": "METAR LZKZ 110130Z 02006KT 340V040 CAVOK 17/17 Q1008 TEMPO TSRA FEW030CB",
      "taf": "TAF LZKZ 102315Z 1100/1200 03011KT 9999 SCT035"
    },
    {
      "icao": "LZTT",
      "alert": "OK",
      "vis_m": 4000,
      "fzfg": false,
      "metar_trigger": false,
      "taf_trigger": false,
      "metar": "METAR LZTT 110130Z VRB02KT 4000 -TSRA BR FEW002 BKN030CB 15/15 Q1010",
      "taf": "TAF LZTT 102315Z 1100/1200 27008KT 9999 FEW014 BKN030"
    },
    {
      "icao": "OEJN",
      "alert": "OK",
      "vis_m": 9999,
      "fzfg": false,
      "metar_trigger": false,
      "taf_trigger": false,
      "metar": "METAR OEJN 110100Z 34003KT CAVOK 29/13 Q1005 NOSIG",
      "taf": "TAF OEJN 102300Z 1100/1206 18006KT CAVOK"
    },
    {
      "icao": "OEMA",
      "alert": "OK",
      "vis_m": 9999,
      "fzfg": false,
      "metar_trigger": false,
      "taf_trigger": false,
      "metar": "METAR OEMA 110100Z 35004KT CAVOK 30/M08 Q1012 NOSIG",
      "taf": "TAF OEMA 102300Z 1100/1206 VRB03KT CAVOK"
    },
    {
      "icao": "OJAI",
      "alert": "OK",
      "vis_m": 5000,
      "fzfg": false,
      "metar_trigger": false,
      "taf_trigger": false,
      "metar": "METAR OJAI 110100Z 00000KT 5000 HZ NSC 15/05 Q1015 NOSIG",
      "taf": ""
    },
    {
      "icao": "OMAA",
      "alert": "OK",
      "vis_m": 9999,
      "fzfg": false,
      "metar_trigger": false,
      "taf_trigger": false,
      "metar": "METAR OMAA 110130Z 22006KT CAVOK 29/24 Q1000 NOSIG",
      "taf": "TAF OMAA 102300Z 1100/1206 18005KT CAVOK"
    },
    {
      "icao": "OMDB",
      "alert": "OK",
      "vis_m": null,
      "fzfg": false,
      "metar_trigger": false,
      "taf_trigger": false,
      "metar": "",
      "taf": ""
    },
    {
      "icao": "UAAA",
      "alert": "OK",
      "vis_m": 9999,
      "fzfg": false,
      "metar_trigger": false,
      "taf_trigger": false,
      "metar": "METAR UAAA 110130Z 00000MPS 9999 BKN050CB OVC100 19/17 Q1015 NOSIG",
      "taf": "TAF UAAA 102301Z 1100/1124 21003G08MPS 9999 SCT050CB BKN100 TX26/1110Z TN17/1101Z"
    },
    {
      "icao": "UBBB",
      "alert": "OK",
      "vis_m": 9999,
      "fzfg": false,
      "metar_trigger": false,
      "taf_trigger": false,
      "metar": "METAR UBBB 110130Z 13016KT 9999 FEW060CB 22/18 Q1011 NOSIG",
      "taf": "TAF UBBB 102259Z 1100/1124 VRB04KT 9999 FEW060CB TX30/1110Z TN19/1100Z"
    },
    {
      "icao": "UDSG",
      "alert": "OK",
      "vis_m": 9999,
      "fzfg": false,
      "metar_trigger": false,
      "taf_trigger": false,
      "metar": "METAR UDSG 110130Z 27004KT 9999 VCTS BKN036CB 11/10 Q1021 NOSIG",
      "taf": "TAF UDSG 102300Z 1100/1124 27006KT 9999 SCT040"
    },
    {
      "icao": "UDYZ",
      "alert": "OK",
      "vis_m": 9999,
      "fzfg": false,
      "metar_trigger": false,
      "taf_trigger": false,
      "metar": "METAR UDYZ 110130Z 09002KT 9999 VCTS SCT043CB 18/12 Q1014 NOSIG",
      "taf": "TAF UDYZ 102300Z 1100/1124 14006KT 9999 SCT040"
    },
    {
      "icao": "UGKO",
      "alert": "OK",
      "vis_m": 9999,
      "fzfg": false,
      "metar_trigger": false,
      "taf_trigger": false,
      "metar": "METAR UGKO 110130Z 09004KT 060V120 9999 SCT033CB BKN058 19/18 Q1012 NOSIG",
      "taf": "TAF UGKO 102300Z 1100/1124 26007KT 9999 SCT026 BKN050 TX26/1111Z TN17/1102Z"
    }
  ]
}