{
  "ts_utc": "2026-02-21T12:31:48Z",
  "threshold_m": 150,
  "source": "stations_override.txt (ICAO list) + aviationweather.gov (METAR/TAF raw)",
  "station_count": 159,
  "stations": [
    {
      "icao": "BIKF",
      "alert": "OK",
      "vis_m": 9999,
      "fzfg": false,
      "metar_trigger": false,
      "taf_trigger": false,
      "metar": "METAR BIKF 211200Z 07017KT CAVOK 00/M04 Q1004",
      "taf": "TAF BIKF 211055Z 2112/2212 07015KT CAVOK TX02/2208Z TNM01/2123Z"
    },
    {
      "icao": "BKPR",
      "alert": "OK",
      "vis_m": 9999,
      "fzfg": false,
      "metar_trigger": false,
      "taf_trigger": false,
      "metar": "METAR BKPR 211230Z 02012KT 9999 SCT020 BKN050 02/M01 Q1020 NOSIG",
      "taf": "TAF BKPR 211130Z 2112/2212 03012KT 9999 SCT020 BKN040"
    },
    {
      "icao": "EBCI",
      "alert": "OK",
      "vis_m": 9999,
      "fzfg": false,
      "metar_trigger": false,
      "taf_trigger": false,
      "metar": "METAR EBCI 211220Z 25014KT 9999 FEW009 BKN012 10/08 Q1022 TEMPO BKN009",
      "taf": "TAF EBCI 211120Z 2112/2218 24010KT 9999 SCT012 BKN020"
    },
    {
      "icao": "EDDB",
      "alert": "OK",
      "vis_m": 9999,
      "fzfg": false,
      "metar_trigger": false,
      "taf_trigger": false,
      "metar": "METAR EDDB 211220Z AUTO 26012KT 9999 BKN018 BKN026 OVC047 08/06 Q1015 NOSIG",
      "taf": "TAF EDDB 211100Z 2112/2212 25012G22KT 9999 BKN020"
    },
    {
      "icao": "EDDH",
      "alert": "OK",
      "vis_m": 9999,
      "fzfg": false,
      "metar_trigger": false,
      "taf_trigger": false,
      "metar": "METAR EDDH 211220Z AUTO 26010KT 220V290 9999 OVC010 07/06 Q1013 TEMPO BKN009",
      "taf": "TAF EDDH 211100Z 2112/2218 25012KT 9999 OVC012"
    },
    {
      "icao": "EDDK",
      "alert": "OK",
      "vis_m": 6000,
      "fzfg": false,
      "metar_trigger": false,
      "taf_trigger": false,
      "metar": "METAR EDDK 211220Z AUTO 24009KT 6000 -SHRA BKN011 BKN016 BKN022 FEW///TCU 09/07 Q1020 NOSIG",
      "taf": "TAF EDDK 211100Z 2112/2218 25011KT 9999 BKN020"
    },
    {
      "icao": "EDDN",
      "alert": "OK",
      "vis_m": 9999,
      "fzfg": false,
      "metar_trigger": false,
      "taf_trigger": false,
      "metar": "METAR EDDN 211220Z AUTO 27011KT 230V290 9999 SCT019 BKN026 OVC039 08/05 Q1021 NOSIG",
      "taf": "TAF EDDN 211100Z 2112/2212 26010KT 9999 BKN015 BKN025"
    },
    {
      "icao": "EDDS",
      "alert": "OK",
      "vis_m": 7000,
      "fzfg": false,
      "metar_trigger": false,
      "taf_trigger": false,
      "metar": "METAR EDDS 211220Z AUTO 21004KT 170V250 7000 -SHRA BKN027 BKN035 FEW///TCU 07/06 Q1022 RESHRA NOSIG",
      "taf": "TAF EDDS 211100Z 2112/2212 22006KT 9999 BKN025"
    },
    {
      "icao": "EDFH",
      "alert": "OK",
      "vis_m": 3000,
      "fzfg": false,
      "metar_trigger": false,
      "taf_trigger": false,
      "metar": "METAR EDFH 211220Z COR 26011KT 3000 -DZ OVC002 06/06 Q1021 RERA",
      "taf": "TAF EDFH 211100Z 2112/2212 26012KT 8000 BKN012"
    },
    {
      "icao": "EDJA",
      "alert": "OK",
      "vis_m": 9999,
      "fzfg": false,
      "metar_trigger": false,
      "taf_trigger": false,
      "metar": "METAR EDJA 211220Z COR 23012KT 9999 -RA OVC010 05/03 Q1023",
      "taf": "TAF EDJA 211100Z 2112/2121 24015G25KT 9999 BKN011 OVC040"
    },
    {
      "icao": "EDLW",
      "alert": "OK",
      "vis_m": 9999,
      "fzfg": false,
      "metar_trigger": false,
      "taf_trigger": false,
      "metar": "METAR EDLW 211220Z 24008KT 9999 BKN022 10/06 Q1018",
      "taf": "TAF EDLW 211100Z 2112/2212 25012KT 9999 BKN020"
    },
    {
      "icao": "EDNY",
      "alert": "OK",
      "vis_m": 7000,
      "fzfg": false,
      "metar_trigger": false,
      "taf_trigger": false,
      "metar": "METAR EDNY 211220Z 23008KT 7000 RA OVC019 07/05 Q1025",
      "taf": "TAF EDNY 211100Z 2112/2121 24010KT 8000 BKN020"
    },
    {
      "icao": "EDSB",
      "alert": "OK",
      "vis_m": 9999,
      "fzfg": false,
      "metar_trigger": false,
      "taf_trigger": false,
      "metar": "METAR EDSB 211220Z 19013KT 9999 -RA FEW015 BKN024 OVC031 09/08 Q1024",
      "taf": "TAF EDSB 211100Z 2112/2212 21012KT 9999 BKN025"
    },
    {
      "icao": "EETN",
      "alert": "OK",
      "vis_m": 9999,
      "fzfg": false,
      "metar_trigger": false,
      "taf_trigger": false,
      "metar": "METAR EETN 211220Z 20014KT 9999 -SN SCT018 M02/M05 Q1008 NOSIG",
      "taf": ""
    },
    {
      "icao": "EFTU",
      "alert": "OK",
      "vis_m": 5000,
      "fzfg": false,
      "metar_trigger": false,
      "taf_trigger": false,
      "metar": "METAR EFTU 211220Z AUTO 21009KT 5000 -SN OVC004 00/M00 Q1003",
      "taf": "TAF EFTU 211136Z 2112/2212 21012KT 5000 -SN OVC004"
    },
    {
      "icao": "EGBB",
      "alert": "OK",
      "vis_m": 9999,
      "fzfg": false,
      "metar_trigger": false,
      "taf_trigger": false,
      "metar": "METAR EGBB 211220Z 19006KT 150V230 9999 BKN020 12/09 Q1017",
      "taf": "TAF EGBB 211102Z 2112/2212 23012KT 9999 FEW012 SCT022"
    },
    {
      "icao": "EGGP",
      "alert": "OK",
      "vis_m": 9999,
      "fzfg": false,
      "metar_trigger": false,
      "taf_trigger": false,
      "metar": "METAR EGGP 211220Z 21006KT 180V240 9999 SCT024 13/08 Q1015",
      "taf": "TAF EGGP 211105Z 2112/2212 23009KT 9999 SCT030"
    },
    {
      "icao": "EGGW",
      "alert": "OK",
      "vis_m": 9999,
      "fzfg": false,
      "metar_trigger": false,
      "taf_trigger": false,
      "metar": "METAR EGGW 211220Z AUTO 25016KT 9999 BKN013 11/09 Q1019",
      "taf": "TAF EGGW 211054Z 2112/2212 25016KT 9999 SCT012 BKN015"
    },
    {
      "icao": "EGKK",
      "alert": "OK",
      "vis_m": 9999,
      "fzfg": false,
      "metar_trigger": false,
      "taf_trigger": false,
      "metar": "METAR EGKK 211220Z 23010KT 9999 BKN011 12/10 Q1021",
      "taf": "TAF EGKK 211104Z 2112/2218 24012KT 9999 BKN020"
    },
    {
      "icao": "EGNM",
      "alert": "OK",
      "vis_m": 9999,
      "fzfg": false,
      "metar_trigger": false,
      "taf_trigger": false,
      "metar": "METAR EGNM 211220Z 24014KT 9999 SCT019 11/07 Q1014",
      "taf": "TAF EGNM 211107Z 2112/2212 25014KT 9999 SCT020"
    },
    {
      "icao": "EGPD",
      "alert": "OK",
      "vis_m": 4000,
      "fzfg": false,
      "metar_trigger": false,
      "taf_trigger": false,
      "metar": "METAR EGPD 211220Z 06005KT 4000 BR BKN004 OVC014 06/05 Q1010 TEMPO 6000 NSW BKN006",
      "taf": "TAF EGPD 211058Z 2112/2212 09003KT 9999 SCT008"
    },
    {
      "icao": "EGPF",
      "alert": "OK",
      "vis_m": 9999,
      "fzfg": false,
      "metar_trigger": false,
      "taf_trigger": false,
      "metar": "METAR EGPF 211220Z AUTO 21010KT 9999 -RA BKN007 10/09 Q1010",
      "taf": "TAF EGPF 211057Z 2112/2212 22012KT 9999 BKN030"
    },
    {
      "icao": "EHBK",
      "alert": "OK",
      "vis_m": 2500,
      "fzfg": false,
      "metar_trigger": false,
      "taf_trigger": false,
      "metar": "METAR EHBK 211225Z AUTO 22011KT 2500 BR BKN001 OVC002 09/09 Q1020 TEMPO -RADZ BKN003",
      "taf": "TAF EHBK 211118Z 2112/2218 23009KT 7000 -RADZ BKN006"
    },
    {
      "icao": "EHEH",
      "alert": "OK",
      "vis_m": 2400,
      "fzfg": false,
      "metar_trigger": false,
      "taf_trigger": false,
      "metar": "METAR EHEH 211225Z AUTO 23009KT 200V270 2400 R21/2600N +DZ FEW004/// BKN006/// OVC007/// 09/09 Q1020 YLO TEMPO 3000 DZRA BKN003 BKN005 RMK TREND REMOTE BY EHWX",
      "taf": "TAF EHEH 211125Z 2112/2218 24010KT 6000 BKN006 OVC008"
    },
    {
      "icao": "EKBI",
      "alert": "OK",
      "vis_m": 9999,
      "fzfg": false,
      "metar_trigger": false,
      "taf_trigger": false,
      "metar": "METAR EKBI 211220Z AUTO 27020KT 9999 -DZ OVC005/// 04/04 Q1008",
      "taf": "TAF EKBI 211127Z 2112/2212 25010KT 6000 SCT006 BKN015"
    },
    {
      "icao": "EKCH",
      "alert": "OK",
      "vis_m": 5000,
      "fzfg": false,
      "metar_trigger": false,
      "taf_trigger": false,
      "metar": "METAR EKCH 211220Z 25011KT 5000 OVC004 03/03 Q1007 NOSIG",
      "taf": "TAF EKCH 211127Z 2112/2212 24010KT 2000 -RADZ BR BKN003"
    },
    {
      "icao": "ENAL",
      "alert": "OK",
      "vis_m": 9999,
      "fzfg": false,
      "metar_trigger": false,
      "taf_trigger": false,
      "metar": "METAR ENAL 211220Z 26007KT 230V300 9999 VCSH FEW015 SCT022TCU BKN050 03/M00 Q1006",
      "taf": "TAF ENAL 211100Z 2112/2121 28008KT 9999 FEW015 SCT045"
    },
    {
      "icao": "ENBR",
      "alert": "OK",
      "vis_m": 9999,
      "fzfg": false,
      "metar_trigger": false,
      "taf_trigger": false,
      "metar": "METAR ENBR 211220Z 33010KT 300V360 9999 SCT023 05/M00 Q1006 NOSIG RMK WIND 1200FT 33017KT",
      "taf": "TAF ENBR 211100Z 2112/2212 34012KT 9999 FEW020"
    },
    {
      "icao": "ENGM",
      "alert": "OK",
      "vis_m": 9999,
      "fzfg": false,
      "metar_trigger": false,
      "taf_trigger": false,
      "metar": "METAR ENGM 211220Z 05004KT 9999 FEW003 SCT007 00/M02 Q0999 NOSIG",
      "taf": ""
    },
    {
      "icao": "ENHD",
      "alert": "OK",
      "vis_m": 9999,
      "fzfg": false,
      "metar_trigger": false,
      "taf_trigger": false,
      "metar": "METAR ENHD 211150Z 33012KT 9999 VCSH FEW019 SCT027 05/01 Q1006",
      "taf": "TAF ENHD 211100Z 2112/2121 34015KT 9999 FEW020 SCT040"
    },
    {
      "icao": "ENTC",
      "alert": "OK",
      "vis_m": 9999,
      "fzfg": false,
      "metar_trigger": false,
      "taf_trigger": false,
      "metar": "METAR ENTC 211220Z 19008KT 9999 -SHSN SCT010 BKN021 M07/M10 Q0997 NOSIG RMK WIND 2600FT 32016KT",
      "taf": "TAF ENTC 211100Z 2112/2212 18012KT 9999 SCT020 BKN030"
    },
    {
      "icao": "ENTO",
      "alert": "OK",
      "vis_m": 9999,
      "fzfg": false,
      "metar_trigger": false,
      "taf_trigger": false,
      "metar": "METAR ENTO 211220Z 24005KT 210V290 9999 BKN004 02/02 Q0999 TEMPO SCT010",
      "taf": ""
    },
    {
      "icao": "ENVA",
      "alert": "OK",
      "vis_m": 9999,
      "fzfg": false,
      "metar_trigger": false,
      "taf_trigger": false,
      "metar": "METAR ENVA 211220Z VRB02KT 9999 FEW018 SCT023 BKN052 00/M01 Q1002 NOSIG RMK WIND 670FT 30005KT",
      "taf": "TAF ENVA 211100Z 2112/2212 27008KT 9999 FEW020 SCT040"
    },
    {
      "icao": "ENZV",
      "alert": "OK",
      "vis_m": 9999,
      "fzfg": false,
      "metar_trigger": false,
      "taf_trigger": false,
      "metar": "METAR ENZV 211220Z 34013KT 9999 FEW024 06/01 Q1007 NOSIG",
      "taf": "TAF ENZV 211100Z 2112/2212 33012KT 9999 FEW008 SCT040"
    },
    {
      "icao": "EPGD",
      "alert": "OK",
      "vis_m": 9999,
      "fzfg": false,
      "metar_trigger": false,
      "taf_trigger": false,
      "metar": "METAR EPGD 211200Z 20009KT 9999 OVC010 M01/M04 Q1010",
      "taf": "TAF EPGD 211130Z 2112/2212 20012KT 6000 OVC012"
    },
    {
      "icao": "EPKK",
      "alert": "OK",
      "vis_m": 9999,
      "fzfg": false,
      "metar_trigger": false,
      "taf_trigger": false,
      "metar": "METAR EPKK 211200Z 24003KT 9999 OVC022 02/M07 Q1018",
      "taf": "TAF EPKK 211130Z 2112/2212 22004KT 9999 BKN030"
    },
    {
      "icao": "EPKT",
      "alert": "OK",
      "vis_m": 9999,
      "fzfg": false,
      "metar_trigger": false,
      "taf_trigger": false,
      "metar": "METAR EPKT 211200Z 22013KT 9999 -SN OVC018 01/M03 Q1018",
      "taf": "TAF EPKT 211130Z 2112/2212 22012KT 9999 BKN026"
    },
    {
      "icao": "EPLB",
      "alert": "OK",
      "vis_m": 9999,
      "fzfg": false,
      "metar_trigger": false,
      "taf_trigger": false,
      "metar": "METAR EPLB 211200Z 17008KT CAVOK 00/M08 Q1019",
      "taf": "TAF EPLB 211130Z 2112/2212 17008KT CAVOK"
    },
    {
      "icao": "EPMO",
      "alert": "OK",
      "vis_m": 9999,
      "fzfg": false,
      "metar_trigger": false,
      "taf_trigger": false,
      "metar": "METAR EPMO 211200Z 17009KT CAVOK M02/M08 Q1017",
      "taf": "TAF EPMO 211130Z 2112/2212 16009KT CAVOK"
    },
    {
      "icao": "EPPO",
      "alert": "OK",
      "vis_m": 2500,
      "fzfg": false,
      "metar_trigger": false,
      "taf_trigger": false,
      "metar": "METAR EPPO 211200Z 22008KT 2500 -DZ BR OVC004 02/01 Q1014",
      "taf": "TAF EPPO 211130Z 2112/2212 20009KT 5000 -DZRA BR OVC005"
    },
    {
      "icao": "EPRA",
      "alert": "OK",
      "vis_m": 9999,
      "fzfg": false,
      "metar_trigger": false,
      "taf_trigger": false,
      "metar": "METAR EPRA 211200Z 20008KT 160V220 CAVOK 02/M09 Q1018",
      "taf": "TAF EPRA 211130Z 2112/2121 18010KT CAVOK"
    },
    {
      "icao": "EPRZ",
      "alert": "OK",
      "vis_m": 9999,
      "fzfg": false,
      "metar_trigger": false,
      "taf_trigger": false,
      "metar": "METAR EPRZ 211200Z 07008KT CAVOK M00/M07 Q1020",
      "taf": "TAF EPRZ 211130Z 2112/2212 09010KT 9999 BKN033"
    },
    {
      "icao": "EPSC",
      "alert": "OK",
      "vis_m": 4700,
      "fzfg": false,
      "metar_trigger": false,
      "taf_trigger": false,
      "metar": "METAR EPSC 211200Z 23006KT 190V260 4700 -RA BR OVC002 04/04 Q1011",
      "taf": "TAF EPSC 211130Z 2112/2212 21006KT 6000 BKN005 OVC010"
    },
    {
      "icao": "EPSY",
      "alert": "OK",
      "vis_m": 9999,
      "fzfg": false,
      "metar_trigger": false,
      "taf_trigger": false,
      "metar": "METAR EPSY 211200Z 17012KT CAVOK M04/M09 Q1015",
      "taf": "TAF EPSY 211130Z 2112/2121 19010KT CAVOK"
    },
    {
      "icao": "EPWA",
      "alert": "OK",
      "vis_m": 9999,
      "fzfg": false,
      "metar_trigger": false,
      "taf_trigger": false,
      "metar": "METAR EPWA 211200Z 17008KT CAVOK M01/M07 Q1017 NOSIG",
      "taf": "TAF EPWA 211130Z 2112/2212 19008KT CAVOK"
    },
    {
      "icao": "EPWR",
      "alert": "OK",
      "vis_m": 9999,
      "fzfg": false,
      "metar_trigger": false,
      "taf_trigger": false,
      "metar": "METAR EPWR 211200Z 23009KT 9999 -RA OVC021 04/01 Q1016",
      "taf": "TAF EPWR 211130Z 2112/2212 21007KT 9999 BKN020"
    },
    {
      "icao": "ESGG",
      "alert": "OK",
      "vis_m": 2500,
      "fzfg": false,
      "metar_trigger": false,
      "taf_trigger": false,
      "metar": "METAR ESGG 211220Z 20010KT 2500 -RA VV004 00/00 Q1002",
      "taf": "TAF ESGG 211130Z 2112/2212 18010KT 6000 -RASN OVC003"
    },
    {
      "icao": "ESKN",
      "alert": "OK",
      "vis_m": 9999,
      "fzfg": false,
      "metar_trigger": false,
      "taf_trigger": false,
      "metar": "METAR ESKN 211220Z 16007KT 9999 BKN011 01/M01 Q1002",
      "taf": "TAF ESKN 211130Z 2112/2212 18007KT 9999 SCT010 BKN025"
    },
    {
      "icao": "ESMS",
      "alert": "OK",
      "vis_m": 500,
      "fzfg": false,
      "metar_trigger": false,
      "taf_trigger": false,
      "metar": "METAR ESMS 211220Z 25011KT 0500 R17/0800N R35/0700N FG OVC002 03/03 Q1006",
      "taf": ""
    },
    {
      "icao": "ESSA",
      "alert": "OK",
      "vis_m": 9999,
      "fzfg": false,
      "metar_trigger": false,
      "taf_trigger": false,
      "metar": "METAR ESSA 211220Z 20011KT 9999 BKN012 00/M02 Q1001 NOSIG",
      "taf": "TAF ESSA 211130Z 2112/2212 19009KT 9999 OVC013"
    },
    {
      "icao": "EYKA",
      "alert": "OK",
      "vis_m": 9999,
      "fzfg": false,
      "metar_trigger": false,
      "taf_trigger": false,
      "metar": "METAR EYKA 211220Z 16011KT 130V200 9999 OVC043 M01/M10 Q1015",
      "taf": "TAF EYKA 211109Z 2112/2212 17010KT 9000 NSC"
    },
    {
      "icao": "EYPA",
      "alert": "OK",
      "vis_m": 9999,
      "fzfg": false,
      "metar_trigger": false,
      "taf_trigger": false,
      "metar": "METAR EYPA 211220Z 17013KT 9999 OVC026 M02/M09 Q1011",
      "taf": "TAF EYPA 211106Z 2112/2212 17013G23KT 9000 OVC015"
    },
    {
      "icao": "EYVI",
      "alert": "OK",
      "vis_m": 9999,
      "fzfg": false,
      "metar_trigger": false,
      "taf_trigger": false,
      "metar": "METAR EYVI 211220Z 16015KT CAVOK M02/M11 Q1016 NOSIG",
      "taf": "TAF EYVI 211100Z 2112/2212 18012KT 9000 NSC"
    },
    {
      "icao": "GCFV",
      "alert": "OK",
      "vis_m": 9999,
      "fzfg": false,
      "metar_trigger": false,
      "taf_trigger": false,
      "metar": "METAR GCFV 211200Z 03009KT 9999 FEW011 19/14 Q1024",
      "taf": "TAF GCFV 210800Z 2109/2209 04008KT 9999 FEW020 TX23/2114Z TN18/2206Z"
    },
    {
      "icao": "GCLP",
      "alert": "OK",
      "vis_m": 9999,
      "fzfg": false,
      "metar_trigger": false,
      "taf_trigger": false,
      "metar": "METAR GCLP 211200Z 03017KT 9999 FEW020 20/14 Q1023 NOSIG",
      "taf": "TAF GCLP 210800Z 2109/2209 03015KT 9999 FEW020 TX23/2114Z TN19/2206Z"
    },
    {
      "icao": "GCTS",
      "alert": "OK",
      "vis_m": 9999,
      "fzfg": false,
      "metar_trigger": false,
      "taf_trigger": false,
      "metar": "METAR GCTS 211200Z 08015KT CAVOK 22/13 Q1023 NOSIG",
      "taf": "TAF GCTS 210800Z 2109/2209 09013KT CAVOK TX26/2114Z TN18/2206Z"
    },
    {
      "icao": "GMAD",
      "alert": "OK",
      "vis_m": 9999,
      "fzfg": false,
      "metar_trigger": false,
      "taf_trigger": false,
      "metar": "METAR GMAD 211200Z 05008KT 020V080 CAVOK 29/06 Q1023 NOSIG",
      "taf": "TAF GMAD 211100Z 2112/2218 08006KT CAVOK"
    },
    {
      "icao": "GMMN",
      "alert": "OK",
      "vis_m": 9999,
      "fzfg": false,
      "metar_trigger": false,
      "taf_trigger": false,
      "metar": "METAR GMMN 211200Z 17003KT 090V250 CAVOK 22/15 Q1025 NOSIG",
      "taf": "TAF GMMN 211100Z 2112/2218 VRB02KT CAVOK"
    },
    {
      "icao": "GMMX",
      "alert": "OK",
      "vis_m": 9999,
      "fzfg": false,
      "metar_trigger": false,
      "taf_trigger": false,
      "metar": "METAR GMMX 211200Z 06003KT 010V120 CAVOK 27/07 Q1025 NOSIG",
      "taf": "TAF GMMX 211100Z 2112/2218 06006KT 8000 NSC"
    },
    {
      "icao": "HEGN",
      "alert": "OK",
      "vis_m": 9999,
      "fzfg": false,
      "metar_trigger": false,
      "taf_trigger": false,
      "metar": "METAR HEGN 211200Z 36013KT CAVOK 24/14 Q1014 NOSIG",
      "taf": "TAF HEGN 211100Z 2112/2218 34015KT CAVOK"
    },
    {
      "icao": "HEMA",
      "alert": "OK",
      "vis_m": 9999,
      "fzfg": false,
      "metar_trigger": false,
      "taf_trigger": false,
      "metar": "METAR HEMA 211200Z 01014KT CAVOK 25/13 Q1013 NOSIG",
      "taf": "TAF HEMA 211100Z 2112/2218 35016KT CAVOK"
    },
    {
      "icao": "HESH",
      "alert": "OK",
      "vis_m": null,
      "fzfg": false,
      "metar_trigger": false,
      "taf_trigger": false,
      "metar": "",
      "taf": "TAF HESH 211100Z 2112/2218 01014KT CAVOK"
    },
    {
      "icao": "HESX",
      "alert": "OK",
      "vis_m": 9999,
      "fzfg": false,
      "metar_trigger": false,
      "taf_trigger": false,
      "metar": "METAR HESX 211200Z 34008KT CAVOK 19/05 Q1017 NOSIG",
      "taf": "TAF HESX 211100Z 2112/2218 30006KT 6000 NSC"
    },
    {
      "icao": "LATI",
      "alert": "OK",
      "vis_m": 9999,
      "fzfg": false,
      "metar_trigger": false,
      "taf_trigger": false,
      "metar": "METAR LATI 211220Z 31010KT 9999 FEW050 15/05 Q1016 NOSIG",
      "taf": "TAF LATI 211100Z 2112/2212 33010KT 9999 FEW050 TX15/2112Z TN03/2205Z"
    },
    {
      "icao": "LBPD",
      "alert": "OK",
      "vis_m": 9999,
      "fzfg": false,
      "metar_trigger": false,
      "taf_trigger": false,
      "metar": "METAR LBPD 211230Z AUTO 29012KT 9999 -RA FEW011/// BKN031/// OVC038/// 04/04 Q1019 NOSIG",
      "taf": "TAF LBPD 211100Z 2112/2212 29014KT 5000 RA BKN008 OVC020"
    },
    {
      "icao": "LBSF",
      "alert": "OK",
      "vis_m": 6000,
      "fzfg": false,
      "metar_trigger": false,
      "taf_trigger": false,
      "metar": "METAR LBSF 211230Z 29008KT 6000 -SN FEW008 BKN029 OVC045 M01/M03 Q1019 NOSIG",
      "taf": "TAF LBSF 211100Z 2112/2212 02010KT 5000 -SN SCT012 BKN030"
    },
    {
      "icao": "LBWN",
      "alert": "OK",
      "vis_m": 9999,
      "fzfg": false,
      "metar_trigger": false,
      "taf_trigger": false,
      "metar": "METAR LBWN 211230Z 35014KT 320V040 9999 -RA SCT008 BKN025 OVC045 03/02 Q1019 TEMPO RA",
      "taf": "TAF LBWN 211100Z 2112/2212 36014G26KT 9999 OVC008"
    },
    {
      "icao": "LCLK",
      "alert": "OK",
      "vis_m": 9999,
      "fzfg": false,
      "metar_trigger": false,
      "taf_trigger": false,
      "metar": "METAR LCLK 211200Z 10007KT 9999 FEW030 21/16 Q1013 NOSIG",
      "taf": "TAF LCLK 211130Z 2112/2212 11008KT 9999 FEW025"
    },
    {
      "icao": "LCPH",
      "alert": "OK",
      "vis_m": 9999,
      "fzfg": false,
      "metar_trigger": false,
      "taf_trigger": false,
      "metar": "METAR LCPH 211200Z 31013KT 260V320 9999 FEW030 19/12 Q1015 NOSIG",
      "taf": "TAF LCPH 211130Z 2112/2212 28014KT 9999 FEW020"
    },
    {
      "icao": "LEAL",
      "alert": "OK",
      "vis_m": 9999,
      "fzfg": false,
      "metar_trigger": false,
      "taf_trigger": false,
      "metar": "METAR LEAL 211200Z 08006KT 050V120 CAVOK 18/08 Q1032 NOSIG",
      "taf": "TAF LEAL 211100Z 2112/2212 16007KT CAVOK TX19/2113Z TN05/2206Z"
    },
    {
      "icao": "LEBB",
      "alert": "OK",
      "vis_m": 9999,
      "fzfg": false,
      "metar_trigger": false,
      "taf_trigger": false,
      "metar": "METAR LEBB 211200Z 09005KT 030V140 CAVOK 15/06 Q1031 NOSIG",
      "taf": "TAF LEBB 211100Z 2112/2212 12005KT CAVOK TX18/2115Z TN05/2207Z"
    },
    {
      "icao": "LEBL",
      "alert": "OK",
      "vis_m": 9999,
      "fzfg": false,
      "metar_trigger": false,
      "taf_trigger": false,
      "metar": "METAR LEBL 211200Z 23004KT 160V280 CAVOK 15/07 Q1030 NOSIG",
      "taf": "TAF LEBL 211100Z 2112/2212 22010KT 9999 FEW020 TX16/2113Z TN06/2207Z"
    },
    {
      "icao": "LECH",
      "alert": "OK",
      "vis_m": 9000,
      "fzfg": false,
      "metar_trigger": false,
      "taf_trigger": false,
      "metar": "METAR LECH 211200Z AUTO 15005KT 9000 NCD 15/08 Q1031",
      "taf": ""
    },
    {
      "icao": "LEMD",
      "alert": "OK",
      "vis_m": 9999,
      "fzfg": false,
      "metar_trigger": false,
      "taf_trigger": false,
      "metar": "METAR LEMD 211200Z 29001KT CAVOK 15/01 Q1031 NOSIG",
      "taf": "TAF LEMD 211100Z 2112/2218 VRB04KT CAVOK TX17/2115Z TN01/2207Z"
    },
    {
      "icao": "LEMG",
      "alert": "OK",
      "vis_m": 9999,
      "fzfg": false,
      "metar_trigger": false,
      "taf_trigger": false,
      "metar": "METAR LEMG 211200Z 11006KT 070V170 CAVOK 16/08 Q1031 NOSIG",
      "taf": "TAF LEMG 211100Z 2112/2212 29005KT CAVOK TX20/2114Z TN10/2207Z"
    },
    {
      "icao": "LEVC",
      "alert": "OK",
      "vis_m": 9999,
      "fzfg": false,
      "metar_trigger": false,
      "taf_trigger": false,
      "metar": "METAR LEVC 211200Z 12003KT 010V180 CAVOK 18/02 Q1031 NOSIG",
      "taf": "TAF LEVC 211100Z 2112/2212 11010KT CAVOK TX18/2114Z TN06/2206Z"
    },
    {
      "icao": "LEXJ",
      "alert": "OK",
      "vis_m": 9999,
      "fzfg": false,
      "metar_trigger": false,
      "taf_trigger": false,
      "metar": "METAR LEXJ 211200Z 07003KT 020V120 CAVOK 13/08 Q1031",
      "taf": "TAF LEXJ 210800Z 2109/2209 VRB03KT CAVOK TX17/2114Z TN07/2207Z"
    },
    {
      "icao": "LEZG",
      "alert": "OK",
      "vis_m": 9999,
      "fzfg": false,
      "metar_trigger": false,
      "taf_trigger": false,
      "metar": "METAR LEZG 211200Z 30005KT 240V350 CAVOK 13/04 Q1032 NOSIG",
      "taf": "TAF LEZG 211100Z 2112/2212 32006KT CAVOK TX16/2114Z TN03/2206Z"
    },
    {
      "icao": "LEZL",
      "alert": "OK",
      "vis_m": 9999,
      "fzfg": false,
      "metar_trigger": false,
      "taf_trigger": false,
      "metar": "METAR LEZL 211200Z 07005KT 030V110 CAVOK 19/08 Q1029 NOSIG",
      "taf": "TAF LEZL 210800Z 2109/2209 05007KT CAVOK TX22/2115Z TN08/2207Z"
    },
    {
      "icao": "LFBD",
      "alert": "OK",
      "vis_m": 9999,
      "fzfg": false,
      "metar_trigger": false,
      "taf_trigger": false,
      "metar": "METAR LFBD 211200Z AUTO 25006KT 9999 FEW026 OVC033 14/08 Q1033 NOSIG",
      "taf": "TAF LFBD 211100Z 2112/2218 VRB03KT 9999 BKN035 TX16/2214Z TN04/2206Z"
    },
    {
      "icao": "LFLL",
      "alert": "OK",
      "vis_m": 9999,
      "fzfg": false,
      "metar_trigger": false,
      "taf_trigger": false,
      "metar": "METAR LFLL 211200Z 08004KT 020V130 9999 FEW013 BKN033 12/07 Q1031 NOSIG",
      "taf": "TAF LFLL 211100Z 2112/2218 06005KT 9999 BKN030"
    },
    {
      "icao": "LFLS",
      "alert": "OK",
      "vis_m": 9999,
      "fzfg": false,
      "metar_trigger": false,
      "taf_trigger": false,
      "metar": "METAR LFLS 211200Z AUTO 01007KT 330V040 9999 BKN025 BKN038 11/07 Q1030 NOSIG",
      "taf": "TAF LFLS 210800Z 2109/2209 09005KT 9999 BKN025 BKN040"
    },
    {
      "icao": "LFMN",
      "alert": "OK",
      "vis_m": 9999,
      "fzfg": false,
      "metar_trigger": false,
      "taf_trigger": false,
      "metar": "METAR LFMN 211200Z 14003KT CAVOK 16/09 Q1023 NOSIG",
      "taf": "TAF LFMN 210800Z 2109/2215 34010KT CAVOK"
    },
    {
      "icao": "LFOB",
      "alert": "OK",
      "vis_m": 9999,
      "fzfg": false,
      "metar_trigger": false,
      "taf_trigger": false,
      "metar": "METAR LFOB 211200Z AUTO 26013KT 220V280 9999 BKN026 14/09 Q1025 TEMPO 25015G25KT 4000 -RADZ BKN012 OVC020",
      "taf": "TAF LFOB 211100Z 2112/2212 26012KT 9999 OVC020"
    },
    {
      "icao": "LFPO",
      "alert": "OK",
      "vis_m": 9999,
      "fzfg": false,
      "metar_trigger": false,
      "taf_trigger": false,
      "metar": "METAR LFPO 211200Z 25015KT 220V280 9999 BKN025 14/09 Q1026 NOSIG",
      "taf": "TAF LFPO 211100Z 2112/2218 25010KT 9999 BKN020"
    },
    {
      "icao": "LFSB",
      "alert": "OK",
      "vis_m": 9999,
      "fzfg": false,
      "metar_trigger": false,
      "taf_trigger": false,
      "metar": "METAR LFSB 211200Z AUTO 25014KT 9999 FEW045 BKN054 OVC066 10/07 Q1027 TEMPO 26020G35KT",
      "taf": "TAF LFSB 211100Z 2112/2212 25012KT 9999 SCT023 OVC070"
    },
    {
      "icao": "LGAV",
      "alert": "OK",
      "vis_m": 9999,
      "fzfg": false,
      "metar_trigger": false,
      "taf_trigger": false,
      "metar": "METAR LGAV 211220Z 16006KT 110V230 9999 FEW020TCU SCT040 14/09 Q1013 NOSIG",
      "taf": "TAF LGAV 211100Z 2112/2212 01010KT 9999 SCT025 SCT070"
    },
    {
      "icao": "LGTS",
      "alert": "OK",
      "vis_m": 9999,
      "fzfg": false,
      "metar_trigger": false,
      "taf_trigger": false,
      "metar": "METAR LGTS 211220Z 31017KT 9999 FEW020 14/07 Q1014 NOSIG",
      "taf": "TAF LGTS 211100Z 2112/2212 34013KT 9999 FEW030"
    },
    {
      "icao": "LHBP",
      "alert": "OK",
      "vis_m": 9999,
      "fzfg": false,
      "metar_trigger": false,
      "taf_trigger": false,
      "metar": "METAR LHBP 211200Z 18003KT 140V220 CAVOK 05/M06 Q1022 NOSIG",
      "taf": "TAF LHBP 211115Z 2112/2212 20004KT CAVOK"
    },
    {
      "icao": "LHDC",
      "alert": "OK",
      "vis_m": 9999,
      "fzfg": false,
      "metar_trigger": false,
      "taf_trigger": false,
      "metar": "METAR LHDC 211145Z AUTO 23008KT 9999 -DZ OVC008 03/01 Q1023 NOSIG",
      "taf": "TAF LHDC 211115Z 2112/2121 22008KT 9999 SCT004 BKN030 OVC060"
    },
    {
      "icao": "LIBD",
      "alert": "OK",
      "vis_m": 9999,
      "fzfg": false,
      "metar_trigger": false,
      "taf_trigger": false,
      "metar": "METAR LIBD 211220Z 31011KT 270V340 9999 SCT030 13/05 Q1019",
      "taf": "TAF LIBD 211100Z 2112/2212 34016KT 9999 SCT030"
    },
    {
      "icao": "LIBG",
      "alert": "OK",
      "vis_m": 9999,
      "fzfg": false,
      "metar_trigger": false,
      "taf_trigger": false,
      "metar": "METAR LIBG 211150Z 33015KT CAVOK 14/06 Q1018",
      "taf": "TAF LIBG 211100Z 2112/2121 34013KT CAVOK"
    },
    {
      "icao": "LIBP",
      "alert": "OK",
      "vis_m": 9999,
      "fzfg": false,
      "metar_trigger": false,
      "taf_trigger": false,
      "metar": "METAR LIBP 211220Z AUTO 01011KT 9999 NCD 11/04 Q1023",
      "taf": "TAF LIBP 211100Z 2112/2212 34012KT 9999 SCT030"
    },
    {
      "icao": "LIBR",
      "alert": "OK",
      "vis_m": 9999,
      "fzfg": false,
      "metar_trigger": false,
      "taf_trigger": false,
      "metar": "METAR LIBR 211220Z 33022KT 9999 FEW020 SCT040 13/08 Q1017",
      "taf": "TAF LIBR 211100Z 2112/2212 32022G32KT 9999 SCT020"
    },
    {
      "icao": "LICA",
      "alert": "OK",
      "vis_m": 9999,
      "fzfg": false,
      "metar_trigger": false,
      "taf_trigger": false,
      "metar": "METAR LICA 211220Z AUTO 23008KT 9999 FEW022/// 15/10 Q1019",
      "taf": "TAF LICA 211100Z 2112/2212 28012KT 9999 FEW020"
    },
    {
      "icao": "LICC",
      "alert": "OK",
      "vis_m": 9999,
      "fzfg": false,
      "metar_trigger": false,
      "taf_trigger": false,
      "metar": "METAR LICC 211220Z 29011KT 260V320 9999 FEW025 SCT060 16/12 Q1019",
      "taf": "TAF LICC 211100Z 2112/2212 28012KT 9999 FEW040"
    },
    {
      "icao": "LICJ",
      "alert": "OK",
      "vis_m": 9999,
      "fzfg": false,
      "metar_trigger": false,
      "taf_trigger": false,
      "metar": "METAR LICJ 211220Z 32015KT 9999 SCT020 14/09 Q1022",
      "taf": "TAF LICJ 211100Z 2112/2212 33020G30KT 9999 FEW030"
    },
    {
      "icao": "LIMC",
      "alert": "OK",
      "vis_m": 9999,
      "fzfg": false,
      "metar_trigger": false,
      "taf_trigger": false,
      "metar": "METAR LIMC 211220Z 21006KT CAVOK 13/03 Q1023 NOSIG",
      "taf": "TAF LIMC 211100Z 2112/2218 22006KT CAVOK"
    },
    {
      "icao": "LIME",
      "alert": "OK",
      "vis_m": 9999,
      "fzfg": false,
      "metar_trigger": false,
      "taf_trigger": false,
      "metar": "METAR LIME 211220Z 22005KT 160V270 CAVOK 11/03 Q1023 NOSIG",
      "taf": "TAF LIME 211100Z 2112/2212 23006KT CAVOK"
    },
    {
      "icao": "LIMF",
      "alert": "OK",
      "vis_m": 9999,
      "fzfg": false,
      "metar_trigger": false,
      "taf_trigger": false,
      "metar": "METAR LIMF 211220Z 14003KT 070V220 CAVOK 13/05 Q1022",
      "taf": "TAF LIMF 211100Z 2112/2212 VRB05KT CAVOK"
    },
    {
      "icao": "LIMJ",
      "alert": "OK",
      "vis_m": 9999,
      "fzfg": false,
      "metar_trigger": false,
      "taf_trigger": false,
      "metar": "METAR LIMJ 211220Z 14006KT CAVOK 14/09 Q1023",
      "taf": "TAF LIMJ 211100Z 2112/2212 VRB05KT CAVOK"
    },
    {
      "icao": "LIPE",
      "alert": "OK",
      "vis_m": 9999,
      "fzfg": false,
      "metar_trigger": false,
      "taf_trigger": false,
      "metar": "METAR LIPE 211220Z VRB03KT CAVOK 14/04 Q1023",
      "taf": "TAF LIPE 211100Z 2112/2212 VRB05KT CAVOK"
    },
    {
      "icao": "LIPH",
      "alert": "OK",
      "vis_m": 9999,
      "fzfg": false,
      "metar_trigger": false,
      "taf_trigger": false,
      "metar": "METAR LIPH 211220Z 20005KT 140V240 9999 FEW030 12/05 Q1023",
      "taf": "TAF LIPH 211100Z 2112/2212 22006KT 9999 FEW040"
    },
    {
      "icao": "LIPQ",
      "alert": "OK",
      "vis_m": 9999,
      "fzfg": false,
      "metar_trigger": false,
      "taf_trigger": false,
      "metar": "METAR LIPQ 211220Z AUTO 01004KT 320V050 9999 FEW190/// 12/02 Q1023",
      "taf": "TAF LIPQ 211100Z 2112/2212 VRB06KT 9999 FEW030"
    },
    {
      "icao": "LIPR",
      "alert": "OK",
      "vis_m": 9999,
      "fzfg": false,
      "metar_trigger": false,
      "taf_trigger": false,
      "metar": "METAR LIPR 211220Z 02007KT CAVOK 12/04 Q1024",
      "taf": "TAF LIPR 211100Z 2112/2212 VRB06KT 9999 SCT030"
    },
    {
      "icao": "LIPX",
      "alert": "OK",
      "vis_m": 9999,
      "fzfg": false,
      "metar_trigger": false,
      "taf_trigger": false,
      "metar": "METAR LIPX 211220Z 21005KT 130V250 CAVOK 12/04 Q1023",
      "taf": "TAF LIPX 211100Z 2112/2212 VRB05KT CAVOK"
    },
    {
      "icao": "LIPY",
      "alert": "OK",
      "vis_m": 9999,
      "fzfg": false,
      "metar_trigger": false,
      "taf_trigger": false,
      "metar": "METAR LIPY 211220Z AUTO 32012KT 9999 FEW220/// 11/03 Q1024",
      "taf": "TAF LIPY 211100Z 2112/2212 35015KT 9999 SCT030"
    },
    {
      "icao": "LIPZ",
      "alert": "OK",
      "vis_m": 9999,
      "fzfg": false,
      "metar_trigger": false,
      "taf_trigger": false,
      "metar": "METAR LIPZ 211220Z 21006KT CAVOK 11/04 Q1023 NOSIG",
      "taf": "TAF LIPZ 211100Z 2112/2218 VRB05KT CAVOK"
    },
    {
      "icao": "LIRF",
      "alert": "OK",
      "vis_m": 9999,
      "fzfg": false,
      "metar_trigger": false,
      "taf_trigger": false,
      "metar": "METAR LIRF 211220Z 34008KT 300V020 CAVOK 14/04 Q1022 NOSIG",
      "taf": "TAF LIRF 211100Z 2112/2218 33012KT CAVOK"
    },
    {
      "icao": "LIRN",
      "alert": "OK",
      "vis_m": 9999,
      "fzfg": false,
      "metar_trigger": false,
      "taf_trigger": false,
      "metar": "METAR LIRN 211220Z 02007KT 300V060 CAVOK 14/04 Q1020 NOSIG",
      "taf": "TAF LIRN 211100Z 2112/2212 34010KT 9999 FEW030"
    },
    {
      "icao": "LIRP",
      "alert": "OK",
      "vis_m": 9999,
      "fzfg": false,
      "metar_trigger": false,
      "taf_trigger": false,
      "metar": "METAR LIRP 211215Z 27006KT CAVOK 15/06 Q1024 NOSIG",
      "taf": "TAF LIRP 211100Z 2112/2212 29005KT CAVOK"
    },
    {
      "icao": "LIRZ",
      "alert": "OK",
      "vis_m": 9999,
      "fzfg": false,
      "metar_trigger": false,
      "taf_trigger": false,
      "metar": "METAR LIRZ 211220Z AUTO 06006KT 350V110 9999 NCD 12/02 Q1022",
      "taf": "TAF LIRZ 211100Z 2112/2212 01010KT 9999 FEW030"
    },
    {
      "icao": "LJLJ",
      "alert": "OK",
      "vis_m": 9999,
      "fzfg": false,
      "metar_trigger": false,
      "taf_trigger": false,
      "metar": "METAR LJLJ 211200Z 17001KT 9999 FEW020 BKN130 06/M00 Q1023 NOSIG",
      "taf": "TAF LJLJ 211100Z 2112/2212 VRB02KT 9999 FEW025"
    },
    {
      "icao": "LKMT",
      "alert": "OK",
      "vis_m": 7000,
      "fzfg": false,
      "metar_trigger": false,
      "taf_trigger": false,
      "metar": "METAR LKMT 211200Z 24014KT 7000 BKN022 OVC029 M01/M02 Q1020 NOSIG",
      "taf": "TAF LKMT 211100Z 2112/2212 23008KT 9999 SCT011 BKN040"
    },
    {
      "icao": "LKPR",
      "alert": "OK",
      "vis_m": 9999,
      "fzfg": false,
      "metar_trigger": false,
      "taf_trigger": false,
      "metar": "METAR LKPR 211200Z 24017KT 9999 FEW020 07/03 Q1018 NOSIG",
      "taf": "TAF LKPR 211100Z 2112/2218 24013KT 9999 SCT025"
    },
    {
      "icao": "LLBG",
      "alert": "OK",
      "vis_m": 9999,
      "fzfg": false,
      "metar_trigger": false,
      "taf_trigger": false,
      "metar": "METAR LLBG 211220Z 27012KT 9999 SCT025 21/14 Q1015 NOSIG",
      "taf": "TAF LLBG 211105Z 2112/2212 27010KT 9999 SCT025"
    },
    {
      "icao": "LMML",
      "alert": "OK",
      "vis_m": 9999,
      "fzfg": false,
      "metar_trigger": false,
      "taf_trigger": false,
      "metar": "METAR LMML 211215Z 29018KT 9999 FEW024 17/11 Q1021 NOSIG",
      "taf": "TAF LMML 211100Z 2112/2212 30015KT 9999 FEW018"
    },
    {
      "icao": "LOWW",
      "alert": "OK",
      "vis_m": 9999,
      "fzfg": false,
      "metar_trigger": false,
      "taf_trigger": false,
      "metar": "METAR LOWW 211220Z 17007KT 9999 FEW040 BKN044 01/M02 Q1022 BECMG FM1400 28010KT",
      "taf": "TAF LOWW 211115Z 2112/2218 20004KT 9999 FEW030 BKN040 TX06/2214Z TN01/2112Z"
    },
    {
      "icao": "LPFR",
      "alert": "OK",
      "vis_m": 9999,
      "fzfg": false,
      "metar_trigger": false,
      "taf_trigger": false,
      "metar": "METAR LPFR 211200Z 09012KT CAVOK 18/06 Q1028",
      "taf": "TAF LPFR 211100Z 2112/2212 07008KT CAVOK"
    },
    {
      "icao": "LPMA",
      "alert": "OK",
      "vis_m": 9999,
      "fzfg": false,
      "metar_trigger": false,
      "taf_trigger": false,
      "metar": "METAR LPMA 211200Z 04017KT 9999 FEW016 18/10 Q1027",
      "taf": "TAF LPMA 211100Z 2112/2212 03015KT 9999 SCT015"
    },
    {
      "icao": "LPPR",
      "alert": "OK",
      "vis_m": 9999,
      "fzfg": false,
      "metar_trigger": false,
      "taf_trigger": false,
      "metar": "METAR LPPR 211200Z VRB03KT CAVOK 16/07 Q1031",
      "taf": "TAF LPPR 211100Z 2112/2212 VRB02KT CAVOK"
    },
    {
      "icao": "LPPS",
      "alert": "OK",
      "vis_m": 9999,
      "fzfg": false,
      "metar_trigger": false,
      "taf_trigger": false,
      "metar": "METAR LPPS 211200Z 05011KT 020V080 9999 SCT015 SCT030 17/11 Q1027",
      "taf": "TAF LPPS 211100Z 2112/2218 06010KT 9999 SCT015 SCT030"
    },
    {
      "icao": "LPPT",
      "alert": "OK",
      "vis_m": 9999,
      "fzfg": false,
      "metar_trigger": false,
      "taf_trigger": false,
      "metar": "METAR LPPT 211200Z 06008KT 360V090 CAVOK 15/09 Q1030",
      "taf": "TAF LPPT 211100Z 2112/2218 06007KT CAVOK"
    },
    {
      "icao": "LQBK",
      "alert": "OK",
      "vis_m": 9999,
      "fzfg": false,
      "metar_trigger": false,
      "taf_trigger": false,
      "metar": "METAR LQBK 211200Z VRB03KT 9999 FEW017 04/M00 Q1025 NOSIG",
      "taf": "TAF LQBK 211100Z 2112/2212 30007KT 9999 SCT040 TX11/2212Z TNM01/2206Z"
    },
    {
      "icao": "LQSA",
      "alert": "OK",
      "vis_m": 9999,
      "fzfg": false,
      "metar_trigger": false,
      "taf_trigger": false,
      "metar": "METAR LQSA 211200Z 32004KT 280V340 9999 FEW018 SCT033 BKN050 02/M01 Q1022 NOSIG",
      "taf": "TAF LQSA 211100Z 2112/2212 29006KT 9999 BKN030 TX08/2212Z TNM01/2204Z"
    },
    {
      "icao": "LQTZ",
      "alert": "OK",
      "vis_m": 9999,
      "fzfg": false,
      "metar_trigger": false,
      "taf_trigger": false,
      "metar": "METAR LQTZ 211200Z 32005KT 290V010 9999 BKN010 OVC025 01/M00 Q1024",
      "taf": "TAF LQTZ 211100Z 2112/2212 30007KT 9999 SCT015 OVC030 TX10/2212Z TN00/2206Z"
    },
    {
      "icao": "LRBC",
      "alert": "OK",
      "vis_m": 8000,
      "fzfg": false,
      "metar_trigger": false,
      "taf_trigger": false,
      "metar": "METAR LRBC 211200Z 10003KT 050V140 8000 -SN FEW015 SCT026 OVC036 M01/M08 Q1026",
      "taf": "TAF LRBC 211100Z 2112/2121 VRB04KT 9999 BKN050"
    },
    {
      "icao": "LRBS",
      "alert": "OK",
      "vis_m": 1400,
      "fzfg": false,
      "metar_trigger": false,
      "taf_trigger": false,
      "metar": "METAR LRBS 211200Z 05008KT 020V080 1400 R07/P2000N -SN BR BKN006 BKN015 OVC035 M02/M04 Q1025 NOSIG",
      "taf": "TAF LRBS 211100Z 2112/2212 06012KT 3000 SN BR BKN010 OVC030"
    },
    {
      "icao": "LRBV",
      "alert": "OK",
      "vis_m": 2000,
      "fzfg": false,
      "metar_trigger": false,
      "taf_trigger": false,
      "metar": "METAR LRBV 211200Z 08007KT 2000 -SN BR SCT007 BKN030 OVC037 M03/M05 Q1022",
      "taf": "TAF LRBV 211100Z 2112/2121 08008KT 3000 -SN BR BKN015 OVC035"
    },
    {
      "icao": "LRCL",
      "alert": "OK",
      "vis_m": 9999,
      "fzfg": false,
      "metar_trigger": false,
      "taf_trigger": false,
      "metar": "METAR LRCL 211200Z 11006KT 9999 SCT029 OVC049 02/M03 Q1023",
      "taf": "TAF LRCL 211100Z 2112/2121 13007KT 9999 BKN015 OVC045"
    },
    {
      "icao": "LRCV",
      "alert": "OK",
      "vis_m": 1500,
      "fzfg": false,
      "metar_trigger": false,
      "taf_trigger": false,
      "metar": "METAR LRCV 211200Z 14004KT 1500 -SN BR SCT004 OVC018 M02/M03 Q1025",
      "taf": "TAF LRCV 211100Z 2112/2121 14005KT 3000 -SN BR BKN015 OVC025"
    },
    {
      "icao": "LRIA",
      "alert": "OK",
      "vis_m": 9999,
      "fzfg": false,
      "metar_trigger": false,
      "taf_trigger": false,
      "metar": "METAR LRIA 211200Z 11003KT 080V140 CAVOK M00/M04 Q1027",
      "taf": "TAF LRIA 211100Z 2112/2121 VRB04KT CAVOK"
    },
    {
      "icao": "LROP",
      "alert": "OK",
      "vis_m": 2000,
      "fzfg": false,
      "metar_trigger": false,
      "taf_trigger": false,
      "metar": "METAR LROP 211200Z 07011KT 2000 -SN BR SCT009 OVC031 M02/M03 Q1025 NOSIG",
      "taf": "TAF LROP 211100Z 2112/2212 06010KT 3000 SN BR BKN010 OVC030"
    },
    {
      "icao": "LRSB",
      "alert": "OK",
      "vis_m": 8000,
      "fzfg": false,
      "metar_trigger": false,
      "taf_trigger": false,
      "metar": "METAR LRSB 211200Z VRB02KT 8000 FEW007 SCT012 BKN018 00/M02 Q1022",
      "taf": "TAF LRSB 211100Z 2112/2212 VRB04KT 3000 -SN BR SCT020 OVC035"
    },
    {
      "icao": "LRSM",
      "alert": "OK",
      "vis_m": 9999,
      "fzfg": false,
      "metar_trigger": false,
      "taf_trigger": false,
      "metar": "METAR LRSM 211200Z AUTO 17010KT 9999 FEW017/// SCT021/// BKN027/// 04/00 Q1023",
      "taf": ""
    },
    {
      "icao": "LRSV",
      "alert": "OK",
      "vis_m": 9999,
      "fzfg": false,
      "metar_trigger": false,
      "taf_trigger": false,
      "metar": "METAR LRSV 211200Z 11012KT CAVOK M03/M07 Q1023",
      "taf": "TAF LRSV 211100Z 2112/2121 13010KT CAVOK"
    },
    {
      "icao": "LRTM",
      "alert": "OK",
      "vis_m": 9999,
      "fzfg": false,
      "metar_trigger": false,
      "taf_trigger": false,
      "metar": "METAR LRTM 211200Z 13004KT 060V170 9999 -SN FEW018 SCT028 BKN045 02/M02 Q1023",
      "taf": "TAF LRTM 211100Z 2112/2121 VRB04KT 9999 BKN030"
    },
    {
      "icao": "LRTR",
      "alert": "OK",
      "vis_m": 9999,
      "fzfg": false,
      "metar_trigger": false,
      "taf_trigger": false,
      "metar": "METAR LRTR 211200Z 21009KT 9999 BKN018 BKN026 04/02 Q1024",
      "taf": "TAF LRTR 211100Z 2112/2212 21010KT 9999 BKN025"
    },
    {
      "icao": "LTAC",
      "alert": "OK",
      "vis_m": 9999,
      "fzfg": false,
      "metar_trigger": false,
      "taf_trigger": false,
      "metar": "METAR LTAC 211150Z 17009KT 140V230 9999 FEW040 SCT100 13/M02 Q1014 NOSIG RMK RWY21C 18010KT 140V220 RWY03L 18007KT 120V240 RWY21R 18010KT 140V200 RWY03R 17009KT 130V200 RWY21L 17007KT 110V230",
      "taf": "TAF LTAC 211040Z 2112/2212 VRB02KT 9999 SCT040 SCT100"
    },
    {
      "icao": "LTFM",
      "alert": "OK",
      "vis_m": 9999,
      "fzfg": false,
      "metar_trigger": false,
      "taf_trigger": false,
      "metar": "METAR LTFM 211220Z 33015KT 9999 FEW005 SCT032 09/07 Q1014 NOSIG RMK RWY17L 32014KT RWY34L 33016KT RWY16R 32014KT RWY36 33015KT RWY18 33015KT",
      "taf": "TAF LTFM 211040Z 2112/2218 32017KT 9999 SCT008 SCT035 BKN100"
    },
    {
      "icao": "LUKK",
      "alert": "OK",
      "vis_m": 9999,
      "fzfg": false,
      "metar_trigger": false,
      "taf_trigger": false,
      "metar": "METAR LUKK 211200Z 09009KT CAVOK M02/M08 Q1027 NOSIG",
      "taf": "TAF LUKK 211123Z 2112/2212 03010KT 9999 BKN035"
    },
    {
      "icao": "LWOH",
      "alert": "OK",
      "vis_m": 9999,
      "fzfg": false,
      "metar_trigger": false,
      "taf_trigger": false,
      "metar": "METAR LWOH 211220Z 32008KT 280V360 9999 SCT040 11/03 Q1015",
      "taf": "TAF LWOH 211120Z 2112/2212 34006KT 9999 FEW020 BKN040"
    },
    {
      "icao": "LWSK",
      "alert": "OK",
      "vis_m": 9999,
      "fzfg": false,
      "metar_trigger": false,
      "taf_trigger": false,
      "metar": "METAR LWSK 211220Z 01019KT 340V040 9999 FEW025 BKN045 06/M01 Q1019 NOSIG",
      "taf": "TAF LWSK 211120Z 2112/2212 01015KT 9999 FEW025 BKN045"
    },
    {
      "icao": "LYBE",
      "alert": "OK",
      "vis_m": 9999,
      "fzfg": false,
      "metar_trigger": false,
      "taf_trigger": false,
      "metar": "METAR LYBE 211200Z 28008KT 9999 BKN008 02/M00 Q1025 NOSIG",
      "taf": "TAF LYBE 211100Z 2112/2212 27008KT 9999 BKN012 BKN027 TX08/2212Z TN00/2204Z"
    },
    {
      "icao": "LYNI",
      "alert": "OK",
      "vis_m": 9999,
      "fzfg": false,
      "metar_trigger": false,
      "taf_trigger": false,
      "metar": "METAR LYNI 211200Z 35005KT 310V030 9999 FEW027 BKN050 OVC090 02/M04 Q1023 NOSIG",
      "taf": "TAF LYNI 211100Z 2112/2212 01008KT 9999 SCT020 BKN047 TX05/2212Z TN00/2205Z"
    },
    {
      "icao": "LYPG",
      "alert": "OK",
      "vis_m": 9999,
      "fzfg": false,
      "metar_trigger": false,
      "taf_trigger": false,
      "metar": "METAR LYPG 211200Z 10003KT 360V150 9999 FEW040 14/04 Q1017 NOSIG",
      "taf": "TAF LYPG 211100Z 2112/2212 16005KT 9999 FEW050 TX15/2113Z TN07/2205Z"
    },
    {
      "icao": "LZIB",
      "alert": "OK",
      "vis_m": 9999,
      "fzfg": false,
      "metar_trigger": false,
      "taf_trigger": false,
      "metar": "METAR LZIB 211200Z 23004KT 9999 -RA BKN022 BKN034 OVC048 01/M02 Q1023 NOSIG",
      "taf": "TAF LZIB 211115Z 2112/2212 VRB02KT 9999 SCT020 BKN030"
    },
    {
      "icao": "LZKZ",
      "alert": "OK",
      "vis_m": 9999,
      "fzfg": false,
      "metar_trigger": false,
      "taf_trigger": false,
      "metar": "METAR LZKZ 211200Z 16004KT 9999 FEW006 BKN049 01/M01 Q1021 NOSIG",
      "taf": ""
    },
    {
      "icao": "LZTT",
      "alert": "OK",
      "vis_m": 9999,
      "fzfg": false,
      "metar_trigger": false,
      "taf_trigger": false,
      "metar": "METAR LZTT 211200Z 15006KT 9999 FEW066 03/M05 Q1018 NOSIG",
      "taf": "TAF LZTT 211115Z 2112/2212 VRB02KT 9999 FEW050"
    },
    {
      "icao": "OEJN",
      "alert": "OK",
      "vis_m": 9999,
      "fzfg": false,
      "metar_trigger": false,
      "taf_trigger": false,
      "metar": "METAR OEJN 211200Z 25008KT CAVOK 30/18 Q1011 NOSIG",
      "taf": "TAF OEJN 211100Z 2112/2218 25010KT CAVOK"
    },
    {
      "icao": "OEMA",
      "alert": "OK",
      "vis_m": 9999,
      "fzfg": false,
      "metar_trigger": false,
      "taf_trigger": false,
      "metar": "METAR OEMA 211200Z 14010KT CAVOK 32/M07 Q1016 NOSIG",
      "taf": "TAF OEMA 211100Z 2112/2218 09010KT 7000 NSC"
    },
    {
      "icao": "OJAI",
      "alert": "OK",
      "vis_m": 5000,
      "fzfg": false,
      "metar_trigger": false,
      "taf_trigger": false,
      "metar": "METAR OJAI 211200Z 16006KT 5000 HZ NSC 24/01 Q1015 NOSIG",
      "taf": "TAF OJAI 211100Z 2112/2218 24012KT 5000 HZ NSC"
    },
    {
      "icao": "OMAA",
      "alert": "OK",
      "vis_m": 9999,
      "fzfg": false,
      "metar_trigger": false,
      "taf_trigger": false,
      "metar": "METAR OMAA 211230Z 33016KT CAVOK 29/08 Q1013 NOSIG",
      "taf": "TAF OMAA 211100Z 2112/2218 34012KT 8000 NSC"
    },
    {
      "icao": "OMDB",
      "alert": "OK",
      "vis_m": 9999,
      "fzfg": false,
      "metar_trigger": false,
      "taf_trigger": false,
      "metar": "METAR OMDB 211230Z 34012KT CAVOK 29/09 Q1014 NOSIG",
      "taf": "TAF OMDB 211100Z 2112/2218 33012KT 8000 NSC"
    },
    {
      "icao": "UAAA",
      "alert": "OK",
      "vis_m": 9999,
      "fzfg": false,
      "metar_trigger": false,
      "taf_trigger": false,
      "metar": "METAR UAAA 211200Z 20004MPS 9999 SCT064CB BKN100 07/02 Q1029 NOSIG",
      "taf": "TAF UAAA 211102Z 2112/2212 20003G08MPS 3100 BR FU SCT011 BKN100 TX08/2209Z TNM03/2201Z"
    },
    {
      "icao": "UBBB",
      "alert": "OK",
      "vis_m": 9999,
      "fzfg": false,
      "metar_trigger": false,
      "taf_trigger": false,
      "metar": "METAR UBBB 211200Z 33014KT 9999 SCT029 10/04 Q1021 NOSIG",
      "taf": "TAF UBBB 211058Z 2112/2212 32014KT 9999 SCT012 SCT025 TX10/2112Z TN05/2201Z"
    },
    {
      "icao": "UDSG",
      "alert": "OK",
      "vis_m": 9999,
      "fzfg": false,
      "metar_trigger": false,
      "taf_trigger": false,
      "metar": "METAR UDSG 211200Z 25006KT 9999 NSC 05/M03 Q1024 NOSIG",
      "taf": "TAF UDSG 211058Z 2112/2212 VRB06KT 9999 FEW040"
    },
    {
      "icao": "UDYZ",
      "alert": "OK",
      "vis_m": 9999,
      "fzfg": false,
      "metar_trigger": false,
      "taf_trigger": false,
      "metar": "METAR UDYZ 211200Z 10003KT 060V140 9999 NSC 13/M03 Q1022 NOSIG",
      "taf": "TAF UDYZ 211100Z 2112/2212 VRB04KT 9999 FEW050"
    },
    {
      "icao": "UGKO",
      "alert": "OK",
      "vis_m": 9999,
      "fzfg": false,
      "metar_trigger": false,
      "taf_trigger": false,
      "metar": "METAR UGKO 211200Z 10011KT CAVOK 21/M01 Q1014 NOSIG",
      "taf": "TAF UGKO 211100Z 2112/2212 08017KT CAVOK TX21/2112Z TN10/2119Z"
    }
  ]
}