{
  "ts_utc": "2026-05-30T22:42:57Z",
  "threshold_m": 150,
  "source": "stations_override.txt (ICAO list) + aviationweather.gov (METAR/TAF raw)",
  "station_count": 159,
  "stations": [
    {
      "icao": "BIKF",
      "alert": "OK",
      "vis_m": 3000,
      "fzfg": false,
      "metar_trigger": false,
      "taf_trigger": false,
      "metar": "METAR BIKF 302230Z 07007KT 3000 -DZRA BR BKN010 OVC018 08/08 Q1006",
      "taf": "TAF BIKF 302242Z 3100/0100 07008KT 9999 -RA FEW018 BKN040 TX12/3112Z TN07/3100Z"
    },
    {
      "icao": "BKPR",
      "alert": "OK",
      "vis_m": 9999,
      "fzfg": false,
      "metar_trigger": false,
      "taf_trigger": false,
      "metar": "METAR BKPR 302230Z 01004KT 9999 SCT085 14/10 Q1017 NOSIG",
      "taf": "TAF BKPR 301730Z 3018/3118 29008KT CAVOK"
    },
    {
      "icao": "EBCI",
      "alert": "OK",
      "vis_m": 9999,
      "fzfg": false,
      "metar_trigger": false,
      "taf_trigger": false,
      "metar": "METAR EBCI 302220Z 17004KT 130V210 9999 -TSRA FEW025CB 17/15 Q1016 TEMPO 15015G27KT 2500 TSRA",
      "taf": "TAF EBCI 301700Z 3018/3124 VRB04KT 9999 FEW040CB"
    },
    {
      "icao": "EDDB",
      "alert": "OK",
      "vis_m": 9999,
      "fzfg": false,
      "metar_trigger": false,
      "taf_trigger": false,
      "metar": "METAR EDDB 302220Z AUTO 28006KT 9999 FEW045 16/12 Q1015 NOSIG",
      "taf": "TAF EDDB 301700Z 3018/3118 30012KT CAVOK"
    },
    {
      "icao": "EDDH",
      "alert": "OK",
      "vis_m": 9999,
      "fzfg": false,
      "metar_trigger": false,
      "taf_trigger": false,
      "metar": "METAR EDDH 302220Z AUTO 32003KT CAVOK 11/10 Q1016 NOSIG",
      "taf": "TAF EDDH 301700Z 3018/3124 30011KT CAVOK"
    },
    {
      "icao": "EDDK",
      "alert": "OK",
      "vis_m": 9999,
      "fzfg": false,
      "metar_trigger": false,
      "taf_trigger": false,
      "metar": "METAR EDDK 302220Z AUTO 12003KT 070V150 CAVOK 20/17 Q1016 NOSIG",
      "taf": "TAF EDDK 301700Z 3018/3124 VRB03KT CAVOK"
    },
    {
      "icao": "EDDN",
      "alert": "OK",
      "vis_m": 9999,
      "fzfg": false,
      "metar_trigger": false,
      "taf_trigger": false,
      "metar": "METAR EDDN 302220Z AUTO 27001KT CAVOK 18/13 Q1017",
      "taf": ""
    },
    {
      "icao": "EDDS",
      "alert": "OK",
      "vis_m": 9999,
      "fzfg": false,
      "metar_trigger": false,
      "taf_trigger": false,
      "metar": "METAR EDDS 302220Z AUTO 28003KT CAVOK 19/12 Q1018",
      "taf": "TAF EDDS 301700Z 3018/3118 01006KT CAVOK"
    },
    {
      "icao": "EDFH",
      "alert": "OK",
      "vis_m": 9999,
      "fzfg": false,
      "metar_trigger": false,
      "taf_trigger": false,
      "metar": "METAR EDFH 302220Z 27005KT CAVOK 19/14 Q1019",
      "taf": ""
    },
    {
      "icao": "EDJA",
      "alert": "OK",
      "vis_m": 9999,
      "fzfg": false,
      "metar_trigger": false,
      "taf_trigger": false,
      "metar": "METAR EDJA 302220Z AUTO VRB02KT 9999 // FEW120/// BKN140/// 17/13 Q1019",
      "taf": "TAF EDJA 301700Z 3018/3103 04006KT CAVOK"
    },
    {
      "icao": "EDLW",
      "alert": "OK",
      "vis_m": 9999,
      "fzfg": false,
      "metar_trigger": false,
      "taf_trigger": false,
      "metar": "METAR EDLW 302220Z AUTO 13005KT 9999 // FEW054/// SCT250/// 19/13 Q1016",
      "taf": "TAF EDLW 301700Z 3018/3118 VRB03KT CAVOK"
    },
    {
      "icao": "EDNY",
      "alert": "OK",
      "vis_m": 9999,
      "fzfg": false,
      "metar_trigger": false,
      "taf_trigger": false,
      "metar": "METAR EDNY 302220Z AUTO 00000KT 9999 // NCD 16/12 Q1019",
      "taf": ""
    },
    {
      "icao": "EDSB",
      "alert": "OK",
      "vis_m": 9999,
      "fzfg": false,
      "metar_trigger": false,
      "taf_trigger": false,
      "metar": "METAR EDSB 302220Z AUTO VRB01KT 9999 // NCD 20/17 Q1017",
      "taf": "TAF EDSB 301700Z 3018/3118 02005KT CAVOK"
    },
    {
      "icao": "EETN",
      "alert": "OK",
      "vis_m": 9999,
      "fzfg": false,
      "metar_trigger": false,
      "taf_trigger": false,
      "metar": "METAR EETN 302220Z 12002KT CAVOK 11/07 Q1009",
      "taf": "TAF EETN 301730Z 3018/3118 30010KT CAVOK"
    },
    {
      "icao": "EFTU",
      "alert": "OK",
      "vis_m": 9999,
      "fzfg": false,
      "metar_trigger": false,
      "taf_trigger": false,
      "metar": "METAR EFTU 302220Z AUTO 35003KT CAVOK 09/01 Q1009",
      "taf": "TAF EFTU 302033Z 3021/3121 31003KT CAVOK"
    },
    {
      "icao": "EGBB",
      "alert": "OK",
      "vis_m": 9999,
      "fzfg": false,
      "metar_trigger": false,
      "taf_trigger": false,
      "metar": "METAR EGBB 302220Z 30008KT CAVOK 19/08 Q1017",
      "taf": "TAF EGBB 301655Z 3018/3118 26006KT CAVOK"
    },
    {
      "icao": "EGGP",
      "alert": "OK",
      "vis_m": 9999,
      "fzfg": false,
      "metar_trigger": false,
      "taf_trigger": false,
      "metar": "METAR EGGP 302220Z 24001KT CAVOK 15/10 Q1016",
      "taf": ""
    },
    {
      "icao": "EGGW",
      "alert": "OK",
      "vis_m": 9999,
      "fzfg": false,
      "metar_trigger": false,
      "taf_trigger": false,
      "metar": "METAR EGGW 302220Z AUTO 28007KT 9999 NCD 19/07 Q1016",
      "taf": "TAF EGGW 301659Z 3018/3118 27006KT CAVOK"
    },
    {
      "icao": "EGKK",
      "alert": "OK",
      "vis_m": 9999,
      "fzfg": false,
      "metar_trigger": false,
      "taf_trigger": false,
      "metar": "METAR EGKK 302220Z 27005KT CAVOK 18/08 Q1016",
      "taf": "TAF EGKK 301701Z 3018/3124 26007KT CAVOK"
    },
    {
      "icao": "EGNM",
      "alert": "OK",
      "vis_m": 9999,
      "fzfg": false,
      "metar_trigger": false,
      "taf_trigger": false,
      "metar": "METAR EGNM 302220Z 28011KT 9999 VCSH SCT045 14/06 Q1016",
      "taf": "TAF EGNM 301658Z 3018/3118 29010KT CAVOK"
    },
    {
      "icao": "EGPD",
      "alert": "OK",
      "vis_m": 9999,
      "fzfg": false,
      "metar_trigger": false,
      "taf_trigger": false,
      "metar": "METAR EGPD 302220Z AUTO 13003KT 9999 -RA //////TCU 14/12 Q1013 RERA TEMPO RA",
      "taf": ""
    },
    {
      "icao": "EGPF",
      "alert": "OK",
      "vis_m": 4900,
      "fzfg": false,
      "metar_trigger": false,
      "taf_trigger": false,
      "metar": "METAR EGPF 302220Z AUTO VRB02KT 4900 RA BKN009/// OVC017/// //////CB 13/12 Q1013 RERA REDZ",
      "taf": ""
    },
    {
      "icao": "EHBK",
      "alert": "OK",
      "vis_m": 9999,
      "fzfg": false,
      "metar_trigger": false,
      "taf_trigger": false,
      "metar": "METAR EHBK 302225Z AUTO 20009KT 170V230 9999 -RA FEW017CB 20/15 Q1016 RETS",
      "taf": "TAF EHBK 301715Z 3018/3124 VRB02KT CAVOK"
    },
    {
      "icao": "EHEH",
      "alert": "OK",
      "vis_m": 9999,
      "fzfg": false,
      "metar_trigger": false,
      "taf_trigger": false,
      "metar": "METAR EHEH 302225Z AUTO 13007KT 110V180 9999 FEW051 SCT058 BKN063 22/12 Q1015 RETS BLU",
      "taf": "TAF EHEH 301732Z 3018/3124 07005KT CAVOK"
    },
    {
      "icao": "EKBI",
      "alert": "OK",
      "vis_m": 9999,
      "fzfg": false,
      "metar_trigger": false,
      "taf_trigger": false,
      "metar": "METAR EKBI 302220Z AUTO 30007KT 9999 OVC014/// 12/10 Q1015",
      "taf": "TAF EKBI 302027Z 3021/3121 30008KT 9999 BKN011"
    },
    {
      "icao": "EKCH",
      "alert": "OK",
      "vis_m": 9999,
      "fzfg": false,
      "metar_trigger": false,
      "taf_trigger": false,
      "metar": "METAR EKCH 302220Z AUTO 29007KT 9999 BKN035/// 14/09 Q1014 NOSIG",
      "taf": "TAF EKCH 302027Z 3021/3121 31011KT 9999 BKN040"
    },
    {
      "icao": "ENAL",
      "alert": "OK",
      "vis_m": 9999,
      "fzfg": false,
      "metar_trigger": false,
      "taf_trigger": false,
      "metar": "METAR ENAL 302220Z 05006KT 9999 SCT006 BKN012 11/10 Q1015",
      "taf": "TAF ENAL 302000Z 3021/3106 35005KT 9999 SCT004 BKN018"
    },
    {
      "icao": "ENBR",
      "alert": "OK",
      "vis_m": 9999,
      "fzfg": false,
      "metar_trigger": false,
      "taf_trigger": false,
      "metar": "METAR ENBR 302220Z VRB01KT 9999 SCT010 BKN050 10/09 Q1015 RMK WIND 1200FT 26003KT",
      "taf": "TAF ENBR 301700Z 3018/3118 22005KT 9999 SCT006 BKN016"
    },
    {
      "icao": "ENGM",
      "alert": "OK",
      "vis_m": 9999,
      "fzfg": false,
      "metar_trigger": false,
      "taf_trigger": false,
      "metar": "METAR ENGM 302220Z 33004KT 290V030 CAVOK 15/07 Q1011",
      "taf": "TAF ENGM 301700Z 3018/3118 36010KT CAVOK"
    },
    {
      "icao": "ENHD",
      "alert": "OK",
      "vis_m": 6000,
      "fzfg": false,
      "metar_trigger": false,
      "taf_trigger": false,
      "metar": "METAR ENHD 302220Z AUTO 32003KT 6000 SCT002/// BKN003/// BKN004/// 11/10 Q1015",
      "taf": ""
    },
    {
      "icao": "ENTC",
      "alert": "OK",
      "vis_m": 9999,
      "fzfg": false,
      "metar_trigger": false,
      "taf_trigger": false,
      "metar": "METAR ENTC 302220Z 03006KT CAVOK 05/M00 Q1021 RMK WIND 2600FT 02004KT",
      "taf": "TAF ENTC 301700Z 3018/3118 01009KT 9999 SCT040"
    },
    {
      "icao": "ENTO",
      "alert": "OK",
      "vis_m": 3100,
      "fzfg": false,
      "metar_trigger": false,
      "taf_trigger": false,
      "metar": "METAR ENTO 302220Z AUTO VRB01KT 3100 // NCD 15/08 Q1011",
      "taf": "TAF ENTO 301700Z 3018/3118 18010KT CAVOK"
    },
    {
      "icao": "ENVA",
      "alert": "OK",
      "vis_m": 9999,
      "fzfg": false,
      "metar_trigger": false,
      "taf_trigger": false,
      "metar": "METAR ENVA 302220Z 30004KT 270V330 9999 SCT022 BKN038 12/10 Q1016 RMK WIND 670FT 28006KT",
      "taf": "TAF ENVA 301700Z 3018/3118 27008KT 9999 SCT020 BKN025"
    },
    {
      "icao": "ENZV",
      "alert": "OK",
      "vis_m": 9999,
      "fzfg": false,
      "metar_trigger": false,
      "taf_trigger": false,
      "metar": "METAR ENZV 302220Z 31006KT 9999 BKN008 10/10 Q1015",
      "taf": "TAF ENZV 301700Z 3018/3118 30008KT 8000 SCT006 BKN018"
    },
    {
      "icao": "EPGD",
      "alert": "OK",
      "vis_m": 9999,
      "fzfg": false,
      "metar_trigger": false,
      "taf_trigger": false,
      "metar": "METAR EPGD 302230Z 27006KT CAVOK 12/11 Q1011",
      "taf": "TAF EPGD 301730Z 3018/3118 31015KT 9999 SCT038"
    },
    {
      "icao": "EPKK",
      "alert": "OK",
      "vis_m": 9999,
      "fzfg": false,
      "metar_trigger": false,
      "taf_trigger": false,
      "metar": "METAR EPKK 302230Z 27005KT 9999 FEW049 13/12 Q1014",
      "taf": "TAF EPKK 302030Z 3021/3121 23004KT CAVOK"
    },
    {
      "icao": "EPKT",
      "alert": "OK",
      "vis_m": 9999,
      "fzfg": false,
      "metar_trigger": false,
      "taf_trigger": false,
      "metar": "METAR EPKT 302230Z 33004KT 9999 OVC048 12/11 Q1014",
      "taf": ""
    },
    {
      "icao": "EPLB",
      "alert": "OK",
      "vis_m": 9999,
      "fzfg": false,
      "metar_trigger": false,
      "taf_trigger": false,
      "metar": "METAR EPLB 302230Z 29007KT 9999 -RA NSC 15/15 Q1010",
      "taf": "TAF EPLB 301730Z 3018/3118 30010KT CAVOK"
    },
    {
      "icao": "EPMO",
      "alert": "OK",
      "vis_m": 9999,
      "fzfg": false,
      "metar_trigger": false,
      "taf_trigger": false,
      "metar": "METAR EPMO 302230Z VRB02KT CAVOK 14/10 Q1012",
      "taf": "TAF EPMO 301730Z 3018/3118 29012KT 9999 SCT030"
    },
    {
      "icao": "EPPO",
      "alert": "OK",
      "vis_m": 9999,
      "fzfg": false,
      "metar_trigger": false,
      "taf_trigger": false,
      "metar": "METAR EPPO 302230Z 26005KT 9999 FEW034 17/12 Q1014",
      "taf": "TAF EPPO 301730Z 3018/3118 33010KT CAVOK"
    },
    {
      "icao": "EPRA",
      "alert": "OK",
      "vis_m": 9999,
      "fzfg": false,
      "metar_trigger": false,
      "taf_trigger": false,
      "metar": "METAR EPRA 302230Z 32011KT CAVOK 17/09 Q1011",
      "taf": "TAF EPRA 302030Z 3021/3106 30006KT CAVOK"
    },
    {
      "icao": "EPRZ",
      "alert": "OK",
      "vis_m": 9999,
      "fzfg": false,
      "metar_trigger": false,
      "taf_trigger": false,
      "metar": "METAR EPRZ 302230Z 26009KT CAVOK 15/14 Q1011",
      "taf": "TAF EPRZ 301730Z 3018/3118 27007KT 9999 BKN007"
    },
    {
      "icao": "EPSC",
      "alert": "OK",
      "vis_m": 9999,
      "fzfg": false,
      "metar_trigger": false,
      "taf_trigger": false,
      "metar": "METAR EPSC 302230Z 25004KT 9999 SCT024 BKN040 15/12 Q1014",
      "taf": "TAF EPSC 301730Z 3018/3118 30010KT 9999 BKN035"
    },
    {
      "icao": "EPSY",
      "alert": "OK",
      "vis_m": 9999,
      "fzfg": false,
      "metar_trigger": false,
      "taf_trigger": false,
      "metar": "METAR EPSY 302230Z 29003KT CAVOK 12/10 Q1011",
      "taf": "TAF EPSY 302030Z 3021/3106 32006KT CAVOK"
    },
    {
      "icao": "EPWA",
      "alert": "OK",
      "vis_m": 9999,
      "fzfg": false,
      "metar_trigger": false,
      "taf_trigger": false,
      "metar": "METAR EPWA 302230Z 35007KT 320V020 9999 BKN043 17/09 Q1011 NOSIG",
      "taf": "TAF EPWA 302030Z 3021/3121 35010KT 9999 BKN040"
    },
    {
      "icao": "EPWR",
      "alert": "OK",
      "vis_m": 9999,
      "fzfg": false,
      "metar_trigger": false,
      "taf_trigger": false,
      "metar": "METAR EPWR 302230Z 29007KT 9999 BKN045 18/11 Q1015",
      "taf": "TAF EPWR 302030Z 3021/3121 32010KT 9999 BKN045"
    },
    {
      "icao": "ESGG",
      "alert": "OK",
      "vis_m": 6000,
      "fzfg": false,
      "metar_trigger": false,
      "taf_trigger": false,
      "metar": "METAR ESGG 302220Z 24004KT 6000 SCT004 BKN006 11/10 Q1011",
      "taf": "TAF ESGG 302030Z 3021/3121 27011KT 9999 SCT010"
    },
    {
      "icao": "ESKN",
      "alert": "OK",
      "vis_m": 9999,
      "fzfg": false,
      "metar_trigger": false,
      "taf_trigger": false,
      "metar": "METAR ESKN 302220Z 27004KT CAVOK 11/10 Q1010",
      "taf": "TAF ESKN 302030Z 3021/3121 VRB03KT CAVOK"
    },
    {
      "icao": "ESMS",
      "alert": "OK",
      "vis_m": 9999,
      "fzfg": false,
      "metar_trigger": false,
      "taf_trigger": false,
      "metar": "METAR ESMS 302220Z 30007KT CAVOK 12/11 Q1013",
      "taf": "TAF ESMS 302027Z 3021/3121 31008KT 9999 BKN035"
    },
    {
      "icao": "ESSA",
      "alert": "OK",
      "vis_m": 9999,
      "fzfg": false,
      "metar_trigger": false,
      "taf_trigger": false,
      "metar": "METAR ESSA 302220Z 23004KT CAVOK 12/06 Q1010 NOSIG",
      "taf": "TAF ESSA 302030Z 3021/3121 24006KT CAVOK"
    },
    {
      "icao": "EYKA",
      "alert": "OK",
      "vis_m": 9999,
      "fzfg": false,
      "metar_trigger": false,
      "taf_trigger": false,
      "metar": "METAR EYKA 302220Z VRB01KT CAVOK 10/08 Q1008",
      "taf": "TAF EYKA 301703Z 3018/3118 VRB03KT 9000 NSC"
    },
    {
      "icao": "EYPA",
      "alert": "OK",
      "vis_m": 9999,
      "fzfg": false,
      "metar_trigger": false,
      "taf_trigger": false,
      "metar": "METAR EYPA 302220Z AUTO 00000KT 9999 NCD 06/05 Q1009",
      "taf": "TAF EYPA 301703Z 3018/3118 VRB03KT 9000 NSC"
    },
    {
      "icao": "EYVI",
      "alert": "OK",
      "vis_m": 9999,
      "fzfg": false,
      "metar_trigger": false,
      "taf_trigger": false,
      "metar": "METAR EYVI 302220Z 31004KT CAVOK 13/07 Q1007 NOSIG",
      "taf": "TAF EYVI 301703Z 3018/3118 VRB03KT 9000 SCT045"
    },
    {
      "icao": "GCFV",
      "alert": "OK",
      "vis_m": 9999,
      "fzfg": false,
      "metar_trigger": false,
      "taf_trigger": false,
      "metar": "METAR GCFV 302230Z AUTO 01015KT 9999 OVC025 21/15 Q1022",
      "taf": "TAF GCFV 302000Z 3021/3121 01013KT 9999 BKN020 TX24/3114Z TN18/3106Z"
    },
    {
      "icao": "GCLP",
      "alert": "OK",
      "vis_m": 9999,
      "fzfg": false,
      "metar_trigger": false,
      "taf_trigger": false,
      "metar": "METAR GCLP 302230Z 01024KT 9999 BKN025 21/15 Q1022 NOSIG",
      "taf": "TAF GCLP 302000Z 3021/3121 36022KT 9999 BKN025 TX23/3114Z TN18/3106Z"
    },
    {
      "icao": "GCTS",
      "alert": "OK",
      "vis_m": 9999,
      "fzfg": false,
      "metar_trigger": false,
      "taf_trigger": false,
      "metar": "METAR GCTS 302230Z 07009KT 030V100 9999 FEW030 20/13 Q1022 NOSIG",
      "taf": "TAF GCTS 302000Z 3021/3121 04009KT 9999 FEW030 TX25/3114Z TN17/3106Z"
    },
    {
      "icao": "GMAD",
      "alert": "OK",
      "vis_m": 6000,
      "fzfg": false,
      "metar_trigger": false,
      "taf_trigger": false,
      "metar": "METAR GMAD 302230Z 15005KT 6000 SCT016 20/16 Q1019 NOSIG",
      "taf": "TAF GMAD 301700Z 3018/3124 20010KT 8000 BKN016"
    },
    {
      "icao": "GMMN",
      "alert": "OK",
      "vis_m": 9999,
      "fzfg": false,
      "metar_trigger": false,
      "taf_trigger": false,
      "metar": "METAR GMMN 302230Z 30005KT CAVOK 19/16 Q1019 NOSIG",
      "taf": "TAF GMMN 301700Z 3018/3124 34010KT CAVOK"
    },
    {
      "icao": "GMMX",
      "alert": "OK",
      "vis_m": 8000,
      "fzfg": false,
      "metar_trigger": false,
      "taf_trigger": false,
      "metar": "METAR GMMX 302230Z 03003KT 350V060 8000 SCT026 25/17 Q1019 NOSIG",
      "taf": "TAF GMMX 301700Z 3018/3124 06006KT 8000 SCT033 SCT100"
    },
    {
      "icao": "HEGN",
      "alert": "OK",
      "vis_m": 9999,
      "fzfg": false,
      "metar_trigger": false,
      "taf_trigger": false,
      "metar": "METAR HEGN 302200Z 28008KT CAVOK 27/05 Q1011 NOSIG",
      "taf": ""
    },
    {
      "icao": "HEMA",
      "alert": "OK",
      "vis_m": 9999,
      "fzfg": false,
      "metar_trigger": false,
      "taf_trigger": false,
      "metar": "METAR HEMA 302200Z 31012KT CAVOK 29/07 Q1010 NOSIG",
      "taf": ""
    },
    {
      "icao": "HESH",
      "alert": "OK",
      "vis_m": 9999,
      "fzfg": false,
      "metar_trigger": false,
      "taf_trigger": false,
      "metar": "METAR HESH 302200Z 34008KT CAVOK 29/09 Q1010 NOSIG",
      "taf": ""
    },
    {
      "icao": "HESX",
      "alert": "OK",
      "vis_m": 9999,
      "fzfg": false,
      "metar_trigger": false,
      "taf_trigger": false,
      "metar": "METAR HESX 302200Z 36006KT CAVOK 22/15 Q1015 NOSIG",
      "taf": ""
    },
    {
      "icao": "LATI",
      "alert": "OK",
      "vis_m": 9999,
      "fzfg": false,
      "metar_trigger": false,
      "taf_trigger": false,
      "metar": "METAR LATI 302220Z 18002KT CAVOK 16/10 Q1017 NOSIG",
      "taf": "TAF LATI 301700Z 3018/3118 33008KT CAVOK TX31/3111Z TN13/3104Z"
    },
    {
      "icao": "LBPD",
      "alert": "OK",
      "vis_m": 9999,
      "fzfg": false,
      "metar_trigger": false,
      "taf_trigger": false,
      "metar": "METAR LBPD 302230Z AUTO 28009KT 9999 NCD 21/08 Q1013",
      "taf": "TAF LBPD 301700Z 3018/3118 28015KT 9999 SCT080"
    },
    {
      "icao": "LBSF",
      "alert": "OK",
      "vis_m": 9999,
      "fzfg": false,
      "metar_trigger": false,
      "taf_trigger": false,
      "metar": "METAR LBSF 302230Z AUTO VRB02KT 9999 OVC077/// 16/08 Q1016 NOSIG",
      "taf": "TAF LBSF 301700Z 3018/3118 30012KT 9999 SCT070"
    },
    {
      "icao": "LBWN",
      "alert": "OK",
      "vis_m": 9999,
      "fzfg": false,
      "metar_trigger": false,
      "taf_trigger": false,
      "metar": "METAR LBWN 302230Z AUTO 05004KT 9999 NCD 12/12 Q1013 NOSIG",
      "taf": "TAF LBWN 301700Z 3018/3118 11010KT 9999 SCT045"
    },
    {
      "icao": "LCLK",
      "alert": "OK",
      "vis_m": 8000,
      "fzfg": false,
      "metar_trigger": false,
      "taf_trigger": false,
      "metar": "METAR LCLK 302230Z 21004KT 8000 SCT005 21/20 Q1012 NOSIG",
      "taf": "TAF LCLK 301730Z 3018/3118 20010KT 9999 FEW030"
    },
    {
      "icao": "LCPH",
      "alert": "OK",
      "vis_m": 9999,
      "fzfg": false,
      "metar_trigger": false,
      "taf_trigger": false,
      "metar": "METAR LCPH 302230Z AUTO 07004KT 010V080 9999 OVC012 21/18 Q1012 NOSIG",
      "taf": "TAF LCPH 301730Z 3018/3118 05007KT 9999 FEW009"
    },
    {
      "icao": "LEAL",
      "alert": "OK",
      "vis_m": 9999,
      "fzfg": false,
      "metar_trigger": false,
      "taf_trigger": false,
      "metar": "METAR LEAL 302230Z VRB01KT CAVOK 24/16 Q1019 NOSIG",
      "taf": "TAF LEAL 301700Z 3018/3118 18010KT CAVOK TX30/3112Z TN19/3106Z"
    },
    {
      "icao": "LEBB",
      "alert": "OK",
      "vis_m": 9999,
      "fzfg": false,
      "metar_trigger": false,
      "taf_trigger": false,
      "metar": "METAR LEBB 302230Z AUTO 00000KT 9999 SCT026 BKN031 17/16 Q1025",
      "taf": "TAF LEBB 301700Z 3018/3118 32009KT 9000 BKN016 TX22/3113Z TN15/3105Z"
    },
    {
      "icao": "LEBL",
      "alert": "OK",
      "vis_m": 9999,
      "fzfg": false,
      "metar_trigger": false,
      "taf_trigger": false,
      "metar": "METAR LEBL 302230Z VRB02KT 9999 FEW020 22/21 Q1019 NOSIG",
      "taf": "TAF LEBL 301700Z 3018/3118 12007KT 9999 FEW010 TX27/3112Z TN20/3105Z"
    },
    {
      "icao": "LECH",
      "alert": "OK",
      "vis_m": 9999,
      "fzfg": false,
      "metar_trigger": false,
      "taf_trigger": false,
      "metar": "METAR LECH 302230Z AUTO VRB02KT CAVOK 20/18 Q1021",
      "taf": "TAF LECH 301700Z 3018/3118 10010KT CAVOK TX32/3113Z TN16/3106Z"
    },
    {
      "icao": "LEMD",
      "alert": "OK",
      "vis_m": 9999,
      "fzfg": false,
      "metar_trigger": false,
      "taf_trigger": false,
      "metar": "METAR LEMD 302230Z 34005KT CAVOK 25/11 Q1020 NOSIG",
      "taf": ""
    },
    {
      "icao": "LEMG",
      "alert": "OK",
      "vis_m": 9999,
      "fzfg": false,
      "metar_trigger": false,
      "taf_trigger": false,
      "metar": "METAR LEMG 302230Z VRB01KT CAVOK 22/10 Q1019 NOSIG",
      "taf": "TAF LEMG 301700Z 3018/3118 13010KT CAVOK TX29/3114Z TN17/3106Z"
    },
    {
      "icao": "LEVC",
      "alert": "OK",
      "vis_m": 9999,
      "fzfg": false,
      "metar_trigger": false,
      "taf_trigger": false,
      "metar": "METAR LEVC 302230Z 02004KT 340V060 CAVOK 23/19 Q1019 NOSIG",
      "taf": "TAF LEVC 301700Z 3018/3118 06012KT 9999 FEW015 TX31/3112Z TN19/3106Z"
    },
    {
      "icao": "LEXJ",
      "alert": "OK",
      "vis_m": 9999,
      "fzfg": false,
      "metar_trigger": false,
      "taf_trigger": false,
      "metar": "METAR LEXJ 302230Z AUTO 26004KT 9999 SCT019 16/14 Q1025",
      "taf": "TAF LEXJ 302000Z 3021/3121 25009KT 9999 BKN020 TX21/3112Z TN15/3105Z"
    },
    {
      "icao": "LEZG",
      "alert": "OK",
      "vis_m": 9999,
      "fzfg": false,
      "metar_trigger": false,
      "taf_trigger": false,
      "metar": "METAR LEZG 302230Z 28021KT 9999 VCSH FEW070TCU 22/13 Q1020 TEMPO SHRA FEW070CB",
      "taf": ""
    },
    {
      "icao": "LEZL",
      "alert": "OK",
      "vis_m": 9999,
      "fzfg": false,
      "metar_trigger": false,
      "taf_trigger": false,
      "metar": "METAR LEZL 302230Z 19008KT CAVOK 27/13 Q1018 NOSIG",
      "taf": "TAF LEZL 302000Z 3021/3121 20007KT CAVOK TX38/3115Z TN19/3106Z"
    },
    {
      "icao": "LFBD",
      "alert": "OK",
      "vis_m": 9999,
      "fzfg": false,
      "metar_trigger": false,
      "taf_trigger": false,
      "metar": "METAR LFBD 302230Z AUTO 23008KT 9999 OVC024 19/16 Q1022 BECMG BKN010",
      "taf": ""
    },
    {
      "icao": "LFLL",
      "alert": "OK",
      "vis_m": 9999,
      "fzfg": false,
      "metar_trigger": false,
      "taf_trigger": false,
      "metar": "METAR LFLL 302230Z 14002KT CAVOK 22/15 Q1018 NOSIG",
      "taf": "TAF LFLL 301700Z 3018/3124 VRB05KT CAVOK"
    },
    {
      "icao": "LFLS",
      "alert": "OK",
      "vis_m": 9999,
      "fzfg": false,
      "metar_trigger": false,
      "taf_trigger": false,
      "metar": "METAR LFLS 302230Z AUTO 09006KT CAVOK 16/13 Q1019",
      "taf": "TAF LFLS 301400Z 3015/3115 VRB03KT CAVOK"
    },
    {
      "icao": "LFMN",
      "alert": "OK",
      "vis_m": 9999,
      "fzfg": false,
      "metar_trigger": false,
      "taf_trigger": false,
      "metar": "METAR LFMN 302230Z 23003KT CAVOK 22/20 Q1017 NOSIG",
      "taf": "TAF LFMN 302000Z 3021/0103 VRB04KT CAVOK"
    },
    {
      "icao": "LFOB",
      "alert": "OK",
      "vis_m": 9999,
      "fzfg": false,
      "metar_trigger": false,
      "taf_trigger": false,
      "metar": "METAR LFOB 302230Z AUTO 30013KT 9999 ///CB 18/14 Q1017 BECMG NSC",
      "taf": "TAF LFOB 301700Z 3018/3118 28010KT CAVOK"
    },
    {
      "icao": "LFPO",
      "alert": "OK",
      "vis_m": 9999,
      "fzfg": false,
      "metar_trigger": false,
      "taf_trigger": false,
      "metar": "METAR LFPO 302230Z AUTO 33008KT CAVOK 24/18 Q1016 TEMPO VRB15G30KT 2000 TSRAGR BKN080CB",
      "taf": "TAF LFPO 301700Z 3018/3124 VRB05KT CAVOK"
    },
    {
      "icao": "LFSB",
      "alert": "OK",
      "vis_m": 9999,
      "fzfg": false,
      "metar_trigger": false,
      "taf_trigger": false,
      "metar": "METAR LFSB 302230Z AUTO 24002KT CAVOK 17/13 Q1018 NOSIG",
      "taf": "TAF LFSB 301700Z 3018/3118 36005KT CAVOK"
    },
    {
      "icao": "LGAV",
      "alert": "OK",
      "vis_m": 9999,
      "fzfg": false,
      "metar_trigger": false,
      "taf_trigger": false,
      "metar": "METAR LGAV 302220Z 00000KT CAVOK 17/09 Q1015 NOSIG",
      "taf": "TAF LGAV 301700Z 3018/3118 24008KT 9999 FEW025"
    },
    {
      "icao": "LGTS",
      "alert": "OK",
      "vis_m": 9999,
      "fzfg": false,
      "metar_trigger": false,
      "taf_trigger": false,
      "metar": "METAR LGTS 302220Z 11006KT CAVOK 16/13 Q1014 NOSIG",
      "taf": "TAF LGTS 301700Z 3018/3118 VRB03KT 9999 FEW025"
    },
    {
      "icao": "LHBP",
      "alert": "OK",
      "vis_m": 9999,
      "fzfg": false,
      "metar_trigger": false,
      "taf_trigger": false,
      "metar": "METAR LHBP 302230Z 27007KT CAVOK 19/11 Q1012 NOSIG",
      "taf": "TAF LHBP 301715Z 3018/3118 33008KT CAVOK"
    },
    {
      "icao": "LHDC",
      "alert": "OK",
      "vis_m": 9999,
      "fzfg": false,
      "metar_trigger": false,
      "taf_trigger": false,
      "metar": "METAR LHDC 302215Z AUTO VRB02KT 9999 SCT065 //////CB 17/11 Q1012 TEMPO 6000 SHRA TSRA",
      "taf": "TAF LHDC 302015Z 3021/3106 VRB03KT CAVOK"
    },
    {
      "icao": "LIBD",
      "alert": "OK",
      "vis_m": 9999,
      "fzfg": false,
      "metar_trigger": false,
      "taf_trigger": false,
      "metar": "METAR LIBD 302220Z 21004KT CAVOK 14/10 Q1017",
      "taf": "TAF LIBD 301700Z 3018/3118 VRB05KT CAVOK"
    },
    {
      "icao": "LIBG",
      "alert": "OK",
      "vis_m": null,
      "fzfg": false,
      "metar_trigger": false,
      "taf_trigger": false,
      "metar": "",
      "taf": "TAF LIBG 301700Z 3018/3118 VRB05KT CAVOK"
    },
    {
      "icao": "LIBP",
      "alert": "OK",
      "vis_m": 9999,
      "fzfg": false,
      "metar_trigger": false,
      "taf_trigger": false,
      "metar": "METAR LIBP 302220Z AUTO 23006KT 9999 NCD 16/12 Q1017",
      "taf": "TAF LIBP 301700Z 3018/3118 VRB05KT CAVOK"
    },
    {
      "icao": "LIBR",
      "alert": "OK",
      "vis_m": 9999,
      "fzfg": false,
      "metar_trigger": false,
      "taf_trigger": false,
      "metar": "METAR LIBR 302220Z 35005KT CAVOK 19/18 Q1017",
      "taf": "TAF LIBR 301700Z 3018/3118 VRB05KT CAVOK"
    },
    {
      "icao": "LICA",
      "alert": "OK",
      "vis_m": 9999,
      "fzfg": false,
      "metar_trigger": false,
      "taf_trigger": false,
      "metar": "METAR LICA 302220Z AUTO 06003KT 040V110 9999 NCD 18/17 Q1018",
      "taf": "TAF LICA 301700Z 3018/3118 VRB05KT 9999 FEW015"
    },
    {
      "icao": "LICC",
      "alert": "OK",
      "vis_m": 9999,
      "fzfg": false,
      "metar_trigger": false,
      "taf_trigger": false,
      "metar": "METAR LICC 302220Z 29004KT CAVOK 19/11 Q1018",
      "taf": "TAF LICC 301700Z 3018/3118 VRB05KT 9999 FEW060"
    },
    {
      "icao": "LICJ",
      "alert": "OK",
      "vis_m": 9999,
      "fzfg": false,
      "metar_trigger": false,
      "taf_trigger": false,
      "metar": "METAR LICJ 302220Z 21005KT CAVOK 22/19 Q1017",
      "taf": "TAF LICJ 301700Z 3018/3118 03010KT CAVOK"
    },
    {
      "icao": "LIMC",
      "alert": "OK",
      "vis_m": 9999,
      "fzfg": false,
      "metar_trigger": false,
      "taf_trigger": false,
      "metar": "METAR LIMC 302220Z VRB02KT CAVOK 21/15 Q1017 NOSIG",
      "taf": "TAF LIMC 301700Z 3018/3124 VRB06KT CAVOK"
    },
    {
      "icao": "LIME",
      "alert": "OK",
      "vis_m": 9999,
      "fzfg": false,
      "metar_trigger": false,
      "taf_trigger": false,
      "metar": "METAR LIME 302220Z AUTO 01005KT 9999 NCD 23/16 Q1017",
      "taf": "TAF LIME 301700Z 3018/3118 VRB05KT CAVOK"
    },
    {
      "icao": "LIMF",
      "alert": "OK",
      "vis_m": 9999,
      "fzfg": false,
      "metar_trigger": false,
      "taf_trigger": false,
      "metar": "METAR LIMF 302220Z 33005KT 290V360 CAVOK 22/12 Q1017",
      "taf": "TAF LIMF 301700Z 3018/3118 VRB06KT CAVOK"
    },
    {
      "icao": "LIMJ",
      "alert": "OK",
      "vis_m": 9999,
      "fzfg": false,
      "metar_trigger": false,
      "taf_trigger": false,
      "metar": "METAR LIMJ 302220Z 06003KT CAVOK 23/16 Q1017",
      "taf": "TAF LIMJ 301700Z 3018/3118 VRB05KT CAVOK"
    },
    {
      "icao": "LIPE",
      "alert": "OK",
      "vis_m": 9999,
      "fzfg": false,
      "metar_trigger": false,
      "taf_trigger": false,
      "metar": "METAR LIPE 302220Z 20006KT CAVOK 23/17 Q1016",
      "taf": "TAF LIPE 301700Z 3018/3118 VRB05KT CAVOK"
    },
    {
      "icao": "LIPH",
      "alert": "OK",
      "vis_m": 9999,
      "fzfg": false,
      "metar_trigger": false,
      "taf_trigger": false,
      "metar": "METAR LIPH 302220Z AUTO VRB02KT 9999 NCD 22/17 Q1016",
      "taf": "TAF LIPH 301700Z 3018/3118 VRB05KT CAVOK"
    },
    {
      "icao": "LIPQ",
      "alert": "OK",
      "vis_m": 9999,
      "fzfg": false,
      "metar_trigger": false,
      "taf_trigger": false,
      "metar": "METAR LIPQ 302220Z AUTO 09003KT 9999 BKN130/// BKN160/// 20/16 Q1016",
      "taf": "TAF LIPQ 301700Z 3018/3118 VRB05KT CAVOK"
    },
    {
      "icao": "LIPR",
      "alert": "OK",
      "vis_m": 9999,
      "fzfg": false,
      "metar_trigger": false,
      "taf_trigger": false,
      "metar": "METAR LIPR 302220Z AUTO 22003KT 9999 NCD 20/16 Q1016",
      "taf": "TAF LIPR 301700Z 3018/3118 VRB05KT CAVOK"
    },
    {
      "icao": "LIPX",
      "alert": "OK",
      "vis_m": 9999,
      "fzfg": false,
      "metar_trigger": false,
      "taf_trigger": false,
      "metar": "METAR LIPX 302220Z VRB01KT CAVOK 21/16 Q1016",
      "taf": "TAF LIPX 301700Z 3018/3118 VRB04KT CAVOK"
    },
    {
      "icao": "LIPY",
      "alert": "OK",
      "vis_m": 9999,
      "fzfg": false,
      "metar_trigger": false,
      "taf_trigger": false,
      "metar": "METAR LIPY 302220Z AUTO 18002KT 9999 SCT220/// 19/14 Q1016",
      "taf": "TAF LIPY 301700Z 3018/3118 VRB05KT CAVOK"
    },
    {
      "icao": "LIPZ",
      "alert": "OK",
      "vis_m": 9999,
      "fzfg": false,
      "metar_trigger": false,
      "taf_trigger": false,
      "metar": "METAR LIPZ 302220Z 23007KT CAVOK 24/19 Q1016 NOSIG",
      "taf": "TAF LIPZ 301700Z 3018/3124 VRB05KT CAVOK"
    },
    {
      "icao": "LIRF",
      "alert": "OK",
      "vis_m": 9999,
      "fzfg": false,
      "metar_trigger": false,
      "taf_trigger": false,
      "metar": "METAR LIRF 302220Z VRB01KT CAVOK 19/18 Q1017 NOSIG",
      "taf": "TAF LIRF 301700Z 3018/3124 27010KT CAVOK"
    },
    {
      "icao": "LIRN",
      "alert": "OK",
      "vis_m": 9999,
      "fzfg": false,
      "metar_trigger": false,
      "taf_trigger": false,
      "metar": "METAR LIRN 302220Z 24002KT CAVOK 21/09 Q1018 NOSIG",
      "taf": "TAF LIRN 301700Z 3018/3118 30010KT CAVOK"
    },
    {
      "icao": "LIRP",
      "alert": "OK",
      "vis_m": 9999,
      "fzfg": false,
      "metar_trigger": false,
      "taf_trigger": false,
      "metar": "METAR LIRP 302215Z 24002KT CAVOK 19/17 Q1017 NOSIG",
      "taf": "TAF LIRP 301700Z 3018/3118 30008KT 9999 SCT030"
    },
    {
      "icao": "LIRZ",
      "alert": "OK",
      "vis_m": 9999,
      "fzfg": false,
      "metar_trigger": false,
      "taf_trigger": false,
      "metar": "METAR LIRZ 302220Z AUTO 34003KT 300V360 9999 NCD 18/14 Q1018",
      "taf": "TAF LIRZ 301700Z 3018/3118 VRB05KT CAVOK"
    },
    {
      "icao": "LJLJ",
      "alert": "OK",
      "vis_m": 9999,
      "fzfg": false,
      "metar_trigger": false,
      "taf_trigger": false,
      "metar": "METAR LJLJ 302230Z VRB02KT 9999 FEW050TCU SCT070 BKN130 17/15 Q1018 NOSIG",
      "taf": ""
    },
    {
      "icao": "LKMT",
      "alert": "OK",
      "vis_m": 9999,
      "fzfg": false,
      "metar_trigger": false,
      "taf_trigger": false,
      "metar": "METAR LKMT 302230Z VRB02KT 9999 BKN034 12/12 Q1015 NOSIG",
      "taf": "TAF LKMT 301700Z 3018/3118 22006KT CAVOK"
    },
    {
      "icao": "LKPR",
      "alert": "OK",
      "vis_m": 9999,
      "fzfg": false,
      "metar_trigger": false,
      "taf_trigger": false,
      "metar": "METAR LKPR 302230Z 29004KT 9999 FEW045 13/08 Q1017 NOSIG",
      "taf": "TAF LKPR 302000Z 3021/0103 27008KT CAVOK"
    },
    {
      "icao": "LLBG",
      "alert": "OK",
      "vis_m": 9999,
      "fzfg": false,
      "metar_trigger": false,
      "taf_trigger": false,
      "metar": "METAR LLBG 302220Z 14004KT CAVOK 21/17 Q1013 NOSIG",
      "taf": "TAF LLBG 301708Z 3018/3118 VRB04KT 9999 FEW017 TX28/3111Z TN19/3103Z"
    },
    {
      "icao": "LMML",
      "alert": "OK",
      "vis_m": 9999,
      "fzfg": false,
      "metar_trigger": false,
      "taf_trigger": false,
      "metar": "METAR LMML 302215Z 21002KT CAVOK 20/18 Q1018 NOSIG",
      "taf": "TAF LMML 301700Z 3018/3118 VRB05KT CAVOK"
    },
    {
      "icao": "LOWW",
      "alert": "OK",
      "vis_m": 9999,
      "fzfg": false,
      "metar_trigger": false,
      "taf_trigger": false,
      "metar": "METAR LOWW 302220Z 30013KT CAVOK 20/12 Q1016 NOSIG",
      "taf": "TAF LOWW 302015Z 3021/0103 30010KT 9999 FEW050 TX26/3112Z TN16/3103Z"
    },
    {
      "icao": "LPFR",
      "alert": "OK",
      "vis_m": 9999,
      "fzfg": false,
      "metar_trigger": false,
      "taf_trigger": false,
      "metar": "METAR LPFR 302230Z 35005KT 290V020 CAVOK 26/12 Q1018",
      "taf": "TAF LPFR 301700Z 3018/3118 25008KT CAVOK"
    },
    {
      "icao": "LPMA",
      "alert": "OK",
      "vis_m": 9999,
      "fzfg": false,
      "metar_trigger": false,
      "taf_trigger": false,
      "metar": "METAR LPMA 302230Z 01019KT 330V030 9999 FEW015 19/11 Q1025",
      "taf": "TAF LPMA 301700Z 3018/3118 01013KT 9999 SCT015"
    },
    {
      "icao": "LPPR",
      "alert": "OK",
      "vis_m": 9999,
      "fzfg": false,
      "metar_trigger": false,
      "taf_trigger": false,
      "metar": "METAR LPPR 302230Z 34006KT 9999 FEW010 16/14 Q1022",
      "taf": "TAF LPPR 301700Z 3018/3118 32013KT 9999 SCT015"
    },
    {
      "icao": "LPPS",
      "alert": "OK",
      "vis_m": 9999,
      "fzfg": false,
      "metar_trigger": false,
      "taf_trigger": false,
      "metar": "METAR LPPS 302230Z 01015KT 9999 SCT015 18/13 Q1026",
      "taf": "TAF LPPS 301700Z 3018/3124 01013KT 9999 SCT015"
    },
    {
      "icao": "LPPT",
      "alert": "OK",
      "vis_m": 9999,
      "fzfg": false,
      "metar_trigger": false,
      "taf_trigger": false,
      "metar": "METAR LPPT 302230Z 33010KT 290V350 9999 FEW012 16/14 Q1022",
      "taf": "TAF LPPT 301700Z 3018/3124 33013KT CAVOK"
    },
    {
      "icao": "LQBK",
      "alert": "OK",
      "vis_m": 9999,
      "fzfg": false,
      "metar_trigger": false,
      "taf_trigger": false,
      "metar": "METAR LQBK 302230Z 12004KT 070V160 CAVOK 19/11 Q1015 NOSIG",
      "taf": "TAF LQBK 301700Z 3018/3118 20005KT CAVOK TX28/3114Z TN14/3104Z"
    },
    {
      "icao": "LQSA",
      "alert": "OK",
      "vis_m": 9999,
      "fzfg": false,
      "metar_trigger": false,
      "taf_trigger": false,
      "metar": "METAR LQSA 302230Z 00000KT CAVOK 14/08 Q1018",
      "taf": "TAF LQSA 301700Z 3018/3118 VRB02KT CAVOK TX26/3113Z TN12/3104Z"
    },
    {
      "icao": "LQTZ",
      "alert": "OK",
      "vis_m": 9999,
      "fzfg": false,
      "metar_trigger": false,
      "taf_trigger": false,
      "metar": "METAR LQTZ 302230Z VRB01KT CAVOK 13/11 Q1016",
      "taf": "TAF LQTZ 301700Z 3018/3118 27006KT CAVOK TX27/3114Z TN10/3103Z"
    },
    {
      "icao": "LRBC",
      "alert": "OK",
      "vis_m": 9999,
      "fzfg": false,
      "metar_trigger": false,
      "taf_trigger": false,
      "metar": "METAR LRBC 302230Z 15007KT CAVOK 13/11 Q1009",
      "taf": "TAF LRBC 302000Z 3021/3106 VRB04KT CAVOK"
    },
    {
      "icao": "LRBS",
      "alert": "OK",
      "vis_m": 9999,
      "fzfg": false,
      "metar_trigger": false,
      "taf_trigger": false,
      "metar": "METAR LRBS 302230Z 03004KT CAVOK 13/11 Q1011 NOSIG",
      "taf": "TAF LRBS 301700Z 3018/3118 VRB04KT CAVOK"
    },
    {
      "icao": "LRBV",
      "alert": "OK",
      "vis_m": 9999,
      "fzfg": false,
      "metar_trigger": false,
      "taf_trigger": false,
      "metar": "METAR LRBV 302230Z AUTO 29005KT 250V340 9999 FEW075/// OVC100/// 16/06 Q1013",
      "taf": "TAF LRBV 301700Z 3018/3103 29008KT CAVOK"
    },
    {
      "icao": "LRCL",
      "alert": "OK",
      "vis_m": 9999,
      "fzfg": false,
      "metar_trigger": false,
      "taf_trigger": false,
      "metar": "METAR LRCL 302230Z 28005KT 230V340 9999 OVC058 17/11 Q1012",
      "taf": "TAF LRCL 302000Z 3021/3106 28007KT CAVOK"
    },
    {
      "icao": "LRCV",
      "alert": "OK",
      "vis_m": 9999,
      "fzfg": false,
      "metar_trigger": false,
      "taf_trigger": false,
      "metar": "METAR LRCV 302230Z 29007KT CAVOK 16/10 Q1012",
      "taf": "TAF LRCV 302000Z 3021/3106 28007KT CAVOK"
    },
    {
      "icao": "LRIA",
      "alert": "OK",
      "vis_m": 9999,
      "fzfg": false,
      "metar_trigger": false,
      "taf_trigger": false,
      "metar": "METAR LRIA 302230Z 08005KT CAVOK 14/09 Q1008",
      "taf": "TAF LRIA 302000Z 3021/3106 VRB04KT CAVOK"
    },
    {
      "icao": "LROP",
      "alert": "OK",
      "vis_m": 9999,
      "fzfg": false,
      "metar_trigger": false,
      "taf_trigger": false,
      "metar": "METAR LROP 302230Z 04006KT 350V060 CAVOK 13/12 Q1011 NOSIG",
      "taf": "TAF LROP 301700Z 3018/3118 VRB04KT CAVOK"
    },
    {
      "icao": "LRSB",
      "alert": "OK",
      "vis_m": 9999,
      "fzfg": false,
      "metar_trigger": false,
      "taf_trigger": false,
      "metar": "METAR LRSB 302230Z VRB01KT 9999 BKN070 14/08 Q1013",
      "taf": "TAF LRSB 301700Z 3018/3118 29010KT 9999 SCT050"
    },
    {
      "icao": "LRSM",
      "alert": "OK",
      "vis_m": 9999,
      "fzfg": false,
      "metar_trigger": false,
      "taf_trigger": false,
      "metar": "METAR LRSM 302230Z AUTO 24004KT 9999 BKN043/// OVC050/// 17/13 Q1012 RERA",
      "taf": "TAF LRSM 301400Z 3015/3024 33012KT CAVOK"
    },
    {
      "icao": "LRSV",
      "alert": "OK",
      "vis_m": 9999,
      "fzfg": false,
      "metar_trigger": false,
      "taf_trigger": false,
      "metar": "METAR LRSV 302230Z 30011KT CAVOK 16/10 Q1009",
      "taf": "TAF LRSV 302000Z 3021/3106 26008KT CAVOK"
    },
    {
      "icao": "LRTM",
      "alert": "OK",
      "vis_m": 9999,
      "fzfg": false,
      "metar_trigger": false,
      "taf_trigger": false,
      "metar": "METAR LRTM 302230Z 27009KT 9999 -RA NSC 17/13 Q1012",
      "taf": "TAF LRTM 302000Z 3021/3106 28008KT CAVOK"
    },
    {
      "icao": "LRTR",
      "alert": "OK",
      "vis_m": 9999,
      "fzfg": false,
      "metar_trigger": false,
      "taf_trigger": false,
      "metar": "METAR LRTR 302230Z 09002KT CAVOK 13/10 Q1013",
      "taf": "TAF LRTR 301700Z 3018/3118 VRB04KT CAVOK"
    },
    {
      "icao": "LTAC",
      "alert": "OK",
      "vis_m": 9999,
      "fzfg": false,
      "metar_trigger": false,
      "taf_trigger": false,
      "metar": "METAR LTAC 302220Z 20004KT 160V280 9999 SCT040 10/04 Q1016 NOSIG RMK RWY21C 23003KT 210V320 RWY03L 24003KT 190V310 RWY21R VRB02KT RWY03R 16003KT 130V190 RWY21L 22005KT",
      "taf": "TAF LTAC 301640Z 3018/3118 25007KT 9999 SCT040"
    },
    {
      "icao": "LTFM",
      "alert": "OK",
      "vis_m": 9999,
      "fzfg": false,
      "metar_trigger": false,
      "taf_trigger": false,
      "metar": "METAR LTFM 302220Z VRB04KT CAVOK 17/14 Q1014 NOSIG RMK RWY17L 11004KT RWY34L VRB02KT RWY16R 11005KT RWY36 16003KT 050V180 RWY18 10004KT",
      "taf": "TAF LTFM 301640Z 3018/3124 23012KT 9999 SCT040"
    },
    {
      "icao": "LUKK",
      "alert": "OK",
      "vis_m": 9999,
      "fzfg": false,
      "metar_trigger": false,
      "taf_trigger": false,
      "metar": "METAR LUKK 302230Z 20003KT CAVOK 12/09 Q1009 NOSIG",
      "taf": "TAF LUKK 301703Z 3018/3118 VRB05KT CAVOK"
    },
    {
      "icao": "LWOH",
      "alert": "OK",
      "vis_m": null,
      "fzfg": false,
      "metar_trigger": false,
      "taf_trigger": false,
      "metar": "",
      "taf": "TAF LWOH 302005Z 3021/3121 32006KT CAVOK"
    },
    {
      "icao": "LWSK",
      "alert": "OK",
      "vis_m": 9999,
      "fzfg": false,
      "metar_trigger": false,
      "taf_trigger": false,
      "metar": "METAR LWSK 302220Z VRB02KT CAVOK 15/09 Q1016 NOSIG",
      "taf": "TAF LWSK 302005Z 3021/3121 VRB03KT CAVOK"
    },
    {
      "icao": "LYBE",
      "alert": "OK",
      "vis_m": 9999,
      "fzfg": false,
      "metar_trigger": false,
      "taf_trigger": false,
      "metar": "METAR LYBE 302230Z 23006KT CAVOK 19/11 Q1014 NOSIG",
      "taf": "TAF LYBE 301700Z 3018/3118 26006KT CAVOK TX30/3113Z TN15/3104Z"
    },
    {
      "icao": "LYNI",
      "alert": "OK",
      "vis_m": 9999,
      "fzfg": false,
      "metar_trigger": false,
      "taf_trigger": false,
      "metar": "METAR LYNI 302230Z 10003KT 060V120 CAVOK 17/10 Q1015 NOSIG",
      "taf": "TAF LYNI 301700Z 3018/3118 10005KT CAVOK TX28/3113Z TN12/3104Z"
    },
    {
      "icao": "LYPG",
      "alert": "OK",
      "vis_m": 9999,
      "fzfg": false,
      "metar_trigger": false,
      "taf_trigger": false,
      "metar": "METAR LYPG 302230Z VRB01KT CAVOK 20/10 Q1016 NOSIG",
      "taf": "TAF LYPG 301700Z 3018/3118 36008KT CAVOK TX30/3114Z TN18/3103Z"
    },
    {
      "icao": "LZIB",
      "alert": "OK",
      "vis_m": 9999,
      "fzfg": false,
      "metar_trigger": false,
      "taf_trigger": false,
      "metar": "METAR LZIB 302230Z 30012KT CAVOK 18/13 Q1014 NOSIG",
      "taf": ""
    },
    {
      "icao": "LZKZ",
      "alert": "OK",
      "vis_m": 9999,
      "fzfg": false,
      "metar_trigger": false,
      "taf_trigger": false,
      "metar": "METAR LZKZ 302230Z VRB03KT CAVOK 15/14 Q1012 NOSIG",
      "taf": "TAF LZKZ 301715Z 3018/3118 35010KT CAVOK"
    },
    {
      "icao": "LZTT",
      "alert": "OK",
      "vis_m": 9999,
      "fzfg": false,
      "metar_trigger": false,
      "taf_trigger": false,
      "metar": "METAR LZTT 302230Z VRB02KT 9999 FEW016 SCT050 11/11 Q1014",
      "taf": ""
    },
    {
      "icao": "OEJN",
      "alert": "OK",
      "vis_m": 9999,
      "fzfg": false,
      "metar_trigger": false,
      "taf_trigger": false,
      "metar": "METAR OEJN 302200Z 35005KT CAVOK 28/16 Q1007 NOSIG",
      "taf": "TAF OEJN 301700Z 3018/3124 36010KT CAVOK"
    },
    {
      "icao": "OEMA",
      "alert": "OK",
      "vis_m": 9999,
      "fzfg": false,
      "metar_trigger": false,
      "taf_trigger": false,
      "metar": "METAR OEMA 302200Z 26010KT CAVOK 34/04 Q1011 NOSIG",
      "taf": "TAF OEMA 301700Z 3018/3124 27006KT CAVOK"
    },
    {
      "icao": "OJAI",
      "alert": "OK",
      "vis_m": 5000,
      "fzfg": false,
      "metar_trigger": false,
      "taf_trigger": false,
      "metar": "METAR OJAI 302200Z 30010KT 5000 HZ NSC 16/06 Q1017 NOSIG",
      "taf": "TAF OJAI 301700Z 3018/3124 29010KT 5000 HZ NSC"
    },
    {
      "icao": "OMAA",
      "alert": "OK",
      "vis_m": 9999,
      "fzfg": false,
      "metar_trigger": false,
      "taf_trigger": false,
      "metar": "METAR OMAA 302230Z 22005KT 190V250 CAVOK 29/24 Q1002 NOSIG",
      "taf": "TAF OMAA 301700Z 3018/0100 24005KT 8000 NSC"
    },
    {
      "icao": "OMDB",
      "alert": "OK",
      "vis_m": 9999,
      "fzfg": false,
      "metar_trigger": false,
      "taf_trigger": false,
      "metar": "METAR OMDB 302230Z 18008KT CAVOK 31/20 Q1002 NOSIG",
      "taf": "TAF OMDB 301700Z 3018/0100 20007KT CAVOK"
    },
    {
      "icao": "UAAA",
      "alert": "OK",
      "vis_m": 9999,
      "fzfg": false,
      "metar_trigger": false,
      "taf_trigger": false,
      "metar": "METAR UAAA 302230Z 16002MPS 9999 SCT100 BKN200 19/11 Q1010 NOSIG",
      "taf": "TAF UAAA 301702Z 3018/3118 17003MPS 9999 SCT050CB BKN100 TX31/3110Z TN17/3101Z"
    },
    {
      "icao": "UBBB",
      "alert": "OK",
      "vis_m": 9999,
      "fzfg": false,
      "metar_trigger": false,
      "taf_trigger": false,
      "metar": "METAR UBBB 302230Z 12002KT 9999 SCT021 15/14 Q1012 NOSIG",
      "taf": "TAF UBBB 301705Z 3018/3118 33005KT 9999 SCT012 FEW050CB TX22/3110Z TN13/3100Z"
    },
    {
      "icao": "UDSG",
      "alert": "OK",
      "vis_m": 9999,
      "fzfg": false,
      "metar_trigger": false,
      "taf_trigger": false,
      "metar": "METAR UDSG 302230Z 20004KT 9999 FEW049 04/02 Q1016 NOSIG",
      "taf": "TAF UDSG 301658Z 3018/3118 VRB06KT 9999 FEW050"
    },
    {
      "icao": "UDYZ",
      "alert": "OK",
      "vis_m": 9999,
      "fzfg": false,
      "metar_trigger": false,
      "taf_trigger": false,
      "metar": "METAR UDYZ 302230Z 13004KT 070V160 9999 NSC 10/03 Q1012 NOSIG",
      "taf": "TAF UDYZ 301700Z 3018/3118 06006KT 9999 FEW040"
    },
    {
      "icao": "UGKO",
      "alert": "OK",
      "vis_m": 9999,
      "fzfg": false,
      "metar_trigger": false,
      "taf_trigger": false,
      "metar": "METAR UGKO 302230Z 08012KT CAVOK 09/07 Q1013 NOSIG",
      "taf": "TAF UGKO 301700Z 3018/3118 09007KT CAVOK TX17/3111Z TN10/3102Z"
    }
  ]
}