{
  "ts_utc": "2026-04-25T21:23:02Z",
  "threshold_m": 150,
  "source": "stations_override.txt (ICAO list) + aviationweather.gov (METAR/TAF raw)",
  "station_count": 159,
  "stations": [
    {
      "icao": "BIKF",
      "alert": "OK",
      "vis_m": 9999,
      "fzfg": false,
      "metar_trigger": false,
      "taf_trigger": false,
      "metar": "METAR BIKF 252100Z 13016KT 9999 FEW010 BKN032 07/05 Q1016",
      "taf": "TAF BIKF 251931Z 2521/2621 14022G32KT 9999 BKN020 TX10/2613Z TN06/2523Z"
    },
    {
      "icao": "BKPR",
      "alert": "OK",
      "vis_m": 9999,
      "fzfg": false,
      "metar_trigger": false,
      "taf_trigger": false,
      "metar": "METAR BKPR 252100Z VRB02KT CAVOK 10/05 Q1015 NOSIG",
      "taf": "TAF BKPR 251730Z 2518/2618 35007KT CAVOK"
    },
    {
      "icao": "EBCI",
      "alert": "OK",
      "vis_m": 9999,
      "fzfg": false,
      "metar_trigger": false,
      "taf_trigger": false,
      "metar": "METAR EBCI 252050Z 36004KT CAVOK 11/M01 Q1022 NOSIG",
      "taf": "TAF EBCI 251710Z 2518/2624 02006KT CAVOK"
    },
    {
      "icao": "EDDB",
      "alert": "OK",
      "vis_m": 9999,
      "fzfg": false,
      "metar_trigger": false,
      "taf_trigger": false,
      "metar": "METAR EDDB 252050Z AUTO 31017KT 280V350 9999 BKN036 09/02 Q1015 TEMPO 29020G30KT",
      "taf": "TAF EDDB 251700Z 2518/2618 29015G30KT CAVOK"
    },
    {
      "icao": "EDDH",
      "alert": "OK",
      "vis_m": 9999,
      "fzfg": false,
      "metar_trigger": false,
      "taf_trigger": false,
      "metar": "METAR EDDH 252050Z AUTO 30009KT 9999 SCT029 SCT034 07/03 Q1018 NOSIG",
      "taf": "TAF EDDH 251700Z 2518/2624 29015KT CAVOK"
    },
    {
      "icao": "EDDK",
      "alert": "OK",
      "vis_m": 9999,
      "fzfg": false,
      "metar_trigger": false,
      "taf_trigger": false,
      "metar": "METAR EDDK 252050Z AUTO 00000KT CAVOK 08/01 Q1020 NOSIG",
      "taf": "TAF EDDK 251700Z 2518/2624 33008KT CAVOK"
    },
    {
      "icao": "EDDN",
      "alert": "OK",
      "vis_m": 9999,
      "fzfg": false,
      "metar_trigger": false,
      "taf_trigger": false,
      "metar": "METAR EDDN 252050Z AUTO VRB01KT CAVOK 10/M03 Q1017",
      "taf": "TAF EDDN 251700Z 2518/2618 29009KT CAVOK"
    },
    {
      "icao": "EDDS",
      "alert": "OK",
      "vis_m": 9999,
      "fzfg": false,
      "metar_trigger": false,
      "taf_trigger": false,
      "metar": "METAR EDDS 252050Z AUTO VRB01KT CAVOK 11/M02 Q1018",
      "taf": "TAF EDDS 251700Z 2518/2618 34007KT CAVOK"
    },
    {
      "icao": "EDFH",
      "alert": "OK",
      "vis_m": 9999,
      "fzfg": false,
      "metar_trigger": false,
      "taf_trigger": false,
      "metar": "METAR EDFH 252050Z 32004KT CAVOK 09/M03 Q1020",
      "taf": "TAF EDFH 251700Z 2518/2618 36007KT CAVOK"
    },
    {
      "icao": "EDJA",
      "alert": "OK",
      "vis_m": 9999,
      "fzfg": false,
      "metar_trigger": false,
      "taf_trigger": false,
      "metar": "METAR EDJA 252050Z VRB01KT CAVOK 08/02 Q1019",
      "taf": "TAF EDJA 251700Z 2518/2603 34007KT CAVOK"
    },
    {
      "icao": "EDLW",
      "alert": "OK",
      "vis_m": 9999,
      "fzfg": false,
      "metar_trigger": false,
      "taf_trigger": false,
      "metar": "METAR EDLW 252050Z VRB02KT CAVOK 10/02 Q1020",
      "taf": "TAF EDLW 251700Z 2518/2618 30006KT CAVOK"
    },
    {
      "icao": "EDNY",
      "alert": "OK",
      "vis_m": 9999,
      "fzfg": false,
      "metar_trigger": false,
      "taf_trigger": false,
      "metar": "METAR EDNY 252050Z AUTO 04004KT 9999 // NCD 14/03 Q1019",
      "taf": "TAF EDNY 251700Z 2518/2603 VRB02KT CAVOK"
    },
    {
      "icao": "EDSB",
      "alert": "OK",
      "vis_m": 9999,
      "fzfg": false,
      "metar_trigger": false,
      "taf_trigger": false,
      "metar": "METAR EDSB 252050Z 03006KT CAVOK 12/05 Q1019",
      "taf": "TAF EDSB 251700Z 2518/2618 36004KT CAVOK"
    },
    {
      "icao": "EETN",
      "alert": "OK",
      "vis_m": 7000,
      "fzfg": false,
      "metar_trigger": false,
      "taf_trigger": false,
      "metar": "METAR EETN 252120Z 32019G29KT 7000 -SHSN BKN011 SCT013CB OVC019 01/M00 Q0993 TEMPO 3000 SHSN",
      "taf": "TAF EETN 251730Z 2518/2618 28015G25KT 9999 SCT035"
    },
    {
      "icao": "EFTU",
      "alert": "OK",
      "vis_m": 9999,
      "fzfg": false,
      "metar_trigger": false,
      "taf_trigger": false,
      "metar": "METAR EFTU 252120Z AUTO 34008KT 290V010 CAVOK 00/M10 Q0999",
      "taf": "TAF EFTU 252027Z 2521/2621 34010KT CAVOK"
    },
    {
      "icao": "EGBB",
      "alert": "OK",
      "vis_m": 9999,
      "fzfg": false,
      "metar_trigger": false,
      "taf_trigger": false,
      "metar": "METAR EGBB 252050Z 11009KT 070V200 CAVOK 13/03 Q1022",
      "taf": "TAF EGBB 251657Z 2518/2618 13004KT CAVOK"
    },
    {
      "icao": "EGGP",
      "alert": "OK",
      "vis_m": 9999,
      "fzfg": false,
      "metar_trigger": false,
      "taf_trigger": false,
      "metar": "METAR EGGP 252050Z 03008KT CAVOK 13/06 Q1022",
      "taf": "TAF EGGP 251654Z 2518/2618 VRB04KT CAVOK"
    },
    {
      "icao": "EGGW",
      "alert": "OK",
      "vis_m": 9999,
      "fzfg": false,
      "metar_trigger": false,
      "taf_trigger": false,
      "metar": "METAR EGGW 252050Z AUTO 04005KT 9999 NCD 12/02 Q1022",
      "taf": "TAF EGGW 251653Z 2518/2618 05007KT CAVOK"
    },
    {
      "icao": "EGKK",
      "alert": "OK",
      "vis_m": 9999,
      "fzfg": false,
      "metar_trigger": false,
      "taf_trigger": false,
      "metar": "METAR EGKK 252050Z VRB01KT CAVOK 11/M03 Q1022",
      "taf": "TAF EGKK 251655Z 2518/2624 21004KT CAVOK"
    },
    {
      "icao": "EGNM",
      "alert": "OK",
      "vis_m": 9999,
      "fzfg": false,
      "metar_trigger": false,
      "taf_trigger": false,
      "metar": "METAR EGNM 252050Z 03004KT CAVOK 06/04 Q1024",
      "taf": "TAF EGNM 251654Z 2518/2618 07008KT 9999 SCT030"
    },
    {
      "icao": "EGPD",
      "alert": "OK",
      "vis_m": 9999,
      "fzfg": false,
      "metar_trigger": false,
      "taf_trigger": false,
      "metar": "METAR EGPD 252050Z COR AUTO 12005KT 9999 OVC021 07/03 Q1025 NOSIG",
      "taf": "TAF EGPD 251656Z 2518/2618 10006KT 9999 BKN025"
    },
    {
      "icao": "EGPF",
      "alert": "OK",
      "vis_m": 9999,
      "fzfg": false,
      "metar_trigger": false,
      "taf_trigger": false,
      "metar": "METAR EGPF 252050Z AUTO 07011KT 9999 NCD 08/04 Q1024",
      "taf": "TAF EGPF 251654Z 2518/2618 07010KT CAVOK"
    },
    {
      "icao": "EHBK",
      "alert": "OK",
      "vis_m": 9999,
      "fzfg": false,
      "metar_trigger": false,
      "taf_trigger": false,
      "metar": "METAR EHBK 252055Z AUTO 34003KT 9999 NSC 12/01 Q1021",
      "taf": "TAF EHBK 251715Z 2518/2624 34006KT CAVOK"
    },
    {
      "icao": "EHEH",
      "alert": "OK",
      "vis_m": 9999,
      "fzfg": false,
      "metar_trigger": false,
      "taf_trigger": false,
      "metar": "METAR EHEH 252055Z AUTO 35003KT 300V020 9999 OVC240 10/01 Q1021 BLU NOSIG RMK TREND REMOTE BY EHWX",
      "taf": "TAF EHEH 251741Z 2518/2624 36007KT CAVOK"
    },
    {
      "icao": "EKBI",
      "alert": "OK",
      "vis_m": 9999,
      "fzfg": false,
      "metar_trigger": false,
      "taf_trigger": false,
      "metar": "METAR EKBI 252050Z AUTO 28007KT 9999 NCD 04/01 Q1017",
      "taf": "TAF EKBI 252027Z 2521/2621 30008KT 9999 FEW035"
    },
    {
      "icao": "EKCH",
      "alert": "OK",
      "vis_m": 9999,
      "fzfg": false,
      "metar_trigger": false,
      "taf_trigger": false,
      "metar": "METAR EKCH 252050Z AUTO 33011KT 9999 NCD 06/00 Q1013 NOSIG",
      "taf": "TAF EKCH 252027Z 2521/2621 33013KT 9999 FEW035"
    },
    {
      "icao": "ENAL",
      "alert": "OK",
      "vis_m": 9999,
      "fzfg": false,
      "metar_trigger": false,
      "taf_trigger": false,
      "metar": "METAR ENAL 252050Z 34007KT 300V010 9999 FEW033 03/M04 Q1022",
      "taf": "TAF ENAL 252000Z 2521/2606 35008KT 9999 FEW030 BKN060"
    },
    {
      "icao": "ENBR",
      "alert": "OK",
      "vis_m": 9999,
      "fzfg": false,
      "metar_trigger": false,
      "taf_trigger": false,
      "metar": "METAR ENBR 252050Z 34010KT CAVOK 03/M03 Q1021 RMK WIND 1200FT 34023KT",
      "taf": "TAF ENBR 251700Z 2518/2618 33015KT 9999 FEW035"
    },
    {
      "icao": "ENGM",
      "alert": "OK",
      "vis_m": 9999,
      "fzfg": false,
      "metar_trigger": false,
      "taf_trigger": false,
      "metar": "METAR ENGM 252050Z 34007KT 310V010 CAVOK 02/M10 Q1015 NOSIG",
      "taf": "TAF ENGM 251700Z 2518/2618 30015G25KT CAVOK"
    },
    {
      "icao": "ENHD",
      "alert": "OK",
      "vis_m": 9999,
      "fzfg": false,
      "metar_trigger": false,
      "taf_trigger": false,
      "metar": "METAR ENHD 252050Z AUTO 34022KT 9999 NCD 05/M02 Q1021",
      "taf": "TAF ENHD 251400Z 2515/2522 33025G38KT 9999 FEW025"
    },
    {
      "icao": "ENTC",
      "alert": "OK",
      "vis_m": 9999,
      "fzfg": false,
      "metar_trigger": false,
      "taf_trigger": false,
      "metar": "METAR ENTC 252050Z 18008KT 9999 -SN OVC023 M01/M02 Q1003 RMK WIND 2600FT 32010KT",
      "taf": ""
    },
    {
      "icao": "ENTO",
      "alert": "OK",
      "vis_m": 9999,
      "fzfg": false,
      "metar_trigger": false,
      "taf_trigger": false,
      "metar": "METAR ENTO 252050Z AUTO 36010KT 9999 NCD 04/M09 Q1016",
      "taf": "TAF ENTO 251700Z 2518/2618 02012KT CAVOK"
    },
    {
      "icao": "ENVA",
      "alert": "OK",
      "vis_m": 9999,
      "fzfg": false,
      "metar_trigger": false,
      "taf_trigger": false,
      "metar": "METAR ENVA 252050Z 31011KT 270V340 9999 VCSH FEW009CB BKN013 01/00 Q1017 RMK WIND 670FT 31019KT",
      "taf": ""
    },
    {
      "icao": "ENZV",
      "alert": "OK",
      "vis_m": 9999,
      "fzfg": false,
      "metar_trigger": false,
      "taf_trigger": false,
      "metar": "METAR ENZV 252050Z 35012KT CAVOK 05/M01 Q1020",
      "taf": "TAF ENZV 251700Z 2518/2618 33020KT CAVOK"
    },
    {
      "icao": "EPGD",
      "alert": "OK",
      "vis_m": 9999,
      "fzfg": false,
      "metar_trigger": false,
      "taf_trigger": false,
      "metar": "METAR EPGD 252100Z 30020KT 9999 FEW013 SCT021 BKN036 06/03 Q1003",
      "taf": "TAF EPGD 251730Z 2518/2618 27018KT 9999 BKN025"
    },
    {
      "icao": "EPKK",
      "alert": "OK",
      "vis_m": 9999,
      "fzfg": false,
      "metar_trigger": false,
      "taf_trigger": false,
      "metar": "METAR EPKK 252100Z 25009KT CAVOK 11/03 Q1008",
      "taf": "TAF EPKK 252030Z 2521/2621 26010KT CAVOK"
    },
    {
      "icao": "EPKT",
      "alert": "OK",
      "vis_m": 9999,
      "fzfg": false,
      "metar_trigger": false,
      "taf_trigger": false,
      "metar": "METAR EPKT 252100Z 27012KT CAVOK 13/M01 Q1008",
      "taf": "TAF EPKT 251730Z 2518/2618 27012KT CAVOK"
    },
    {
      "icao": "EPLB",
      "alert": "OK",
      "vis_m": 9999,
      "fzfg": false,
      "metar_trigger": false,
      "taf_trigger": false,
      "metar": "METAR EPLB 252100Z 26011KT CAVOK 13/01 Q1005",
      "taf": "TAF EPLB 251730Z 2518/2618 27015KT CAVOK"
    },
    {
      "icao": "EPMO",
      "alert": "OK",
      "vis_m": 9999,
      "fzfg": false,
      "metar_trigger": false,
      "taf_trigger": false,
      "metar": "METAR EPMO 252100Z 32008KT 290V350 CAVOK 10/03 Q1004",
      "taf": "TAF EPMO 251730Z 2518/2618 27016KT CAVOK"
    },
    {
      "icao": "EPPO",
      "alert": "OK",
      "vis_m": 9999,
      "fzfg": false,
      "metar_trigger": false,
      "taf_trigger": false,
      "metar": "METAR EPPO 252100Z 31017KT 9999 BKN035 10/02 Q1009",
      "taf": "TAF EPPO 251730Z 2518/2618 28015KT CAVOK"
    },
    {
      "icao": "EPRA",
      "alert": "OK",
      "vis_m": 9999,
      "fzfg": false,
      "metar_trigger": false,
      "taf_trigger": false,
      "metar": "METAR EPRA 252100Z 27008KT CAVOK 12/00 Q1005",
      "taf": ""
    },
    {
      "icao": "EPRZ",
      "alert": "OK",
      "vis_m": 9999,
      "fzfg": false,
      "metar_trigger": false,
      "taf_trigger": false,
      "metar": "METAR EPRZ 252100Z 24003KT CAVOK 12/03 Q1007",
      "taf": "TAF EPRZ 251730Z 2518/2618 25013KT CAVOK"
    },
    {
      "icao": "EPSC",
      "alert": "OK",
      "vis_m": 9999,
      "fzfg": false,
      "metar_trigger": false,
      "taf_trigger": false,
      "metar": "METAR EPSC 252100Z 28015KT 9999 BKN027 08/02 Q1010",
      "taf": "TAF EPSC 251730Z 2518/2618 28018KT 9999 BKN035"
    },
    {
      "icao": "EPSY",
      "alert": "OK",
      "vis_m": 9999,
      "fzfg": false,
      "metar_trigger": false,
      "taf_trigger": false,
      "metar": "METAR EPSY 252100Z 28006KT 250V310 CAVOK 08/01 Q1003",
      "taf": "TAF EPSY 252030Z 2521/2606 30010KT 9999 BKN030"
    },
    {
      "icao": "EPWA",
      "alert": "OK",
      "vis_m": 9999,
      "fzfg": false,
      "metar_trigger": false,
      "taf_trigger": false,
      "metar": "METAR EPWA 252100Z 26009KT CAVOK 12/01 Q1004 NOSIG",
      "taf": "TAF EPWA 252030Z 2521/2621 27010KT CAVOK"
    },
    {
      "icao": "EPWR",
      "alert": "OK",
      "vis_m": 9999,
      "fzfg": false,
      "metar_trigger": false,
      "taf_trigger": false,
      "metar": "METAR EPWR 252100Z 27015KT CAVOK 13/M01 Q1010",
      "taf": "TAF EPWR 252030Z 2521/2621 27016KT 9999 SCT040"
    },
    {
      "icao": "ESGG",
      "alert": "OK",
      "vis_m": 9999,
      "fzfg": false,
      "metar_trigger": false,
      "taf_trigger": false,
      "metar": "METAR ESGG 252050Z 34011KT CAVOK 04/M07 Q1013",
      "taf": "TAF ESGG 252030Z 2521/2621 35010G20KT CAVOK"
    },
    {
      "icao": "ESKN",
      "alert": "OK",
      "vis_m": 9999,
      "fzfg": false,
      "metar_trigger": false,
      "taf_trigger": false,
      "metar": "METAR ESKN 252050Z 33006KT 9999 FEW045 SCT069 02/M02 Q1008",
      "taf": "TAF ESKN 252030Z 2521/2621 35013G23KT CAVOK"
    },
    {
      "icao": "ESMS",
      "alert": "OK",
      "vis_m": 9999,
      "fzfg": false,
      "metar_trigger": false,
      "taf_trigger": false,
      "metar": "METAR ESMS 252050Z 29009KT CAVOK 05/01 Q1011",
      "taf": "TAF ESMS 252027Z 2521/2621 32012KT 9999 FEW035"
    },
    {
      "icao": "ESSA",
      "alert": "OK",
      "vis_m": 9999,
      "fzfg": false,
      "metar_trigger": false,
      "taf_trigger": false,
      "metar": "METAR ESSA 252050Z 29008KT CAVOK M00/M02 Q1006 NOSIG",
      "taf": "TAF ESSA 252030Z 2521/2621 34012KT 9999 SCT040"
    },
    {
      "icao": "EYKA",
      "alert": "OK",
      "vis_m": 9999,
      "fzfg": false,
      "metar_trigger": false,
      "taf_trigger": false,
      "metar": "METAR EYKA 252050Z 29008KT CAVOK 07/03 Q0999",
      "taf": "TAF EYKA 251708Z 2518/2618 28013KT 8000 SCT010 BKN020"
    },
    {
      "icao": "EYPA",
      "alert": "OK",
      "vis_m": 9999,
      "fzfg": false,
      "metar_trigger": false,
      "taf_trigger": false,
      "metar": "METAR EYPA 252120Z 01007KT CAVOK 03/01 Q1002",
      "taf": "TAF EYPA 251707Z 2518/2618 VRB03KT 9000 SCT010 BKN020"
    },
    {
      "icao": "EYVI",
      "alert": "OK",
      "vis_m": 9999,
      "fzfg": false,
      "metar_trigger": false,
      "taf_trigger": false,
      "metar": "METAR EYVI 252120Z 28007KT 250V310 9999 FEW031 07/02 Q0999 NOSIG",
      "taf": "TAF EYVI 251709Z 2518/2618 28011KT 6000 SCT010 BKN020"
    },
    {
      "icao": "GCFV",
      "alert": "OK",
      "vis_m": 9999,
      "fzfg": false,
      "metar_trigger": false,
      "taf_trigger": false,
      "metar": "METAR GCFV 252100Z 35013KT 9999 FEW025 19/13 Q1015",
      "taf": "TAF GCFV 252000Z 2521/2621 36014KT 9999 SCT025 TX23/2614Z TN17/2606Z"
    },
    {
      "icao": "GCLP",
      "alert": "OK",
      "vis_m": 9999,
      "fzfg": false,
      "metar_trigger": false,
      "taf_trigger": false,
      "metar": "METAR GCLP 252100Z 36012KT 320V030 9999 SCT020 BKN035 19/16 Q1016 NOSIG",
      "taf": "TAF GCLP 252000Z 2521/2621 01015KT 9999 SCT025 TX23/2614Z TN16/2606Z"
    },
    {
      "icao": "GCTS",
      "alert": "OK",
      "vis_m": 6000,
      "fzfg": false,
      "metar_trigger": false,
      "taf_trigger": false,
      "metar": "METAR GCTS 252100Z 29005KT 240V310 6000 RA SCT015 BKN035 18/16 Q1016 NOSIG",
      "taf": "TAF GCTS 252000Z 2521/2621 04009KT 9999 BKN025 TX22/2614Z TN16/2606Z"
    },
    {
      "icao": "GMAD",
      "alert": "OK",
      "vis_m": 9999,
      "fzfg": false,
      "metar_trigger": false,
      "taf_trigger": false,
      "metar": "METAR GMAD 252100Z 21007KT CAVOK 17/13 Q1010 NOSIG",
      "taf": "TAF GMAD 251700Z 2518/2624 20008KT 8000 NSC"
    },
    {
      "icao": "GMMN",
      "alert": "OK",
      "vis_m": 9999,
      "fzfg": false,
      "metar_trigger": false,
      "taf_trigger": false,
      "metar": "METAR GMMN 252100Z 03008KT 350V060 CAVOK 17/14 Q1014 NOSIG",
      "taf": "TAF GMMN 251700Z 2518/2624 36015KT CAVOK"
    },
    {
      "icao": "GMMX",
      "alert": "OK",
      "vis_m": 8000,
      "fzfg": false,
      "metar_trigger": false,
      "taf_trigger": false,
      "metar": "METAR GMMX 252100Z 03010KT 360V070 8000 BKN026 21/13 Q1012 NOSIG",
      "taf": "TAF GMMX 251700Z 2518/2624 06006KT 8000 SCT026"
    },
    {
      "icao": "HEGN",
      "alert": "OK",
      "vis_m": 9999,
      "fzfg": false,
      "metar_trigger": false,
      "taf_trigger": false,
      "metar": "METAR HEGN 252100Z 00000KT CAVOK 25/M04 Q1010 NOSIG",
      "taf": "TAF HEGN 251700Z 2518/2624 11010KT CAVOK"
    },
    {
      "icao": "HEMA",
      "alert": "OK",
      "vis_m": 9999,
      "fzfg": false,
      "metar_trigger": false,
      "taf_trigger": false,
      "metar": "METAR HEMA 252100Z 21004KT CAVOK 22/16 Q1011 NOSIG",
      "taf": "TAF HEMA 251700Z 2518/2624 05010KT CAVOK"
    },
    {
      "icao": "HESH",
      "alert": "OK",
      "vis_m": 9999,
      "fzfg": false,
      "metar_trigger": false,
      "taf_trigger": false,
      "metar": "METAR HESH 252100Z 35002KT CAVOK 23/18 Q1010 NOSIG",
      "taf": "TAF HESH 251700Z 2518/2624 15010KT CAVOK"
    },
    {
      "icao": "HESX",
      "alert": "OK",
      "vis_m": 9999,
      "fzfg": false,
      "metar_trigger": false,
      "taf_trigger": false,
      "metar": "METAR HESX 252100Z 35014KT CAVOK 22/11 Q1010 NOSIG",
      "taf": "TAF HESX 251700Z 2518/2624 26009KT CAVOK"
    },
    {
      "icao": "LATI",
      "alert": "OK",
      "vis_m": 9999,
      "fzfg": false,
      "metar_trigger": false,
      "taf_trigger": false,
      "metar": "METAR LATI 252120Z 15003KT CAVOK 12/09 Q1015 NOSIG",
      "taf": "TAF LATI 251700Z 2518/2618 VRB05KT CAVOK TX25/2612Z TN07/2604Z"
    },
    {
      "icao": "LBPD",
      "alert": "OK",
      "vis_m": 9999,
      "fzfg": false,
      "metar_trigger": false,
      "taf_trigger": false,
      "metar": "METAR LBPD 252100Z AUTO 24004KT 9999 NCD 12/08 Q1013",
      "taf": "TAF LBPD 251700Z 2518/2618 14010KT CAVOK"
    },
    {
      "icao": "LBSF",
      "alert": "OK",
      "vis_m": 9999,
      "fzfg": false,
      "metar_trigger": false,
      "taf_trigger": false,
      "metar": "METAR LBSF 252100Z AUTO VRB01KT 9999 NSC 08/05 Q1015 NOSIG",
      "taf": "TAF LBSF 251700Z 2518/2618 VRB03KT CAVOK"
    },
    {
      "icao": "LBWN",
      "alert": "OK",
      "vis_m": 9999,
      "fzfg": false,
      "metar_trigger": false,
      "taf_trigger": false,
      "metar": "METAR LBWN 252100Z AUTO 36002KT 9999 NSC 09/05 Q1013 NOSIG",
      "taf": "TAF LBWN 251700Z 2518/2618 10010KT 9999 SCT045"
    },
    {
      "icao": "LCLK",
      "alert": "OK",
      "vis_m": 9999,
      "fzfg": false,
      "metar_trigger": false,
      "taf_trigger": false,
      "metar": "METAR LCLK 252100Z 31004KT CAVOK 18/12 Q1011 NOSIG",
      "taf": "TAF LCLK 251730Z 2518/2618 35006KT 9999 FEW030"
    },
    {
      "icao": "LCPH",
      "alert": "OK",
      "vis_m": 9999,
      "fzfg": false,
      "metar_trigger": false,
      "taf_trigger": false,
      "metar": "METAR LCPH 252100Z 07005KT CAVOK 18/15 Q1010 NOSIG",
      "taf": "TAF LCPH 251730Z 2518/2618 01007KT 9999 FEW020"
    },
    {
      "icao": "LEAL",
      "alert": "OK",
      "vis_m": 9999,
      "fzfg": false,
      "metar_trigger": false,
      "taf_trigger": false,
      "metar": "METAR LEAL 252100Z 01003KT 330V060 9999 SCT021 16/13 Q1018 NOSIG",
      "taf": "TAF LEAL 251700Z 2518/2618 VRB04KT 9999 FEW020 TX22/2612Z TN10/2606Z"
    },
    {
      "icao": "LEBB",
      "alert": "OK",
      "vis_m": 9999,
      "fzfg": false,
      "metar_trigger": false,
      "taf_trigger": false,
      "metar": "METAR LEBB 252100Z 32004KT 280V350 9999 BKN014 15/13 Q1022 NOSIG",
      "taf": "TAF LEBB 251700Z 2518/2618 30009KT 9999 FEW010 BKN016 TX21/2612Z TN13/2603Z"
    },
    {
      "icao": "LEBL",
      "alert": "OK",
      "vis_m": 9999,
      "fzfg": false,
      "metar_trigger": false,
      "taf_trigger": false,
      "metar": "METAR LEBL 252100Z 22005KT CAVOK 17/15 Q1018 NOSIG",
      "taf": "TAF LEBL 251700Z 2518/2618 20008KT CAVOK TX23/2612Z TN14/2605Z"
    },
    {
      "icao": "LECH",
      "alert": "OK",
      "vis_m": 9999,
      "fzfg": false,
      "metar_trigger": false,
      "taf_trigger": false,
      "metar": "METAR LECH 252100Z AUTO VRB01KT CAVOK 14/11 Q1019",
      "taf": "TAF LECH 251700Z 2518/2618 VRB04KT CAVOK TX25/2613Z TN09/2606Z"
    },
    {
      "icao": "LEMD",
      "alert": "OK",
      "vis_m": 9999,
      "fzfg": false,
      "metar_trigger": false,
      "taf_trigger": false,
      "metar": "METAR LEMD 252100Z 03003KT 340V110 9999 VCTS FEW050CB SCT080 16/12 Q1019 BECMG NSW",
      "taf": ""
    },
    {
      "icao": "LEMG",
      "alert": "OK",
      "vis_m": 9999,
      "fzfg": false,
      "metar_trigger": false,
      "taf_trigger": false,
      "metar": "METAR LEMG 252100Z 16003KT 9999 FEW030 15/12 Q1018 NOSIG",
      "taf": "TAF LEMG 251700Z 2518/2618 14010KT 9999 FEW030 TX20/2615Z TN15/2606Z"
    },
    {
      "icao": "LEVC",
      "alert": "OK",
      "vis_m": 9999,
      "fzfg": false,
      "metar_trigger": false,
      "taf_trigger": false,
      "metar": "METAR LEVC 252100Z VRB02KT CAVOK 16/12 Q1019 NOSIG",
      "taf": "TAF LEVC 251700Z 2518/2618 12008KT CAVOK TX25/2612Z TN11/2606Z"
    },
    {
      "icao": "LEXJ",
      "alert": "OK",
      "vis_m": 9999,
      "fzfg": false,
      "metar_trigger": false,
      "taf_trigger": false,
      "metar": "METAR LEXJ 252100Z 31004KT 280V360 9999 OVC019 14/11 Q1022",
      "taf": "TAF LEXJ 252000Z 2521/2621 20005KT 9999 FEW010 BKN016 TX18/2613Z TN11/2602Z"
    },
    {
      "icao": "LEZG",
      "alert": "OK",
      "vis_m": 9999,
      "fzfg": false,
      "metar_trigger": false,
      "taf_trigger": false,
      "metar": "METAR LEZG 252100Z 29010KT CAVOK 20/12 Q1017 NOSIG",
      "taf": "TAF LEZG 251700Z 2518/2618 VRB04KT 9999 FEW050 TX29/2615Z TN14/2606Z"
    },
    {
      "icao": "LEZL",
      "alert": "OK",
      "vis_m": 9999,
      "fzfg": false,
      "metar_trigger": false,
      "taf_trigger": false,
      "metar": "METAR LEZL 252100Z 25003KT 220V280 CAVOK 19/15 Q1016 NOSIG",
      "taf": "TAF LEZL 252000Z 2521/2621 VRB03KT 9999 FEW030 TX27/2615Z TN15/2606Z"
    },
    {
      "icao": "LFBD",
      "alert": "OK",
      "vis_m": 9999,
      "fzfg": false,
      "metar_trigger": false,
      "taf_trigger": false,
      "metar": "METAR LFBD 252100Z AUTO 26003KT 9999 OVC018 16/12 Q1021 TEMPO BKN010",
      "taf": "TAF LFBD 251700Z 2518/2624 24008KT 9999 BKN015 TX25/2616Z TN14/2605Z"
    },
    {
      "icao": "LFLL",
      "alert": "OK",
      "vis_m": 9999,
      "fzfg": false,
      "metar_trigger": false,
      "taf_trigger": false,
      "metar": "METAR LFLL 252100Z VRB01KT CAVOK 16/05 Q1018 NOSIG",
      "taf": "TAF LFLL 251700Z 2518/2624 36005KT CAVOK"
    },
    {
      "icao": "LFLS",
      "alert": "OK",
      "vis_m": 9999,
      "fzfg": false,
      "metar_trigger": false,
      "taf_trigger": false,
      "metar": "METAR LFLS 252100Z AUTO VRB02KT CAVOK 15/02 Q1018",
      "taf": "TAF LFLS 251400Z 2515/2615 35010KT CAVOK"
    },
    {
      "icao": "LFMN",
      "alert": "OK",
      "vis_m": 9999,
      "fzfg": false,
      "metar_trigger": false,
      "taf_trigger": false,
      "metar": "METAR LFMN 252100Z VRB03KT 9999 FEW017 16/13 Q1017 NOSIG",
      "taf": "TAF LFMN 252000Z 2521/2703 VRB03KT 9999 FEW020"
    },
    {
      "icao": "LFOB",
      "alert": "OK",
      "vis_m": 9999,
      "fzfg": false,
      "metar_trigger": false,
      "taf_trigger": false,
      "metar": "METAR LFOB 252100Z AUTO 01006KT 330V040 CAVOK 10/03 Q1021 NOSIG",
      "taf": "TAF LFOB 251700Z 2518/2618 05005KT CAVOK"
    },
    {
      "icao": "LFPO",
      "alert": "OK",
      "vis_m": 9999,
      "fzfg": false,
      "metar_trigger": false,
      "taf_trigger": false,
      "metar": "METAR LFPO 252100Z 04010KT CAVOK 16/01 Q1021 NOSIG",
      "taf": "TAF LFPO 251700Z 2518/2624 02008KT CAVOK"
    },
    {
      "icao": "LFSB",
      "alert": "OK",
      "vis_m": 9999,
      "fzfg": false,
      "metar_trigger": false,
      "taf_trigger": false,
      "metar": "METAR LFSB 252100Z AUTO 29002KT CAVOK 10/03 Q1018 NOSIG",
      "taf": "TAF LFSB 251700Z 2518/2618 36005KT CAVOK"
    },
    {
      "icao": "LGAV",
      "alert": "OK",
      "vis_m": 9999,
      "fzfg": false,
      "metar_trigger": false,
      "taf_trigger": false,
      "metar": "METAR LGAV 252050Z VRB01KT 9999 FEW030 10/05 Q1014 NOSIG",
      "taf": "TAF LGAV 251700Z 2518/2618 03013KT 9999 FEW025"
    },
    {
      "icao": "LGTS",
      "alert": "OK",
      "vis_m": 9999,
      "fzfg": false,
      "metar_trigger": false,
      "taf_trigger": false,
      "metar": "METAR LGTS 252050Z 10006KT CAVOK 11/08 Q1014 NOSIG",
      "taf": "TAF LGTS 251700Z 2518/2618 VRB03KT CAVOK"
    },
    {
      "icao": "LHBP",
      "alert": "OK",
      "vis_m": 9999,
      "fzfg": false,
      "metar_trigger": false,
      "taf_trigger": false,
      "metar": "METAR LHBP 252100Z VRB02KT CAVOK 13/04 Q1012 NOSIG",
      "taf": "TAF LHBP 251715Z 2518/2618 26007KT CAVOK"
    },
    {
      "icao": "LHDC",
      "alert": "OK",
      "vis_m": 9999,
      "fzfg": false,
      "metar_trigger": false,
      "taf_trigger": false,
      "metar": "METAR LHDC 252045Z AUTO 24004KT CAVOK 13/04 Q1010",
      "taf": "TAF LHDC 251415Z 2515/2524 27010KT CAVOK"
    },
    {
      "icao": "LIBD",
      "alert": "OK",
      "vis_m": 9999,
      "fzfg": false,
      "metar_trigger": false,
      "taf_trigger": false,
      "metar": "METAR LIBD 252050Z 23003KT CAVOK 10/08 Q1015",
      "taf": "TAF LIBD 251700Z 2518/2618 VRB05KT CAVOK"
    },
    {
      "icao": "LIBG",
      "alert": "OK",
      "vis_m": null,
      "fzfg": false,
      "metar_trigger": false,
      "taf_trigger": false,
      "metar": "",
      "taf": "TAF LIBG 251400Z 2515/2524 33007KT CAVOK"
    },
    {
      "icao": "LIBP",
      "alert": "OK",
      "vis_m": 9999,
      "fzfg": false,
      "metar_trigger": false,
      "taf_trigger": false,
      "metar": "METAR LIBP 252050Z AUTO 23004KT 9999 NCD 11/09 Q1015",
      "taf": "TAF LIBP 251700Z 2518/2618 VRB05KT CAVOK"
    },
    {
      "icao": "LIBR",
      "alert": "OK",
      "vis_m": 9999,
      "fzfg": false,
      "metar_trigger": false,
      "taf_trigger": false,
      "metar": "METAR LIBR 252050Z 30004KT 9999 SCT005 14/13 Q1015",
      "taf": "TAF LIBR 251700Z 2518/2618 33010KT CAVOK"
    },
    {
      "icao": "LICA",
      "alert": "OK",
      "vis_m": 9999,
      "fzfg": false,
      "metar_trigger": false,
      "taf_trigger": false,
      "metar": "METAR LICA 252050Z AUTO VRB02KT 9999 SCT027/// 14/12 Q1018",
      "taf": "TAF LICA 251700Z 2518/2618 26010KT 9999 FEW040"
    },
    {
      "icao": "LICC",
      "alert": "OK",
      "vis_m": 9999,
      "fzfg": false,
      "metar_trigger": false,
      "taf_trigger": false,
      "metar": "METAR LICC 252050Z 29007KT CAVOK 14/10 Q1018",
      "taf": "TAF LICC 251700Z 2518/2618 08010KT CAVOK"
    },
    {
      "icao": "LICJ",
      "alert": "OK",
      "vis_m": 9999,
      "fzfg": false,
      "metar_trigger": false,
      "taf_trigger": false,
      "metar": "METAR LICJ 252050Z 15003KT 110V180 CAVOK 15/10 Q1018",
      "taf": "TAF LICJ 251700Z 2518/2618 04014KT CAVOK"
    },
    {
      "icao": "LIMC",
      "alert": "OK",
      "vis_m": 9999,
      "fzfg": false,
      "metar_trigger": false,
      "taf_trigger": false,
      "metar": "METAR LIMC 252050Z 18004KT CAVOK 16/11 Q1015 NOSIG",
      "taf": "TAF LIMC 251700Z 2518/2624 VRB05KT CAVOK"
    },
    {
      "icao": "LIME",
      "alert": "OK",
      "vis_m": 9999,
      "fzfg": false,
      "metar_trigger": false,
      "taf_trigger": false,
      "metar": "METAR LIME 252050Z 36003KT 340V050 CAVOK 16/08 Q1015 NOSIG",
      "taf": "TAF LIME 251700Z 2518/2618 VRB05KT CAVOK"
    },
    {
      "icao": "LIMF",
      "alert": "OK",
      "vis_m": 9999,
      "fzfg": false,
      "metar_trigger": false,
      "taf_trigger": false,
      "metar": "METAR LIMF 252050Z VRB02KT CAVOK 18/10 Q1015",
      "taf": "TAF LIMF 251700Z 2518/2618 VRB05KT 9999 FEW050"
    },
    {
      "icao": "LIMJ",
      "alert": "OK",
      "vis_m": 9999,
      "fzfg": false,
      "metar_trigger": false,
      "taf_trigger": false,
      "metar": "METAR LIMJ 252050Z 13010KT 9999 FEW018 BKN025 17/13 Q1017",
      "taf": "TAF LIMJ 251700Z 2518/2618 VRB05KT 9999 SCT020"
    },
    {
      "icao": "LIPE",
      "alert": "OK",
      "vis_m": 9999,
      "fzfg": false,
      "metar_trigger": false,
      "taf_trigger": false,
      "metar": "METAR LIPE 252050Z 19008KT CAVOK 18/04 Q1014",
      "taf": "TAF LIPE 251700Z 2518/2618 VRB05KT CAVOK"
    },
    {
      "icao": "LIPH",
      "alert": "OK",
      "vis_m": 9999,
      "fzfg": false,
      "metar_trigger": false,
      "taf_trigger": false,
      "metar": "METAR LIPH 252050Z 01003KT CAVOK 16/11 Q1014",
      "taf": "TAF LIPH 251700Z 2518/2618 VRB05KT CAVOK"
    },
    {
      "icao": "LIPQ",
      "alert": "OK",
      "vis_m": 9999,
      "fzfg": false,
      "metar_trigger": false,
      "taf_trigger": false,
      "metar": "METAR LIPQ 252050Z AUTO VRB01KT 9999 NCD 11/07 Q1015",
      "taf": "TAF LIPQ 251700Z 2518/2618 VRB05KT 9999 FEW050"
    },
    {
      "icao": "LIPR",
      "alert": "OK",
      "vis_m": 9999,
      "fzfg": false,
      "metar_trigger": false,
      "taf_trigger": false,
      "metar": "METAR LIPR 252050Z VRB02KT CAVOK 13/10 Q1014",
      "taf": "TAF LIPR 251700Z 2518/2618 20006KT CAVOK"
    },
    {
      "icao": "LIPX",
      "alert": "OK",
      "vis_m": 9999,
      "fzfg": false,
      "metar_trigger": false,
      "taf_trigger": false,
      "metar": "METAR LIPX 252050Z 36004KT CAVOK 16/08 Q1014",
      "taf": "TAF LIPX 251700Z 2518/2618 VRB05KT CAVOK"
    },
    {
      "icao": "LIPY",
      "alert": "OK",
      "vis_m": 9999,
      "fzfg": false,
      "metar_trigger": false,
      "taf_trigger": false,
      "metar": "METAR LIPY 252050Z AUTO 17004KT 9999 NCD 14/09 Q1015",
      "taf": "TAF LIPY 251700Z 2518/2618 19005KT CAVOK"
    },
    {
      "icao": "LIPZ",
      "alert": "OK",
      "vis_m": 9999,
      "fzfg": false,
      "metar_trigger": false,
      "taf_trigger": false,
      "metar": "METAR LIPZ 252050Z 14003KT CAVOK 17/13 Q1015 NOSIG",
      "taf": "TAF LIPZ 251700Z 2518/2624 VRB05KT CAVOK"
    },
    {
      "icao": "LIRF",
      "alert": "OK",
      "vis_m": 9999,
      "fzfg": false,
      "metar_trigger": false,
      "taf_trigger": false,
      "metar": "METAR LIRF 252050Z 29007KT CAVOK 15/13 Q1017 NOSIG",
      "taf": "TAF LIRF 251700Z 2518/2624 28013KT CAVOK"
    },
    {
      "icao": "LIRN",
      "alert": "OK",
      "vis_m": 9999,
      "fzfg": false,
      "metar_trigger": false,
      "taf_trigger": false,
      "metar": "METAR LIRN 252050Z 23003KT 190V250 CAVOK 16/14 Q1018 NOSIG",
      "taf": "TAF LIRN 251700Z 2518/2618 19010KT CAVOK"
    },
    {
      "icao": "LIRP",
      "alert": "OK",
      "vis_m": 9999,
      "fzfg": false,
      "metar_trigger": false,
      "taf_trigger": false,
      "metar": "METAR LIRP 252045Z 20002KT CAVOK 12/09 Q1017 NOSIG",
      "taf": "TAF LIRP 251700Z 2518/2618 27011KT CAVOK"
    },
    {
      "icao": "LIRZ",
      "alert": "OK",
      "vis_m": 9999,
      "fzfg": false,
      "metar_trigger": false,
      "taf_trigger": false,
      "metar": "METAR LIRZ 252050Z AUTO 04004KT 360V080 9999 NCD 09/04 Q1017",
      "taf": "TAF LIRZ 251700Z 2518/2618 VRB05KT CAVOK"
    },
    {
      "icao": "LJLJ",
      "alert": "OK",
      "vis_m": 9999,
      "fzfg": false,
      "metar_trigger": false,
      "taf_trigger": false,
      "metar": "METAR LJLJ 252100Z VRB02KT CAVOK 11/06 Q1015 NOSIG",
      "taf": "TAF LJLJ 251700Z 2518/2618 24007KT CAVOK"
    },
    {
      "icao": "LKMT",
      "alert": "OK",
      "vis_m": 9999,
      "fzfg": false,
      "metar_trigger": false,
      "taf_trigger": false,
      "metar": "METAR LKMT 252100Z 25009KT CAVOK 11/01 Q1011 NOSIG",
      "taf": "TAF LKMT 251700Z 2518/2618 24008KT CAVOK"
    },
    {
      "icao": "LKPR",
      "alert": "OK",
      "vis_m": 9999,
      "fzfg": false,
      "metar_trigger": false,
      "taf_trigger": false,
      "metar": "METAR LKPR 252100Z 30011KT CAVOK 13/M02 Q1014 NOSIG",
      "taf": "TAF LKPR 252000Z 2521/2703 32015KT CAVOK"
    },
    {
      "icao": "LLBG",
      "alert": "OK",
      "vis_m": 9999,
      "fzfg": false,
      "metar_trigger": false,
      "taf_trigger": false,
      "metar": "METAR LLBG 252120Z VRB03KT CAVOK 18/11 Q1010 NOSIG",
      "taf": "TAF LLBG 251701Z 2518/2618 VRB04KT CAVOK TX28/2611Z TN15/2603Z"
    },
    {
      "icao": "LMML",
      "alert": "OK",
      "vis_m": 9999,
      "fzfg": false,
      "metar_trigger": false,
      "taf_trigger": false,
      "metar": "METAR LMML 252115Z 28004KT CAVOK 14/09 Q1019 NOSIG",
      "taf": "TAF LMML 251700Z 2518/2618 28008KT 9999 FEW015"
    },
    {
      "icao": "LOWW",
      "alert": "OK",
      "vis_m": 9999,
      "fzfg": false,
      "metar_trigger": false,
      "taf_trigger": false,
      "metar": "METAR LOWW 252050Z 29012KT CAVOK 19/02 Q1013 NOSIG",
      "taf": "TAF LOWW 252015Z 2521/2703 29012KT CAVOK TX17/2615Z TN05/2703Z"
    },
    {
      "icao": "LPFR",
      "alert": "OK",
      "vis_m": 9999,
      "fzfg": false,
      "metar_trigger": false,
      "taf_trigger": false,
      "metar": "METAR LPFR 252100Z VRB02KT 9999 FEW035 19/15 Q1015",
      "taf": "TAF LPFR 251700Z 2518/2618 25010KT 9999 FEW035"
    },
    {
      "icao": "LPMA",
      "alert": "OK",
      "vis_m": 9999,
      "fzfg": false,
      "metar_trigger": false,
      "taf_trigger": false,
      "metar": "METAR LPMA 252100Z 02013G23KT 350V050 9999 SCT016 17/12 Q1018",
      "taf": "TAF LPMA 251700Z 2518/2618 02010KT 9999 SCT015"
    },
    {
      "icao": "LPPR",
      "alert": "OK",
      "vis_m": 9999,
      "fzfg": false,
      "metar_trigger": false,
      "taf_trigger": false,
      "metar": "METAR LPPR 252100Z 26003KT 210V340 9999 FEW025CB 16/14 Q1017",
      "taf": "TAF LPPR 251700Z 2518/2618 32010KT CAVOK"
    },
    {
      "icao": "LPPS",
      "alert": "OK",
      "vis_m": 9999,
      "fzfg": false,
      "metar_trigger": false,
      "taf_trigger": false,
      "metar": "METAR LPPS 252100Z 02010KT 360V060 9999 SCT015 16/12 Q1019",
      "taf": "TAF LPPS 251700Z 2518/2624 02012KT 9999 SCT015"
    },
    {
      "icao": "LPPT",
      "alert": "OK",
      "vis_m": 9999,
      "fzfg": false,
      "metar_trigger": false,
      "taf_trigger": false,
      "metar": "METAR LPPT 252100Z 34014KT CAVOK 18/09 Q1016",
      "taf": "TAF LPPT 251700Z 2518/2624 30012KT 9999 FEW030"
    },
    {
      "icao": "LQBK",
      "alert": "OK",
      "vis_m": 9999,
      "fzfg": false,
      "metar_trigger": false,
      "taf_trigger": false,
      "metar": "METAR LQBK 252100Z VRB03KT CAVOK 10/05 Q1013 NOSIG",
      "taf": "TAF LQBK 251700Z 2518/2618 33005KT CAVOK TX23/2613Z TN04/2604Z"
    },
    {
      "icao": "LQSA",
      "alert": "OK",
      "vis_m": 9999,
      "fzfg": false,
      "metar_trigger": false,
      "taf_trigger": false,
      "metar": "METAR LQSA 252100Z 14002KT CAVOK 09/04 Q1015 NOSIG",
      "taf": "TAF LQSA 251700Z 2518/2618 29005KT CAVOK TX23/2614Z TN05/2604Z"
    },
    {
      "icao": "LQTZ",
      "alert": "OK",
      "vis_m": 9999,
      "fzfg": false,
      "metar_trigger": false,
      "taf_trigger": false,
      "metar": "METAR LQTZ 252100Z VRB01KT CAVOK 07/06 Q1014",
      "taf": "TAF LQTZ 251700Z 2518/2618 10005KT CAVOK TX21/2613Z TN02/2604Z"
    },
    {
      "icao": "LRBC",
      "alert": "OK",
      "vis_m": 9999,
      "fzfg": false,
      "metar_trigger": false,
      "taf_trigger": false,
      "metar": "METAR LRBC 252100Z 16006KT CAVOK 11/04 Q1010",
      "taf": "TAF LRBC 252000Z 2521/2606 19007KT CAVOK"
    },
    {
      "icao": "LRBS",
      "alert": "OK",
      "vis_m": 9999,
      "fzfg": false,
      "metar_trigger": false,
      "taf_trigger": false,
      "metar": "METAR LRBS 252100Z 26003KT 210V280 CAVOK 16/06 Q1012 NOSIG",
      "taf": "TAF LRBS 251700Z 2518/2618 25006KT CAVOK"
    },
    {
      "icao": "LRBV",
      "alert": "OK",
      "vis_m": 9999,
      "fzfg": false,
      "metar_trigger": false,
      "taf_trigger": false,
      "metar": "METAR LRBV 252100Z AUTO 23008KT 9999 NCD 10/04 Q1012",
      "taf": "TAF LRBV 252000Z 2521/2606 26008KT CAVOK"
    },
    {
      "icao": "LRCL",
      "alert": "OK",
      "vis_m": 9999,
      "fzfg": false,
      "metar_trigger": false,
      "taf_trigger": false,
      "metar": "METAR LRCL 252100Z 28002KT CAVOK 09/02 Q1012",
      "taf": "TAF LRCL 252000Z 2521/2606 VRB03KT CAVOK"
    },
    {
      "icao": "LRCV",
      "alert": "OK",
      "vis_m": 9999,
      "fzfg": false,
      "metar_trigger": false,
      "taf_trigger": false,
      "metar": "METAR LRCV 252100Z 24007KT CAVOK 13/05 Q1012",
      "taf": "TAF LRCV 252000Z 2521/2606 24006KT CAVOK"
    },
    {
      "icao": "LRIA",
      "alert": "OK",
      "vis_m": 9999,
      "fzfg": false,
      "metar_trigger": false,
      "taf_trigger": false,
      "metar": "METAR LRIA 252100Z 20006KT CAVOK 15/04 Q1009",
      "taf": "TAF LRIA 252000Z 2521/2606 19005KT CAVOK"
    },
    {
      "icao": "LROP",
      "alert": "OK",
      "vis_m": 9999,
      "fzfg": false,
      "metar_trigger": false,
      "taf_trigger": false,
      "metar": "METAR LROP 252100Z 23008KT CAVOK 11/04 Q1012 NOSIG",
      "taf": "TAF LROP 251700Z 2518/2618 25006KT CAVOK"
    },
    {
      "icao": "LRSB",
      "alert": "OK",
      "vis_m": 9999,
      "fzfg": false,
      "metar_trigger": false,
      "taf_trigger": false,
      "metar": "METAR LRSB 252100Z 26009KT CAVOK 11/04 Q1013",
      "taf": "TAF LRSB 251700Z 2518/2618 30014KT CAVOK"
    },
    {
      "icao": "LRSM",
      "alert": "OK",
      "vis_m": 9999,
      "fzfg": false,
      "metar_trigger": false,
      "taf_trigger": false,
      "metar": "METAR LRSM 252100Z AUTO 20007KT 9999 NCD 10/04 Q1010",
      "taf": "TAF LRSM 251400Z 2515/2524 24011KT CAVOK"
    },
    {
      "icao": "LRSV",
      "alert": "OK",
      "vis_m": 9999,
      "fzfg": false,
      "metar_trigger": false,
      "taf_trigger": false,
      "metar": "METAR LRSV 252100Z 24007KT CAVOK 12/04 Q1009",
      "taf": "TAF LRSV 252000Z 2521/2606 23006KT CAVOK"
    },
    {
      "icao": "LRTM",
      "alert": "OK",
      "vis_m": 9999,
      "fzfg": false,
      "metar_trigger": false,
      "taf_trigger": false,
      "metar": "METAR LRTM 252100Z 29001KT CAVOK 08/05 Q1012",
      "taf": "TAF LRTM 252000Z 2521/2606 VRB03KT CAVOK"
    },
    {
      "icao": "LRTR",
      "alert": "OK",
      "vis_m": 9999,
      "fzfg": false,
      "metar_trigger": false,
      "taf_trigger": false,
      "metar": "METAR LRTR 252100Z 05003KT CAVOK 07/05 Q1013",
      "taf": "TAF LRTR 251700Z 2518/2618 VRB04KT CAVOK"
    },
    {
      "icao": "LTAC",
      "alert": "OK",
      "vis_m": 9999,
      "fzfg": false,
      "metar_trigger": false,
      "taf_trigger": false,
      "metar": "METAR LTAC 252050Z VRB02KT CAVOK 08/04 Q1016 NOSIG RMK RWY21C 28001KT RWY03L 00000KT RWY21R 00000KT RWY03R 00000KT RWY21L VRB02KT",
      "taf": "TAF LTAC 251640Z 2518/2618 VRB02KT CAVOK"
    },
    {
      "icao": "LTFM",
      "alert": "OK",
      "vis_m": 9999,
      "fzfg": false,
      "metar_trigger": false,
      "taf_trigger": false,
      "metar": "METAR LTFM 252050Z 21004KT 160V250 CAVOK 15/M01 Q1014 NOSIG RMK RWY17L 18004KT RWY34L 22004KT 180V270 RWY16R 19003KT 160V220 RWY36 19004KT RWY18 20004KT",
      "taf": "TAF LTFM 251640Z 2518/2624 14012KT CAVOK"
    },
    {
      "icao": "LUKK",
      "alert": "OK",
      "vis_m": 9999,
      "fzfg": false,
      "metar_trigger": false,
      "taf_trigger": false,
      "metar": "METAR LUKK 252100Z 22006KT 170V240 CAVOK 12/05 Q1010 NOSIG",
      "taf": "TAF LUKK 251714Z 2518/2618 20008KT CAVOK"
    },
    {
      "icao": "LWOH",
      "alert": "OK",
      "vis_m": null,
      "fzfg": false,
      "metar_trigger": false,
      "taf_trigger": false,
      "metar": "",
      "taf": "TAF LWOH 252025Z 2521/2621 36005KT 9999 FEW040"
    },
    {
      "icao": "LWSK",
      "alert": "OK",
      "vis_m": 9999,
      "fzfg": false,
      "metar_trigger": false,
      "taf_trigger": false,
      "metar": "METAR LWSK 252120Z 15003KT 120V200 CAVOK 09/05 Q1015 NOSIG",
      "taf": "TAF LWSK 252025Z 2521/2621 VRB02KT CAVOK"
    },
    {
      "icao": "LYBE",
      "alert": "OK",
      "vis_m": 9999,
      "fzfg": false,
      "metar_trigger": false,
      "taf_trigger": false,
      "metar": "METAR LYBE 252100Z 17003KT CAVOK 14/04 Q1013 NOSIG",
      "taf": "TAF LYBE 251700Z 2518/2618 25005KT CAVOK TX22/2613Z TN09/2604Z"
    },
    {
      "icao": "LYNI",
      "alert": "OK",
      "vis_m": 9999,
      "fzfg": false,
      "metar_trigger": false,
      "taf_trigger": false,
      "metar": "METAR LYNI 252100Z 11005KT CAVOK 11/04 Q1014 NOSIG",
      "taf": "TAF LYNI 251700Z 2518/2618 33004KT CAVOK TX23/2613Z TN05/2604Z"
    },
    {
      "icao": "LYPG",
      "alert": "OK",
      "vis_m": 9999,
      "fzfg": false,
      "metar_trigger": false,
      "taf_trigger": false,
      "metar": "METAR LYPG 252100Z 22003KT 200V260 CAVOK 16/08 Q1014 NOSIG",
      "taf": "TAF LYPG 251700Z 2518/2618 35005KT CAVOK TX27/2613Z TN10/2604Z"
    },
    {
      "icao": "LZIB",
      "alert": "OK",
      "vis_m": 9999,
      "fzfg": false,
      "metar_trigger": false,
      "taf_trigger": false,
      "metar": "METAR LZIB 252100Z 29006KT CAVOK 17/02 Q1012 NOSIG",
      "taf": ""
    },
    {
      "icao": "LZKZ",
      "alert": "OK",
      "vis_m": 9999,
      "fzfg": false,
      "metar_trigger": false,
      "taf_trigger": false,
      "metar": "METAR LZKZ 252100Z 33003KT CAVOK 12/04 Q1009 NOSIG",
      "taf": "TAF LZKZ 251715Z 2518/2618 20012KT CAVOK"
    },
    {
      "icao": "LZTT",
      "alert": "OK",
      "vis_m": 9999,
      "fzfg": false,
      "metar_trigger": false,
      "taf_trigger": false,
      "metar": "METAR LZTT 252100Z 26013KT CAVOK 12/02 Q1010",
      "taf": "TAF LZTT 251715Z 2518/2618 27016KT CAVOK"
    },
    {
      "icao": "OEJN",
      "alert": "OK",
      "vis_m": 9999,
      "fzfg": false,
      "metar_trigger": false,
      "taf_trigger": false,
      "metar": "METAR OEJN 252100Z 30003KT CAVOK 30/21 Q1008 NOSIG",
      "taf": "TAF OEJN 251700Z 2518/2624 36006KT CAVOK"
    },
    {
      "icao": "OEMA",
      "alert": "OK",
      "vis_m": 9999,
      "fzfg": false,
      "metar_trigger": false,
      "taf_trigger": false,
      "metar": "METAR OEMA 252100Z 21008KT CAVOK 30/14 Q1013 NOSIG",
      "taf": "TAF OEMA 251700Z 2518/2624 28006KT 9999 FEW040"
    },
    {
      "icao": "OJAI",
      "alert": "OK",
      "vis_m": 5000,
      "fzfg": false,
      "metar_trigger": false,
      "taf_trigger": false,
      "metar": "METAR OJAI 252100Z 00000KT 5000 HZ NSC 15/05 Q1014 NOSIG",
      "taf": "TAF OJAI 251700Z 2518/2624 29010KT 5000 HZ NSC"
    },
    {
      "icao": "OMAA",
      "alert": "OK",
      "vis_m": 9999,
      "fzfg": false,
      "metar_trigger": false,
      "taf_trigger": false,
      "metar": "METAR OMAA 252100Z 08004KT 040V110 CAVOK 29/18 Q1009 NOSIG",
      "taf": "TAF OMAA 251700Z 2518/2700 34010KT 8000 NSC"
    },
    {
      "icao": "OMDB",
      "alert": "OK",
      "vis_m": 9999,
      "fzfg": false,
      "metar_trigger": false,
      "taf_trigger": false,
      "metar": "METAR OMDB 252100Z 09004KT CAVOK 32/17 Q1008 NOSIG",
      "taf": "TAF OMDB 251700Z 2518/2700 28010KT CAVOK"
    },
    {
      "icao": "UAAA",
      "alert": "OK",
      "vis_m": 9999,
      "fzfg": false,
      "metar_trigger": false,
      "taf_trigger": false,
      "metar": "METAR UAAA 252100Z VRB01MPS 9999 NSC 11/08 Q1018 NOSIG",
      "taf": "TAF UAAA 251708Z 2518/2618 19003MPS 9999 FEW050 SCT100 TX26/2609Z TN10/2601Z"
    },
    {
      "icao": "UBBB",
      "alert": "OK",
      "vis_m": 9999,
      "fzfg": false,
      "metar_trigger": false,
      "taf_trigger": false,
      "metar": "METAR UBBB 252100Z VRB02KT CAVOK 08/06 Q1024 NOSIG",
      "taf": "TAF UBBB 251657Z 2518/2618 01008KT 9999 SCT015 BKN030 TX16/2610Z TN08/2601Z"
    },
    {
      "icao": "UDSG",
      "alert": "OK",
      "vis_m": 9999,
      "fzfg": false,
      "metar_trigger": false,
      "taf_trigger": false,
      "metar": "METAR UDSG 252100Z 04003KT 9999 NSC 01/M01 Q1021 NOSIG",
      "taf": "TAF UDSG 251658Z 2518/2618 24006KT 9999 SCT050"
    },
    {
      "icao": "UDYZ",
      "alert": "OK",
      "vis_m": 9999,
      "fzfg": false,
      "metar_trigger": false,
      "taf_trigger": false,
      "metar": "METAR UDYZ 252100Z 04008KT 9999 SCT046 11/05 Q1018 NOSIG",
      "taf": "TAF UDYZ 251700Z 2518/2618 06006KT 9999 FEW040"
    },
    {
      "icao": "UGKO",
      "alert": "OK",
      "vis_m": 9999,
      "fzfg": false,
      "metar_trigger": false,
      "taf_trigger": false,
      "metar": "METAR UGKO 252100Z AUTO 07013KT CAVOK 10/05 Q1017 NOSIG",
      "taf": "TAF UGKO 251700Z 2518/2618 08017KT CAVOK TX24/2611Z TN08/2602Z"
    }
  ]
}