{
  "ts_utc": "2025-12-31T03:42:50Z",
  "threshold_m": 150,
  "source": "stations_override.txt (ICAO list) + aviationweather.gov (METAR/TAF raw)",
  "station_count": 159,
  "stations": [
    {
      "icao": "BIKF",
      "alert": "OK",
      "vis_m": 9999,
      "fzfg": false,
      "metar_trigger": false,
      "taf_trigger": false,
      "metar": "METAR BIKF 310330Z 27024KT 9999 BKN019 BKN029 06/03 Q1026",
      "taf": "TAF BIKF 310107Z 3103/0103 27027KT 9999 SCT017 BKN020 TX06/3103Z TNM03/0101Z"
    },
    {
      "icao": "BKPR",
      "alert": "OK",
      "vis_m": 9999,
      "fzfg": false,
      "metar_trigger": false,
      "taf_trigger": false,
      "metar": "METAR BKPR 310330Z 24004KT 9999 FEW045 M09/M11 Q1016 NOSIG",
      "taf": "TAF BKPR 302330Z 3100/3124 33008KT 9999 FEW050"
    },
    {
      "icao": "EBCI",
      "alert": "OK",
      "vis_m": 4000,
      "fzfg": false,
      "metar_trigger": false,
      "taf_trigger": false,
      "metar": "METAR EBCI 310320Z 28003KT 4000 BR NSC M02/M02 Q1028 NOSIG",
      "taf": "TAF EBCI 302310Z 3100/0106 27006KT 9999 FEW018 SCT035"
    },
    {
      "icao": "EDDB",
      "alert": "OK",
      "vis_m": 9999,
      "fzfg": false,
      "metar_trigger": false,
      "taf_trigger": false,
      "metar": "METAR EDDB 310320Z AUTO 28008KT CAVOK M03/M06 Q1020 NOSIG",
      "taf": "TAF EDDB 302300Z 3100/3124 31011KT CAVOK"
    },
    {
      "icao": "EDDH",
      "alert": "OK",
      "vis_m": 9999,
      "fzfg": false,
      "metar_trigger": false,
      "taf_trigger": false,
      "metar": "METAR EDDH 310320Z AUTO 26007KT 240V300 CAVOK 01/M01 Q1020 NOSIG",
      "taf": "TAF EDDH 302300Z 3100/0106 27004KT 9999 BKN030"
    },
    {
      "icao": "EDDK",
      "alert": "OK",
      "vis_m": 9999,
      "fzfg": false,
      "metar_trigger": false,
      "taf_trigger": false,
      "metar": "METAR EDDK 310320Z AUTO VRB01KT 9999 BKN010 OVC016 M03/M04 Q1027 TEMPO BKN004",
      "taf": "TAF EDDK 302300Z 3100/0106 VRB03KT 9999 SCT040"
    },
    {
      "icao": "EDDN",
      "alert": "OK",
      "vis_m": 9999,
      "fzfg": false,
      "metar_trigger": false,
      "taf_trigger": false,
      "metar": "METAR EDDN 310320Z AUTO 11005KT CAVOK M09/M11 Q1024",
      "taf": "TAF EDDN 302300Z 3100/3124 VRB03KT CAVOK"
    },
    {
      "icao": "EDDS",
      "alert": "OK",
      "vis_m": 9999,
      "fzfg": false,
      "metar_trigger": false,
      "taf_trigger": false,
      "metar": "METAR EDDS 310320Z AUTO VRB01KT CAVOK M09/M10 Q1025",
      "taf": "TAF EDDS 302300Z 3100/3124 24004KT CAVOK"
    },
    {
      "icao": "EDFH",
      "alert": "OK",
      "vis_m": 9999,
      "fzfg": false,
      "metar_trigger": false,
      "taf_trigger": false,
      "metar": "METAR EDFH 310320Z 29004KT 9999 FEW033 M04/M05 Q1025",
      "taf": "TAF EDFH 302300Z 3100/3124 23004KT 9999 FEW025"
    },
    {
      "icao": "EDJA",
      "alert": "OK",
      "vis_m": 9999,
      "fzfg": false,
      "metar_trigger": false,
      "taf_trigger": false,
      "metar": "METAR EDJA 310320Z AUTO 18003KT 9999 // FEW140/// M11/M12 Q1024",
      "taf": "TAF EDJA 310200Z 3103/3112 20003KT CAVOK"
    },
    {
      "icao": "EDLW",
      "alert": "OK",
      "vis_m": 9999,
      "fzfg": false,
      "metar_trigger": false,
      "taf_trigger": false,
      "metar": "METAR EDLW 310320Z AUTO 23007KT 9999 // FEW006/// M01/M02 Q1025",
      "taf": "TAF EDLW 301700Z 3018/3118 24005KT CAVOK"
    },
    {
      "icao": "EDNY",
      "alert": "OK",
      "vis_m": 9999,
      "fzfg": false,
      "metar_trigger": false,
      "taf_trigger": false,
      "metar": "METAR EDNY 310320Z AUTO 06004KT 9999 // NCD M07/M08 Q1025",
      "taf": "TAF EDNY 310200Z 3103/3112 06003KT CAVOK"
    },
    {
      "icao": "EDSB",
      "alert": "OK",
      "vis_m": 9999,
      "fzfg": false,
      "metar_trigger": false,
      "taf_trigger": false,
      "metar": "METAR EDSB 310320Z AUTO VRB01KT 9999 NCD M07/M08 Q1027",
      "taf": "TAF EDSB 302300Z 3100/3124 03004KT CAVOK"
    },
    {
      "icao": "EETN",
      "alert": "OK",
      "vis_m": 9999,
      "fzfg": false,
      "metar_trigger": false,
      "taf_trigger": false,
      "metar": "METAR EETN 310320Z 01011G22KT 9999 FEW030 M06/M12 Q1005",
      "taf": "TAF EETN 302330Z 3100/3124 01012KT CAVOK"
    },
    {
      "icao": "EFTU",
      "alert": "OK",
      "vis_m": 9999,
      "fzfg": false,
      "metar_trigger": false,
      "taf_trigger": false,
      "metar": "METAR EFTU 310320Z AUTO VRB01KT CAVOK M13/M15 Q1008",
      "taf": "TAF EFTU 310221Z 3103/0103 29004KT CAVOK"
    },
    {
      "icao": "EGBB",
      "alert": "OK",
      "vis_m": 9999,
      "fzfg": false,
      "metar_trigger": false,
      "taf_trigger": false,
      "metar": "METAR EGBB 310320Z 00000KT 9999 MIFG NSC M03/M04 Q1033",
      "taf": "TAF EGBB 302257Z 3100/3124 34004KT 9999 SCT040"
    },
    {
      "icao": "EGGP",
      "alert": "OK",
      "vis_m": 9999,
      "fzfg": false,
      "metar_trigger": false,
      "taf_trigger": false,
      "metar": "METAR EGGP 310320Z AUTO 29004KT 9999 NCD M00/M02 Q1034",
      "taf": "TAF EGGP 302300Z 3100/3124 32004KT 9999 SCT035"
    },
    {
      "icao": "EGGW",
      "alert": "OK",
      "vis_m": 5000,
      "fzfg": false,
      "metar_trigger": false,
      "taf_trigger": false,
      "metar": "METAR EGGW 310320Z AUTO 33006KT 5000 BR BKN028 01/M00 Q1032",
      "taf": "TAF EGGW 302302Z 3100/3124 34006KT 9999 FEW040"
    },
    {
      "icao": "EGKK",
      "alert": "OK",
      "vis_m": 4500,
      "fzfg": false,
      "metar_trigger": false,
      "taf_trigger": false,
      "metar": "METAR EGKK 310320Z VRB02KT 4500 BR NSC M01/M02 Q1032",
      "taf": "TAF EGKK 302304Z 3100/0106 34005KT 9999 FEW040"
    },
    {
      "icao": "EGNM",
      "alert": "OK",
      "vis_m": null,
      "fzfg": false,
      "metar_trigger": false,
      "taf_trigger": false,
      "metar": "",
      "taf": "TAF EGNM 301655Z 3018/3118 35006KT 9999 SCT035"
    },
    {
      "icao": "EGPD",
      "alert": "OK",
      "vis_m": 9999,
      "fzfg": false,
      "metar_trigger": false,
      "taf_trigger": false,
      "metar": "METAR EGPD 310320Z COR AUTO 28011KT 9999 BKN025 03/M01 Q1029 NOSIG",
      "taf": "TAF EGPD 302255Z 3100/3124 28009KT 9999 SCT030"
    },
    {
      "icao": "EGPF",
      "alert": "OK",
      "vis_m": 9000,
      "fzfg": false,
      "metar_trigger": false,
      "taf_trigger": false,
      "metar": "METAR EGPF 310320Z AUTO VRB01KT 9000 OVC021 M03/M04 Q1033",
      "taf": "TAF EGPF 302255Z 3100/3124 VRB02KT 9999 FEW040"
    },
    {
      "icao": "EHBK",
      "alert": "OK",
      "vis_m": 7000,
      "fzfg": false,
      "metar_trigger": false,
      "taf_trigger": false,
      "metar": "METAR EHBK 310325Z AUTO 21007KT 7000 FEW002 M03/M03 Q1028",
      "taf": "TAF EHBK 302316Z 3100/0106 24003KT 9999 BKN045"
    },
    {
      "icao": "EHEH",
      "alert": "OK",
      "vis_m": 3900,
      "fzfg": false,
      "metar_trigger": false,
      "taf_trigger": false,
      "metar": "METAR EHEH 310325Z AUTO 27004KT 3900 BR NCD M02/M02 Q1028 GRN",
      "taf": "TAF EHEH 302141Z 3100/0106 VRB02KT 6000 NSC"
    },
    {
      "icao": "EKBI",
      "alert": "OK",
      "vis_m": 9999,
      "fzfg": false,
      "metar_trigger": false,
      "taf_trigger": false,
      "metar": "METAR EKBI 310320Z AUTO 27010KT 9999 -DZ BKN034/// 03/03 Q1015",
      "taf": "TAF EKBI 310227Z 3103/0103 27008KT 9999 BKN020"
    },
    {
      "icao": "EKCH",
      "alert": "OK",
      "vis_m": 9999,
      "fzfg": false,
      "metar_trigger": false,
      "taf_trigger": false,
      "metar": "METAR EKCH 310320Z AUTO 25011KT 9999 OVC085/// 00/M03 Q1014 TEMPO 3000 RASN",
      "taf": "TAF EKCH 310227Z 3103/0103 27009KT 9999 FEW040"
    },
    {
      "icao": "ENAL",
      "alert": "OK",
      "vis_m": 9999,
      "fzfg": false,
      "metar_trigger": false,
      "taf_trigger": false,
      "metar": "METAR ENAL 310320Z AUTO 32008KT 9999 FEW045/// 04/01 Q1014",
      "taf": "TAF ENAL 310200Z 3103/3112 32008KT 9999 FEW020 SCT040"
    },
    {
      "icao": "ENBR",
      "alert": "OK",
      "vis_m": 9999,
      "fzfg": false,
      "metar_trigger": false,
      "taf_trigger": false,
      "metar": "METAR ENBR 310320Z 34006KT 9999 -SHRA FEW005 SCT016 BKN024 03/02 Q1017 RMK WIND 1200FT 33022KT",
      "taf": "TAF ENBR 302300Z 3100/3124 35008KT 9999 -SHRASN SCT010 BKN020"
    },
    {
      "icao": "ENGM",
      "alert": "OK",
      "vis_m": 9999,
      "fzfg": false,
      "metar_trigger": false,
      "taf_trigger": false,
      "metar": "METAR ENGM 310320Z 32005KT 280V010 CAVOK M01/M07 Q1010",
      "taf": "TAF ENGM 302300Z 3100/3124 VRB03KT CAVOK"
    },
    {
      "icao": "ENHD",
      "alert": "OK",
      "vis_m": 9999,
      "fzfg": false,
      "metar_trigger": false,
      "taf_trigger": false,
      "metar": "METAR ENHD 310320Z AUTO 33012KT 9999 -RA FEW014/// BKN019/// BKN027/// 06/04 Q1017 RERA REDZRA",
      "taf": "TAF ENHD 310200Z 3103/3112 33022KT 9999 -SHRA FEW015 BKN030"
    },
    {
      "icao": "ENTC",
      "alert": "OK",
      "vis_m": 9999,
      "fzfg": false,
      "metar_trigger": false,
      "taf_trigger": false,
      "metar": "METAR ENTC 310320Z AUTO 10003KT 9999 NCD M09/M11 Q1011 RMK WIND 2600FT 01013KT",
      "taf": "TAF ENTC 302300Z 3100/3124 01008KT 9999 -SHSN FEW008 SCT030 BKN035"
    },
    {
      "icao": "ENTO",
      "alert": "OK",
      "vis_m": 9999,
      "fzfg": false,
      "metar_trigger": false,
      "taf_trigger": false,
      "metar": "METAR ENTO 310320Z AUTO 29006KT 9999 NCD M00/M06 Q1011",
      "taf": "TAF ENTO 302300Z 3100/3124 28005KT CAVOK"
    },
    {
      "icao": "ENVA",
      "alert": "OK",
      "vis_m": 9999,
      "fzfg": false,
      "metar_trigger": false,
      "taf_trigger": false,
      "metar": "METAR ENVA 310320Z AUTO VRB02KT 9999 NCD M02/M02 Q1011 RMK WIND 670FT 20004KT",
      "taf": "TAF ENVA 302300Z 3100/3124 12008KT 9999 -SHSNRA FEW010TCU BKN025"
    },
    {
      "icao": "ENZV",
      "alert": "OK",
      "vis_m": 9999,
      "fzfg": false,
      "metar_trigger": false,
      "taf_trigger": false,
      "metar": "METAR ENZV 310320Z AUTO 01008KT 9999 -RA SCT015/// BKN024/// BKN032/// 04/03 Q1018 RERA",
      "taf": "TAF ENZV 302300Z 3100/3124 35005KT 9999 FEW015 BKN030"
    },
    {
      "icao": "EPGD",
      "alert": "OK",
      "vis_m": 9999,
      "fzfg": false,
      "metar_trigger": false,
      "taf_trigger": false,
      "metar": "METAR EPGD 310330Z 30010KT 9999 FEW040 M05/M10 Q1010",
      "taf": "TAF EPGD 302330Z 3100/3124 31012KT 8000 -SHSN BKN025CB"
    },
    {
      "icao": "EPKK",
      "alert": "OK",
      "vis_m": 9999,
      "fzfg": false,
      "metar_trigger": false,
      "taf_trigger": false,
      "metar": "METAR EPKK 310330Z 28013KT 9999 SCT018 M04/M08 Q1013",
      "taf": "TAF EPKK 310230Z 3103/0103 27012KT 9999 BKN020"
    },
    {
      "icao": "EPKT",
      "alert": "OK",
      "vis_m": 9999,
      "fzfg": false,
      "metar_trigger": false,
      "taf_trigger": false,
      "metar": "METAR EPKT 310330Z 28011KT 9999 FEW014 M06/M08 Q1013",
      "taf": "TAF EPKT 302330Z 3100/3124 30012KT 9999 BKN020"
    },
    {
      "icao": "EPLB",
      "alert": "OK",
      "vis_m": 9999,
      "fzfg": false,
      "metar_trigger": false,
      "taf_trigger": false,
      "metar": "METAR EPLB 310330Z 29013KT 9999 DRSN SCT014 BKN018 M03/M05 Q1006",
      "taf": "TAF EPLB 302330Z 3100/3124 30018KT 9999 BKN018"
    },
    {
      "icao": "EPMO",
      "alert": "OK",
      "vis_m": 7000,
      "fzfg": false,
      "metar_trigger": false,
      "taf_trigger": false,
      "metar": "METAR EPMO 310330Z 29015KT 7000 -SHSN DRSN BKN010 FEW038CB M03/M04 Q1009 RESHSN",
      "taf": "TAF EPMO 302330Z 3100/3124 29015KT 6000 -SHSN BKN012 BKN016CB"
    },
    {
      "icao": "EPPO",
      "alert": "OK",
      "vis_m": 9999,
      "fzfg": false,
      "metar_trigger": false,
      "taf_trigger": false,
      "metar": "METAR EPPO 310330Z 28011KT CAVOK M04/M07 Q1015",
      "taf": ""
    },
    {
      "icao": "EPRA",
      "alert": "OK",
      "vis_m": 9999,
      "fzfg": false,
      "metar_trigger": false,
      "taf_trigger": false,
      "metar": "METAR EPRA 310330Z 31015KT 270V340 9999 -SN OVC017 M03/M07 Q1009",
      "taf": "TAF EPRA 310230Z 3103/3112 30014KT 9999 BKN025"
    },
    {
      "icao": "EPRZ",
      "alert": "OK",
      "vis_m": 9999,
      "fzfg": false,
      "metar_trigger": false,
      "taf_trigger": false,
      "metar": "METAR EPRZ 310330Z 28018KT 9999 -SHSN BKN030CB M03/M07 Q1009",
      "taf": ""
    },
    {
      "icao": "EPSC",
      "alert": "OK",
      "vis_m": 9999,
      "fzfg": false,
      "metar_trigger": false,
      "taf_trigger": false,
      "metar": "METAR EPSC 310330Z 24006KT 9999 -SHSN FEW007 SCT022 BKN033CB M03/M05 Q1016 RESHSN RESHGS",
      "taf": "TAF EPSC 302330Z 3100/3124 30010KT 9999 SCT040"
    },
    {
      "icao": "EPSY",
      "alert": "OK",
      "vis_m": 9999,
      "fzfg": false,
      "metar_trigger": false,
      "taf_trigger": false,
      "metar": "METAR EPSY 310330Z 30007KT 270V340 CAVOK M04/M04 Q1007",
      "taf": "TAF EPSY 310230Z 3103/3112 31010KT CAVOK"
    },
    {
      "icao": "EPWA",
      "alert": "OK",
      "vis_m": 9999,
      "fzfg": false,
      "metar_trigger": false,
      "taf_trigger": false,
      "metar": "METAR EPWA 310330Z 29015KT 9999 DRSN BKN013 M03/M04 Q1009 TEMPO 2000 SHSN BKN010CB",
      "taf": "TAF EPWA 310230Z 3103/0103 29015KT 7000 BKN015"
    },
    {
      "icao": "EPWR",
      "alert": "OK",
      "vis_m": 9999,
      "fzfg": false,
      "metar_trigger": false,
      "taf_trigger": false,
      "metar": "METAR EPWR 310330Z 29015KT 9999 FEW011 M04/M05 Q1017",
      "taf": "TAF EPWR 310230Z 3103/0103 29012KT CAVOK"
    },
    {
      "icao": "ESGG",
      "alert": "OK",
      "vis_m": 9999,
      "fzfg": false,
      "metar_trigger": false,
      "taf_trigger": false,
      "metar": "METAR ESGG 310320Z 24007KT CAVOK M00/M03 Q1010",
      "taf": "TAF ESGG 310230Z 3103/0103 25007KT CAVOK"
    },
    {
      "icao": "ESKN",
      "alert": "OK",
      "vis_m": 9999,
      "fzfg": false,
      "metar_trigger": false,
      "taf_trigger": false,
      "metar": "METAR ESKN 310320Z 26003KT 9999 FEW025 SCT034 M06/M08 Q1010",
      "taf": "TAF ESKN 310230Z 3103/0103 25005KT CAVOK"
    },
    {
      "icao": "ESMS",
      "alert": "OK",
      "vis_m": 9999,
      "fzfg": false,
      "metar_trigger": false,
      "taf_trigger": false,
      "metar": "METAR ESMS 310320Z 26008KT CAVOK M01/M04 Q1014",
      "taf": "TAF ESMS 310227Z 3103/0103 28008KT 9999 FEW040"
    },
    {
      "icao": "ESSA",
      "alert": "OK",
      "vis_m": 9999,
      "fzfg": false,
      "metar_trigger": false,
      "taf_trigger": false,
      "metar": "METAR ESSA 310320Z 28003KT 9999 -SN BKN021 M07/M09 Q1009 TEMPO 4000 -SN",
      "taf": "TAF ESSA 310230Z 3103/0103 VRB03KT CAVOK"
    },
    {
      "icao": "EYKA",
      "alert": "OK",
      "vis_m": 2300,
      "fzfg": false,
      "metar_trigger": false,
      "taf_trigger": false,
      "metar": "METAR EYKA 310320Z VRB06KT 2300 SN BR OVC011 M04/M06 Q1003",
      "taf": "TAF EYKA 302300Z 3100/3124 32010KT 6000 BKN030"
    },
    {
      "icao": "EYPA",
      "alert": "OK",
      "vis_m": 9999,
      "fzfg": false,
      "metar_trigger": false,
      "taf_trigger": false,
      "metar": "METAR EYPA 310320Z 04008KT CAVOK M06/M13 Q1007",
      "taf": "TAF EYPA 302300Z 3100/3124 01010KT 9000 SCT030"
    },
    {
      "icao": "EYVI",
      "alert": "OK",
      "vis_m": 4500,
      "fzfg": false,
      "metar_trigger": false,
      "taf_trigger": false,
      "metar": "METAR EYVI 310320Z 34012KT 4500 SN OVC013 M05/M07 Q0999 NOSIG",
      "taf": "TAF EYVI 302300Z 3100/3124 32010KT 5000 SN SCT010 BKN020"
    },
    {
      "icao": "GCFV",
      "alert": "OK",
      "vis_m": 9999,
      "fzfg": false,
      "metar_trigger": false,
      "taf_trigger": false,
      "metar": "METAR GCFV 310330Z AUTO 27003KT CAVOK 13/11 Q1020",
      "taf": "TAF GCFV 310200Z 3103/0103 30005KT 9999 FEW025 TX21/3114Z TN14/3106Z"
    },
    {
      "icao": "GCLP",
      "alert": "OK",
      "vis_m": 9999,
      "fzfg": false,
      "metar_trigger": false,
      "taf_trigger": false,
      "metar": "METAR GCLP 310330Z 26006KT CAVOK 16/12 Q1020 NOSIG",
      "taf": "TAF GCLP 310200Z 3103/0103 29005KT 9999 SCT030 TX22/3114Z TN15/3106Z"
    },
    {
      "icao": "GCTS",
      "alert": "OK",
      "vis_m": 9999,
      "fzfg": false,
      "metar_trigger": false,
      "taf_trigger": false,
      "metar": "METAR GCTS 310300Z 04005KT 9999 FEW025 15/12 Q1020 NOSIG",
      "taf": "TAF GCTS 310200Z 3103/0103 33004KT 9999 FEW025 TX24/3114Z TN16/3106Z"
    },
    {
      "icao": "GMAD",
      "alert": "OK",
      "vis_m": 9999,
      "fzfg": false,
      "metar_trigger": false,
      "taf_trigger": false,
      "metar": "METAR GMAD 310330Z 05004KT CAVOK 10/10 Q1020 NOSIG",
      "taf": "TAF GMAD 302300Z 3100/0106 06008KT 8000 SCT020"
    },
    {
      "icao": "GMMN",
      "alert": "OK",
      "vis_m": 9999,
      "fzfg": false,
      "metar_trigger": false,
      "taf_trigger": false,
      "metar": "METAR GMMN 310330Z 20010KT 9999 BKN030 12/10 Q1019 NOSIG",
      "taf": "TAF GMMN 302300Z 3100/0106 21007KT 9999 BKN026"
    },
    {
      "icao": "GMMX",
      "alert": "OK",
      "vis_m": 8000,
      "fzfg": false,
      "metar_trigger": false,
      "taf_trigger": false,
      "metar": "METAR GMMX 310330Z VRB01KT 8000 FEW020 SCT080 09/08 Q1019 NOSIG",
      "taf": "TAF GMMX 302300Z 3100/0106 22006KT 8000 SCT020 SCT080"
    },
    {
      "icao": "HEGN",
      "alert": "OK",
      "vis_m": 9999,
      "fzfg": false,
      "metar_trigger": false,
      "taf_trigger": false,
      "metar": "METAR HEGN 310300Z 00000KT CAVOK 12/06 Q1016 NOSIG",
      "taf": "TAF HEGN 302300Z 3100/0106 28010KT CAVOK"
    },
    {
      "icao": "HEMA",
      "alert": "OK",
      "vis_m": 9999,
      "fzfg": false,
      "metar_trigger": false,
      "taf_trigger": false,
      "metar": "METAR HEMA 310300Z 23008KT CAVOK 14/10 Q1016 NOSIG",
      "taf": "TAF HEMA 302300Z 3100/0106 25010KT CAVOK"
    },
    {
      "icao": "HESH",
      "alert": "OK",
      "vis_m": 9999,
      "fzfg": false,
      "metar_trigger": false,
      "taf_trigger": false,
      "metar": "METAR HESH 310300Z 36004KT CAVOK 14/08 Q1016 NOSIG",
      "taf": "TAF HESH 302300Z 3100/0106 30010KT CAVOK"
    },
    {
      "icao": "HESX",
      "alert": "OK",
      "vis_m": 9999,
      "fzfg": false,
      "metar_trigger": false,
      "taf_trigger": false,
      "metar": "METAR HESX 310300Z 21009KT CAVOK 11/04 Q1014 NOSIG",
      "taf": "TAF HESX 302300Z 3100/0106 20009KT 6000 NSC"
    },
    {
      "icao": "LATI",
      "alert": "OK",
      "vis_m": 9999,
      "fzfg": false,
      "metar_trigger": false,
      "taf_trigger": false,
      "metar": "METAR LATI 310320Z 31009KT CAVOK 03/M13 Q1012 NOSIG",
      "taf": "TAF LATI 302300Z 3100/3124 30007KT 9999 FEW060 BKN080 TX07/3112Z TNM04/3123Z"
    },
    {
      "icao": "LBPD",
      "alert": "OK",
      "vis_m": 9999,
      "fzfg": false,
      "metar_trigger": false,
      "taf_trigger": false,
      "metar": "METAR LBPD 310330Z AUTO 28014KT 9999 NCD M01/M09 Q1014",
      "taf": "TAF LBPD 302300Z 3100/3124 28016KT 9999 SCT050"
    },
    {
      "icao": "LBSF",
      "alert": "OK",
      "vis_m": 9999,
      "fzfg": false,
      "metar_trigger": false,
      "taf_trigger": false,
      "metar": "METAR LBSF 310330Z AUTO 28010KT 9999 NCD M06/M10 Q1014 NOSIG",
      "taf": "TAF LBSF 302300Z 3100/3124 28012KT 9999 SCT050"
    },
    {
      "icao": "LBWN",
      "alert": "OK",
      "vis_m": 9999,
      "fzfg": false,
      "metar_trigger": false,
      "taf_trigger": false,
      "metar": "METAR LBWN 310330Z AUTO 27010KT 9999 NCD M03/M07 Q1011 NOSIG",
      "taf": "TAF LBWN 302300Z 3100/3124 29012KT 9999 SCT020 BKN045"
    },
    {
      "icao": "LCLK",
      "alert": "OK",
      "vis_m": 7000,
      "fzfg": false,
      "metar_trigger": false,
      "taf_trigger": false,
      "metar": "METAR LCLK 310330Z 27012KT 240V320 7000 -TSRA FEW008 FEW030CB BKN040 15/13 Q1008 RERA TEMPO 3000 TSRA",
      "taf": "TAF LCLK 302330Z 3100/0100 22020KT 9999 FEW020 SCT040"
    },
    {
      "icao": "LCPH",
      "alert": "OK",
      "vis_m": 6000,
      "fzfg": false,
      "metar_trigger": false,
      "taf_trigger": false,
      "metar": "METAR LCPH 310330Z 26018G31KT 6000 SCT030 FEW035TCU BKN050 17/10 Q1008 NOSIG",
      "taf": "TAF LCPH 302330Z 3100/0100 24020KT 9999 SCT020 BKN040"
    },
    {
      "icao": "LEAL",
      "alert": "OK",
      "vis_m": 9999,
      "fzfg": false,
      "metar_trigger": false,
      "taf_trigger": false,
      "metar": "METAR LEAL 310330Z 29005KT 250V340 CAVOK 11/05 Q1017 NOSIG",
      "taf": "TAF LEAL 302300Z 3100/3124 29008KT CAVOK TX17/3114Z TN07/3106Z"
    },
    {
      "icao": "LEBB",
      "alert": "OK",
      "vis_m": 9999,
      "fzfg": false,
      "metar_trigger": false,
      "taf_trigger": false,
      "metar": "METAR LEBB 310330Z AUTO VRB01KT 9999 OVC020 08/06 Q1022",
      "taf": "TAF LEBB 302300Z 3100/3124 VRB03KT 9999 SCT010 BKN020 TX10/3114Z TN01/3124Z"
    },
    {
      "icao": "LEBL",
      "alert": "OK",
      "vis_m": 9999,
      "fzfg": false,
      "metar_trigger": false,
      "taf_trigger": false,
      "metar": "METAR LEBL 310330Z 33011KT 9999 FEW020 SCT030 08/05 Q1017 NOSIG",
      "taf": "TAF LEBL 302300Z 3100/3124 34010KT 9999 FEW020 TX15/3112Z TN07/3107Z"
    },
    {
      "icao": "LECH",
      "alert": "OK",
      "vis_m": 9000,
      "fzfg": false,
      "metar_trigger": false,
      "taf_trigger": false,
      "metar": "METAR LECH 310330Z AUTO VRB01KT 9000 NCD 06/01 Q1017",
      "taf": ""
    },
    {
      "icao": "LEMD",
      "alert": "OK",
      "vis_m": 9999,
      "fzfg": false,
      "metar_trigger": false,
      "taf_trigger": false,
      "metar": "METAR LEMD 310330Z VRB01KT CAVOK M01/M01 Q1019 NOSIG",
      "taf": ""
    },
    {
      "icao": "LEMG",
      "alert": "OK",
      "vis_m": 9999,
      "fzfg": false,
      "metar_trigger": false,
      "taf_trigger": false,
      "metar": "METAR LEMG 310330Z 30008KT CAVOK 06/05 Q1019 NOSIG",
      "taf": "TAF LEMG 302300Z 3100/3124 29007KT CAVOK TX18/3114Z TN08/3106Z"
    },
    {
      "icao": "LEVC",
      "alert": "OK",
      "vis_m": 9999,
      "fzfg": false,
      "metar_trigger": false,
      "taf_trigger": false,
      "metar": "METAR LEVC 310330Z 29004KT 260V330 CAVOK 04/02 Q1018 NOSIG",
      "taf": "TAF LEVC 302300Z 3100/3124 29006KT 9999 FEW020 TX17/3114Z TN05/3106Z"
    },
    {
      "icao": "LEXJ",
      "alert": "OK",
      "vis_m": 7000,
      "fzfg": false,
      "metar_trigger": false,
      "taf_trigger": false,
      "metar": "METAR LEXJ 310330Z AUTO VRB01KT 7000 OVC023 08/05 Q1023",
      "taf": "TAF LEXJ 310200Z 3103/0103 VRB03KT 9999 SCT015 BKN035 TX10/3115Z TN03/0103Z"
    },
    {
      "icao": "LEZG",
      "alert": "OK",
      "vis_m": 9999,
      "fzfg": false,
      "metar_trigger": false,
      "taf_trigger": false,
      "metar": "METAR LEZG 310330Z 27013KT 9999 SCT032 07/04 Q1018 NOSIG",
      "taf": "TAF LEZG 302300Z 3100/3124 29010KT 9999 FEW020 TX12/3114Z TN05/3106Z"
    },
    {
      "icao": "LEZL",
      "alert": "OK",
      "vis_m": 1000,
      "fzfg": false,
      "metar_trigger": false,
      "taf_trigger": false,
      "metar": "METAR LEZL 310330Z AUTO 03006KT 1000 0200E R27/0600N R09/1900N BR BCFG VV001 06/06 Q1019",
      "taf": "TAF LEZL 310200Z 3103/0103 05005KT CAVOK TX15/3115Z TN04/3106Z"
    },
    {
      "icao": "LFBD",
      "alert": "OK",
      "vis_m": 9999,
      "fzfg": true,
      "metar_trigger": false,
      "taf_trigger": false,
      "metar": "METAR LFBD 310330Z AUTO 03004KT CAVOK M02/M03 Q1023 TEMPO 0800 FZFG VV///",
      "taf": "TAF LFBD 302300Z 3100/0106 02005KT CAVOK TX05/3114Z TNM03/3106Z"
    },
    {
      "icao": "LFLL",
      "alert": "OK",
      "vis_m": 9999,
      "fzfg": false,
      "metar_trigger": false,
      "taf_trigger": false,
      "metar": "METAR LFLL 310330Z 28004KT CAVOK M04/M06 Q1023 NOSIG",
      "taf": "TAF LFLL 302300Z 3100/0106 36005KT CAVOK"
    },
    {
      "icao": "LFLS",
      "alert": "OK",
      "vis_m": 9999,
      "fzfg": false,
      "metar_trigger": false,
      "taf_trigger": false,
      "metar": "METAR LFLS 310330Z AUTO VRB02KT CAVOK M05/M06 Q1021 TEMPO BKN013",
      "taf": "TAF LFLS 310200Z 3103/0103 36005KT CAVOK"
    },
    {
      "icao": "LFMN",
      "alert": "OK",
      "vis_m": 9999,
      "fzfg": false,
      "metar_trigger": false,
      "taf_trigger": false,
      "metar": "METAR LFMN 310330Z 34010KT 9999 FEW038 07/01 Q1015 NOSIG",
      "taf": "TAF LFMN 310200Z 3103/0109 33010KT CAVOK"
    },
    {
      "icao": "LFOB",
      "alert": "OK",
      "vis_m": 9999,
      "fzfg": false,
      "metar_trigger": false,
      "taf_trigger": false,
      "metar": "METAR LFOB 310330Z AUTO 30003KT CAVOK M02/M03 Q1030",
      "taf": ""
    },
    {
      "icao": "LFPO",
      "alert": "OK",
      "vis_m": 9999,
      "fzfg": false,
      "metar_trigger": false,
      "taf_trigger": false,
      "metar": "METAR LFPO 310330Z AUTO 02006KT CAVOK M01/M02 Q1029",
      "taf": "TAF LFPO 301700Z 3018/3124 01005KT CAVOK"
    },
    {
      "icao": "LFSB",
      "alert": "OK",
      "vis_m": 7000,
      "fzfg": true,
      "metar_trigger": false,
      "taf_trigger": false,
      "metar": "METAR LFSB 310330Z AUTO 00000KT 7000 FEW006 M07/M08 Q1026 TEMPO 0300 FZFG VV///",
      "taf": "TAF LFSB 302300Z 3100/3124 31003KT 4000 BR NSC"
    },
    {
      "icao": "LGAV",
      "alert": "OK",
      "vis_m": 9999,
      "fzfg": false,
      "metar_trigger": false,
      "taf_trigger": false,
      "metar": "METAR LGAV 310320Z 01009KT 9999 FEW025 SCT045 10/02 Q1007 NOSIG",
      "taf": "TAF LGAV 302300Z 3100/3124 35015KT 9999 SCT025 BKN070"
    },
    {
      "icao": "LGTS",
      "alert": "OK",
      "vis_m": 9999,
      "fzfg": false,
      "metar_trigger": false,
      "taf_trigger": false,
      "metar": "METAR LGTS 310320Z 34015G25KT 9999 FEW025 05/M07 Q1012 NOSIG",
      "taf": "TAF LGTS 302300Z 3100/3124 34015G25KT 9999 SCT040"
    },
    {
      "icao": "LHBP",
      "alert": "OK",
      "vis_m": 9999,
      "fzfg": false,
      "metar_trigger": false,
      "taf_trigger": false,
      "metar": "METAR LHBP 310330Z 31012G23KT CAVOK M03/M07 Q1016 NOSIG",
      "taf": "TAF LHBP 302315Z 3100/3124 31012KT CAVOK"
    },
    {
      "icao": "LHDC",
      "alert": "OK",
      "vis_m": 9999,
      "fzfg": false,
      "metar_trigger": false,
      "taf_trigger": false,
      "metar": "METAR LHDC 310315Z AUTO 28007KT CAVOK M05/M08 Q1013",
      "taf": ""
    },
    {
      "icao": "LIBD",
      "alert": "OK",
      "vis_m": 9999,
      "fzfg": false,
      "metar_trigger": false,
      "taf_trigger": false,
      "metar": "METAR LIBD 310320Z 36011KT 320V020 CAVOK 07/M05 Q1016",
      "taf": "TAF LIBD 302300Z 3100/3124 36015KT 9999 FEW050"
    },
    {
      "icao": "LIBG",
      "alert": "OK",
      "vis_m": null,
      "fzfg": false,
      "metar_trigger": false,
      "taf_trigger": false,
      "metar": "",
      "taf": "TAF LIBG 301700Z 3018/3103 33007KT CAVOK"
    },
    {
      "icao": "LIBP",
      "alert": "OK",
      "vis_m": 9999,
      "fzfg": false,
      "metar_trigger": false,
      "taf_trigger": false,
      "metar": "METAR LIBP 310320Z AUTO 05010KT 9999 OVC063/// 07/M06 Q1020",
      "taf": "TAF LIBP 302300Z 3100/3124 04012KT 9999 SCT045"
    },
    {
      "icao": "LIBR",
      "alert": "OK",
      "vis_m": 9999,
      "fzfg": false,
      "metar_trigger": false,
      "taf_trigger": false,
      "metar": "METAR LIBR 310250Z 35017KT CAVOK 09/M03 Q1012",
      "taf": "TAF LIBR 302300Z 3100/3124 01016KT 9999 SCT020"
    },
    {
      "icao": "LICA",
      "alert": "OK",
      "vis_m": 9999,
      "fzfg": false,
      "metar_trigger": false,
      "taf_trigger": false,
      "metar": "METAR LICA 310320Z AUTO 04005KT 9999 FEW058/// 08/06 Q1012",
      "taf": "TAF LICA 302300Z 3100/3124 08010KT 9999 FEW020 SCT060"
    },
    {
      "icao": "LICC",
      "alert": "OK",
      "vis_m": 9999,
      "fzfg": false,
      "metar_trigger": false,
      "taf_trigger": false,
      "metar": "METAR LICC 310320Z 28009KT CAVOK 11/08 Q1011",
      "taf": "TAF LICC 302300Z 3100/3124 29010KT 9999 FEW050"
    },
    {
      "icao": "LICJ",
      "alert": "OK",
      "vis_m": 9999,
      "fzfg": false,
      "metar_trigger": false,
      "taf_trigger": false,
      "metar": "METAR LICJ 310320Z 19005KT 9999 SCT060 11/09 Q1013",
      "taf": "TAF LICJ 302300Z 3100/3124 28010KT 9999 SCT010 SCT040"
    },
    {
      "icao": "LIMC",
      "alert": "OK",
      "vis_m": 9999,
      "fzfg": false,
      "metar_trigger": false,
      "taf_trigger": false,
      "metar": "METAR LIMC 310320Z 11003KT 9999 BKN040 03/01 Q1019 NOSIG",
      "taf": "TAF LIMC 302300Z 3100/0106 03006KT 9999 BKN030"
    },
    {
      "icao": "LIME",
      "alert": "OK",
      "vis_m": 9999,
      "fzfg": false,
      "metar_trigger": false,
      "taf_trigger": false,
      "metar": "METAR LIME 310250Z 01003KT 9999 SCT045 03/01 Q1019 NOSIG",
      "taf": "TAF LIME 302300Z 3100/3124 VRB05KT 9999 BKN030"
    },
    {
      "icao": "LIMF",
      "alert": "OK",
      "vis_m": 4000,
      "fzfg": false,
      "metar_trigger": false,
      "taf_trigger": false,
      "metar": "METAR LIMF 310320Z 08001KT 4000 BR SCT012 BKN045 04/01 Q1019",
      "taf": "TAF LIMF 302300Z 3100/3124 VRB05KT 1500 BR SCT010"
    },
    {
      "icao": "LIMJ",
      "alert": "OK",
      "vis_m": 9000,
      "fzfg": false,
      "metar_trigger": false,
      "taf_trigger": false,
      "metar": "METAR LIMJ 310320Z 03015KT 9000 FEW048 06/01 Q1017",
      "taf": "TAF LIMJ 302300Z 3100/3124 02016KT 9999 FEW020"
    },
    {
      "icao": "LIPE",
      "alert": "OK",
      "vis_m": 800,
      "fzfg": false,
      "metar_trigger": false,
      "taf_trigger": false,
      "metar": "METAR LIPE 310320Z VRB02KT 0800 R12/1900D R30/1900D BCFG SCT070 01/01 Q1019",
      "taf": "TAF LIPE 302300Z 3100/3124 VRB04KT 3000 BR BKN020"
    },
    {
      "icao": "LIPH",
      "alert": "OK",
      "vis_m": 9999,
      "fzfg": false,
      "metar_trigger": false,
      "taf_trigger": false,
      "metar": "METAR LIPH 310320Z AUTO 35002KT 9999 BKN059/// M00/M04 Q1020",
      "taf": "TAF LIPH 302300Z 3100/3124 VRB04KT 9999 SCT045"
    },
    {
      "icao": "LIPQ",
      "alert": "OK",
      "vis_m": 9999,
      "fzfg": false,
      "metar_trigger": false,
      "taf_trigger": false,
      "metar": "METAR LIPQ 310320Z AUTO 08001KT 9999 NCD M03/M06 Q1020",
      "taf": "TAF LIPQ 302300Z 3100/3124 VRB05KT 9999 SCT050"
    },
    {
      "icao": "LIPR",
      "alert": "OK",
      "vis_m": 2800,
      "fzfg": false,
      "metar_trigger": false,
      "taf_trigger": false,
      "metar": "METAR LIPR 310320Z AUTO 23002KT 2800 BR OVC055/// 03/03 Q1019",
      "taf": "TAF LIPR 302300Z 3100/3124 29005KT 3000 BR BKN020"
    },
    {
      "icao": "LIPX",
      "alert": "OK",
      "vis_m": 9999,
      "fzfg": false,
      "metar_trigger": false,
      "taf_trigger": false,
      "metar": "METAR LIPX 310320Z 36004KT 9999 BKN050 01/M02 Q1020",
      "taf": "TAF LIPX 302300Z 3100/3124 VRB05KT 9999 SCT040"
    },
    {
      "icao": "LIPY",
      "alert": "OK",
      "vis_m": 9999,
      "fzfg": false,
      "metar_trigger": false,
      "taf_trigger": false,
      "metar": "METAR LIPY 310320Z AUTO 12003KT 090V150 9999 NCD 05/M04 Q1019",
      "taf": "TAF LIPY 302300Z 3100/3124 13006KT 6000 SCT045"
    },
    {
      "icao": "LIPZ",
      "alert": "OK",
      "vis_m": 9999,
      "fzfg": false,
      "metar_trigger": false,
      "taf_trigger": false,
      "metar": "METAR LIPZ 310320Z 06007KT CAVOK M01/M04 Q1020 NOSIG",
      "taf": "TAF LIPZ 302300Z 3100/0106 03006KT 9999 SCT040"
    },
    {
      "icao": "LIRF",
      "alert": "OK",
      "vis_m": 9999,
      "fzfg": false,
      "metar_trigger": false,
      "taf_trigger": false,
      "metar": "METAR LIRF 310320Z 04009KT CAVOK 06/M00 Q1014 NOSIG",
      "taf": "TAF LIRF 302300Z 3100/0106 03012KT 9999 SCT030"
    },
    {
      "icao": "LIRN",
      "alert": "OK",
      "vis_m": 9999,
      "fzfg": false,
      "metar_trigger": false,
      "taf_trigger": false,
      "metar": "METAR LIRN 310320Z 04009KT CAVOK 06/M02 Q1015 NOSIG",
      "taf": "TAF LIRN 302300Z 3100/3124 05015KT CAVOK"
    },
    {
      "icao": "LIRP",
      "alert": "OK",
      "vis_m": 9999,
      "fzfg": false,
      "metar_trigger": false,
      "taf_trigger": false,
      "metar": "METAR LIRP 310315Z 10011KT CAVOK 06/03 Q1015 NOSIG",
      "taf": "TAF LIRP 302300Z 3100/3124 09011KT 9999 FEW050"
    },
    {
      "icao": "LIRZ",
      "alert": "OK",
      "vis_m": 9999,
      "fzfg": false,
      "metar_trigger": false,
      "taf_trigger": false,
      "metar": "METAR LIRZ 310320Z AUTO 03009KT 9999 NCD 03/M04 Q1016",
      "taf": "TAF LIRZ 302300Z 3100/3124 04010KT CAVOK"
    },
    {
      "icao": "LJLJ",
      "alert": "OK",
      "vis_m": 9999,
      "fzfg": false,
      "metar_trigger": false,
      "taf_trigger": false,
      "metar": "METAR LJLJ 310330Z 04001KT 9999 0500SE R30/0500D PRFG MIFG FEW001 M10/M11 Q1020 NOSIG",
      "taf": "TAF LJLJ 302300Z 3100/0100 VRB02KT 9999 SCT045 BKN075"
    },
    {
      "icao": "LKMT",
      "alert": "OK",
      "vis_m": 9999,
      "fzfg": false,
      "metar_trigger": false,
      "taf_trigger": false,
      "metar": "METAR LKMT 310330Z 24010KT 9999 BKN038 M05/M08 Q1017 NOSIG",
      "taf": "TAF LKMT 302300Z 3100/3124 32008KT 9999 SCT020"
    },
    {
      "icao": "LKPR",
      "alert": "OK",
      "vis_m": 9999,
      "fzfg": false,
      "metar_trigger": false,
      "taf_trigger": false,
      "metar": "METAR LKPR 310330Z 25009KT 9999 FEW042 M04/M07 Q1020 NOSIG",
      "taf": "TAF LKPR 310200Z 3103/0109 29013KT 9999 SCT025 BKN040"
    },
    {
      "icao": "LLBG",
      "alert": "OK",
      "vis_m": 9999,
      "fzfg": false,
      "metar_trigger": false,
      "taf_trigger": false,
      "metar": "METAR LLBG 310320Z 16007KT CAVOK 13/06 Q1014 NOSIG",
      "taf": "TAF LLBG 302311Z 3100/3124 15007KT CAVOK"
    },
    {
      "icao": "LMML",
      "alert": "OK",
      "vis_m": 9999,
      "fzfg": false,
      "metar_trigger": false,
      "taf_trigger": false,
      "metar": "METAR LMML 310315Z 29007KT 9999 FEW020TCU 12/09 Q1013 NOSIG",
      "taf": "TAF LMML 302300Z 3100/3124 30012KT 9999 SCT020TCU"
    },
    {
      "icao": "LOWW",
      "alert": "OK",
      "vis_m": 9999,
      "fzfg": false,
      "metar_trigger": false,
      "taf_trigger": false,
      "metar": "METAR LOWW 310320Z 32019KT 9999 FEW050 M02/M08 Q1019 NOSIG",
      "taf": "TAF LOWW 310215Z 3103/0109 31017KT CAVOK TX04/0109Z TNM02/3106Z"
    },
    {
      "icao": "LPFR",
      "alert": "OK",
      "vis_m": 9999,
      "fzfg": false,
      "metar_trigger": false,
      "taf_trigger": false,
      "metar": "METAR LPFR 310330Z 06011KT CAVOK 11/09 Q1018",
      "taf": "TAF LPFR 302300Z 3100/3124 03007KT CAVOK"
    },
    {
      "icao": "LPMA",
      "alert": "OK",
      "vis_m": 9999,
      "fzfg": false,
      "metar_trigger": false,
      "taf_trigger": false,
      "metar": "METAR LPMA 310330Z 25003KT 190V350 9999 FEW015 17/13 Q1017",
      "taf": "TAF LPMA 302300Z 3100/3124 VRB05KT 9999 SCT013"
    },
    {
      "icao": "LPPR",
      "alert": "OK",
      "vis_m": 8000,
      "fzfg": false,
      "metar_trigger": false,
      "taf_trigger": false,
      "metar": "METAR LPPR 310330Z 10007KT 8000 NSC 06/06 Q1020",
      "taf": "TAF LPPR 302300Z 3100/3124 09005KT CAVOK"
    },
    {
      "icao": "LPPS",
      "alert": "OK",
      "vis_m": 9999,
      "fzfg": false,
      "metar_trigger": false,
      "taf_trigger": false,
      "metar": "METAR LPPS 310330Z 22004KT 9999 SCT010 17/15 Q1017",
      "taf": "TAF LPPS 302300Z 3100/0106 27005KT 9999 SCT010"
    },
    {
      "icao": "LPPT",
      "alert": "OK",
      "vis_m": 3000,
      "fzfg": false,
      "metar_trigger": false,
      "taf_trigger": false,
      "metar": "METAR LPPT 310330Z 01004KT 3000 0500E BR VCFG BKN002 06/06 Q1019",
      "taf": "TAF LPPT 302300Z 3100/0106 05005KT 5000 BR SCT003"
    },
    {
      "icao": "LQBK",
      "alert": "OK",
      "vis_m": 9999,
      "fzfg": false,
      "metar_trigger": false,
      "taf_trigger": false,
      "metar": "METAR LQBK 310330Z VRB02KT CAVOK M06/M07 Q1021 NOSIG",
      "taf": "TAF LQBK 302300Z 3100/3124 16005KT CAVOK TX01/3113Z TNM08/3105Z"
    },
    {
      "icao": "LQSA",
      "alert": "OK",
      "vis_m": 9999,
      "fzfg": false,
      "metar_trigger": false,
      "taf_trigger": false,
      "metar": "METAR LQSA 310330Z 31003KT CAVOK M08/M09 Q1018",
      "taf": "TAF LQSA 302300Z 3100/3124 29005KT 9999 SCT040 TXM00/3113Z TNM10/3106Z"
    },
    {
      "icao": "LQTZ",
      "alert": "OK",
      "vis_m": 6000,
      "fzfg": false,
      "metar_trigger": false,
      "taf_trigger": false,
      "metar": "METAR LQTZ 310330Z 30004KT 270V340 6000 NSC M10/M10 Q1020",
      "taf": "TAF LQTZ 302300Z 3100/3124 27006KT CAVOK TX02/3113Z TNM09/3105Z"
    },
    {
      "icao": "LRBC",
      "alert": "OK",
      "vis_m": 9999,
      "fzfg": false,
      "metar_trigger": false,
      "taf_trigger": false,
      "metar": "METAR LRBC 310330Z 25010KT CAVOK M03/M12 Q1006",
      "taf": "TAF LRBC 310200Z 3103/3112 29007KT CAVOK"
    },
    {
      "icao": "LRBS",
      "alert": "OK",
      "vis_m": 9999,
      "fzfg": false,
      "metar_trigger": false,
      "taf_trigger": false,
      "metar": "METAR LRBS 310330Z 28005KT 240V320 CAVOK M04/M10 Q1011 NOSIG",
      "taf": "TAF LRBS 302300Z 3100/3124 27007KT CAVOK"
    },
    {
      "icao": "LRBV",
      "alert": "OK",
      "vis_m": 9999,
      "fzfg": false,
      "metar_trigger": false,
      "taf_trigger": false,
      "metar": "METAR LRBV 310330Z AUTO 30012KT 270V330 9999 NCD M06/M12 Q1008",
      "taf": "TAF LRBV 310200Z 3103/3112 30010KT 9999 BKN040"
    },
    {
      "icao": "LRCL",
      "alert": "OK",
      "vis_m": 9999,
      "fzfg": false,
      "metar_trigger": false,
      "taf_trigger": false,
      "metar": "METAR LRCL 310330Z 25008KT 9999 OVC051 M05/M09 Q1011",
      "taf": "TAF LRCL 310200Z 3103/3112 28008KT CAVOK"
    },
    {
      "icao": "LRCV",
      "alert": "OK",
      "vis_m": 9999,
      "fzfg": false,
      "metar_trigger": false,
      "taf_trigger": false,
      "metar": "METAR LRCV 310330Z 28012KT CAVOK M05/M09 Q1013",
      "taf": "TAF LRCV 310200Z 3103/3112 29013KT CAVOK"
    },
    {
      "icao": "LRIA",
      "alert": "OK",
      "vis_m": 9999,
      "fzfg": false,
      "metar_trigger": false,
      "taf_trigger": false,
      "metar": "METAR LRIA 310330Z 29011KT 250V310 9999 FEW036 BKN044 M02/M11 Q1005",
      "taf": "TAF LRIA 310200Z 3103/3112 24008KT CAVOK"
    },
    {
      "icao": "LROP",
      "alert": "OK",
      "vis_m": 9999,
      "fzfg": false,
      "metar_trigger": false,
      "taf_trigger": false,
      "metar": "METAR LROP 310330Z 27009KT CAVOK M05/M11 Q1011 NOSIG",
      "taf": "TAF LROP 302300Z 3100/3124 VRB04KT CAVOK"
    },
    {
      "icao": "LRSB",
      "alert": "OK",
      "vis_m": 9999,
      "fzfg": false,
      "metar_trigger": false,
      "taf_trigger": false,
      "metar": "METAR LRSB 310330Z VRB01KT CAVOK M09/M13 Q1010",
      "taf": "TAF LRSB 302300Z 3100/3124 29010KT 9999 SCT040"
    },
    {
      "icao": "LRSM",
      "alert": "OK",
      "vis_m": 9999,
      "fzfg": false,
      "metar_trigger": false,
      "taf_trigger": false,
      "metar": "METAR LRSM 310330Z AUTO 26011KT 9999 BKN039/// OVC044/// M04/M08 Q1012",
      "taf": "TAF LRSM 310200Z 3103/3112 26011KT 9999 BKN040"
    },
    {
      "icao": "LRSV",
      "alert": "OK",
      "vis_m": 5000,
      "fzfg": false,
      "metar_trigger": false,
      "taf_trigger": false,
      "metar": "METAR LRSV 310330Z 29016KT 5000 -SN DRSN BKN013 M05/M07 Q1004",
      "taf": ""
    },
    {
      "icao": "LRTM",
      "alert": "OK",
      "vis_m": 9999,
      "fzfg": false,
      "metar_trigger": false,
      "taf_trigger": false,
      "metar": "METAR LRTM 310330Z AUTO 22007KT 9999 R25////// FEW043/// OVC055/// M06/M09 Q1011",
      "taf": "TAF LRTM 310200Z 3103/3112 26007KT 9999 BKN040"
    },
    {
      "icao": "LRTR",
      "alert": "OK",
      "vis_m": 9999,
      "fzfg": false,
      "metar_trigger": false,
      "taf_trigger": false,
      "metar": "METAR LRTR 310330Z 24005KT CAVOK M07/M08 Q1016",
      "taf": "TAF LRTR 302300Z 3100/3124 29009KT CAVOK"
    },
    {
      "icao": "LTAC",
      "alert": "OK",
      "vis_m": 9999,
      "fzfg": false,
      "metar_trigger": false,
      "taf_trigger": false,
      "metar": "SPECI LTAC 310331Z 32005KT 270V350 9999 -RASN FEW017 BKN023 BKN080 02/00 Q1002 RERA NOSIG",
      "taf": "TAF LTAC 302240Z 3100/3124 VRB02KT 9999 SCT040 BKN100"
    },
    {
      "icao": "LTFM",
      "alert": "OK",
      "vis_m": 9999,
      "fzfg": false,
      "metar_trigger": false,
      "taf_trigger": false,
      "metar": "METAR LTFM 310320Z 34019KT 9999 BKN023 04/M04 Q1010 NOSIG RMK RWY17L 34020KT RWY34L 33018G28KT RWY16R 33018G28KT RWY36 34021KT RWY18 35021KT",
      "taf": "TAF LTFM 302240Z 3100/0106 35015KT 9999 SCT025"
    },
    {
      "icao": "LUKK",
      "alert": "OK",
      "vis_m": 9999,
      "fzfg": false,
      "metar_trigger": false,
      "taf_trigger": false,
      "metar": "METAR LUKK 310330Z 27010KT CAVOK M05/M11 Q1004 NOSIG",
      "taf": "TAF LUKK 302318Z 3100/3124 29012KT 9999 SCT035"
    },
    {
      "icao": "LWOH",
      "alert": "OK",
      "vis_m": null,
      "fzfg": false,
      "metar_trigger": false,
      "taf_trigger": false,
      "metar": "",
      "taf": "TAF LWOH 310230Z 3103/0103 33010KT 9999 FEW040 SCT070"
    },
    {
      "icao": "LWSK",
      "alert": "OK",
      "vis_m": 9999,
      "fzfg": false,
      "metar_trigger": false,
      "taf_trigger": false,
      "metar": "METAR LWSK 310320Z 02012KT CAVOK M02/M10 Q1017 NOSIG",
      "taf": "TAF LWSK 310230Z 3103/0103 01010KT CAVOK"
    },
    {
      "icao": "LYBE",
      "alert": "OK",
      "vis_m": 9999,
      "fzfg": false,
      "metar_trigger": false,
      "taf_trigger": false,
      "metar": "METAR LYBE 310330Z 28011KT CAVOK M04/M07 Q1019 NOSIG",
      "taf": "TAF LYBE 302300Z 3100/3124 25010KT CAVOK TX00/3112Z TNM06/3106Z"
    },
    {
      "icao": "LYNI",
      "alert": "OK",
      "vis_m": 9999,
      "fzfg": false,
      "metar_trigger": false,
      "taf_trigger": false,
      "metar": "METAR LYNI 310330Z VRB01KT 9999 SCT043 M04/M09 Q1017 NOSIG",
      "taf": "TAF LYNI 302300Z 3100/3124 28008KT 9999 SCT040 TXM00/3112Z TNM05/3103Z"
    },
    {
      "icao": "LYPG",
      "alert": "OK",
      "vis_m": 9999,
      "fzfg": false,
      "metar_trigger": false,
      "taf_trigger": false,
      "metar": "METAR LYPG 310330Z 34024G35KT CAVOK 02/M15 Q1016 NOSIG",
      "taf": "TAF LYPG 302300Z 3100/3124 01015G25KT CAVOK TX07/3112Z TN02/3105Z"
    },
    {
      "icao": "LZIB",
      "alert": "OK",
      "vis_m": 9999,
      "fzfg": false,
      "metar_trigger": false,
      "taf_trigger": false,
      "metar": "METAR LZIB 310330Z 31018KT 9999 FEW022 M02/M07 Q1019 NOSIG",
      "taf": "TAF LZIB 302315Z 3100/0100 31012KT 9999 FEW035"
    },
    {
      "icao": "LZKZ",
      "alert": "OK",
      "vis_m": 9999,
      "fzfg": false,
      "metar_trigger": false,
      "taf_trigger": false,
      "metar": "METAR LZKZ 310330Z 32011KT CAVOK M02/M12 Q1011 NOSIG",
      "taf": "TAF LZKZ 302315Z 3100/0100 30009KT 9999 FEW045"
    },
    {
      "icao": "LZTT",
      "alert": "OK",
      "vis_m": 9999,
      "fzfg": false,
      "metar_trigger": false,
      "taf_trigger": false,
      "metar": "METAR LZTT 310330Z 26018KT 9999 -SN BKN040 M06/M13 Q1009",
      "taf": "TAF LZTT 302315Z 3100/0100 26009KT 9999 -SN FEW012 BKN040"
    },
    {
      "icao": "OEJN",
      "alert": "OK",
      "vis_m": 9999,
      "fzfg": false,
      "metar_trigger": false,
      "taf_trigger": false,
      "metar": "METAR OEJN 310300Z 34004KT CAVOK 19/07 Q1014 NOSIG",
      "taf": "TAF OEJN 302300Z 3100/0106 VRB03KT 7000 NSC"
    },
    {
      "icao": "OEMA",
      "alert": "OK",
      "vis_m": 9999,
      "fzfg": false,
      "metar_trigger": false,
      "taf_trigger": false,
      "metar": "METAR OEMA 310300Z 05008KT CAVOK 14/M03 Q1020 NOSIG",
      "taf": "TAF OEMA 302300Z 3100/0106 11008KT CAVOK"
    },
    {
      "icao": "OJAI",
      "alert": "OK",
      "vis_m": 3000,
      "fzfg": false,
      "metar_trigger": false,
      "taf_trigger": false,
      "metar": "METAR OJAI 310300Z 00000KT 3000 BR NSC 04/03 Q1016 NOSIG",
      "taf": "TAF OJAI 302247Z 3100/0106 VRB02KT 4000 BR FEW030"
    },
    {
      "icao": "OMAA",
      "alert": "OK",
      "vis_m": 9999,
      "fzfg": false,
      "metar_trigger": false,
      "taf_trigger": false,
      "metar": "METAR OMAA 310300Z 31015KT 9999 SCT045 20/09 Q1017 NOSIG",
      "taf": "TAF OMAA 302300Z 3100/0106 31013KT 8000 FEW040"
    },
    {
      "icao": "OMDB",
      "alert": "OK",
      "vis_m": 9999,
      "fzfg": false,
      "metar_trigger": false,
      "taf_trigger": false,
      "metar": "METAR OMDB 310330Z 29016KT 9999 BKN045 21/11 Q1017 TEMPO 28020G30KT",
      "taf": "TAF OMDB 302300Z 3100/0106 29012KT 8000 FEW040"
    },
    {
      "icao": "UAAA",
      "alert": "OK",
      "vis_m": 9999,
      "fzfg": false,
      "metar_trigger": false,
      "taf_trigger": false,
      "metar": "METAR UAAA 310330Z 24003MPS 9999 BKN100 OVC200 05/01 Q1010 NOSIG",
      "taf": "TAF UAAA 302301Z 3100/3124 29003MPS 3100 BR FU SCT050CB BKN100 TX07/3109Z TNM02/3101Z"
    },
    {
      "icao": "UBBB",
      "alert": "OK",
      "vis_m": 9999,
      "fzfg": false,
      "metar_trigger": false,
      "taf_trigger": false,
      "metar": "METAR UBBB 310330Z 21020G30KT CAVOK 06/M04 Q1007 NOSIG",
      "taf": "TAF UBBB 302301Z 3100/3124 19018G28KT CAVOK TX10/3110Z TN04/3103Z"
    },
    {
      "icao": "UDSG",
      "alert": "OK",
      "vis_m": 9999,
      "fzfg": false,
      "metar_trigger": false,
      "taf_trigger": false,
      "metar": "METAR UDSG 310330Z 26002KT 9999 NSC M13/M16 Q1013 NOSIG",
      "taf": "TAF UDSG 302258Z 3100/3124 VRB06KT 9999 BKN040"
    },
    {
      "icao": "UDYZ",
      "alert": "OK",
      "vis_m": 9000,
      "fzfg": false,
      "metar_trigger": false,
      "taf_trigger": false,
      "metar": "METAR UDYZ 310330Z VRB02KT 9000 NSC M10/M12 Q1017 NOSIG",
      "taf": "TAF UDYZ 302300Z 3100/3124 VRB06KT 6000 NSC"
    },
    {
      "icao": "UGKO",
      "alert": "OK",
      "vis_m": 9999,
      "fzfg": false,
      "metar_trigger": false,
      "taf_trigger": false,
      "metar": "METAR UGKO 310330Z AUTO 08019KT CAVOK 03/M04 Q1006 NOSIG",
      "taf": "TAF UGKO 302300Z 3100/3124 08015KT CAVOK TX04/3112Z TNM01/3102Z"
    }
  ]
}