{
  "ts_utc": "2026-02-11T11:07:57Z",
  "threshold_m": 150,
  "source": "stations_override.txt (ICAO list) + aviationweather.gov (METAR/TAF raw)",
  "station_count": 159,
  "stations": [
    {
      "icao": "BIKF",
      "alert": "OK",
      "vis_m": 9999,
      "fzfg": false,
      "metar_trigger": false,
      "taf_trigger": false,
      "metar": "METAR BIKF 111100Z 04008KT CAVOK M01/M07 Q1007",
      "taf": "TAF BIKF 111030Z 1112/1212 06012KT CAVOK TXM00/1115Z TNM07/1212Z"
    },
    {
      "icao": "BKPR",
      "alert": "OK",
      "vis_m": 9999,
      "fzfg": false,
      "metar_trigger": false,
      "taf_trigger": false,
      "metar": "METAR BKPR 111100Z 18009KT 9999 FEW020 BKN030 08/06 Q1003 NOSIG",
      "taf": "TAF BKPR 110530Z 1106/1206 17008KT 9999 BKN050"
    },
    {
      "icao": "EBCI",
      "alert": "OK",
      "vis_m": 2800,
      "fzfg": false,
      "metar_trigger": false,
      "taf_trigger": false,
      "metar": "METAR EBCI 111050Z 25013KT 2800 RADZ SCT003 BKN004 10/09 Q0986 TEMPO 1400 RADZ BR",
      "taf": "TAF EBCI 110508Z 1106/1212 25010KT 4000 -DZ -RADZ SCT003 BKN005"
    },
    {
      "icao": "EDDB",
      "alert": "OK",
      "vis_m": 9999,
      "fzfg": false,
      "metar_trigger": false,
      "taf_trigger": false,
      "metar": "METAR EDDB 111050Z AUTO 17008KT 140V200 9999 FEW028 07/04 Q0986 NOSIG",
      "taf": "TAF EDDB 110500Z 1106/1206 15006KT 9999 BKN025"
    },
    {
      "icao": "EDDH",
      "alert": "OK",
      "vis_m": 3700,
      "fzfg": false,
      "metar_trigger": false,
      "taf_trigger": false,
      "metar": "METAR EDDH 111050Z AUTO 06008KT 3700 BR OVC003 02/02 Q0985 TEMPO 2500 RADZ",
      "taf": "TAF EDDH 110500Z 1106/1212 08007KT 4000 BR OVC003"
    },
    {
      "icao": "EDDK",
      "alert": "OK",
      "vis_m": 9999,
      "fzfg": false,
      "metar_trigger": false,
      "taf_trigger": false,
      "metar": "METAR EDDK 111050Z AUTO 22007KT 180V250 9999 BKN016 OVC023 11/10 Q0985 TEMPO RA BKN012",
      "taf": ""
    },
    {
      "icao": "EDDN",
      "alert": "OK",
      "vis_m": 4100,
      "fzfg": false,
      "metar_trigger": false,
      "taf_trigger": false,
      "metar": "METAR EDDN 111050Z AUTO 23010KT 200V260 4100 -SHRA BR SCT007 BKN030 OVC039 FEW///TCU 08/07 Q0988 TEMPO 6000",
      "taf": "TAF EDDN 110500Z 1106/1206 14010KT 9999 BKN020"
    },
    {
      "icao": "EDDS",
      "alert": "OK",
      "vis_m": 9999,
      "fzfg": false,
      "metar_trigger": false,
      "taf_trigger": false,
      "metar": "METAR EDDS 111050Z AUTO 23008G20KT 170V270 9999 -SHRA SCT018 BKN023 BKN031 FEW///TCU 11/07 Q0989 NOSIG",
      "taf": "TAF EDDS 110500Z 1106/1206 17007KT 9999 SCT020 BKN035"
    },
    {
      "icao": "EDFH",
      "alert": "OK",
      "vis_m": 9999,
      "fzfg": false,
      "metar_trigger": false,
      "taf_trigger": false,
      "metar": "METAR EDFH 111050Z 25013KT 9999 -RA OVC005 08/08 Q0986",
      "taf": "TAF EDFH 110500Z 1106/1206 23011KT 9000 SCT005 BKN012"
    },
    {
      "icao": "EDJA",
      "alert": "OK",
      "vis_m": 9999,
      "fzfg": false,
      "metar_trigger": false,
      "taf_trigger": false,
      "metar": "METAR EDJA 111050Z 24021G32KT 9999 BKN016 OVC022 08/05 Q0991",
      "taf": "TAF EDJA 110800Z 1109/1118 23015G25KT 9999 SCT030 BKN040"
    },
    {
      "icao": "EDLW",
      "alert": "OK",
      "vis_m": 2200,
      "fzfg": false,
      "metar_trigger": false,
      "taf_trigger": false,
      "metar": "METAR EDLW 111050Z 23008KT 2200 -RA BR OVC004 10/09 Q0983",
      "taf": "TAF EDLW 110500Z 1106/1206 16005KT 9999 BKN020"
    },
    {
      "icao": "EDNY",
      "alert": "OK",
      "vis_m": 9999,
      "fzfg": false,
      "metar_trigger": false,
      "taf_trigger": false,
      "metar": "METAR EDNY 111050Z 21008KT 9999 FEW030 SCT034 OVC041 09/06 Q0993",
      "taf": "TAF EDNY 110800Z 1109/1118 23006KT 9999 FEW035 SCT045"
    },
    {
      "icao": "EDSB",
      "alert": "OK",
      "vis_m": 9999,
      "fzfg": false,
      "metar_trigger": false,
      "taf_trigger": false,
      "metar": "METAR EDSB 111050Z 20016KT 9999 -RA SCT024 OVC028 12/09 Q0990",
      "taf": "TAF EDSB 110500Z 1106/1206 20015KT 9999 SCT020 OVC030"
    },
    {
      "icao": "EETN",
      "alert": "OK",
      "vis_m": 8000,
      "fzfg": false,
      "metar_trigger": false,
      "taf_trigger": false,
      "metar": "METAR EETN 111050Z 18008KT 8000 -SN OVC033 M07/M08 Q0995 TEMPO 4000 SN",
      "taf": ""
    },
    {
      "icao": "EFTU",
      "alert": "OK",
      "vis_m": 9999,
      "fzfg": false,
      "metar_trigger": false,
      "taf_trigger": false,
      "metar": "METAR EFTU 111050Z AUTO 08005KT 9999 BKN005 M05/M06 Q0993",
      "taf": "TAF EFTU 110827Z 1109/1209 08005KT 9999 -SN BKN007"
    },
    {
      "icao": "EGBB",
      "alert": "OK",
      "vis_m": 9999,
      "fzfg": false,
      "metar_trigger": false,
      "taf_trigger": false,
      "metar": "METAR EGBB 111050Z 21007KT 180V250 9999 SCT010 BKN015 OVC032 10/09 Q0981",
      "taf": "TAF EGBB 111055Z 1112/1212 22008KT 9999 BKN020"
    },
    {
      "icao": "EGGP",
      "alert": "OK",
      "vis_m": 9999,
      "fzfg": false,
      "metar_trigger": false,
      "taf_trigger": false,
      "metar": "METAR EGGP 111050Z VRB02KT 9999 FEW006 BKN015 08/08 Q0980",
      "taf": "TAF EGGP 111103Z 1112/1212 24006KT 9999 SCT018"
    },
    {
      "icao": "EGGW",
      "alert": "OK",
      "vis_m": 9999,
      "fzfg": false,
      "metar_trigger": false,
      "taf_trigger": false,
      "metar": "METAR EGGW 111050Z AUTO 24018KT 9999 BKN012 10/08 Q0982",
      "taf": "TAF EGGW 111101Z 1112/1212 24012KT 9999 SCT020"
    },
    {
      "icao": "EGKK",
      "alert": "OK",
      "vis_m": 9999,
      "fzfg": false,
      "metar_trigger": false,
      "taf_trigger": false,
      "metar": "METAR EGKK 111050Z 23012KT 9999 SCT014 BKN026 11/09 Q0984",
      "taf": "TAF EGKK 111057Z 1112/1218 24012KT 9999 BKN020"
    },
    {
      "icao": "EGNM",
      "alert": "OK",
      "vis_m": 800,
      "fzfg": false,
      "metar_trigger": false,
      "taf_trigger": false,
      "metar": "METAR EGNM 111050Z 06005KT 0800 R14/P1500N -DZ FG VV/// 06/06 Q0980",
      "taf": "TAF EGNM 111102Z 1112/1212 03007KT 0300 FG -DZ BKN000"
    },
    {
      "icao": "EGPD",
      "alert": "OK",
      "vis_m": 9999,
      "fzfg": false,
      "metar_trigger": false,
      "taf_trigger": false,
      "metar": "METAR EGPD 111050Z COR AUTO 10013KT 9999 OVC023 04/M00 Q0988 NOSIG",
      "taf": "TAF EGPD 111054Z 1112/1212 08012KT 9999 SCT018 BKN035"
    },
    {
      "icao": "EGPF",
      "alert": "OK",
      "vis_m": 9999,
      "fzfg": false,
      "metar_trigger": false,
      "taf_trigger": false,
      "metar": "METAR EGPF 111050Z AUTO 07015KT 9999 -RA FEW013 SCT018 OVC036 05/03 Q0983",
      "taf": "TAF EGPF 111058Z 1112/1212 07009KT 9999 BKN016"
    },
    {
      "icao": "EHBK",
      "alert": "OK",
      "vis_m": 4600,
      "fzfg": false,
      "metar_trigger": false,
      "taf_trigger": false,
      "metar": "METAR EHBK 111055Z AUTO 24008KT 210V280 4600 -RADZ FEW004/// BKN006/// OVC007/// 10/10 Q0985 TEMPO 9999 -DZ BECMG BKN010",
      "taf": "TAF EHBK 110503Z 1106/1212 24007KT 2500 BR -DZRA OVC001"
    },
    {
      "icao": "EHEH",
      "alert": "OK",
      "vis_m": 4700,
      "fzfg": false,
      "metar_trigger": false,
      "taf_trigger": false,
      "metar": "METAR EHEH 111055Z AUTO 23010KT 210V280 4700 BR FEW005 SCT009 BKN012 11/10 Q0984 GRN TEMPO 3000 -SHRA RA SCT003 BKN005 SCT012CB",
      "taf": "TAF EHEH 110554Z 1106/1212 18003KT 1500 BR OVC002"
    },
    {
      "icao": "EKBI",
      "alert": "OK",
      "vis_m": 9999,
      "fzfg": false,
      "metar_trigger": false,
      "taf_trigger": false,
      "metar": "METAR EKBI 111050Z AUTO 06010KT 9999 OVC006/// M00/M01 Q0989",
      "taf": "TAF EKBI 110827Z 1109/1209 06012KT 9000 BKN006"
    },
    {
      "icao": "EKCH",
      "alert": "OK",
      "vis_m": 6000,
      "fzfg": false,
      "metar_trigger": false,
      "taf_trigger": false,
      "metar": "METAR EKCH 111050Z 07006KT 6000 OVC008 01/M00 Q0989 NOSIG",
      "taf": "TAF EKCH 110828Z 1109/1209 06012KT 6000 SCT007 BKN035"
    },
    {
      "icao": "ENAL",
      "alert": "OK",
      "vis_m": 9999,
      "fzfg": false,
      "metar_trigger": false,
      "taf_trigger": false,
      "metar": "METAR ENAL 111050Z 07011KT CAVOK 01/M05 Q0995",
      "taf": "TAF ENAL 110800Z 1109/1118 07012KT CAVOK"
    },
    {
      "icao": "ENBR",
      "alert": "OK",
      "vis_m": 9999,
      "fzfg": false,
      "metar_trigger": false,
      "taf_trigger": false,
      "metar": "METAR ENBR 111050Z 00000KT 9999 FEW024 01/M04 Q0994 NOSIG RMK WIND 1200FT 24003KT",
      "taf": "TAF ENBR 110500Z 1106/1206 VRB03KT CAVOK"
    },
    {
      "icao": "ENGM",
      "alert": "OK",
      "vis_m": 9999,
      "fzfg": false,
      "metar_trigger": false,
      "taf_trigger": false,
      "metar": "METAR ENGM 111050Z 36009KT CAVOK M05/M11 Q0995 NOSIG",
      "taf": "TAF ENGM 110500Z 1106/1206 01005KT 9999 BKN025"
    },
    {
      "icao": "ENHD",
      "alert": "OK",
      "vis_m": 9999,
      "fzfg": false,
      "metar_trigger": false,
      "taf_trigger": false,
      "metar": "METAR ENHD 111050Z 09005KT CAVOK 00/M08 Q0994",
      "taf": "TAF ENHD 110800Z 1109/1118 09008KT CAVOK"
    },
    {
      "icao": "ENTC",
      "alert": "OK",
      "vis_m": 9999,
      "fzfg": false,
      "metar_trigger": false,
      "taf_trigger": false,
      "metar": "METAR ENTC 111050Z 21009KT 9999 FEW029 SCT036 BKN043 M05/M10 Q0997 NOSIG RMK WIND 2600FT 17016KT",
      "taf": "TAF ENTC 110500Z 1106/1206 21009KT 9999 FEW020 SCT040"
    },
    {
      "icao": "ENTO",
      "alert": "OK",
      "vis_m": 9999,
      "fzfg": false,
      "metar_trigger": false,
      "taf_trigger": false,
      "metar": "METAR ENTO 111050Z 02007KT 9999 OVC012 M04/M06 Q0995 TEMPO BKN018",
      "taf": ""
    },
    {
      "icao": "ENVA",
      "alert": "OK",
      "vis_m": 9999,
      "fzfg": false,
      "metar_trigger": false,
      "taf_trigger": false,
      "metar": "METAR ENVA 111050Z 11006KT 9999 BKN018 M07/M09 Q0997 NOSIG RMK WIND 670FT 09007KT",
      "taf": "TAF ENVA 110500Z 1106/1206 09005KT 9999 BKN040"
    },
    {
      "icao": "ENZV",
      "alert": "OK",
      "vis_m": 9999,
      "fzfg": false,
      "metar_trigger": false,
      "taf_trigger": false,
      "metar": "METAR ENZV 111050Z 11011KT CAVOK 01/M10 Q0993 NOSIG",
      "taf": "TAF ENZV 110500Z 1106/1206 09008KT 9999 BKN040"
    },
    {
      "icao": "EPGD",
      "alert": "OK",
      "vis_m": 900,
      "fzfg": true,
      "metar_trigger": false,
      "taf_trigger": false,
      "metar": "METAR EPGD 111100Z 15007KT 0900 R29/1100U -SN FZFG BKN002 M01/M01 Q0988",
      "taf": "TAF EPGD 110530Z 1106/1206 14008KT 3000 -SN BR OVC002"
    },
    {
      "icao": "EPKK",
      "alert": "OK",
      "vis_m": 9999,
      "fzfg": false,
      "metar_trigger": false,
      "taf_trigger": false,
      "metar": "METAR EPKK 111100Z 06003KT CAVOK 06/01 Q0991",
      "taf": "TAF EPKK 110830Z 1109/1209 06004KT CAVOK"
    },
    {
      "icao": "EPKT",
      "alert": "OK",
      "vis_m": 9999,
      "fzfg": false,
      "metar_trigger": false,
      "taf_trigger": false,
      "metar": "METAR EPKT 111100Z 23007KT CAVOK 05/02 Q0991",
      "taf": "TAF EPKT 110530Z 1106/1206 20004KT CAVOK"
    },
    {
      "icao": "EPLB",
      "alert": "OK",
      "vis_m": 9999,
      "fzfg": false,
      "metar_trigger": false,
      "taf_trigger": false,
      "metar": "METAR EPLB 111100Z 18010KT CAVOK 03/M00 Q0993",
      "taf": "TAF EPLB 110530Z 1106/1206 17008KT CAVOK"
    },
    {
      "icao": "EPMO",
      "alert": "OK",
      "vis_m": 9999,
      "fzfg": false,
      "metar_trigger": false,
      "taf_trigger": false,
      "metar": "METAR EPMO 111100Z 16008KT 120V190 CAVOK 03/M00 Q0990",
      "taf": "TAF EPMO 110530Z 1106/1206 16006KT 4500 BR BKN025"
    },
    {
      "icao": "EPPO",
      "alert": "OK",
      "vis_m": 9999,
      "fzfg": false,
      "metar_trigger": false,
      "taf_trigger": false,
      "metar": "METAR EPPO 111100Z 17005KT 9999 FEW027 BKN043 04/01 Q0988",
      "taf": "TAF EPPO 110530Z 1106/1206 14006KT 8000 BKN040"
    },
    {
      "icao": "EPRA",
      "alert": "OK",
      "vis_m": 9999,
      "fzfg": false,
      "metar_trigger": false,
      "taf_trigger": false,
      "metar": "METAR EPRA 111100Z 17009KT 140V200 CAVOK 04/M01 Q0992",
      "taf": "TAF EPRA 110830Z 1109/1118 16010KT CAVOK"
    },
    {
      "icao": "EPRZ",
      "alert": "OK",
      "vis_m": 9999,
      "fzfg": false,
      "metar_trigger": false,
      "taf_trigger": false,
      "metar": "METAR EPRZ 111100Z 19010KT 9999 BKN020 04/M00 Q0994",
      "taf": "TAF EPRZ 110530Z 1106/1206 18012KT CAVOK"
    },
    {
      "icao": "EPSC",
      "alert": "OK",
      "vis_m": 1800,
      "fzfg": false,
      "metar_trigger": false,
      "taf_trigger": false,
      "metar": "METAR EPSC 111100Z 13006KT 1800 -DZ BR BKN002 OVC003 02/02 Q0987",
      "taf": ""
    },
    {
      "icao": "EPSY",
      "alert": "OK",
      "vis_m": 3300,
      "fzfg": false,
      "metar_trigger": false,
      "taf_trigger": false,
      "metar": "METAR EPSY 111100Z 15006KT 120V180 3300 BR OVC003 01/00 Q0990",
      "taf": "TAF EPSY 110830Z 1109/1118 16006KT 4000 BR BKN002 OVC005"
    },
    {
      "icao": "EPWA",
      "alert": "OK",
      "vis_m": 9999,
      "fzfg": false,
      "metar_trigger": false,
      "taf_trigger": false,
      "metar": "METAR EPWA 111100Z 15010KT CAVOK 03/M01 Q0991 NOSIG",
      "taf": "TAF EPWA 110830Z 1109/1209 16008KT CAVOK"
    },
    {
      "icao": "EPWR",
      "alert": "OK",
      "vis_m": 9999,
      "fzfg": false,
      "metar_trigger": false,
      "taf_trigger": false,
      "metar": "METAR EPWR 111100Z 17009KT CAVOK 06/01 Q0989",
      "taf": "TAF EPWR 110830Z 1109/1209 17008KT CAVOK"
    },
    {
      "icao": "ESGG",
      "alert": "OK",
      "vis_m": 9999,
      "fzfg": false,
      "metar_trigger": false,
      "taf_trigger": false,
      "metar": "METAR ESGG 111050Z 03009KT 9999 FEW005 OVC025 M04/M05 Q0991",
      "taf": ""
    },
    {
      "icao": "ESKN",
      "alert": "OK",
      "vis_m": 9999,
      "fzfg": false,
      "metar_trigger": false,
      "taf_trigger": false,
      "metar": "METAR ESKN 111050Z 02006KT 9999 BKN005 M05/M05 Q0994",
      "taf": ""
    },
    {
      "icao": "ESMS",
      "alert": "OK",
      "vis_m": 6000,
      "fzfg": false,
      "metar_trigger": false,
      "taf_trigger": false,
      "metar": "METAR ESMS 110950Z 06007KT 6000 OVC006 01/00 Q0989",
      "taf": "TAF ESMS 110851Z 1109/1209 09012KT 3000 BR OVC004"
    },
    {
      "icao": "ESSA",
      "alert": "OK",
      "vis_m": 9999,
      "fzfg": false,
      "metar_trigger": false,
      "taf_trigger": false,
      "metar": "METAR ESSA 110950Z 33007KT 9999 OVC006 M05/M06 Q0995 TEMPO 4000 -SN",
      "taf": "TAF ESSA 110830Z 1109/1209 32005KT 9999 BKN005 OVC030"
    },
    {
      "icao": "EYKA",
      "alert": "OK",
      "vis_m": 3400,
      "fzfg": false,
      "metar_trigger": false,
      "taf_trigger": false,
      "metar": "METAR EYKA 111050Z 12003KT 080V150 3400 BR OVC005 M04/M04 Q0993",
      "taf": "TAF EYKA 111101Z 1112/1212 VRB04KT 3000 SN BR OVC005"
    },
    {
      "icao": "EYPA",
      "alert": "OK",
      "vis_m": 5000,
      "fzfg": false,
      "metar_trigger": false,
      "taf_trigger": false,
      "metar": "METAR EYPA 111050Z 10007KT 5000 -SN FEW009 SCT015 OVC027 M05/M07 Q0992",
      "taf": "TAF EYPA 110516Z 1106/1206 VRB05KT 6000 SCT010 OVC015"
    },
    {
      "icao": "EYVI",
      "alert": "OK",
      "vis_m": 3100,
      "fzfg": false,
      "metar_trigger": false,
      "taf_trigger": false,
      "metar": "METAR EYVI 111050Z 16010KT 3100 BR OVC003 M04/M04 Q0994 TEMPO 1500 BR OVC002",
      "taf": "TAF EYVI 111100Z 1112/1212 17010KT 3000 BR OVC002"
    },
    {
      "icao": "GCFV",
      "alert": "OK",
      "vis_m": 9999,
      "fzfg": false,
      "metar_trigger": false,
      "taf_trigger": false,
      "metar": "METAR GCFV 111100Z 02009KT 9999 SCT010 20/16 Q1025",
      "taf": "TAF GCFV 110800Z 1109/1209 04013KT 9999 BKN016 TX24/1114Z TN17/1206Z"
    },
    {
      "icao": "GCLP",
      "alert": "OK",
      "vis_m": 9999,
      "fzfg": false,
      "metar_trigger": false,
      "taf_trigger": false,
      "metar": "METAR GCLP 111100Z 02016KT 9999 FEW017 21/16 Q1025 NOSIG",
      "taf": "TAF GCLP 110800Z 1109/1209 02018KT 9999 FEW018 TX24/1114Z TN17/1206Z"
    },
    {
      "icao": "GCTS",
      "alert": "OK",
      "vis_m": 9999,
      "fzfg": false,
      "metar_trigger": false,
      "taf_trigger": false,
      "metar": "METAR GCTS 111100Z 11012KT 9999 FEW030 21/16 Q1025 NOSIG",
      "taf": "TAF GCTS 110800Z 1109/1209 04005KT 9999 FEW020 TX25/1114Z TN17/1206Z"
    },
    {
      "icao": "GMAD",
      "alert": "OK",
      "vis_m": 2000,
      "fzfg": false,
      "metar_trigger": false,
      "taf_trigger": false,
      "metar": "METAR GMAD 111100Z 27006KT 2000 R27/1300N BR BKN003 15/15 Q1024 BECMG 6000 FEW010",
      "taf": "TAF GMAD 110500Z 1106/1212 06005KT 0200 FG OVC002"
    },
    {
      "icao": "GMMN",
      "alert": "OK",
      "vis_m": 3000,
      "fzfg": false,
      "metar_trigger": false,
      "taf_trigger": false,
      "metar": "METAR GMMN 111100Z VRB02KT 3000 BR BKN002 16/15 Q1025 TEMPO 5000 SCT010",
      "taf": "TAF GMMN 110500Z 1106/1212 34005KT 0400 FG BKN002"
    },
    {
      "icao": "GMMX",
      "alert": "OK",
      "vis_m": 9999,
      "fzfg": false,
      "metar_trigger": false,
      "taf_trigger": false,
      "metar": "METAR GMMX 111100Z VRB01KT CAVOK 23/16 Q1025 NOSIG",
      "taf": "TAF GMMX 110500Z 1106/1212 24008KT 8000 SCT030"
    },
    {
      "icao": "HEGN",
      "alert": "OK",
      "vis_m": 9999,
      "fzfg": false,
      "metar_trigger": false,
      "taf_trigger": false,
      "metar": "METAR HEGN 111000Z 36012KT CAVOK 25/11 Q1015 NOSIG",
      "taf": "TAF HEGN 111100Z 1112/1218 31015KT 6000 NSC"
    },
    {
      "icao": "HEMA",
      "alert": "OK",
      "vis_m": 9999,
      "fzfg": false,
      "metar_trigger": false,
      "taf_trigger": false,
      "metar": "METAR HEMA 111000Z 36010KT CAVOK 27/08 Q1016 NOSIG",
      "taf": "TAF HEMA 111100Z 1112/1218 33015KT 6000 FEW025"
    },
    {
      "icao": "HESH",
      "alert": "OK",
      "vis_m": 9999,
      "fzfg": false,
      "metar_trigger": false,
      "taf_trigger": false,
      "metar": "METAR HESH 111000Z 14005KT CAVOK 26/19 Q1016 NOSIG",
      "taf": "TAF HESH 111100Z 1112/1218 13008KT CAVOK"
    },
    {
      "icao": "HESX",
      "alert": "OK",
      "vis_m": 9999,
      "fzfg": false,
      "metar_trigger": false,
      "taf_trigger": false,
      "metar": "METAR HESX 111000Z 01008KT CAVOK 21/07 Q1016 NOSIG",
      "taf": "TAF HESX 111100Z 1112/1218 20010KT CAVOK"
    },
    {
      "icao": "LATI",
      "alert": "OK",
      "vis_m": 9999,
      "fzfg": false,
      "metar_trigger": false,
      "taf_trigger": false,
      "metar": "METAR LATI 111050Z 14011KT 9999 SCT040 BKN053 14/06 Q1003 NOSIG",
      "taf": "TAF LATI 111100Z 1112/1212 14012KT 9999 SCT040 BKN060 TX15/1212Z TN08/1205Z"
    },
    {
      "icao": "LBPD",
      "alert": "OK",
      "vis_m": 9999,
      "fzfg": false,
      "metar_trigger": false,
      "taf_trigger": false,
      "metar": "METAR LBPD 111100Z AUTO VRB02KT 9999 OVC013/// 03/01 Q1008 NOSIG",
      "taf": "TAF LBPD 110500Z 1106/1206 VRB04KT 9999 BKN020"
    },
    {
      "icao": "LBSF",
      "alert": "OK",
      "vis_m": 9999,
      "fzfg": false,
      "metar_trigger": false,
      "taf_trigger": false,
      "metar": "METAR LBSF 111100Z 10011KT 9999 FEW048 08/02 Q1004 NOSIG",
      "taf": "TAF LBSF 110500Z 1106/1206 11012KT 9999 SCT030 BKN050"
    },
    {
      "icao": "LBWN",
      "alert": "OK",
      "vis_m": 9999,
      "fzfg": false,
      "metar_trigger": false,
      "taf_trigger": false,
      "metar": "METAR LBWN 111100Z 20009KT 9999 BKN022 07/02 Q1006 NOSIG",
      "taf": "TAF LBWN 110500Z 1106/1206 VRB03KT 9999 BKN025"
    },
    {
      "icao": "LCLK",
      "alert": "OK",
      "vis_m": 9999,
      "fzfg": false,
      "metar_trigger": false,
      "taf_trigger": false,
      "metar": "METAR LCLK 111100Z 20017KT 9999 FEW030 FEW035CB SCT060 19/14 Q1010 NOSIG RMK CB TO SE",
      "taf": "TAF LCLK 110530Z 1106/1206 24008KT 9999 FEW025"
    },
    {
      "icao": "LCPH",
      "alert": "OK",
      "vis_m": 9999,
      "fzfg": false,
      "metar_trigger": false,
      "taf_trigger": false,
      "metar": "METAR LCPH 111100Z 27011KT 250V320 9999 FEW025 SCT035 18/12 Q1011 NOSIG",
      "taf": "TAF LCPH 110530Z 1106/1206 28015KT 9999 FEW020 SCT045"
    },
    {
      "icao": "LEAL",
      "alert": "OK",
      "vis_m": 9999,
      "fzfg": false,
      "metar_trigger": false,
      "taf_trigger": false,
      "metar": "METAR LEAL 111100Z 22005KT 190V250 9999 SCT055 23/14 Q1013 NOSIG",
      "taf": "TAF LEAL 110500Z 1106/1206 24015KT 9999 FEW030 TX24/1112Z TN15/1106Z"
    },
    {
      "icao": "LEBB",
      "alert": "OK",
      "vis_m": 9999,
      "fzfg": false,
      "metar_trigger": false,
      "taf_trigger": false,
      "metar": "METAR LEBB 111100Z 21012G27KT 150V260 CAVOK 18/08 Q1004 NOSIG",
      "taf": "TAF LEBB 110500Z 1106/1206 20009KT 9999 FEW040 TX19/1118Z TN10/1205Z"
    },
    {
      "icao": "LEBL",
      "alert": "OK",
      "vis_m": 9999,
      "fzfg": false,
      "metar_trigger": false,
      "taf_trigger": false,
      "metar": "METAR LEBL 111100Z 26011KT 230V300 9999 FEW048 21/08 Q1006 NOSIG",
      "taf": ""
    },
    {
      "icao": "LECH",
      "alert": "OK",
      "vis_m": 9999,
      "fzfg": false,
      "metar_trigger": false,
      "taf_trigger": false,
      "metar": "METAR LECH 111100Z AUTO 26007KT 210V330 CAVOK 20/04 Q1009",
      "taf": ""
    },
    {
      "icao": "LEMD",
      "alert": "OK",
      "vis_m": 2900,
      "fzfg": false,
      "metar_trigger": false,
      "taf_trigger": false,
      "metar": "METAR LEMD 111100Z 20008G18KT 150V230 2900 DZ BKN008 OVC015 12/12 Q1013 TEMPO BKN004",
      "taf": "TAF LEMD 110500Z 1106/1212 24010KT 9999 FEW015 TX15/1114Z TN07/1207Z"
    },
    {
      "icao": "LEMG",
      "alert": "OK",
      "vis_m": 9999,
      "fzfg": false,
      "metar_trigger": false,
      "taf_trigger": false,
      "metar": "METAR LEMG 111100Z 14004KT 080V170 9999 FEW044 21/15 Q1020 NOSIG",
      "taf": "TAF LEMG 110500Z 1106/1206 VRB02KT 9999 SCT040 TX22/1114Z TN16/1107Z"
    },
    {
      "icao": "LEVC",
      "alert": "OK",
      "vis_m": 9999,
      "fzfg": false,
      "metar_trigger": false,
      "taf_trigger": false,
      "metar": "METAR LEVC 111100Z 30020KT CAVOK 21/07 Q1011 NOSIG",
      "taf": ""
    },
    {
      "icao": "LEXJ",
      "alert": "OK",
      "vis_m": 9999,
      "fzfg": false,
      "metar_trigger": false,
      "taf_trigger": false,
      "metar": "METAR LEXJ 111100Z 20015KT 160V240 9999 FEW050 17/07 Q1002",
      "taf": ""
    },
    {
      "icao": "LEZG",
      "alert": "OK",
      "vis_m": 9999,
      "fzfg": false,
      "metar_trigger": false,
      "taf_trigger": false,
      "metar": "METAR LEZG 111100Z 24012KT 9999 FEW045 BKN085 16/08 Q1010 NOSIG",
      "taf": "TAF LEZG 110500Z 1106/1206 25015KT 9999 FEW050 TX19/1112Z TN13/1106Z"
    },
    {
      "icao": "LEZL",
      "alert": "OK",
      "vis_m": 9999,
      "fzfg": false,
      "metar_trigger": false,
      "taf_trigger": false,
      "metar": "METAR LEZL 111100Z 23012KT 200V260 9999 OVC010 17/17 Q1021 NOSIG",
      "taf": "TAF LEZL 110800Z 1109/1209 24010KT 9999 BKN030 TX19/1115Z TN13/1207Z"
    },
    {
      "icao": "LFBD",
      "alert": "OK",
      "vis_m": 6000,
      "fzfg": false,
      "metar_trigger": false,
      "taf_trigger": false,
      "metar": "METAR LFBD 111100Z AUTO 23011KT 6000 R23/1400U -RA BKN008/// BKN029/// BKN038/// ///TCU 13/12 Q1003 TEMPO 4000 -RA BKN008 BECMG 20015G25KT",
      "taf": "TAF LFBD 110500Z 1106/1212 27010G20KT 9999 SCT020 BKN025 TX14/1121Z TN10/1205Z"
    },
    {
      "icao": "LFLL",
      "alert": "OK",
      "vis_m": 9999,
      "fzfg": false,
      "metar_trigger": false,
      "taf_trigger": false,
      "metar": "METAR LFLL 111100Z 17005KT 9999 VCSH FEW030TCU SCT036 BKN040 13/07 Q1000 TEMPO 27010KT SHRA SCT035TCU",
      "taf": "TAF LFLL 110500Z 1106/1212 20010KT CAVOK"
    },
    {
      "icao": "LFLS",
      "alert": "OK",
      "vis_m": 9999,
      "fzfg": false,
      "metar_trigger": false,
      "taf_trigger": false,
      "metar": "METAR LFLS 111100Z AUTO 21005KT 170V310 9999 BKN048 OVC058 12/07 Q1001 TEMPO 23015G25KT 3000 SHRA SCT043TCU",
      "taf": "TAF LFLS 110800Z 1109/1209 20010KT 9999 BKN040"
    },
    {
      "icao": "LFMN",
      "alert": "OK",
      "vis_m": 9999,
      "fzfg": false,
      "metar_trigger": false,
      "taf_trigger": false,
      "metar": "METAR LFMN 111100Z 07008KT 040V100 9999 FEW026 15/10 Q0995 NOSIG",
      "taf": ""
    },
    {
      "icao": "LFOB",
      "alert": "OK",
      "vis_m": 9999,
      "fzfg": false,
      "metar_trigger": false,
      "taf_trigger": false,
      "metar": "METAR LFOB 111100Z AUTO 25015G26KT 9999 FEW007 SCT013 BKN018 12/10 Q0989 TEMPO 3000 RA BKN007 BKN013TCU",
      "taf": "TAF LFOB 110500Z 1106/1206 24012KT 9999 BKN015"
    },
    {
      "icao": "LFPO",
      "alert": "OK",
      "vis_m": 9999,
      "fzfg": false,
      "metar_trigger": false,
      "taf_trigger": false,
      "metar": "METAR LFPO 111100Z 27018G29KT 230V330 9999 -SHRA BKN020 BKN040 12/09 Q0992 NOSIG",
      "taf": "TAF LFPO 110500Z 1106/1212 24015KT 9999 BKN025"
    },
    {
      "icao": "LFSB",
      "alert": "OK",
      "vis_m": 9999,
      "fzfg": false,
      "metar_trigger": false,
      "taf_trigger": false,
      "metar": "METAR LFSB 111100Z AUTO 24014G24KT 9999 BKN023/// BKN028/// BKN036/// ///CB 11/08 Q0993 TEMPO 4000 -SHRA",
      "taf": "TAF LFSB 110500Z 1106/1206 22010KT 9999 SCT030 BKN050"
    },
    {
      "icao": "LGAV",
      "alert": "OK",
      "vis_m": 9999,
      "fzfg": false,
      "metar_trigger": false,
      "taf_trigger": false,
      "metar": "METAR LGAV 111050Z 09005KT 060V130 9999 SCT020 BKN040 15/09 Q1009 NOSIG",
      "taf": "TAF LGAV 110500Z 1106/1206 VRB03KT 9999 FEW025 BKN070"
    },
    {
      "icao": "LGTS",
      "alert": "OK",
      "vis_m": 9999,
      "fzfg": false,
      "metar_trigger": false,
      "taf_trigger": false,
      "metar": "METAR LGTS 111050Z 32004KT 9999 FEW020 BKN030 11/08 Q1007 NOSIG",
      "taf": "TAF LGTS 110500Z 1106/1206 VRB03KT 9999 FEW010 SCT025"
    },
    {
      "icao": "LHBP",
      "alert": "OK",
      "vis_m": 8000,
      "fzfg": false,
      "metar_trigger": false,
      "taf_trigger": false,
      "metar": "METAR LHBP 111100Z 10006KT 8000 FEW007 BKN036 OVC046 03/02 Q0996 NOSIG",
      "taf": ""
    },
    {
      "icao": "LHDC",
      "alert": "OK",
      "vis_m": 9999,
      "fzfg": false,
      "metar_trigger": false,
      "taf_trigger": false,
      "metar": "METAR LHDC 111045Z AUTO 18011KT 9999 BKN043 07/04 Q0999 NOSIG",
      "taf": "TAF LHDC 110815Z 1109/1118 16009KT 9999 BKN040 BKN060"
    },
    {
      "icao": "LIBD",
      "alert": "OK",
      "vis_m": 9999,
      "fzfg": false,
      "metar_trigger": false,
      "taf_trigger": false,
      "metar": "METAR LIBD 111050Z 18006KT 150V210 CAVOK 14/08 Q0999",
      "taf": "TAF LIBD 110500Z 1106/1206 22013KT 9999 FEW040"
    },
    {
      "icao": "LIBG",
      "alert": "OK",
      "vis_m": 9999,
      "fzfg": false,
      "metar_trigger": false,
      "taf_trigger": false,
      "metar": "METAR LIBG 111050Z 15008KT 9999 FEW020 14/10 Q1000",
      "taf": "TAF LIBG 110800Z 1109/1118 VRB05KT 9999 SCT030"
    },
    {
      "icao": "LIBP",
      "alert": "OK",
      "vis_m": 9999,
      "fzfg": false,
      "metar_trigger": false,
      "taf_trigger": false,
      "metar": "METAR LIBP 111050Z AUTO 04003KT 9999 OVC076/// 14/07 Q0996",
      "taf": "TAF LIBP 110500Z 1106/1206 21013KT 6000 BKN060"
    },
    {
      "icao": "LIBR",
      "alert": "OK",
      "vis_m": 9999,
      "fzfg": false,
      "metar_trigger": false,
      "taf_trigger": false,
      "metar": "METAR LIBR 111050Z 19013KT CAVOK 14/10 Q1001",
      "taf": "TAF LIBR 110500Z 1106/1206 22012KT 9999 FEW040"
    },
    {
      "icao": "LICA",
      "alert": "OK",
      "vis_m": 4300,
      "fzfg": false,
      "metar_trigger": false,
      "taf_trigger": false,
      "metar": "METAR LICA 111050Z AUTO 07008KT 4300 RA BR VCTS BKN020/// OVC055/// 11/11 Q1002",
      "taf": "TAF LICA 110500Z 1106/1206 VRB05KT 9999 BKN020"
    },
    {
      "icao": "LICC",
      "alert": "OK",
      "vis_m": 9999,
      "fzfg": false,
      "metar_trigger": false,
      "taf_trigger": false,
      "metar": "METAR LICC 111050Z 28012G23KT 250V310 9999 SCT020 SCT040 18/16 Q1001",
      "taf": "TAF LICC 110500Z 1106/1206 26013KT 9999 SCT030"
    },
    {
      "icao": "LICJ",
      "alert": "OK",
      "vis_m": 9999,
      "fzfg": false,
      "metar_trigger": false,
      "taf_trigger": false,
      "metar": "METAR LICJ 111050Z 26023KT 9999 -RA BKN020 16/14 Q1003",
      "taf": "TAF LICJ 110500Z 1106/1206 21015KT 9999 SCT020"
    },
    {
      "icao": "LIMC",
      "alert": "OK",
      "vis_m": 9999,
      "fzfg": false,
      "metar_trigger": false,
      "taf_trigger": false,
      "metar": "METAR LIMC 111050Z 36004KT 300V040 CAVOK 09/07 Q0997 NOSIG",
      "taf": "TAF LIMC 110500Z 1106/1212 VRB04KT 3000 -RA BR SCT015"
    },
    {
      "icao": "LIME",
      "alert": "OK",
      "vis_m": 9999,
      "fzfg": false,
      "metar_trigger": false,
      "taf_trigger": false,
      "metar": "METAR LIME 111050Z 22006KT 9999 BKN020 09/07 Q0997 NOSIG",
      "taf": "TAF LIME 110500Z 1106/1206 VRB04KT 2000 -RA BR BKN007"
    },
    {
      "icao": "LIMF",
      "alert": "OK",
      "vis_m": 9999,
      "fzfg": false,
      "metar_trigger": false,
      "taf_trigger": false,
      "metar": "METAR LIMF 111050Z 15003KT 080V210 9999 FEW020 09/05 Q0997",
      "taf": "TAF LIMF 110500Z 1106/1206 VRB03KT 8000 BKN035"
    },
    {
      "icao": "LIMJ",
      "alert": "OK",
      "vis_m": 9999,
      "fzfg": false,
      "metar_trigger": false,
      "taf_trigger": false,
      "metar": "METAR LIMJ 111050Z 03012KT CAVOK 12/06 Q0996",
      "taf": "TAF LIMJ 110500Z 1106/1206 VRB05KT 8000 BKN020"
    },
    {
      "icao": "LIPE",
      "alert": "OK",
      "vis_m": 2500,
      "fzfg": false,
      "metar_trigger": false,
      "taf_trigger": false,
      "metar": "METAR LIPE 111050Z 28008KT 2500 BR BKN004 BKN008 09/09 Q0996",
      "taf": ""
    },
    {
      "icao": "LIPH",
      "alert": "OK",
      "vis_m": 8000,
      "fzfg": false,
      "metar_trigger": false,
      "taf_trigger": false,
      "metar": "METAR LIPH 111050Z 05006KT 020V080 8000 BKN008 BKN020 10/09 Q0996",
      "taf": ""
    },
    {
      "icao": "LIPQ",
      "alert": "OK",
      "vis_m": 4400,
      "fzfg": false,
      "metar_trigger": false,
      "taf_trigger": false,
      "metar": "METAR LIPQ 111050Z AUTO 09003KT 4400 -RA OVC003/// 10/10 Q0996",
      "taf": "TAF LIPQ 110500Z 1106/1206 VRB05KT 6000 SCT020 BKN040"
    },
    {
      "icao": "LIPR",
      "alert": "OK",
      "vis_m": 9999,
      "fzfg": false,
      "metar_trigger": false,
      "taf_trigger": false,
      "metar": "METAR LIPR 111050Z 19006KT 9999 -RA SCT050 BKN065 12/09 Q0995",
      "taf": "TAF LIPR 110500Z 1106/1206 16010KT 9999 BKN030"
    },
    {
      "icao": "LIPX",
      "alert": "OK",
      "vis_m": 9999,
      "fzfg": false,
      "metar_trigger": false,
      "taf_trigger": false,
      "metar": "METAR LIPX 111050Z 27006KT 230V290 9999 FEW005 SCT010 BKN025 11/09 Q0996",
      "taf": "TAF LIPX 110500Z 1106/1206 VRB05KT 2000 -RA BR BKN035"
    },
    {
      "icao": "LIPY",
      "alert": "OK",
      "vis_m": 9999,
      "fzfg": false,
      "metar_trigger": false,
      "taf_trigger": false,
      "metar": "METAR LIPY 111050Z AUTO VRB02KT 9999 -RA FEW035/// BKN062/// 15/06 Q0996",
      "taf": "TAF LIPY 110500Z 1106/1206 13008KT 9999 SCT050"
    },
    {
      "icao": "LIPZ",
      "alert": "OK",
      "vis_m": 9999,
      "fzfg": false,
      "metar_trigger": false,
      "taf_trigger": false,
      "metar": "METAR LIPZ 111050Z 05008KT 9999 BKN005 09/09 Q0996 NOSIG",
      "taf": "TAF LIPZ 110500Z 1106/1212 VRB05KT 4000 RA BKN015"
    },
    {
      "icao": "LIRF",
      "alert": "OK",
      "vis_m": 9999,
      "fzfg": false,
      "metar_trigger": false,
      "taf_trigger": false,
      "metar": "METAR LIRF 111050Z 14013KT 9999 SCT009 SCT025 13/11 Q0998 WS R16R NOSIG",
      "taf": "TAF LIRF 110500Z 1106/1212 16012KT 9999 SCT020"
    },
    {
      "icao": "LIRN",
      "alert": "OK",
      "vis_m": 9999,
      "fzfg": false,
      "metar_trigger": false,
      "taf_trigger": false,
      "metar": "METAR LIRN 111050Z VRB02KT 9999 -RA FEW030 BKN060 13/11 Q0998 NOSIG",
      "taf": "TAF LIRN 110500Z 1106/1206 19007KT 9999 SCT015"
    },
    {
      "icao": "LIRP",
      "alert": "OK",
      "vis_m": 9999,
      "fzfg": false,
      "metar_trigger": false,
      "taf_trigger": false,
      "metar": "METAR LIRP 111045Z 25009KT 9999 SCT025 BKN050 15/12 Q0995 NOSIG",
      "taf": "TAF LIRP 110500Z 1106/1206 09005KT 7000 -RA BKN020"
    },
    {
      "icao": "LIRZ",
      "alert": "OK",
      "vis_m": 9999,
      "fzfg": false,
      "metar_trigger": false,
      "taf_trigger": false,
      "metar": "METAR LIRZ 111050Z AUTO 24003KT 9999 -DZ BKN023/// 11/09 Q0997",
      "taf": "TAF LIRZ 110500Z 1106/1206 19008KT 4000 RA SCT020 BKN030"
    },
    {
      "icao": "LJLJ",
      "alert": "OK",
      "vis_m": 9999,
      "fzfg": false,
      "metar_trigger": false,
      "taf_trigger": false,
      "metar": "METAR LJLJ 111100Z VRB02KT 9999 FEW005 SCT033 BKN050 08/06 Q0995 NOSIG",
      "taf": "TAF LJLJ 111100Z 1112/1212 VRB02KT 9999 FEW003 BKN045 OVC065"
    },
    {
      "icao": "LKMT",
      "alert": "OK",
      "vis_m": 9999,
      "fzfg": false,
      "metar_trigger": false,
      "taf_trigger": false,
      "metar": "METAR LKMT 111100Z 21014KT 9999 BKN024 BKN028 06/02 Q0991 NOSIG",
      "taf": "TAF LKMT 110500Z 1106/1206 22012KT 9999 BKN025"
    },
    {
      "icao": "LKPR",
      "alert": "OK",
      "vis_m": 9999,
      "fzfg": false,
      "metar_trigger": false,
      "taf_trigger": false,
      "metar": "METAR LKPR 111100Z 14009KT 9999 -RA FEW009 OVC017 03/02 Q0988 BECMG BKN014",
      "taf": "TAF LKPR 110800Z 1109/1215 16008KT 6000 -RA SCT010 BKN035"
    },
    {
      "icao": "LLBG",
      "alert": "OK",
      "vis_m": 9999,
      "fzfg": false,
      "metar_trigger": false,
      "taf_trigger": false,
      "metar": "METAR LLBG 111050Z 24016KT 9999 SCT026 19/12 Q1015 NOSIG",
      "taf": "TAF LLBG 110506Z 1106/1206 VRB04KT 9999 SCT030"
    },
    {
      "icao": "LMML",
      "alert": "OK",
      "vis_m": 9999,
      "fzfg": false,
      "metar_trigger": false,
      "taf_trigger": false,
      "metar": "METAR LMML 111045Z 24016G30KT CAVOK 19/15 Q1006 NOSIG",
      "taf": "TAF LMML 111100Z 1112/1212 23015KT 9999 FEW020"
    },
    {
      "icao": "LOWW",
      "alert": "OK",
      "vis_m": 8000,
      "fzfg": false,
      "metar_trigger": false,
      "taf_trigger": false,
      "metar": "METAR LOWW 111050Z 11006KT 8000 -RA FEW013 SCT046 BKN050 05/03 Q0993 NOSIG",
      "taf": "TAF LOWW 110815Z 1109/1215 13011KT 8000 OVC006 TX08/1114Z TN04/1203Z"
    },
    {
      "icao": "LPFR",
      "alert": "OK",
      "vis_m": 1500,
      "fzfg": false,
      "metar_trigger": false,
      "taf_trigger": false,
      "metar": "METAR LPFR 111100Z 26013KT 1500 -DZ BR BKN003 15/15 Q1022",
      "taf": "TAF LPFR 110500Z 1106/1206 25012KT 8000 SCT004 BKN008"
    },
    {
      "icao": "LPMA",
      "alert": "OK",
      "vis_m": 9999,
      "fzfg": false,
      "metar_trigger": false,
      "taf_trigger": false,
      "metar": "METAR LPMA 111100Z 16004KT 110V260 9999 FEW016 SCT033 19/12 Q1026",
      "taf": "TAF LPMA 110500Z 1106/1206 VRB05KT 9999 SCT015"
    },
    {
      "icao": "LPPR",
      "alert": "OK",
      "vis_m": 1500,
      "fzfg": false,
      "metar_trigger": false,
      "taf_trigger": false,
      "metar": "METAR LPPR 111100Z 22012G22KT 190V260 1500 -RADZ BR BKN002 BKN004 15/15 Q1011",
      "taf": "TAF LPPR 110500Z 1106/1206 19010KT 6000 SCT004 BKN008"
    },
    {
      "icao": "LPPS",
      "alert": "OK",
      "vis_m": 9999,
      "fzfg": false,
      "metar_trigger": false,
      "taf_trigger": false,
      "metar": "METAR LPPS 111100Z 26008KT 9999 FEW015 BKN030 18/13 Q1026",
      "taf": "TAF LPPS 110500Z 1106/1212 27007KT 9999 FEW015 SCT030"
    },
    {
      "icao": "LPPT",
      "alert": "OK",
      "vis_m": 2000,
      "fzfg": false,
      "metar_trigger": false,
      "taf_trigger": false,
      "metar": "METAR LPPT 111100Z 23018KT 2000 -DZ BR BKN003 15/15 Q1018",
      "taf": ""
    },
    {
      "icao": "LQBK",
      "alert": "OK",
      "vis_m": 9999,
      "fzfg": false,
      "metar_trigger": false,
      "taf_trigger": false,
      "metar": "METAR LQBK 111100Z 00000KT 9999 FEW007 SCT047 07/06 Q0996 NOSIG",
      "taf": "TAF LQBK 111100Z 1112/1212 33005KT 8000 SCT045 TX09/1113Z TN06/1205Z"
    },
    {
      "icao": "LQSA",
      "alert": "OK",
      "vis_m": 9999,
      "fzfg": false,
      "metar_trigger": false,
      "taf_trigger": false,
      "metar": "METAR LQSA 111100Z VRB01KT 9999 BKN050 11/04 Q0998 NOSIG",
      "taf": "TAF LQSA 111100Z 1112/1212 11005KT 9999 BKN050 TX13/1113Z TN04/1205Z"
    },
    {
      "icao": "LQTZ",
      "alert": "OK",
      "vis_m": 9999,
      "fzfg": false,
      "metar_trigger": false,
      "taf_trigger": false,
      "metar": "METAR LQTZ 111100Z 17004KT 130V270 9999 FEW060 15/04 Q0997",
      "taf": "TAF LQTZ 111100Z 1112/1212 17005KT 9999 SCT060 TX12/1113Z TN04/1205Z"
    },
    {
      "icao": "LRBC",
      "alert": "OK",
      "vis_m": 9999,
      "fzfg": false,
      "metar_trigger": false,
      "taf_trigger": false,
      "metar": "METAR LRBC 111100Z 15011KT 9999 OVC006 01/M00 Q1002",
      "taf": "TAF LRBC 110800Z 1109/1118 17010KT 9999 OVC005"
    },
    {
      "icao": "LRBS",
      "alert": "OK",
      "vis_m": 9999,
      "fzfg": false,
      "metar_trigger": false,
      "taf_trigger": false,
      "metar": "METAR LRBS 111100Z 25006KT 220V290 9999 FEW009 OVC041 02/00 Q1006 NOSIG",
      "taf": "TAF LRBS 110500Z 1106/1206 VRB04KT 3000 BR BKN005 OVC020"
    },
    {
      "icao": "LRBV",
      "alert": "OK",
      "vis_m": 9999,
      "fzfg": false,
      "metar_trigger": false,
      "taf_trigger": false,
      "metar": "METAR LRBV 111100Z 34007KT 9999 SCT087 05/M01 Q1000",
      "taf": "TAF LRBV 110800Z 1109/1118 11007KT 9999 SCT070"
    },
    {
      "icao": "LRCL",
      "alert": "OK",
      "vis_m": 9999,
      "fzfg": false,
      "metar_trigger": false,
      "taf_trigger": false,
      "metar": "METAR LRCL 111100Z 11009KT CAVOK 07/01 Q1000",
      "taf": "TAF LRCL 110800Z 1109/1118 10008KT 9999 BKN060"
    },
    {
      "icao": "LRCV",
      "alert": "OK",
      "vis_m": 9999,
      "fzfg": false,
      "metar_trigger": false,
      "taf_trigger": false,
      "metar": "METAR LRCV 111100Z VRB02KT 9999 BKN010 BKN040 02/M01 Q1005",
      "taf": "TAF LRCV 110800Z 1109/1118 VRB04KT 9999 BKN035"
    },
    {
      "icao": "LRIA",
      "alert": "OK",
      "vis_m": 9999,
      "fzfg": false,
      "metar_trigger": false,
      "taf_trigger": false,
      "metar": "METAR LRIA 111100Z 17009KT 140V210 9999 SCT018 05/M01 Q1002",
      "taf": "TAF LRIA 110800Z 1109/1118 16010KT 9999 BKN015"
    },
    {
      "icao": "LROP",
      "alert": "OK",
      "vis_m": 8000,
      "fzfg": false,
      "metar_trigger": false,
      "taf_trigger": false,
      "metar": "METAR LROP 111100Z 24006KT 8000 OVC010 03/M00 Q1006 BECMG SCT015 BKN040",
      "taf": "TAF LROP 110500Z 1106/1206 VRB04KT 3000 BR BKN005 OVC020"
    },
    {
      "icao": "LRSB",
      "alert": "OK",
      "vis_m": 9999,
      "fzfg": false,
      "metar_trigger": false,
      "taf_trigger": false,
      "metar": "METAR LRSB 111100Z VRB03KT CAVOK 10/01 Q1000",
      "taf": "TAF LRSB 110500Z 1106/1206 VRB04KT 9999 SCT060"
    },
    {
      "icao": "LRSM",
      "alert": "OK",
      "vis_m": 9999,
      "fzfg": false,
      "metar_trigger": false,
      "taf_trigger": false,
      "metar": "METAR LRSM 111100Z 13009KT 9999 BKN026 05/01 Q0999",
      "taf": "TAF LRSM 110800Z 1109/1118 14008KT 9999 BKN030"
    },
    {
      "icao": "LRSV",
      "alert": "OK",
      "vis_m": 9999,
      "fzfg": false,
      "metar_trigger": false,
      "taf_trigger": false,
      "metar": "METAR LRSV 111100Z 19005KT CAVOK 03/M01 Q0999",
      "taf": "TAF LRSV 110800Z 1109/1118 20008KT CAVOK"
    },
    {
      "icao": "LRTM",
      "alert": "OK",
      "vis_m": 9999,
      "fzfg": false,
      "metar_trigger": false,
      "taf_trigger": false,
      "metar": "METAR LRTM 111100Z 12004KT 080V150 CAVOK 07/M01 Q1001",
      "taf": "TAF LRTM 110800Z 1109/1118 VRB04KT 9999 BKN035"
    },
    {
      "icao": "LRTR",
      "alert": "OK",
      "vis_m": 9999,
      "fzfg": false,
      "metar_trigger": false,
      "taf_trigger": false,
      "metar": "METAR LRTR 111100Z 17014KT CAVOK 09/03 Q0999 NOSIG",
      "taf": "TAF LRTR 110500Z 1106/1206 10007KT 9999 BKN045"
    },
    {
      "icao": "LTAC",
      "alert": "OK",
      "vis_m": 8000,
      "fzfg": false,
      "metar_trigger": false,
      "taf_trigger": false,
      "metar": "METAR LTAC 111050Z 24003KT 180V270 8000 SCT015 BKN025 BKN100 05/02 Q1009 NOSIG RMK RWY21C 23003KT 190V260 RWY03L 23003KT 190V260 RWY21R 23003KT 190V260 RWY03R VRB02KT RWY21L 22004KT 180V250",
      "taf": "TAF LTAC 111040Z 1112/1212 VRB02KT 9999 SCT040 SCT100"
    },
    {
      "icao": "LTFM",
      "alert": "OK",
      "vis_m": 9999,
      "fzfg": false,
      "metar_trigger": false,
      "taf_trigger": false,
      "metar": "METAR LTFM 111050Z 20008KT 9999 BKN025 08/04 Q1009 NOSIG RMK RWY17L 20008KT 160V220 RWY34L 19008KT RWY16R 19007KT RWY36 21008KT RWY18 20009KT",
      "taf": "TAF LTFM 111040Z 1112/1218 21010KT 9999 BKN025"
    },
    {
      "icao": "LUKK",
      "alert": "OK",
      "vis_m": 9999,
      "fzfg": false,
      "metar_trigger": false,
      "taf_trigger": false,
      "metar": "METAR LUKK 111100Z 18011KT 9999 BKN019 03/00 Q1004 NOSIG",
      "taf": "TAF LUKK 110518Z 1106/1206 16012KT 9999 BKN020"
    },
    {
      "icao": "LWOH",
      "alert": "OK",
      "vis_m": 9999,
      "fzfg": false,
      "metar_trigger": false,
      "taf_trigger": false,
      "metar": "METAR LWOH 111050Z 18006KT 150V230 9999 FEW014 BKN045 10/07 Q1004",
      "taf": "TAF LWOH 110830Z 1109/1209 16010KT 9999 FEW015 BKN040"
    },
    {
      "icao": "LWSK",
      "alert": "OK",
      "vis_m": 9999,
      "fzfg": false,
      "metar_trigger": false,
      "taf_trigger": false,
      "metar": "METAR LWSK 111054Z COR 30004KT 250V360 9999 SCT017 BKN026 09/05 Q1005 NOSIG",
      "taf": "TAF LWSK 110830Z 1109/1209 14008KT 9999 SCT010 BKN020"
    },
    {
      "icao": "LYBE",
      "alert": "OK",
      "vis_m": 9999,
      "fzfg": false,
      "metar_trigger": false,
      "taf_trigger": false,
      "metar": "METAR LYBE 111100Z 12011KT CAVOK 13/04 Q0999 NOSIG",
      "taf": "TAF LYBE 110500Z 1106/1206 13007KT CAVOK TX14/1113Z TN01/1106Z"
    },
    {
      "icao": "LYNI",
      "alert": "OK",
      "vis_m": 9999,
      "fzfg": false,
      "metar_trigger": false,
      "taf_trigger": false,
      "metar": "METAR LYNI 111100Z 17007KT 110V240 9999 FEW040 BKN090 12/06 Q1003 NOSIG",
      "taf": "TAF LYNI 110500Z 1106/1206 10008KT 9999 SCT040 BKN080 TX12/1113Z TN03/1106Z"
    },
    {
      "icao": "LYPG",
      "alert": "OK",
      "vis_m": 9999,
      "fzfg": false,
      "metar_trigger": false,
      "taf_trigger": false,
      "metar": "METAR LYPG 111100Z VRB01KT 9999 -RA FEW005 SCT040 OVC070 10/08 Q1003 NOSIG",
      "taf": "TAF LYPG 110500Z 1106/1206 16005KT 9999 FEW010 BKN040 BKN070 TX11/1113Z TN08/1106Z"
    },
    {
      "icao": "LZIB",
      "alert": "OK",
      "vis_m": 5000,
      "fzfg": false,
      "metar_trigger": false,
      "taf_trigger": false,
      "metar": "METAR LZIB 111100Z 02007KT 5000 BR SCT004 OVC006 03/02 Q0994 NOSIG",
      "taf": ""
    },
    {
      "icao": "LZKZ",
      "alert": "OK",
      "vis_m": 5000,
      "fzfg": false,
      "metar_trigger": false,
      "taf_trigger": false,
      "metar": "METAR LZKZ 111100Z VRB03KT 5000 -SN OVC006 01/00 Q0997 TEMPO 2000 SN OVC004",
      "taf": "TAF LZKZ 110515Z 1106/1206 21011KT 9999 SCT004 OVC015"
    },
    {
      "icao": "LZTT",
      "alert": "OK",
      "vis_m": 9999,
      "fzfg": false,
      "metar_trigger": false,
      "taf_trigger": false,
      "metar": "METAR LZTT 111100Z 17007KT 9999 BKN030 03/M00 Q0993 NOSIG",
      "taf": "TAF LZTT 110515Z 1106/1206 11007KT 9999 FEW005 BKN020"
    },
    {
      "icao": "OEJN",
      "alert": "OK",
      "vis_m": 9999,
      "fzfg": false,
      "metar_trigger": false,
      "taf_trigger": false,
      "metar": "METAR OEJN 111100Z 27008KT CAVOK 31/15 Q1012 NOSIG",
      "taf": "TAF OEJN 110500Z 1106/1212 27010KT 7000 NSC"
    },
    {
      "icao": "OEMA",
      "alert": "OK",
      "vis_m": 9999,
      "fzfg": false,
      "metar_trigger": false,
      "taf_trigger": false,
      "metar": "METAR OEMA 111100Z 22009KT CAVOK 30/09 Q1016 NOSIG",
      "taf": "TAF OEMA 110500Z 1106/1212 26010KT CAVOK"
    },
    {
      "icao": "OJAI",
      "alert": "OK",
      "vis_m": 4000,
      "fzfg": false,
      "metar_trigger": false,
      "taf_trigger": false,
      "metar": "METAR OJAI 111000Z 26016KT 4000 BLDU FEW035 SCT200 16/05 Q1016 NOSIG",
      "taf": "TAF OJAI 110441Z 1106/1212 27010KT 5000 HZ FEW035"
    },
    {
      "icao": "OMAA",
      "alert": "OK",
      "vis_m": 9999,
      "fzfg": false,
      "metar_trigger": false,
      "taf_trigger": false,
      "metar": "METAR OMAA 111100Z 32008KT 210V020 CAVOK 29/11 Q1016 NOSIG",
      "taf": "TAF OMAA 111100Z 1112/1218 33010KT 8000 NSC"
    },
    {
      "icao": "OMDB",
      "alert": "OK",
      "vis_m": 9999,
      "fzfg": false,
      "metar_trigger": false,
      "taf_trigger": false,
      "metar": "METAR OMDB 111100Z 01011KT 350V050 CAVOK 30/13 Q1015 NOSIG",
      "taf": "TAF OMDB 111100Z 1112/1218 34012KT 8000 NSC"
    },
    {
      "icao": "UAAA",
      "alert": "OK",
      "vis_m": 5000,
      "fzfg": false,
      "metar_trigger": false,
      "taf_trigger": false,
      "metar": "METAR UAAA 111100Z 31002MPS 280V360 5000 -RA BR BKN012 OVC025 01/M00 Q1020 NOSIG",
      "taf": "TAF UAAA 110509Z 1106/1206 26003G08MPS 3100 -SHRA BR BKN050CB OVC100 TX10/1106Z TNM03/1203Z"
    },
    {
      "icao": "UBBB",
      "alert": "OK",
      "vis_m": 9999,
      "fzfg": false,
      "metar_trigger": false,
      "taf_trigger": false,
      "metar": "METAR UBBB 111100Z 12008KT 9999 BKN010 OVC021 03/01 Q1016 NOSIG",
      "taf": "TAF UBBB 111048Z 1112/1212 11010KT 9999 BKN015 OVC030 TX03/1112Z TN02/1202Z"
    },
    {
      "icao": "UDSG",
      "alert": "OK",
      "vis_m": 1800,
      "fzfg": false,
      "metar_trigger": false,
      "taf_trigger": false,
      "metar": "METAR UDSG 111100Z 00000KT 1800 SN BR OVC013 M00/M01 Q1010 NOSIG",
      "taf": "TAF UDSG 110458Z 1106/1206 VRB06KT 3000 BR OVC020"
    },
    {
      "icao": "UDYZ",
      "alert": "OK",
      "vis_m": 9999,
      "fzfg": false,
      "metar_trigger": false,
      "taf_trigger": false,
      "metar": "METAR UDYZ 111100Z 26003KT 9999 BKN023 02/01 Q1011 NOSIG",
      "taf": "TAF UDYZ 110500Z 1106/1206 16006KT 2300 BR BKN020"
    },
    {
      "icao": "UGKO",
      "alert": "OK",
      "vis_m": 9999,
      "fzfg": false,
      "metar_trigger": false,
      "taf_trigger": false,
      "metar": "METAR UGKO 111100Z 09021KT 9999 BKN065 07/M01 Q1010 NOSIG",
      "taf": "TAF UGKO 111100Z 1112/1212 08015KT 9999 BKN060 TX17/1211Z TN05/1202Z"
    }
  ]
}