{
  "ts_utc": "2026-04-17T11:08:38Z",
  "threshold_m": 150,
  "source": "stations_override.txt (ICAO list) + aviationweather.gov (METAR/TAF raw)",
  "station_count": 159,
  "stations": [
    {
      "icao": "BIKF",
      "alert": "OK",
      "vis_m": 9999,
      "fzfg": false,
      "metar_trigger": false,
      "taf_trigger": false,
      "metar": "METAR BIKF 171100Z 25005KT 190V280 9999 SCT023TCU 06/01 Q1000",
      "taf": "TAF BIKF 171035Z 1712/1812 22006KT 9999 -SHRA SCT015 BKN030 TX08/1713Z TN01/1806Z"
    },
    {
      "icao": "BKPR",
      "alert": "OK",
      "vis_m": 9999,
      "fzfg": false,
      "metar_trigger": false,
      "taf_trigger": false,
      "metar": "METAR BKPR 171100Z 01018KT 9999 FEW050 21/08 Q1016 NOSIG",
      "taf": "TAF BKPR 170530Z 1706/1806 01009KT 9999 FEW050"
    },
    {
      "icao": "EBCI",
      "alert": "OK",
      "vis_m": 9999,
      "fzfg": false,
      "metar_trigger": false,
      "taf_trigger": false,
      "metar": "METAR EBCI 171050Z 18005KT 150V220 9999 FEW045 17/05 Q1022 NOSIG",
      "taf": "TAF EBCI 170502Z 1706/1812 27004KT 9999 SCT040"
    },
    {
      "icao": "EDDB",
      "alert": "OK",
      "vis_m": 9999,
      "fzfg": false,
      "metar_trigger": false,
      "taf_trigger": false,
      "metar": "METAR EDDB 171050Z AUTO VRB07KT CAVOK 18/06 Q1023 NOSIG",
      "taf": "TAF EDDB 170500Z 1706/1806 35005KT CAVOK"
    },
    {
      "icao": "EDDH",
      "alert": "OK",
      "vis_m": 9999,
      "fzfg": false,
      "metar_trigger": false,
      "taf_trigger": false,
      "metar": "METAR EDDH 171050Z AUTO 13004KT 060V170 CAVOK 18/07 Q1023 NOSIG",
      "taf": "TAF EDDH 170500Z 1706/1812 VRB02KT 9999 FEW030"
    },
    {
      "icao": "EDDK",
      "alert": "OK",
      "vis_m": 9999,
      "fzfg": false,
      "metar_trigger": false,
      "taf_trigger": false,
      "metar": "METAR EDDK 171050Z AUTO VRB04KT CAVOK 19/09 Q1022 NOSIG",
      "taf": "TAF EDDK 170500Z 1706/1812 12003KT CAVOK"
    },
    {
      "icao": "EDDN",
      "alert": "OK",
      "vis_m": 9999,
      "fzfg": false,
      "metar_trigger": false,
      "taf_trigger": false,
      "metar": "METAR EDDN 171050Z AUTO 25004KT 190V310 CAVOK 19/07 Q1022 NOSIG",
      "taf": "TAF EDDN 170500Z 1706/1806 VRB03KT CAVOK"
    },
    {
      "icao": "EDDS",
      "alert": "OK",
      "vis_m": 9999,
      "fzfg": false,
      "metar_trigger": false,
      "taf_trigger": false,
      "metar": "METAR EDDS 171050Z AUTO VRB05KT CAVOK 19/06 Q1021 NOSIG",
      "taf": "TAF EDDS 170500Z 1706/1806 VRB03KT CAVOK"
    },
    {
      "icao": "EDFH",
      "alert": "OK",
      "vis_m": 9999,
      "fzfg": false,
      "metar_trigger": false,
      "taf_trigger": false,
      "metar": "METAR EDFH 171050Z 29006KT 260V330 CAVOK 17/07 Q1022",
      "taf": "TAF EDFH 170500Z 1706/1806 VRB03KT CAVOK"
    },
    {
      "icao": "EDJA",
      "alert": "OK",
      "vis_m": 9999,
      "fzfg": false,
      "metar_trigger": false,
      "taf_trigger": false,
      "metar": "METAR EDJA 171050Z 06007KT 030V100 9999 FEW053 17/04 Q1021",
      "taf": "TAF EDJA 170800Z 1709/1718 06004KT CAVOK"
    },
    {
      "icao": "EDLW",
      "alert": "OK",
      "vis_m": 9999,
      "fzfg": false,
      "metar_trigger": false,
      "taf_trigger": false,
      "metar": "METAR EDLW 171050Z 10003KT 040V160 9999 FEW045 20/08 Q1021",
      "taf": "TAF EDLW 170500Z 1706/1806 16004KT CAVOK"
    },
    {
      "icao": "EDNY",
      "alert": "OK",
      "vis_m": 9999,
      "fzfg": false,
      "metar_trigger": false,
      "taf_trigger": false,
      "metar": "METAR EDNY 171050Z 22007KT CAVOK 17/09 Q1021",
      "taf": "TAF EDNY 170800Z 1709/1718 VRB02KT CAVOK"
    },
    {
      "icao": "EDSB",
      "alert": "OK",
      "vis_m": 9999,
      "fzfg": false,
      "metar_trigger": false,
      "taf_trigger": false,
      "metar": "METAR EDSB 171050Z 35003KT 280V060 CAVOK 19/11 Q1021",
      "taf": "TAF EDSB 170500Z 1706/1806 VRB03KT CAVOK"
    },
    {
      "icao": "EETN",
      "alert": "OK",
      "vis_m": 9999,
      "fzfg": false,
      "metar_trigger": false,
      "taf_trigger": false,
      "metar": "METAR EETN 171050Z 05012KT 020V080 CAVOK 13/M02 Q1020 NOSIG",
      "taf": "TAF EETN 170530Z 1706/1806 03010KT 9999 SCT040"
    },
    {
      "icao": "EFTU",
      "alert": "OK",
      "vis_m": 9999,
      "fzfg": false,
      "metar_trigger": false,
      "taf_trigger": false,
      "metar": "METAR EFTU 171050Z AUTO 05006KT 360V100 CAVOK 16/M03 Q1021",
      "taf": "TAF EFTU 170829Z 1709/1809 03008KT CAVOK"
    },
    {
      "icao": "EGBB",
      "alert": "OK",
      "vis_m": 9999,
      "fzfg": false,
      "metar_trigger": false,
      "taf_trigger": false,
      "metar": "METAR EGBB 171050Z 18010KT 160V220 9999 BKN025 15/09 Q1016",
      "taf": "TAF EGBB 170526Z 1706/1806 19009KT 9999 SCT020"
    },
    {
      "icao": "EGGP",
      "alert": "OK",
      "vis_m": 9999,
      "fzfg": false,
      "metar_trigger": false,
      "taf_trigger": false,
      "metar": "METAR EGGP 171050Z 19010KT 9999 4000NW VCSH FEW025 BKN036 13/09 Q1014",
      "taf": "TAF EGGP 170457Z 1706/1806 16012KT 9999 SCT030"
    },
    {
      "icao": "EGGW",
      "alert": "OK",
      "vis_m": 9999,
      "fzfg": false,
      "metar_trigger": false,
      "taf_trigger": false,
      "metar": "METAR EGGW 171050Z AUTO 22012KT 9999 FEW025 SCT034 14/08 Q1019",
      "taf": ""
    },
    {
      "icao": "EGKK",
      "alert": "OK",
      "vis_m": 9999,
      "fzfg": false,
      "metar_trigger": false,
      "taf_trigger": false,
      "metar": "METAR EGKK 171050Z 20009KT 160V240 9999 SCT023 16/10 Q1020",
      "taf": "TAF EGKK 170454Z 1706/1812 14003KT 9999 SCT035"
    },
    {
      "icao": "EGNM",
      "alert": "OK",
      "vis_m": 9999,
      "fzfg": false,
      "metar_trigger": false,
      "taf_trigger": false,
      "metar": "METAR EGNM 171050Z 19014KT 9999 BKN026 12/08 Q1014",
      "taf": "TAF EGNM 170455Z 1706/1806 17006KT 9999 SCT025"
    },
    {
      "icao": "EGPD",
      "alert": "OK",
      "vis_m": 9999,
      "fzfg": false,
      "metar_trigger": false,
      "taf_trigger": false,
      "metar": "METAR EGPD 171050Z COR AUTO 17019KT 9999 SCT032 BKN040 12/08 Q1009 NOSIG",
      "taf": "TAF EGPD 170459Z 1706/1806 17015G25KT 9999 BKN006"
    },
    {
      "icao": "EGPF",
      "alert": "OK",
      "vis_m": 9999,
      "fzfg": false,
      "metar_trigger": false,
      "taf_trigger": false,
      "metar": "METAR EGPF 171050Z AUTO 20015KT 9999 BKN021 BKN030 BKN039 13/09 Q1008",
      "taf": ""
    },
    {
      "icao": "EHBK",
      "alert": "OK",
      "vis_m": 9999,
      "fzfg": false,
      "metar_trigger": false,
      "taf_trigger": false,
      "metar": "METAR EHBK 171055Z AUTO VRB03KT 9999 NCD 18/07 Q1022 NOSIG",
      "taf": "TAF EHBK 170449Z 1706/1812 24004KT CAVOK"
    },
    {
      "icao": "EHEH",
      "alert": "OK",
      "vis_m": 9999,
      "fzfg": false,
      "metar_trigger": false,
      "taf_trigger": false,
      "metar": "METAR EHEH 171055Z AUTO 13003KT 9999 FEW054 OVC180 19/07 Q1022 BLU NOSIG RMK TREND REMOTE BY EHWX",
      "taf": "TAF EHEH 170507Z 1706/1812 VRB01KT CAVOK"
    },
    {
      "icao": "EKBI",
      "alert": "OK",
      "vis_m": 9999,
      "fzfg": false,
      "metar_trigger": false,
      "taf_trigger": false,
      "metar": "METAR EKBI 171050Z AUTO 12002KT 9999 BKN059/// BKN210/// 11/08 Q1024",
      "taf": "TAF EKBI 170827Z 1709/1809 14007KT 9999 BKN005"
    },
    {
      "icao": "EKCH",
      "alert": "OK",
      "vis_m": 9999,
      "fzfg": false,
      "metar_trigger": false,
      "taf_trigger": false,
      "metar": "METAR EKCH 171050Z AUTO 20004KT 140V240 9999 NCD 12/04 Q1025 NOSIG",
      "taf": "TAF EKCH 170827Z 1709/1809 17006KT 9999 FEW030"
    },
    {
      "icao": "ENAL",
      "alert": "OK",
      "vis_m": 9999,
      "fzfg": false,
      "metar_trigger": false,
      "taf_trigger": false,
      "metar": "METAR ENAL 171050Z 06005KT CAVOK 15/01 Q1020",
      "taf": "TAF ENAL 170800Z 1709/1718 06005KT CAVOK"
    },
    {
      "icao": "ENBR",
      "alert": "OK",
      "vis_m": 9999,
      "fzfg": false,
      "metar_trigger": false,
      "taf_trigger": false,
      "metar": "METAR ENBR 171050Z 15017KT 9999 SCT043 12/02 Q1020 NOSIG RMK WIND 1200FT 14022KT",
      "taf": "TAF ENBR 170500Z 1706/1806 16008KT 9999 SCT045"
    },
    {
      "icao": "ENGM",
      "alert": "OK",
      "vis_m": 9999,
      "fzfg": false,
      "metar_trigger": false,
      "taf_trigger": false,
      "metar": "METAR ENGM 171050Z 16008KT 120V230 CAVOK 13/02 Q1024 NOSIG",
      "taf": "TAF ENGM 170500Z 1706/1806 01003KT 9999 FEW050"
    },
    {
      "icao": "ENHD",
      "alert": "OK",
      "vis_m": 9999,
      "fzfg": false,
      "metar_trigger": false,
      "taf_trigger": false,
      "metar": "METAR ENHD 171050Z 16011KT 120V190 CAVOK 11/05 Q1021",
      "taf": "TAF ENHD 170800Z 1709/1718 14012KT 9999 FEW040"
    },
    {
      "icao": "ENTC",
      "alert": "OK",
      "vis_m": 9999,
      "fzfg": false,
      "metar_trigger": false,
      "taf_trigger": false,
      "metar": "METAR ENTC 171050Z 23003KT CAVOK 07/M00 Q1025 NOSIG RMK WIND 2600FT 18009KT",
      "taf": "TAF ENTC 170500Z 1706/1806 04007KT CAVOK"
    },
    {
      "icao": "ENTO",
      "alert": "OK",
      "vis_m": 9999,
      "fzfg": false,
      "metar_trigger": false,
      "taf_trigger": false,
      "metar": "METAR ENTO 171050Z 19003KT CAVOK 13/02 Q1025 NOSIG",
      "taf": "TAF ENTO 170500Z 1706/1806 VRB03KT 9999 FEW030"
    },
    {
      "icao": "ENVA",
      "alert": "OK",
      "vis_m": 9999,
      "fzfg": false,
      "metar_trigger": false,
      "taf_trigger": false,
      "metar": "METAR ENVA 171050Z 13010KT CAVOK 16/M00 Q1021 NOSIG RMK WIND 670FT 15016KT",
      "taf": "TAF ENVA 170500Z 1706/1806 10008KT CAVOK"
    },
    {
      "icao": "ENZV",
      "alert": "OK",
      "vis_m": 9999,
      "fzfg": false,
      "metar_trigger": false,
      "taf_trigger": false,
      "metar": "METAR ENZV 171050Z 14017KT 9999 FEW031 12/05 Q1021 NOSIG",
      "taf": "TAF ENZV 170500Z 1706/1806 16008KT 9999 FEW040"
    },
    {
      "icao": "EPGD",
      "alert": "OK",
      "vis_m": 9999,
      "fzfg": false,
      "metar_trigger": false,
      "taf_trigger": false,
      "metar": "METAR EPGD 171100Z 32010KT 280V340 9999 SCT029 11/04 Q1023",
      "taf": "TAF EPGD 170530Z 1706/1806 30008KT CAVOK"
    },
    {
      "icao": "EPKK",
      "alert": "OK",
      "vis_m": 9999,
      "fzfg": false,
      "metar_trigger": false,
      "taf_trigger": false,
      "metar": "METAR EPKK 171100Z 34010KT 280V010 9999 FEW046 SCT053 16/04 Q1020",
      "taf": "TAF EPKK 170830Z 1709/1809 28006KT CAVOK"
    },
    {
      "icao": "EPKT",
      "alert": "OK",
      "vis_m": 9999,
      "fzfg": false,
      "metar_trigger": false,
      "taf_trigger": false,
      "metar": "METAR EPKT 171100Z 34007KT 9999 SCT044 15/05 Q1021",
      "taf": "TAF EPKT 170530Z 1706/1806 VRB02KT CAVOK"
    },
    {
      "icao": "EPLB",
      "alert": "OK",
      "vis_m": 9999,
      "fzfg": false,
      "metar_trigger": false,
      "taf_trigger": false,
      "metar": "METAR EPLB 171100Z 31012KT 9999 FEW048 14/01 Q1019",
      "taf": "TAF EPLB 170530Z 1706/1806 32010KT CAVOK"
    },
    {
      "icao": "EPMO",
      "alert": "OK",
      "vis_m": 9999,
      "fzfg": false,
      "metar_trigger": false,
      "taf_trigger": false,
      "metar": "METAR EPMO 171100Z 32015KT 9999 FEW033 11/03 Q1021",
      "taf": "TAF EPMO 170530Z 1706/1806 33008KT CAVOK"
    },
    {
      "icao": "EPPO",
      "alert": "OK",
      "vis_m": 9999,
      "fzfg": false,
      "metar_trigger": false,
      "taf_trigger": false,
      "metar": "METAR EPPO 171100Z 08006KT 310V100 CAVOK 16/M01 Q1023",
      "taf": ""
    },
    {
      "icao": "EPRA",
      "alert": "OK",
      "vis_m": 9999,
      "fzfg": false,
      "metar_trigger": false,
      "taf_trigger": false,
      "metar": "METAR EPRA 171100Z 34012KT 300V360 CAVOK 14/M02 Q1020",
      "taf": "TAF EPRA 170830Z 1709/1718 33012KT CAVOK"
    },
    {
      "icao": "EPRZ",
      "alert": "OK",
      "vis_m": 9999,
      "fzfg": false,
      "metar_trigger": false,
      "taf_trigger": false,
      "metar": "METAR EPRZ 171100Z 30013KT 260V330 CAVOK 16/02 Q1019",
      "taf": "TAF EPRZ 170530Z 1706/1806 26005KT CAVOK"
    },
    {
      "icao": "EPSC",
      "alert": "OK",
      "vis_m": 9999,
      "fzfg": false,
      "metar_trigger": false,
      "taf_trigger": false,
      "metar": "METAR EPSC 171100Z 32005KT 250V030 CAVOK 15/M01 Q1024",
      "taf": "TAF EPSC 170530Z 1706/1806 36003KT CAVOK"
    },
    {
      "icao": "EPSY",
      "alert": "OK",
      "vis_m": 9999,
      "fzfg": false,
      "metar_trigger": false,
      "taf_trigger": false,
      "metar": "METAR EPSY 171100Z 33008KT 9999 OVC013 07/05 Q1021",
      "taf": "TAF EPSY 170830Z 1709/1718 33010KT 9999 BKN010"
    },
    {
      "icao": "EPWA",
      "alert": "OK",
      "vis_m": 9999,
      "fzfg": false,
      "metar_trigger": false,
      "taf_trigger": false,
      "metar": "METAR EPWA 171100Z 31013KT 280V350 CAVOK 13/M00 Q1020 NOSIG",
      "taf": "TAF EPWA 170830Z 1709/1809 32010KT CAVOK"
    },
    {
      "icao": "EPWR",
      "alert": "OK",
      "vis_m": 9999,
      "fzfg": false,
      "metar_trigger": false,
      "taf_trigger": false,
      "metar": "METAR EPWR 171100Z 36007KT 300V050 9999 SCT045 18/05 Q1022",
      "taf": "TAF EPWR 170830Z 1709/1809 29006KT CAVOK"
    },
    {
      "icao": "ESGG",
      "alert": "OK",
      "vis_m": 9999,
      "fzfg": false,
      "metar_trigger": false,
      "taf_trigger": false,
      "metar": "METAR ESGG 171050Z VRB03KT 9999 FEW048 15/03 Q1024",
      "taf": "TAF ESGG 170830Z 1709/1809 11005KT CAVOK"
    },
    {
      "icao": "ESKN",
      "alert": "OK",
      "vis_m": 9999,
      "fzfg": false,
      "metar_trigger": false,
      "taf_trigger": false,
      "metar": "METAR ESKN 171050Z 03004KT 310V070 CAVOK 15/02 Q1024",
      "taf": "TAF ESKN 170830Z 1709/1809 36008KT CAVOK"
    },
    {
      "icao": "ESMS",
      "alert": "OK",
      "vis_m": 9999,
      "fzfg": false,
      "metar_trigger": false,
      "taf_trigger": false,
      "metar": "METAR ESMS 171050Z 19009KT 160V220 CAVOK 15/05 Q1024",
      "taf": "TAF ESMS 170827Z 1709/1809 25005KT 9999 SCT040"
    },
    {
      "icao": "ESSA",
      "alert": "OK",
      "vis_m": 9999,
      "fzfg": false,
      "metar_trigger": false,
      "taf_trigger": false,
      "metar": "METAR ESSA 171050Z 02007KT CAVOK 12/00 Q1024 NOSIG",
      "taf": "TAF ESSA 170830Z 1709/1809 35006KT CAVOK"
    },
    {
      "icao": "EYKA",
      "alert": "OK",
      "vis_m": 9999,
      "fzfg": false,
      "metar_trigger": false,
      "taf_trigger": false,
      "metar": "METAR EYKA 171050Z 32004KT 270V020 9999 SCT013 BKN018 OVC023 11/08 Q1018",
      "taf": "TAF EYKA 171100Z 1712/1812 VRB04KT 9000 BKN020"
    },
    {
      "icao": "EYPA",
      "alert": "OK",
      "vis_m": 9999,
      "fzfg": false,
      "metar_trigger": false,
      "taf_trigger": false,
      "metar": "METAR EYPA 171050Z 31005KT 250V010 9999 FEW005 SCT012 08/05 Q1021",
      "taf": "TAF EYPA 171100Z 1712/1812 VRB04KT 9000 NSC"
    },
    {
      "icao": "EYVI",
      "alert": "OK",
      "vis_m": 4500,
      "fzfg": false,
      "metar_trigger": false,
      "taf_trigger": false,
      "metar": "METAR EYVI 171050Z 31005KT 280V340 4500 BR OVC002 07/07 Q1017 NOSIG",
      "taf": ""
    },
    {
      "icao": "GCFV",
      "alert": "OK",
      "vis_m": 8000,
      "fzfg": false,
      "metar_trigger": false,
      "taf_trigger": false,
      "metar": "METAR GCFV 171100Z 03009KT 360V060 8000 NSC 21/16 Q1015",
      "taf": "TAF GCFV 170800Z 1709/1809 05010KT 8000 NSC TX25/1714Z TN18/1806Z"
    },
    {
      "icao": "GCLP",
      "alert": "OK",
      "vis_m": 9999,
      "fzfg": false,
      "metar_trigger": false,
      "taf_trigger": false,
      "metar": "METAR GCLP 171100Z 02016KT 9999 FEW017 21/16 Q1015 NOSIG",
      "taf": "TAF GCLP 170800Z 1709/1809 02014KT 8000 NSC TX24/1714Z TN20/1806Z"
    },
    {
      "icao": "GCTS",
      "alert": "OK",
      "vis_m": 9999,
      "fzfg": false,
      "metar_trigger": false,
      "taf_trigger": false,
      "metar": "METAR GCTS 171100Z 08014KT 060V120 CAVOK 23/15 Q1015 NOSIG",
      "taf": "TAF GCTS 170800Z 1709/1809 09018KT 8000 NSC TX26/1714Z TN19/1806Z"
    },
    {
      "icao": "GMAD",
      "alert": "OK",
      "vis_m": 8000,
      "fzfg": false,
      "metar_trigger": false,
      "taf_trigger": false,
      "metar": "METAR GMAD 171100Z 06006KT 360V090 8000 NSC 32/05 Q1014 NOSIG",
      "taf": "TAF GMAD 170500Z 1706/1812 07004KT 8000 SCT010"
    },
    {
      "icao": "GMMN",
      "alert": "OK",
      "vis_m": 9999,
      "fzfg": false,
      "metar_trigger": false,
      "taf_trigger": false,
      "metar": "METAR GMMN 171100Z 33003KT 270V060 CAVOK 28/17 Q1016 NOSIG",
      "taf": "TAF GMMN 170500Z 1706/1812 18005KT 5000 NSC"
    },
    {
      "icao": "GMMX",
      "alert": "OK",
      "vis_m": 9999,
      "fzfg": false,
      "metar_trigger": false,
      "taf_trigger": false,
      "metar": "METAR GMMX 171100Z VRB03KT CAVOK 27/13 Q1016 NOSIG",
      "taf": "TAF GMMX 170500Z 1706/1812 06006KT CAVOK"
    },
    {
      "icao": "HEGN",
      "alert": "OK",
      "vis_m": null,
      "fzfg": false,
      "metar_trigger": false,
      "taf_trigger": false,
      "metar": "",
      "taf": "TAF HEGN 171100Z 1712/1818 12012G22KT 6000 SCT025"
    },
    {
      "icao": "HEMA",
      "alert": "OK",
      "vis_m": null,
      "fzfg": false,
      "metar_trigger": false,
      "taf_trigger": false,
      "metar": "",
      "taf": "TAF HEMA 171100Z 1712/1818 12012G22KT 6000 SCT025"
    },
    {
      "icao": "HESH",
      "alert": "OK",
      "vis_m": null,
      "fzfg": false,
      "metar_trigger": false,
      "taf_trigger": false,
      "metar": "",
      "taf": "TAF HESH 171100Z 1712/1818 18012G22KT 6000 SCT025"
    },
    {
      "icao": "HESX",
      "alert": "OK",
      "vis_m": null,
      "fzfg": false,
      "metar_trigger": false,
      "taf_trigger": false,
      "metar": "",
      "taf": "TAF HESX 171100Z 1712/1818 26014KT 6000 NSC"
    },
    {
      "icao": "LATI",
      "alert": "OK",
      "vis_m": 9999,
      "fzfg": false,
      "metar_trigger": false,
      "taf_trigger": false,
      "metar": "METAR LATI 171050Z 33007KT 260V020 CAVOK 27/09 Q1011 NOSIG",
      "taf": "TAF LATI 171100Z 1712/1812 34012KT CAVOK TX28/1712Z TN12/1804Z"
    },
    {
      "icao": "LBPD",
      "alert": "OK",
      "vis_m": 9999,
      "fzfg": false,
      "metar_trigger": false,
      "taf_trigger": false,
      "metar": "METAR LBPD 171100Z AUTO 12005KT 070V190 9999 NCD 19/M01 Q1015 NOSIG",
      "taf": "TAF LBPD 170500Z 1706/1806 VRB03KT 9999 SCT050 BKN070"
    },
    {
      "icao": "LBSF",
      "alert": "OK",
      "vis_m": 9999,
      "fzfg": false,
      "metar_trigger": false,
      "taf_trigger": false,
      "metar": "METAR LBSF 171100Z VRB06KT 9999 FEW079 21/03 Q1015 NOSIG",
      "taf": "TAF LBSF 170500Z 1706/1806 VRB03KT 9999 SCT050 BKN070"
    },
    {
      "icao": "LBWN",
      "alert": "OK",
      "vis_m": 9999,
      "fzfg": false,
      "metar_trigger": false,
      "taf_trigger": false,
      "metar": "METAR LBWN 171100Z 11010KT 060V160 CAVOK 18/03 Q1016 NOSIG",
      "taf": "TAF LBWN 170500Z 1706/1806 VRB03KT 9999 SCT020"
    },
    {
      "icao": "LCLK",
      "alert": "OK",
      "vis_m": 9999,
      "fzfg": false,
      "metar_trigger": false,
      "taf_trigger": false,
      "metar": "METAR LCLK 171100Z 04014KT 9999 FEW035CB 23/17 Q1003 NOSIG RMK CB TO N",
      "taf": ""
    },
    {
      "icao": "LCPH",
      "alert": "OK",
      "vis_m": 9999,
      "fzfg": false,
      "metar_trigger": false,
      "taf_trigger": false,
      "metar": "METAR LCPH 171100Z 15022KT CAVOK 26/15 Q1001 NOSIG",
      "taf": ""
    },
    {
      "icao": "LEAL",
      "alert": "OK",
      "vis_m": 9999,
      "fzfg": false,
      "metar_trigger": false,
      "taf_trigger": false,
      "metar": "METAR LEAL 171100Z 08008KT 050V110 CAVOK 22/13 Q1020 NOSIG",
      "taf": "TAF LEAL 170500Z 1706/1806 23003KT 9999 FEW030 TX22/1713Z TN11/1706Z"
    },
    {
      "icao": "LEBB",
      "alert": "OK",
      "vis_m": 9999,
      "fzfg": false,
      "metar_trigger": false,
      "taf_trigger": false,
      "metar": "METAR LEBB 171100Z 28008KT 240V310 CAVOK 20/15 Q1020 NOSIG",
      "taf": "TAF LEBB 170500Z 1706/1806 31009KT 9999 SCT030 TX20/1710Z TN12/1706Z"
    },
    {
      "icao": "LEBL",
      "alert": "OK",
      "vis_m": 9999,
      "fzfg": false,
      "metar_trigger": false,
      "taf_trigger": false,
      "metar": "METAR LEBL 171100Z 20007KT 170V240 CAVOK 19/13 Q1020 NOSIG",
      "taf": ""
    },
    {
      "icao": "LECH",
      "alert": "OK",
      "vis_m": 9999,
      "fzfg": false,
      "metar_trigger": false,
      "taf_trigger": false,
      "metar": "METAR LECH 171100Z AUTO 12007KT 080V160 CAVOK 20/11 Q1020",
      "taf": "TAF LECH 170500Z 1706/1806 VRB03KT 9999 FEW030 TX26/1713Z TN10/1706Z"
    },
    {
      "icao": "LEMD",
      "alert": "OK",
      "vis_m": 9999,
      "fzfg": false,
      "metar_trigger": false,
      "taf_trigger": false,
      "metar": "METAR LEMD 171100Z 16003KT CAVOK 22/06 Q1021 NOSIG",
      "taf": "TAF LEMD 170500Z 1706/1812 VRB04KT CAVOK TX27/1716Z TN09/1706Z"
    },
    {
      "icao": "LEMG",
      "alert": "OK",
      "vis_m": 9999,
      "fzfg": false,
      "metar_trigger": false,
      "taf_trigger": false,
      "metar": "METAR LEMG 171100Z 12006KT 080V170 CAVOK 21/11 Q1020 NOSIG",
      "taf": "TAF LEMG 170500Z 1706/1806 29005KT CAVOK TX24/1714Z TN15/1707Z"
    },
    {
      "icao": "LEVC",
      "alert": "OK",
      "vis_m": 9999,
      "fzfg": false,
      "metar_trigger": false,
      "taf_trigger": false,
      "metar": "METAR LEVC 171100Z VRB04KT 9999 FEW045 23/12 Q1020 NOSIG",
      "taf": "TAF LEVC 170500Z 1706/1806 10007KT 9999 FEW030 TX24/1713Z TN10/1706Z"
    },
    {
      "icao": "LEXJ",
      "alert": "OK",
      "vis_m": 4000,
      "fzfg": false,
      "metar_trigger": false,
      "taf_trigger": false,
      "metar": "METAR LEXJ 171100Z 06004KT 350V140 4000 BR BKN003 BKN005 15/12 Q1021",
      "taf": ""
    },
    {
      "icao": "LEZG",
      "alert": "OK",
      "vis_m": 9999,
      "fzfg": false,
      "metar_trigger": false,
      "taf_trigger": false,
      "metar": "METAR LEZG 171100Z 36002KT CAVOK 21/11 Q1020 NOSIG",
      "taf": "TAF LEZG 170500Z 1706/1806 28004KT 9999 FEW040 TX30/1713Z TN11/1706Z"
    },
    {
      "icao": "LEZL",
      "alert": "OK",
      "vis_m": 9999,
      "fzfg": false,
      "metar_trigger": false,
      "taf_trigger": false,
      "metar": "METAR LEZL 171100Z 07006KT 030V120 CAVOK 28/10 Q1018 NOSIG",
      "taf": "TAF LEZL 170800Z 1709/1809 08005KT CAVOK TX31/1715Z TN14/1806Z"
    },
    {
      "icao": "LFBD",
      "alert": "OK",
      "vis_m": 9999,
      "fzfg": false,
      "metar_trigger": false,
      "taf_trigger": false,
      "metar": "METAR LFBD 171100Z AUTO 20006KT 150V250 CAVOK 23/10 Q1020 NOSIG",
      "taf": "TAF LFBD 170500Z 1706/1812 VRB03KT CAVOK TX26/1715Z TN10/1706Z"
    },
    {
      "icao": "LFLL",
      "alert": "OK",
      "vis_m": 9999,
      "fzfg": false,
      "metar_trigger": false,
      "taf_trigger": false,
      "metar": "METAR LFLL 171100Z 34005KT 290V020 CAVOK 19/11 Q1021 NOSIG",
      "taf": "TAF LFLL 170500Z 1706/1812 VRB02KT CAVOK"
    },
    {
      "icao": "LFLS",
      "alert": "OK",
      "vis_m": 9999,
      "fzfg": false,
      "metar_trigger": false,
      "taf_trigger": false,
      "metar": "METAR LFLS 171100Z AUTO 35008KT 320V030 CAVOK 19/11 Q1020 NOSIG",
      "taf": "TAF LFLS 170800Z 1709/1809 VRB02KT CAVOK"
    },
    {
      "icao": "LFMN",
      "alert": "OK",
      "vis_m": 9999,
      "fzfg": false,
      "metar_trigger": false,
      "taf_trigger": false,
      "metar": "METAR LFMN 171100Z 16005KT CAVOK 21/15 Q1018 NOSIG",
      "taf": "TAF LFMN 170800Z 1709/1815 16005KT CAVOK"
    },
    {
      "icao": "LFOB",
      "alert": "OK",
      "vis_m": 9999,
      "fzfg": false,
      "metar_trigger": false,
      "taf_trigger": false,
      "metar": "METAR LFOB 171100Z AUTO 21005KT 170V300 CAVOK 18/09 Q1022 NOSIG",
      "taf": "TAF LFOB 170500Z 1706/1806 VRB03KT CAVOK"
    },
    {
      "icao": "LFPO",
      "alert": "OK",
      "vis_m": 9999,
      "fzfg": false,
      "metar_trigger": false,
      "taf_trigger": false,
      "metar": "METAR LFPO 171100Z VRB02KT CAVOK 19/08 Q1022 NOSIG",
      "taf": "TAF LFPO 170500Z 1706/1812 24002KT CAVOK"
    },
    {
      "icao": "LFSB",
      "alert": "OK",
      "vis_m": 9999,
      "fzfg": false,
      "metar_trigger": false,
      "taf_trigger": false,
      "metar": "METAR LFSB 171100Z AUTO VRB03KT CAVOK 19/09 Q1021 NOSIG",
      "taf": "TAF LFSB 170500Z 1706/1806 VRB03KT CAVOK"
    },
    {
      "icao": "LGAV",
      "alert": "OK",
      "vis_m": 9999,
      "fzfg": false,
      "metar_trigger": false,
      "taf_trigger": false,
      "metar": "METAR LGAV 171050Z 03021KT 9999 FEW025 20/04 Q1009 NOSIG",
      "taf": "TAF LGAV 170500Z 1706/1806 01015KT 9999 FEW020 SCT040"
    },
    {
      "icao": "LGTS",
      "alert": "OK",
      "vis_m": 9999,
      "fzfg": false,
      "metar_trigger": false,
      "taf_trigger": false,
      "metar": "METAR LGTS 171050Z 26005KT 9999 FEW025 21/12 Q1012 NOSIG",
      "taf": "TAF LGTS 170500Z 1706/1806 VRB03KT 9999 FEW025"
    },
    {
      "icao": "LHBP",
      "alert": "OK",
      "vis_m": 9999,
      "fzfg": false,
      "metar_trigger": false,
      "taf_trigger": false,
      "metar": "METAR LHBP 171100Z 01008KT 340V050 CAVOK 21/02 Q1019 NOSIG",
      "taf": "TAF LHBP 170515Z 1706/1806 33003KT CAVOK"
    },
    {
      "icao": "LHDC",
      "alert": "OK",
      "vis_m": 9999,
      "fzfg": false,
      "metar_trigger": false,
      "taf_trigger": false,
      "metar": "METAR LHDC 171045Z AUTO 34010KT 280V030 CAVOK 21/05 Q1018 NOSIG",
      "taf": "TAF LHDC 170815Z 1709/1718 01009KT CAVOK"
    },
    {
      "icao": "LIBD",
      "alert": "OK",
      "vis_m": 9999,
      "fzfg": false,
      "metar_trigger": false,
      "taf_trigger": false,
      "metar": "METAR LIBD 171050Z 31012KT 290V360 CAVOK 21/13 Q1015",
      "taf": "TAF LIBD 170500Z 1706/1806 28007KT CAVOK"
    },
    {
      "icao": "LIBG",
      "alert": "OK",
      "vis_m": 9999,
      "fzfg": false,
      "metar_trigger": false,
      "taf_trigger": false,
      "metar": "METAR LIBG 171050Z 34013KT CAVOK 23/14 Q1013",
      "taf": "TAF LIBG 170800Z 1709/1718 36014KT 9999 FEW040"
    },
    {
      "icao": "LIBP",
      "alert": "OK",
      "vis_m": 9999,
      "fzfg": false,
      "metar_trigger": false,
      "taf_trigger": false,
      "metar": "METAR LIBP 171050Z AUTO 01008KT 340V060 9999 NCD 22/12 Q1017",
      "taf": "TAF LIBP 170500Z 1706/1806 VRB05KT CAVOK"
    },
    {
      "icao": "LIBR",
      "alert": "OK",
      "vis_m": 9999,
      "fzfg": false,
      "metar_trigger": false,
      "taf_trigger": false,
      "metar": "METAR LIBR 171050Z 32017KT CAVOK 19/14 Q1013",
      "taf": "TAF LIBR 170500Z 1706/1806 33015KT CAVOK"
    },
    {
      "icao": "LICA",
      "alert": "OK",
      "vis_m": 9999,
      "fzfg": false,
      "metar_trigger": false,
      "taf_trigger": false,
      "metar": "METAR LICA 171050Z AUTO 24010KT 9999 OVC033/// 18/16 Q1015",
      "taf": "TAF LICA 170500Z 1706/1806 VRB05KT 9999 SCT020"
    },
    {
      "icao": "LICC",
      "alert": "OK",
      "vis_m": 9999,
      "fzfg": false,
      "metar_trigger": false,
      "taf_trigger": false,
      "metar": "METAR LICC 171050Z 07008KT CAVOK 21/19 Q1014",
      "taf": "TAF LICC 170500Z 1706/1806 28006KT CAVOK"
    },
    {
      "icao": "LICJ",
      "alert": "OK",
      "vis_m": 9999,
      "fzfg": false,
      "metar_trigger": false,
      "taf_trigger": false,
      "metar": "METAR LICJ 171050Z 31005KT CAVOK 18/16 Q1016",
      "taf": "TAF LICJ 170500Z 1706/1806 VRB05KT CAVOK"
    },
    {
      "icao": "LIMC",
      "alert": "OK",
      "vis_m": 9999,
      "fzfg": false,
      "metar_trigger": false,
      "taf_trigger": false,
      "metar": "METAR LIMC 171050Z 17004KT 070V240 9999 SCT040 22/11 Q1020 NOSIG",
      "taf": "TAF LIMC 170500Z 1706/1812 VRB05KT 9999 FEW040"
    },
    {
      "icao": "LIME",
      "alert": "OK",
      "vis_m": 9999,
      "fzfg": false,
      "metar_trigger": false,
      "taf_trigger": false,
      "metar": "METAR LIME 171050Z VRB03KT 9999 FEW045 21/11 Q1020 NOSIG",
      "taf": "TAF LIME 170500Z 1706/1806 VRB05KT 9999 FEW050"
    },
    {
      "icao": "LIMF",
      "alert": "OK",
      "vis_m": 9999,
      "fzfg": false,
      "metar_trigger": false,
      "taf_trigger": false,
      "metar": "METAR LIMF 171050Z 08005KT 030V130 9999 SCT036 20/13 Q1020",
      "taf": "TAF LIMF 170500Z 1706/1806 VRB05KT 9999 FEW040"
    },
    {
      "icao": "LIMJ",
      "alert": "OK",
      "vis_m": 9999,
      "fzfg": false,
      "metar_trigger": false,
      "taf_trigger": false,
      "metar": "METAR LIMJ 171050Z 15005KT CAVOK 19/15 Q1018",
      "taf": "TAF LIMJ 170500Z 1706/1806 VRB05KT 9999 SCT030"
    },
    {
      "icao": "LIPE",
      "alert": "OK",
      "vis_m": 9999,
      "fzfg": false,
      "metar_trigger": false,
      "taf_trigger": false,
      "metar": "METAR LIPE 171050Z VRB04KT CAVOK 21/15 Q1019",
      "taf": "TAF LIPE 170500Z 1706/1806 VRB05KT CAVOK"
    },
    {
      "icao": "LIPH",
      "alert": "OK",
      "vis_m": 9999,
      "fzfg": false,
      "metar_trigger": false,
      "taf_trigger": false,
      "metar": "METAR LIPH 171050Z 09005KT 050V130 CAVOK 23/10 Q1019",
      "taf": "TAF LIPH 170500Z 1706/1806 VRB05KT 9999 SCT070"
    },
    {
      "icao": "LIPQ",
      "alert": "OK",
      "vis_m": 9999,
      "fzfg": false,
      "metar_trigger": false,
      "taf_trigger": false,
      "metar": "METAR LIPQ 171050Z AUTO 11006KT 020V160 9999 NCD 24/08 Q1018",
      "taf": "TAF LIPQ 170500Z 1706/1806 VRB05KT 9999 FEW080"
    },
    {
      "icao": "LIPR",
      "alert": "OK",
      "vis_m": 9999,
      "fzfg": false,
      "metar_trigger": false,
      "taf_trigger": false,
      "metar": "METAR LIPR 171050Z AUTO 02007KT 9999 NCD 20/11 Q1019",
      "taf": "TAF LIPR 170500Z 1706/1806 VRB05KT CAVOK"
    },
    {
      "icao": "LIPX",
      "alert": "OK",
      "vis_m": 9999,
      "fzfg": false,
      "metar_trigger": false,
      "taf_trigger": false,
      "metar": "METAR LIPX 171050Z 11007KT 060V150 CAVOK 23/10 Q1019",
      "taf": "TAF LIPX 170500Z 1706/1806 VRB05KT 9999 FEW040"
    },
    {
      "icao": "LIPY",
      "alert": "OK",
      "vis_m": 9999,
      "fzfg": false,
      "metar_trigger": false,
      "taf_trigger": false,
      "metar": "METAR LIPY 171050Z AUTO 33009KT 9999 NCD 19/13 Q1018",
      "taf": "TAF LIPY 170500Z 1706/1806 VRB05KT CAVOK"
    },
    {
      "icao": "LIPZ",
      "alert": "OK",
      "vis_m": 9999,
      "fzfg": false,
      "metar_trigger": false,
      "taf_trigger": false,
      "metar": "METAR LIPZ 171050Z 10006KT 050V130 CAVOK 22/11 Q1019 NOSIG",
      "taf": "TAF LIPZ 170500Z 1706/1812 05007KT 9999 FEW070"
    },
    {
      "icao": "LIRF",
      "alert": "OK",
      "vis_m": 9999,
      "fzfg": false,
      "metar_trigger": false,
      "taf_trigger": false,
      "metar": "METAR LIRF 171050Z 27009KT CAVOK 22/15 Q1015 NOSIG",
      "taf": "TAF LIRF 170500Z 1706/1812 VRB05KT CAVOK"
    },
    {
      "icao": "LIRN",
      "alert": "OK",
      "vis_m": 9999,
      "fzfg": false,
      "metar_trigger": false,
      "taf_trigger": false,
      "metar": "METAR LIRN 171050Z 05012KT CAVOK 25/11 Q1015 NOSIG",
      "taf": "TAF LIRN 170500Z 1706/1806 VRB06KT 9999 FEW040"
    },
    {
      "icao": "LIRP",
      "alert": "OK",
      "vis_m": 9999,
      "fzfg": false,
      "metar_trigger": false,
      "taf_trigger": false,
      "metar": "METAR LIRP 171045Z 27006KT 220V340 CAVOK 24/14 Q1017 NOSIG",
      "taf": "TAF LIRP 170500Z 1706/1806 07004KT CAVOK"
    },
    {
      "icao": "LIRZ",
      "alert": "OK",
      "vis_m": 9999,
      "fzfg": false,
      "metar_trigger": false,
      "taf_trigger": false,
      "metar": "METAR LIRZ 171050Z AUTO 03015KT 9999 NCD 23/09 Q1017",
      "taf": "TAF LIRZ 170500Z 1706/1806 VRB05KT CAVOK"
    },
    {
      "icao": "LJLJ",
      "alert": "OK",
      "vis_m": 9999,
      "fzfg": false,
      "metar_trigger": false,
      "taf_trigger": false,
      "metar": "METAR LJLJ 171100Z 17004KT 110V200 9999 FEW040 SCT057 19/07 Q1020 NOSIG",
      "taf": "TAF LJLJ 171100Z 1712/1812 12005KT 9999 FEW040 SCT060"
    },
    {
      "icao": "LKMT",
      "alert": "OK",
      "vis_m": 9999,
      "fzfg": false,
      "metar_trigger": false,
      "taf_trigger": false,
      "metar": "METAR LKMT 171100Z 04004KT 360V080 9999 FEW043 16/06 Q1021 NOSIG",
      "taf": "TAF LKMT 170500Z 1706/1806 22004KT CAVOK"
    },
    {
      "icao": "LKPR",
      "alert": "OK",
      "vis_m": 9999,
      "fzfg": false,
      "metar_trigger": false,
      "taf_trigger": false,
      "metar": "METAR LKPR 171100Z 01010KT CAVOK 18/03 Q1022 NOSIG",
      "taf": "TAF LKPR 170800Z 1709/1815 36006KT CAVOK"
    },
    {
      "icao": "LLBG",
      "alert": "OK",
      "vis_m": 2000,
      "fzfg": false,
      "metar_trigger": false,
      "taf_trigger": false,
      "metar": "METAR LLBG 171050Z 30014KT 2000 DU NSC 26/15 Q1004 TEMPO 1500 DU",
      "taf": "TAF LLBG 171103Z 1712/1812 30015KT 4000 DU NSC TX26/1712Z TN17/1804Z"
    },
    {
      "icao": "LMML",
      "alert": "OK",
      "vis_m": 9999,
      "fzfg": false,
      "metar_trigger": false,
      "taf_trigger": false,
      "metar": "METAR LMML 171045Z 03006KT 330V060 9999 FEW030 22/14 Q1014 NOSIG",
      "taf": "TAF LMML 171100Z 1712/1812 29009KT CAVOK"
    },
    {
      "icao": "LOWW",
      "alert": "OK",
      "vis_m": 9999,
      "fzfg": false,
      "metar_trigger": false,
      "taf_trigger": false,
      "metar": "METAR LOWW 171050Z 32007KT 280V010 9999 SCT050 20/07 Q1021 NOSIG",
      "taf": "TAF LOWW 170815Z 1709/1815 35012KT CAVOK TX21/1713Z TN07/1804Z"
    },
    {
      "icao": "LPFR",
      "alert": "OK",
      "vis_m": 9999,
      "fzfg": false,
      "metar_trigger": false,
      "taf_trigger": false,
      "metar": "METAR LPFR 171100Z 10014KT CAVOK 25/10 Q1017",
      "taf": "TAF LPFR 170500Z 1706/1806 03007KT CAVOK"
    },
    {
      "icao": "LPMA",
      "alert": "OK",
      "vis_m": 9999,
      "fzfg": false,
      "metar_trigger": false,
      "taf_trigger": false,
      "metar": "METAR LPMA 171100Z 03013KT 360V060 9999 SCT016 19/13 Q1019",
      "taf": "TAF LPMA 170500Z 1706/1806 02013KT 9999 SCT015"
    },
    {
      "icao": "LPPR",
      "alert": "OK",
      "vis_m": 8000,
      "fzfg": false,
      "metar_trigger": false,
      "taf_trigger": false,
      "metar": "METAR LPPR 171100Z 32005KT 270V020 8000 FEW012 17/13 Q1020",
      "taf": ""
    },
    {
      "icao": "LPPS",
      "alert": "OK",
      "vis_m": 9999,
      "fzfg": false,
      "metar_trigger": false,
      "taf_trigger": false,
      "metar": "METAR LPPS 171100Z 07013KT 030V100 9999 FEW015 BKN030 17/12 Q1019",
      "taf": "TAF LPPS 170500Z 1706/1812 05012KT 9999 FEW015 BKN030"
    },
    {
      "icao": "LPPT",
      "alert": "OK",
      "vis_m": 9999,
      "fzfg": false,
      "metar_trigger": false,
      "taf_trigger": false,
      "metar": "METAR LPPT 171100Z 07005KT 030V110 CAVOK 20/13 Q1019",
      "taf": "TAF LPPT 170500Z 1706/1812 35007KT CAVOK"
    },
    {
      "icao": "LQBK",
      "alert": "OK",
      "vis_m": 9999,
      "fzfg": false,
      "metar_trigger": false,
      "taf_trigger": false,
      "metar": "METAR LQBK 171100Z VRB04KT 9999 SCT047 21/05 Q1019 NOSIG",
      "taf": "TAF LQBK 171100Z 1712/1812 VRB02KT 9999 SCT040 TX23/1714Z TN08/1804Z"
    },
    {
      "icao": "LQSA",
      "alert": "OK",
      "vis_m": 9999,
      "fzfg": false,
      "metar_trigger": false,
      "taf_trigger": false,
      "metar": "METAR LQSA 171100Z 19005KT 110V220 9999 SCT050 SCT070 16/07 Q1019 NOSIG",
      "taf": "TAF LQSA 171100Z 1712/1812 30005KT 9999 SCT050 TX20/1714Z TN08/1804Z"
    },
    {
      "icao": "LQTZ",
      "alert": "OK",
      "vis_m": 9999,
      "fzfg": false,
      "metar_trigger": false,
      "taf_trigger": false,
      "metar": "METAR LQTZ 171100Z 28006KT 210V340 9999 FEW065 20/08 Q1018",
      "taf": "TAF LQTZ 170500Z 1706/1806 33005KT 9999 SCT050 TX21/1713Z TN08/1804Z"
    },
    {
      "icao": "LRBC",
      "alert": "OK",
      "vis_m": 7000,
      "fzfg": false,
      "metar_trigger": false,
      "taf_trigger": false,
      "metar": "METAR LRBC 171100Z 35007KT 320V020 7000 -RA SCT006 OVC042 13/11 Q1018",
      "taf": "TAF LRBC 170800Z 1709/1718 VRB04KT 9999 SCT015 BKN035"
    },
    {
      "icao": "LRBS",
      "alert": "OK",
      "vis_m": 9999,
      "fzfg": false,
      "metar_trigger": false,
      "taf_trigger": false,
      "metar": "METAR LRBS 171100Z VRB04KT CAVOK 20/03 Q1016 NOSIG",
      "taf": "TAF LRBS 170500Z 1706/1806 08004KT CAVOK"
    },
    {
      "icao": "LRBV",
      "alert": "OK",
      "vis_m": 9999,
      "fzfg": false,
      "metar_trigger": false,
      "taf_trigger": false,
      "metar": "METAR LRBV 171100Z 03005KT 360V070 9999 FEW038 BKN040 BKN048 15/09 Q1017",
      "taf": "TAF LRBV 170800Z 1709/1718 VRB04KT 9999 SCT030CB BKN050"
    },
    {
      "icao": "LRCL",
      "alert": "OK",
      "vis_m": 9999,
      "fzfg": false,
      "metar_trigger": false,
      "taf_trigger": false,
      "metar": "METAR LRCL 171100Z 32011KT 280V010 9999 FEW034 19/05 Q1016",
      "taf": "TAF LRCL 170800Z 1709/1718 32008KT CAVOK"
    },
    {
      "icao": "LRCV",
      "alert": "OK",
      "vis_m": 9999,
      "fzfg": false,
      "metar_trigger": false,
      "taf_trigger": false,
      "metar": "METAR LRCV 171100Z 14004KT 080V200 CAVOK 19/10 Q1016",
      "taf": "TAF LRCV 170800Z 1709/1718 08006KT CAVOK"
    },
    {
      "icao": "LRIA",
      "alert": "OK",
      "vis_m": 9999,
      "fzfg": false,
      "metar_trigger": false,
      "taf_trigger": false,
      "metar": "METAR LRIA 171100Z VRB01KT 9999 FEW005 SCT016 OVC018 11/09 Q1018",
      "taf": "TAF LRIA 170800Z 1709/1718 VRB04KT 9999 SCT045"
    },
    {
      "icao": "LROP",
      "alert": "OK",
      "vis_m": 9999,
      "fzfg": false,
      "metar_trigger": false,
      "taf_trigger": false,
      "metar": "METAR LROP 171100Z 08005KT 020V120 CAVOK 19/M10 Q1017 NOSIG",
      "taf": "TAF LROP 170500Z 1706/1806 08004KT CAVOK"
    },
    {
      "icao": "LRSB",
      "alert": "OK",
      "vis_m": 9999,
      "fzfg": false,
      "metar_trigger": false,
      "taf_trigger": false,
      "metar": "METAR LRSB 171100Z 01010KT 9999 VCSH SCT038 FEW040CB BKN060 16/10 Q1017",
      "taf": "TAF LRSB 170500Z 1706/1806 VRB04KT 9999 BKN035"
    },
    {
      "icao": "LRSM",
      "alert": "OK",
      "vis_m": 9999,
      "fzfg": false,
      "metar_trigger": false,
      "taf_trigger": false,
      "metar": "METAR LRSM 171100Z 34008KT 280V030 CAVOK 21/03 Q1017",
      "taf": "TAF LRSM 170800Z 1709/1718 VRB04KT CAVOK"
    },
    {
      "icao": "LRSV",
      "alert": "OK",
      "vis_m": 9999,
      "fzfg": false,
      "metar_trigger": false,
      "taf_trigger": false,
      "metar": "METAR LRSV 171100Z 24004KT 200V270 9999 SCT045 12/08 Q1018",
      "taf": "TAF LRSV 170800Z 1709/1718 VRB04KT 9999 BKN040"
    },
    {
      "icao": "LRTM",
      "alert": "OK",
      "vis_m": 9999,
      "fzfg": false,
      "metar_trigger": false,
      "taf_trigger": false,
      "metar": "METAR LRTM 171100Z VRB02KT 9999 FEW010 SCT043 14/09 Q1017",
      "taf": "TAF LRTM 170800Z 1709/1718 VRB04KT 9999 BKN040"
    },
    {
      "icao": "LRTR",
      "alert": "OK",
      "vis_m": 9999,
      "fzfg": false,
      "metar_trigger": false,
      "taf_trigger": false,
      "metar": "METAR LRTR 171100Z 35010KT 320V020 CAVOK 21/07 Q1017",
      "taf": "TAF LRTR 170500Z 1706/1806 VRB04KT CAVOK"
    },
    {
      "icao": "LTAC",
      "alert": "OK",
      "vis_m": 9999,
      "fzfg": false,
      "metar_trigger": false,
      "taf_trigger": false,
      "metar": "METAR LTAC 171050Z 08014KT CAVOK 20/01 Q1011 NOSIG RMK RWY21C 08013KT RWY03L 08012KT 050V110 RWY21R 07014KT RWY03R 06014KT RWY21L 09014KT",
      "taf": "TAF LTAC 171040Z 1712/1812 05009KT 9999 SCT040 SCT100"
    },
    {
      "icao": "LTFM",
      "alert": "OK",
      "vis_m": 9999,
      "fzfg": false,
      "metar_trigger": false,
      "taf_trigger": false,
      "metar": "METAR LTFM 171050Z 04019KT 9999 BKN016 11/08 Q1013 NOSIG RMK RWY17L 04015KT RWY34L 02016KT RWY16R 03015KT RWY36 04020KT RWY18 04017KT",
      "taf": "TAF LTFM 171040Z 1712/1818 02020KT 9999 BKN016"
    },
    {
      "icao": "LUKK",
      "alert": "OK",
      "vis_m": 9999,
      "fzfg": false,
      "metar_trigger": false,
      "taf_trigger": false,
      "metar": "METAR LUKK 171100Z 36007KT 300V040 CAVOK 18/06 Q1017 TEMPO SCT030CB",
      "taf": "TAF LUKK 170502Z 1706/1806 VRB06KT 9999 SCT040"
    },
    {
      "icao": "LWOH",
      "alert": "OK",
      "vis_m": 9999,
      "fzfg": false,
      "metar_trigger": false,
      "taf_trigger": false,
      "metar": "METAR LWOH 171050Z 35008KT 290V030 9999 SCT040 20/07 Q1013",
      "taf": "TAF LWOH 170835Z 1709/1809 36012KT 9999 FEW050"
    },
    {
      "icao": "LWSK",
      "alert": "OK",
      "vis_m": 9999,
      "fzfg": false,
      "metar_trigger": false,
      "taf_trigger": false,
      "metar": "METAR LWSK 171050Z VRB03KT 9999 FEW050 25/10 Q1013 NOSIG",
      "taf": "TAF LWSK 170835Z 1709/1809 34006KT CAVOK"
    },
    {
      "icao": "LYBE",
      "alert": "OK",
      "vis_m": 9999,
      "fzfg": false,
      "metar_trigger": false,
      "taf_trigger": false,
      "metar": "METAR LYBE 171100Z 34008KT 310V040 9999 SCT040 21/11 Q1018 NOSIG",
      "taf": "TAF LYBE 170500Z 1706/1806 30006KT 9999 SCT040 TX22/1713Z TN08/1804Z"
    },
    {
      "icao": "LYNI",
      "alert": "OK",
      "vis_m": 9999,
      "fzfg": false,
      "metar_trigger": false,
      "taf_trigger": false,
      "metar": "METAR LYNI 171100Z 31016KT 270V330 9999 FEW050 22/10 Q1015 NOSIG",
      "taf": "TAF LYNI 170500Z 1706/1806 02005KT 9999 SCT050 TX22/1711Z TN09/1804Z"
    },
    {
      "icao": "LYPG",
      "alert": "OK",
      "vis_m": 9999,
      "fzfg": false,
      "metar_trigger": false,
      "taf_trigger": false,
      "metar": "METAR LYPG 171100Z 36014KT 300V040 CAVOK 27/06 Q1012 NOSIG",
      "taf": "TAF LYPG 170500Z 1706/1806 34008KT CAVOK TX27/1713Z TN19/1804Z"
    },
    {
      "icao": "LZIB",
      "alert": "OK",
      "vis_m": 9999,
      "fzfg": false,
      "metar_trigger": false,
      "taf_trigger": false,
      "metar": "METAR LZIB 171100Z 31009KT 290V350 CAVOK 21/05 Q1020 NOSIG",
      "taf": "TAF LZIB 170515Z 1706/1806 30008KT CAVOK"
    },
    {
      "icao": "LZKZ",
      "alert": "OK",
      "vis_m": 9999,
      "fzfg": false,
      "metar_trigger": false,
      "taf_trigger": false,
      "metar": "METAR LZKZ 171100Z 02010KT CAVOK 18/03 Q1019 NOSIG",
      "taf": "TAF LZKZ 170515Z 1706/1806 03005KT CAVOK"
    },
    {
      "icao": "LZTT",
      "alert": "OK",
      "vis_m": 9999,
      "fzfg": false,
      "metar_trigger": false,
      "taf_trigger": false,
      "metar": "METAR LZTT 171100Z 05004KT 340V110 9999 FEW046 BKN066 14/01 Q1019 NOSIG",
      "taf": "TAF LZTT 170515Z 1706/1806 27005KT 9999 FEW020"
    },
    {
      "icao": "OEJN",
      "alert": "OK",
      "vis_m": 1500,
      "fzfg": false,
      "metar_trigger": false,
      "taf_trigger": false,
      "metar": "METAR OEJN 171100Z 20016KT 1500 BLDU NSC 40/13 Q1004 NOSIG",
      "taf": "TAF OEJN 170500Z 1706/1812 16022KT 7000 FEW040"
    },
    {
      "icao": "OEMA",
      "alert": "OK",
      "vis_m": 9999,
      "fzfg": false,
      "metar_trigger": false,
      "taf_trigger": false,
      "metar": "METAR OEMA 171100Z 21007KT 9999 SCT040 35/12 Q1011 NOSIG",
      "taf": "TAF OEMA 170500Z 1706/1812 08010KT 7000 SCT040"
    },
    {
      "icao": "OJAI",
      "alert": "OK",
      "vis_m": null,
      "fzfg": false,
      "metar_trigger": false,
      "taf_trigger": false,
      "metar": "",
      "taf": "TAF OJAI 171047Z 1712/1818 12010KT 5000 HZ SCT045"
    },
    {
      "icao": "OMAA",
      "alert": "OK",
      "vis_m": null,
      "fzfg": false,
      "metar_trigger": false,
      "taf_trigger": false,
      "metar": "",
      "taf": ""
    },
    {
      "icao": "OMDB",
      "alert": "OK",
      "vis_m": null,
      "fzfg": false,
      "metar_trigger": false,
      "taf_trigger": false,
      "metar": "",
      "taf": ""
    },
    {
      "icao": "UAAA",
      "alert": "OK",
      "vis_m": 5000,
      "fzfg": false,
      "metar_trigger": false,
      "taf_trigger": false,
      "metar": "METAR UAAA 171100Z 18005MPS 5000 -SHRA BR BKN033CB OVC100 09/05 Q1021 NOSIG",
      "taf": "TAF UAAA 170509Z 1706/1806 10003G08MPS 6000 BKN020CB OVC050 TX12/1709Z TN04/1801Z"
    },
    {
      "icao": "UBBB",
      "alert": "OK",
      "vis_m": 9999,
      "fzfg": false,
      "metar_trigger": false,
      "taf_trigger": false,
      "metar": "METAR UBBB 171100Z 17018KT 9999 FEW026 16/08 Q1021 NOSIG",
      "taf": "TAF UBBB 171052Z 1712/1812 18012KT 9999 SCT025 TX15/1712Z TN09/1801Z"
    },
    {
      "icao": "UDSG",
      "alert": "OK",
      "vis_m": 9999,
      "fzfg": false,
      "metar_trigger": false,
      "taf_trigger": false,
      "metar": "METAR UDSG 171100Z 23008KT 180V290 9999 NSC 13/M03 Q1019 NOSIG",
      "taf": "TAF UDSG 170458Z 1706/1806 VRB06KT 9999 FEW050"
    },
    {
      "icao": "UDYZ",
      "alert": "OK",
      "vis_m": 9999,
      "fzfg": false,
      "metar_trigger": false,
      "taf_trigger": false,
      "metar": "METAR UDYZ 171100Z 13004KT 060V200 9999 NSC 17/M02 Q1018 NOSIG",
      "taf": "TAF UDYZ 170500Z 1706/1806 20006KT 9999 FEW040"
    },
    {
      "icao": "UGKO",
      "alert": "OK",
      "vis_m": 9999,
      "fzfg": false,
      "metar_trigger": false,
      "taf_trigger": false,
      "metar": "METAR UGKO 171100Z 08019G29KT CAVOK 23/03 Q1013 NOSIG",
      "taf": "TAF UGKO 171100Z 1712/1812 08019G29KT CAVOK TX24/1712Z TN14/1803Z"
    }
  ]
}