{
  "ts_utc": "2026-05-18T08:58:07Z",
  "threshold_m": 150,
  "source": "stations_override.txt (ICAO list) + aviationweather.gov (METAR/TAF raw)",
  "station_count": 159,
  "stations": [
    {
      "icao": "BIKF",
      "alert": "OK",
      "vis_m": 9999,
      "fzfg": false,
      "metar_trigger": false,
      "taf_trigger": false,
      "metar": "METAR BIKF 180830Z 05007KT CAVOK 07/01 Q1012",
      "taf": "TAF BIKF 180434Z 1806/1906 11007KT CAVOK TX11/1815Z TN02/1904Z"
    },
    {
      "icao": "BKPR",
      "alert": "OK",
      "vis_m": null,
      "fzfg": false,
      "metar_trigger": false,
      "taf_trigger": false,
      "metar": "",
      "taf": "TAF BKPR 180530Z 1806/1906 01007KT 9999 FEW050"
    },
    {
      "icao": "EBCI",
      "alert": "OK",
      "vis_m": 9999,
      "fzfg": false,
      "metar_trigger": false,
      "taf_trigger": false,
      "metar": "METAR EBCI 180850Z 24009KT 9999 SCT021 12/07 Q1014 NOSIG",
      "taf": "TAF EBCI 180509Z 1806/1912 22006KT 9999 FEW020 SCT040"
    },
    {
      "icao": "EDDB",
      "alert": "OK",
      "vis_m": 9999,
      "fzfg": false,
      "metar_trigger": false,
      "taf_trigger": false,
      "metar": "METAR EDDB 180850Z AUTO 12009KT 100V170 CAVOK 17/08 Q1015 NOSIG",
      "taf": ""
    },
    {
      "icao": "EDDH",
      "alert": "OK",
      "vis_m": 9999,
      "fzfg": false,
      "metar_trigger": false,
      "taf_trigger": false,
      "metar": "METAR EDDH 180850Z AUTO 15013KT CAVOK 17/07 Q1013 NOSIG",
      "taf": "TAF EDDH 180500Z 1806/1912 12005KT 9999 BKN045"
    },
    {
      "icao": "EDDK",
      "alert": "OK",
      "vis_m": 9999,
      "fzfg": false,
      "metar_trigger": false,
      "taf_trigger": false,
      "metar": "METAR EDDK 180850Z AUTO 28009KT 9999 SHRA FEW011 SCT017 OVC048 FEW///CB 11/09 Q1014 TEMPO NSW BKN012",
      "taf": ""
    },
    {
      "icao": "EDDN",
      "alert": "OK",
      "vis_m": 9999,
      "fzfg": false,
      "metar_trigger": false,
      "taf_trigger": false,
      "metar": "METAR EDDN 180850Z AUTO 18006KT 140V230 CAVOK 17/03 Q1014 BECMG 24006KT",
      "taf": "TAF EDDN 180500Z 1806/1906 13005KT CAVOK"
    },
    {
      "icao": "EDDS",
      "alert": "OK",
      "vis_m": 9999,
      "fzfg": false,
      "metar_trigger": false,
      "taf_trigger": false,
      "metar": "METAR EDDS 180850Z AUTO VRB02KT 9999 -SHRA FEW041 SCT048 FEW///TCU 10/08 Q1015 TEMPO SHRA",
      "taf": "TAF EDDS 180500Z 1806/1906 VRB02KT CAVOK"
    },
    {
      "icao": "EDFH",
      "alert": "OK",
      "vis_m": 5000,
      "fzfg": false,
      "metar_trigger": false,
      "taf_trigger": false,
      "metar": "METAR EDFH 180850Z 27009KT 230V300 5000 -RA BR FEW001 BKN004 OVC009 09/09 Q1014",
      "taf": "TAF EDFH 180500Z 1806/1906 26007KT 9999 SCT045"
    },
    {
      "icao": "EDJA",
      "alert": "OK",
      "vis_m": 9999,
      "fzfg": false,
      "metar_trigger": false,
      "taf_trigger": false,
      "metar": "METAR EDJA 180850Z COR VRB06KT CAVOK 15/03 Q1015",
      "taf": "TAF EDJA 180800Z 1809/1818 25007KT 9999 SCT035"
    },
    {
      "icao": "EDLW",
      "alert": "OK",
      "vis_m": 3300,
      "fzfg": false,
      "metar_trigger": false,
      "taf_trigger": false,
      "metar": "METAR EDLW 180850Z 21005KT 190V280 3300 FEW008 BKN023 OVC030 11/10 Q1013",
      "taf": "TAF EDLW 180500Z 1806/1906 18005KT 9999 BKN040"
    },
    {
      "icao": "EDNY",
      "alert": "OK",
      "vis_m": 9999,
      "fzfg": false,
      "metar_trigger": false,
      "taf_trigger": false,
      "metar": "METAR EDNY 180850Z 23009KT CAVOK 15/07 Q1016",
      "taf": "TAF EDNY 180800Z 1809/1818 25006KT 9999 SCT045"
    },
    {
      "icao": "EDSB",
      "alert": "OK",
      "vis_m": 9999,
      "fzfg": false,
      "metar_trigger": false,
      "taf_trigger": false,
      "metar": "METAR EDSB 180850Z 22009KT 170V250 9999 SCT021 BKN031 15/09 Q1015",
      "taf": "TAF EDSB 180500Z 1806/1906 VRB02KT CAVOK"
    },
    {
      "icao": "EETN",
      "alert": "OK",
      "vis_m": 9999,
      "fzfg": false,
      "metar_trigger": false,
      "taf_trigger": false,
      "metar": "METAR EETN 180850Z 04009KT 010V070 CAVOK 14/03 Q1020 NOSIG",
      "taf": "TAF EETN 180530Z 1806/1906 03010KT CAVOK"
    },
    {
      "icao": "EFTU",
      "alert": "OK",
      "vis_m": 9999,
      "fzfg": false,
      "metar_trigger": false,
      "taf_trigger": false,
      "metar": "METAR EFTU 180850Z AUTO VRB03KT CAVOK 15/07 Q1021",
      "taf": "TAF EFTU 180828Z 1809/1909 06006KT 9999 FEW035"
    },
    {
      "icao": "EGBB",
      "alert": "OK",
      "vis_m": 9999,
      "fzfg": false,
      "metar_trigger": false,
      "taf_trigger": false,
      "metar": "METAR EGBB 180850Z 22007KT 180V260 9999 BKN015 11/07 Q1010",
      "taf": ""
    },
    {
      "icao": "EGGP",
      "alert": "OK",
      "vis_m": 9999,
      "fzfg": false,
      "metar_trigger": false,
      "taf_trigger": false,
      "metar": "METAR EGGP 180850Z 17003KT 120V230 9999 VCSH SCT027 BKN034TCU 09/06 Q1008 RERA",
      "taf": "TAF EGGP 180456Z 1806/1906 20007KT 9999 SCT035"
    },
    {
      "icao": "EGGW",
      "alert": "OK",
      "vis_m": 9999,
      "fzfg": false,
      "metar_trigger": false,
      "taf_trigger": false,
      "metar": "METAR EGGW 180850Z AUTO 23010KT 9999 BKN026 BKN044 11/05 Q1011",
      "taf": "TAF EGGW 180457Z 1806/1906 22006KT 9999 SCT035"
    },
    {
      "icao": "EGKK",
      "alert": "OK",
      "vis_m": 9999,
      "fzfg": false,
      "metar_trigger": false,
      "taf_trigger": false,
      "metar": "METAR EGKK 180850Z 23010KT 200V260 9999 SCT028 12/06 Q1012",
      "taf": "TAF EGKK 180454Z 1806/1912 24005KT 9999 FEW045"
    },
    {
      "icao": "EGNM",
      "alert": "OK",
      "vis_m": 9999,
      "fzfg": false,
      "metar_trigger": false,
      "taf_trigger": false,
      "metar": "METAR EGNM 180850Z 20006KT 9999 SCT008 SCT018 09/06 Q1008",
      "taf": "TAF EGNM 180455Z 1806/1906 15005KT 9999 FEW035"
    },
    {
      "icao": "EGPD",
      "alert": "OK",
      "vis_m": 9999,
      "fzfg": false,
      "metar_trigger": false,
      "taf_trigger": false,
      "metar": "METAR EGPD 180850Z COR AUTO 14008KT 100V170 9999 FEW048 12/07 Q1008 NOSIG",
      "taf": ""
    },
    {
      "icao": "EGPF",
      "alert": "OK",
      "vis_m": 9999,
      "fzfg": false,
      "metar_trigger": false,
      "taf_trigger": false,
      "metar": "METAR EGPF 180850Z AUTO 32003KT 280V350 9999 FEW021 BKN045 10/08 Q1007",
      "taf": ""
    },
    {
      "icao": "EHBK",
      "alert": "OK",
      "vis_m": 9999,
      "fzfg": false,
      "metar_trigger": false,
      "taf_trigger": false,
      "metar": "METAR EHBK 180825Z AUTO 23008KT 200V260 9999 FEW011 SCT016 OVC019 11/09 Q1014 NOSIG",
      "taf": "TAF EHBK 180506Z 1806/1912 23006KT 9999 BKN045"
    },
    {
      "icao": "EHEH",
      "alert": "OK",
      "vis_m": 9999,
      "fzfg": false,
      "metar_trigger": false,
      "taf_trigger": false,
      "metar": "METAR EHEH 180825Z AUTO 22008KT 190V280 9999 SCT010 BKN013 BKN016 13/10 Q1013 GRN BECMG SCT020 RMK TREND REMOTE BY EHWX",
      "taf": "TAF EHEH 180538Z 1806/1912 22006KT CAVOK"
    },
    {
      "icao": "EKBI",
      "alert": "OK",
      "vis_m": 9999,
      "fzfg": false,
      "metar_trigger": false,
      "taf_trigger": false,
      "metar": "METAR EKBI 180850Z AUTO 13010KT 9999 SCT057/// BKN077/// 15/08 Q1014",
      "taf": "TAF EKBI 180827Z 1809/1909 13010KT 9999 BKN040"
    },
    {
      "icao": "EKCH",
      "alert": "OK",
      "vis_m": 9999,
      "fzfg": false,
      "metar_trigger": false,
      "taf_trigger": false,
      "metar": "METAR EKCH 180850Z AUTO 13012KT 9999 NCD 15/08 Q1017 NOSIG",
      "taf": "TAF EKCH 180827Z 1809/1909 14012KT CAVOK"
    },
    {
      "icao": "ENAL",
      "alert": "OK",
      "vis_m": 9999,
      "fzfg": false,
      "metar_trigger": false,
      "taf_trigger": false,
      "metar": "METAR ENAL 180850Z 04003KT 320V100 9999 SCT061 12/06 Q1015",
      "taf": "TAF ENAL 180800Z 1809/1818 06005KT 9999 BKN060"
    },
    {
      "icao": "ENBR",
      "alert": "OK",
      "vis_m": 9999,
      "fzfg": false,
      "metar_trigger": false,
      "taf_trigger": false,
      "metar": "METAR ENBR 180850Z 19005KT 9999 SCT042 10/07 Q1015 NOSIG RMK WIND 1200FT 14010KT",
      "taf": ""
    },
    {
      "icao": "ENGM",
      "alert": "OK",
      "vis_m": 9999,
      "fzfg": false,
      "metar_trigger": false,
      "taf_trigger": false,
      "metar": "METAR ENGM 180850Z 13004KT 070V170 CAVOK 11/03 Q1019 NOSIG",
      "taf": "TAF ENGM 180500Z 1806/1906 VRB03KT 9999 FEW020 BKN045"
    },
    {
      "icao": "ENHD",
      "alert": "OK",
      "vis_m": 9999,
      "fzfg": false,
      "metar_trigger": false,
      "taf_trigger": false,
      "metar": "METAR ENHD 180850Z 22007KT 9999 FEW020 12/08 Q1014",
      "taf": "TAF ENHD 180800Z 1809/1818 13008KT 9999 FEW020 SCT040"
    },
    {
      "icao": "ENTC",
      "alert": "OK",
      "vis_m": 9999,
      "fzfg": false,
      "metar_trigger": false,
      "taf_trigger": false,
      "metar": "METAR ENTC 180850Z 02008KT 9999 FEW010 BKN021 OVC026 06/04 Q1018 RERA NOSIG RMK WIND 2600FT 14003KT",
      "taf": ""
    },
    {
      "icao": "ENTO",
      "alert": "OK",
      "vis_m": 9999,
      "fzfg": false,
      "metar_trigger": false,
      "taf_trigger": false,
      "metar": "METAR ENTO 180850Z 11005KT 070V130 9999 OVC044 11/07 Q1018 NOSIG",
      "taf": "TAF ENTO 180500Z 1806/1906 11007KT 9999 FEW015 BKN040"
    },
    {
      "icao": "ENVA",
      "alert": "OK",
      "vis_m": 9999,
      "fzfg": false,
      "metar_trigger": false,
      "taf_trigger": false,
      "metar": "METAR ENVA 180850Z 13008KT 070V160 CAVOK 16/05 Q1016 NOSIG RMK WIND 670FT 14012KT",
      "taf": "TAF ENVA 180500Z 1806/1906 12009KT CAVOK"
    },
    {
      "icao": "ENZV",
      "alert": "OK",
      "vis_m": 9999,
      "fzfg": false,
      "metar_trigger": false,
      "taf_trigger": false,
      "metar": "METAR ENZV 180850Z 29007KT CAVOK 11/07 Q1014 NOSIG",
      "taf": "TAF ENZV 180500Z 1806/1906 16005KT 9999 FEW015 SCT025"
    },
    {
      "icao": "EPGD",
      "alert": "OK",
      "vis_m": 9999,
      "fzfg": false,
      "metar_trigger": false,
      "taf_trigger": false,
      "metar": "METAR EPGD 180830Z 01008KT 320V040 CAVOK 13/05 Q1017",
      "taf": "TAF EPGD 180530Z 1806/1906 03003KT CAVOK"
    },
    {
      "icao": "EPKK",
      "alert": "OK",
      "vis_m": 9999,
      "fzfg": false,
      "metar_trigger": false,
      "taf_trigger": false,
      "metar": "METAR EPKK 180830Z 24006KT 200V260 9999 BKN011 10/08 Q1014",
      "taf": "TAF EPKK 180830Z 1809/1909 25008KT 9999 BKN012"
    },
    {
      "icao": "EPKT",
      "alert": "OK",
      "vis_m": 9000,
      "fzfg": false,
      "metar_trigger": false,
      "taf_trigger": false,
      "metar": "METAR EPKT 180830Z 29006KT 250V320 9000 -RA SCT004 BKN007 09/08 Q1014",
      "taf": "TAF EPKT 180530Z 1806/1906 31003KT 1300 -DZ BR OVC002"
    },
    {
      "icao": "EPLB",
      "alert": "OK",
      "vis_m": 9999,
      "fzfg": false,
      "metar_trigger": false,
      "taf_trigger": false,
      "metar": "METAR EPLB 180830Z 31009KT 9999 SCT004 OVC006 11/10 Q1012",
      "taf": "TAF EPLB 180530Z 1806/1906 32008KT 9999 OVC007"
    },
    {
      "icao": "EPMO",
      "alert": "OK",
      "vis_m": 9999,
      "fzfg": false,
      "metar_trigger": false,
      "taf_trigger": false,
      "metar": "METAR EPMO 180830Z VRB04KT 9999 BKN022 14/09 Q1013",
      "taf": "TAF EPMO 172330Z 1800/1824 36005KT 9999 BKN020"
    },
    {
      "icao": "EPPO",
      "alert": "OK",
      "vis_m": 9999,
      "fzfg": false,
      "metar_trigger": false,
      "taf_trigger": false,
      "metar": "METAR EPPO 180830Z 33006KT 9999 -RA NSC 11/08 Q1016",
      "taf": "TAF EPPO 172330Z 1800/1824 15006KT 9999 BKN040"
    },
    {
      "icao": "EPRA",
      "alert": "OK",
      "vis_m": 9999,
      "fzfg": false,
      "metar_trigger": false,
      "taf_trigger": false,
      "metar": "METAR EPRA 180830Z 31007KT 280V350 9999 BKN021 13/08 Q1012",
      "taf": "TAF EPRA 180830Z 1809/1818 30010KT 9999 BKN025"
    },
    {
      "icao": "EPRZ",
      "alert": "OK",
      "vis_m": 9999,
      "fzfg": false,
      "metar_trigger": false,
      "taf_trigger": false,
      "metar": "METAR EPRZ 180830Z 27009KT 9999 OVC007 11/09 Q1013",
      "taf": ""
    },
    {
      "icao": "EPSC",
      "alert": "OK",
      "vis_m": 9999,
      "fzfg": false,
      "metar_trigger": false,
      "taf_trigger": false,
      "metar": "METAR EPSC 180830Z 12005KT CAVOK 13/08 Q1017",
      "taf": "TAF EPSC 172330Z 1800/1824 10005KT CAVOK"
    },
    {
      "icao": "EPSY",
      "alert": "OK",
      "vis_m": 9999,
      "fzfg": false,
      "metar_trigger": false,
      "taf_trigger": false,
      "metar": "METAR EPSY 180830Z 01010KT 330V040 9999 SCT019 BKN023TCU 13/07 Q1014",
      "taf": "TAF EPSY 180830Z 1809/1818 02010KT 9999 BKN030"
    },
    {
      "icao": "EPWA",
      "alert": "OK",
      "vis_m": 9999,
      "fzfg": false,
      "metar_trigger": false,
      "taf_trigger": false,
      "metar": "METAR EPWA 180830Z 32006KT 290V350 9999 BKN017 13/08 Q1013 TEMPO BKN014",
      "taf": "TAF EPWA 180830Z 1809/1909 35010KT 9999 BKN020"
    },
    {
      "icao": "EPWR",
      "alert": "OK",
      "vis_m": 9999,
      "fzfg": false,
      "metar_trigger": false,
      "taf_trigger": false,
      "metar": "METAR EPWR 180830Z 33006KT 9999 SCT012 BKN044 11/08 Q1016",
      "taf": "TAF EPWR 180830Z 1809/1909 33005KT 9999 BKN016 BKN040"
    },
    {
      "icao": "ESGG",
      "alert": "OK",
      "vis_m": 9999,
      "fzfg": false,
      "metar_trigger": false,
      "taf_trigger": false,
      "metar": "METAR ESGG 180850Z 13008KT CAVOK 12/05 Q1017",
      "taf": "TAF ESGG 180830Z 1809/1909 12008KT CAVOK"
    },
    {
      "icao": "ESKN",
      "alert": "OK",
      "vis_m": 9999,
      "fzfg": false,
      "metar_trigger": false,
      "taf_trigger": false,
      "metar": "METAR ESKN 180850Z 12009KT 9999 FEW035 SCT110 13/05 Q1020",
      "taf": "TAF ESKN 180830Z 1809/1909 13007KT CAVOK"
    },
    {
      "icao": "ESMS",
      "alert": "OK",
      "vis_m": 9999,
      "fzfg": false,
      "metar_trigger": false,
      "taf_trigger": false,
      "metar": "METAR ESMS 180850Z 11011KT 090V150 CAVOK 14/07 Q1017",
      "taf": "TAF ESMS 180827Z 1809/1909 13010KT 9999 FEW040"
    },
    {
      "icao": "ESSA",
      "alert": "OK",
      "vis_m": 9999,
      "fzfg": false,
      "metar_trigger": false,
      "taf_trigger": false,
      "metar": "METAR ESSA 180850Z 26004KT 220V290 CAVOK 14/02 Q1020 NOSIG",
      "taf": "TAF ESSA 180830Z 1809/1909 05005KT 9999 SCT040"
    },
    {
      "icao": "EYKA",
      "alert": "OK",
      "vis_m": 9999,
      "fzfg": false,
      "metar_trigger": false,
      "taf_trigger": false,
      "metar": "METAR EYKA 180850Z 36008KT 330V040 CAVOK 13/09 Q1013",
      "taf": "TAF EYKA 180500Z 1806/1906 36010KT 9000 NSC"
    },
    {
      "icao": "EYPA",
      "alert": "OK",
      "vis_m": 9999,
      "fzfg": false,
      "metar_trigger": false,
      "taf_trigger": false,
      "metar": "METAR EYPA 180850Z 02009KT 340V040 CAVOK 16/03 Q1016",
      "taf": "TAF EYPA 180500Z 1806/1906 01010KT 9000 NSC"
    },
    {
      "icao": "EYVI",
      "alert": "OK",
      "vis_m": 6000,
      "fzfg": false,
      "metar_trigger": false,
      "taf_trigger": false,
      "metar": "METAR EYVI 180850Z 35011KT 6000 -SHRA SCT005 BKN030CB 12/12 Q1011 TEMPO 1500 SHRA BKN002 BKN015CB",
      "taf": "TAF EYVI 180500Z 1806/1906 36010KT 6000 SCT005 BKN020"
    },
    {
      "icao": "GCFV",
      "alert": "OK",
      "vis_m": 9999,
      "fzfg": false,
      "metar_trigger": false,
      "taf_trigger": false,
      "metar": "METAR GCFV 180830Z 02020KT 9999 FEW030 SCT048 21/12 Q1020",
      "taf": "TAF GCFV 180800Z 1809/1909 03018KT 9999 BKN040 TX23/1814Z TN17/1906Z"
    },
    {
      "icao": "GCLP",
      "alert": "OK",
      "vis_m": 9999,
      "fzfg": false,
      "metar_trigger": false,
      "taf_trigger": false,
      "metar": "METAR GCLP 180830Z 34015KT 9999 FEW020 BKN045 18/13 Q1021 NOSIG",
      "taf": "TAF GCLP 180800Z 1809/1909 01025KT 9999 FEW040 TX23/1814Z TN18/1906Z"
    },
    {
      "icao": "GCTS",
      "alert": "OK",
      "vis_m": 9999,
      "fzfg": false,
      "metar_trigger": false,
      "taf_trigger": false,
      "metar": "METAR GCTS 180830Z VRB04KT 9999 SCT040 20/10 Q1022 NOSIG",
      "taf": "TAF GCTS 180800Z 1809/1909 06008KT 9999 SCT040 TX24/1814Z TN16/1906Z"
    },
    {
      "icao": "GMAD",
      "alert": "OK",
      "vis_m": 9999,
      "fzfg": false,
      "metar_trigger": false,
      "taf_trigger": false,
      "metar": "METAR GMAD 180830Z 22005KT 190V270 CAVOK 19/12 Q1016 NOSIG",
      "taf": "TAF GMAD 180500Z 1806/1912 21005KT 8000 FEW020"
    },
    {
      "icao": "GMMN",
      "alert": "OK",
      "vis_m": 9999,
      "fzfg": false,
      "metar_trigger": false,
      "taf_trigger": false,
      "metar": "METAR GMMN 180830Z 03004KT 300V100 9999 BKN030 20/14 Q1020 NOSIG",
      "taf": "TAF GMMN 180500Z 1806/1912 14004KT 9999 SCT020 SCT040"
    },
    {
      "icao": "GMMX",
      "alert": "OK",
      "vis_m": 9999,
      "fzfg": false,
      "metar_trigger": false,
      "taf_trigger": false,
      "metar": "METAR GMMX 180830Z 08005KT 020V190 9999 SCT033 18/11 Q1019 NOSIG",
      "taf": "TAF GMMX 180500Z 1806/1912 04006KT 8000 SCT026 SCT090"
    },
    {
      "icao": "HEGN",
      "alert": "OK",
      "vis_m": 9999,
      "fzfg": false,
      "metar_trigger": false,
      "taf_trigger": false,
      "metar": "METAR HEGN 180800Z 11010KT CAVOK 31/21 Q1008 NOSIG",
      "taf": "TAF HEGN 180500Z 1806/1912 13012KT CAVOK"
    },
    {
      "icao": "HEMA",
      "alert": "OK",
      "vis_m": 9999,
      "fzfg": false,
      "metar_trigger": false,
      "taf_trigger": false,
      "metar": "METAR HEMA 180800Z 14007KT CAVOK 36/07 Q1009 NOSIG",
      "taf": "TAF HEMA 180500Z 1806/1912 12012KT CAVOK"
    },
    {
      "icao": "HESH",
      "alert": "OK",
      "vis_m": 9999,
      "fzfg": false,
      "metar_trigger": false,
      "taf_trigger": false,
      "metar": "METAR HESH 180800Z 15004KT CAVOK 34/15 Q1009 NOSIG",
      "taf": "TAF HESH 180500Z 1806/1912 18010KT CAVOK"
    },
    {
      "icao": "HESX",
      "alert": "OK",
      "vis_m": 9999,
      "fzfg": false,
      "metar_trigger": false,
      "taf_trigger": false,
      "metar": "METAR HESX 180800Z 01012KT CAVOK 30/14 Q1010 NOSIG",
      "taf": "TAF HESX 180500Z 1806/1912 36012KT CAVOK"
    },
    {
      "icao": "LATI",
      "alert": "OK",
      "vis_m": 9999,
      "fzfg": false,
      "metar_trigger": false,
      "taf_trigger": false,
      "metar": "METAR LATI 180850Z VRB02KT 9999 FEW031 20/10 Q1014 NOSIG",
      "taf": "TAF LATI 180500Z 1806/1906 VRB03KT CAVOK TX25/1812Z TN09/1904Z"
    },
    {
      "icao": "LBPD",
      "alert": "OK",
      "vis_m": 9999,
      "fzfg": false,
      "metar_trigger": false,
      "taf_trigger": false,
      "metar": "METAR LBPD 180830Z AUTO 30017KT 9999 NCD 19/09 Q1013 NOSIG",
      "taf": "TAF LBPD 180500Z 1806/1906 29014KT 9999 SCT030 BKN060"
    },
    {
      "icao": "LBSF",
      "alert": "OK",
      "vis_m": 9999,
      "fzfg": false,
      "metar_trigger": false,
      "taf_trigger": false,
      "metar": "METAR LBSF 180830Z 28012KT 9999 OVC024 13/07 Q1016 NOSIG",
      "taf": "TAF LBSF 180500Z 1806/1906 29012KT 9999 SCT015 BKN025 OVC040"
    },
    {
      "icao": "LBWN",
      "alert": "OK",
      "vis_m": 9999,
      "fzfg": false,
      "metar_trigger": false,
      "taf_trigger": false,
      "metar": "METAR LBWN 180830Z 27018KT 9999 FEW030 19/13 Q1011 NOSIG",
      "taf": "TAF LBWN 180500Z 1806/1906 28010KT 9999 SCT020 SCT045"
    },
    {
      "icao": "LCLK",
      "alert": "OK",
      "vis_m": 9999,
      "fzfg": false,
      "metar_trigger": false,
      "taf_trigger": false,
      "metar": "METAR LCLK 180830Z 15011KT 9999 FEW025 24/18 Q1007 NOSIG",
      "taf": "TAF LCLK 180530Z 1806/1906 32005KT 9999 FEW020"
    },
    {
      "icao": "LCPH",
      "alert": "OK",
      "vis_m": 9999,
      "fzfg": false,
      "metar_trigger": false,
      "taf_trigger": false,
      "metar": "METAR LCPH 180830Z 31018KT 270V340 9999 FEW018 23/18 Q1008 NOSIG",
      "taf": "TAF LCPH 180530Z 1806/1906 30017KT 9999 SCT012"
    },
    {
      "icao": "LEAL",
      "alert": "OK",
      "vis_m": 9999,
      "fzfg": false,
      "metar_trigger": false,
      "taf_trigger": false,
      "metar": "METAR LEAL 180830Z VRB03KT CAVOK 21/12 Q1018 NOSIG",
      "taf": "TAF LEAL 180500Z 1806/1906 VRB03KT 9999 FEW060 TX23/1812Z TN15/1905Z"
    },
    {
      "icao": "LEBB",
      "alert": "OK",
      "vis_m": 9999,
      "fzfg": false,
      "metar_trigger": false,
      "taf_trigger": false,
      "metar": "METAR LEBB 180830Z VRB02KT 9999 FEW068 15/11 Q1019 NOSIG",
      "taf": "TAF LEBB 180500Z 1806/1906 13006KT 9999 FEW040 TX19/1814Z TN10/1806Z"
    },
    {
      "icao": "LEBL",
      "alert": "OK",
      "vis_m": 9999,
      "fzfg": false,
      "metar_trigger": false,
      "taf_trigger": false,
      "metar": "METAR LEBL 180830Z 17006KT 130V210 9999 FEW018 SCT048 19/14 Q1018 NOSIG",
      "taf": "TAF LEBL 180500Z 1806/1906 34007KT 9999 BKN025 TX21/1812Z TN15/1806Z"
    },
    {
      "icao": "LECH",
      "alert": "OK",
      "vis_m": 9999,
      "fzfg": false,
      "metar_trigger": false,
      "taf_trigger": false,
      "metar": "METAR LECH 180830Z AUTO 08006KT 030V120 9999 FEW025 18/11 Q1018",
      "taf": "TAF LECH 180500Z 1806/1906 VRB04KT 9999 FEW020 TX22/1812Z TN10/1905Z"
    },
    {
      "icao": "LEMD",
      "alert": "OK",
      "vis_m": 9999,
      "fzfg": false,
      "metar_trigger": false,
      "taf_trigger": false,
      "metar": "METAR LEMD 180830Z VRB02KT CAVOK 15/08 Q1018 NOSIG",
      "taf": ""
    },
    {
      "icao": "LEMG",
      "alert": "OK",
      "vis_m": 9999,
      "fzfg": false,
      "metar_trigger": false,
      "taf_trigger": false,
      "metar": "METAR LEMG 180830Z 29005KT 260V330 CAVOK 19/12 Q1019 NOSIG",
      "taf": ""
    },
    {
      "icao": "LEVC",
      "alert": "OK",
      "vis_m": 9999,
      "fzfg": false,
      "metar_trigger": false,
      "taf_trigger": false,
      "metar": "METAR LEVC 180830Z 01003KT 320V070 CAVOK 19/11 Q1018 NOSIG",
      "taf": "TAF LEVC 180500Z 1806/1906 VRB03KT 9999 FEW060 TX24/1814Z TN15/1806Z"
    },
    {
      "icao": "LEXJ",
      "alert": "OK",
      "vis_m": 9999,
      "fzfg": false,
      "metar_trigger": false,
      "taf_trigger": false,
      "metar": "METAR LEXJ 180830Z VRB02KT CAVOK 15/10 Q1019",
      "taf": "TAF LEXJ 180800Z 1809/1909 04008KT 9999 FEW030 TX22/1909Z TN13/1904Z"
    },
    {
      "icao": "LEZG",
      "alert": "OK",
      "vis_m": 9999,
      "fzfg": false,
      "metar_trigger": false,
      "taf_trigger": false,
      "metar": "METAR LEZG 180830Z 28005KT CAVOK 16/09 Q1018 NOSIG",
      "taf": "TAF LEZG 180500Z 1806/1906 28010KT CAVOK TX25/1815Z TN11/1806Z"
    },
    {
      "icao": "LEZL",
      "alert": "OK",
      "vis_m": 9999,
      "fzfg": false,
      "metar_trigger": false,
      "taf_trigger": false,
      "metar": "METAR LEZL 180830Z 21002KT CAVOK 19/13 Q1019 NOSIG",
      "taf": "TAF LEZL 180800Z 1809/1909 VRB03KT CAVOK TX28/1815Z TN13/1906Z"
    },
    {
      "icao": "LFBD",
      "alert": "OK",
      "vis_m": 9999,
      "fzfg": false,
      "metar_trigger": false,
      "taf_trigger": false,
      "metar": "METAR LFBD 180830Z AUTO 20004KT 9999 FEW034 BKN064 BKN110 14/10 Q1018 TEMPO 3000 SHRA BKN030TCU BECMG 26010KT",
      "taf": "TAF LFBD 180500Z 1806/1912 VRB03KT CAVOK TX19/1813Z TN10/1806Z"
    },
    {
      "icao": "LFLL",
      "alert": "OK",
      "vis_m": 9999,
      "fzfg": false,
      "metar_trigger": false,
      "taf_trigger": false,
      "metar": "METAR LFLL 180830Z 29007KT 9999 FEW026 FEW035TCU BKN045 14/08 Q1017 NOSIG",
      "taf": "TAF LFLL 180500Z 1806/1912 VRB02KT 9999 BKN045"
    },
    {
      "icao": "LFLS",
      "alert": "OK",
      "vis_m": 9999,
      "fzfg": false,
      "metar_trigger": false,
      "taf_trigger": false,
      "metar": "METAR LFLS 180830Z AUTO 09003KT 040V170 9999 FEW022 SCT037 BKN046 14/09 Q1017 TEMPO FEW025TCU BKN040",
      "taf": "TAF LFLS 180800Z 1809/1909 VRB02KT 9999 BKN045"
    },
    {
      "icao": "LFMN",
      "alert": "OK",
      "vis_m": 9999,
      "fzfg": false,
      "metar_trigger": false,
      "taf_trigger": false,
      "metar": "METAR LFMN 180830Z 10007KT CAVOK 17/11 Q1016 NOSIG",
      "taf": "TAF LFMN 180800Z 1809/1915 12008KT CAVOK"
    },
    {
      "icao": "LFOB",
      "alert": "OK",
      "vis_m": 9999,
      "fzfg": false,
      "metar_trigger": false,
      "taf_trigger": false,
      "metar": "METAR LFOB 180830Z AUTO 23007KT 200V260 9999 FEW018 SCT150 12/08 Q1015 TEMPO 2000 SHRA SCT013 BKN025CB",
      "taf": "TAF LFOB 180500Z 1806/1906 24008KT 9999 BKN030"
    },
    {
      "icao": "LFPO",
      "alert": "OK",
      "vis_m": 9999,
      "fzfg": false,
      "metar_trigger": false,
      "taf_trigger": false,
      "metar": "METAR LFPO 180830Z 25005KT 220V290 9999 SCT018 BKN060 14/09 Q1016 NOSIG",
      "taf": "TAF LFPO 180500Z 1806/1912 25005KT CAVOK"
    },
    {
      "icao": "LFSB",
      "alert": "OK",
      "vis_m": 9999,
      "fzfg": false,
      "metar_trigger": false,
      "taf_trigger": false,
      "metar": "METAR LFSB 180830Z AUTO 11005KT 080V140 9999 BKN022/// BKN037/// BKN052/// ///TCU 13/10 Q1016 TEMPO 29010KT SHRA",
      "taf": "TAF LFSB 180500Z 1806/1906 15004KT CAVOK"
    },
    {
      "icao": "LGAV",
      "alert": "OK",
      "vis_m": 9999,
      "fzfg": false,
      "metar_trigger": false,
      "taf_trigger": false,
      "metar": "METAR LGAV 180850Z 06008KT 360V110 9999 FEW025 24/08 Q1013 NOSIG",
      "taf": "TAF LGAV 180500Z 1806/1906 VRB03KT 9999 FEW030"
    },
    {
      "icao": "LGTS",
      "alert": "OK",
      "vis_m": 9999,
      "fzfg": false,
      "metar_trigger": false,
      "taf_trigger": false,
      "metar": "METAR LGTS 180850Z 30009KT 9999 FEW025 21/09 Q1013 NOSIG",
      "taf": "TAF LGTS 180500Z 1806/1906 33015KT 9999 FEW030"
    },
    {
      "icao": "LHBP",
      "alert": "OK",
      "vis_m": 9999,
      "fzfg": false,
      "metar_trigger": false,
      "taf_trigger": false,
      "metar": "METAR LHBP 180830Z 31009KT 9999 FEW026 SCT035 BKN043 12/08 Q1014 NOSIG",
      "taf": "TAF LHBP 180515Z 1806/1906 31008KT 9999 FEW008 BKN020"
    },
    {
      "icao": "LHDC",
      "alert": "OK",
      "vis_m": 9999,
      "fzfg": false,
      "metar_trigger": false,
      "taf_trigger": false,
      "metar": "METAR LHDC 180815Z AUTO 19009KT 150V240 9999 FEW020 OVC041 15/10 Q1013 NOSIG",
      "taf": "TAF LHDC 180815Z 1809/1818 22009KT 9999 SCT020 OVC040"
    },
    {
      "icao": "LIBD",
      "alert": "OK",
      "vis_m": 9999,
      "fzfg": false,
      "metar_trigger": false,
      "taf_trigger": false,
      "metar": "METAR LIBD 180850Z 35006KT 310V040 CAVOK 20/07 Q1016",
      "taf": "TAF LIBD 180500Z 1806/1906 28007KT CAVOK"
    },
    {
      "icao": "LIBG",
      "alert": "OK",
      "vis_m": 9999,
      "fzfg": false,
      "metar_trigger": false,
      "taf_trigger": false,
      "metar": "METAR LIBG 180750Z 36007KT CAVOK 21/06 Q1015",
      "taf": "TAF LIBG 180800Z 1809/1818 35010KT CAVOK"
    },
    {
      "icao": "LIBP",
      "alert": "OK",
      "vis_m": 9999,
      "fzfg": false,
      "metar_trigger": false,
      "taf_trigger": false,
      "metar": "METAR LIBP 180850Z AUTO 07008KT 020V100 9999 NCD 22/08 Q1015",
      "taf": "TAF LIBP 180500Z 1806/1906 VRB05KT CAVOK"
    },
    {
      "icao": "LIBR",
      "alert": "OK",
      "vis_m": 9999,
      "fzfg": false,
      "metar_trigger": false,
      "taf_trigger": false,
      "metar": "METAR LIBR 180850Z 33014KT CAVOK 18/14 Q1015",
      "taf": "TAF LIBR 180500Z 1806/1906 30013KT CAVOK"
    },
    {
      "icao": "LICA",
      "alert": "OK",
      "vis_m": 9999,
      "fzfg": false,
      "metar_trigger": false,
      "taf_trigger": false,
      "metar": "METAR LICA 180850Z AUTO 24012KT 9999 NCD 20/14 Q1016",
      "taf": "TAF LICA 180500Z 1806/1906 VRB05KT CAVOK"
    },
    {
      "icao": "LICC",
      "alert": "OK",
      "vis_m": 9999,
      "fzfg": false,
      "metar_trigger": false,
      "taf_trigger": false,
      "metar": "METAR LICC 180850Z 09008KT 060V120 9999 FEW050 21/14 Q1016",
      "taf": "TAF LICC 180500Z 1806/1906 VRB05KT 9999 SCT040"
    },
    {
      "icao": "LICJ",
      "alert": "OK",
      "vis_m": 9999,
      "fzfg": false,
      "metar_trigger": false,
      "taf_trigger": false,
      "metar": "METAR LICJ 180850Z 02008KT 9999 FEW035 19/12 Q1017",
      "taf": "TAF LICJ 180500Z 1806/1906 VRB05KT CAVOK"
    },
    {
      "icao": "LIMC",
      "alert": "OK",
      "vis_m": 9999,
      "fzfg": false,
      "metar_trigger": false,
      "taf_trigger": false,
      "metar": "METAR LIMC 180850Z 16004KT 110V200 9999 BKN080 16/08 Q1016 NOSIG",
      "taf": "TAF LIMC 180500Z 1806/1912 VRB05KT 9999 FEW060"
    },
    {
      "icao": "LIME",
      "alert": "OK",
      "vis_m": 9999,
      "fzfg": false,
      "metar_trigger": false,
      "taf_trigger": false,
      "metar": "METAR LIME 180850Z 13005KT 090V220 9999 FEW100 18/08 Q1015 NOSIG",
      "taf": "TAF LIME 180500Z 1806/1906 VRB06KT 9999 FEW040"
    },
    {
      "icao": "LIMF",
      "alert": "OK",
      "vis_m": 9999,
      "fzfg": false,
      "metar_trigger": false,
      "taf_trigger": false,
      "metar": "METAR LIMF 180850Z 05006KT 9999 BKN090 16/08 Q1015",
      "taf": "TAF LIMF 180500Z 1806/1906 VRB05KT 9999 FEW030"
    },
    {
      "icao": "LIMJ",
      "alert": "OK",
      "vis_m": 9999,
      "fzfg": false,
      "metar_trigger": false,
      "taf_trigger": false,
      "metar": "METAR LIMJ 180850Z 14007KT 9999 FEW028 17/11 Q1016",
      "taf": "TAF LIMJ 180500Z 1806/1906 VRB05KT 9999 SCT020"
    },
    {
      "icao": "LIPE",
      "alert": "OK",
      "vis_m": 9999,
      "fzfg": false,
      "metar_trigger": false,
      "taf_trigger": false,
      "metar": "METAR LIPE 180850Z 29006KT 240V350 CAVOK 20/06 Q1015",
      "taf": "TAF LIPE 180500Z 1806/1906 VRB05KT 9999 FEW040"
    },
    {
      "icao": "LIPH",
      "alert": "OK",
      "vis_m": 9999,
      "fzfg": false,
      "metar_trigger": false,
      "taf_trigger": false,
      "metar": "METAR LIPH 180850Z VRB03KT CAVOK 19/09 Q1015",
      "taf": "TAF LIPH 180500Z 1806/1906 VRB05KT 9999 SCT030"
    },
    {
      "icao": "LIPQ",
      "alert": "OK",
      "vis_m": 9999,
      "fzfg": false,
      "metar_trigger": false,
      "taf_trigger": false,
      "metar": "METAR LIPQ 180850Z AUTO VRB02KT 9999 NCD 20/07 Q1015",
      "taf": "TAF LIPQ 180500Z 1806/1906 VRB05KT CAVOK"
    },
    {
      "icao": "LIPR",
      "alert": "OK",
      "vis_m": 9999,
      "fzfg": false,
      "metar_trigger": false,
      "taf_trigger": false,
      "metar": "METAR LIPR 180850Z 05006KT 030V090 CAVOK 20/06 Q1015",
      "taf": "TAF LIPR 180500Z 1806/1906 VRB05KT 9999 FEW040"
    },
    {
      "icao": "LIPX",
      "alert": "OK",
      "vis_m": 9999,
      "fzfg": false,
      "metar_trigger": false,
      "taf_trigger": false,
      "metar": "METAR LIPX 180850Z 11003KT 040V160 CAVOK 18/08 Q1015",
      "taf": "TAF LIPX 180500Z 1806/1906 VRB06KT 9999 FEW040"
    },
    {
      "icao": "LIPY",
      "alert": "OK",
      "vis_m": 9999,
      "fzfg": false,
      "metar_trigger": false,
      "taf_trigger": false,
      "metar": "METAR LIPY 180850Z AUTO 04005KT 340V090 9999 NCD 20/11 Q1015",
      "taf": "TAF LIPY 180500Z 1806/1906 VRB05KT 9999 FEW040"
    },
    {
      "icao": "LIPZ",
      "alert": "OK",
      "vis_m": 9999,
      "fzfg": false,
      "metar_trigger": false,
      "taf_trigger": false,
      "metar": "METAR LIPZ 180850Z 13004KT 100V180 9999 FEW030 19/12 Q1015 NOSIG",
      "taf": "TAF LIPZ 180500Z 1806/1912 VRB05KT 9999 SCT030"
    },
    {
      "icao": "LIRF",
      "alert": "OK",
      "vis_m": 9999,
      "fzfg": false,
      "metar_trigger": false,
      "taf_trigger": false,
      "metar": "METAR LIRF 180850Z 24007KT 210V270 9999 FEW035 20/10 Q1016 NOSIG",
      "taf": "TAF LIRF 180500Z 1806/1912 VRB05KT CAVOK"
    },
    {
      "icao": "LIRN",
      "alert": "OK",
      "vis_m": 9999,
      "fzfg": false,
      "metar_trigger": false,
      "taf_trigger": false,
      "metar": "METAR LIRN 180850Z 19008KT 150V240 9999 SCT040 20/11 Q1017 NOSIG",
      "taf": "TAF LIRN 180500Z 1806/1906 VRB04KT CAVOK"
    },
    {
      "icao": "LIRP",
      "alert": "OK",
      "vis_m": 9999,
      "fzfg": false,
      "metar_trigger": false,
      "taf_trigger": false,
      "metar": "METAR LIRP 180845Z 28005KT 9999 SCT025 18/11 Q1017 NOSIG",
      "taf": "TAF LIRP 180500Z 1806/1906 VRB03KT 9999 FEW025"
    },
    {
      "icao": "LIRZ",
      "alert": "OK",
      "vis_m": 9999,
      "fzfg": false,
      "metar_trigger": false,
      "taf_trigger": false,
      "metar": "METAR LIRZ 180850Z AUTO 23003KT 190V290 9999 NCD 18/11 Q1016",
      "taf": "TAF LIRZ 172300Z 1800/1824 VRB05KT 9999 SCT040"
    },
    {
      "icao": "LJLJ",
      "alert": "OK",
      "vis_m": 9999,
      "fzfg": false,
      "metar_trigger": false,
      "taf_trigger": false,
      "metar": "METAR LJLJ 180830Z 14003KT 110V240 9999 FEW050 16/07 Q1015 NOSIG",
      "taf": "TAF LJLJ 180500Z 1806/1906 30003KT 9999 FEW055"
    },
    {
      "icao": "LKMT",
      "alert": "OK",
      "vis_m": 9999,
      "fzfg": false,
      "metar_trigger": false,
      "taf_trigger": false,
      "metar": "METAR LKMT 180830Z 34004KT 310V010 9999 FEW008 BKN010 OVC012 09/08 Q1015 NOSIG",
      "taf": "TAF LKMT 180500Z 1806/1906 VRB02KT 9999 BKN008"
    },
    {
      "icao": "LKPR",
      "alert": "OK",
      "vis_m": 9999,
      "fzfg": false,
      "metar_trigger": false,
      "taf_trigger": false,
      "metar": "METAR LKPR 180830Z VRB03KT 9999 FEW036 14/05 Q1015 NOSIG",
      "taf": "TAF LKPR 180800Z 1809/1915 30004KT CAVOK"
    },
    {
      "icao": "LLBG",
      "alert": "OK",
      "vis_m": 9999,
      "fzfg": false,
      "metar_trigger": false,
      "taf_trigger": false,
      "metar": "METAR LLBG 180850Z 28004KT 220V330 CAVOK 32/09 Q1009 NOSIG",
      "taf": "TAF LLBG 180503Z 1806/1906 29010KT CAVOK TX33/1812Z TN19/1904Z"
    },
    {
      "icao": "LMML",
      "alert": "OK",
      "vis_m": 9999,
      "fzfg": false,
      "metar_trigger": false,
      "taf_trigger": false,
      "metar": "METAR LMML 180845Z 16008KT 100V190 9999 FEW029 20/12 Q1017 NOSIG",
      "taf": "TAF LMML 172300Z 1800/1824 30008KT 9999 FEW020"
    },
    {
      "icao": "LOWW",
      "alert": "OK",
      "vis_m": 9999,
      "fzfg": false,
      "metar_trigger": false,
      "taf_trigger": false,
      "metar": "METAR LOWW 180850Z VRB03KT CAVOK 15/07 Q1015 NOSIG",
      "taf": "TAF LOWW 180815Z 1809/1915 35010KT CAVOK TX21/1914Z TN07/1903Z"
    },
    {
      "icao": "LPFR",
      "alert": "OK",
      "vis_m": 9999,
      "fzfg": false,
      "metar_trigger": false,
      "taf_trigger": false,
      "metar": "METAR LPFR 180830Z 35007KT 310V030 CAVOK 18/08 Q1020",
      "taf": "TAF LPFR 180500Z 1806/1906 31008KT CAVOK"
    },
    {
      "icao": "LPMA",
      "alert": "OK",
      "vis_m": 9999,
      "fzfg": false,
      "metar_trigger": false,
      "taf_trigger": false,
      "metar": "METAR LPMA 180830Z VRB04KT 9999 SCT013 18/14 Q1024",
      "taf": "TAF LPMA 180500Z 1806/1906 01010KT 9999 SCT015"
    },
    {
      "icao": "LPPR",
      "alert": "OK",
      "vis_m": 9999,
      "fzfg": false,
      "metar_trigger": false,
      "taf_trigger": false,
      "metar": "METAR LPPR 180830Z VRB04KT 9999 FEW020 15/09 Q1020",
      "taf": "TAF LPPR 180500Z 1806/1906 VRB02KT 9999 FEW020"
    },
    {
      "icao": "LPPS",
      "alert": "OK",
      "vis_m": 9999,
      "fzfg": false,
      "metar_trigger": false,
      "taf_trigger": false,
      "metar": "METAR LPPS 180830Z 36011KT 9999 FEW012 18/14 Q1024",
      "taf": "TAF LPPS 180500Z 1806/1912 35012KT 9999 SCT015"
    },
    {
      "icao": "LPPT",
      "alert": "OK",
      "vis_m": 9999,
      "fzfg": false,
      "metar_trigger": false,
      "taf_trigger": false,
      "metar": "METAR LPPT 180830Z 30007KT 270V330 9999 FEW022 BKN025 15/09 Q1020",
      "taf": "TAF LPPT 180500Z 1806/1912 33005KT 9999 FEW020"
    },
    {
      "icao": "LQBK",
      "alert": "OK",
      "vis_m": 9999,
      "fzfg": false,
      "metar_trigger": false,
      "taf_trigger": false,
      "metar": "METAR LQBK 180830Z 12003KT 050V170 CAVOK 17/05 Q1016 NOSIG",
      "taf": "TAF LQBK 172300Z 1800/1824 20004KT CAVOK TX21/1814Z TN05/1804Z"
    },
    {
      "icao": "LQSA",
      "alert": "OK",
      "vis_m": 9999,
      "fzfg": false,
      "metar_trigger": false,
      "taf_trigger": false,
      "metar": "METAR LQSA 180830Z 28003KT 190V330 9999 FEW008 SCT015 09/06 Q1018 NOSIG",
      "taf": ""
    },
    {
      "icao": "LQTZ",
      "alert": "OK",
      "vis_m": 9999,
      "fzfg": false,
      "metar_trigger": false,
      "taf_trigger": false,
      "metar": "METAR LQTZ 180830Z VRB02KT 9999 FEW045 15/11 Q1017",
      "taf": "TAF LQTZ 172300Z 1800/1824 30005KT CAVOK TX29/1814Z TN03/1804Z"
    },
    {
      "icao": "LRBC",
      "alert": "OK",
      "vis_m": 9999,
      "fzfg": false,
      "metar_trigger": false,
      "taf_trigger": false,
      "metar": "METAR LRBC 180830Z 34010KT CAVOK 21/10 Q1009",
      "taf": "TAF LRBC 180800Z 1809/1818 35014KT CAVOK"
    },
    {
      "icao": "LRBS",
      "alert": "OK",
      "vis_m": 9999,
      "fzfg": false,
      "metar_trigger": false,
      "taf_trigger": false,
      "metar": "METAR LRBS 180830Z 25013KT 230V290 CAVOK 19/13 Q1011 NOSIG",
      "taf": "TAF LRBS 180500Z 1806/1906 25010KT CAVOK"
    },
    {
      "icao": "LRBV",
      "alert": "OK",
      "vis_m": 9999,
      "fzfg": false,
      "metar_trigger": false,
      "taf_trigger": false,
      "metar": "METAR LRBV 180830Z 03006KT 330V070 9999 FEW017 SCT023 BKN027 15/11 Q1013",
      "taf": "TAF LRBV 180800Z 1809/1818 31006KT CAVOK"
    },
    {
      "icao": "LRCL",
      "alert": "OK",
      "vis_m": 9999,
      "fzfg": false,
      "metar_trigger": false,
      "taf_trigger": false,
      "metar": "METAR LRCL 180830Z VRB02KT 9999 BKN023 18/13 Q1012",
      "taf": "TAF LRCL 180800Z 1809/1818 VRB04KT CAVOK"
    },
    {
      "icao": "LRCV",
      "alert": "OK",
      "vis_m": 9999,
      "fzfg": false,
      "metar_trigger": false,
      "taf_trigger": false,
      "metar": "METAR LRCV 180830Z 28012KT 9999 SCT022 17/12 Q1013",
      "taf": "TAF LRCV 180800Z 1809/1818 27010KT CAVOK"
    },
    {
      "icao": "LRIA",
      "alert": "OK",
      "vis_m": 9999,
      "fzfg": false,
      "metar_trigger": false,
      "taf_trigger": false,
      "metar": "METAR LRIA 180830Z 30012KT 260V340 CAVOK 19/12 Q1008",
      "taf": "TAF LRIA 180800Z 1809/1818 30012KT CAVOK"
    },
    {
      "icao": "LROP",
      "alert": "OK",
      "vis_m": 9999,
      "fzfg": false,
      "metar_trigger": false,
      "taf_trigger": false,
      "metar": "METAR LROP 180830Z 25012KT CAVOK 20/14 Q1011 NOSIG",
      "taf": "TAF LROP 180500Z 1806/1906 25010KT CAVOK"
    },
    {
      "icao": "LRSB",
      "alert": "OK",
      "vis_m": 9999,
      "fzfg": false,
      "metar_trigger": false,
      "taf_trigger": false,
      "metar": "METAR LRSB 180830Z 34008KT 9999 FEW020 SCT035 17/11 Q1013 NOSIG",
      "taf": "TAF LRSB 180500Z 1806/1906 VRB04KT CAVOK"
    },
    {
      "icao": "LRSM",
      "alert": "OK",
      "vis_m": 9999,
      "fzfg": false,
      "metar_trigger": false,
      "taf_trigger": false,
      "metar": "METAR LRSM 180830Z 30008KT 9999 BKN023 17/11 Q1012",
      "taf": "TAF LRSM 180800Z 1809/1818 27008KT 9999 BKN025"
    },
    {
      "icao": "LRSV",
      "alert": "OK",
      "vis_m": 9999,
      "fzfg": false,
      "metar_trigger": false,
      "taf_trigger": false,
      "metar": "METAR LRSV 180830Z 30011KT 270V340 CAVOK 19/12 Q1009",
      "taf": "TAF LRSV 180800Z 1809/1818 31015KT CAVOK"
    },
    {
      "icao": "LRTM",
      "alert": "OK",
      "vis_m": 9999,
      "fzfg": false,
      "metar_trigger": false,
      "taf_trigger": false,
      "metar": "METAR LRTM 180830Z 30006KT 260V340 9999 SCT025 SCT035 17/12 Q1012",
      "taf": "TAF LRTM 180800Z 1809/1818 29006KT CAVOK"
    },
    {
      "icao": "LRTR",
      "alert": "OK",
      "vis_m": 9999,
      "fzfg": false,
      "metar_trigger": false,
      "taf_trigger": false,
      "metar": "METAR LRTR 180830Z AUTO 20005KT 160V240 9999 SCT012 BKN014 BKN047 12/09 Q1015",
      "taf": "TAF LRTR 180500Z 1806/1906 24006KT 9999 BKN015 OVC035"
    },
    {
      "icao": "LTAC",
      "alert": "OK",
      "vis_m": 9999,
      "fzfg": false,
      "metar_trigger": false,
      "taf_trigger": false,
      "metar": "METAR LTAC 180850Z 28008KT 9999 SCT036 BKN090 13/05 Q1011 NOSIG",
      "taf": "TAF LTAC 180440Z 1806/1906 VRB02KT 9999 SCT040 SCT100"
    },
    {
      "icao": "LTFM",
      "alert": "OK",
      "vis_m": 9999,
      "fzfg": false,
      "metar_trigger": false,
      "taf_trigger": false,
      "metar": "METAR LTFM 180850Z 35009KT 280V010 9999 SCT040 19/10 Q1012 NOSIG",
      "taf": "TAF LTFM 180440Z 1806/1912 30010KT 9999 SCT040"
    },
    {
      "icao": "LUKK",
      "alert": "OK",
      "vis_m": 9999,
      "fzfg": false,
      "metar_trigger": false,
      "taf_trigger": false,
      "metar": "METAR LUKK 180830Z 32011KT 290V350 CAVOK 19/12 Q1007 NOSIG",
      "taf": "TAF LUKK 172316Z 1800/1824 VRB05KT 9999 SCT040"
    },
    {
      "icao": "LWOH",
      "alert": "OK",
      "vis_m": 9999,
      "fzfg": false,
      "metar_trigger": false,
      "taf_trigger": false,
      "metar": "METAR LWOH 180850Z 15007KT 120V190 9999 SCT035 15/11 Q1015",
      "taf": "TAF LWOH 180220Z 1803/1903 VRB02KT 9999 FEW040 SCT090"
    },
    {
      "icao": "LWSK",
      "alert": "OK",
      "vis_m": 9999,
      "fzfg": false,
      "metar_trigger": false,
      "taf_trigger": false,
      "metar": "METAR LWSK 180850Z 33004KT 270V040 9999 BKN040 19/08 Q1015 NOSIG",
      "taf": "TAF LWSK 180220Z 1803/1903 02006KT 9999 BKN050"
    },
    {
      "icao": "LYBE",
      "alert": "OK",
      "vis_m": 9999,
      "fzfg": false,
      "metar_trigger": false,
      "taf_trigger": false,
      "metar": "METAR LYBE 180830Z 29010KT 260V330 9999 FEW035 16/08 Q1016 NOSIG",
      "taf": "TAF LYBE 172300Z 1800/1824 28008KT CAVOK TX20/1813Z TN08/1804Z"
    },
    {
      "icao": "LYNI",
      "alert": "OK",
      "vis_m": 9999,
      "fzfg": false,
      "metar_trigger": false,
      "taf_trigger": false,
      "metar": "METAR LYNI 180830Z 32006KT 260V030 9999 FEW030 BKN040 15/08 Q1016 NOSIG",
      "taf": "TAF LYNI 172300Z 1800/1824 33006KT 9999 SCT015 BKN025 TX21/1813Z TN09/1804Z"
    },
    {
      "icao": "LYPG",
      "alert": "OK",
      "vis_m": 9999,
      "fzfg": false,
      "metar_trigger": false,
      "taf_trigger": false,
      "metar": "METAR LYPG 180830Z 19005KT 130V240 9999 FEW040 20/08 Q1014 NOSIG",
      "taf": "TAF LYPG 172300Z 1800/1824 33008KT CAVOK TX23/1813Z TN13/1804Z"
    },
    {
      "icao": "LZIB",
      "alert": "OK",
      "vis_m": 9999,
      "fzfg": false,
      "metar_trigger": false,
      "taf_trigger": false,
      "metar": "METAR LZIB 180830Z 31008KT 9999 FEW036 15/06 Q1015 NOSIG",
      "taf": "TAF LZIB 180515Z 1806/1906 31012KT CAVOK"
    },
    {
      "icao": "LZKZ",
      "alert": "OK",
      "vis_m": 9999,
      "fzfg": false,
      "metar_trigger": false,
      "taf_trigger": false,
      "metar": "METAR LZKZ 180830Z 26007KT 9999 FEW030 15/10 Q1013 NOSIG",
      "taf": ""
    },
    {
      "icao": "LZTT",
      "alert": "OK",
      "vis_m": 9999,
      "fzfg": false,
      "metar_trigger": false,
      "taf_trigger": false,
      "metar": "METAR LZTT 180830Z VRB02KT 9999 -RA FEW010 OVC019 09/06 Q1013 NOSIG",
      "taf": ""
    },
    {
      "icao": "OEJN",
      "alert": "OK",
      "vis_m": 8000,
      "fzfg": false,
      "metar_trigger": false,
      "taf_trigger": false,
      "metar": "METAR OEJN 180800Z 04014KT 020V080 8000 NSC 44/M11 Q1007 NOSIG",
      "taf": "TAF OEJN 180500Z 1806/1912 08015KT 7000 NSC"
    },
    {
      "icao": "OEMA",
      "alert": "OK",
      "vis_m": 9999,
      "fzfg": false,
      "metar_trigger": false,
      "taf_trigger": false,
      "metar": "METAR OEMA 180800Z VRB03KT CAVOK 36/M02 Q1017 NOSIG",
      "taf": "TAF OEMA 180500Z 1806/1912 10008KT CAVOK"
    },
    {
      "icao": "OJAI",
      "alert": "OK",
      "vis_m": 4000,
      "fzfg": false,
      "metar_trigger": false,
      "taf_trigger": false,
      "metar": "METAR OJAI 180800Z 28017KT 4000 BLDU NSC 31/07 Q1013 NOSIG",
      "taf": "TAF OJAI 180500Z 1806/1912 25012KT 5000 HZ NSC"
    },
    {
      "icao": "OMAA",
      "alert": "OK",
      "vis_m": 9999,
      "fzfg": false,
      "metar_trigger": false,
      "taf_trigger": false,
      "metar": "METAR OMAA 180830Z 29016KT 270V330 CAVOK 33/13 Q1007 NOSIG",
      "taf": "TAF OMAA 180500Z 1806/1912 32014KT 8000 NSC"
    },
    {
      "icao": "OMDB",
      "alert": "OK",
      "vis_m": 9999,
      "fzfg": false,
      "metar_trigger": false,
      "taf_trigger": false,
      "metar": "METAR OMDB 180830Z 26013KT CAVOK 32/17 Q1006 NOSIG",
      "taf": "TAF OMDB 180500Z 1806/1912 31012KT 8000 NSC"
    },
    {
      "icao": "UAAA",
      "alert": "OK",
      "vis_m": 9999,
      "fzfg": false,
      "metar_trigger": false,
      "taf_trigger": false,
      "metar": "METAR UAAA 180830Z 32002MPS 250V050 9999 SCT050 BKN100 BKN200 25/05 Q1009 NOSIG",
      "taf": "TAF UAAA 180502Z 1806/1906 33003MPS 9999 SCT100 TX26/1810Z TN12/1901Z"
    },
    {
      "icao": "UBBB",
      "alert": "OK",
      "vis_m": 9999,
      "fzfg": false,
      "metar_trigger": false,
      "taf_trigger": false,
      "metar": "METAR UBBB 180830Z 18014KT 9999 BKN021 21/17 Q1001 NOSIG",
      "taf": "TAF UBBB 180459Z 1806/1906 18012KT 9999 SCT015 SCT040 TX22/1810Z TN16/1901Z"
    },
    {
      "icao": "UDSG",
      "alert": "OK",
      "vis_m": 9999,
      "fzfg": false,
      "metar_trigger": false,
      "taf_trigger": false,
      "metar": "METAR UDSG 180830Z 23011KT 9999 BKN049CB 14/07 Q1007 NOSIG",
      "taf": "TAF UDSG 180458Z 1806/1906 24006KT 9999 SCT040"
    },
    {
      "icao": "UDYZ",
      "alert": "OK",
      "vis_m": 9999,
      "fzfg": false,
      "metar_trigger": false,
      "taf_trigger": false,
      "metar": "METAR UDYZ 180830Z 27006KT 9999 SCT043CB 19/08 Q1005 NOSIG",
      "taf": ""
    },
    {
      "icao": "UGKO",
      "alert": "OK",
      "vis_m": 9999,
      "fzfg": false,
      "metar_trigger": false,
      "taf_trigger": false,
      "metar": "METAR UGKO 180830Z 28011KT 250V310 9999 SCT024 BKN030 17/12 Q1006 NOSIG",
      "taf": "TAF UGKO 180500Z 1806/1906 26010KT 9999 BKN050 TX19/1811Z TN13/1902Z"
    }
  ]
}