{
  "ts_utc": "2026-02-12T03:13:26Z",
  "threshold_m": 150,
  "source": "stations_override.txt (ICAO list) + aviationweather.gov (METAR/TAF raw)",
  "station_count": 159,
  "stations": [
    {
      "icao": "BIKF",
      "alert": "OK",
      "vis_m": 9999,
      "fzfg": false,
      "metar_trigger": false,
      "taf_trigger": false,
      "metar": "METAR BIKF 120300Z 02007KT CAVOK M05/M10 Q1007",
      "taf": "TAF BIKF 120126Z 1203/1303 06008KT CAVOK TXM02/1218Z TNM08/1208Z"
    },
    {
      "icao": "BKPR",
      "alert": "OK",
      "vis_m": 9999,
      "fzfg": false,
      "metar_trigger": false,
      "taf_trigger": false,
      "metar": "METAR BKPR 120300Z 15004KT 130V190 9999 SCT015 BKN030 06/05 Q0996 NOSIG",
      "taf": "TAF BKPR 112330Z 1200/1224 18008KT 9999 SCT015 BKN040"
    },
    {
      "icao": "EBCI",
      "alert": "OK",
      "vis_m": 9999,
      "fzfg": false,
      "metar_trigger": false,
      "taf_trigger": false,
      "metar": "METAR EBCI 120250Z 21009KT 9999 FEW006 BKN008 09/08 Q0973 TEMPO 4000 RADZ",
      "taf": "TAF EBCI 112304Z 1200/1306 17008KT 7000 -RA SCT012 BKN020"
    },
    {
      "icao": "EDDB",
      "alert": "OK",
      "vis_m": 1000,
      "fzfg": false,
      "metar_trigger": false,
      "taf_trigger": false,
      "metar": "METAR EDDB 120250Z AUTO 13004KT 1000 0750 R24R/0900N R24L/1800U BCFG BKN002 04/04 Q0980 REDZ NOSIG",
      "taf": "TAF EDDB 112300Z 1200/1224 16004KT 3000 BR OVC002"
    },
    {
      "icao": "EDDH",
      "alert": "OK",
      "vis_m": 6000,
      "fzfg": false,
      "metar_trigger": false,
      "taf_trigger": false,
      "metar": "METAR EDDH 120250Z AUTO 08007KT 040V100 6000 OVC003 01/01 Q0979 TEMPO 2000 SHRA",
      "taf": ""
    },
    {
      "icao": "EDDK",
      "alert": "OK",
      "vis_m": 9999,
      "fzfg": false,
      "metar_trigger": false,
      "taf_trigger": false,
      "metar": "METAR EDDK 120250Z AUTO 12008KT 9999 -SHRA SCT027 BKN040 FEW///TCU 08/07 Q0975 RESHRA TEMPO RA",
      "taf": "TAF EDDK 112300Z 1200/1306 13009KT 9999 BKN030"
    },
    {
      "icao": "EDDN",
      "alert": "OK",
      "vis_m": 9999,
      "fzfg": false,
      "metar_trigger": false,
      "taf_trigger": false,
      "metar": "METAR EDDN 120250Z AUTO 15006KT 9999 -RA BKN039 06/04 Q0983",
      "taf": "TAF EDDN 112300Z 1200/1224 21005KT 9999 SCT025"
    },
    {
      "icao": "EDDS",
      "alert": "OK",
      "vis_m": 9999,
      "fzfg": false,
      "metar_trigger": false,
      "taf_trigger": false,
      "metar": "METAR EDDS 120250Z AUTO 18010KT 9999 SHRA BKN035 FEW///TCU 06/04 Q0981",
      "taf": "TAF EDDS 112300Z 1200/1224 19006KT 9999 BKN020"
    },
    {
      "icao": "EDFH",
      "alert": "OK",
      "vis_m": 9999,
      "fzfg": false,
      "metar_trigger": false,
      "taf_trigger": false,
      "metar": "METAR EDFH 120250Z 20017KT 9999 -RA FEW006 BKN011 OVC021 07/06 Q0976",
      "taf": "TAF EDFH 112300Z 1200/1224 19010G20KT 9999 SCT005 BKN015"
    },
    {
      "icao": "EDJA",
      "alert": "OK",
      "vis_m": 9999,
      "fzfg": false,
      "metar_trigger": false,
      "taf_trigger": false,
      "metar": "METAR EDJA 120250Z AUTO 20007KT 170V230 9999 // FEW031/// OVC040/// 05/03 Q0985",
      "taf": "TAF EDJA 120200Z 1203/1212 20005KT 9999 BKN020 OVC030"
    },
    {
      "icao": "EDLW",
      "alert": "OK",
      "vis_m": 9999,
      "fzfg": false,
      "metar_trigger": false,
      "taf_trigger": false,
      "metar": "METAR EDLW 120250Z AUTO 11006KT 9999 // BKN036/// OVC043/// 08/06 Q0975",
      "taf": "TAF EDLW 111700Z 1118/1218 21009KT 9999 FEW010 OVC030"
    },
    {
      "icao": "EDNY",
      "alert": "OK",
      "vis_m": 9999,
      "fzfg": false,
      "metar_trigger": false,
      "taf_trigger": false,
      "metar": "METAR EDNY 120250Z AUTO 09003KT 050V120 9999 // SCT051/// BKN059/// BKN081/// 05/04 Q0984",
      "taf": "TAF EDNY 120200Z 1203/1212 12003KT 9999 BKN030"
    },
    {
      "icao": "EDSB",
      "alert": "OK",
      "vis_m": 9999,
      "fzfg": false,
      "metar_trigger": false,
      "taf_trigger": false,
      "metar": "METAR EDSB 120250Z AUTO 19015KT 9999 BKN058/// BKN100/// 10/07 Q0980",
      "taf": "TAF EDSB 112300Z 1200/1224 20010KT 9999 BKN030"
    },
    {
      "icao": "EETN",
      "alert": "OK",
      "vis_m": 9999,
      "fzfg": false,
      "metar_trigger": false,
      "taf_trigger": false,
      "metar": "METAR EETN 120250Z 11006KT CAVOK M08/M11 Q0992",
      "taf": "TAF EETN 112330Z 1200/1224 14006KT 9999 BKN040"
    },
    {
      "icao": "EFTU",
      "alert": "OK",
      "vis_m": 9999,
      "fzfg": false,
      "metar_trigger": false,
      "taf_trigger": false,
      "metar": "METAR EFTU 120250Z AUTO 05008KT CAVOK M10/M12 Q0992",
      "taf": "TAF EFTU 120232Z 1203/1303 05008KT 9999 FEW010"
    },
    {
      "icao": "EGBB",
      "alert": "OK",
      "vis_m": 9999,
      "fzfg": false,
      "metar_trigger": false,
      "taf_trigger": false,
      "metar": "METAR EGBB 120250Z 28003KT 260V320 9999 BKN039 07/05 Q0978",
      "taf": "TAF EGBB 112259Z 1200/1224 28004KT 9999 SCT040"
    },
    {
      "icao": "EGGP",
      "alert": "OK",
      "vis_m": 1600,
      "fzfg": false,
      "metar_trigger": false,
      "taf_trigger": false,
      "metar": "METAR EGGP 120250Z 28005KT 1600 BR SCT001 BKN007 OVC011 07/06 Q0978",
      "taf": ""
    },
    {
      "icao": "EGGW",
      "alert": "OK",
      "vis_m": 9999,
      "fzfg": false,
      "metar_trigger": false,
      "taf_trigger": false,
      "metar": "METAR EGGW 120250Z AUTO 29009KT 9999 OVC046 07/06 Q0977",
      "taf": "TAF EGGW 112300Z 1200/1224 27004KT 9999 SCT020"
    },
    {
      "icao": "EGKK",
      "alert": "OK",
      "vis_m": 9999,
      "fzfg": false,
      "metar_trigger": false,
      "taf_trigger": false,
      "metar": "METAR EGKK 120250Z 30008KT 9999 BKN008 08/07 Q0978",
      "taf": "TAF EGKK 112300Z 1200/1306 VRB03KT 9999 SCT030"
    },
    {
      "icao": "EGNM",
      "alert": "OK",
      "vis_m": null,
      "fzfg": false,
      "metar_trigger": false,
      "taf_trigger": false,
      "metar": "",
      "taf": "TAF EGNM 111702Z 1118/1218 02008KT 9999 SCT005"
    },
    {
      "icao": "EGPD",
      "alert": "OK",
      "vis_m": 9999,
      "fzfg": false,
      "metar_trigger": false,
      "taf_trigger": false,
      "metar": "METAR EGPD 120250Z AUTO 06010KT 030V100 9999 BKN029 OVC035 03/M02 Q0987 TEMPO BKN012",
      "taf": "TAF EGPD 112254Z 1200/1224 09012KT 9999 SCT012 BKN025"
    },
    {
      "icao": "EGPF",
      "alert": "OK",
      "vis_m": 9999,
      "fzfg": false,
      "metar_trigger": false,
      "taf_trigger": false,
      "metar": "METAR EGPF 120250Z 05014KT 9999 -RA BKN017 03/01 Q0984",
      "taf": "TAF EGPF 112303Z 1200/1224 07013KT 9999 BKN025"
    },
    {
      "icao": "EHBK",
      "alert": "OK",
      "vis_m": 9999,
      "fzfg": false,
      "metar_trigger": false,
      "taf_trigger": false,
      "metar": "METAR EHBK 120255Z AUTO 18005KT 9999 DZ FEW009 SCT011 BKN014 FEW015CB 09/08 Q0974",
      "taf": "TAF EHBK 112313Z 1200/1306 09007KT 9999 SCT025"
    },
    {
      "icao": "EHEH",
      "alert": "OK",
      "vis_m": 9999,
      "fzfg": false,
      "metar_trigger": false,
      "taf_trigger": false,
      "metar": "METAR EHEH 120255Z AUTO 08006KT 9999 DZ FEW015CB SCT025 OVC034 08/08 Q0973 BLU",
      "taf": "TAF EHEH 112340Z 1200/1306 14005KT OVC040"
    },
    {
      "icao": "EKBI",
      "alert": "OK",
      "vis_m": 9999,
      "fzfg": false,
      "metar_trigger": false,
      "taf_trigger": false,
      "metar": "METAR EKBI 120250Z AUTO 07015KT 9999 OVC008/// M01/M02 Q0984",
      "taf": "TAF EKBI 120227Z 1203/1303 08015KT 9000 BKN012"
    },
    {
      "icao": "EKCH",
      "alert": "OK",
      "vis_m": 9999,
      "fzfg": false,
      "metar_trigger": false,
      "taf_trigger": false,
      "metar": "METAR EKCH 120250Z 07015KT 9999 BKN011 M00/M02 Q0985 TEMPO BKN015",
      "taf": "TAF EKCH 120227Z 1203/1303 07015KT 8000 BKN015"
    },
    {
      "icao": "ENAL",
      "alert": "OK",
      "vis_m": 9999,
      "fzfg": false,
      "metar_trigger": false,
      "taf_trigger": false,
      "metar": "METAR ENAL 120250Z AUTO 15010KT 9999 BKN038/// M02/M07 Q0991",
      "taf": "TAF ENAL 120200Z 1203/1212 17008KT CAVOK"
    },
    {
      "icao": "ENBR",
      "alert": "OK",
      "vis_m": 9999,
      "fzfg": false,
      "metar_trigger": false,
      "taf_trigger": false,
      "metar": "METAR ENBR 120250Z 09003KT 9999 SCT046 M03/M08 Q0991 RMK WIND 1200FT 14008KT",
      "taf": "TAF ENBR 112300Z 1200/1224 VRB03KT 9999 FEW020 BKN040"
    },
    {
      "icao": "ENGM",
      "alert": "OK",
      "vis_m": 9999,
      "fzfg": false,
      "metar_trigger": false,
      "taf_trigger": false,
      "metar": "METAR ENGM 120250Z 35003KT 320V050 9999 BKN039 M08/M12 Q0993",
      "taf": "TAF ENGM 112300Z 1200/1224 01008KT 9999 -SN BKN025"
    },
    {
      "icao": "ENHD",
      "alert": "OK",
      "vis_m": 9999,
      "fzfg": false,
      "metar_trigger": false,
      "taf_trigger": false,
      "metar": "METAR ENHD 120250Z AUTO 11005KT 9999 OVC042/// M01/M09 Q0991",
      "taf": "TAF ENHD 120200Z 1203/1212 09005KT 9999 BKN040"
    },
    {
      "icao": "ENTC",
      "alert": "OK",
      "vis_m": 9999,
      "fzfg": false,
      "metar_trigger": false,
      "taf_trigger": false,
      "metar": "METAR ENTC 120250Z AUTO 23009KT 9999 NCD M08/M11 Q0995 RMK WIND 2600FT 21007KT",
      "taf": "TAF ENTC 112300Z 1200/1224 20005KT CAVOK"
    },
    {
      "icao": "ENTO",
      "alert": "OK",
      "vis_m": 9999,
      "fzfg": false,
      "metar_trigger": false,
      "taf_trigger": false,
      "metar": "METAR ENTO 120250Z AUTO 04008KT 9999 SCT036/// BKN046/// M06/M10 Q0993",
      "taf": "TAF ENTO 112300Z 1200/1224 02008KT 9999 FEW015 BKN030"
    },
    {
      "icao": "ENVA",
      "alert": "OK",
      "vis_m": 9999,
      "fzfg": false,
      "metar_trigger": false,
      "taf_trigger": false,
      "metar": "METAR ENVA 120250Z AUTO 10006KT 9999 NCD M12/M16 Q0994 RMK WIND 670FT 11010KT",
      "taf": "TAF ENVA 112300Z 1200/1224 12008KT CAVOK"
    },
    {
      "icao": "ENZV",
      "alert": "OK",
      "vis_m": 9999,
      "fzfg": false,
      "metar_trigger": false,
      "taf_trigger": false,
      "metar": "METAR ENZV 120250Z AUTO 00000KT 9999 NCD M06/M09 Q0991",
      "taf": "TAF ENZV 112300Z 1200/1224 10005KT 9999 FEW020 BKN040"
    },
    {
      "icao": "EPGD",
      "alert": "OK",
      "vis_m": 200,
      "fzfg": true,
      "metar_trigger": false,
      "taf_trigger": false,
      "metar": "METAR EPGD 120300Z 06003KT 0200 R29/0600N FZFG VV001 M00/M00 Q0984",
      "taf": "TAF EPGD 112330Z 1200/1224 05004KT 1000 BR OVC002"
    },
    {
      "icao": "EPKK",
      "alert": "OK",
      "vis_m": 9999,
      "fzfg": false,
      "metar_trigger": false,
      "taf_trigger": false,
      "metar": "METAR EPKK 120300Z 22004KT 9999 -RA SCT029 BKN062 06/04 Q0985",
      "taf": "TAF EPKK 120230Z 1203/1303 24004KT 7000 BKN025"
    },
    {
      "icao": "EPKT",
      "alert": "OK",
      "vis_m": 9999,
      "fzfg": false,
      "metar_trigger": false,
      "taf_trigger": false,
      "metar": "METAR EPKT 120300Z 21012KT 9999 -RA OVC005 06/05 Q0984",
      "taf": "TAF EPKT 112330Z 1200/1224 22012KT 9999 OVC025"
    },
    {
      "icao": "EPLB",
      "alert": "OK",
      "vis_m": 9999,
      "fzfg": false,
      "metar_trigger": false,
      "taf_trigger": false,
      "metar": "METAR EPLB 120300Z 19007KT 9999 -RA OVC021 03/03 Q0986",
      "taf": ""
    },
    {
      "icao": "EPMO",
      "alert": "OK",
      "vis_m": 7000,
      "fzfg": false,
      "metar_trigger": false,
      "taf_trigger": false,
      "metar": "METAR EPMO 120300Z 16005KT 7000 OVC028 02/01 Q0984",
      "taf": ""
    },
    {
      "icao": "EPPO",
      "alert": "OK",
      "vis_m": 150,
      "fzfg": false,
      "metar_trigger": false,
      "taf_trigger": false,
      "metar": "METAR EPPO 120300Z 14003KT 0150 R28/0600N FG VV002 02/02 Q0982",
      "taf": ""
    },
    {
      "icao": "EPRA",
      "alert": "OK",
      "vis_m": 6000,
      "fzfg": false,
      "metar_trigger": false,
      "taf_trigger": false,
      "metar": "METAR EPRA 120300Z 18007KT 6000 -RA BKN004 OVC013 02/01 Q0984",
      "taf": "TAF EPRA 120230Z 1203/1212 18008KT 6000 -RA BKN007 OVC012"
    },
    {
      "icao": "EPRZ",
      "alert": "OK",
      "vis_m": 9999,
      "fzfg": false,
      "metar_trigger": false,
      "taf_trigger": false,
      "metar": "METAR EPRZ 120300Z 18009KT 9999 OVC040 05/04 Q0987",
      "taf": "TAF EPRZ 112330Z 1200/1224 20012KT 9999 BKN035"
    },
    {
      "icao": "EPSC",
      "alert": "OK",
      "vis_m": 2200,
      "fzfg": false,
      "metar_trigger": false,
      "taf_trigger": false,
      "metar": "METAR EPSC 120300Z 05002KT 2200 -RA BR OVC002 01/01 Q0982",
      "taf": "TAF EPSC 112330Z 1200/1224 06003KT 2500 -RA BR OVC002"
    },
    {
      "icao": "EPSY",
      "alert": "OK",
      "vis_m": 2100,
      "fzfg": false,
      "metar_trigger": false,
      "taf_trigger": false,
      "metar": "METAR EPSY 120300Z VRB01KT 2100 -RASN BR FEW002 OVC032 00/00 Q0984",
      "taf": "TAF EPSY 120230Z 1203/1212 VRB02KT 5000 BR BKN030"
    },
    {
      "icao": "EPWA",
      "alert": "OK",
      "vis_m": 9999,
      "fzfg": false,
      "metar_trigger": false,
      "taf_trigger": false,
      "metar": "METAR EPWA 120300Z 14003KT 9999 -RA SCT014 BKN023 01/00 Q0984 BECMG BKN012",
      "taf": "TAF EPWA 120230Z 1203/1303 14005KT 9999 -RA BKN030"
    },
    {
      "icao": "EPWR",
      "alert": "OK",
      "vis_m": 9999,
      "fzfg": false,
      "metar_trigger": false,
      "taf_trigger": false,
      "metar": "METAR EPWR 120300Z 12003KT 9999 FEW005 SCT017 BKN028 04/04 Q0983",
      "taf": "TAF EPWR 120230Z 1203/1303 12003KT 9999 SCT005 BKN015"
    },
    {
      "icao": "ESGG",
      "alert": "OK",
      "vis_m": 9999,
      "fzfg": false,
      "metar_trigger": false,
      "taf_trigger": false,
      "metar": "METAR ESGG 120250Z 04010KT 9999 BKN010 OVC036 M04/M06 Q0989",
      "taf": "TAF ESGG 120230Z 1203/1303 04009KT 9999 BKN035"
    },
    {
      "icao": "ESKN",
      "alert": "OK",
      "vis_m": 8000,
      "fzfg": false,
      "metar_trigger": false,
      "taf_trigger": false,
      "metar": "METAR ESKN 120250Z 34005KT 8000 -SN BKN024 M07/M09 Q0992",
      "taf": "TAF ESKN 120230Z 1203/1303 34006KT 9999 -SN BKN025"
    },
    {
      "icao": "ESMS",
      "alert": "OK",
      "vis_m": 7000,
      "fzfg": false,
      "metar_trigger": false,
      "taf_trigger": false,
      "metar": "METAR ESMS 120250Z 06015KT 7000 OVC005 M01/M01 Q0985",
      "taf": "TAF ESMS 120227Z 1203/1303 07015KT 6000 OVC015"
    },
    {
      "icao": "ESSA",
      "alert": "OK",
      "vis_m": 9999,
      "fzfg": false,
      "metar_trigger": false,
      "taf_trigger": false,
      "metar": "METAR ESSA 120250Z 33006KT 9999 FEW009 OVC051 M09/M11 Q0992 NOSIG",
      "taf": "TAF ESSA 120230Z 1203/1303 35007KT 9999 SCT045"
    },
    {
      "icao": "EYKA",
      "alert": "OK",
      "vis_m": 2200,
      "fzfg": false,
      "metar_trigger": false,
      "taf_trigger": false,
      "metar": "METAR EYKA 120250Z VRB02KT 2200 -SNRA BR OVC003 00/00 Q0986",
      "taf": ""
    },
    {
      "icao": "EYPA",
      "alert": "OK",
      "vis_m": 7000,
      "fzfg": false,
      "metar_trigger": false,
      "taf_trigger": false,
      "metar": "METAR EYPA 120250Z 07008KT 7000 OVC014 M06/M08 Q0987",
      "taf": "TAF EYPA 112300Z 1200/1224 VRB05KT 5000 BR SCT010 BKN015"
    },
    {
      "icao": "EYVI",
      "alert": "OK",
      "vis_m": 8000,
      "fzfg": false,
      "metar_trigger": false,
      "taf_trigger": false,
      "metar": "METAR EYVI 120250Z 16007KT 8000 -SN OVC006 M01/M01 Q0986 NOSIG",
      "taf": "TAF EYVI 112306Z 1200/1224 VRB04KT 5000 SN BR BKN005"
    },
    {
      "icao": "GCFV",
      "alert": "OK",
      "vis_m": 9999,
      "fzfg": false,
      "metar_trigger": false,
      "taf_trigger": false,
      "metar": "METAR GCFV 120300Z AUTO 03013KT 9999 OVC010 18/16 Q1025",
      "taf": "TAF GCFV 120200Z 1203/1303 05012KT 9999 BKN016 TX22/1214Z TN17/1206Z"
    },
    {
      "icao": "GCLP",
      "alert": "OK",
      "vis_m": 9999,
      "fzfg": false,
      "metar_trigger": false,
      "taf_trigger": false,
      "metar": "METAR GCLP 120300Z 01013KT 9999 FEW015 SCT020 18/15 Q1025 NOSIG",
      "taf": "TAF GCLP 120200Z 1203/1303 02014KT 9999 SCT015 TX23/1214Z TN17/1206Z"
    },
    {
      "icao": "GCTS",
      "alert": "OK",
      "vis_m": 9999,
      "fzfg": false,
      "metar_trigger": false,
      "taf_trigger": false,
      "metar": "METAR GCTS 120300Z 04005KT 9999 FEW015 17/14 Q1024 NOSIG",
      "taf": "TAF GCTS 120200Z 1203/1303 04009KT 9999 FEW020 TX25/1214Z TN17/1206Z"
    },
    {
      "icao": "GMAD",
      "alert": "OK",
      "vis_m": 3000,
      "fzfg": false,
      "metar_trigger": false,
      "taf_trigger": false,
      "metar": "METAR GMAD 120300Z 00000KT 3000 BR OVC006 16/16 Q1023 NOSIG",
      "taf": "TAF GMAD 112300Z 1200/1306 12004KT 3000 BR BKN006"
    },
    {
      "icao": "GMMN",
      "alert": "OK",
      "vis_m": 5000,
      "fzfg": false,
      "metar_trigger": false,
      "taf_trigger": false,
      "metar": "METAR GMMN 120300Z 17004KT 5000 SCT005 SCT016 13/12 Q1026 NOSIG",
      "taf": "TAF GMMN 112300Z 1200/1306 VRB01KT 8000 SCT005"
    },
    {
      "icao": "GMMX",
      "alert": "OK",
      "vis_m": 400,
      "fzfg": false,
      "metar_trigger": false,
      "taf_trigger": false,
      "metar": "METAR GMMX 120300Z 30003KT 270V340 0400 FG OVC004 15/15 Q1026 TEMPO 2000 BR BKN010",
      "taf": "TAF GMMX 112300Z 1200/1306 24008KT 8000 NSC"
    },
    {
      "icao": "HEGN",
      "alert": "OK",
      "vis_m": 9999,
      "fzfg": false,
      "metar_trigger": false,
      "taf_trigger": false,
      "metar": "METAR HEGN 120200Z 27006KT CAVOK 17/M01 Q1017 NOSIG",
      "taf": "TAF HEGN 112300Z 1200/1306 27008KT 6000 NSC"
    },
    {
      "icao": "HEMA",
      "alert": "OK",
      "vis_m": 9999,
      "fzfg": false,
      "metar_trigger": false,
      "taf_trigger": false,
      "metar": "METAR HEMA 120200Z 28006KT CAVOK 18/06 Q1016 NOSIG",
      "taf": "TAF HEMA 112300Z 1200/1306 28008KT CAVOK"
    },
    {
      "icao": "HESH",
      "alert": "OK",
      "vis_m": 9999,
      "fzfg": false,
      "metar_trigger": false,
      "taf_trigger": false,
      "metar": "METAR HESH 120200Z 34005KT CAVOK 20/08 Q1016 NOSIG",
      "taf": "TAF HESH 112300Z 1200/1306 32008KT 6000 NSC"
    },
    {
      "icao": "HESX",
      "alert": "OK",
      "vis_m": 9999,
      "fzfg": false,
      "metar_trigger": false,
      "taf_trigger": false,
      "metar": "METAR HESX 120200Z 20008KT CAVOK 14/02 Q1015 NOSIG",
      "taf": "TAF HESX 112300Z 1200/1306 20009KT 7000 NSC"
    },
    {
      "icao": "LATI",
      "alert": "OK",
      "vis_m": 7000,
      "fzfg": false,
      "metar_trigger": false,
      "taf_trigger": false,
      "metar": "METAR LATI 120250Z VRB01KT 7000 -DZ OVC033 10/08 Q0996 NOSIG",
      "taf": "TAF LATI 112300Z 1200/1224 VRB05KT 9999 -RA SCT035 OVC060 TX15/1212Z TN08/1204Z"
    },
    {
      "icao": "LBPD",
      "alert": "OK",
      "vis_m": 9999,
      "fzfg": false,
      "metar_trigger": false,
      "taf_trigger": false,
      "metar": "METAR LBPD 120300Z AUTO 28005KT 9999 -RA OVC010/// 02/02 Q0999",
      "taf": "TAF LBPD 112300Z 1200/1224 VRB04KT 9999 BKN010"
    },
    {
      "icao": "LBSF",
      "alert": "OK",
      "vis_m": 9999,
      "fzfg": false,
      "metar_trigger": false,
      "taf_trigger": false,
      "metar": "METAR LBSF 120300Z AUTO VRB02KT 9999 FEW009/// M00/M01 Q0998 NOSIG",
      "taf": "TAF LBSF 112300Z 1200/1224 10010KT 9999 SCT060"
    },
    {
      "icao": "LBWN",
      "alert": "OK",
      "vis_m": 9000,
      "fzfg": false,
      "metar_trigger": false,
      "taf_trigger": false,
      "metar": "METAR LBWN 120300Z AUTO 12007KT 100V260 9000 NSC 04/04 Q0999 TEMPO 4000 BR",
      "taf": "TAF LBWN 112300Z 1200/1224 VRB04KT 9999 BKN023"
    },
    {
      "icao": "LCLK",
      "alert": "OK",
      "vis_m": 9999,
      "fzfg": false,
      "metar_trigger": false,
      "taf_trigger": false,
      "metar": "METAR LCLK 120300Z 23005KT 9999 SCT040 BKN060 13/13 Q1011 NOSIG",
      "taf": "TAF LCLK 112330Z 1200/1300 24009KT 9999 FEW030"
    },
    {
      "icao": "LCPH",
      "alert": "OK",
      "vis_m": 9999,
      "fzfg": false,
      "metar_trigger": false,
      "taf_trigger": false,
      "metar": "METAR LCPH 120300Z AUTO 24009KT 200V260 9999 BKN080 17/13 Q1011 NOSIG",
      "taf": "TAF LCPH 112330Z 1200/1300 24009KT 9999 FEW025 SCT035"
    },
    {
      "icao": "LEAL",
      "alert": "OK",
      "vis_m": 9999,
      "fzfg": false,
      "metar_trigger": false,
      "taf_trigger": false,
      "metar": "METAR LEAL 120300Z 28016KT 240V320 CAVOK 21/11 Q1009 NOSIG",
      "taf": ""
    },
    {
      "icao": "LEBB",
      "alert": "OK",
      "vis_m": 9999,
      "fzfg": false,
      "metar_trigger": false,
      "taf_trigger": false,
      "metar": "METAR LEBB 120300Z AUTO 28020G33KT 240V300 9999 BKN042 BKN050 14/05 Q1005",
      "taf": "TAF LEBB 112300Z 1200/1224 28013KT 9999 FEW060 TX16/1214Z TN12/1208Z"
    },
    {
      "icao": "LEBL",
      "alert": "OK",
      "vis_m": 9999,
      "fzfg": false,
      "metar_trigger": false,
      "taf_trigger": false,
      "metar": "METAR LEBL 120300Z 27027G38KT 9999 FEW025 17/05 Q0999 NOSIG",
      "taf": "TAF LEBL 112300Z 1200/1224 28025KT 9999 SCT030 TX20/1212Z TN13/1206Z"
    },
    {
      "icao": "LECH",
      "alert": "OK",
      "vis_m": 9000,
      "fzfg": false,
      "metar_trigger": false,
      "taf_trigger": false,
      "metar": "METAR LECH 120300Z AUTO 28019G29KT 240V320 9000 NCD 16/M03 Q1006",
      "taf": ""
    },
    {
      "icao": "LEMD",
      "alert": "OK",
      "vis_m": 9999,
      "fzfg": false,
      "metar_trigger": false,
      "taf_trigger": false,
      "metar": "METAR LEMD 120300Z 26018KT CAVOK 10/02 Q1013 NOSIG",
      "taf": ""
    },
    {
      "icao": "LEMG",
      "alert": "OK",
      "vis_m": 9999,
      "fzfg": false,
      "metar_trigger": false,
      "taf_trigger": false,
      "metar": "METAR LEMG 120300Z 30001KT 9999 OVC040 15/13 Q1018 NOSIG",
      "taf": "TAF LEMG 112300Z 1200/1224 VRB03KT 9999 SCT030 TX23/1214Z TN11/1207Z"
    },
    {
      "icao": "LEVC",
      "alert": "OK",
      "vis_m": 9999,
      "fzfg": false,
      "metar_trigger": false,
      "taf_trigger": false,
      "metar": "METAR LEVC 120300Z 25021G31KT CAVOK 17/07 Q1008 NOSIG",
      "taf": "TAF LEVC 112300Z 1200/1224 27015KT 9999 FEW045 TX21/1214Z TN15/1206Z"
    },
    {
      "icao": "LEXJ",
      "alert": "OK",
      "vis_m": 9999,
      "fzfg": false,
      "metar_trigger": false,
      "taf_trigger": false,
      "metar": "METAR LEXJ 120300Z AUTO 28027G40KT 250V320 9999 4700E FEW049 SCT066 14/04 Q1006",
      "taf": "TAF LEXJ 120200Z 1203/1303 27015KT 9999 FEW050 TX16/1213Z TN10/1207Z"
    },
    {
      "icao": "LEZG",
      "alert": "OK",
      "vis_m": 9999,
      "fzfg": false,
      "metar_trigger": false,
      "taf_trigger": false,
      "metar": "METAR LEZG 120300Z 27024KT CAVOK 14/03 Q1004 NOSIG",
      "taf": "TAF LEZG 112300Z 1200/1224 27015KT 9999 FEW050 TX17/1212Z TN10/1206Z"
    },
    {
      "icao": "LEZL",
      "alert": "OK",
      "vis_m": 9000,
      "fzfg": false,
      "metar_trigger": false,
      "taf_trigger": false,
      "metar": "METAR LEZL 120300Z AUTO 26013KT 9000 NSC 17/15 Q1020",
      "taf": "TAF LEZL 120200Z 1203/1303 26005KT 9999 SCT030 TX20/1215Z TN13/1207Z"
    },
    {
      "icao": "LFBD",
      "alert": "OK",
      "vis_m": 5000,
      "fzfg": false,
      "metar_trigger": false,
      "taf_trigger": false,
      "metar": "METAR LFBD 120300Z AUTO 29031G46KT 5000 +RA BR BKN016/// OVC021/// ///CB 11/09 Q0995 TEMPO 27040G60KT 1400 TSRA BKN014 BKN025CB",
      "taf": "TAF LFBD 112300Z 1200/1306 26020G35KT 9999 BKN030 TX13/1212Z TN08/1306Z"
    },
    {
      "icao": "LFLL",
      "alert": "OK",
      "vis_m": 9999,
      "fzfg": false,
      "metar_trigger": false,
      "taf_trigger": false,
      "metar": "METAR LFLL 120300Z 20015KT 9999 FEW040 SCT060 BKN130 11/06 Q0987 TEMPO 20025G35KT 3000 SHRA",
      "taf": "TAF LFLL 112300Z 1200/1306 18020KT CAVOK"
    },
    {
      "icao": "LFLS",
      "alert": "OK",
      "vis_m": 9999,
      "fzfg": false,
      "metar_trigger": false,
      "taf_trigger": false,
      "metar": "METAR LFLS 120300Z AUTO 19014KT 9999 OVC048 10/05 Q0988 TEMPO 20020G30KT RA SCT035TCU",
      "taf": "TAF LFLS 120200Z 1203/1303 20012KT 9999 FEW025 OVC045"
    },
    {
      "icao": "LFMN",
      "alert": "OK",
      "vis_m": 9999,
      "fzfg": false,
      "metar_trigger": false,
      "taf_trigger": false,
      "metar": "METAR LFMN 120300Z 31003KT 9999 FEW033 BKN050 11/07 Q0989 BECMG 26015G25KT",
      "taf": "TAF LFMN 120200Z 1203/1309 25015G25KT CAVOK"
    },
    {
      "icao": "LFOB",
      "alert": "OK",
      "vis_m": 4200,
      "fzfg": false,
      "metar_trigger": false,
      "taf_trigger": false,
      "metar": "METAR LFOB 120300Z AUTO 26010KT 4200 RA BR BKN007 OVC016 10/10 Q0975 TEMPO 24020G30KT BKN004",
      "taf": "TAF LFOB 112300Z 1200/1224 23012KT 9999 BKN020"
    },
    {
      "icao": "LFPO",
      "alert": "OK",
      "vis_m": 7000,
      "fzfg": false,
      "metar_trigger": false,
      "taf_trigger": false,
      "metar": "METAR LFPO 120300Z AUTO 23009KT 190V250 7000 RA BKN010/// BKN015/// OVC028/// ///TCU 10/09 Q0976 TEMPO 29015G35KT 4000 -RA BKN008",
      "taf": "TAF LFPO 112300Z 1200/1306 19012KT 8000 BKN020"
    },
    {
      "icao": "LFSB",
      "alert": "OK",
      "vis_m": 9999,
      "fzfg": false,
      "metar_trigger": false,
      "taf_trigger": false,
      "metar": "METAR LFSB 120300Z AUTO 25008KT 220V280 9999 -RA FEW043/// BKN062/// BKN074/// ///TCU 11/06 Q0982 BECMG BKN050",
      "taf": "TAF LFSB 112300Z 1200/1224 23012KT 9999 BKN050"
    },
    {
      "icao": "LGAV",
      "alert": "OK",
      "vis_m": 9999,
      "fzfg": false,
      "metar_trigger": false,
      "taf_trigger": false,
      "metar": "METAR LGAV 120250Z 22007KT 9999 FEW025 SCT070 13/09 Q0996 NOSIG",
      "taf": "TAF LGAV 112300Z 1200/1224 21015KT 9999 FEW018TCU SCT025"
    },
    {
      "icao": "LGTS",
      "alert": "OK",
      "vis_m": 9999,
      "fzfg": false,
      "metar_trigger": false,
      "taf_trigger": false,
      "metar": "METAR LGTS 120250Z 34006KT 9999 FEW007 BKN025 11/11 Q0995 NOSIG",
      "taf": "TAF LGTS 112300Z 1200/1224 14010KT 9999 FEW010 BKN030"
    },
    {
      "icao": "LHBP",
      "alert": "OK",
      "vis_m": 9000,
      "fzfg": false,
      "metar_trigger": false,
      "taf_trigger": false,
      "metar": "METAR LHBP 120300Z 11003KT 9000 BCFG NSC 05/04 Q0991 NOSIG",
      "taf": "TAF LHBP 112315Z 1200/1224 16005KT 9999 BKN030 BKN080"
    },
    {
      "icao": "LHDC",
      "alert": "OK",
      "vis_m": 9999,
      "fzfg": false,
      "metar_trigger": false,
      "taf_trigger": false,
      "metar": "METAR LHDC 120245Z AUTO 18010KT 9999 -RA BKN039 06/04 Q0992",
      "taf": ""
    },
    {
      "icao": "LIBD",
      "alert": "OK",
      "vis_m": 9999,
      "fzfg": false,
      "metar_trigger": false,
      "taf_trigger": false,
      "metar": "METAR LIBD 120250Z 10003KT 010V120 CAVOK 07/06 Q0995",
      "taf": "TAF LIBD 112300Z 1200/1224 21006KT 9999 FEW040"
    },
    {
      "icao": "LIBG",
      "alert": "OK",
      "vis_m": null,
      "fzfg": false,
      "metar_trigger": false,
      "taf_trigger": false,
      "metar": "",
      "taf": "TAF LIBG 111700Z 1118/1203 VRB04KT 9999 FEW040"
    },
    {
      "icao": "LIBP",
      "alert": "OK",
      "vis_m": 9999,
      "fzfg": false,
      "metar_trigger": false,
      "taf_trigger": false,
      "metar": "METAR LIBP 120250Z AUTO VRB02KT 9999 NCD 04/04 Q0994",
      "taf": "TAF LIBP 112300Z 1200/1224 24008KT 9999 FEW060"
    },
    {
      "icao": "LIBR",
      "alert": "OK",
      "vis_m": 9999,
      "fzfg": false,
      "metar_trigger": false,
      "taf_trigger": false,
      "metar": "METAR LIBR 120250Z 25007KT CAVOK 09/08 Q0996",
      "taf": "TAF LIBR 112300Z 1200/1224 23006KT 9999 SCT030"
    },
    {
      "icao": "LICA",
      "alert": "OK",
      "vis_m": 9000,
      "fzfg": false,
      "metar_trigger": false,
      "taf_trigger": false,
      "metar": "METAR LICA 120250Z AUTO 24015KT 9000 BKN011/// 15/13 Q1000",
      "taf": "TAF LICA 112300Z 1200/1224 28020G32KT 9999 BKN020"
    },
    {
      "icao": "LICC",
      "alert": "OK",
      "vis_m": 9999,
      "fzfg": false,
      "metar_trigger": false,
      "taf_trigger": false,
      "metar": "METAR LICC 120250Z 26010KT CAVOK 13/09 Q1001",
      "taf": "TAF LICC 112300Z 1200/1224 26016KT 9999 SCT030"
    },
    {
      "icao": "LICJ",
      "alert": "OK",
      "vis_m": 9999,
      "fzfg": false,
      "metar_trigger": false,
      "taf_trigger": false,
      "metar": "METAR LICJ 120250Z 20018KT 9999 SCT030 15/12 Q1001",
      "taf": "TAF LICJ 112300Z 1200/1224 22018KT 9999 SCT020"
    },
    {
      "icao": "LIMC",
      "alert": "OK",
      "vis_m": 7000,
      "fzfg": false,
      "metar_trigger": false,
      "taf_trigger": false,
      "metar": "METAR LIMC 120250Z 07004KT 7000 BKN050 06/06 Q0989 NOSIG",
      "taf": "TAF LIMC 112300Z 1200/1306 VRB04KT 8000 SCT030"
    },
    {
      "icao": "LIME",
      "alert": "OK",
      "vis_m": 4000,
      "fzfg": false,
      "metar_trigger": false,
      "taf_trigger": false,
      "metar": "METAR LIME 120250Z 02004KT 4000 BR BKN020 07/07 Q0990 NOSIG",
      "taf": "TAF LIME 112300Z 1200/1224 VRB05KT 7000 SCT020"
    },
    {
      "icao": "LIMF",
      "alert": "OK",
      "vis_m": 9999,
      "fzfg": false,
      "metar_trigger": false,
      "taf_trigger": false,
      "metar": "METAR LIMF 120250Z 28002KT 9999 FEW050 06/04 Q0989",
      "taf": "TAF LIMF 112300Z 1200/1224 VRB05KT 9999 SCT020"
    },
    {
      "icao": "LIMJ",
      "alert": "OK",
      "vis_m": 9999,
      "fzfg": false,
      "metar_trigger": false,
      "taf_trigger": false,
      "metar": "METAR LIMJ 120250Z 10014KT 9999 SCT020 SCT040 13/11 Q0988",
      "taf": ""
    },
    {
      "icao": "LIPE",
      "alert": "OK",
      "vis_m": 100,
      "fzfg": false,
      "metar_trigger": false,
      "taf_trigger": false,
      "metar": "METAR LIPE 120250Z 02005KT 0100 R12/0600N R30/0600N FG VV002 06/06 Q0990",
      "taf": "TAF LIPE 112300Z 1200/1224 VRB05KT 3000 BR BKN020"
    },
    {
      "icao": "LIPH",
      "alert": "OK",
      "vis_m": 100,
      "fzfg": false,
      "metar_trigger": false,
      "taf_trigger": false,
      "metar": "METAR LIPH 120250Z AUTO 10003KT 0100 0050W R07/0375N FG VV002 08/08 Q0990",
      "taf": "TAF LIPH 112300Z 1200/1224 04006KT 3000 BR SCT050"
    },
    {
      "icao": "LIPQ",
      "alert": "OK",
      "vis_m": 200,
      "fzfg": false,
      "metar_trigger": false,
      "taf_trigger": false,
      "metar": "METAR LIPQ 120250Z AUTO 05002KT 0200 R09/0650N FG OVC003/// 09/09 Q0990",
      "taf": "TAF LIPQ 112300Z 1200/1224 VRB04KT 3000 BR SCT030"
    },
    {
      "icao": "LIPR",
      "alert": "OK",
      "vis_m": 2200,
      "fzfg": false,
      "metar_trigger": false,
      "taf_trigger": false,
      "metar": "METAR LIPR 120250Z AUTO 24003KT 200V300 2200 BR SCT059/// BKN190/// 05/05 Q0990",
      "taf": "TAF LIPR 112300Z 1200/1224 15006KT 7000 SCT020"
    },
    {
      "icao": "LIPX",
      "alert": "OK",
      "vis_m": 200,
      "fzfg": false,
      "metar_trigger": false,
      "taf_trigger": false,
      "metar": "METAR LIPX 120250Z 12003KT 0200 R04/0325D FG VV001 07/07 Q0990",
      "taf": "TAF LIPX 112300Z 1200/1224 07006KT 8000 BKN020"
    },
    {
      "icao": "LIPY",
      "alert": "OK",
      "vis_m": 9999,
      "fzfg": false,
      "metar_trigger": false,
      "taf_trigger": false,
      "metar": "METAR LIPY 120250Z AUTO 18004KT 9999 FEW003/// 08/08 Q0991",
      "taf": "TAF LIPY 112300Z 1200/1224 15006KT 3000 BR SCT040"
    },
    {
      "icao": "LIPZ",
      "alert": "OK",
      "vis_m": 100,
      "fzfg": false,
      "metar_trigger": false,
      "taf_trigger": false,
      "metar": "METAR LIPZ 120250Z 13005KT 0100 R04R/0400N FG VV001 08/08 Q0990 NOSIG",
      "taf": "TAF LIPZ 112300Z 1200/1306 06006KT 7000 SCT050"
    },
    {
      "icao": "LIRF",
      "alert": "OK",
      "vis_m": 5000,
      "fzfg": false,
      "metar_trigger": false,
      "taf_trigger": false,
      "metar": "METAR LIRF 120250Z 13009KT 5000 BR FEW020 10/10 Q0994 NOSIG",
      "taf": "TAF LIRF 112300Z 1200/1306 VRB05KT 9999 FEW020"
    },
    {
      "icao": "LIRN",
      "alert": "OK",
      "vis_m": 9999,
      "fzfg": false,
      "metar_trigger": false,
      "taf_trigger": false,
      "metar": "METAR LIRN 120250Z 17003KT 120V200 CAVOK 11/11 Q0997 NOSIG",
      "taf": "TAF LIRN 112300Z 1200/1224 VRB05KT 9999 SCT020"
    },
    {
      "icao": "LIRP",
      "alert": "OK",
      "vis_m": 9999,
      "fzfg": false,
      "metar_trigger": false,
      "taf_trigger": false,
      "metar": "METAR LIRP 120215Z 20010KT 9999 BKN060 14/12 Q0992 NOSIG",
      "taf": "TAF LIRP 112300Z 1200/1224 25012KT 9999 BKN030"
    },
    {
      "icao": "LIRZ",
      "alert": "OK",
      "vis_m": 9999,
      "fzfg": false,
      "metar_trigger": false,
      "taf_trigger": false,
      "metar": "METAR LIRZ 120250Z AUTO VRB02KT 9999 FEW052/// SCT066/// 09/08 Q0992",
      "taf": "TAF LIRZ 112300Z 1200/1224 19008KT 9999 BKN030"
    },
    {
      "icao": "LJLJ",
      "alert": "OK",
      "vis_m": 6000,
      "fzfg": false,
      "metar_trigger": false,
      "taf_trigger": false,
      "metar": "METAR LJLJ 120300Z 32003KT 290V350 6000 FEW002 BKN037 06/05 Q0990 NOSIG",
      "taf": "TAF LJLJ 112300Z 1200/1300 VRB02KT 9999 FEW003 BKN045"
    },
    {
      "icao": "LKMT",
      "alert": "OK",
      "vis_m": 9999,
      "fzfg": false,
      "metar_trigger": false,
      "taf_trigger": false,
      "metar": "METAR LKMT 120300Z 21013KT 9999 SCT015 BKN023 07/06 Q0986 NOSIG",
      "taf": "TAF LKMT 112300Z 1200/1224 22010KT 9999 BKN022"
    },
    {
      "icao": "LKPR",
      "alert": "OK",
      "vis_m": 9999,
      "fzfg": false,
      "metar_trigger": false,
      "taf_trigger": false,
      "metar": "METAR LKPR 120300Z 18007KT CAVOK 05/04 Q0983 NOSIG",
      "taf": "TAF LKPR 120200Z 1203/1309 22014KT 9999 BKN032"
    },
    {
      "icao": "LLBG",
      "alert": "OK",
      "vis_m": 9999,
      "fzfg": false,
      "metar_trigger": false,
      "taf_trigger": false,
      "metar": "METAR LLBG 120250Z 16005KT CAVOK 15/08 Q1015 NOSIG",
      "taf": "TAF LLBG 112306Z 1200/1224 14005KT CAVOK"
    },
    {
      "icao": "LMML",
      "alert": "OK",
      "vis_m": 9999,
      "fzfg": false,
      "metar_trigger": false,
      "taf_trigger": false,
      "metar": "METAR LMML 120245Z 24013KT CAVOK 16/13 Q1005 NOSIG",
      "taf": "TAF LMML 112300Z 1200/1224 27018G28KT 9999 FEW020"
    },
    {
      "icao": "LOWW",
      "alert": "OK",
      "vis_m": 9999,
      "fzfg": false,
      "metar_trigger": false,
      "taf_trigger": false,
      "metar": "METAR LOWW 120250Z 16006KT CAVOK 04/03 Q0987 NOSIG",
      "taf": "TAF LOWW 120215Z 1203/1309 20008KT 9999 FEW050 TX10/1309Z TN03/1205Z"
    },
    {
      "icao": "LPFR",
      "alert": "OK",
      "vis_m": 8000,
      "fzfg": false,
      "metar_trigger": false,
      "taf_trigger": false,
      "metar": "METAR LPFR 120300Z 26012KT 8000 SCT002 BKN018 15/15 Q1021",
      "taf": "TAF LPFR 112300Z 1200/1224 25012KT 6000 -RA SCT008 BKN015"
    },
    {
      "icao": "LPMA",
      "alert": "OK",
      "vis_m": 9999,
      "fzfg": false,
      "metar_trigger": false,
      "taf_trigger": false,
      "metar": "METAR LPMA 120300Z 00000KT 9999 BKN015 17/11 Q1026",
      "taf": "TAF LPMA 112300Z 1200/1224 VRB05KT 9999 SCT015"
    },
    {
      "icao": "LPPR",
      "alert": "OK",
      "vis_m": 9999,
      "fzfg": false,
      "metar_trigger": false,
      "taf_trigger": false,
      "metar": "METAR LPPR 120300Z 26005KT 220V310 9999 FEW018 SCT030 13/09 Q1017",
      "taf": "TAF LPPR 112300Z 1200/1224 26012KT 9999 SCT015 SCT035"
    },
    {
      "icao": "LPPS",
      "alert": "OK",
      "vis_m": 9999,
      "fzfg": false,
      "metar_trigger": false,
      "taf_trigger": false,
      "metar": "METAR LPPS 120300Z 27005KT 9999 SCT014 15/11 Q1026",
      "taf": "TAF LPPS 112300Z 1200/1306 VRB05KT 9999 SCT015"
    },
    {
      "icao": "LPPT",
      "alert": "OK",
      "vis_m": 9999,
      "fzfg": false,
      "metar_trigger": false,
      "taf_trigger": false,
      "metar": "METAR LPPT 120300Z 27005KT 240V340 9999 FEW012 BKN025 14/12 Q1020",
      "taf": "TAF LPPT 112300Z 1200/1306 28008KT 9999 SCT008 BKN015"
    },
    {
      "icao": "LQBK",
      "alert": "OK",
      "vis_m": 9999,
      "fzfg": false,
      "metar_trigger": false,
      "taf_trigger": false,
      "metar": "METAR LQBK 120300Z 14006KT CAVOK 06/05 Q0992 NOSIG",
      "taf": ""
    },
    {
      "icao": "LQSA",
      "alert": "OK",
      "vis_m": 8000,
      "fzfg": false,
      "metar_trigger": false,
      "taf_trigger": false,
      "metar": "METAR LQSA 120300Z 00000KT 8000 FEW060 03/03 Q0994 NOSIG",
      "taf": ""
    },
    {
      "icao": "LQTZ",
      "alert": "OK",
      "vis_m": 9999,
      "fzfg": false,
      "metar_trigger": false,
      "taf_trigger": false,
      "metar": "METAR LQTZ 120300Z 30002KT CAVOK 03/03 Q0993",
      "taf": ""
    },
    {
      "icao": "LRBC",
      "alert": "OK",
      "vis_m": 450,
      "fzfg": true,
      "metar_trigger": false,
      "taf_trigger": false,
      "metar": "METAR LRBC 120300Z 17011KT 0450 R16/0550N FZFG VV001 M01/M01 Q0996",
      "taf": "TAF LRBC 120200Z 1203/1212 17010KT 0300 FZFG OVC001"
    },
    {
      "icao": "LRBS",
      "alert": "OK",
      "vis_m": 3000,
      "fzfg": false,
      "metar_trigger": false,
      "taf_trigger": false,
      "metar": "METAR LRBS 120300Z 27003KT 3000 BR NSC M01/M02 Q0998 BECMG 1500 BR",
      "taf": "TAF LRBS 112300Z 1200/1224 VRB04KT 3000 BR NSC"
    },
    {
      "icao": "LRBV",
      "alert": "OK",
      "vis_m": 9999,
      "fzfg": false,
      "metar_trigger": false,
      "taf_trigger": false,
      "metar": "METAR LRBV 120300Z AUTO VRB03KT 9999 FEW120/// 00/M02 Q0995",
      "taf": "TAF LRBV 120200Z 1203/1212 12008KT CAVOK"
    },
    {
      "icao": "LRCL",
      "alert": "OK",
      "vis_m": 8000,
      "fzfg": false,
      "metar_trigger": false,
      "taf_trigger": false,
      "metar": "METAR LRCL 120300Z 00000KT 8000 FEW054 03/02 Q0994",
      "taf": "TAF LRCL 120200Z 1203/1212 VRB04KT CAVOK"
    },
    {
      "icao": "LRCV",
      "alert": "CRITICAL",
      "vis_m": 100,
      "fzfg": true,
      "metar_trigger": true,
      "taf_trigger": true,
      "metar": "METAR LRCV 120300Z 27003KT 0100 R08/0325N FZFG VV001 M02/M02 Q0998",
      "taf": "TAF LRCV 120200Z 1203/1212 VRB04KT 0100 FZFG OVC001"
    },
    {
      "icao": "LRIA",
      "alert": "OK",
      "vis_m": 700,
      "fzfg": true,
      "metar_trigger": false,
      "taf_trigger": false,
      "metar": "METAR LRIA 120300Z 11013KT 0700 R14/0800N FZFG BKN001 M00/M01 Q0995",
      "taf": "TAF LRIA 120200Z 1203/1212 10008KT 0300 FZFG OVC001"
    },
    {
      "icao": "LROP",
      "alert": "OK",
      "vis_m": 3000,
      "fzfg": false,
      "metar_trigger": false,
      "taf_trigger": false,
      "metar": "METAR LROP 120300Z 27004KT 3000 BR NSC M02/M02 Q0998 BECMG 1500 BR",
      "taf": "TAF LROP 112300Z 1200/1224 VRB04KT 3000 BR NSC"
    },
    {
      "icao": "LRSB",
      "alert": "OK",
      "vis_m": 9999,
      "fzfg": false,
      "metar_trigger": false,
      "taf_trigger": false,
      "metar": "METAR LRSB 120300Z 31003KT 9999 SCT070 02/01 Q0994",
      "taf": "TAF LRSB 112300Z 1200/1224 VRB04KT CAVOK"
    },
    {
      "icao": "LRSM",
      "alert": "OK",
      "vis_m": 9999,
      "fzfg": false,
      "metar_trigger": false,
      "taf_trigger": false,
      "metar": "METAR LRSM 120300Z AUTO 18006KT 9999 FEW030/// BKN035/// OVC050/// 07/04 Q0993",
      "taf": "TAF LRSM 120200Z 1203/1212 14008KT 9999 BKN030"
    },
    {
      "icao": "LRSV",
      "alert": "OK",
      "vis_m": 9999,
      "fzfg": false,
      "metar_trigger": false,
      "taf_trigger": false,
      "metar": "METAR LRSV 120300Z 22006KT CAVOK 02/00 Q0992",
      "taf": "TAF LRSV 120200Z 1203/1212 20006KT CAVOK"
    },
    {
      "icao": "LRTM",
      "alert": "OK",
      "vis_m": 9999,
      "fzfg": false,
      "metar_trigger": false,
      "taf_trigger": false,
      "metar": "METAR LRTM 120300Z AUTO 10004KT 9999 NCD 03/01 Q0995",
      "taf": "TAF LRTM 120200Z 1203/1212 VRB04KT CAVOK"
    },
    {
      "icao": "LRTR",
      "alert": "OK",
      "vis_m": 9999,
      "fzfg": false,
      "metar_trigger": false,
      "taf_trigger": false,
      "metar": "METAR LRTR 120300Z 11008KT 9999 -RA NSC 05/04 Q0994",
      "taf": "TAF LRTR 112300Z 1200/1224 12006KT CAVOK"
    },
    {
      "icao": "LTAC",
      "alert": "OK",
      "vis_m": 6000,
      "fzfg": false,
      "metar_trigger": false,
      "taf_trigger": false,
      "metar": "METAR LTAC 120250Z 04003KT 010V080 6000 SCT030 BKN090 01/00 Q1007 TEMPO 4000 BR",
      "taf": "TAF LTAC 112240Z 1200/1224 VRB02KT 9999 SCT040 BKN100"
    },
    {
      "icao": "LTFM",
      "alert": "OK",
      "vis_m": 9999,
      "fzfg": false,
      "metar_trigger": false,
      "taf_trigger": false,
      "metar": "METAR LTFM 120250Z 17006KT 9999 FEW040 SCT100 07/04 Q1000 NOSIG RMK RWY17L 16006KT RWY34L 17004KT RWY16R 15008KT RWY36 16004KT 120V190 RWY18 18009KT",
      "taf": "TAF LTFM 112240Z 1200/1306 15010KT 6000 NSC"
    },
    {
      "icao": "LUKK",
      "alert": "OK",
      "vis_m": 8000,
      "fzfg": false,
      "metar_trigger": false,
      "taf_trigger": false,
      "metar": "METAR LUKK 120300Z 17008KT 8000 OVC003 01/01 Q0997 NOSIG",
      "taf": "TAF LUKK 112309Z 1200/1224 17009KT 9999 OVC010"
    },
    {
      "icao": "LWOH",
      "alert": "OK",
      "vis_m": null,
      "fzfg": false,
      "metar_trigger": false,
      "taf_trigger": false,
      "metar": "",
      "taf": "TAF LWOH 120220Z 1203/1303 VRB02KT 9999 RA SCT010 OVC040"
    },
    {
      "icao": "LWSK",
      "alert": "OK",
      "vis_m": 3000,
      "fzfg": false,
      "metar_trigger": false,
      "taf_trigger": false,
      "metar": "METAR LWSK 120250Z VRB01KT 3000 DZ BR SCT002 BKN014 OVC040 07/06 Q0997 NOSIG",
      "taf": "TAF LWSK 120220Z 1203/1303 VRB02KT 3000 BR BKN005 BKN010 OVC040"
    },
    {
      "icao": "LYBE",
      "alert": "OK",
      "vis_m": 9999,
      "fzfg": false,
      "metar_trigger": false,
      "taf_trigger": false,
      "metar": "METAR LYBE 120300Z 12005KT CAVOK 08/04 Q0993 NOSIG",
      "taf": "TAF LYBE 112300Z 1200/1224 08005KT CAVOK TX17/1213Z TN05/1206Z"
    },
    {
      "icao": "LYNI",
      "alert": "OK",
      "vis_m": 9999,
      "fzfg": false,
      "metar_trigger": false,
      "taf_trigger": false,
      "metar": "METAR LYNI 120300Z 11009KT 080V140 CAVOK 07/03 Q0996 NOSIG",
      "taf": "TAF LYNI 112300Z 1200/1224 11005KT 9999 SCT060 TX15/1212Z TN04/1206Z"
    },
    {
      "icao": "LYPG",
      "alert": "OK",
      "vis_m": 500,
      "fzfg": false,
      "metar_trigger": false,
      "taf_trigger": false,
      "metar": "METAR LYPG 120300Z 03001KT 0500 R18/0500N R36/0800N FG FEW030 SCT050 OVC070 09/09 Q0996 NOSIG",
      "taf": "TAF LYPG 112300Z 1200/1224 36005KT 6000 FEW007 BKN040 OVC070 TX11/1213Z TN08/1205Z"
    },
    {
      "icao": "LZIB",
      "alert": "OK",
      "vis_m": 400,
      "fzfg": false,
      "metar_trigger": false,
      "taf_trigger": false,
      "metar": "METAR LZIB 120300Z 02004KT 0400 R31/0650N R22/0500N FG VV001 03/03 Q0988 NOSIG",
      "taf": ""
    },
    {
      "icao": "LZKZ",
      "alert": "OK",
      "vis_m": 1400,
      "fzfg": false,
      "metar_trigger": false,
      "taf_trigger": false,
      "metar": "METAR LZKZ 120300Z 21004KT 180V240 1400 R01/P2000N BR OVC002 03/03 Q0990 NOSIG",
      "taf": "TAF LZKZ 112315Z 1200/1300 21005KT 2000 BR FEW003 OVC006"
    },
    {
      "icao": "LZTT",
      "alert": "OK",
      "vis_m": 9999,
      "fzfg": false,
      "metar_trigger": false,
      "taf_trigger": false,
      "metar": "METAR LZTT 120300Z 25005KT 210V280 9999 FEW016 SCT043 BKN060 05/02 Q0987",
      "taf": "TAF LZTT 112315Z 1200/1300 24011KT 9999 BKN030"
    },
    {
      "icao": "OEJN",
      "alert": "OK",
      "vis_m": 9999,
      "fzfg": false,
      "metar_trigger": false,
      "taf_trigger": false,
      "metar": "METAR OEJN 120300Z VRB02KT CAVOK 23/18 Q1013 NOSIG",
      "taf": "TAF OEJN 112300Z 1200/1306 36005KT 7000 FEW040"
    },
    {
      "icao": "OEMA",
      "alert": "OK",
      "vis_m": 9999,
      "fzfg": false,
      "metar_trigger": false,
      "taf_trigger": false,
      "metar": "METAR OEMA 120300Z VRB02KT CAVOK 21/10 Q1017 NOSIG",
      "taf": "TAF OEMA 112300Z 1200/1306 VRB03KT CAVOK"
    },
    {
      "icao": "OJAI",
      "alert": "OK",
      "vis_m": 4000,
      "fzfg": false,
      "metar_trigger": false,
      "taf_trigger": false,
      "metar": "METAR OJAI 120300Z 16006KT 4000 HZ NSC 05/03 Q1017 NOSIG",
      "taf": "TAF OJAI 112300Z 1200/1306 25012KT 5000 HZ FEW035"
    },
    {
      "icao": "OMAA",
      "alert": "OK",
      "vis_m": 3000,
      "fzfg": false,
      "metar_trigger": false,
      "taf_trigger": false,
      "metar": "METAR OMAA 120300Z 11007KT 3000 HZ NSC 17/15 Q1018 NOSIG",
      "taf": "TAF OMAA 112300Z 1200/1306 VRB02KT 8000 NSC"
    },
    {
      "icao": "OMDB",
      "alert": "OK",
      "vis_m": 9999,
      "fzfg": false,
      "metar_trigger": false,
      "taf_trigger": false,
      "metar": "METAR OMDB 120300Z 08006KT CAVOK 20/15 Q1018 NOSIG",
      "taf": "TAF OMDB 112300Z 1200/1306 10007KT 8000 NSC"
    },
    {
      "icao": "UAAA",
      "alert": "OK",
      "vis_m": 5000,
      "fzfg": false,
      "metar_trigger": false,
      "taf_trigger": false,
      "metar": "METAR UAAA 120300Z VRB01MPS 5000 -SHSN BR BKN017CB OVC100 M02/M03 Q1023 NOSIG",
      "taf": "TAF UAAA 112303Z 1200/1224 02003G08MPS 1200 -SN BR BKN011 OVC020 TX00/1209Z TNM03/1203Z"
    },
    {
      "icao": "UBBB",
      "alert": "OK",
      "vis_m": 9999,
      "fzfg": false,
      "metar_trigger": false,
      "taf_trigger": false,
      "metar": "METAR UBBB 120300Z 17004KT CAVOK 02/01 Q1015 NOSIG",
      "taf": "TAF UBBB 112257Z 1200/1224 16010KT 9999 BKN025 TX07/1210Z TN01/1201Z"
    },
    {
      "icao": "UDSG",
      "alert": "OK",
      "vis_m": 4300,
      "fzfg": false,
      "metar_trigger": false,
      "taf_trigger": false,
      "metar": "METAR UDSG 120300Z 20002KT 4300 BR OVC004 M02/M02 Q1014 NOSIG",
      "taf": "TAF UDSG 112258Z 1200/1224 VRB06KT 3000 BR OVC020"
    },
    {
      "icao": "UDYZ",
      "alert": "OK",
      "vis_m": 2900,
      "fzfg": false,
      "metar_trigger": false,
      "taf_trigger": false,
      "metar": "METAR UDYZ 120300Z 29001KT 2900 BR BKN014 02/02 Q1015 NOSIG",
      "taf": "TAF UDYZ 112300Z 1200/1224 VRB04KT 2300 BR BKN020"
    },
    {
      "icao": "UGKO",
      "alert": "OK",
      "vis_m": 9999,
      "fzfg": false,
      "metar_trigger": false,
      "taf_trigger": false,
      "metar": "METAR UGKO 120300Z 06007KT 9999 BKN065 07/00 Q1011 NOSIG",
      "taf": "TAF UGKO 112300Z 1200/1224 08015KT 9999 BKN050 TX17/1211Z TN05/1202Z"
    }
  ]
}