{
  "ts_utc": "2026-02-10T12:06:29Z",
  "threshold_m": 150,
  "source": "stations_override.txt (ICAO list) + aviationweather.gov (METAR/TAF raw)",
  "station_count": 159,
  "stations": [
    {
      "icao": "BIKF",
      "alert": "OK",
      "vis_m": 9999,
      "fzfg": false,
      "metar_trigger": false,
      "taf_trigger": false,
      "metar": "METAR BIKF 101200Z 04012KT CAVOK 03/M01 Q1006",
      "taf": "TAF BIKF 101031Z 1012/1112 05012KT 9999 FEW040 TX04/1015Z TNM03/1110Z"
    },
    {
      "icao": "BKPR",
      "alert": "OK",
      "vis_m": 9999,
      "fzfg": false,
      "metar_trigger": false,
      "taf_trigger": false,
      "metar": "METAR BKPR 101200Z VRB02KT 9999 SCT010 BKN025 05/03 Q1008 NOSIG",
      "taf": "TAF BKPR 101130Z 1012/1112 15008KT 9999 BKN010 BKN025"
    },
    {
      "icao": "EBCI",
      "alert": "OK",
      "vis_m": 9999,
      "fzfg": false,
      "metar_trigger": false,
      "taf_trigger": false,
      "metar": "METAR EBCI 101150Z 19011KT 9999 SCT010 BKN013 10/07 Q0992 BECMG BKN016",
      "taf": "TAF EBCI 101100Z 1012/1118 19009KT 9999 BKN007"
    },
    {
      "icao": "EDDB",
      "alert": "OK",
      "vis_m": 9000,
      "fzfg": false,
      "metar_trigger": false,
      "taf_trigger": false,
      "metar": "METAR EDDB 101150Z AUTO 13006KT 100V160 9000 OVC024 03/00 Q1000 NOSIG",
      "taf": "TAF EDDB 101100Z 1012/1112 13006KT 8000 BKN025"
    },
    {
      "icao": "EDDH",
      "alert": "OK",
      "vis_m": 9999,
      "fzfg": false,
      "metar_trigger": false,
      "taf_trigger": false,
      "metar": "METAR EDDH 101150Z AUTO 11010KT CAVOK 04/00 Q0997 NOSIG",
      "taf": "TAF EDDH 101100Z 1012/1118 11011KT 9999 BKN030"
    },
    {
      "icao": "EDDK",
      "alert": "OK",
      "vis_m": 9999,
      "fzfg": false,
      "metar_trigger": false,
      "taf_trigger": false,
      "metar": "METAR EDDK 101150Z AUTO 14012KT 9999 BKN024 BKN033 BKN040 08/04 Q0995 NOSIG",
      "taf": "TAF EDDK 101100Z 1012/1118 12010KT 9999 BKN020"
    },
    {
      "icao": "EDDN",
      "alert": "OK",
      "vis_m": 9999,
      "fzfg": false,
      "metar_trigger": false,
      "taf_trigger": false,
      "metar": "METAR EDDN 101150Z AUTO 15010KT CAVOK 05/00 Q0999 NOSIG",
      "taf": "TAF EDDN 101100Z 1012/1112 14008KT 9999 BKN040"
    },
    {
      "icao": "EDDS",
      "alert": "OK",
      "vis_m": 9999,
      "fzfg": false,
      "metar_trigger": false,
      "taf_trigger": false,
      "metar": "METAR EDDS 101150Z AUTO 07003KT 9999 OVC036 06/03 Q0997 NOSIG",
      "taf": "TAF EDDS 101100Z 1012/1112 09005KT 9999 BKN030"
    },
    {
      "icao": "EDFH",
      "alert": "OK",
      "vis_m": 9000,
      "fzfg": false,
      "metar_trigger": false,
      "taf_trigger": false,
      "metar": "METAR EDFH 101150Z 14011KT 9000 SCT001 BKN011 05/04 Q0995",
      "taf": "TAF EDFH 101100Z 1012/1112 17012KT 6000 BKN008"
    },
    {
      "icao": "EDJA",
      "alert": "OK",
      "vis_m": 9999,
      "fzfg": false,
      "metar_trigger": false,
      "taf_trigger": false,
      "metar": "METAR EDJA 101150Z 23009KT 9999 BKN054 05/00 Q0999",
      "taf": "TAF EDJA 101100Z 1012/1021 21006KT 9999 BKN045"
    },
    {
      "icao": "EDLW",
      "alert": "OK",
      "vis_m": 9999,
      "fzfg": false,
      "metar_trigger": false,
      "taf_trigger": false,
      "metar": "METAR EDLW 101150Z COR 16011KT 9999 BKN043 08/04 Q0994",
      "taf": "TAF EDLW 101100Z 1012/1112 15008KT 9999 BKN025"
    },
    {
      "icao": "EDNY",
      "alert": "OK",
      "vis_m": 3500,
      "fzfg": false,
      "metar_trigger": false,
      "taf_trigger": false,
      "metar": "METAR EDNY 101150Z 14004KT 100V160 3500 -RA BR BKN008 OVC050 03/03 Q1001",
      "taf": "TAF EDNY 101100Z 1012/1021 VRB02KT 4000 BR BKN004"
    },
    {
      "icao": "EDSB",
      "alert": "OK",
      "vis_m": 9999,
      "fzfg": false,
      "metar_trigger": false,
      "taf_trigger": false,
      "metar": "METAR EDSB 101150Z VRB02KT 9999 OVC034 07/05 Q0998",
      "taf": "TAF EDSB 101100Z 1012/1112 VRB03KT 9999 OVC035"
    },
    {
      "icao": "EETN",
      "alert": "OK",
      "vis_m": 9999,
      "fzfg": false,
      "metar_trigger": false,
      "taf_trigger": false,
      "metar": "METAR EETN 101150Z 18007KT 9999 FEW009 OVC024 M06/M08 Q1005 TEMPO BKN008",
      "taf": "TAF EETN 101130Z 1012/1112 19008KT 9999 SCT008 BKN020"
    },
    {
      "icao": "EFTU",
      "alert": "OK",
      "vis_m": 9999,
      "fzfg": false,
      "metar_trigger": false,
      "taf_trigger": false,
      "metar": "METAR EFTU 101150Z AUTO 22004KT 180V250 9999 OVC012 M06/M09 Q1004",
      "taf": "TAF EFTU 101135Z 1012/1112 22004KT 9999 BKN013"
    },
    {
      "icao": "EGBB",
      "alert": "OK",
      "vis_m": 4000,
      "fzfg": false,
      "metar_trigger": false,
      "taf_trigger": false,
      "metar": "METAR EGBB 101120Z 12008KT 4000 BR OVC004 08/07 Q0987",
      "taf": "TAF EGBB 101102Z 1012/1112 13006KT 7000 BKN007"
    },
    {
      "icao": "EGGP",
      "alert": "OK",
      "vis_m": 9999,
      "fzfg": false,
      "metar_trigger": false,
      "taf_trigger": false,
      "metar": "METAR EGGP 101150Z 12011KT 9999 OVC011 08/06 Q0986",
      "taf": "TAF EGGP 101056Z 1012/1112 12010KT 9999 BKN010"
    },
    {
      "icao": "EGGW",
      "alert": "OK",
      "vis_m": 2200,
      "fzfg": false,
      "metar_trigger": false,
      "taf_trigger": false,
      "metar": "METAR EGGW 101150Z AUTO 14006KT 2200 -RA OVC002 08/08 Q0987 RERA",
      "taf": "TAF EGGW 101101Z 1012/1112 17005KT 3000 BR BKN004"
    },
    {
      "icao": "EGKK",
      "alert": "OK",
      "vis_m": 9999,
      "fzfg": false,
      "metar_trigger": false,
      "taf_trigger": false,
      "metar": "METAR EGKK 101150Z 23007KT 210V270 9999 3500NE SCT006 SCT028 10/09 Q0988",
      "taf": "TAF EGKK 101107Z 1012/1118 20010KT 9999 SCT010"
    },
    {
      "icao": "EGNM",
      "alert": "OK",
      "vis_m": 400,
      "fzfg": false,
      "metar_trigger": false,
      "taf_trigger": false,
      "metar": "METAR EGNM 101150Z 09010KT 0400 R14/1200D -RA FG VV/// 05/05 Q0988",
      "taf": "TAF EGNM 101056Z 1012/1112 10010KT 0300 -RADZ FG VV///"
    },
    {
      "icao": "EGPD",
      "alert": "OK",
      "vis_m": 9999,
      "fzfg": false,
      "metar_trigger": false,
      "taf_trigger": false,
      "metar": "METAR EGPD 101150Z AUTO 13012KT 9999 BKN015 OVC023 06/02 Q0993 TEMPO BKN012",
      "taf": "TAF EGPD 101054Z 1012/1112 12012KT 9999 SCT015 BKN030"
    },
    {
      "icao": "EGPF",
      "alert": "OK",
      "vis_m": 9999,
      "fzfg": false,
      "metar_trigger": false,
      "taf_trigger": false,
      "metar": "METAR EGPF 101150Z AUTO 07011KT 9999 -RA BKN010 OVC019 06/05 Q0988",
      "taf": "TAF EGPF 101103Z 1012/1112 06011KT 9999 SCT020"
    },
    {
      "icao": "EHBK",
      "alert": "OK",
      "vis_m": 9999,
      "fzfg": false,
      "metar_trigger": false,
      "taf_trigger": false,
      "metar": "METAR EHBK 101155Z AUTO 19011KT 9999 OVC018 10/07 Q0992 NOSIG",
      "taf": "TAF EHBK 101121Z 1012/1118 19010KT 9999 BKN016"
    },
    {
      "icao": "EHEH",
      "alert": "OK",
      "vis_m": 7000,
      "fzfg": false,
      "metar_trigger": false,
      "taf_trigger": false,
      "metar": "METAR EHEH 101155Z AUTO 15006KT 120V220 7000 BR SCT005 SCT007 OVC010 07/06 Q0992 GRN NOSIG RMK TREND REMOTED BY EHWX",
      "taf": "TAF EHEH 101125Z 1012/1118 14006KT 5000 BR BKN006 OVC012"
    },
    {
      "icao": "EKBI",
      "alert": "OK",
      "vis_m": 2400,
      "fzfg": false,
      "metar_trigger": false,
      "taf_trigger": false,
      "metar": "METAR EKBI 101150Z AUTO 10006KT 060V120 2400 R09/P1500N R27/1400N BR OVC003/// M00/M00 Q0999",
      "taf": "TAF EKBI 101127Z 1012/1112 09010KT 2500 BR BKN003"
    },
    {
      "icao": "EKCH",
      "alert": "OK",
      "vis_m": 4000,
      "fzfg": false,
      "metar_trigger": false,
      "taf_trigger": false,
      "metar": "METAR EKCH 101150Z 12009KT 4000 BR OVC006 M00/M01 Q1002 TEMPO 2500 -SNSG BKN004",
      "taf": "TAF EKCH 101127Z 1012/1112 12008KT 3000 BR BKN006"
    },
    {
      "icao": "ENAL",
      "alert": "OK",
      "vis_m": 9999,
      "fzfg": false,
      "metar_trigger": false,
      "taf_trigger": false,
      "metar": "METAR ENAL 101150Z 16005KT 120V180 9999 SCT049 04/M03 Q1002",
      "taf": "TAF ENAL 101100Z 1012/1021 15005KT 9999 FEW020 BKN040"
    },
    {
      "icao": "ENBR",
      "alert": "OK",
      "vis_m": 9999,
      "fzfg": false,
      "metar_trigger": false,
      "taf_trigger": false,
      "metar": "METAR ENBR 101150Z VRB01KT CAVOK 02/M05 Q1002 NOSIG RMK WIND 1200FT VRB01KT",
      "taf": "TAF ENBR 101100Z 1012/1112 VRB03KT CAVOK"
    },
    {
      "icao": "ENGM",
      "alert": "OK",
      "vis_m": 7000,
      "fzfg": false,
      "metar_trigger": false,
      "taf_trigger": false,
      "metar": "METAR ENGM 101150Z 00000KT 7000 2000W -SN FEW002 BKN005 M10/M12 Q1003 TEMPO BKN004",
      "taf": "TAF ENGM 101100Z 1012/1112 VRB03KT 9999 BKN004"
    },
    {
      "icao": "ENHD",
      "alert": "OK",
      "vis_m": 9999,
      "fzfg": false,
      "metar_trigger": false,
      "taf_trigger": false,
      "metar": "METAR ENHD 101150Z 10005KT 9999 SCT045 02/M06 Q1002",
      "taf": "TAF ENHD 101100Z 1012/1021 09008KT 9999 SCT040"
    },
    {
      "icao": "ENTC",
      "alert": "OK",
      "vis_m": 9999,
      "fzfg": false,
      "metar_trigger": false,
      "taf_trigger": false,
      "metar": "METAR ENTC 101150Z 22005KT 190V250 9999 -SN SCT015 BKN025 M05/M09 Q1005 TEMPO 2000 -SHSN VV008 RMK WIND 2600FT 35009KT",
      "taf": "TAF ENTC 101100Z 1012/1112 20008KT 9999 FEW020 SCT030"
    },
    {
      "icao": "ENTO",
      "alert": "OK",
      "vis_m": 9999,
      "fzfg": false,
      "metar_trigger": false,
      "taf_trigger": false,
      "metar": "METAR ENTO 101150Z 02005KT CAVOK M09/M13 Q1004 NOSIG",
      "taf": "TAF ENTO 101100Z 1012/1112 02005KT 9999 SCT010 SCT025"
    },
    {
      "icao": "ENVA",
      "alert": "OK",
      "vis_m": 5000,
      "fzfg": false,
      "metar_trigger": false,
      "taf_trigger": false,
      "metar": "METAR ENVA 101150Z 09002KT 5000 -SN VV015 M02/M02 Q1003 NOSIG RMK WIND 670FT VRB02KT",
      "taf": ""
    },
    {
      "icao": "ENZV",
      "alert": "OK",
      "vis_m": 9999,
      "fzfg": false,
      "metar_trigger": false,
      "taf_trigger": false,
      "metar": "METAR ENZV 101150Z 12010KT CAVOK 03/M08 Q1002 NOSIG",
      "taf": "TAF ENZV 101100Z 1012/1112 10008KT CAVOK"
    },
    {
      "icao": "EPGD",
      "alert": "OK",
      "vis_m": 5000,
      "fzfg": false,
      "metar_trigger": false,
      "taf_trigger": false,
      "metar": "METAR EPGD 101200Z 18004KT 5000 BR OVC006 M04/M05 Q1003",
      "taf": "TAF EPGD 101130Z 1012/1112 16004KT 6000 OVC006"
    },
    {
      "icao": "EPKK",
      "alert": "OK",
      "vis_m": 8000,
      "fzfg": false,
      "metar_trigger": false,
      "taf_trigger": false,
      "metar": "METAR EPKK 101200Z 06006KT 8000 SCT056 04/M00 Q1004",
      "taf": "TAF EPKK 101130Z 1012/1112 06006KT 7000 SCT040"
    },
    {
      "icao": "EPKT",
      "alert": "OK",
      "vis_m": 8000,
      "fzfg": false,
      "metar_trigger": false,
      "taf_trigger": false,
      "metar": "METAR EPKT 101200Z 16005KT 8000 SCT031 BKN036 03/02 Q1003",
      "taf": "TAF EPKT 101130Z 1012/1112 20008KT 8000 BKN030"
    },
    {
      "icao": "EPLB",
      "alert": "OK",
      "vis_m": 9999,
      "fzfg": false,
      "metar_trigger": false,
      "taf_trigger": false,
      "metar": "METAR EPLB 101200Z 14006KT 9999 BKN045 M01/M05 Q1006",
      "taf": ""
    },
    {
      "icao": "EPMO",
      "alert": "OK",
      "vis_m": 8000,
      "fzfg": false,
      "metar_trigger": false,
      "taf_trigger": false,
      "metar": "METAR EPMO 101200Z 11005KT 080V140 8000 BKN009 M03/M05 Q1005 REFZRA",
      "taf": "TAF EPMO 101130Z 1012/1112 12008KT 9999 BKN020"
    },
    {
      "icao": "EPPO",
      "alert": "OK",
      "vis_m": 5000,
      "fzfg": false,
      "metar_trigger": false,
      "taf_trigger": false,
      "metar": "METAR EPPO 101200Z 10006KT 5000 BR OVC043 02/M02 Q1002",
      "taf": "TAF EPPO 101130Z 1012/1112 14008KT 6000 OVC040"
    },
    {
      "icao": "EPRA",
      "alert": "OK",
      "vis_m": 7000,
      "fzfg": false,
      "metar_trigger": false,
      "taf_trigger": false,
      "metar": "METAR EPRA 101200Z 14007KT 7000 -FZRA BKN028 M01/M03 Q1005",
      "taf": "TAF EPRA 101130Z 1012/1021 14006KT 9999 BKN030"
    },
    {
      "icao": "EPRZ",
      "alert": "OK",
      "vis_m": 9999,
      "fzfg": false,
      "metar_trigger": false,
      "taf_trigger": false,
      "metar": "METAR EPRZ 101200Z 08008KT CAVOK M00/M04 Q1006",
      "taf": "TAF EPRZ 101130Z 1012/1112 08007KT CAVOK"
    },
    {
      "icao": "EPSC",
      "alert": "OK",
      "vis_m": 8000,
      "fzfg": false,
      "metar_trigger": false,
      "taf_trigger": false,
      "metar": "METAR EPSC 101200Z 12007KT 8000 SCT033 OVC037 M00/M03 Q1002",
      "taf": "TAF EPSC 101130Z 1012/1112 13008KT 8000 BKN030"
    },
    {
      "icao": "EPSY",
      "alert": "OK",
      "vis_m": 3600,
      "fzfg": false,
      "metar_trigger": false,
      "taf_trigger": false,
      "metar": "METAR EPSY 101200Z VRB02KT 3600 BR BKN005 OVC011 M07/M08 Q1005",
      "taf": "TAF EPSY 101130Z 1012/1021 16005KT 5000 BR OVC006"
    },
    {
      "icao": "EPWA",
      "alert": "OK",
      "vis_m": 9999,
      "fzfg": false,
      "metar_trigger": false,
      "taf_trigger": false,
      "metar": "METAR EPWA 101200Z 15007KT 9999 -FZRA BKN020 M03/M06 Q1005 TEMPO FZRA",
      "taf": "TAF EPWA 101130Z 1012/1112 13008KT 9999 BKN020"
    },
    {
      "icao": "EPWR",
      "alert": "OK",
      "vis_m": 8000,
      "fzfg": false,
      "metar_trigger": false,
      "taf_trigger": false,
      "metar": "METAR EPWR 101200Z 13007KT 8000 BKN030 03/01 Q1002",
      "taf": "TAF EPWR 101130Z 1012/1112 12007KT 6000 BKN033"
    },
    {
      "icao": "ESGG",
      "alert": "OK",
      "vis_m": 9999,
      "fzfg": false,
      "metar_trigger": false,
      "taf_trigger": false,
      "metar": "METAR ESGG 101150Z 11005KT 9999 BKN006 M03/M06 Q1002",
      "taf": "TAF ESGG 101130Z 1012/1112 10005KT 9999 SCT008 BKN018"
    },
    {
      "icao": "ESKN",
      "alert": "OK",
      "vis_m": 9999,
      "fzfg": false,
      "metar_trigger": false,
      "taf_trigger": false,
      "metar": "METAR ESKN 101150Z 29007KT 250V320 9999 BKN016 M06/M09 Q1004",
      "taf": "TAF ESKN 101130Z 1012/1112 26005KT 9999 BKN016"
    },
    {
      "icao": "ESMS",
      "alert": "OK",
      "vis_m": 3500,
      "fzfg": false,
      "metar_trigger": false,
      "taf_trigger": false,
      "metar": "METAR ESMS 101150Z 12008KT 3500 BR OVC003 M01/M01 Q1002",
      "taf": "TAF ESMS 101150Z 1012/1112 15008KT 5000 BR BKN006"
    },
    {
      "icao": "ESSA",
      "alert": "OK",
      "vis_m": 9999,
      "fzfg": false,
      "metar_trigger": false,
      "taf_trigger": false,
      "metar": "METAR ESSA 101150Z 25005KT 220V300 9999 BKN012 M09/M12 Q1003 TEMPO BKN010",
      "taf": "TAF ESSA 101130Z 1012/1112 24005KT 9999 OVC011"
    },
    {
      "icao": "EYKA",
      "alert": "OK",
      "vis_m": 4700,
      "fzfg": false,
      "metar_trigger": false,
      "taf_trigger": false,
      "metar": "METAR EYKA 101150Z 21003KT 150V260 4700 -SN BR OVC004 M11/M13 Q1007",
      "taf": "TAF EYKA 101118Z 1012/1112 VRB03KT 5000 BR OVC005"
    },
    {
      "icao": "EYPA",
      "alert": "OK",
      "vis_m": 8000,
      "fzfg": false,
      "metar_trigger": false,
      "taf_trigger": false,
      "metar": "METAR EYPA 101150Z 14006KT 120V180 8000 OVC007 M10/M12 Q1006",
      "taf": "TAF EYPA 101117Z 1012/1112 15008KT 6000 OVC005"
    },
    {
      "icao": "EYVI",
      "alert": "OK",
      "vis_m": 9999,
      "fzfg": false,
      "metar_trigger": false,
      "taf_trigger": false,
      "metar": "METAR EYVI 101150Z 20010KT 9999 SCT010 OVC016 M10/M13 Q1006 NOSIG",
      "taf": "TAF EYVI 101125Z 1012/1112 19008KT 5000 BR BKN010"
    },
    {
      "icao": "GCFV",
      "alert": "OK",
      "vis_m": 9999,
      "fzfg": false,
      "metar_trigger": false,
      "taf_trigger": false,
      "metar": "METAR GCFV 101200Z 36014KT 9999 FEW010 23/16 Q1024",
      "taf": "TAF GCFV 100800Z 1009/1109 04014KT 9999 SCT020 TX23/1014Z TN16/1106Z"
    },
    {
      "icao": "GCLP",
      "alert": "OK",
      "vis_m": 9999,
      "fzfg": false,
      "metar_trigger": false,
      "taf_trigger": false,
      "metar": "METAR GCLP 101200Z 02022KT 9999 SCT030 22/16 Q1024 NOSIG",
      "taf": "TAF GCLP 100800Z 1009/1109 02019KT 9999 FEW025 TX22/1014Z TN17/1106Z"
    },
    {
      "icao": "GCTS",
      "alert": "OK",
      "vis_m": 9999,
      "fzfg": false,
      "metar_trigger": false,
      "taf_trigger": false,
      "metar": "METAR GCTS 101200Z 11014KT 9999 FEW022 22/06 Q1025 WS R07 NOSIG",
      "taf": "TAF GCTS 100800Z 1009/1109 06004KT 9999 FEW035 TX22/1014Z TN17/1106Z"
    },
    {
      "icao": "GMAD",
      "alert": "OK",
      "vis_m": 5000,
      "fzfg": false,
      "metar_trigger": false,
      "taf_trigger": false,
      "metar": "METAR GMAD 101200Z 00000KT 5000 FEW006 SCT016 18/17 Q1022 NOSIG",
      "taf": "TAF GMAD 101100Z 1012/1118 28011KT 8000 BKN016"
    },
    {
      "icao": "GMMN",
      "alert": "OK",
      "vis_m": 9999,
      "fzfg": false,
      "metar_trigger": false,
      "taf_trigger": false,
      "metar": "METAR GMMN 101200Z 28007KT 180V310 9999 SCT009 SCT030 20/17 Q1024 NOSIG",
      "taf": "TAF GMMN 101100Z 1012/1118 30007KT 9999 SCT016"
    },
    {
      "icao": "GMMX",
      "alert": "OK",
      "vis_m": 9999,
      "fzfg": false,
      "metar_trigger": false,
      "taf_trigger": false,
      "metar": "METAR GMMX 101200Z 03005KT 330V080 CAVOK 22/14 Q1023 NOSIG",
      "taf": "TAF GMMX 101100Z 1012/1118 24008KT 8000 SCT026"
    },
    {
      "icao": "HEGN",
      "alert": "OK",
      "vis_m": 9999,
      "fzfg": false,
      "metar_trigger": false,
      "taf_trigger": false,
      "metar": "METAR HEGN 101100Z 11005KT CAVOK 27/20 Q1011 NOSIG",
      "taf": "TAF HEGN 101100Z 1012/1118 34008KT 6000 SCT025"
    },
    {
      "icao": "HEMA",
      "alert": "OK",
      "vis_m": 9999,
      "fzfg": false,
      "metar_trigger": false,
      "taf_trigger": false,
      "metar": "METAR HEMA 101100Z 10006KT CAVOK 29/11 Q1012 NOSIG",
      "taf": "TAF HEMA 101100Z 1012/1118 09012KT CAVOK"
    },
    {
      "icao": "HESH",
      "alert": "OK",
      "vis_m": 9999,
      "fzfg": false,
      "metar_trigger": false,
      "taf_trigger": false,
      "metar": "METAR HESH 101100Z 17006KT 9999 SCT020 27/17 Q1012 NOSIG",
      "taf": "TAF HESH 101100Z 1012/1118 02008KT CAVOK"
    },
    {
      "icao": "HESX",
      "alert": "OK",
      "vis_m": 9999,
      "fzfg": false,
      "metar_trigger": false,
      "taf_trigger": false,
      "metar": "METAR HESX 101100Z 24006KT CAVOK 23/08 Q1012 NOSIG",
      "taf": "TAF HESX 101100Z 1012/1118 25008KT CAVOK"
    },
    {
      "icao": "LATI",
      "alert": "OK",
      "vis_m": 9999,
      "fzfg": false,
      "metar_trigger": false,
      "taf_trigger": false,
      "metar": "METAR LATI 101150Z 26006KT 9999 FEW045 BKN100 15/05 Q1007 NOSIG",
      "taf": "TAF LATI 101100Z 1012/1112 VRB05KT 9999 SCT040 BKN080 TX16/1012Z TN09/1105Z"
    },
    {
      "icao": "LBPD",
      "alert": "OK",
      "vis_m": 9999,
      "fzfg": false,
      "metar_trigger": false,
      "taf_trigger": false,
      "metar": "METAR LBPD 101200Z AUTO 11005KT 9999 OVC015/// 02/M00 Q1014 TEMPO -SN",
      "taf": "TAF LBPD 101100Z 1012/1112 11010KT 9999 BKN020 OVC035"
    },
    {
      "icao": "LBSF",
      "alert": "OK",
      "vis_m": 9999,
      "fzfg": false,
      "metar_trigger": false,
      "taf_trigger": false,
      "metar": "METAR LBSF 101200Z 11017KT 9999 SCT019 BKN023 BKN088 01/M03 Q1011 NOSIG",
      "taf": "TAF LBSF 101100Z 1012/1112 11014KT 9999 BKN015 OVC025"
    },
    {
      "icao": "LBWN",
      "alert": "OK",
      "vis_m": 9999,
      "fzfg": false,
      "metar_trigger": false,
      "taf_trigger": false,
      "metar": "METAR LBWN 101200Z 05008KT 9999 OVC026 02/00 Q1014 NOSIG",
      "taf": "TAF LBWN 101100Z 1012/1112 04012KT 9999 SCT015 OVC030"
    },
    {
      "icao": "LCLK",
      "alert": "OK",
      "vis_m": 9999,
      "fzfg": false,
      "metar_trigger": false,
      "taf_trigger": false,
      "metar": "METAR LCLK 101200Z 23018KT 9999 FEW025 SCT060 20/15 Q1008 NOSIG",
      "taf": "TAF LCLK 101130Z 1012/1112 22020KT 9999 FEW025 SCT040"
    },
    {
      "icao": "LCPH",
      "alert": "OK",
      "vis_m": 9999,
      "fzfg": false,
      "metar_trigger": false,
      "taf_trigger": false,
      "metar": "METAR LCPH 101200Z 26013KT 240V300 9999 SCT025 SCT035 18/13 Q1008 NOSIG",
      "taf": "TAF LCPH 101130Z 1012/1112 26016KT 9999 FEW025 SCT040"
    },
    {
      "icao": "LEAL",
      "alert": "OK",
      "vis_m": 9999,
      "fzfg": false,
      "metar_trigger": false,
      "taf_trigger": false,
      "metar": "METAR LEAL 101200Z 22011KT 180V250 9999 FEW045 23/13 Q1010 NOSIG",
      "taf": "TAF LEAL 101100Z 1012/1112 25012KT 9999 SCT045 TX23/1012Z TN15/1106Z"
    },
    {
      "icao": "LEBB",
      "alert": "OK",
      "vis_m": 9999,
      "fzfg": false,
      "metar_trigger": false,
      "taf_trigger": false,
      "metar": "METAR LEBB 101200Z 21011KT 160V270 9999 FEW070 21/13 Q1001 TEMPO RA",
      "taf": "TAF LEBB 101100Z 1012/1112 20009KT 9999 FEW030 SCT070 TX20/1012Z TN09/1106Z"
    },
    {
      "icao": "LEBL",
      "alert": "OK",
      "vis_m": 9999,
      "fzfg": false,
      "metar_trigger": false,
      "taf_trigger": false,
      "metar": "METAR LEBL 101200Z 24003KT 200V290 9999 SCT035 17/13 Q1005 NOSIG",
      "taf": "TAF LEBL 101100Z 1012/1112 22012KT 9999 FEW020 TX20/1012Z TN14/1106Z"
    },
    {
      "icao": "LECH",
      "alert": "OK",
      "vis_m": 9999,
      "fzfg": false,
      "metar_trigger": false,
      "taf_trigger": false,
      "metar": "METAR LECH 101200Z AUTO VRB02KT CAVOK 22/08 Q1006",
      "taf": ""
    },
    {
      "icao": "LEMD",
      "alert": "OK",
      "vis_m": 6000,
      "fzfg": false,
      "metar_trigger": false,
      "taf_trigger": false,
      "metar": "METAR LEMD 101200Z 23014G31KT 6000 RA FEW013 FEW050TCU BKN055 13/13 Q1013 BECMG NSW",
      "taf": "TAF LEMD 101100Z 1012/1118 24015KT 9999 SCT015 TX15/1015Z TN10/1107Z"
    },
    {
      "icao": "LEMG",
      "alert": "OK",
      "vis_m": 9999,
      "fzfg": false,
      "metar_trigger": false,
      "taf_trigger": false,
      "metar": "METAR LEMG 101200Z 10004KT 040V150 9999 FEW025 BKN055 21/15 Q1018 NOSIG",
      "taf": "TAF LEMG 101100Z 1012/1112 28007KT 9999 SCT020 TX22/1014Z TN16/1107Z"
    },
    {
      "icao": "LEVC",
      "alert": "OK",
      "vis_m": 9999,
      "fzfg": false,
      "metar_trigger": false,
      "taf_trigger": false,
      "metar": "METAR LEVC 101200Z 28012KT 240V320 9999 FEW050 23/11 Q1008 NOSIG",
      "taf": "TAF LEVC 101100Z 1012/1112 26015KT 9999 FEW045 TX24/1014Z TN17/1106Z"
    },
    {
      "icao": "LEXJ",
      "alert": "OK",
      "vis_m": 9999,
      "fzfg": false,
      "metar_trigger": false,
      "taf_trigger": false,
      "metar": "METAR LEXJ 101200Z 32011KT 290V350 9999 -RA FEW030 SCT055 BKN070 17/13 Q1002",
      "taf": ""
    },
    {
      "icao": "LEZG",
      "alert": "OK",
      "vis_m": 9999,
      "fzfg": false,
      "metar_trigger": false,
      "taf_trigger": false,
      "metar": "METAR LEZG 101200Z 25021KT 220V290 9999 FEW040 19/12 Q1006 NOSIG",
      "taf": "TAF LEZG 101100Z 1012/1112 25018KT 9999 SCT070 TX20/1012Z TN13/1108Z"
    },
    {
      "icao": "LEZL",
      "alert": "OK",
      "vis_m": 9999,
      "fzfg": false,
      "metar_trigger": false,
      "taf_trigger": false,
      "metar": "METAR LEZL 101200Z 24012KT 9999 BKN012 18/16 Q1019 NOSIG",
      "taf": ""
    },
    {
      "icao": "LFBD",
      "alert": "OK",
      "vis_m": 2800,
      "fzfg": false,
      "metar_trigger": false,
      "taf_trigger": false,
      "metar": "METAR LFBD 101200Z AUTO 26015KT 2800 1100 R23/2300U R05/1700D R29/1800N RA BR BKN006/// BKN011/// OVC018/// ///CB 14/14 Q0998 TEMPO 23015G25KT 1200 TSRA BKN003 SCT025CB",
      "taf": "TAF LFBD 101100Z 1012/1118 23010KT 7000 BKN015 TX14/1014Z TN11/1106Z"
    },
    {
      "icao": "LFLL",
      "alert": "OK",
      "vis_m": 9999,
      "fzfg": false,
      "metar_trigger": false,
      "taf_trigger": false,
      "metar": "METAR LFLL 101200Z COR 19022G34KT CAVOK 11/07 Q1000 TEMPO 18025G35KT BECMG RA",
      "taf": "TAF LFLL 101100Z 1012/1118 18020KT CAVOK"
    },
    {
      "icao": "LFLS",
      "alert": "OK",
      "vis_m": 9999,
      "fzfg": false,
      "metar_trigger": false,
      "taf_trigger": false,
      "metar": "METAR LFLS 101200Z AUTO 22009KT 160V260 9999 BKN027 BKN033 OVC052 11/06 Q1002 TEMPO 22018G30KT",
      "taf": "TAF LFLS 100800Z 1009/1109 22012KT 9999 BKN040"
    },
    {
      "icao": "LFMN",
      "alert": "OK",
      "vis_m": 9999,
      "fzfg": false,
      "metar_trigger": false,
      "taf_trigger": false,
      "metar": "METAR LFMN 101200Z 24007KT 9999 FEW023 BKN033 12/07 Q1005 NOSIG",
      "taf": ""
    },
    {
      "icao": "LFOB",
      "alert": "OK",
      "vis_m": 9999,
      "fzfg": false,
      "metar_trigger": false,
      "taf_trigger": false,
      "metar": "METAR LFOB 101200Z AUTO 20011KT 170V230 9999 BKN022 OVC027 11/08 Q0992 TEMPO 4500 -SHRA BKN013TCU BKN025",
      "taf": "TAF LFOB 101100Z 1012/1112 20012KT 9999 BKN020 OVC030"
    },
    {
      "icao": "LFPO",
      "alert": "OK",
      "vis_m": 9999,
      "fzfg": false,
      "metar_trigger": false,
      "taf_trigger": false,
      "metar": "METAR LFPO 101200Z 20010KT 9999 BKN011 BKN026 12/09 Q0993 TEMPO BKN010",
      "taf": "TAF LFPO 101100Z 1012/1118 21010KT 9999 BKN012"
    },
    {
      "icao": "LFSB",
      "alert": "OK",
      "vis_m": 9999,
      "fzfg": false,
      "metar_trigger": false,
      "taf_trigger": false,
      "metar": "METAR LFSB 101200Z AUTO 11005KT 9999 OVC036 08/05 Q0999 TEMPO 4500 -SHRA FEW040TCU",
      "taf": "TAF LFSB 101100Z 1012/1112 09005KT 9999 OVC035 OVC045"
    },
    {
      "icao": "LGAV",
      "alert": "OK",
      "vis_m": 9999,
      "fzfg": false,
      "metar_trigger": false,
      "taf_trigger": false,
      "metar": "METAR LGAV 101150Z 04013KT 9999 FEW018 SCT050 12/07 Q1009 NOSIG",
      "taf": "TAF LGAV 101100Z 1012/1112 03012KT 9999 SCT025 SCT070"
    },
    {
      "icao": "LGTS",
      "alert": "OK",
      "vis_m": 9999,
      "fzfg": false,
      "metar_trigger": false,
      "taf_trigger": false,
      "metar": "METAR LGTS 101150Z 30004KT 9999 FEW012 BKN030 10/06 Q1011 NOSIG",
      "taf": "TAF LGTS 101100Z 1012/1112 VRB03KT 9999 FEW010 BKN025"
    },
    {
      "icao": "LHBP",
      "alert": "OK",
      "vis_m": 9999,
      "fzfg": false,
      "metar_trigger": false,
      "taf_trigger": false,
      "metar": "METAR LHBP 101200Z 16010KT 130V190 9999 OVC018 03/M01 Q1008 NOSIG",
      "taf": "TAF LHBP 101115Z 1012/1112 15012KT 9999 BKN019"
    },
    {
      "icao": "LHDC",
      "alert": "OK",
      "vis_m": 9999,
      "fzfg": false,
      "metar_trigger": false,
      "taf_trigger": false,
      "metar": "METAR LHDC 101145Z AUTO 20004KT 140V260 9999 BKN024 OVC035 05/01 Q1009 NOSIG",
      "taf": "TAF LHDC 101115Z 1012/1021 21006KT 9999 BKN025 OVC040"
    },
    {
      "icao": "LIBD",
      "alert": "OK",
      "vis_m": 9999,
      "fzfg": false,
      "metar_trigger": false,
      "taf_trigger": false,
      "metar": "METAR LIBD 101150Z 01004KT 330V050 9999 FEW040 14/07 Q1006",
      "taf": "TAF LIBD 101100Z 1012/1112 VRB05KT 9999 SCT040"
    },
    {
      "icao": "LIBG",
      "alert": "OK",
      "vis_m": 9999,
      "fzfg": false,
      "metar_trigger": false,
      "taf_trigger": false,
      "metar": "METAR LIBG 101150Z 25005KT 200V310 CAVOK 15/07 Q1007",
      "taf": "TAF LIBG 101100Z 1012/1021 18010KT 9999 FEW040"
    },
    {
      "icao": "LIBP",
      "alert": "OK",
      "vis_m": 9999,
      "fzfg": false,
      "metar_trigger": false,
      "taf_trigger": false,
      "metar": "METAR LIBP 101150Z AUTO 07009KT 9999 SCT100/// 12/08 Q1006",
      "taf": "TAF LIBP 101100Z 1012/1112 VRB05KT 9999 BKN020"
    },
    {
      "icao": "LIBR",
      "alert": "OK",
      "vis_m": 9999,
      "fzfg": false,
      "metar_trigger": false,
      "taf_trigger": false,
      "metar": "METAR LIBR 101150Z 06005KT 9999 SCT030 13/09 Q1007",
      "taf": "TAF LIBR 101100Z 1012/1112 VRB05KT 9999 SCT020"
    },
    {
      "icao": "LICA",
      "alert": "OK",
      "vis_m": 9999,
      "fzfg": false,
      "metar_trigger": false,
      "taf_trigger": false,
      "metar": "METAR LICA 101150Z AUTO 24009KT 200V260 9999 -RA FEW016/// SCT062/// BKN074/// 13/11 Q1008",
      "taf": "TAF LICA 101100Z 1012/1112 26012KT 9999 BKN040"
    },
    {
      "icao": "LICC",
      "alert": "OK",
      "vis_m": 9999,
      "fzfg": false,
      "metar_trigger": false,
      "taf_trigger": false,
      "metar": "METAR LICC 101150Z 25017KT 9999 FEW030 18/15 Q1009",
      "taf": "TAF LICC 101100Z 1012/1112 26013KT 9999 SCT030"
    },
    {
      "icao": "LICJ",
      "alert": "OK",
      "vis_m": 9999,
      "fzfg": false,
      "metar_trigger": false,
      "taf_trigger": false,
      "metar": "METAR LICJ 101150Z 21011KT 9999 FEW030 SCT050 15/09 Q1009",
      "taf": "TAF LICJ 101100Z 1012/1112 21015KT 9999 SCT025"
    },
    {
      "icao": "LIMC",
      "alert": "OK",
      "vis_m": 7000,
      "fzfg": false,
      "metar_trigger": false,
      "taf_trigger": false,
      "metar": "METAR LIMC 101150Z VRB02KT 7000 SCT013 BKN020 09/07 Q1005 NOSIG",
      "taf": "TAF LIMC 101100Z 1012/1118 VRB04KT 7000 SCT010 BKN020"
    },
    {
      "icao": "LIME",
      "alert": "OK",
      "vis_m": 9999,
      "fzfg": false,
      "metar_trigger": false,
      "taf_trigger": false,
      "metar": "METAR LIME 101150Z 19004KT 9999 SCT020 SCT055 10/05 Q1005 NOSIG",
      "taf": "TAF LIME 101100Z 1012/1112 VRB04KT 8000 BKN025"
    },
    {
      "icao": "LIMF",
      "alert": "OK",
      "vis_m": 7000,
      "fzfg": false,
      "metar_trigger": false,
      "taf_trigger": false,
      "metar": "METAR LIMF 101150Z 06004KT 030V110 7000 SCT018 BKN050 08/05 Q1005",
      "taf": "TAF LIMF 101100Z 1012/1112 VRB04KT 7000 BKN020"
    },
    {
      "icao": "LIMJ",
      "alert": "OK",
      "vis_m": 9999,
      "fzfg": false,
      "metar_trigger": false,
      "taf_trigger": false,
      "metar": "METAR LIMJ 101150Z 18006KT 9999 SCT018 BKN024 14/09 Q1005",
      "taf": "TAF LIMJ 101100Z 1012/1112 13007KT 9999 BKN014"
    },
    {
      "icao": "LIPE",
      "alert": "OK",
      "vis_m": 9999,
      "fzfg": false,
      "metar_trigger": false,
      "taf_trigger": false,
      "metar": "METAR LIPE 101150Z VRB02KT 9999 FEW060 13/09 Q1005",
      "taf": "TAF LIPE 101100Z 1012/1112 VRB05KT 7000 SCT020"
    },
    {
      "icao": "LIPH",
      "alert": "OK",
      "vis_m": 9999,
      "fzfg": false,
      "metar_trigger": false,
      "taf_trigger": false,
      "metar": "METAR LIPH 101150Z VRB02KT 9999 SCT040 BKN060 11/06 Q1005",
      "taf": "TAF LIPH 101100Z 1012/1112 VRB05KT 7000 BKN040"
    },
    {
      "icao": "LIPQ",
      "alert": "OK",
      "vis_m": 9999,
      "fzfg": false,
      "metar_trigger": false,
      "taf_trigger": false,
      "metar": "METAR LIPQ 101150Z AUTO VRB01KT 9999 BKN022/// OVC057/// 11/07 Q1005",
      "taf": "TAF LIPQ 101100Z 1012/1112 VRB05KT 9999 BKN040"
    },
    {
      "icao": "LIPR",
      "alert": "OK",
      "vis_m": 9999,
      "fzfg": false,
      "metar_trigger": false,
      "taf_trigger": false,
      "metar": "METAR LIPR 101150Z 07006KT 9999 FEW015 11/08 Q1005",
      "taf": "TAF LIPR 101100Z 1012/1112 VRB05KT 6000 SCT010 BKN020"
    },
    {
      "icao": "LIPX",
      "alert": "OK",
      "vis_m": 9999,
      "fzfg": false,
      "metar_trigger": false,
      "taf_trigger": false,
      "metar": "METAR LIPX 101150Z 18003KT 140V220 9999 FEW020 BKN080 11/07 Q1005",
      "taf": "TAF LIPX 101100Z 1012/1112 VRB04KT 8000 BKN050"
    },
    {
      "icao": "LIPY",
      "alert": "OK",
      "vis_m": 9999,
      "fzfg": false,
      "metar_trigger": false,
      "taf_trigger": false,
      "metar": "METAR LIPY 101150Z AUTO 05006KT 9999 NCD 12/09 Q1005",
      "taf": "TAF LIPY 101100Z 1012/1112 VRB05KT 7000 FEW020 SCT040"
    },
    {
      "icao": "LIPZ",
      "alert": "OK",
      "vis_m": 9999,
      "fzfg": false,
      "metar_trigger": false,
      "taf_trigger": false,
      "metar": "METAR LIPZ 101150Z 15004KT 9999 BKN055 10/05 Q1005 NOSIG",
      "taf": "TAF LIPZ 101100Z 1012/1118 VRB05KT 9999 BKN050"
    },
    {
      "icao": "LIRF",
      "alert": "OK",
      "vis_m": 9999,
      "fzfg": false,
      "metar_trigger": false,
      "taf_trigger": false,
      "metar": "METAR LIRF 101150Z 19006KT 9999 FEW020 14/10 Q1006 NOSIG",
      "taf": "TAF LIRF 101100Z 1012/1118 22010KT 9999 FEW050"
    },
    {
      "icao": "LIRN",
      "alert": "OK",
      "vis_m": 9999,
      "fzfg": false,
      "metar_trigger": false,
      "taf_trigger": false,
      "metar": "METAR LIRN 101150Z 19006KT 150V220 9999 -RA FEW020 BKN045 13/09 Q1007 TEMPO RA",
      "taf": "TAF LIRN 101100Z 1012/1112 20010KT 9999 SCT040"
    },
    {
      "icao": "LIRP",
      "alert": "OK",
      "vis_m": 9999,
      "fzfg": false,
      "metar_trigger": false,
      "taf_trigger": false,
      "metar": "METAR LIRP 101145Z 03002KT 9999 BKN020 13/11 Q1006 NOSIG",
      "taf": "TAF LIRP 101100Z 1012/1112 VRB03KT 9999 SCT015 BKN025"
    },
    {
      "icao": "LIRZ",
      "alert": "OK",
      "vis_m": 9999,
      "fzfg": false,
      "metar_trigger": false,
      "taf_trigger": false,
      "metar": "METAR LIRZ 101150Z AUTO VRB02KT 9999 SCT013/// 12/08 Q1006",
      "taf": "TAF LIRZ 101100Z 1012/1112 VRB05KT 7000 BKN010"
    },
    {
      "icao": "LJLJ",
      "alert": "OK",
      "vis_m": 9999,
      "fzfg": false,
      "metar_trigger": false,
      "taf_trigger": false,
      "metar": "METAR LJLJ 101200Z 14003KT 100V220 9999 FEW010 SCT033 BKN050 08/04 Q1004 NOSIG",
      "taf": "TAF LJLJ 101100Z 1012/1112 VRB02KT 9999 BKN025"
    },
    {
      "icao": "LKMT",
      "alert": "OK",
      "vis_m": 9999,
      "fzfg": false,
      "metar_trigger": false,
      "taf_trigger": false,
      "metar": "METAR LKMT 101200Z 20014KT 9999 FEW027 BKN047 07/02 Q1003 NOSIG",
      "taf": "TAF LKMT 101100Z 1012/1112 21012KT 9999 SCT025"
    },
    {
      "icao": "LKPR",
      "alert": "OK",
      "vis_m": 9999,
      "fzfg": false,
      "metar_trigger": false,
      "taf_trigger": false,
      "metar": "METAR LKPR 101200Z 18005KT 140V220 9999 BKN015 02/M01 Q1001 NOSIG",
      "taf": "TAF LKPR 101100Z 1012/1118 17006KT 9999 OVC020"
    },
    {
      "icao": "LLBG",
      "alert": "OK",
      "vis_m": 9999,
      "fzfg": false,
      "metar_trigger": false,
      "taf_trigger": false,
      "metar": "METAR LLBG 101150Z 25012KT 9999 SCT030 20/12 Q1011 NOSIG",
      "taf": "TAF LLBG 101105Z 1012/1112 25014KT 9999 SCT035"
    },
    {
      "icao": "LMML",
      "alert": "OK",
      "vis_m": 9999,
      "fzfg": false,
      "metar_trigger": false,
      "taf_trigger": false,
      "metar": "METAR LMML 101145Z 25014KT 9999 FEW026 16/10 Q1011 NOSIG",
      "taf": "TAF LMML 101100Z 1012/1112 28013KT 9999 SCT020"
    },
    {
      "icao": "LOWW",
      "alert": "OK",
      "vis_m": 9999,
      "fzfg": false,
      "metar_trigger": false,
      "taf_trigger": false,
      "metar": "METAR LOWW 101150Z 14017KT 9999 FEW010 BKN011 04/01 Q1004 TEMPO SCT012",
      "taf": "TAF LOWW 101115Z 1012/1118 13015KT 9999 BKN010 TX07/1114Z TN03/1105Z"
    },
    {
      "icao": "LPFR",
      "alert": "OK",
      "vis_m": 8000,
      "fzfg": false,
      "metar_trigger": false,
      "taf_trigger": false,
      "metar": "METAR LPFR 101200Z 24012KT 8000 BKN003 16/16 Q1021",
      "taf": "TAF LPFR 101100Z 1012/1112 25012KT 8000 SCT004 BKN008"
    },
    {
      "icao": "LPMA",
      "alert": "OK",
      "vis_m": 9999,
      "fzfg": false,
      "metar_trigger": false,
      "taf_trigger": false,
      "metar": "METAR LPMA 101200Z 17005KT 130V220 9999 FEW015 20/14 Q1025",
      "taf": "TAF LPMA 101100Z 1012/1112 VRB05KT 9999 SCT015"
    },
    {
      "icao": "LPPR",
      "alert": "OK",
      "vis_m": 4000,
      "fzfg": false,
      "metar_trigger": false,
      "taf_trigger": false,
      "metar": "METAR LPPR 101200Z 24008KT 210V270 4000 BR BKN002 BKN005 15/15 Q1011",
      "taf": "TAF LPPR 101100Z 1012/1112 22010KT 6000 SCT004 BKN008"
    },
    {
      "icao": "LPPS",
      "alert": "OK",
      "vis_m": 9999,
      "fzfg": false,
      "metar_trigger": false,
      "taf_trigger": false,
      "metar": "METAR LPPS 101200Z 26010KT 9999 FEW012 19/15 Q1025",
      "taf": "TAF LPPS 101100Z 1012/1118 27008KT 9999 SCT012"
    },
    {
      "icao": "LPPT",
      "alert": "OK",
      "vis_m": 1800,
      "fzfg": false,
      "metar_trigger": false,
      "taf_trigger": false,
      "metar": "METAR LPPT 101200Z 24017KT 1800 DZ BR FEW001 BKN003 16/16 Q1017",
      "taf": "TAF LPPT 101100Z 1012/1118 23013KT 6000 SCT004 BKN008"
    },
    {
      "icao": "LQBK",
      "alert": "OK",
      "vis_m": 9999,
      "fzfg": false,
      "metar_trigger": false,
      "taf_trigger": false,
      "metar": "METAR LQBK 101200Z VRB02KT 9999 -RA FEW010 SCT013 BKN040 05/03 Q1006 NOSIG",
      "taf": ""
    },
    {
      "icao": "LQSA",
      "alert": "OK",
      "vis_m": 9999,
      "fzfg": false,
      "metar_trigger": false,
      "taf_trigger": false,
      "metar": "METAR LQSA 101200Z VRB02KT 9999 FEW045 BKN055 10/05 Q1004 NOSIG",
      "taf": "TAF LQSA 101100Z 1012/1112 VRB02KT 9999 SCT035 TX09/1013Z TN03/1105Z"
    },
    {
      "icao": "LQTZ",
      "alert": "OK",
      "vis_m": 9999,
      "fzfg": false,
      "metar_trigger": false,
      "taf_trigger": false,
      "metar": "METAR LQTZ 101200Z 16003KT 100V210 9999 FEW035 BKN055 09/05 Q1005",
      "taf": ""
    },
    {
      "icao": "LRBC",
      "alert": "OK",
      "vis_m": 9999,
      "fzfg": false,
      "metar_trigger": false,
      "taf_trigger": false,
      "metar": "METAR LRBC 101200Z 15019KT CAVOK M01/M05 Q1013",
      "taf": "TAF LRBC 101100Z 1012/1021 16015KT 9999 SCT025"
    },
    {
      "icao": "LRBS",
      "alert": "OK",
      "vis_m": 9999,
      "fzfg": false,
      "metar_trigger": false,
      "taf_trigger": false,
      "metar": "METAR LRBS 101200Z 05007KT 020V080 9999 SCT021 BKN036 01/M05 Q1016 NOSIG",
      "taf": "TAF LRBS 101100Z 1012/1112 VRB04KT 9999 SCT040"
    },
    {
      "icao": "LRBV",
      "alert": "OK",
      "vis_m": 9999,
      "fzfg": false,
      "metar_trigger": false,
      "taf_trigger": false,
      "metar": "METAR LRBV 101200Z 11006KT 060V140 9999 FEW072 05/M04 Q1009",
      "taf": "TAF LRBV 101100Z 1012/1021 19012KT CAVOK"
    },
    {
      "icao": "LRCL",
      "alert": "OK",
      "vis_m": 9999,
      "fzfg": false,
      "metar_trigger": false,
      "taf_trigger": false,
      "metar": "METAR LRCL 101200Z 11009KT 090V160 9999 -SN OVC043 02/M01 Q1009",
      "taf": "TAF LRCL 101100Z 1012/1021 14010KT 9999 OVC035"
    },
    {
      "icao": "LRCV",
      "alert": "OK",
      "vis_m": 2500,
      "fzfg": false,
      "metar_trigger": false,
      "taf_trigger": false,
      "metar": "METAR LRCV 101200Z 10011KT 2500 SN BR SCT008 BKN012 OVC022 M02/M03 Q1014",
      "taf": "TAF LRCV 101100Z 1012/1021 10012KT 3000 -SN BR BKN010 OVC030"
    },
    {
      "icao": "LRIA",
      "alert": "OK",
      "vis_m": 9999,
      "fzfg": false,
      "metar_trigger": false,
      "taf_trigger": false,
      "metar": "METAR LRIA 101200Z 15013KT 9999 BKN021 M00/M06 Q1015",
      "taf": "TAF LRIA 101100Z 1012/1021 14014KT 9999 SCT020"
    },
    {
      "icao": "LROP",
      "alert": "OK",
      "vis_m": 9999,
      "fzfg": false,
      "metar_trigger": false,
      "taf_trigger": false,
      "metar": "METAR LROP 101200Z 04007KT 9999 BKN030 00/M06 Q1016 NOSIG",
      "taf": "TAF LROP 101100Z 1012/1112 VRB04KT 9999 SCT040"
    },
    {
      "icao": "LRSB",
      "alert": "OK",
      "vis_m": 9999,
      "fzfg": false,
      "metar_trigger": false,
      "taf_trigger": false,
      "metar": "METAR LRSB 101200Z 18007KT 9999 FEW045 BKN075 04/M04 Q1008",
      "taf": "TAF LRSB 101100Z 1012/1112 14016KT 9999 BKN050"
    },
    {
      "icao": "LRSM",
      "alert": "OK",
      "vis_m": 9999,
      "fzfg": false,
      "metar_trigger": false,
      "taf_trigger": false,
      "metar": "METAR LRSM 101200Z 33003KT 9999 OVC025 05/M02 Q1009",
      "taf": "TAF LRSM 101100Z 1012/1021 14006KT 9999 SCT010 OVC025"
    },
    {
      "icao": "LRSV",
      "alert": "OK",
      "vis_m": 9999,
      "fzfg": false,
      "metar_trigger": false,
      "taf_trigger": false,
      "metar": "METAR LRSV 101200Z 16012KT CAVOK M04/M06 Q1010",
      "taf": "TAF LRSV 101100Z 1012/1021 16012KT CAVOK"
    },
    {
      "icao": "LRTM",
      "alert": "OK",
      "vis_m": 9999,
      "fzfg": false,
      "metar_trigger": false,
      "taf_trigger": false,
      "metar": "METAR LRTM 101200Z 09006KT 070V130 9999 BKN038 FEW043CB 04/M04 Q1009",
      "taf": "TAF LRTM 101100Z 1012/1021 10005KT 9999 SCT040"
    },
    {
      "icao": "LRTR",
      "alert": "OK",
      "vis_m": 9999,
      "fzfg": false,
      "metar_trigger": false,
      "taf_trigger": false,
      "metar": "METAR LRTR 101200Z 13008KT 9999 FEW020 OVC040 04/01 Q1009",
      "taf": "TAF LRTR 101100Z 1012/1112 16008KT 9999 OVC040"
    },
    {
      "icao": "LTAC",
      "alert": "OK",
      "vis_m": 9999,
      "fzfg": false,
      "metar_trigger": false,
      "taf_trigger": false,
      "metar": "METAR LTAC 101150Z 09010KT 9999 SCT013 SCT035 BKN100 05/02 Q1007 NOSIG RMK RWY21C 09010KT RWY03L 08009KT RWY21R 08010KT RWY03R 06012KT RWY21L 08010KT",
      "taf": "TAF LTAC 101040Z 1012/1112 VRB02KT 9999 SCT040 BKN100"
    },
    {
      "icao": "LTFM",
      "alert": "OK",
      "vis_m": 9999,
      "fzfg": false,
      "metar_trigger": false,
      "taf_trigger": false,
      "metar": "METAR LTFM 101150Z 06021KT 9999 BKN016 BKN025 08/03 Q1010 NOSIG RMK RWY17L 06020KT RWY34L 06017KT RWY16R 06021KT RWY36 06020KT RWY18 07018KT",
      "taf": "TAF LTFM 101040Z 1012/1118 05015KT 9999 SCT012 BKN025"
    },
    {
      "icao": "LUKK",
      "alert": "OK",
      "vis_m": 9999,
      "fzfg": false,
      "metar_trigger": false,
      "taf_trigger": false,
      "metar": "METAR LUKK 101200Z 17010KT 9999 OVC024 M03/M06 Q1017 NOSIG",
      "taf": "TAF LUKK 101103Z 1012/1112 15009KT 9999 BKN020"
    },
    {
      "icao": "LWOH",
      "alert": "OK",
      "vis_m": 9999,
      "fzfg": false,
      "metar_trigger": false,
      "taf_trigger": false,
      "metar": "METAR LWOH 101150Z 18006KT 150V210 9999 SCT040 BKN090 09/03 Q1007",
      "taf": "TAF LWOH 101115Z 1012/1112 17008KT 9999 SCT030 BKN090"
    },
    {
      "icao": "LWSK",
      "alert": "OK",
      "vis_m": 9999,
      "fzfg": false,
      "metar_trigger": false,
      "taf_trigger": false,
      "metar": "METAR LWSK 101150Z 36003KT 280V070 9999 BKN026 OVC050 09/05 Q1009 NOSIG",
      "taf": "TAF LWSK 101115Z 1012/1112 VRB02KT 9999 BKN020 OVC050"
    },
    {
      "icao": "LYBE",
      "alert": "OK",
      "vis_m": 9999,
      "fzfg": false,
      "metar_trigger": false,
      "taf_trigger": false,
      "metar": "METAR LYBE 101200Z 14018KT CAVOK 04/M02 Q1008 NOSIG",
      "taf": "TAF LYBE 101100Z 1012/1112 13019KT CAVOK TX14/1112Z TN00/1105Z"
    },
    {
      "icao": "LYNI",
      "alert": "OK",
      "vis_m": 9999,
      "fzfg": false,
      "metar_trigger": false,
      "taf_trigger": false,
      "metar": "METAR LYNI 101200Z 08009KT 050V110 9999 FEW017 BKN035 05/M01 Q1010 NOSIG",
      "taf": "TAF LYNI 101100Z 1012/1112 08012KT 9999 SCT017 BKN030 OVC080 TX12/1012Z TN01/1105Z"
    },
    {
      "icao": "LYPG",
      "alert": "OK",
      "vis_m": 9000,
      "fzfg": false,
      "metar_trigger": false,
      "taf_trigger": false,
      "metar": "METAR LYPG 101200Z VRB02KT 9000 -RA FEW007 SCT027 BKN033 10/09 Q1007 NOSIG",
      "taf": "TAF LYPG 101100Z 1012/1112 17006KT 8000 FEW007 BKN040 BKN070 TX12/1013Z TN08/1106Z"
    },
    {
      "icao": "LZIB",
      "alert": "OK",
      "vis_m": 9999,
      "fzfg": false,
      "metar_trigger": false,
      "taf_trigger": false,
      "metar": "METAR LZIB 101200Z 11010KT 9999 FEW010 OVC016 03/M00 Q1006 NOSIG",
      "taf": "TAF LZIB 101115Z 1012/1112 12010KT 9999 SCT013 OVC020"
    },
    {
      "icao": "LZKZ",
      "alert": "OK",
      "vis_m": 7000,
      "fzfg": false,
      "metar_trigger": false,
      "taf_trigger": false,
      "metar": "METAR LZKZ 101200Z 18008KT 7000 -RA SCT005 BKN012 OVC026 03/02 Q1008 TEMPO BKN005",
      "taf": ""
    },
    {
      "icao": "LZTT",
      "alert": "OK",
      "vis_m": 9999,
      "fzfg": false,
      "metar_trigger": false,
      "taf_trigger": false,
      "metar": "METAR LZTT 101200Z 26012KT 9999 FEW016 SCT029 05/M01 Q1004 NOSIG",
      "taf": "TAF LZTT 101115Z 1012/1112 25006KT 9999 FEW013 SCT035"
    },
    {
      "icao": "OEJN",
      "alert": "OK",
      "vis_m": 9999,
      "fzfg": false,
      "metar_trigger": false,
      "taf_trigger": false,
      "metar": "METAR OEJN 101200Z 25010KT CAVOK 31/13 Q1010 NOSIG",
      "taf": "TAF OEJN 101100Z 1012/1118 23010KT CAVOK"
    },
    {
      "icao": "OEMA",
      "alert": "OK",
      "vis_m": 9999,
      "fzfg": false,
      "metar_trigger": false,
      "taf_trigger": false,
      "metar": "METAR OEMA 101200Z 22008KT CAVOK 32/M04 Q1014 NOSIG",
      "taf": "TAF OEMA 101100Z 1012/1118 24010KT CAVOK"
    },
    {
      "icao": "OJAI",
      "alert": "OK",
      "vis_m": 3500,
      "fzfg": false,
      "metar_trigger": false,
      "taf_trigger": false,
      "metar": "METAR OJAI 101100Z 25019KT 3500 BLDU NSC 18/07 Q1012 NOSIG",
      "taf": "TAF OJAI 101100Z 1012/1118 26012KT 4000 HZ NSC"
    },
    {
      "icao": "OMAA",
      "alert": "OK",
      "vis_m": 9999,
      "fzfg": false,
      "metar_trigger": false,
      "taf_trigger": false,
      "metar": "METAR OMAA 101200Z 35013KT CAVOK 27/09 Q1014 NOSIG",
      "taf": "TAF OMAA 101100Z 1012/1118 33011KT 8000 NSC"
    },
    {
      "icao": "OMDB",
      "alert": "OK",
      "vis_m": 9999,
      "fzfg": false,
      "metar_trigger": false,
      "taf_trigger": false,
      "metar": "METAR OMDB 101200Z 33006KT 250V040 CAVOK 27/15 Q1014 NOSIG",
      "taf": "TAF OMDB 101100Z 1012/1118 27010KT 8000 NSC"
    },
    {
      "icao": "UAAA",
      "alert": "OK",
      "vis_m": 9999,
      "fzfg": false,
      "metar_trigger": false,
      "taf_trigger": false,
      "metar": "METAR UAAA 101200Z 05002MPS 360V080 9999 SCT050 OVC100 07/01 Q1013 NOSIG",
      "taf": "TAF UAAA 101103Z 1012/1112 10003MPS 3100 BR FU SCT030CB BKN100 TX08/1109Z TNM02/1102Z"
    },
    {
      "icao": "UBBB",
      "alert": "OK",
      "vis_m": 9999,
      "fzfg": false,
      "metar_trigger": false,
      "taf_trigger": false,
      "metar": "METAR UBBB 101200Z 35020G30KT 9999 -SN OVC023 01/M03 Q1020 NOSIG",
      "taf": "TAF UBBB 100440Z 1006/1106 34024G34KT 9999 BKN012 BKN025 TX04/1009Z TN02/1100Z"
    },
    {
      "icao": "UDSG",
      "alert": "OK",
      "vis_m": 9999,
      "fzfg": false,
      "metar_trigger": false,
      "taf_trigger": false,
      "metar": "METAR UDSG 101200Z 30003KT 9999 OVC040 00/M02 Q1011 NOSIG",
      "taf": "TAF UDSG 101100Z 1012/1112 VRB06KT 9999 BKN040"
    },
    {
      "icao": "UDYZ",
      "alert": "OK",
      "vis_m": 6000,
      "fzfg": false,
      "metar_trigger": false,
      "taf_trigger": false,
      "metar": "METAR UDYZ 101200Z 23006KT 6000 -RA FEW008 OVC017 04/02 Q1011 NOSIG",
      "taf": "TAF UDYZ 101100Z 1012/1112 23006KT 6000 BKN020"
    },
    {
      "icao": "UGKO",
      "alert": "OK",
      "vis_m": 9999,
      "fzfg": false,
      "metar_trigger": false,
      "taf_trigger": false,
      "metar": "METAR UGKO 101200Z 13005KT 9999 FEW015 06/02 Q1015 NOSIG",
      "taf": "TAF UGKO 101100Z 1012/1112 08010KT CAVOK TX09/1111Z TN03/1020Z"
    }
  ]
}