{
  "ts_utc": "2026-06-03T14:53:47Z",
  "threshold_m": 150,
  "source": "stations_override.txt (ICAO list) + aviationweather.gov (METAR/TAF raw)",
  "station_count": 159,
  "stations": [
    {
      "icao": "BIKF",
      "alert": "OK",
      "vis_m": 9999,
      "fzfg": false,
      "metar_trigger": false,
      "taf_trigger": false,
      "metar": "METAR BIKF 031430Z 15007KT 9999 BKN012 OVC035 12/08 Q0994",
      "taf": "TAF BIKF 031355Z 0315/0415 15010KT 9999 SCT015 BKN025 TX12/0315Z TN08/0405Z"
    },
    {
      "icao": "BKPR",
      "alert": "OK",
      "vis_m": null,
      "fzfg": false,
      "metar_trigger": false,
      "taf_trigger": false,
      "metar": "",
      "taf": "TAF BKPR 031130Z 0312/0412 21008KT 9999 FEW050"
    },
    {
      "icao": "EBCI",
      "alert": "OK",
      "vis_m": 9999,
      "fzfg": false,
      "metar_trigger": false,
      "taf_trigger": false,
      "metar": "METAR EBCI 031420Z 21017KT 9999 FEW025 BKN045 18/11 Q1008 TEMPO 21015G30KT 3000 SHRA",
      "taf": ""
    },
    {
      "icao": "EDDB",
      "alert": "OK",
      "vis_m": 9999,
      "fzfg": false,
      "metar_trigger": false,
      "taf_trigger": false,
      "metar": "METAR EDDB 031420Z AUTO 22011KT 190V250 9999 SCT049 20/11 Q1008 NOSIG",
      "taf": "TAF EDDB 031100Z 0312/0412 26007KT CAVOK"
    },
    {
      "icao": "EDDH",
      "alert": "OK",
      "vis_m": 9999,
      "fzfg": false,
      "metar_trigger": false,
      "taf_trigger": false,
      "metar": "METAR EDDH 031420Z AUTO 21009KT 170V250 9999 VCSH SCT045 FEW///CB 21/11 Q1005 RESHRA TEMPO 23015G25KT TSRA BKN030CB",
      "taf": "TAF EDDH 031100Z 0312/0418 24010KT 9999 SCT030"
    },
    {
      "icao": "EDDK",
      "alert": "OK",
      "vis_m": 9999,
      "fzfg": false,
      "metar_trigger": false,
      "taf_trigger": false,
      "metar": "METAR EDDK 031420Z AUTO 22014KT 190V250 9999 FEW047 20/10 Q1009 TEMPO 22015G25KT",
      "taf": "TAF EDDK 031100Z 0312/0418 24010KT 9999 SCT030"
    },
    {
      "icao": "EDDN",
      "alert": "OK",
      "vis_m": 9999,
      "fzfg": false,
      "metar_trigger": false,
      "taf_trigger": false,
      "metar": "METAR EDDN 031420Z AUTO 29008KT 9999 -RA NSC 18/08 Q1012 NOSIG",
      "taf": "TAF EDDN 031100Z 0312/0412 27010KT 9999 BKN035"
    },
    {
      "icao": "EDDS",
      "alert": "OK",
      "vis_m": 9999,
      "fzfg": false,
      "metar_trigger": false,
      "taf_trigger": false,
      "metar": "METAR EDDS 031420Z AUTO 28012KT 250V310 9999 FEW047 20/09 Q1013 NOSIG",
      "taf": "TAF EDDS 031100Z 0312/0412 25010KT 9999 SCT030"
    },
    {
      "icao": "EDFH",
      "alert": "OK",
      "vis_m": 9999,
      "fzfg": false,
      "metar_trigger": false,
      "taf_trigger": false,
      "metar": "METAR EDFH 031420Z 23011G21KT 190V260 9999 FEW028 15/09 Q1011",
      "taf": "TAF EDFH 031100Z 0312/0412 25011KT 9999 BKN015"
    },
    {
      "icao": "EDJA",
      "alert": "OK",
      "vis_m": 9999,
      "fzfg": false,
      "metar_trigger": false,
      "taf_trigger": false,
      "metar": "METAR EDJA 031420Z 21010KT 9999 SCT051 14/10 Q1013",
      "taf": "TAF EDJA 031400Z 0315/0324 23010KT 9999 FEW025"
    },
    {
      "icao": "EDLW",
      "alert": "OK",
      "vis_m": 9999,
      "fzfg": false,
      "metar_trigger": false,
      "taf_trigger": false,
      "metar": "METAR EDLW 031420Z 22013KT 190V250 9999 SCT032 18/12 Q1007",
      "taf": "TAF EDLW 031100Z 0312/0412 21011KT 9999 BKN030"
    },
    {
      "icao": "EDNY",
      "alert": "OK",
      "vis_m": 9999,
      "fzfg": false,
      "metar_trigger": false,
      "taf_trigger": false,
      "metar": "METAR EDNY 031420Z 22013KT 9999 SCT041 19/11 Q1014",
      "taf": "TAF EDNY 031400Z 0315/0324 23009KT 9999 FEW035"
    },
    {
      "icao": "EDSB",
      "alert": "OK",
      "vis_m": 9999,
      "fzfg": false,
      "metar_trigger": false,
      "taf_trigger": false,
      "metar": "METAR EDSB 031420Z 20013KT 9999 FEW044 20/10 Q1012",
      "taf": "TAF EDSB 031100Z 0312/0412 23010KT 9999 SCT030"
    },
    {
      "icao": "EETN",
      "alert": "OK",
      "vis_m": 9999,
      "fzfg": false,
      "metar_trigger": false,
      "taf_trigger": false,
      "metar": "METAR EETN 031450Z 35003KT 9999 -SHRA FEW035CB SCT042 18/15 Q1012 NOSIG",
      "taf": "TAF EETN 031130Z 0312/0412 05010KT CAVOK"
    },
    {
      "icao": "EFTU",
      "alert": "OK",
      "vis_m": 9999,
      "fzfg": false,
      "metar_trigger": false,
      "taf_trigger": false,
      "metar": "METAR EFTU 031450Z AUTO 20008KT 170V240 CAVOK 21/10 Q1012",
      "taf": "TAF EFTU 031430Z 0315/0415 22006KT CAVOK"
    },
    {
      "icao": "EGBB",
      "alert": "OK",
      "vis_m": 9999,
      "fzfg": false,
      "metar_trigger": false,
      "taf_trigger": false,
      "metar": "METAR EGBB 031420Z 23011KT 190V270 9999 BKN036 19/11 Q0995",
      "taf": ""
    },
    {
      "icao": "EGGP",
      "alert": "OK",
      "vis_m": 9999,
      "fzfg": false,
      "metar_trigger": false,
      "taf_trigger": false,
      "metar": "METAR EGGP 031420Z 23020KT 9999 SCT035 BKN044 17/10 Q0992",
      "taf": "TAF EGGP 031058Z 0312/0412 18016G26KT 9999 FEW015 SCT030"
    },
    {
      "icao": "EGGW",
      "alert": "OK",
      "vis_m": 9999,
      "fzfg": false,
      "metar_trigger": false,
      "taf_trigger": false,
      "metar": "METAR EGGW 031420Z AUTO 20011KT 150V220 9999 BKN010/// BKN015/// OVC022/// //////CB 16/15 Q0997",
      "taf": ""
    },
    {
      "icao": "EGKK",
      "alert": "OK",
      "vis_m": 9999,
      "fzfg": false,
      "metar_trigger": false,
      "taf_trigger": false,
      "metar": "METAR EGKK 031420Z 21013G23KT 9999 SCT012 SCT021 17/15 Q1000",
      "taf": "TAF EGKK 031057Z 0312/0418 21018G28KT 9999 SCT040"
    },
    {
      "icao": "EGNM",
      "alert": "OK",
      "vis_m": 9999,
      "fzfg": false,
      "metar_trigger": false,
      "taf_trigger": false,
      "metar": "METAR EGNM 031420Z 21015G26KT 180V250 9999 -SHRA SCT010CB SCT021 16/12 Q0991",
      "taf": "TAF EGNM 031057Z 0312/0412 18015G25KT 9999 FEW015 SCT030"
    },
    {
      "icao": "EGPD",
      "alert": "OK",
      "vis_m": 9999,
      "fzfg": false,
      "metar_trigger": false,
      "taf_trigger": false,
      "metar": "METAR EGPD 031420Z 16013KT 9999 BKN012 14/11 Q0990 TEMPO SCT012",
      "taf": "TAF EGPD 031055Z 0312/0412 16009KT 9999 SCT010"
    },
    {
      "icao": "EGPF",
      "alert": "OK",
      "vis_m": 9999,
      "fzfg": false,
      "metar_trigger": false,
      "taf_trigger": false,
      "metar": "METAR EGPF 031420Z AUTO 15009KT 9999 SCT023/// BKN035/// //////CB 16/13 Q0986",
      "taf": ""
    },
    {
      "icao": "EHBK",
      "alert": "OK",
      "vis_m": 9999,
      "fzfg": false,
      "metar_trigger": false,
      "taf_trigger": false,
      "metar": "METAR EHBK 031425Z AUTO 21016KT 170V250 9999 SCT035/// SCT040/// 19/11 Q1008 NOSIG",
      "taf": "TAF EHBK 031102Z 0312/0418 23011KT 9999 BKN034"
    },
    {
      "icao": "EHEH",
      "alert": "OK",
      "vis_m": 9999,
      "fzfg": false,
      "metar_trigger": false,
      "taf_trigger": false,
      "metar": "METAR EHEH 031425Z AUTO 20016KT 160V230 9999 BKN037 BKN042 BKN056 19/11 Q1006 BLU NOSIG RMK TREND REMOTE BY EHWX",
      "taf": "TAF EHEH 031117Z 0312/0418 22010KT SCT025 BKN030"
    },
    {
      "icao": "EKBI",
      "alert": "OK",
      "vis_m": 9999,
      "fzfg": false,
      "metar_trigger": false,
      "taf_trigger": false,
      "metar": "METAR EKBI 031420Z 21010KT 170V240 9999 FEW022TCU SCT029 BKN083 19/13 Q1004",
      "taf": "TAF EKBI 031430Z 0315/0415 20010KT 9999 BKN015"
    },
    {
      "icao": "EKCH",
      "alert": "OK",
      "vis_m": 9999,
      "fzfg": false,
      "metar_trigger": false,
      "taf_trigger": false,
      "metar": "METAR EKCH 031420Z 19008KT 9999 BKN005 16/16 Q1006 BECMG SCT035",
      "taf": "TAF EKCH 031430Z 0315/0415 18010KT 9999 SCT035"
    },
    {
      "icao": "ENAL",
      "alert": "OK",
      "vis_m": 9999,
      "fzfg": false,
      "metar_trigger": false,
      "taf_trigger": false,
      "metar": "METAR ENAL 031420Z 15009KT CAVOK 23/09 Q0996",
      "taf": "TAF ENAL 031400Z 0315/0324 09008KT 9999 FEW055"
    },
    {
      "icao": "ENBR",
      "alert": "OK",
      "vis_m": 9999,
      "fzfg": false,
      "metar_trigger": false,
      "taf_trigger": false,
      "metar": "METAR ENBR 031420Z 11006KT 080V160 9999 -SHRA BKN050 15/12 Q0996 NOSIG RMK WIND 1200FT 14009KT",
      "taf": "TAF ENBR 031100Z 0312/0412 16008KT 9999 FEW012 BKN030"
    },
    {
      "icao": "ENGM",
      "alert": "OK",
      "vis_m": 9999,
      "fzfg": false,
      "metar_trigger": false,
      "taf_trigger": false,
      "metar": "METAR ENGM 031420Z 14012KT CAVOK 22/08 Q1003 NOSIG",
      "taf": ""
    },
    {
      "icao": "ENHD",
      "alert": "OK",
      "vis_m": 9999,
      "fzfg": false,
      "metar_trigger": false,
      "taf_trigger": false,
      "metar": "METAR ENHD 031420Z 15016KT 9999 SCT022 BKN027 BKN031 15/14 Q0996 REDZRA",
      "taf": "TAF ENHD 031400Z 0315/0322 14012KT 9999 -SHRA FEW015 BKN025"
    },
    {
      "icao": "ENTC",
      "alert": "OK",
      "vis_m": 9999,
      "fzfg": false,
      "metar_trigger": false,
      "taf_trigger": false,
      "metar": "METAR ENTC 031420Z VRB02KT CAVOK 19/06 Q1006 TEMPO 02010KT RMK WIND 2600FT 16013KT",
      "taf": "TAF ENTC 031100Z 0312/0412 22006KT CAVOK"
    },
    {
      "icao": "ENTO",
      "alert": "OK",
      "vis_m": 9999,
      "fzfg": false,
      "metar_trigger": false,
      "taf_trigger": false,
      "metar": "METAR ENTO 031420Z 18008KT 9999 VCSH FEW048CB 19/12 Q1003 NOSIG",
      "taf": "TAF ENTO 031100Z 0312/0412 04007KT 9999 FEW015"
    },
    {
      "icao": "ENVA",
      "alert": "OK",
      "vis_m": 9999,
      "fzfg": false,
      "metar_trigger": false,
      "taf_trigger": false,
      "metar": "METAR ENVA 031420Z 15013KT CAVOK 23/11 Q1002 NOSIG RMK WIND 670FT 16021G34KT",
      "taf": "TAF ENVA 031100Z 0312/0412 12008KT CAVOK"
    },
    {
      "icao": "ENZV",
      "alert": "OK",
      "vis_m": 9999,
      "fzfg": false,
      "metar_trigger": false,
      "taf_trigger": false,
      "metar": "METAR ENZV 031420Z 16015KT 9999 BKN009 BKN014 15/13 Q0997 TEMPO BKN012",
      "taf": "TAF ENZV 031100Z 0312/0412 14012KT 9999 -SHRA FEW020 BKN040"
    },
    {
      "icao": "EPGD",
      "alert": "OK",
      "vis_m": 9999,
      "fzfg": false,
      "metar_trigger": false,
      "taf_trigger": false,
      "metar": "METAR EPGD 031430Z 12015KT 9999 FEW049 23/12 Q1008",
      "taf": "TAF EPGD 031130Z 0312/0412 15010KT CAVOK"
    },
    {
      "icao": "EPKK",
      "alert": "OK",
      "vis_m": 8000,
      "fzfg": false,
      "metar_trigger": false,
      "taf_trigger": false,
      "metar": "METAR EPKK 031430Z 28007KT 260V320 8000 -SHRA VCTS BKN045CB 17/16 Q1007 RESHRA",
      "taf": "TAF EPKK 031430Z 0315/0415 25012KT 9999 SCT035TCU"
    },
    {
      "icao": "EPKT",
      "alert": "OK",
      "vis_m": 3000,
      "fzfg": false,
      "metar_trigger": false,
      "taf_trigger": false,
      "metar": "METAR EPKT 031430Z 22012KT 3000 TSRA FEW001 BKN030CB 16/15 Q1008 RESHRA",
      "taf": "TAF EPKT 031130Z 0312/0412 14007KT 9999 SCT035TCU"
    },
    {
      "icao": "EPLB",
      "alert": "OK",
      "vis_m": 9999,
      "fzfg": false,
      "metar_trigger": false,
      "taf_trigger": false,
      "metar": "METAR EPLB 031430Z 09010KT 9999 FEW034 22/14 Q1009",
      "taf": "TAF EPLB 031130Z 0312/0412 09010KT 9999 SCT035"
    },
    {
      "icao": "EPMO",
      "alert": "OK",
      "vis_m": 9999,
      "fzfg": false,
      "metar_trigger": false,
      "taf_trigger": false,
      "metar": "METAR EPMO 031430Z 06012KT 040V100 9999 FEW045 22/13 Q1008",
      "taf": "TAF EPMO 031130Z 0312/0412 09010KT 9999 SCT040"
    },
    {
      "icao": "EPPO",
      "alert": "OK",
      "vis_m": 9999,
      "fzfg": false,
      "metar_trigger": false,
      "taf_trigger": false,
      "metar": "METAR EPPO 031430Z 27015KT CAVOK 20/15 Q1007",
      "taf": "TAF EPPO 031130Z 0312/0412 15008KT CAVOK"
    },
    {
      "icao": "EPRA",
      "alert": "OK",
      "vis_m": 9999,
      "fzfg": false,
      "metar_trigger": false,
      "taf_trigger": false,
      "metar": "METAR EPRA 031430Z 07011KT 030V090 CAVOK 25/12 Q1008",
      "taf": "TAF EPRA 031430Z 0315/0324 11008KT CAVOK"
    },
    {
      "icao": "EPRZ",
      "alert": "OK",
      "vis_m": 9999,
      "fzfg": false,
      "metar_trigger": false,
      "taf_trigger": false,
      "metar": "METAR EPRZ 031430Z 06007KT 030V090 9999 -SHRA SCT036CB 24/15 Q1007",
      "taf": "TAF EPRZ 031130Z 0312/0412 08007KT 9999 SCT035TCU"
    },
    {
      "icao": "EPSC",
      "alert": "OK",
      "vis_m": 9999,
      "fzfg": false,
      "metar_trigger": false,
      "taf_trigger": false,
      "metar": "METAR EPSC 031430Z 23004KT 190V260 9999 FEW008 SCT014 17/16 Q1008",
      "taf": "TAF EPSC 031130Z 0312/0412 26010KT CAVOK"
    },
    {
      "icao": "EPSY",
      "alert": "OK",
      "vis_m": 9999,
      "fzfg": false,
      "metar_trigger": false,
      "taf_trigger": false,
      "metar": "METAR EPSY 031430Z 14008KT 080V190 9999 SCT039 21/11 Q1009",
      "taf": "TAF EPSY 031430Z 0315/0324 14008KT 9999 SCT040"
    },
    {
      "icao": "EPWA",
      "alert": "OK",
      "vis_m": 9999,
      "fzfg": false,
      "metar_trigger": false,
      "taf_trigger": false,
      "metar": "METAR EPWA 031430Z 10010KT 070V150 9999 FEW043 23/12 Q1008 NOSIG",
      "taf": "TAF EPWA 031430Z 0315/0415 09010KT 9999 FEW040"
    },
    {
      "icao": "EPWR",
      "alert": "OK",
      "vis_m": 9999,
      "fzfg": false,
      "metar_trigger": false,
      "taf_trigger": false,
      "metar": "METAR EPWR 031430Z 29012KT 9999 FEW008 FEW014CB BKN026 15/14 Q1009",
      "taf": "TAF EPWR 031430Z 0315/0415 30015KT 9999 BKN016"
    },
    {
      "icao": "ESGG",
      "alert": "OK",
      "vis_m": 9999,
      "fzfg": false,
      "metar_trigger": false,
      "taf_trigger": false,
      "metar": "METAR ESGG 031420Z 20010KT CAVOK 20/14 Q1004",
      "taf": "TAF ESGG 031430Z 0315/0415 20010KT CAVOK"
    },
    {
      "icao": "ESKN",
      "alert": "OK",
      "vis_m": 9999,
      "fzfg": false,
      "metar_trigger": false,
      "taf_trigger": false,
      "metar": "METAR ESKN 031420Z 11011KT CAVOK 19/11 Q1009",
      "taf": "TAF ESKN 031430Z 0315/0415 13012KT CAVOK"
    },
    {
      "icao": "ESMS",
      "alert": "OK",
      "vis_m": 9999,
      "fzfg": false,
      "metar_trigger": false,
      "taf_trigger": false,
      "metar": "METAR ESMS 031420Z 20008KT 9999 -RA FEW003 SCT027 BKN043 16/16 Q1006",
      "taf": "TAF ESMS 031430Z 0315/0415 18008KT 9999 FEW040"
    },
    {
      "icao": "ESSA",
      "alert": "OK",
      "vis_m": 9999,
      "fzfg": false,
      "metar_trigger": false,
      "taf_trigger": false,
      "metar": "METAR ESSA 031420Z 16012G22KT CAVOK 22/08 Q1009 NOSIG",
      "taf": "TAF ESSA 031430Z 0315/0415 15012KT CAVOK"
    },
    {
      "icao": "EYKA",
      "alert": "OK",
      "vis_m": 9999,
      "fzfg": false,
      "metar_trigger": false,
      "taf_trigger": false,
      "metar": "METAR EYKA 031450Z 15010KT 120V180 CAVOK 24/08 Q1011",
      "taf": "TAF EYKA 031100Z 0312/0412 13010KT 9000 NSC"
    },
    {
      "icao": "EYPA",
      "alert": "OK",
      "vis_m": 9999,
      "fzfg": false,
      "metar_trigger": false,
      "taf_trigger": false,
      "metar": "METAR EYPA 031450Z 14011KT 110V170 CAVOK 24/08 Q1010",
      "taf": "TAF EYPA 031100Z 0312/0412 15010KT 9000 NSC"
    },
    {
      "icao": "EYVI",
      "alert": "OK",
      "vis_m": 9999,
      "fzfg": false,
      "metar_trigger": false,
      "taf_trigger": false,
      "metar": "METAR EYVI 031450Z 15012KT 120V180 CAVOK 22/08 Q1012 NOSIG",
      "taf": "TAF EYVI 031100Z 0312/0412 14012KT 9000 SCT045"
    },
    {
      "icao": "GCFV",
      "alert": "OK",
      "vis_m": 9999,
      "fzfg": false,
      "metar_trigger": false,
      "taf_trigger": false,
      "metar": "METAR GCFV 031430Z 03018KT 350V060 9999 FEW025 25/16 Q1019",
      "taf": "TAF GCFV 031400Z 0315/0415 02016KT 9999 FEW025 TX26/0414Z TN19/0406Z"
    },
    {
      "icao": "GCLP",
      "alert": "OK",
      "vis_m": 9999,
      "fzfg": false,
      "metar_trigger": false,
      "taf_trigger": false,
      "metar": "METAR GCLP 031430Z 01027KT 350V050 9999 FEW025 25/15 Q1020 NOSIG",
      "taf": "TAF GCLP 031400Z 0315/0415 01025KT 9999 SCT025 TX26/0414Z TN20/0406Z"
    },
    {
      "icao": "GCTS",
      "alert": "OK",
      "vis_m": 9999,
      "fzfg": false,
      "metar_trigger": false,
      "taf_trigger": false,
      "metar": "METAR GCTS 031430Z 09022KT 9999 FEW020 25/15 Q1021 NOSIG",
      "taf": "TAF GCTS 031400Z 0315/0415 09020KT 9999 FEW020 TX28/0414Z TN19/0406Z"
    },
    {
      "icao": "GMAD",
      "alert": "OK",
      "vis_m": 8000,
      "fzfg": false,
      "metar_trigger": false,
      "taf_trigger": false,
      "metar": "METAR GMAD 031430Z 26011KT 220V290 8000 NSC 25/17 Q1014 NOSIG",
      "taf": "TAF GMAD 031100Z 0312/0418 28012KT 8000 SCT016"
    },
    {
      "icao": "GMMN",
      "alert": "OK",
      "vis_m": 9999,
      "fzfg": false,
      "metar_trigger": false,
      "taf_trigger": false,
      "metar": "METAR GMMN 031430Z 36012KT 330V060 CAVOK 26/18 Q1018 NOSIG",
      "taf": "TAF GMMN 031100Z 0312/0418 36008KT CAVOK"
    },
    {
      "icao": "GMMX",
      "alert": "OK",
      "vis_m": 9999,
      "fzfg": false,
      "metar_trigger": false,
      "taf_trigger": false,
      "metar": "METAR GMMX 031430Z 01006KT 320V100 CAVOK 34/14 Q1016 NOSIG",
      "taf": "TAF GMMX 031100Z 0312/0418 04006KT 8000 NSC"
    },
    {
      "icao": "HEGN",
      "alert": "OK",
      "vis_m": 9999,
      "fzfg": false,
      "metar_trigger": false,
      "taf_trigger": false,
      "metar": "METAR HEGN 031400Z 08005KT CAVOK 37/11 Q1010 NOSIG",
      "taf": "TAF HEGN 031100Z 0312/0418 36012KT CAVOK"
    },
    {
      "icao": "HEMA",
      "alert": "OK",
      "vis_m": 9999,
      "fzfg": false,
      "metar_trigger": false,
      "taf_trigger": false,
      "metar": "METAR HEMA 031400Z 34015KT CAVOK 36/06 Q1010 NOSIG",
      "taf": "TAF HEMA 031100Z 0312/0418 35012G22KT CAVOK"
    },
    {
      "icao": "HESH",
      "alert": "OK",
      "vis_m": 9999,
      "fzfg": false,
      "metar_trigger": false,
      "taf_trigger": false,
      "metar": "METAR HESH 031400Z 04006KT CAVOK 38/10 Q1012 NOSIG",
      "taf": "TAF HESH 031100Z 0312/0418 02012KT CAVOK"
    },
    {
      "icao": "HESX",
      "alert": "OK",
      "vis_m": 9999,
      "fzfg": false,
      "metar_trigger": false,
      "taf_trigger": false,
      "metar": "METAR HESX 031400Z 05003KT 9999 SCT030 36/10 Q1012 NOSIG",
      "taf": "TAF HESX 031100Z 0312/0418 34012KT CAVOK"
    },
    {
      "icao": "LATI",
      "alert": "OK",
      "vis_m": 9999,
      "fzfg": false,
      "metar_trigger": false,
      "taf_trigger": false,
      "metar": "METAR LATI 031450Z 25009KT 220V280 9999 BKN120 28/13 Q1010 NOSIG",
      "taf": "TAF LATI 031100Z 0312/0412 24015KT 9999 SCT060 TX30/0312Z TN17/0403Z"
    },
    {
      "icao": "LBPD",
      "alert": "OK",
      "vis_m": 9999,
      "fzfg": false,
      "metar_trigger": false,
      "taf_trigger": false,
      "metar": "METAR LBPD 031430Z AUTO 10006KT 9999 //////CB 27/17 Q1009 TEMPO 5000 TSRA FEW030CB",
      "taf": "TAF LBPD 031100Z 0312/0412 10010KT 9999 SCT060"
    },
    {
      "icao": "LBSF",
      "alert": "OK",
      "vis_m": 9999,
      "fzfg": false,
      "metar_trigger": false,
      "taf_trigger": false,
      "metar": "METAR LBSF 031430Z 34008KT 290V020 9999 FEW042 SCT070 25/14 Q1010 NOSIG",
      "taf": "TAF LBSF 031100Z 0312/0412 25008KT 9999 SCT050"
    },
    {
      "icao": "LBWN",
      "alert": "OK",
      "vis_m": 9999,
      "fzfg": false,
      "metar_trigger": false,
      "taf_trigger": false,
      "metar": "METAR LBWN 031430Z 11010KT 9999 FEW032 23/18 Q1010 NOSIG",
      "taf": "TAF LBWN 031100Z 0312/0412 11012KT 9999 SCT040"
    },
    {
      "icao": "LCLK",
      "alert": "OK",
      "vis_m": 9999,
      "fzfg": false,
      "metar_trigger": false,
      "taf_trigger": false,
      "metar": "METAR LCLK 031430Z 21017KT 9999 FEW040 27/19 Q1013 NOSIG",
      "taf": "TAF LCLK 031130Z 0312/0412 20014KT CAVOK"
    },
    {
      "icao": "LCPH",
      "alert": "OK",
      "vis_m": 9999,
      "fzfg": false,
      "metar_trigger": false,
      "taf_trigger": false,
      "metar": "METAR LCPH 031430Z 31016KT 260V320 9999 FEW020 25/19 Q1014 NOSIG",
      "taf": "TAF LCPH 031130Z 0312/0412 30016KT CAVOK"
    },
    {
      "icao": "LEAL",
      "alert": "OK",
      "vis_m": 9999,
      "fzfg": false,
      "metar_trigger": false,
      "taf_trigger": false,
      "metar": "METAR LEAL 031430Z 10009KT 060V150 9999 FEW015 SCT024 26/19 Q1017 NOSIG",
      "taf": "TAF LEAL 031100Z 0312/0412 10012KT 9999 FEW030 TX28/0312Z TN20/0405Z"
    },
    {
      "icao": "LEBB",
      "alert": "OK",
      "vis_m": 9999,
      "fzfg": false,
      "metar_trigger": false,
      "taf_trigger": false,
      "metar": "METAR LEBB 031430Z 32010KT CAVOK 25/14 Q1017 NOSIG",
      "taf": "TAF LEBB 031100Z 0312/0412 VRB03KT 9999 SCT025 TX25/0312Z TN16/0406Z"
    },
    {
      "icao": "LEBL",
      "alert": "OK",
      "vis_m": 9999,
      "fzfg": false,
      "metar_trigger": false,
      "taf_trigger": false,
      "metar": "METAR LEBL 031430Z 18009KT 130V220 CAVOK 24/14 Q1016 NOSIG",
      "taf": "TAF LEBL 031100Z 0312/0412 21010KT 9999 FEW030 TX26/0312Z TN17/0406Z"
    },
    {
      "icao": "LECH",
      "alert": "OK",
      "vis_m": 9000,
      "fzfg": false,
      "metar_trigger": false,
      "taf_trigger": false,
      "metar": "METAR LECH 031430Z AUTO 19009KT 150V240 9000 SCT028 24/16 Q1017",
      "taf": "TAF LECH 031100Z 0312/0412 18010KT 9999 FEW050 TX28/0313Z TN15/0405Z"
    },
    {
      "icao": "LEMD",
      "alert": "OK",
      "vis_m": 9999,
      "fzfg": false,
      "metar_trigger": false,
      "taf_trigger": false,
      "metar": "METAR LEMD 031430Z 20006KT CAVOK 31/08 Q1017 NOSIG",
      "taf": "TAF LEMD 031100Z 0312/0418 VRB04KT CAVOK TX31/0316Z TN15/0405Z"
    },
    {
      "icao": "LEMG",
      "alert": "OK",
      "vis_m": 9999,
      "fzfg": false,
      "metar_trigger": false,
      "taf_trigger": false,
      "metar": "METAR LEMG 031430Z 13008KT 080V160 9999 FEW025 26/18 Q1017 NOSIG",
      "taf": "TAF LEMG 031100Z 0312/0412 12010KT 9999 FEW030 TX30/0314Z TN19/0406Z"
    },
    {
      "icao": "LEVC",
      "alert": "OK",
      "vis_m": 9999,
      "fzfg": false,
      "metar_trigger": false,
      "taf_trigger": false,
      "metar": "METAR LEVC 031430Z 11014KT 090V150 9999 FEW030 27/17 Q1016 NOSIG",
      "taf": "TAF LEVC 031100Z 0312/0412 13012KT 9999 FEW030 TX28/0312Z TN18/0405Z"
    },
    {
      "icao": "LEXJ",
      "alert": "OK",
      "vis_m": 9999,
      "fzfg": false,
      "metar_trigger": false,
      "taf_trigger": false,
      "metar": "METAR LEXJ 031430Z 06006KT 360V160 9999 FEW075 22/14 Q1017",
      "taf": "TAF LEXJ 031400Z 0315/0415 22005KT 9999 BKN035 TX23/0315Z TN16/0405Z"
    },
    {
      "icao": "LEZG",
      "alert": "OK",
      "vis_m": 9999,
      "fzfg": false,
      "metar_trigger": false,
      "taf_trigger": false,
      "metar": "METAR LEZG 031430Z 32010KT 260V360 CAVOK 28/10 Q1016 NOSIG",
      "taf": "TAF LEZG 031100Z 0312/0412 30010KT CAVOK TX30/0315Z TN15/0405Z"
    },
    {
      "icao": "LEZL",
      "alert": "OK",
      "vis_m": 9999,
      "fzfg": false,
      "metar_trigger": false,
      "taf_trigger": false,
      "metar": "METAR LEZL 031430Z 23003KT CAVOK 33/10 Q1016 NOSIG",
      "taf": "TAF LEZL 031400Z 0315/0415 35005KT CAVOK TX37/0315Z TN18/0407Z"
    },
    {
      "icao": "LFBD",
      "alert": "OK",
      "vis_m": 9999,
      "fzfg": false,
      "metar_trigger": false,
      "taf_trigger": false,
      "metar": "METAR LFBD 031430Z AUTO 24013KT 9999 SCT023 BKN029 OVC037 20/14 Q1017 NOSIG",
      "taf": "TAF LFBD 031100Z 0312/0418 24010KT 9999 SCT040 TX21/0313Z TN16/0405Z"
    },
    {
      "icao": "LFLL",
      "alert": "OK",
      "vis_m": 9999,
      "fzfg": false,
      "metar_trigger": false,
      "taf_trigger": false,
      "metar": "METAR LFLL 031430Z VRB03KT 9999 SCT050 BKN260 21/09 Q1015 NOSIG",
      "taf": "TAF LFLL 031100Z 0312/0418 34004KT 9999 SCT040 BKN060"
    },
    {
      "icao": "LFLS",
      "alert": "OK",
      "vis_m": 9999,
      "fzfg": false,
      "metar_trigger": false,
      "taf_trigger": false,
      "metar": "METAR LFLS 031430Z AUTO 36004KT 320V030 9999 FEW052 BKN062 20/08 Q1016 NOSIG",
      "taf": "TAF LFLS 031400Z 0315/0415 35007KT CAVOK"
    },
    {
      "icao": "LFMN",
      "alert": "OK",
      "vis_m": 9999,
      "fzfg": false,
      "metar_trigger": false,
      "taf_trigger": false,
      "metar": "METAR LFMN 031430Z 12006KT CAVOK 24/16 Q1009 NOSIG",
      "taf": "TAF LFMN 031400Z 0315/0421 11008KT CAVOK"
    },
    {
      "icao": "LFOB",
      "alert": "OK",
      "vis_m": 9999,
      "fzfg": false,
      "metar_trigger": false,
      "taf_trigger": false,
      "metar": "METAR LFOB 031430Z AUTO 20010KT 9999 -RA BKN019 OVC024 16/15 Q1008 TEMPO 3000 RADZ BKN014 BKN030 SCT060TCU BECMG 21015G25KT",
      "taf": "TAF LFOB 031100Z 0312/0412 21015G25KT 9999 BKN030 OVC060"
    },
    {
      "icao": "LFPO",
      "alert": "OK",
      "vis_m": 9999,
      "fzfg": false,
      "metar_trigger": false,
      "taf_trigger": false,
      "metar": "METAR LFPO 031444Z 21015KT 9999 BKN032 BKN040 20/12 Q1009 NOSIG",
      "taf": ""
    },
    {
      "icao": "LFSB",
      "alert": "OK",
      "vis_m": 9999,
      "fzfg": false,
      "metar_trigger": false,
      "taf_trigger": false,
      "metar": "METAR LFSB 031430Z AUTO 27008KT 220V310 9999 FEW028 SCT038 20/13 Q1014 NOSIG",
      "taf": "TAF LFSB 031100Z 0312/0412 25010KT 9999 FEW025 BKN060"
    },
    {
      "icao": "LGAV",
      "alert": "OK",
      "vis_m": 9999,
      "fzfg": false,
      "metar_trigger": false,
      "taf_trigger": false,
      "metar": "METAR LGAV 031420Z 21017KT CAVOK 29/11 Q1012 NOSIG",
      "taf": "TAF LGAV 031100Z 0312/0412 23010KT 9999 FEW025"
    },
    {
      "icao": "LGTS",
      "alert": "OK",
      "vis_m": 9999,
      "fzfg": false,
      "metar_trigger": false,
      "taf_trigger": false,
      "metar": "METAR LGTS 031420Z 18013KT 9999 FEW018TCU SCT025 30/16 Q1009 NOSIG",
      "taf": "TAF LGTS 031100Z 0312/0412 17013KT 9999 FEW025"
    },
    {
      "icao": "LHBP",
      "alert": "OK",
      "vis_m": 8000,
      "fzfg": false,
      "metar_trigger": false,
      "taf_trigger": false,
      "metar": "SPECI LHBP 031443Z 14012KT 8000 -SHRA SCT045CB BKN065 18/15 Q1007 RESHRA BECMG 27007KT",
      "taf": "TAF LHBP 031115Z 0312/0412 18006KT CAVOK"
    },
    {
      "icao": "LHDC",
      "alert": "OK",
      "vis_m": 9999,
      "fzfg": false,
      "metar_trigger": false,
      "taf_trigger": false,
      "metar": "METAR LHDC 031415Z AUTO 13008KT 090V170 CAVOK 27/10 Q1007 NOSIG",
      "taf": "TAF LHDC 031415Z 0315/0324 17009KT CAVOK"
    },
    {
      "icao": "LIBD",
      "alert": "OK",
      "vis_m": 9999,
      "fzfg": false,
      "metar_trigger": false,
      "taf_trigger": false,
      "metar": "METAR LIBD 031420Z 10010KT 9999 FEW020 SCT040 26/19 Q1007",
      "taf": ""
    },
    {
      "icao": "LIBG",
      "alert": "OK",
      "vis_m": 9999,
      "fzfg": false,
      "metar_trigger": false,
      "taf_trigger": false,
      "metar": "METAR LIBG 031420Z AUTO 16009KT 9999 SCT120/// BKN200/// 27/16 Q1009",
      "taf": "TAF LIBG 031100Z 0312/0412 19012KT CAVOK"
    },
    {
      "icao": "LIBP",
      "alert": "OK",
      "vis_m": 9999,
      "fzfg": false,
      "metar_trigger": false,
      "taf_trigger": false,
      "metar": "METAR LIBP 031420Z AUTO 07010KT 9999 NCD 23/18 Q1007",
      "taf": "TAF LIBP 031100Z 0312/0412 02012KT 9999 SCT050"
    },
    {
      "icao": "LIBR",
      "alert": "OK",
      "vis_m": 9999,
      "fzfg": false,
      "metar_trigger": false,
      "taf_trigger": false,
      "metar": "METAR LIBR 031420Z 21012KT CAVOK 30/13 Q1008",
      "taf": "TAF LIBR 031100Z 0312/0412 20012KT CAVOK"
    },
    {
      "icao": "LICA",
      "alert": "OK",
      "vis_m": 9999,
      "fzfg": false,
      "metar_trigger": false,
      "taf_trigger": false,
      "metar": "METAR LICA 031420Z AUTO 20004KT 9999 FEW059/// BKN093/// 27/17 Q1010",
      "taf": "TAF LICA 031100Z 0312/0412 27012KT 9999 FEW020"
    },
    {
      "icao": "LICC",
      "alert": "OK",
      "vis_m": 9999,
      "fzfg": false,
      "metar_trigger": false,
      "taf_trigger": false,
      "metar": "METAR LICC 031420Z 24018KT CAVOK 35/17 Q1009",
      "taf": "TAF LICC 031100Z 0312/0412 27015KT 9999 SCT040"
    },
    {
      "icao": "LICJ",
      "alert": "OK",
      "vis_m": 9999,
      "fzfg": false,
      "metar_trigger": false,
      "taf_trigger": false,
      "metar": "METAR LICJ 031420Z 28019KT CAVOK 24/21 Q1010",
      "taf": "TAF LICJ 031100Z 0312/0412 27016KT CAVOK"
    },
    {
      "icao": "LIMC",
      "alert": "OK",
      "vis_m": 9999,
      "fzfg": false,
      "metar_trigger": false,
      "taf_trigger": false,
      "metar": "METAR LIMC 031420Z 23006KT 170V280 CAVOK 27/08 Q1008 NOSIG",
      "taf": "TAF LIMC 031100Z 0312/0418 VRB05KT 9999 FEW020"
    },
    {
      "icao": "LIME",
      "alert": "OK",
      "vis_m": 9999,
      "fzfg": false,
      "metar_trigger": false,
      "taf_trigger": false,
      "metar": "METAR LIME 031420Z 26011KT 9999 FEW050 27/06 Q1007 NOSIG",
      "taf": "TAF LIME 031100Z 0312/0412 VRB05KT 9999 FEW030"
    },
    {
      "icao": "LIMF",
      "alert": "OK",
      "vis_m": 9999,
      "fzfg": false,
      "metar_trigger": false,
      "taf_trigger": false,
      "metar": "METAR LIMF 031420Z VRB05KT CAVOK 28/07 Q1008",
      "taf": "TAF LIMF 031100Z 0312/0412 12010KT 9999 FEW030"
    },
    {
      "icao": "LIMJ",
      "alert": "OK",
      "vis_m": 9999,
      "fzfg": false,
      "metar_trigger": false,
      "taf_trigger": false,
      "metar": "METAR LIMJ 031420Z 25010KT 9999 FEW020 23/19 Q1009",
      "taf": "TAF LIMJ 031100Z 0312/0412 23010KT 9999 FEW040"
    },
    {
      "icao": "LIPE",
      "alert": "OK",
      "vis_m": 9999,
      "fzfg": false,
      "metar_trigger": false,
      "taf_trigger": false,
      "metar": "METAR LIPE 031420Z 32006KT 260V020 CAVOK 27/13 Q1007",
      "taf": "TAF LIPE 031100Z 0312/0412 28010KT 9999 FEW020"
    },
    {
      "icao": "LIPH",
      "alert": "OK",
      "vis_m": 9999,
      "fzfg": false,
      "metar_trigger": false,
      "taf_trigger": false,
      "metar": "METAR LIPH 031420Z 11012KT 9999 FEW030 24/12 Q1008",
      "taf": "TAF LIPH 031100Z 0312/0412 10010KT 9999 FEW020"
    },
    {
      "icao": "LIPQ",
      "alert": "OK",
      "vis_m": 9999,
      "fzfg": false,
      "metar_trigger": false,
      "taf_trigger": false,
      "metar": "METAR LIPQ 031420Z AUTO 10004KT 9999 -RA OVC089/// 18/14 Q1009",
      "taf": "TAF LIPQ 031100Z 0312/0412 03010KT 9999 SCT030"
    },
    {
      "icao": "LIPR",
      "alert": "OK",
      "vis_m": 9999,
      "fzfg": false,
      "metar_trigger": false,
      "taf_trigger": false,
      "metar": "METAR LIPR 031420Z 03010KT 350V050 9999 FEW050 22/15 Q1009",
      "taf": "TAF LIPR 031100Z 0312/0412 32016KT 9999 FEW020"
    },
    {
      "icao": "LIPX",
      "alert": "OK",
      "vis_m": 9999,
      "fzfg": false,
      "metar_trigger": false,
      "taf_trigger": false,
      "metar": "METAR LIPX 031420Z 21005KT 150V240 9999 FEW040 27/15 Q1007",
      "taf": "TAF LIPX 031100Z 0312/0412 27010KT 9999 FEW040"
    },
    {
      "icao": "LIPY",
      "alert": "OK",
      "vis_m": 9999,
      "fzfg": false,
      "metar_trigger": false,
      "taf_trigger": false,
      "metar": "METAR LIPY 031420Z AUTO 34008KT 9999 BKN082/// 22/14 Q1009",
      "taf": "TAF LIPY 031100Z 0312/0412 33012KT 9999 FEW060"
    },
    {
      "icao": "LIPZ",
      "alert": "OK",
      "vis_m": 9999,
      "fzfg": false,
      "metar_trigger": false,
      "taf_trigger": false,
      "metar": "METAR LIPZ 031420Z 11010KT 080V140 9999 FEW030 23/14 Q1008 NOSIG",
      "taf": "TAF LIPZ 031100Z 0312/0418 11012KT CAVOK"
    },
    {
      "icao": "LIRF",
      "alert": "OK",
      "vis_m": 9999,
      "fzfg": false,
      "metar_trigger": false,
      "taf_trigger": false,
      "metar": "METAR LIRF 031420Z 27017KT 9999 FEW050 25/16 Q1008 NOSIG",
      "taf": "TAF LIRF 031100Z 0312/0418 29014KT 9999 SCT030"
    },
    {
      "icao": "LIRN",
      "alert": "OK",
      "vis_m": 9999,
      "fzfg": false,
      "metar_trigger": false,
      "taf_trigger": false,
      "metar": "METAR LIRN 031420Z 26011KT 230V290 9999 FEW030TCU SCT040 25/14 Q1010 NOSIG",
      "taf": "TAF LIRN 031100Z 0312/0412 22013KT 9999 SCT040"
    },
    {
      "icao": "LIRP",
      "alert": "OK",
      "vis_m": 9999,
      "fzfg": false,
      "metar_trigger": false,
      "taf_trigger": false,
      "metar": "METAR LIRP 031415Z 27013KT CAVOK 25/17 Q1009 NOSIG",
      "taf": "TAF LIRP 031100Z 0312/0412 24010KT 9999 SCT030"
    },
    {
      "icao": "LIRZ",
      "alert": "OK",
      "vis_m": 9999,
      "fzfg": false,
      "metar_trigger": false,
      "taf_trigger": false,
      "metar": "METAR LIRZ 031420Z AUTO VRB07KT 9999 TS FEW044/// SCT056/// 26/14 Q1008",
      "taf": "TAF LIRZ 031100Z 0312/0412 VRB05KT 9999 SCT030"
    },
    {
      "icao": "LJLJ",
      "alert": "OK",
      "vis_m": 9999,
      "fzfg": false,
      "metar_trigger": false,
      "taf_trigger": false,
      "metar": "METAR LJLJ 031430Z 17007KT 9999 VCSH FEW047TCU SCT065 OVC080 17/12 Q1010 NOSIG",
      "taf": "TAF LJLJ 031100Z 0312/0412 32010KT 9999 FEW020 BKN035 OVC045"
    },
    {
      "icao": "LKMT",
      "alert": "OK",
      "vis_m": 9999,
      "fzfg": false,
      "metar_trigger": false,
      "taf_trigger": false,
      "metar": "METAR LKMT 031430Z 22017KT 9999 FEW028 20/14 Q1007 TEMPO TSRA FEW020CB",
      "taf": "TAF LKMT 031100Z 0312/0412 22012KT CAVOK"
    },
    {
      "icao": "LKPR",
      "alert": "OK",
      "vis_m": 9999,
      "fzfg": false,
      "metar_trigger": false,
      "taf_trigger": false,
      "metar": "METAR LKPR 031430Z 27007KT 9999 SCT048 19/09 Q1010 NOSIG",
      "taf": "TAF LKPR 031400Z 0315/0421 26010KT 9999 SCT045"
    },
    {
      "icao": "LLBG",
      "alert": "OK",
      "vis_m": 9999,
      "fzfg": false,
      "metar_trigger": false,
      "taf_trigger": false,
      "metar": "METAR LLBG 031450Z 36010KT CAVOK 30/07 Q1014 NOSIG",
      "taf": "TAF LLBG 031107Z 0312/0412 30010KT CAVOK TX32/0312Z TN21/0403Z"
    },
    {
      "icao": "LMML",
      "alert": "OK",
      "vis_m": 9999,
      "fzfg": false,
      "metar_trigger": false,
      "taf_trigger": false,
      "metar": "METAR LMML 031445Z 21011KT 160V230 CAVOK 27/19 Q1012 NOSIG",
      "taf": "TAF LMML 031100Z 0312/0412 20010KT CAVOK"
    },
    {
      "icao": "LOWW",
      "alert": "OK",
      "vis_m": 9999,
      "fzfg": false,
      "metar_trigger": false,
      "taf_trigger": false,
      "metar": "METAR LOWW 031420Z 31011KT 9999 -RADZ FEW017 SCT026 17/14 Q1010 NOSIG",
      "taf": "TAF LOWW 031415Z 0315/0421 30013KT 9999 FEW015 SCT030 BKN050 TX26/0413Z TN14/0403Z"
    },
    {
      "icao": "LPFR",
      "alert": "OK",
      "vis_m": 9999,
      "fzfg": false,
      "metar_trigger": false,
      "taf_trigger": false,
      "metar": "METAR LPFR 031430Z 25015KT CAVOK 25/17 Q1017",
      "taf": ""
    },
    {
      "icao": "LPMA",
      "alert": "OK",
      "vis_m": 9999,
      "fzfg": false,
      "metar_trigger": false,
      "taf_trigger": false,
      "metar": "METAR LPMA 031430Z 35013KT 310V040 9999 FEW015 27/09 Q1024",
      "taf": ""
    },
    {
      "icao": "LPPR",
      "alert": "OK",
      "vis_m": 9999,
      "fzfg": false,
      "metar_trigger": false,
      "taf_trigger": false,
      "metar": "METAR LPPR 031430Z 24006KT 200V280 9999 SCT009 BKN014 BKN030 19/16 Q1022",
      "taf": ""
    },
    {
      "icao": "LPPS",
      "alert": "OK",
      "vis_m": null,
      "fzfg": false,
      "metar_trigger": false,
      "taf_trigger": false,
      "metar": "",
      "taf": ""
    },
    {
      "icao": "LPPT",
      "alert": "OK",
      "vis_m": null,
      "fzfg": false,
      "metar_trigger": false,
      "taf_trigger": false,
      "metar": "",
      "taf": ""
    },
    {
      "icao": "LQBK",
      "alert": "OK",
      "vis_m": 9999,
      "fzfg": false,
      "metar_trigger": false,
      "taf_trigger": false,
      "metar": "METAR LQBK 031430Z VRB02KT 9999 FEW010 SCT045 17/14 Q1008 NOSIG",
      "taf": "TAF LQBK 031100Z 0312/0412 35005KT 9999 SCT040 TX20/0314Z TN10/0404Z"
    },
    {
      "icao": "LQSA",
      "alert": "OK",
      "vis_m": 8000,
      "fzfg": false,
      "metar_trigger": false,
      "taf_trigger": false,
      "metar": "METAR LQSA 031430Z 35007KT 8000 RA FEW015 SCT035 BKN045 14/13 Q1011 RESHRA NOSIG",
      "taf": "TAF LQSA 031100Z 0312/0412 16008KT 9999 BKN055 TX23/0312Z TN12/0404Z"
    },
    {
      "icao": "LQTZ",
      "alert": "OK",
      "vis_m": 9999,
      "fzfg": false,
      "metar_trigger": false,
      "taf_trigger": false,
      "metar": "METAR LQTZ 031430Z 26006KT 230V300 9999 -RA FEW020 SCT035 BKN045 16/16 Q1009",
      "taf": "TAF LQTZ 031100Z 0312/0412 06005KT 9999 SCT040 BKN060 TX25/0312Z TN12/0403Z"
    },
    {
      "icao": "LRBC",
      "alert": "OK",
      "vis_m": 9999,
      "fzfg": false,
      "metar_trigger": false,
      "taf_trigger": false,
      "metar": "METAR LRBC 031430Z 17007KT 130V200 9999 SCT035 23/16 Q1011",
      "taf": "TAF LRBC 031400Z 0315/0324 16006KT CAVOK"
    },
    {
      "icao": "LRBS",
      "alert": "OK",
      "vis_m": 9999,
      "fzfg": false,
      "metar_trigger": false,
      "taf_trigger": false,
      "metar": "METAR LRBS 031430Z 26006KT 220V290 CAVOK 27/11 Q1009 NOSIG",
      "taf": "TAF LRBS 031100Z 0312/0412 VRB04KT CAVOK"
    },
    {
      "icao": "LRBV",
      "alert": "OK",
      "vis_m": 9999,
      "fzfg": false,
      "metar_trigger": false,
      "taf_trigger": false,
      "metar": "METAR LRBV 031430Z VRB02KT 9999 FEW045 23/14 Q1010",
      "taf": "TAF LRBV 031400Z 0315/0324 VRB04KT 9999 SCT045"
    },
    {
      "icao": "LRCL",
      "alert": "OK",
      "vis_m": 9999,
      "fzfg": false,
      "metar_trigger": false,
      "taf_trigger": false,
      "metar": "METAR LRCL 031430Z 11007KT 080V140 CAVOK 25/09 Q1009",
      "taf": "TAF LRCL 031400Z 0315/0324 13006KT CAVOK"
    },
    {
      "icao": "LRCV",
      "alert": "OK",
      "vis_m": 9999,
      "fzfg": false,
      "metar_trigger": false,
      "taf_trigger": false,
      "metar": "METAR LRCV 031430Z 11004KT 040V170 CAVOK 27/15 Q1009",
      "taf": "TAF LRCV 031400Z 0315/0324 VRB04KT CAVOK"
    },
    {
      "icao": "LRIA",
      "alert": "OK",
      "vis_m": 9999,
      "fzfg": false,
      "metar_trigger": false,
      "taf_trigger": false,
      "metar": "METAR LRIA 031430Z 11008KT 080V140 9999 SCT024 22/15 Q1011",
      "taf": "TAF LRIA 031400Z 0315/0324 12006KT CAVOK"
    },
    {
      "icao": "LROP",
      "alert": "OK",
      "vis_m": 9999,
      "fzfg": false,
      "metar_trigger": false,
      "taf_trigger": false,
      "metar": "METAR LROP 031430Z 08007KT 050V140 CAVOK 27/14 Q1009 NOSIG",
      "taf": "TAF LROP 031100Z 0312/0412 VRB04KT CAVOK"
    },
    {
      "icao": "LRSB",
      "alert": "OK",
      "vis_m": 9999,
      "fzfg": false,
      "metar_trigger": false,
      "taf_trigger": false,
      "metar": "METAR LRSB 031430Z 18004KT 130V210 9999 FEW060 25/12 Q1010 NOSIG",
      "taf": "TAF LRSB 031100Z 0312/0412 VRB04KT CAVOK"
    },
    {
      "icao": "LRSM",
      "alert": "OK",
      "vis_m": 9999,
      "fzfg": false,
      "metar_trigger": false,
      "taf_trigger": false,
      "metar": "METAR LRSM 031430Z 15007KT 120V180 CAVOK 26/12 Q1008",
      "taf": "TAF LRSM 031400Z 0315/0324 11007KT CAVOK"
    },
    {
      "icao": "LRSV",
      "alert": "OK",
      "vis_m": 9999,
      "fzfg": false,
      "metar_trigger": false,
      "taf_trigger": false,
      "metar": "METAR LRSV 031430Z 08006KT 050V110 9999 FEW030 20/14 Q1011",
      "taf": "TAF LRSV 031400Z 0315/0324 09006KT CAVOK"
    },
    {
      "icao": "LRTM",
      "alert": "OK",
      "vis_m": 9999,
      "fzfg": false,
      "metar_trigger": false,
      "taf_trigger": false,
      "metar": "METAR LRTM 031430Z 02004KT 320V080 9999 FEW036 25/14 Q1009",
      "taf": "TAF LRTM 031400Z 0315/0324 VRB04KT 9999 SCT035"
    },
    {
      "icao": "LRTR",
      "alert": "OK",
      "vis_m": 9999,
      "fzfg": false,
      "metar_trigger": false,
      "taf_trigger": false,
      "metar": "METAR LRTR 031430Z 17010KT 140V210 CAVOK 29/11 Q1006 NOSIG",
      "taf": "TAF LRTR 031100Z 0312/0412 12010KT CAVOK"
    },
    {
      "icao": "LTAC",
      "alert": "OK",
      "vis_m": 9999,
      "fzfg": false,
      "metar_trigger": false,
      "taf_trigger": false,
      "metar": "METAR LTAC 031420Z 28010KT 240V310 9999 FEW025CB SCT040 26/07 Q1015 TEMPO -TSRA RMK RWY21C 24009KT RWY03L 26008KT RWY21R 24010KT 210V270 RWY03R 27009KT 240V300 RWY21L 26009KT 230V290",
      "taf": "TAF LTAC 031040Z 0312/0412 VRB02KT 9999 SCT040"
    },
    {
      "icao": "LTFM",
      "alert": "OK",
      "vis_m": 9999,
      "fzfg": false,
      "metar_trigger": false,
      "taf_trigger": false,
      "metar": "METAR LTFM 031420Z 24009KT 9999 FEW035 30/09 Q1011 NOSIG RMK RWY17L 07011KT RWY34L 23007G17KT 170V290 RWY16R 07011KT RWY36 28007KT RWY18 07008KT 040V100",
      "taf": "TAF LTFM 031040Z 0312/0418 24012KT CAVOK"
    },
    {
      "icao": "LUKK",
      "alert": "OK",
      "vis_m": 9999,
      "fzfg": false,
      "metar_trigger": false,
      "taf_trigger": false,
      "metar": "METAR LUKK 031430Z 09007KT 9999 FEW010 SCT025 OVC030 18/16 Q1012 NOSIG",
      "taf": "TAF LUKK 031125Z 0312/0412 10008KT 9999 BKN010"
    },
    {
      "icao": "LWOH",
      "alert": "OK",
      "vis_m": 9999,
      "fzfg": false,
      "metar_trigger": false,
      "taf_trigger": false,
      "metar": "METAR LWOH 031450Z 13005KT 090V160 9999 SCT040 23/15 Q1012",
      "taf": "TAF LWOH 031440Z 0315/0415 16006KT 9999 SCT040"
    },
    {
      "icao": "LWSK",
      "alert": "OK",
      "vis_m": 9999,
      "fzfg": false,
      "metar_trigger": false,
      "taf_trigger": false,
      "metar": "METAR LWSK 031450Z 16005KT 130V200 9999 FEW040 SCT060 27/17 Q1008 NOSIG",
      "taf": "TAF LWSK 031440Z 0315/0415 VRB02KT 9999 FEW030"
    },
    {
      "icao": "LYBE",
      "alert": "OK",
      "vis_m": 9999,
      "fzfg": false,
      "metar_trigger": false,
      "taf_trigger": false,
      "metar": "METAR LYBE 031430Z 30010KT 9999 -TSRA SCT040CB 19/17 Q1007 RESHRA BECMG NSW SCT040TCU",
      "taf": "TAF LYBE 031100Z 0312/0412 21006KT 9999 SCT045 TX29/0313Z TN16/0403Z"
    },
    {
      "icao": "LYNI",
      "alert": "OK",
      "vis_m": 9999,
      "fzfg": false,
      "metar_trigger": false,
      "taf_trigger": false,
      "metar": "METAR LYNI 031430Z 17008KT 120V230 9999 SCT040 29/14 Q1007 NOSIG",
      "taf": "TAF LYNI 031100Z 0312/0412 17010KT 9999 SCT050 TX28/0313Z TN15/0403Z"
    },
    {
      "icao": "LYPG",
      "alert": "OK",
      "vis_m": 9999,
      "fzfg": false,
      "metar_trigger": false,
      "taf_trigger": false,
      "metar": "METAR LYPG 031430Z 17010KT 140V200 9999 FEW030 SCT040 BKN090 24/17 Q1011 TEMPO 5000 RA",
      "taf": "TAF LYPG 031100Z 0312/0412 16008KT 9999 SCT030 BKN080 TX28/0313Z TN16/0404Z"
    },
    {
      "icao": "LZIB",
      "alert": "OK",
      "vis_m": 9999,
      "fzfg": false,
      "metar_trigger": false,
      "taf_trigger": false,
      "metar": "METAR LZIB 031430Z 30013KT 270V330 9999 -RA FEW008 17/13 Q1008 NOSIG",
      "taf": "TAF LZIB 031115Z 0312/0412 30014KT 9999 FEW014 BKN025"
    },
    {
      "icao": "LZKZ",
      "alert": "OK",
      "vis_m": 9999,
      "fzfg": false,
      "metar_trigger": false,
      "taf_trigger": false,
      "metar": "METAR LZKZ 031430Z 19013KT 9999 -SHRA VCTS FEW040CB SCT043 20/14 Q1008 TEMPO -TSRA",
      "taf": ""
    },
    {
      "icao": "LZTT",
      "alert": "OK",
      "vis_m": 9999,
      "fzfg": false,
      "metar_trigger": false,
      "taf_trigger": false,
      "metar": "METAR LZTT 031430Z 17008KT 9999 SCT036 20/13 Q1009 NOSIG",
      "taf": "TAF LZTT 031115Z 0312/0412 25009KT 9999 FEW030 BKN040"
    },
    {
      "icao": "OEJN",
      "alert": "OK",
      "vis_m": 9999,
      "fzfg": false,
      "metar_trigger": false,
      "taf_trigger": false,
      "metar": "METAR OEJN 031400Z 28007KT CAVOK 33/21 Q1006 NOSIG",
      "taf": "TAF OEJN 031100Z 0312/0418 28012KT CAVOK"
    },
    {
      "icao": "OEMA",
      "alert": "OK",
      "vis_m": 9999,
      "fzfg": false,
      "metar_trigger": false,
      "taf_trigger": false,
      "metar": "METAR OEMA 031400Z 33005KT CAVOK 44/M03 Q1011 NOSIG",
      "taf": "TAF OEMA 031100Z 0312/0418 27012KT CAVOK"
    },
    {
      "icao": "OJAI",
      "alert": "OK",
      "vis_m": 5000,
      "fzfg": false,
      "metar_trigger": false,
      "taf_trigger": false,
      "metar": "METAR OJAI 031400Z 29013KT 5000 HZ NSC 30/07 Q1018 NOSIG",
      "taf": "TAF OJAI 031100Z 0312/0418 29012KT 5000 HZ NSC"
    },
    {
      "icao": "OMAA",
      "alert": "OK",
      "vis_m": 9999,
      "fzfg": false,
      "metar_trigger": false,
      "taf_trigger": false,
      "metar": "METAR OMAA 031430Z 28011KT CAVOK 37/16 Q1002 NOSIG",
      "taf": "TAF OMAA 031100Z 0312/0418 29012KT 8000 NSC"
    },
    {
      "icao": "OMDB",
      "alert": "OK",
      "vis_m": 9999,
      "fzfg": false,
      "metar_trigger": false,
      "taf_trigger": false,
      "metar": "METAR OMDB 031430Z 26009KT 230V290 CAVOK 36/22 Q1001 NOSIG",
      "taf": "TAF OMDB 031100Z 0312/0418 27013KT 8000 NSC"
    },
    {
      "icao": "UAAA",
      "alert": "OK",
      "vis_m": 9999,
      "fzfg": false,
      "metar_trigger": false,
      "taf_trigger": false,
      "metar": "METAR UAAA 031430Z 13002MPS 9999 FEW050 SCT100 BKN200 23/16 Q1013 NOSIG",
      "taf": "TAF UAAA 031103Z 0312/0412 18003MPS 9999 SCT050CB BKN100 TX30/0409Z TN15/0401Z"
    },
    {
      "icao": "UBBB",
      "alert": "OK",
      "vis_m": 9999,
      "fzfg": false,
      "metar_trigger": false,
      "taf_trigger": false,
      "metar": "METAR UBBB 031430Z 16012KT CAVOK 21/10 Q1016 NOSIG",
      "taf": "TAF UBBB 031053Z 0312/0412 19008KT CAVOK TX22/0312Z TN15/0400Z"
    },
    {
      "icao": "UDSG",
      "alert": "OK",
      "vis_m": 9999,
      "fzfg": false,
      "metar_trigger": false,
      "taf_trigger": false,
      "metar": "METAR UDSG 031430Z 09005KT 050V120 9999 FEW049CB 21/08 Q1018 NOSIG",
      "taf": "TAF UDSG 031058Z 0312/0412 06006KT 9999 FEW050"
    },
    {
      "icao": "UDYZ",
      "alert": "OK",
      "vis_m": 9999,
      "fzfg": false,
      "metar_trigger": false,
      "taf_trigger": false,
      "metar": "METAR UDYZ 031430Z 18007KT 9999 SCT043CB 27/07 Q1013 NOSIG",
      "taf": "TAF UDYZ 031100Z 0312/0412 22006KT 9999 FEW040"
    },
    {
      "icao": "UGKO",
      "alert": "OK",
      "vis_m": 9999,
      "fzfg": false,
      "metar_trigger": false,
      "taf_trigger": false,
      "metar": "METAR UGKO 031430Z 09012KT CAVOK 27/12 Q1010 NOSIG",
      "taf": "TAF UGKO 031100Z 0312/0412 09007KT CAVOK TX29/0411Z TN14/0402Z"
    }
  ]
}