{
  "ts_utc": "2026-02-26T04:30:28Z",
  "threshold_m": 150,
  "source": "stations_override.txt (ICAO list) + aviationweather.gov (METAR/TAF raw)",
  "station_count": 159,
  "stations": [
    {
      "icao": "BIKF",
      "alert": "OK",
      "vis_m": 9999,
      "fzfg": false,
      "metar_trigger": false,
      "taf_trigger": false,
      "metar": "METAR BIKF 260400Z 13024G34KT 9999 VCSH FEW012 SCT018CB BKN050 03/00 Q0979",
      "taf": "TAF BIKF 260409Z 2606/2706 16025G38KT 9999 -SHRA SCT015 BKN025 TX05/2608Z TNM03/2700Z"
    },
    {
      "icao": "BKPR",
      "alert": "OK",
      "vis_m": 9999,
      "fzfg": false,
      "metar_trigger": false,
      "taf_trigger": false,
      "metar": "METAR BKPR 260430Z 36005KT 9999 SCT050 01/M01 Q1026 NOSIG",
      "taf": "TAF BKPR 252330Z 2600/2624 35007KT 9999 FEW050"
    },
    {
      "icao": "EBCI",
      "alert": "OK",
      "vis_m": 9999,
      "fzfg": false,
      "metar_trigger": false,
      "taf_trigger": false,
      "metar": "METAR EBCI 260420Z 20007KT CAVOK 11/08 Q1020 NOSIG",
      "taf": "TAF EBCI 252303Z 2600/2706 20007KT CAVOK"
    },
    {
      "icao": "EDDB",
      "alert": "OK",
      "vis_m": 9999,
      "fzfg": false,
      "metar_trigger": false,
      "taf_trigger": false,
      "metar": "METAR EDDB 260420Z AUTO 14006KT CAVOK 01/01 Q1023 NOSIG",
      "taf": "TAF EDDB 252300Z 2600/2624 13006KT CAVOK"
    },
    {
      "icao": "EDDH",
      "alert": "OK",
      "vis_m": 9999,
      "fzfg": false,
      "metar_trigger": false,
      "taf_trigger": false,
      "metar": "METAR EDDH 260420Z AUTO 15004KT CAVOK 07/06 Q1018 NOSIG",
      "taf": "TAF EDDH 252300Z 2600/2706 15008KT CAVOK"
    },
    {
      "icao": "EDDK",
      "alert": "OK",
      "vis_m": 9999,
      "fzfg": false,
      "metar_trigger": false,
      "taf_trigger": false,
      "metar": "METAR EDDK 260420Z AUTO 12007KT CAVOK 08/07 Q1021 NOSIG",
      "taf": "TAF EDDK 252300Z 2600/2706 12007KT CAVOK"
    },
    {
      "icao": "EDDN",
      "alert": "OK",
      "vis_m": 8000,
      "fzfg": false,
      "metar_trigger": false,
      "taf_trigger": false,
      "metar": "METAR EDDN 260420Z AUTO 16005KT 130V190 8000 OVC004 06/05 Q1024",
      "taf": "TAF EDDN 252300Z 2600/2624 12007KT 9999 OVC005"
    },
    {
      "icao": "EDDS",
      "alert": "OK",
      "vis_m": 350,
      "fzfg": false,
      "metar_trigger": false,
      "taf_trigger": false,
      "metar": "METAR EDDS 260420Z AUTO 10002KT 0350 0300 R25/0650N FG NSC 02/02 Q1023",
      "taf": "TAF EDDS 252300Z 2600/2624 VRB03KT CAVOK"
    },
    {
      "icao": "EDFH",
      "alert": "OK",
      "vis_m": 350,
      "fzfg": false,
      "metar_trigger": false,
      "taf_trigger": false,
      "metar": "METAR EDFH 260420Z 15011KT 0350 R21/0375N FG VV/// 06/06 Q1022",
      "taf": "TAF EDFH 252300Z 2600/2624 13012KT 6000 NSC"
    },
    {
      "icao": "EDJA",
      "alert": "OK",
      "vis_m": null,
      "fzfg": false,
      "metar_trigger": false,
      "taf_trigger": false,
      "metar": "",
      "taf": "TAF EDJA 260200Z 2603/2612 VRB03KT 0600 FG VV001"
    },
    {
      "icao": "EDLW",
      "alert": "OK",
      "vis_m": 9999,
      "fzfg": false,
      "metar_trigger": false,
      "taf_trigger": false,
      "metar": "METAR EDLW 260420Z 18010KT CAVOK 10/07 Q1019",
      "taf": "TAF EDLW 260420Z 2605/2624 20010KT CAVOK"
    },
    {
      "icao": "EDNY",
      "alert": "OK",
      "vis_m": 350,
      "fzfg": false,
      "metar_trigger": false,
      "taf_trigger": false,
      "metar": "METAR EDNY 260420Z AUTO VRB01KT 0350 R06/0550N VV/// 04/04 Q1025",
      "taf": "TAF EDNY 260200Z 2603/2612 VRB02KT 0700 FG VV001"
    },
    {
      "icao": "EDSB",
      "alert": "OK",
      "vis_m": 700,
      "fzfg": false,
      "metar_trigger": false,
      "taf_trigger": false,
      "metar": "METAR EDSB 260420Z 18003KT 130V200 0700 R21/0900N FG VV/// 07/07 Q1024",
      "taf": "TAF EDSB 252300Z 2600/2624 VRB03KT 0800 FG BKN002"
    },
    {
      "icao": "EETN",
      "alert": "OK",
      "vis_m": 4500,
      "fzfg": false,
      "metar_trigger": false,
      "taf_trigger": false,
      "metar": "METAR EETN 260420Z 18010KT 4500 SN BKN010 OVC028 M03/M04 Q1023 TEMPO 2000",
      "taf": "TAF EETN 252330Z 2600/2624 18010KT 9999 BKN040"
    },
    {
      "icao": "EFTU",
      "alert": "OK",
      "vis_m": 4700,
      "fzfg": false,
      "metar_trigger": false,
      "taf_trigger": false,
      "metar": "METAR EFTU 260420Z AUTO 20012KT 170V230 4700 -SN OVC005 M01/M01 Q1016",
      "taf": "TAF EFTU 260236Z 2603/2703 20012G22KT 4000 -FZRA BKN007"
    },
    {
      "icao": "EGBB",
      "alert": "OK",
      "vis_m": 9999,
      "fzfg": false,
      "metar_trigger": false,
      "taf_trigger": false,
      "metar": "METAR EGBB 260420Z 20008KT 170V230 CAVOK 10/08 Q1014",
      "taf": "TAF EGBB 252259Z 2600/2624 20010KT 9999 SCT016"
    },
    {
      "icao": "EGGP",
      "alert": "OK",
      "vis_m": 9999,
      "fzfg": false,
      "metar_trigger": false,
      "taf_trigger": false,
      "metar": "METAR EGGP 260420Z AUTO 17007KT 130V210 9999 BKN024/// OVC035/// 10/07 Q1012",
      "taf": "TAF EGGP 252255Z 2600/2624 22012KT 9999 SCT025"
    },
    {
      "icao": "EGGW",
      "alert": "OK",
      "vis_m": 9999,
      "fzfg": false,
      "metar_trigger": false,
      "taf_trigger": false,
      "metar": "METAR EGGW 260420Z AUTO 23012KT 9999 BKN015 OVC020 10/08 Q1016",
      "taf": ""
    },
    {
      "icao": "EGKK",
      "alert": "OK",
      "vis_m": 9999,
      "fzfg": false,
      "metar_trigger": false,
      "taf_trigger": false,
      "metar": "METAR EGKK 260420Z 21007KT 9999 BKN014 10/09 Q1018",
      "taf": ""
    },
    {
      "icao": "EGNM",
      "alert": "OK",
      "vis_m": 9999,
      "fzfg": false,
      "metar_trigger": false,
      "taf_trigger": false,
      "metar": "METAR EGNM 260420Z 21012KT 9999 FEW016 SCT020 BKN035 10/07 Q1011",
      "taf": "TAF EGNM 251656Z 2518/2618 21011KT 9999 SCT020"
    },
    {
      "icao": "EGPD",
      "alert": "OK",
      "vis_m": 9999,
      "fzfg": false,
      "metar_trigger": false,
      "taf_trigger": false,
      "metar": "METAR EGPD 260420Z COR AUTO 22006KT 190V250 9999 SCT026 10/07 Q1002 NOSIG",
      "taf": "TAF EGPD 252255Z 2600/2624 19009KT 9999 FEW018"
    },
    {
      "icao": "EGPF",
      "alert": "OK",
      "vis_m": 9999,
      "fzfg": false,
      "metar_trigger": false,
      "taf_trigger": false,
      "metar": "METAR EGPF 260420Z AUTO 22017KT 9999 BKN012 10/09 Q1004",
      "taf": ""
    },
    {
      "icao": "EHBK",
      "alert": "OK",
      "vis_m": 9999,
      "fzfg": false,
      "metar_trigger": false,
      "taf_trigger": false,
      "metar": "METAR EHBK 260425Z AUTO 20013KT 9999 NSC 11/08 Q1019",
      "taf": "TAF EHBK 252317Z 2600/2706 18008KT CAVOK"
    },
    {
      "icao": "EHEH",
      "alert": "OK",
      "vis_m": 9999,
      "fzfg": false,
      "metar_trigger": false,
      "taf_trigger": false,
      "metar": "METAR EHEH 260425Z AUTO 19005KT 9999 NCD 09/08 Q1019 BLU",
      "taf": "TAF EHEH 252315Z 2600/2706 18006KT CAVOK"
    },
    {
      "icao": "EKBI",
      "alert": "OK",
      "vis_m": 1000,
      "fzfg": false,
      "metar_trigger": false,
      "taf_trigger": false,
      "metar": "METAR EKBI 260420Z AUTO 15006KT 1000 R09/P1500N R27/0900N FG BKN007/// BKN140/// 04/04 Q1014",
      "taf": "TAF EKBI 260227Z 2603/2703 15005KT 0200 FG BKN002"
    },
    {
      "icao": "EKCH",
      "alert": "OK",
      "vis_m": 8000,
      "fzfg": false,
      "metar_trigger": false,
      "taf_trigger": false,
      "metar": "METAR EKCH 260420Z AUTO 19008KT 8000 NCD 02/02 Q1018 NOSIG",
      "taf": "TAF EKCH 260227Z 2603/2703 18010KT 7000 NSC"
    },
    {
      "icao": "ENAL",
      "alert": "OK",
      "vis_m": 9999,
      "fzfg": false,
      "metar_trigger": false,
      "taf_trigger": false,
      "metar": "METAR ENAL 260420Z AUTO 15006KT 9999 -RA FEW026/// OVC036/// 05/04 Q0998",
      "taf": "TAF ENAL 260200Z 2603/2612 14007KT 9999 -RA FEW020 BKN030"
    },
    {
      "icao": "ENBR",
      "alert": "OK",
      "vis_m": 9999,
      "fzfg": false,
      "metar_trigger": false,
      "taf_trigger": false,
      "metar": "METAR ENBR 260420Z 15018KT 9999 -RA OVC005 06/06 Q1001 RMK WIND 1200FT 16020KT",
      "taf": "TAF ENBR 252300Z 2600/2624 16018KT 8000 -RADZ SCT004 BKN008"
    },
    {
      "icao": "ENGM",
      "alert": "OK",
      "vis_m": 1600,
      "fzfg": false,
      "metar_trigger": false,
      "taf_trigger": false,
      "metar": "METAR ENGM 260420Z 18004KT 1600 0900NW R19R/1200N R01R/2000U R19L/1500U R01L/P2000N -RA BCFG VV003 00/M00 Q1007",
      "taf": "TAF ENGM 252300Z 2600/2624 19008KT 6000 -DZ BKN004"
    },
    {
      "icao": "ENHD",
      "alert": "OK",
      "vis_m": 6000,
      "fzfg": false,
      "metar_trigger": false,
      "taf_trigger": false,
      "metar": "METAR ENHD 260420Z AUTO 16012KT 6000 RA OVC004/// 07/06 Q1003",
      "taf": "TAF ENHD 260200Z 2603/2612 16018KT 9999 -RA BKN004"
    },
    {
      "icao": "ENTC",
      "alert": "OK",
      "vis_m": 4300,
      "fzfg": false,
      "metar_trigger": false,
      "taf_trigger": false,
      "metar": "METAR ENTC 260420Z 20023KT 4300 -SN BKN024 M05/M08 Q1004 RMK WIND 2600FT 19012KT",
      "taf": ""
    },
    {
      "icao": "ENTO",
      "alert": "OK",
      "vis_m": 200,
      "fzfg": false,
      "metar_trigger": false,
      "taf_trigger": false,
      "metar": "METAR ENTO 260420Z AUTO 18008KT 0200 R18/0750N R36/0800N +RA VV003 01/01 Q1008",
      "taf": ""
    },
    {
      "icao": "ENVA",
      "alert": "OK",
      "vis_m": 9999,
      "fzfg": false,
      "metar_trigger": false,
      "taf_trigger": false,
      "metar": "METAR ENVA 260420Z 06005KT 9999 OVC040 02/01 Q1001 RMK WIND 670FT 13009KT",
      "taf": "TAF ENVA 252300Z 2600/2624 09007KT 9999 -DZRA FEW020 BKN040"
    },
    {
      "icao": "ENZV",
      "alert": "OK",
      "vis_m": 7000,
      "fzfg": false,
      "metar_trigger": false,
      "taf_trigger": false,
      "metar": "METAR ENZV 260420Z 16011KT 7000 RA SCT006 BKN013 07/05 Q1004",
      "taf": "TAF ENZV 252300Z 2600/2624 17015KT 9999 -RA BKN012"
    },
    {
      "icao": "EPGD",
      "alert": "OK",
      "vis_m": 9999,
      "fzfg": false,
      "metar_trigger": false,
      "taf_trigger": false,
      "metar": "METAR EPGD 260400Z 21008KT CAVOK 00/M04 Q1025",
      "taf": "TAF EPGD 252330Z 2600/2624 18010KT CAVOK"
    },
    {
      "icao": "EPKK",
      "alert": "OK",
      "vis_m": 9999,
      "fzfg": false,
      "metar_trigger": false,
      "taf_trigger": false,
      "metar": "METAR EPKK 260400Z 05004KT CAVOK M05/M07 Q1029",
      "taf": "TAF EPKK 260230Z 2603/2703 06005KT CAVOK"
    },
    {
      "icao": "EPKT",
      "alert": "OK",
      "vis_m": 9999,
      "fzfg": false,
      "metar_trigger": false,
      "taf_trigger": false,
      "metar": "METAR EPKT 260400Z 09006KT CAVOK M05/M06 Q1028",
      "taf": "TAF EPKT 252330Z 2600/2624 07004KT 7000 NSC"
    },
    {
      "icao": "EPLB",
      "alert": "OK",
      "vis_m": 9999,
      "fzfg": false,
      "metar_trigger": false,
      "taf_trigger": false,
      "metar": "METAR EPLB 260400Z 22004KT 9999 OVC025 M02/M04 Q1030",
      "taf": "TAF EPLB 252330Z 2600/2624 VRB02KT 9999 BKN022"
    },
    {
      "icao": "EPMO",
      "alert": "OK",
      "vis_m": 9999,
      "fzfg": false,
      "metar_trigger": false,
      "taf_trigger": false,
      "metar": "METAR EPMO 260400Z 13005KT 100V160 CAVOK M02/M04 Q1030",
      "taf": "TAF EPMO 252330Z 2600/2624 14005KT 7000 FEW020"
    },
    {
      "icao": "EPPO",
      "alert": "OK",
      "vis_m": 9999,
      "fzfg": false,
      "metar_trigger": false,
      "taf_trigger": false,
      "metar": "METAR EPPO 260400Z 14010KT CAVOK M01/M03 Q1026",
      "taf": "TAF EPPO 252330Z 2600/2624 14007KT CAVOK"
    },
    {
      "icao": "EPRA",
      "alert": "OK",
      "vis_m": 9999,
      "fzfg": false,
      "metar_trigger": false,
      "taf_trigger": false,
      "metar": "METAR EPRA 260400Z 15004KT CAVOK M03/M05 Q1030",
      "taf": "TAF EPRA 260230Z 2603/2612 15006KT 9999 SCT030"
    },
    {
      "icao": "EPRZ",
      "alert": "OK",
      "vis_m": 9999,
      "fzfg": false,
      "metar_trigger": false,
      "taf_trigger": false,
      "metar": "METAR EPRZ 260400Z 10004KT 9999 SCT024 M02/M05 Q1030",
      "taf": "TAF EPRZ 252330Z 2600/2624 08006KT 9999 OVC030"
    },
    {
      "icao": "EPSC",
      "alert": "OK",
      "vis_m": 9999,
      "fzfg": false,
      "metar_trigger": false,
      "taf_trigger": false,
      "metar": "METAR EPSC 260400Z 13012KT CAVOK 00/M01 Q1023",
      "taf": "TAF EPSC 252330Z 2600/2624 15010KT CAVOK"
    },
    {
      "icao": "EPSY",
      "alert": "OK",
      "vis_m": 7000,
      "fzfg": false,
      "metar_trigger": false,
      "taf_trigger": false,
      "metar": "METAR EPSY 260400Z VRB02KT 7000 FEW018 M07/M07 Q1029",
      "taf": "TAF EPSY 260230Z 2603/2612 17005KT 9999 SCT025"
    },
    {
      "icao": "EPWA",
      "alert": "OK",
      "vis_m": 9999,
      "fzfg": false,
      "metar_trigger": false,
      "taf_trigger": false,
      "metar": "METAR EPWA 260400Z 14005KT CAVOK M03/M05 Q1030 NOSIG",
      "taf": "TAF EPWA 260230Z 2603/2703 15005KT 9999 FEW020"
    },
    {
      "icao": "EPWR",
      "alert": "OK",
      "vis_m": 9999,
      "fzfg": false,
      "metar_trigger": false,
      "taf_trigger": false,
      "metar": "METAR EPWR 260400Z 11008KT CAVOK M01/M02 Q1027",
      "taf": "TAF EPWR 260230Z 2603/2703 12007KT CAVOK"
    },
    {
      "icao": "ESGG",
      "alert": "OK",
      "vis_m": 550,
      "fzfg": false,
      "metar_trigger": false,
      "taf_trigger": false,
      "metar": "METAR ESGG 260420Z 18013KT 0550 R03/P2000N R21/P2000N FG VV003 03/03 Q1013",
      "taf": "TAF ESGG 260230Z 2603/2703 18012KT 5000 OVC003"
    },
    {
      "icao": "ESKN",
      "alert": "OK",
      "vis_m": 9999,
      "fzfg": false,
      "metar_trigger": false,
      "taf_trigger": false,
      "metar": "METAR ESKN 260420Z 16011KT 9999 SCT012 OVC057 01/M01 Q1014",
      "taf": "TAF ESKN 260230Z 2603/2703 17006KT 9999 BKN035"
    },
    {
      "icao": "ESMS",
      "alert": "OK",
      "vis_m": 6000,
      "fzfg": false,
      "metar_trigger": false,
      "taf_trigger": false,
      "metar": "METAR ESMS 260420Z 17011KT 6000 NSC 02/02 Q1018",
      "taf": "TAF ESMS 260227Z 2603/2703 16010KT 7000 FEW004"
    },
    {
      "icao": "ESSA",
      "alert": "OK",
      "vis_m": null,
      "fzfg": false,
      "metar_trigger": false,
      "taf_trigger": false,
      "metar": "",
      "taf": ""
    },
    {
      "icao": "EYKA",
      "alert": "OK",
      "vis_m": 9999,
      "fzfg": false,
      "metar_trigger": false,
      "taf_trigger": false,
      "metar": "METAR EYKA 260420Z 21003KT 160V260 9999 OVC014 M02/M05 Q1030",
      "taf": "TAF EYKA 252300Z 2600/2624 VRB03KT 9000 OVC015"
    },
    {
      "icao": "EYPA",
      "alert": "OK",
      "vis_m": 9999,
      "fzfg": false,
      "metar_trigger": false,
      "taf_trigger": false,
      "metar": "METAR EYPA 260420Z 17009KT CAVOK M04/M06 Q1026",
      "taf": "TAF EYPA 252300Z 2600/2624 17010KT 9000 NSC"
    },
    {
      "icao": "EYVI",
      "alert": "OK",
      "vis_m": 9999,
      "fzfg": false,
      "metar_trigger": false,
      "taf_trigger": false,
      "metar": "METAR EYVI 260420Z 19002KT 9999 OVC015 M03/M06 Q1029 NOSIG",
      "taf": "TAF EYVI 252300Z 2600/2624 VRB03KT 9000 OVC020"
    },
    {
      "icao": "GCFV",
      "alert": "OK",
      "vis_m": 9999,
      "fzfg": false,
      "metar_trigger": false,
      "taf_trigger": false,
      "metar": "METAR GCFV 260400Z AUTO 34010KT CAVOK 16/11 Q1016",
      "taf": "TAF GCFV 260200Z 2603/2703 33015KT 9999 SCT020 TX20/2614Z TN13/2606Z"
    },
    {
      "icao": "GCLP",
      "alert": "OK",
      "vis_m": 9999,
      "fzfg": false,
      "metar_trigger": false,
      "taf_trigger": false,
      "metar": "METAR GCLP 260400Z 36014KT 9999 FEW020 SCT060 16/11 Q1017 NOSIG",
      "taf": "TAF GCLP 260200Z 2603/2703 36015KT 9999 SCT020 TX19/2614Z TN13/2606Z"
    },
    {
      "icao": "GCTS",
      "alert": "OK",
      "vis_m": 9999,
      "fzfg": false,
      "metar_trigger": false,
      "taf_trigger": false,
      "metar": "METAR GCTS 260400Z 07008KT 040V100 9999 SCT040 BKN060 17/09 Q1017 NOSIG",
      "taf": "TAF GCTS 260200Z 2603/2703 06011KT 9999 BKN020 TX22/2614Z TN14/2606Z"
    },
    {
      "icao": "GMAD",
      "alert": "OK",
      "vis_m": 9999,
      "fzfg": false,
      "metar_trigger": false,
      "taf_trigger": false,
      "metar": "METAR GMAD 260400Z 05003KT 9999 SCT020 14/13 Q1012 NOSIG",
      "taf": "TAF GMAD 252300Z 2600/2706 18006KT 9999 SCT020 BKN080"
    },
    {
      "icao": "GMMN",
      "alert": "OK",
      "vis_m": 8000,
      "fzfg": false,
      "metar_trigger": false,
      "taf_trigger": false,
      "metar": "METAR GMMN 260400Z VRB03KT 8000 NSC 11/09 Q1016 NOSIG",
      "taf": "TAF GMMN 252300Z 2600/2706 29007KT CAVOK"
    },
    {
      "icao": "GMMX",
      "alert": "OK",
      "vis_m": 9999,
      "fzfg": false,
      "metar_trigger": false,
      "taf_trigger": false,
      "metar": "METAR GMMX 260400Z 23008KT 9999 SCT026 SCT080 12/10 Q1015 NOSIG",
      "taf": "TAF GMMX 252300Z 2600/2706 06006KT 8000 SCT026 SCT100"
    },
    {
      "icao": "HEGN",
      "alert": "OK",
      "vis_m": 9999,
      "fzfg": false,
      "metar_trigger": false,
      "taf_trigger": false,
      "metar": "METAR HEGN 260400Z 29008KT CAVOK 15/04 Q1017 NOSIG",
      "taf": "TAF HEGN 252300Z 2600/2706 29010KT CAVOK"
    },
    {
      "icao": "HEMA",
      "alert": "OK",
      "vis_m": 9999,
      "fzfg": false,
      "metar_trigger": false,
      "taf_trigger": false,
      "metar": "METAR HEMA 260400Z 31012KT CAVOK 16/14 Q1016 NOSIG",
      "taf": "TAF HEMA 252300Z 2600/2706 26010KT CAVOK"
    },
    {
      "icao": "HESH",
      "alert": "OK",
      "vis_m": 9999,
      "fzfg": false,
      "metar_trigger": false,
      "taf_trigger": false,
      "metar": "METAR HESH 260400Z 33006KT CAVOK 17/04 Q1016 NOSIG",
      "taf": "TAF HESH 252300Z 2600/2706 34008KT CAVOK"
    },
    {
      "icao": "HESX",
      "alert": "OK",
      "vis_m": 9999,
      "fzfg": false,
      "metar_trigger": false,
      "taf_trigger": false,
      "metar": "METAR HESX 260400Z 33005KT CAVOK 10/05 Q1018 NOSIG",
      "taf": "TAF HESX 252300Z 2600/2706 28008KT 7000 NSC"
    },
    {
      "icao": "LATI",
      "alert": "OK",
      "vis_m": 9999,
      "fzfg": false,
      "metar_trigger": false,
      "taf_trigger": false,
      "metar": "METAR LATI 260420Z 15002KT CAVOK 03/00 Q1024 NOSIG",
      "taf": "TAF LATI 252300Z 2600/2624 VRB03KT CAVOK TX19/2612Z TN04/2605Z"
    },
    {
      "icao": "LBPD",
      "alert": "OK",
      "vis_m": 9999,
      "fzfg": false,
      "metar_trigger": false,
      "taf_trigger": false,
      "metar": "METAR LBPD 260400Z AUTO 07004KT 9999 FEW071/// BKN100/// 05/01 Q1024 NOSIG",
      "taf": "TAF LBPD 252300Z 2600/2624 28014KT 9999 SCT040 BKN070"
    },
    {
      "icao": "LBSF",
      "alert": "OK",
      "vis_m": 9999,
      "fzfg": false,
      "metar_trigger": false,
      "taf_trigger": false,
      "metar": "METAR LBSF 260400Z AUTO 27007KT 9999 SCT056/// 03/M01 Q1024 NOSIG",
      "taf": "TAF LBSF 252300Z 2600/2624 30010KT 9999 SCT030 BKN050"
    },
    {
      "icao": "LBWN",
      "alert": "OK",
      "vis_m": 9999,
      "fzfg": false,
      "metar_trigger": false,
      "taf_trigger": false,
      "metar": "METAR LBWN 260400Z AUTO 03005KT 330V060 9999 OVC012/// 03/01 Q1025 NOSIG",
      "taf": "TAF LBWN 252300Z 2600/2624 02012KT 9999 SCT030 BKN050"
    },
    {
      "icao": "LCLK",
      "alert": "OK",
      "vis_m": 9999,
      "fzfg": false,
      "metar_trigger": false,
      "taf_trigger": false,
      "metar": "METAR LCLK 260400Z 27012KT 9999 FEW025 11/07 Q1012 NOSIG",
      "taf": "TAF LCLK 252330Z 2600/2700 30008KT 9999 FEW020"
    },
    {
      "icao": "LCPH",
      "alert": "OK",
      "vis_m": 9999,
      "fzfg": false,
      "metar_trigger": false,
      "taf_trigger": false,
      "metar": "METAR LCPH 260400Z 32004KT 9999 FEW035 BKN070 11/05 Q1013 NOSIG",
      "taf": "TAF LCPH 252330Z 2600/2700 34008KT 9999 FEW020 SCT040"
    },
    {
      "icao": "LEAL",
      "alert": "OK",
      "vis_m": 9999,
      "fzfg": false,
      "metar_trigger": false,
      "taf_trigger": false,
      "metar": "METAR LEAL 260400Z 28003KT 230V300 CAVOK 10/05 Q1023 NOSIG",
      "taf": "TAF LEAL 252300Z 2600/2624 VRB04KT 9999 FEW015 TX21/2612Z TN07/2605Z"
    },
    {
      "icao": "LEBB",
      "alert": "OK",
      "vis_m": 9999,
      "fzfg": false,
      "metar_trigger": false,
      "taf_trigger": false,
      "metar": "METAR LEBB 260400Z 05004KT CAVOK 09/07 Q1024 NOSIG",
      "taf": "TAF LEBB 252300Z 2600/2624 13008KT CAVOK TX23/2614Z TN07/2606Z"
    },
    {
      "icao": "LEBL",
      "alert": "OK",
      "vis_m": 4500,
      "fzfg": false,
      "metar_trigger": false,
      "taf_trigger": false,
      "metar": "METAR LEBL 260400Z 33008KT 4500 BR FEW014 09/08 Q1026 NOSIG",
      "taf": "TAF LEBL 252300Z 2600/2624 05006KT 9999 SCT015 TX16/2613Z TN07/2606Z"
    },
    {
      "icao": "LECH",
      "alert": "OK",
      "vis_m": 50,
      "fzfg": false,
      "metar_trigger": false,
      "taf_trigger": false,
      "metar": "METAR LECH 260400Z AUTO VRB01KT 0050 R06/M0050N FG VV001 08/08 Q1026",
      "taf": ""
    },
    {
      "icao": "LEMD",
      "alert": "OK",
      "vis_m": 9999,
      "fzfg": false,
      "metar_trigger": false,
      "taf_trigger": false,
      "metar": "METAR LEMD 260400Z VRB02KT CAVOK 04/01 Q1024 NOSIG",
      "taf": "TAF LEMD 252300Z 2600/2706 VRB04KT CAVOK TX21/2615Z TN04/2607Z"
    },
    {
      "icao": "LEMG",
      "alert": "OK",
      "vis_m": 800,
      "fzfg": false,
      "metar_trigger": false,
      "taf_trigger": false,
      "metar": "SPECI LEMG 260422Z 30007KT 0800 R12/P2000 R13/1700D R30/P2000 FG OVC002 09/09 Q1022 NOSIG",
      "taf": "TAF LEMG 252300Z 2600/2624 28004KT 9999 FEW015 TX20/2614Z TN08/2607Z"
    },
    {
      "icao": "LEVC",
      "alert": "OK",
      "vis_m": 9999,
      "fzfg": false,
      "metar_trigger": false,
      "taf_trigger": false,
      "metar": "METAR LEVC 260400Z 32004KT CAVOK 09/08 Q1026 NOSIG",
      "taf": "TAF LEVC 252300Z 2600/2624 VRB04KT 9999 BKN015 TX21/2612Z TN06/2605Z"
    },
    {
      "icao": "LEXJ",
      "alert": "OK",
      "vis_m": 8000,
      "fzfg": false,
      "metar_trigger": false,
      "taf_trigger": false,
      "metar": "METAR LEXJ 260400Z AUTO VRB01KT 8000 NCD 08/07 Q1024",
      "taf": "TAF LEXJ 260200Z 2603/2703 04009KT CAVOK TX17/2614Z TN08/2606Z"
    },
    {
      "icao": "LEZG",
      "alert": "OK",
      "vis_m": 9999,
      "fzfg": false,
      "metar_trigger": false,
      "taf_trigger": false,
      "metar": "METAR LEZG 260400Z VRB01KT CAVOK 07/06 Q1025 NOSIG",
      "taf": "TAF LEZG 252300Z 2600/2624 11010KT CAVOK TX20/2615Z TN05/2606Z"
    },
    {
      "icao": "LEZL",
      "alert": "OK",
      "vis_m": 9999,
      "fzfg": false,
      "metar_trigger": false,
      "taf_trigger": false,
      "metar": "METAR LEZL 260400Z AUTO 12003KT 080V170 CAVOK 09/08 Q1020",
      "taf": "TAF LEZL 260200Z 2603/2703 VRB02KT CAVOK TX24/2615Z TN09/2607Z"
    },
    {
      "icao": "LFBD",
      "alert": "OK",
      "vis_m": 9999,
      "fzfg": false,
      "metar_trigger": false,
      "taf_trigger": false,
      "metar": "METAR LFBD 260400Z AUTO 14005KT CAVOK 09/08 Q1024 TEMPO 0800 FG VV///",
      "taf": "TAF LFBD 252300Z 2600/2706 12005KT CAVOK TX20/2615Z TN07/2606Z"
    },
    {
      "icao": "LFLL",
      "alert": "OK",
      "vis_m": 9999,
      "fzfg": false,
      "metar_trigger": false,
      "taf_trigger": false,
      "metar": "METAR LFLL 260400Z 13007KT CAVOK 09/06 Q1025 NOSIG",
      "taf": "TAF LFLL 252300Z 2600/2706 16008KT CAVOK"
    },
    {
      "icao": "LFLS",
      "alert": "OK",
      "vis_m": 9999,
      "fzfg": false,
      "metar_trigger": false,
      "taf_trigger": false,
      "metar": "METAR LFLS 260400Z AUTO 11004KT CAVOK 05/04 Q1026 TEMPO 0400 FG VV///",
      "taf": "TAF LFLS 260200Z 2603/2703 09006KT CAVOK"
    },
    {
      "icao": "LFMN",
      "alert": "OK",
      "vis_m": 9999,
      "fzfg": false,
      "metar_trigger": false,
      "taf_trigger": false,
      "metar": "METAR LFMN 260400Z 33008KT CAVOK 10/07 Q1026 NOSIG",
      "taf": "TAF LFMN 260200Z 2603/2709 34010KT 9999 SCT030"
    },
    {
      "icao": "LFOB",
      "alert": "OK",
      "vis_m": 9999,
      "fzfg": false,
      "metar_trigger": false,
      "taf_trigger": false,
      "metar": "METAR LFOB 260400Z AUTO 29002KT CAVOK 05/04 Q1020 TEMPO 0900 FG VV///",
      "taf": "TAF LFOB 252300Z 2600/2624 19009KT CAVOK"
    },
    {
      "icao": "LFPO",
      "alert": "OK",
      "vis_m": 9999,
      "fzfg": false,
      "metar_trigger": false,
      "taf_trigger": false,
      "metar": "METAR LFPO 260400Z AUTO VRB01KT CAVOK 10/07 Q1021 TEMPO 4000 BR",
      "taf": ""
    },
    {
      "icao": "LFSB",
      "alert": "OK",
      "vis_m": 9999,
      "fzfg": false,
      "metar_trigger": false,
      "taf_trigger": false,
      "metar": "METAR LFSB 260400Z AUTO 19006KT CAVOK 06/05 Q1024 TEMPO 4000 BR OVC003",
      "taf": "TAF LFSB 252300Z 2600/2624 30003KT 6000 SCT003"
    },
    {
      "icao": "LGAV",
      "alert": "OK",
      "vis_m": 9999,
      "fzfg": false,
      "metar_trigger": false,
      "taf_trigger": false,
      "metar": "METAR LGAV 260420Z 29004KT 260V340 9999 FEW025 04/01 Q1022 NOSIG",
      "taf": "TAF LGAV 252300Z 2600/2624 28010KT 9999 FEW025"
    },
    {
      "icao": "LGTS",
      "alert": "OK",
      "vis_m": 9999,
      "fzfg": false,
      "metar_trigger": false,
      "taf_trigger": false,
      "metar": "METAR LGTS 260420Z 35015KT 9999 FEW030 11/02 Q1023 NOSIG",
      "taf": "TAF LGTS 252300Z 2600/2624 34015KT 9999 FEW030"
    },
    {
      "icao": "LHBP",
      "alert": "OK",
      "vis_m": 9999,
      "fzfg": false,
      "metar_trigger": false,
      "taf_trigger": false,
      "metar": "METAR LHBP 260400Z VRB01KT CAVOK M03/M05 Q1030 NOSIG",
      "taf": "TAF LHBP 252315Z 2600/2624 08012KT CAVOK"
    },
    {
      "icao": "LHDC",
      "alert": "OK",
      "vis_m": 9999,
      "fzfg": false,
      "metar_trigger": false,
      "taf_trigger": false,
      "metar": "METAR LHDC 260345Z AUTO 02006KT CAVOK M01/M04 Q1029",
      "taf": "TAF LHDC 260215Z 2603/2612 02006KT CAVOK"
    },
    {
      "icao": "LIBD",
      "alert": "OK",
      "vis_m": 9999,
      "fzfg": false,
      "metar_trigger": false,
      "taf_trigger": false,
      "metar": "METAR LIBD 260420Z 25007KT CAVOK 07/04 Q1026",
      "taf": "TAF LIBD 252300Z 2600/2624 25006KT CAVOK"
    },
    {
      "icao": "LIBG",
      "alert": "OK",
      "vis_m": null,
      "fzfg": false,
      "metar_trigger": false,
      "taf_trigger": false,
      "metar": "",
      "taf": "TAF LIBG 251700Z 2518/2603 35006KT CAVOK"
    },
    {
      "icao": "LIBP",
      "alert": "OK",
      "vis_m": 5000,
      "fzfg": false,
      "metar_trigger": false,
      "taf_trigger": false,
      "metar": "METAR LIBP 260420Z AUTO 21005KT 5000 BR NCD 04/04 Q1028",
      "taf": "TAF LIBP 252300Z 2600/2624 VRB05KT 7000 FEW040"
    },
    {
      "icao": "LIBR",
      "alert": "OK",
      "vis_m": 9999,
      "fzfg": false,
      "metar_trigger": false,
      "taf_trigger": false,
      "metar": "METAR LIBR 260350Z 32012KT CAVOK 11/09 Q1024",
      "taf": "TAF LIBR 252300Z 2600/2624 29008KT CAVOK"
    },
    {
      "icao": "LICA",
      "alert": "OK",
      "vis_m": 9999,
      "fzfg": false,
      "metar_trigger": false,
      "taf_trigger": false,
      "metar": "METAR LICA 260420Z AUTO 09003KT 050V110 9999 OVC020/// 10/09 Q1026",
      "taf": "TAF LICA 252300Z 2600/2624 VRB05KT 9999 FEW030"
    },
    {
      "icao": "LICC",
      "alert": "OK",
      "vis_m": 9999,
      "fzfg": false,
      "metar_trigger": false,
      "taf_trigger": false,
      "metar": "METAR LICC 260420Z 24005KT CAVOK 08/05 Q1026",
      "taf": "TAF LICC 252300Z 2600/2624 24007KT CAVOK"
    },
    {
      "icao": "LICJ",
      "alert": "OK",
      "vis_m": 9999,
      "fzfg": false,
      "metar_trigger": false,
      "taf_trigger": false,
      "metar": "METAR LICJ 260420Z 07002KT CAVOK 11/09 Q1026",
      "taf": "TAF LICJ 252300Z 2600/2624 20007KT CAVOK"
    },
    {
      "icao": "LIMC",
      "alert": "OK",
      "vis_m": 9999,
      "fzfg": false,
      "metar_trigger": false,
      "taf_trigger": false,
      "metar": "METAR LIMC 260420Z 02005KT CAVOK 02/02 Q1027 NOSIG",
      "taf": "TAF LIMC 252300Z 2600/2706 VRB04KT 7000 FEW030"
    },
    {
      "icao": "LIME",
      "alert": "OK",
      "vis_m": 5000,
      "fzfg": false,
      "metar_trigger": false,
      "taf_trigger": false,
      "metar": "METAR LIME 260420Z 36003KT 5000 BR NSC 05/04 Q1027 NOSIG",
      "taf": "TAF LIME 252300Z 2600/2624 VRB05KT 8000 FEW030"
    },
    {
      "icao": "LIMF",
      "alert": "OK",
      "vis_m": 8000,
      "fzfg": false,
      "metar_trigger": false,
      "taf_trigger": false,
      "metar": "METAR LIMF 260420Z VRB01KT 8000 NSC 04/02 Q1027",
      "taf": "TAF LIMF 252300Z 2600/2624 VRB04KT 6000 FEW040"
    },
    {
      "icao": "LIMJ",
      "alert": "OK",
      "vis_m": 9999,
      "fzfg": false,
      "metar_trigger": false,
      "taf_trigger": false,
      "metar": "METAR LIMJ 260420Z 04007KT 9999 FEW034 13/07 Q1026",
      "taf": "TAF LIMJ 252300Z 2600/2624 04012KT CAVOK"
    },
    {
      "icao": "LIPE",
      "alert": "OK",
      "vis_m": 4000,
      "fzfg": false,
      "metar_trigger": false,
      "taf_trigger": false,
      "metar": "METAR LIPE 260420Z 26002KT 4000 BR BKN030 11/09 Q1027",
      "taf": "TAF LIPE 252300Z 2600/2624 VRB04KT 3000 BR BKN020"
    },
    {
      "icao": "LIPH",
      "alert": "OK",
      "vis_m": 1000,
      "fzfg": false,
      "metar_trigger": false,
      "taf_trigger": false,
      "metar": "METAR LIPH 260420Z AUTO 06003KT 1000 0150W R07/0650U BR VV005 05/05 Q1027",
      "taf": "TAF LIPH 252300Z 2600/2624 VRB04KT 4000 BR NSC"
    },
    {
      "icao": "LIPQ",
      "alert": "OK",
      "vis_m": 9999,
      "fzfg": false,
      "metar_trigger": false,
      "taf_trigger": false,
      "metar": "METAR LIPQ 260420Z AUTO 03003KT 9999 NCD 02/02 Q1027",
      "taf": ""
    },
    {
      "icao": "LIPR",
      "alert": "OK",
      "vis_m": 4400,
      "fzfg": false,
      "metar_trigger": false,
      "taf_trigger": false,
      "metar": "METAR LIPR 260420Z AUTO 22001KT 4400 BR OVC040/// 11/10 Q1027",
      "taf": "TAF LIPR 252300Z 2600/2624 VRB04KT 4000 BR BKN030"
    },
    {
      "icao": "LIPX",
      "alert": "OK",
      "vis_m": 2500,
      "fzfg": false,
      "metar_trigger": false,
      "taf_trigger": false,
      "metar": "METAR LIPX 260420Z 02002KT 2500 BR FEW035 04/04 Q1027",
      "taf": "TAF LIPX 252300Z 2600/2624 VRB05KT 6000 FEW030"
    },
    {
      "icao": "LIPY",
      "alert": "OK",
      "vis_m": 5000,
      "fzfg": false,
      "metar_trigger": false,
      "taf_trigger": false,
      "metar": "METAR LIPY 260420Z AUTO 21003KT 5000 BR OVC042/// 10/10 Q1027",
      "taf": "TAF LIPY 252300Z 2600/2624 VRB04KT 3000 BR SCT030"
    },
    {
      "icao": "LIPZ",
      "alert": "OK",
      "vis_m": 100,
      "fzfg": false,
      "metar_trigger": false,
      "taf_trigger": false,
      "metar": "METAR LIPZ 260420Z 01004KT 0100 R04R/0275N FG VV001 05/05 Q1027 NOSIG",
      "taf": "TAF LIPZ 252300Z 2600/2706 VRB04KT 4000 BR NSC"
    },
    {
      "icao": "LIRF",
      "alert": "OK",
      "vis_m": 9999,
      "fzfg": false,
      "metar_trigger": false,
      "taf_trigger": false,
      "metar": "METAR LIRF 260420Z 02003KT 9999 MIFG NSC 07/07 Q1026 NOSIG",
      "taf": "TAF LIRF 252300Z 2600/2706 VRB05KT 4000 BCFG FEW030"
    },
    {
      "icao": "LIRN",
      "alert": "OK",
      "vis_m": 8000,
      "fzfg": false,
      "metar_trigger": false,
      "taf_trigger": false,
      "metar": "METAR LIRN 260420Z 34003KT 8000 NSC 07/06 Q1026 NOSIG",
      "taf": "TAF LIRN 252300Z 2600/2624 VRB05KT CAVOK"
    },
    {
      "icao": "LIRP",
      "alert": "OK",
      "vis_m": 900,
      "fzfg": false,
      "metar_trigger": false,
      "taf_trigger": false,
      "metar": "METAR LIRP 260415Z 11004KT 0900 R04R/0800 FG NSC 07/07 Q1027 NOSIG",
      "taf": "TAF LIRP 252300Z 2600/2624 VRB03KT 3000 BR NSC"
    },
    {
      "icao": "LIRZ",
      "alert": "OK",
      "vis_m": 9999,
      "fzfg": false,
      "metar_trigger": false,
      "taf_trigger": false,
      "metar": "METAR LIRZ 260420Z AUTO VRB02KT 9999 NCD 05/05 Q1027",
      "taf": "TAF LIRZ 252300Z 2600/2624 VRB05KT 8000 FEW030"
    },
    {
      "icao": "LJLJ",
      "alert": "OK",
      "vis_m": 9999,
      "fzfg": false,
      "metar_trigger": false,
      "taf_trigger": false,
      "metar": "METAR LJLJ 260400Z 29002KT CAVOK M01/M01 Q1027 NOSIG",
      "taf": "TAF LJLJ 252300Z 2600/2700 VRB02KT CAVOK"
    },
    {
      "icao": "LKMT",
      "alert": "OK",
      "vis_m": 2500,
      "fzfg": true,
      "metar_trigger": false,
      "taf_trigger": false,
      "metar": "METAR LKMT 260400Z 21002KT 2500 R22/0650D R04/0375D BR BCFG FEW003 M02/M02 Q1028 TEMPO 0400 FZFG BKN002",
      "taf": "TAF LKMT 252300Z 2600/2624 VRB02KT 9999 FEW025"
    },
    {
      "icao": "LKPR",
      "alert": "OK",
      "vis_m": 5000,
      "fzfg": false,
      "metar_trigger": false,
      "taf_trigger": false,
      "metar": "METAR LKPR 260400Z VRB01KT 5000 BR MIFG NSC M00/M00 Q1025 NOSIG",
      "taf": "TAF LKPR 260200Z 2603/2709 17005KT 3000 BR SCT005"
    },
    {
      "icao": "LLBG",
      "alert": "OK",
      "vis_m": 9999,
      "fzfg": false,
      "metar_trigger": false,
      "taf_trigger": false,
      "metar": "METAR LLBG 260420Z 18010KT 9999 SCT030 SCT050 13/08 Q1015 TEMPO 8000 RA BKN030",
      "taf": "TAF LLBG 252306Z 2600/2624 19008KT 9999 SCT040 TX18/2612Z TN12/2604Z"
    },
    {
      "icao": "LMML",
      "alert": "OK",
      "vis_m": 9999,
      "fzfg": false,
      "metar_trigger": false,
      "taf_trigger": false,
      "metar": "METAR LMML 260415Z 03002KT 9999 FEW016 11/10 Q1025 NOSIG",
      "taf": "TAF LMML 252300Z 2600/2624 VRB06KT 9999 SCT015"
    },
    {
      "icao": "LOWW",
      "alert": "OK",
      "vis_m": 9999,
      "fzfg": false,
      "metar_trigger": false,
      "taf_trigger": false,
      "metar": "METAR LOWW 260420Z 12005KT CAVOK 02/M01 Q1028 NOSIG",
      "taf": "TAF LOWW 260215Z 2603/2709 VRB04KT CAVOK TX09/2614Z TN00/2605Z"
    },
    {
      "icao": "LPFR",
      "alert": "OK",
      "vis_m": 9999,
      "fzfg": false,
      "metar_trigger": false,
      "taf_trigger": false,
      "metar": "METAR LPFR 260400Z 01006KT CAVOK 12/10 Q1020",
      "taf": "TAF LPFR 252300Z 2600/2624 07007KT CAVOK"
    },
    {
      "icao": "LPMA",
      "alert": "OK",
      "vis_m": 9999,
      "fzfg": false,
      "metar_trigger": false,
      "taf_trigger": false,
      "metar": "METAR LPMA 260400Z 36018G29KT 320V040 9999 BKN015 15/10 Q1022",
      "taf": "TAF LPMA 252300Z 2600/2624 01017G27KT 9999 SCT015"
    },
    {
      "icao": "LPPR",
      "alert": "OK",
      "vis_m": 4500,
      "fzfg": false,
      "metar_trigger": false,
      "taf_trigger": false,
      "metar": "METAR LPPR 260400Z 07003KT 4500 1100N MIFG FEW003 09/08 Q1022",
      "taf": "TAF LPPR 252300Z 2600/2624 VRB02KT 5000 BR NSC"
    },
    {
      "icao": "LPPS",
      "alert": "OK",
      "vis_m": 9999,
      "fzfg": false,
      "metar_trigger": false,
      "taf_trigger": false,
      "metar": "METAR LPPS 260400Z 02017KT 9999 SCT014 15/10 Q1022",
      "taf": "TAF LPPS 252300Z 2600/2706 01015KT 9999 SCT015 SCT030"
    },
    {
      "icao": "LPPT",
      "alert": "OK",
      "vis_m": 9999,
      "fzfg": false,
      "metar_trigger": false,
      "taf_trigger": false,
      "metar": "METAR LPPT 260400Z 31006KT CAVOK 12/11 Q1021",
      "taf": "TAF LPPT 252300Z 2600/2706 35008KT CAVOK"
    },
    {
      "icao": "LQBK",
      "alert": "OK",
      "vis_m": 9999,
      "fzfg": false,
      "metar_trigger": false,
      "taf_trigger": false,
      "metar": "METAR LQBK 260400Z 14004KT CAVOK 00/M01 Q1028 NOSIG",
      "taf": "TAF LQBK 252300Z 2600/2624 16005KT CAVOK TX15/2613Z TN01/2606Z"
    },
    {
      "icao": "LQSA",
      "alert": "OK",
      "vis_m": 9999,
      "fzfg": false,
      "metar_trigger": false,
      "taf_trigger": false,
      "metar": "METAR LQSA 260400Z VRB02KT CAVOK M02/M02 Q1028",
      "taf": "TAF LQSA 252300Z 2600/2624 VRB02KT CAVOK TX15/2614Z TNM01/2605Z"
    },
    {
      "icao": "LQTZ",
      "alert": "OK",
      "vis_m": 4400,
      "fzfg": false,
      "metar_trigger": false,
      "taf_trigger": false,
      "metar": "METAR LQTZ 260400Z 11002KT 4400 BR BKN038 M01/M01 Q1028",
      "taf": "TAF LQTZ 252300Z 2600/2624 VRB02KT CAVOK TX14/2614Z TNM01/2606Z"
    },
    {
      "icao": "LRBC",
      "alert": "OK",
      "vis_m": 9999,
      "fzfg": false,
      "metar_trigger": false,
      "taf_trigger": false,
      "metar": "METAR LRBC 260400Z 33013KT 9999 OVC023 00/M02 Q1028",
      "taf": "TAF LRBC 260200Z 2603/2612 32010KT 9999 BKN030"
    },
    {
      "icao": "LRBS",
      "alert": "OK",
      "vis_m": 9999,
      "fzfg": false,
      "metar_trigger": false,
      "taf_trigger": false,
      "metar": "METAR LRBS 260400Z 06011KT CAVOK 02/M03 Q1027 NOSIG",
      "taf": "TAF LRBS 252300Z 2600/2624 07010KT 9999 BKN045"
    },
    {
      "icao": "LRBV",
      "alert": "OK",
      "vis_m": 9999,
      "fzfg": false,
      "metar_trigger": false,
      "taf_trigger": false,
      "metar": "METAR LRBV 260400Z AUTO VRB01KT 9999 SG FEW031/// OVC043/// M03/M04 Q1026 REDZ",
      "taf": "TAF LRBV 260200Z 2603/2612 VRB04KT CAVOK"
    },
    {
      "icao": "LRCL",
      "alert": "OK",
      "vis_m": 9999,
      "fzfg": false,
      "metar_trigger": false,
      "taf_trigger": false,
      "metar": "METAR LRCL 260400Z 00000KT CAVOK M03/M04 Q1028",
      "taf": "TAF LRCL 260200Z 2603/2612 VRB04KT CAVOK"
    },
    {
      "icao": "LRCV",
      "alert": "OK",
      "vis_m": 6000,
      "fzfg": false,
      "metar_trigger": false,
      "taf_trigger": false,
      "metar": "METAR LRCV 260400Z 07011KT 6000 SCT006 01/00 Q1026",
      "taf": "TAF LRCV 260200Z 2603/2612 08010KT CAVOK"
    },
    {
      "icao": "LRIA",
      "alert": "OK",
      "vis_m": 9999,
      "fzfg": false,
      "metar_trigger": false,
      "taf_trigger": false,
      "metar": "METAR LRIA 260400Z 31011KT 9999 FEW016 M01/M03 Q1028",
      "taf": "TAF LRIA 260200Z 2603/2612 32012KT 9999 BKN030"
    },
    {
      "icao": "LROP",
      "alert": "OK",
      "vis_m": 9999,
      "fzfg": false,
      "metar_trigger": false,
      "taf_trigger": false,
      "metar": "METAR LROP 260400Z 07012KT CAVOK 01/M04 Q1027 NOSIG",
      "taf": "TAF LROP 252300Z 2600/2624 07010KT 9999 BKN045"
    },
    {
      "icao": "LRSB",
      "alert": "OK",
      "vis_m": 9999,
      "fzfg": false,
      "metar_trigger": false,
      "taf_trigger": false,
      "metar": "METAR LRSB 260400Z COR 30005KT CAVOK M03/M05 Q1027",
      "taf": "TAF LRSB 252300Z 2600/2624 VRB04KT 9999 BKN045"
    },
    {
      "icao": "LRSM",
      "alert": "OK",
      "vis_m": 9999,
      "fzfg": false,
      "metar_trigger": false,
      "taf_trigger": false,
      "metar": "METAR LRSM 260400Z AUTO 06004KT 9999 NCD M02/M05 Q1029",
      "taf": "TAF LRSM 260200Z 2603/2612 VRB04KT 9999 BKN045"
    },
    {
      "icao": "LRSV",
      "alert": "OK",
      "vis_m": 9999,
      "fzfg": false,
      "metar_trigger": false,
      "taf_trigger": false,
      "metar": "METAR LRSV 260400Z 31011KT 9999 -SN BCFG BKN009 M02/M03 Q1027",
      "taf": "TAF LRSV 260200Z 2603/2612 32012KT 9999 BKN030"
    },
    {
      "icao": "LRTM",
      "alert": "OK",
      "vis_m": 9999,
      "fzfg": false,
      "metar_trigger": false,
      "taf_trigger": false,
      "metar": "METAR LRTM 260400Z AUTO 24003KT 190V270 9999 NCD M02/M07 Q1027",
      "taf": "TAF LRTM 260200Z 2603/2612 VRB04KT CAVOK"
    },
    {
      "icao": "LRTR",
      "alert": "OK",
      "vis_m": 9999,
      "fzfg": false,
      "metar_trigger": false,
      "taf_trigger": false,
      "metar": "METAR LRTR 260400Z 03003KT 350V070 CAVOK M00/M01 Q1027",
      "taf": "TAF LRTR 252300Z 2600/2624 02010KT CAVOK"
    },
    {
      "icao": "LTAC",
      "alert": "OK",
      "vis_m": 9999,
      "fzfg": false,
      "metar_trigger": false,
      "taf_trigger": false,
      "metar": "METAR LTAC 260420Z VRB01KT 9999 FEW040 M03/M07 Q1015 NOSIG RMK RWY21C VRB01KT RWY03L VRB01KT RWY21R 00000KT RWY03R 00000KT RWY21L 00000KT",
      "taf": "TAF LTAC 252240Z 2600/2624 VRB02KT 9999 SCT040"
    },
    {
      "icao": "LTFM",
      "alert": "OK",
      "vis_m": 9999,
      "fzfg": false,
      "metar_trigger": false,
      "taf_trigger": false,
      "metar": "METAR LTFM 260420Z 02014KT 9999 -SHRASN SCT008 BKN022 04/02 Q1023 NOSIG RMK RWY17L 01014KT RWY34L 36015KT RWY16R 01014KT RWY36 01015KT RWY18 01015KT",
      "taf": "TAF LTFM 252240Z 2600/2706 01015KT 9999 -SHRASN SCT012 BKN025"
    },
    {
      "icao": "LUKK",
      "alert": "OK",
      "vis_m": 9999,
      "fzfg": false,
      "metar_trigger": false,
      "taf_trigger": false,
      "metar": "METAR LUKK 260400Z 33009KT CAVOK M01/M03 Q1026 NOSIG",
      "taf": "TAF LUKK 252320Z 2600/2624 34010KT 9999 BKN020"
    },
    {
      "icao": "LWOH",
      "alert": "OK",
      "vis_m": null,
      "fzfg": false,
      "metar_trigger": false,
      "taf_trigger": false,
      "metar": "",
      "taf": "TAF LWOH 260210Z 2603/2703 VRB03KT CAVOK"
    },
    {
      "icao": "LWSK",
      "alert": "OK",
      "vis_m": 9999,
      "fzfg": false,
      "metar_trigger": false,
      "taf_trigger": false,
      "metar": "METAR LWSK 260420Z VRB02KT CAVOK 01/M02 Q1026 NOSIG",
      "taf": "TAF LWSK 260210Z 2603/2703 VRB02KT CAVOK"
    },
    {
      "icao": "LYBE",
      "alert": "OK",
      "vis_m": 9999,
      "fzfg": false,
      "metar_trigger": false,
      "taf_trigger": false,
      "metar": "METAR LYBE 260400Z 35005KT CAVOK 01/M00 Q1027 NOSIG",
      "taf": "TAF LYBE 252300Z 2600/2624 30005KT 9999 SCT040 TX12/2613Z TNM00/2605Z"
    },
    {
      "icao": "LYNI",
      "alert": "OK",
      "vis_m": 9999,
      "fzfg": false,
      "metar_trigger": false,
      "taf_trigger": false,
      "metar": "METAR LYNI 260400Z 34007KT 9999 SCT050 04/03 Q1026 NOSIG",
      "taf": "TAF LYNI 252300Z 2600/2624 34005KT 9999 BKN040 TX11/2613Z TNM00/2605Z"
    },
    {
      "icao": "LYPG",
      "alert": "OK",
      "vis_m": 9999,
      "fzfg": false,
      "metar_trigger": false,
      "taf_trigger": false,
      "metar": "METAR LYPG 260400Z 32007KT CAVOK 09/M02 Q1025 NOSIG",
      "taf": "TAF LYPG 252300Z 2600/2624 34005KT CAVOK TX19/2613Z TN06/2605Z"
    },
    {
      "icao": "LZIB",
      "alert": "OK",
      "vis_m": 9999,
      "fzfg": false,
      "metar_trigger": false,
      "taf_trigger": false,
      "metar": "METAR LZIB 260400Z 08004KT CAVOK M00/M01 Q1028 NOSIG",
      "taf": "TAF LZIB 252315Z 2600/2700 05006KT 9999 FEW035"
    },
    {
      "icao": "LZKZ",
      "alert": "OK",
      "vis_m": 9999,
      "fzfg": false,
      "metar_trigger": false,
      "taf_trigger": false,
      "metar": "METAR LZKZ 260400Z 36007KT CAVOK M00/M05 Q1029 NOSIG",
      "taf": "TAF LZKZ 252315Z 2600/2700 02007KT CAVOK"
    },
    {
      "icao": "LZTT",
      "alert": "OK",
      "vis_m": 9999,
      "fzfg": false,
      "metar_trigger": false,
      "taf_trigger": false,
      "metar": "METAR LZTT 260400Z 26005KT 9999 FEW010 SCT030 M05/M06 Q1026",
      "taf": "TAF LZTT 252315Z 2600/2700 VRB02KT 9999 BKN035"
    },
    {
      "icao": "OEJN",
      "alert": "OK",
      "vis_m": 9999,
      "fzfg": false,
      "metar_trigger": false,
      "taf_trigger": false,
      "metar": "METAR OEJN 260400Z 35002KT 9999 FEW040 23/14 Q1012 NOSIG",
      "taf": "TAF OEJN 252300Z 2600/2706 VRB03KT CAVOK"
    },
    {
      "icao": "OEMA",
      "alert": "OK",
      "vis_m": 9999,
      "fzfg": false,
      "metar_trigger": false,
      "taf_trigger": false,
      "metar": "METAR OEMA 260400Z 01005KT CAVOK 16/M04 Q1018 NOSIG",
      "taf": "TAF OEMA 252300Z 2600/2706 VRB03KT 7000 NSC"
    },
    {
      "icao": "OJAI",
      "alert": "OK",
      "vis_m": 4000,
      "fzfg": false,
      "metar_trigger": false,
      "taf_trigger": false,
      "metar": "METAR OJAI 260400Z 20005KT 4000 MIFG NSC 05/03 Q1017 NOSIG",
      "taf": "TAF OJAI 252300Z 2600/2706 28012KT 5000 HZ SCT030"
    },
    {
      "icao": "OMAA",
      "alert": "OK",
      "vis_m": 9999,
      "fzfg": false,
      "metar_trigger": false,
      "taf_trigger": false,
      "metar": "METAR OMAA 260430Z 30008KT CAVOK 23/17 Q1015 NOSIG",
      "taf": "TAF OMAA 252300Z 2600/2706 VRB02KT 7000 FEW015"
    },
    {
      "icao": "OMDB",
      "alert": "OK",
      "vis_m": 2500,
      "fzfg": false,
      "metar_trigger": false,
      "taf_trigger": false,
      "metar": "METAR OMDB 260430Z 20006KT 2500 HZ SCT020 21/18 Q1014 BECMG 5000",
      "taf": "TAF OMDB 252300Z 2600/2706 18005KT 4000 HZ SCT018"
    },
    {
      "icao": "UAAA",
      "alert": "OK",
      "vis_m": 4700,
      "fzfg": false,
      "metar_trigger": false,
      "taf_trigger": false,
      "metar": "METAR UAAA 260400Z 24005MPS 4700 BR OVC007 M04/M05 Q1011 NOSIG",
      "taf": "TAF UAAA 252301Z 2600/2624 21003G08MPS 3100 BR BKN011CB OVC020 TX01/2608Z TNM07/2602Z"
    },
    {
      "icao": "UBBB",
      "alert": "OK",
      "vis_m": 9999,
      "fzfg": false,
      "metar_trigger": false,
      "taf_trigger": false,
      "metar": "METAR UBBB 260400Z 00000KT 9999 BKN019 07/06 Q1018 NOSIG",
      "taf": "TAF UBBB 252300Z 2600/2624 VRB04KT 9999 BKN012 OVC020 TX11/2610Z TN04/2601Z"
    },
    {
      "icao": "UDSG",
      "alert": "OK",
      "vis_m": 9000,
      "fzfg": false,
      "metar_trigger": false,
      "taf_trigger": false,
      "metar": "METAR UDSG 260400Z 27003KT 160V310 9000 BKN040 M01/M01 Q1012 NOSIG",
      "taf": "TAF UDSG 252258Z 2600/2624 VRB04KT 3000 BR BKN030"
    },
    {
      "icao": "UDYZ",
      "alert": "OK",
      "vis_m": 9999,
      "fzfg": false,
      "metar_trigger": false,
      "taf_trigger": false,
      "metar": "METAR UDYZ 260400Z 10011KT 9999 FEW046 07/M04 Q1012 NOSIG",
      "taf": "TAF UDYZ 252300Z 2600/2624 20006KT 9999 SCT040"
    },
    {
      "icao": "UGKO",
      "alert": "OK",
      "vis_m": 9999,
      "fzfg": false,
      "metar_trigger": false,
      "taf_trigger": false,
      "metar": "METAR UGKO 260400Z 28005KT 9999 -RA BKN010 OVC023 07/06 Q1013 NOSIG",
      "taf": "TAF UGKO 252300Z 2600/2624 27007KT 9999 SCT023 OVC050 TX07/2600Z TN03/2624Z"
    }
  ]
}