{
  "ts_utc": "2026-05-14T04:58:38Z",
  "threshold_m": 150,
  "source": "stations_override.txt (ICAO list) + aviationweather.gov (METAR/TAF raw)",
  "station_count": 159,
  "stations": [
    {
      "icao": "BIKF",
      "alert": "OK",
      "vis_m": 9999,
      "fzfg": false,
      "metar_trigger": false,
      "taf_trigger": false,
      "metar": "METAR BIKF 140430Z 15004KT 9999 BKN043 05/04 Q1013",
      "taf": "TAF BIKF 140437Z 1406/1506 16005KT 9999 FEW012 BKN018 OVC025 TX09/1413Z TN05/1406Z"
    },
    {
      "icao": "BKPR",
      "alert": "OK",
      "vis_m": null,
      "fzfg": false,
      "metar_trigger": false,
      "taf_trigger": false,
      "metar": "",
      "taf": "TAF BKPR 132330Z 1400/1424 VRB03KT 9999 BKN050"
    },
    {
      "icao": "EBCI",
      "alert": "OK",
      "vis_m": 9999,
      "fzfg": false,
      "metar_trigger": false,
      "taf_trigger": false,
      "metar": "METAR EBCI 140450Z 23011KT 9999 FEW008 SCT012 BKN037 06/04 Q0999 TEMPO BKN008",
      "taf": "TAF EBCI 132307Z 1400/1506 24010KT 9999 SCT025"
    },
    {
      "icao": "EDDB",
      "alert": "OK",
      "vis_m": 9999,
      "fzfg": false,
      "metar_trigger": false,
      "taf_trigger": false,
      "metar": "METAR EDDB 140450Z AUTO 20009KT 9999 -SHRA FEW036 SCT047 FEW///TCU 08/06 Q0996 TEMPO SHRA SCT008 BKN012",
      "taf": ""
    },
    {
      "icao": "EDDH",
      "alert": "OK",
      "vis_m": 9999,
      "fzfg": false,
      "metar_trigger": false,
      "taf_trigger": false,
      "metar": "METAR EDDH 140450Z AUTO 33002KT 9999 SCT033 BKN042 05/04 Q0995 NOSIG",
      "taf": "TAF EDDH 132300Z 1400/1506 VRB03KT 9999 BKN030"
    },
    {
      "icao": "EDDK",
      "alert": "OK",
      "vis_m": 9999,
      "fzfg": false,
      "metar_trigger": false,
      "taf_trigger": false,
      "metar": "METAR EDDK 140450Z AUTO 23008KT 9999 FEW021 BKN026 BKN035 07/04 Q0998 NOSIG",
      "taf": "TAF EDDK 132300Z 1400/1506 22007KT 9999 SCT025"
    },
    {
      "icao": "EDDN",
      "alert": "OK",
      "vis_m": 9999,
      "fzfg": false,
      "metar_trigger": false,
      "taf_trigger": false,
      "metar": "METAR EDDN 140450Z AUTO 20007KT 170V230 9999 SCT017 BKN023 BKN032 07/04 Q1001 NOSIG",
      "taf": "TAF EDDN 132300Z 1400/1424 21009KT 9999 SCT020 BKN040"
    },
    {
      "icao": "EDDS",
      "alert": "OK",
      "vis_m": 9999,
      "fzfg": false,
      "metar_trigger": false,
      "taf_trigger": false,
      "metar": "METAR EDDS 140450Z AUTO VRB04KT 9999 FEW036 07/05 Q1002 NOSIG",
      "taf": "TAF EDDS 132300Z 1400/1424 21007KT 9999 SCT030"
    },
    {
      "icao": "EDFH",
      "alert": "OK",
      "vis_m": 9999,
      "fzfg": false,
      "metar_trigger": false,
      "taf_trigger": false,
      "metar": "METAR EDFH 140450Z 25011KT 220V280 9999 SCT007 OVC040 05/04 Q0999",
      "taf": "TAF EDFH 132300Z 1400/1424 23010KT 9999 BKN007"
    },
    {
      "icao": "EDJA",
      "alert": "OK",
      "vis_m": 9999,
      "fzfg": false,
      "metar_trigger": false,
      "taf_trigger": false,
      "metar": "METAR EDJA 140450Z 23014KT 9999 SCT045 BKN052 OVC060 06/04 Q1003",
      "taf": "TAF EDJA 140200Z 1403/1412 23015G25KT 9999 SCT020 BKN040"
    },
    {
      "icao": "EDLW",
      "alert": "OK",
      "vis_m": 9999,
      "fzfg": false,
      "metar_trigger": false,
      "taf_trigger": false,
      "metar": "METAR EDLW 140450Z COR 22010KT 9999 SCT010 OVC013 07/05 Q0996",
      "taf": "TAF EDLW 140350Z 1404/1424 23010KT 9999 BKN025"
    },
    {
      "icao": "EDNY",
      "alert": "OK",
      "vis_m": 9999,
      "fzfg": false,
      "metar_trigger": false,
      "taf_trigger": false,
      "metar": "METAR EDNY 140450Z 25003KT 220V290 9999 -RA FEW014 BKN017 OVC021 08/06 Q1004",
      "taf": "TAF EDNY 140200Z 1403/1412 24010KT 9999 BKN030"
    },
    {
      "icao": "EDSB",
      "alert": "OK",
      "vis_m": 9999,
      "fzfg": false,
      "metar_trigger": false,
      "taf_trigger": false,
      "metar": "METAR EDSB 140450Z 21008KT 9999 FEW038 08/06 Q1002",
      "taf": "TAF EDSB 132300Z 1400/1424 21010KT 9999 SCT040"
    },
    {
      "icao": "EETN",
      "alert": "OK",
      "vis_m": 9999,
      "fzfg": false,
      "metar_trigger": false,
      "taf_trigger": false,
      "metar": "METAR EETN 140450Z 20008KT 9999 FEW010 OVC023 07/05 Q0999 NOSIG",
      "taf": "TAF EETN 132330Z 1400/1424 20010KT 9999 BKN007 OVC030"
    },
    {
      "icao": "EFTU",
      "alert": "OK",
      "vis_m": 9999,
      "fzfg": false,
      "metar_trigger": false,
      "taf_trigger": false,
      "metar": "METAR EFTU 140450Z AUTO 19009KT 160V220 9999 -DZ OVC003 07/06 Q0995",
      "taf": ""
    },
    {
      "icao": "EGBB",
      "alert": "OK",
      "vis_m": 9999,
      "fzfg": false,
      "metar_trigger": false,
      "taf_trigger": false,
      "metar": "METAR EGBB 140450Z 32006KT 9999 FEW014 SCT027 06/05 Q1002",
      "taf": "TAF EGBB 132300Z 1400/1424 29010KT 9999 FEW030"
    },
    {
      "icao": "EGGP",
      "alert": "OK",
      "vis_m": 9999,
      "fzfg": false,
      "metar_trigger": false,
      "taf_trigger": false,
      "metar": "METAR EGGP 140450Z 36006KT 320V020 9999 FEW031TCU SCT044 06/03 Q1003",
      "taf": "TAF EGGP 132256Z 1400/1424 33009KT 9999 FEW040"
    },
    {
      "icao": "EGGW",
      "alert": "OK",
      "vis_m": 9999,
      "fzfg": false,
      "metar_trigger": false,
      "taf_trigger": false,
      "metar": "METAR EGGW 140450Z AUTO 33010KT 9999 FEW012 05/04 Q1001",
      "taf": "TAF EGGW 132259Z 1400/1424 32008KT 9999 FEW035"
    },
    {
      "icao": "EGKK",
      "alert": "OK",
      "vis_m": 9999,
      "fzfg": false,
      "metar_trigger": false,
      "taf_trigger": false,
      "metar": "METAR EGKK 140450Z 30008KT 9999 FEW018 BKN035 07/05 Q1001",
      "taf": "TAF EGKK 132258Z 1400/1506 27008KT 9999 FEW035"
    },
    {
      "icao": "EGNM",
      "alert": "OK",
      "vis_m": 9999,
      "fzfg": false,
      "metar_trigger": false,
      "taf_trigger": false,
      "metar": "METAR EGNM 140450Z 32010KT 9999 FEW042 03/02 Q1002",
      "taf": "TAF EGNM 132257Z 1400/1424 35005KT 9999 FEW030"
    },
    {
      "icao": "EGPD",
      "alert": "OK",
      "vis_m": 9999,
      "fzfg": false,
      "metar_trigger": false,
      "taf_trigger": false,
      "metar": "METAR EGPD 140450Z AUTO 31009KT 9999 -RA SCT015 SCT023 BKN030 06/04 Q1001 TEMPO SHRA",
      "taf": "TAF EGPD 132258Z 1400/1424 30008KT 9999 SCT020"
    },
    {
      "icao": "EGPF",
      "alert": "OK",
      "vis_m": 9999,
      "fzfg": false,
      "metar_trigger": false,
      "taf_trigger": false,
      "metar": "METAR EGPF 140450Z AUTO 28006KT 9999 NCD 06/04 Q1004",
      "taf": "TAF EGPF 132234Z 1400/1424 33009KT 9999 SCT025"
    },
    {
      "icao": "EHBK",
      "alert": "OK",
      "vis_m": 9999,
      "fzfg": false,
      "metar_trigger": false,
      "taf_trigger": false,
      "metar": "METAR EHBK 140455Z AUTO 23009KT 200V270 9999 FEW009/// SCT013/// OVC015/// 07/05 Q0998 TEMPO BKN010",
      "taf": "TAF EHBK 132315Z 1400/1506 23010KT 9999 SCT020 BKN030"
    },
    {
      "icao": "EHEH",
      "alert": "OK",
      "vis_m": 9999,
      "fzfg": false,
      "metar_trigger": false,
      "taf_trigger": false,
      "metar": "METAR EHEH 140425Z AUTO 23005KT 200V270 9999 FEW006 SCT008 FEW015CB BKN016 06/06 Q0997 BLU",
      "taf": "TAF EHEH 132327Z 1400/1506 24007KT 9999 FEW020 SCT030"
    },
    {
      "icao": "EKBI",
      "alert": "OK",
      "vis_m": 9999,
      "fzfg": false,
      "metar_trigger": false,
      "taf_trigger": false,
      "metar": "METAR EKBI 140450Z AUTO 23003KT 9999 BKN036/// 05/05 Q0993",
      "taf": "TAF EKBI 140227Z 1403/1503 25012KT 9999 BKN020"
    },
    {
      "icao": "EKCH",
      "alert": "OK",
      "vis_m": 9999,
      "fzfg": false,
      "metar_trigger": false,
      "taf_trigger": false,
      "metar": "METAR EKCH 140450Z AUTO 23006KT 9999 NCD 08/06 Q0993 NOSIG",
      "taf": "TAF EKCH 140227Z 1403/1503 23010KT 9999 BKN025"
    },
    {
      "icao": "ENAL",
      "alert": "OK",
      "vis_m": 9999,
      "fzfg": false,
      "metar_trigger": false,
      "taf_trigger": false,
      "metar": "METAR ENAL 140450Z 03016KT 9999 FEW017 SCT020 BKN024 08/04 Q0996",
      "taf": "TAF ENAL 140200Z 1403/1412 04015KT 9999 FEW014 BKN025"
    },
    {
      "icao": "ENBR",
      "alert": "OK",
      "vis_m": 9999,
      "fzfg": false,
      "metar_trigger": false,
      "taf_trigger": false,
      "metar": "METAR ENBR 140450Z 32006KT CAVOK 06/05 Q0991 BECMG 35012KT RMK WIND 1200FT 35013KT",
      "taf": "TAF ENBR 132300Z 1400/1424 32006KT 9999 FEW030"
    },
    {
      "icao": "ENGM",
      "alert": "OK",
      "vis_m": 9999,
      "fzfg": false,
      "metar_trigger": false,
      "taf_trigger": false,
      "metar": "METAR ENGM 140450Z 02006KT 9999 -RA BKN008 03/02 Q0986 TEMPO BKN010",
      "taf": "TAF ENGM 132300Z 1400/1424 02010KT 9999 -RA BKN015"
    },
    {
      "icao": "ENHD",
      "alert": "OK",
      "vis_m": 9999,
      "fzfg": false,
      "metar_trigger": false,
      "taf_trigger": false,
      "metar": "METAR ENHD 140450Z 32011KT 9999 BKN007 08/06 Q0991",
      "taf": "TAF ENHD 140200Z 1403/1412 34012KT 9999 BKN007"
    },
    {
      "icao": "ENTC",
      "alert": "OK",
      "vis_m": 9999,
      "fzfg": false,
      "metar_trigger": false,
      "taf_trigger": false,
      "metar": "METAR ENTC 140450Z 05010KT CAVOK 07/02 Q1009 RMK WIND 2600FT 10013KT",
      "taf": "TAF ENTC 132300Z 1400/1424 03008KT CAVOK"
    },
    {
      "icao": "ENTO",
      "alert": "OK",
      "vis_m": 9000,
      "fzfg": false,
      "metar_trigger": false,
      "taf_trigger": false,
      "metar": "METAR ENTO 140450Z 34008KT 9000 RA BKN010 04/04 Q0987 TEMPO BKN008",
      "taf": "TAF ENTO 132300Z 1400/1424 35008KT 9999 -RA BKN015"
    },
    {
      "icao": "ENVA",
      "alert": "OK",
      "vis_m": 9999,
      "fzfg": false,
      "metar_trigger": false,
      "taf_trigger": false,
      "metar": "METAR ENVA 140450Z 27003KT 9999 -RA FEW002 SCT018 BKN035 07/05 Q0993 TEMPO RA BKN014 RMK WIND 670FT VRB03KT",
      "taf": "TAF ENVA 132300Z 1400/1424 03008KT 9999 -RA FEW020 BKN030"
    },
    {
      "icao": "ENZV",
      "alert": "OK",
      "vis_m": 9999,
      "fzfg": false,
      "metar_trigger": false,
      "taf_trigger": false,
      "metar": "METAR ENZV 140450Z 32009KT 9999 BKN010 OVC012 08/06 Q0992 TEMPO BKN008",
      "taf": "TAF ENZV 132300Z 1400/1424 32010KT 9999 FEW008 SCT030"
    },
    {
      "icao": "EPGD",
      "alert": "OK",
      "vis_m": 9999,
      "fzfg": false,
      "metar_trigger": false,
      "taf_trigger": false,
      "metar": "METAR EPGD 140430Z VRB01KT CAVOK 06/04 Q0998",
      "taf": "TAF EPGD 132330Z 1400/1424 22008KT CAVOK"
    },
    {
      "icao": "EPKK",
      "alert": "OK",
      "vis_m": 9999,
      "fzfg": false,
      "metar_trigger": false,
      "taf_trigger": false,
      "metar": "METAR EPKK 140430Z VRB01KT CAVOK 06/04 Q1003",
      "taf": "TAF EPKK 140230Z 1403/1503 VRB02KT CAVOK"
    },
    {
      "icao": "EPKT",
      "alert": "OK",
      "vis_m": 9999,
      "fzfg": false,
      "metar_trigger": false,
      "taf_trigger": false,
      "metar": "METAR EPKT 140430Z 17008KT CAVOK 08/03 Q1002",
      "taf": "TAF EPKT 132330Z 1400/1424 VRB02KT CAVOK"
    },
    {
      "icao": "EPLB",
      "alert": "OK",
      "vis_m": 9999,
      "fzfg": false,
      "metar_trigger": false,
      "taf_trigger": false,
      "metar": "METAR EPLB 140430Z 09002KT CAVOK 08/03 Q1005",
      "taf": "TAF EPLB 132330Z 1400/1424 VRB02KT CAVOK"
    },
    {
      "icao": "EPMO",
      "alert": "OK",
      "vis_m": 9999,
      "fzfg": false,
      "metar_trigger": false,
      "taf_trigger": false,
      "metar": "METAR EPMO 140430Z 15007KT 110V180 CAVOK 08/05 Q1002",
      "taf": "TAF EPMO 132330Z 1400/1424 19005KT CAVOK"
    },
    {
      "icao": "EPPO",
      "alert": "OK",
      "vis_m": 9999,
      "fzfg": false,
      "metar_trigger": false,
      "taf_trigger": false,
      "metar": "METAR EPPO 140430Z 17006KT CAVOK 08/05 Q0998",
      "taf": "TAF EPPO 132330Z 1400/1424 18006KT CAVOK"
    },
    {
      "icao": "EPRA",
      "alert": "OK",
      "vis_m": 9999,
      "fzfg": false,
      "metar_trigger": false,
      "taf_trigger": false,
      "metar": "METAR EPRA 140430Z 15007KT CAVOK 07/03 Q1003",
      "taf": "TAF EPRA 140230Z 1403/1412 16008KT CAVOK"
    },
    {
      "icao": "EPRZ",
      "alert": "OK",
      "vis_m": 9999,
      "fzfg": false,
      "metar_trigger": false,
      "taf_trigger": false,
      "metar": "METAR EPRZ 140430Z VRB01KT CAVOK 07/03 Q1005",
      "taf": "TAF EPRZ 132330Z 1400/1424 VRB02KT CAVOK"
    },
    {
      "icao": "EPSC",
      "alert": "OK",
      "vis_m": 9999,
      "fzfg": false,
      "metar_trigger": false,
      "taf_trigger": false,
      "metar": "METAR EPSC 140430Z 15004KT 9999 FEW004 BKN009 06/06 Q0996",
      "taf": "TAF EPSC 132330Z 1400/1424 13006KT CAVOK"
    },
    {
      "icao": "EPSY",
      "alert": "OK",
      "vis_m": 9999,
      "fzfg": false,
      "metar_trigger": false,
      "taf_trigger": false,
      "metar": "METAR EPSY 140430Z 19006KT CAVOK 06/05 Q1001",
      "taf": "TAF EPSY 140230Z 1403/1412 17008KT CAVOK"
    },
    {
      "icao": "EPWA",
      "alert": "OK",
      "vis_m": 9999,
      "fzfg": false,
      "metar_trigger": false,
      "taf_trigger": false,
      "metar": "METAR EPWA 140430Z 16006KT CAVOK 08/04 Q1002 NOSIG",
      "taf": "TAF EPWA 140230Z 1403/1503 17006KT CAVOK"
    },
    {
      "icao": "EPWR",
      "alert": "OK",
      "vis_m": 9999,
      "fzfg": false,
      "metar_trigger": false,
      "taf_trigger": false,
      "metar": "METAR EPWR 140430Z 16008KT CAVOK 10/04 Q1000",
      "taf": "TAF EPWR 140230Z 1403/1503 16006KT CAVOK"
    },
    {
      "icao": "ESGG",
      "alert": "OK",
      "vis_m": 9999,
      "fzfg": false,
      "metar_trigger": false,
      "taf_trigger": false,
      "metar": "METAR ESGG 140450Z 22009KT 190V260 9999 -RA SCT006 BKN016 BKN030 05/05 Q0988",
      "taf": "TAF ESGG 140230Z 1403/1503 22010KT 9999 SCT010 BKN030"
    },
    {
      "icao": "ESKN",
      "alert": "OK",
      "vis_m": 9999,
      "fzfg": false,
      "metar_trigger": false,
      "taf_trigger": false,
      "metar": "METAR ESKN 140450Z 17012KT 150V210 9999 SCT012 BKN017 06/04 Q0991",
      "taf": "TAF ESKN 140230Z 1403/1503 18008KT 9999 SCT008 BKN025"
    },
    {
      "icao": "ESMS",
      "alert": "OK",
      "vis_m": 9999,
      "fzfg": false,
      "metar_trigger": false,
      "taf_trigger": false,
      "metar": "METAR ESMS 140450Z 20007KT 9999 SCT016 06/06 Q0993",
      "taf": "TAF ESMS 140227Z 1403/1503 20006KT 9999 FEW012 BKN025"
    },
    {
      "icao": "ESSA",
      "alert": "OK",
      "vis_m": 9999,
      "fzfg": false,
      "metar_trigger": false,
      "taf_trigger": false,
      "metar": "METAR ESSA 140450Z 16009KT 9999 FEW010 BKN017 06/04 Q0991 TEMPO BKN010",
      "taf": "TAF ESSA 140230Z 1403/1503 18014KT 9999 BKN015"
    },
    {
      "icao": "EYKA",
      "alert": "OK",
      "vis_m": 9999,
      "fzfg": false,
      "metar_trigger": false,
      "taf_trigger": false,
      "metar": "METAR EYKA 140450Z 18004KT 150V230 9999 BKN042 08/05 Q1002",
      "taf": "TAF EYKA 132300Z 1400/1424 VRB03KT 9000 NSC"
    },
    {
      "icao": "EYPA",
      "alert": "OK",
      "vis_m": 9999,
      "fzfg": false,
      "metar_trigger": false,
      "taf_trigger": false,
      "metar": "METAR EYPA 140450Z 17008KT CAVOK 08/06 Q0999",
      "taf": "TAF EYPA 132300Z 1400/1424 17006KT 9000 BKN035"
    },
    {
      "icao": "EYVI",
      "alert": "OK",
      "vis_m": 9999,
      "fzfg": false,
      "metar_trigger": false,
      "taf_trigger": false,
      "metar": "METAR EYVI 140450Z 16006KT CAVOK 07/04 Q1003 NOSIG",
      "taf": "TAF EYVI 132300Z 1400/1424 18007KT 9000 NSC"
    },
    {
      "icao": "GCFV",
      "alert": "OK",
      "vis_m": 9999,
      "fzfg": false,
      "metar_trigger": false,
      "taf_trigger": false,
      "metar": "METAR GCFV 140430Z AUTO 35011KT 9999 SCT028 BKN036 18/13 Q1017",
      "taf": "TAF GCFV 140200Z 1403/1503 36012KT 9999 FEW030 TX24/1414Z TN18/1406Z"
    },
    {
      "icao": "GCLP",
      "alert": "OK",
      "vis_m": 9999,
      "fzfg": false,
      "metar_trigger": false,
      "taf_trigger": false,
      "metar": "METAR GCLP 140430Z 34010KT 9999 FEW030 18/13 Q1018 NOSIG",
      "taf": "TAF GCLP 140200Z 1403/1503 36015KT 9999 SCT030 TX23/1414Z TN17/1406Z"
    },
    {
      "icao": "GCTS",
      "alert": "OK",
      "vis_m": 9999,
      "fzfg": false,
      "metar_trigger": false,
      "taf_trigger": false,
      "metar": "METAR GCTS 140430Z 01004KT 350V090 9999 FEW040 17/11 Q1018 NOSIG",
      "taf": "TAF GCTS 140200Z 1403/1503 36005KT 9999 SCT040 TX23/1414Z TN16/1406Z"
    },
    {
      "icao": "GMAD",
      "alert": "OK",
      "vis_m": 9999,
      "fzfg": false,
      "metar_trigger": false,
      "taf_trigger": false,
      "metar": "METAR GMAD 140430Z 33003KT 250V040 CAVOK 17/14 Q1013 NOSIG",
      "taf": "TAF GMAD 132300Z 1400/1506 12006KT 8000 SCT020"
    },
    {
      "icao": "GMMN",
      "alert": "OK",
      "vis_m": 9999,
      "fzfg": false,
      "metar_trigger": false,
      "taf_trigger": false,
      "metar": "METAR GMMN 140430Z 06005KT 9999 SCT020 13/11 Q1015 NOSIG",
      "taf": "TAF GMMN 132300Z 1400/1506 06008KT 9999 SCT020"
    },
    {
      "icao": "GMMX",
      "alert": "OK",
      "vis_m": 9999,
      "fzfg": false,
      "metar_trigger": false,
      "taf_trigger": false,
      "metar": "METAR GMMX 140430Z 25009KT 210V290 CAVOK 14/10 Q1015 NOSIG",
      "taf": "TAF GMMX 132300Z 1400/1506 26006KT CAVOK"
    },
    {
      "icao": "HEGN",
      "alert": "OK",
      "vis_m": 9999,
      "fzfg": false,
      "metar_trigger": false,
      "taf_trigger": false,
      "metar": "METAR HEGN 140400Z 36005KT CAVOK 26/M01 Q1010 NOSIG",
      "taf": ""
    },
    {
      "icao": "HEMA",
      "alert": "OK",
      "vis_m": 9999,
      "fzfg": false,
      "metar_trigger": false,
      "taf_trigger": false,
      "metar": "METAR HEMA 140400Z 31014KT CAVOK 28/M01 Q1008 NOSIG",
      "taf": ""
    },
    {
      "icao": "HESH",
      "alert": "OK",
      "vis_m": 9999,
      "fzfg": false,
      "metar_trigger": false,
      "taf_trigger": false,
      "metar": "METAR HESH 140400Z 35010KT CAVOK 28/08 Q1008 NOSIG",
      "taf": ""
    },
    {
      "icao": "HESX",
      "alert": "OK",
      "vis_m": 9999,
      "fzfg": false,
      "metar_trigger": false,
      "taf_trigger": false,
      "metar": "METAR HESX 140400Z 18004KT CAVOK 22/12 Q1010 NOSIG",
      "taf": ""
    },
    {
      "icao": "LATI",
      "alert": "OK",
      "vis_m": 9999,
      "fzfg": false,
      "metar_trigger": false,
      "taf_trigger": false,
      "metar": "METAR LATI 140450Z 09002KT CAVOK 14/10 Q1007 NOSIG",
      "taf": "TAF LATI 132300Z 1400/1424 14008KT 9999 FEW040 BKN070 TX23/1412Z TN12/1404Z"
    },
    {
      "icao": "LBPD",
      "alert": "OK",
      "vis_m": 9999,
      "fzfg": false,
      "metar_trigger": false,
      "taf_trigger": false,
      "metar": "METAR LBPD 140430Z AUTO 00000KT 9999 NCD 10/06 Q1007 NOSIG",
      "taf": "TAF LBPD 132300Z 1400/1424 VRB04KT 9999 SCT070"
    },
    {
      "icao": "LBSF",
      "alert": "OK",
      "vis_m": 9999,
      "fzfg": false,
      "metar_trigger": false,
      "taf_trigger": false,
      "metar": "METAR LBSF 140430Z 29002KT CAVOK 04/02 Q1008 NOSIG",
      "taf": "TAF LBSF 132300Z 1400/1424 VRB04KT 9999 SCT070"
    },
    {
      "icao": "LBWN",
      "alert": "OK",
      "vis_m": 9999,
      "fzfg": false,
      "metar_trigger": false,
      "taf_trigger": false,
      "metar": "METAR LBWN 140430Z AUTO 26005KT 230V290 9999 NSC 09/05 Q1006 NOSIG",
      "taf": "TAF LBWN 132300Z 1400/1424 30008KT 9999 SCT040"
    },
    {
      "icao": "LCLK",
      "alert": "OK",
      "vis_m": 9999,
      "fzfg": false,
      "metar_trigger": false,
      "taf_trigger": false,
      "metar": "METAR LCLK 140430Z 00000KT 9999 FEW030 20/17 Q1007 NOSIG",
      "taf": "TAF LCLK 132330Z 1400/1500 24009KT CAVOK"
    },
    {
      "icao": "LCPH",
      "alert": "OK",
      "vis_m": 9999,
      "fzfg": false,
      "metar_trigger": false,
      "taf_trigger": false,
      "metar": "METAR LCPH 140430Z 00000KT CAVOK 21/12 Q1007 NOSIG",
      "taf": "TAF LCPH 132330Z 1400/1500 13005KT 9999 SCT012"
    },
    {
      "icao": "LEAL",
      "alert": "OK",
      "vis_m": 9999,
      "fzfg": false,
      "metar_trigger": false,
      "taf_trigger": false,
      "metar": "METAR LEAL 140430Z 27006KT 9999 FEW012 SCT065 17/09 Q1012 NOSIG",
      "taf": "TAF LEAL 132300Z 1400/1424 VRB03KT 9999 FEW020 TX27/1412Z TN16/1406Z"
    },
    {
      "icao": "LEBB",
      "alert": "OK",
      "vis_m": 9999,
      "fzfg": false,
      "metar_trigger": false,
      "taf_trigger": false,
      "metar": "METAR LEBB 140430Z 27007KT 230V300 9999 BKN036 OVC055 14/08 Q1014 NOSIG",
      "taf": "TAF LEBB 132300Z 1400/1424 28007KT 9999 FEW025 BKN035 TX16/1413Z TN11/1409Z"
    },
    {
      "icao": "LEBL",
      "alert": "OK",
      "vis_m": 9999,
      "fzfg": false,
      "metar_trigger": false,
      "taf_trigger": false,
      "metar": "METAR LEBL 140430Z 33008KT 9999 FEW015 SCT060 14/09 Q1010 NOSIG",
      "taf": "TAF LEBL 132300Z 1400/1424 VRB04KT 9999 FEW020 TX24/1412Z TN13/1405Z"
    },
    {
      "icao": "LECH",
      "alert": "OK",
      "vis_m": 9999,
      "fzfg": false,
      "metar_trigger": false,
      "taf_trigger": false,
      "metar": "METAR LECH 140430Z AUTO 26005KT 190V350 CAVOK 13/05 Q1012",
      "taf": "TAF LECH 132300Z 1400/1424 32008KT CAVOK TX21/1414Z TN10/1406Z"
    },
    {
      "icao": "LEMD",
      "alert": "OK",
      "vis_m": 9999,
      "fzfg": false,
      "metar_trigger": false,
      "taf_trigger": false,
      "metar": "METAR LEMD 140430Z 32002KT 9999 FEW060 09/08 Q1013 NOSIG",
      "taf": "TAF LEMD 132300Z 1400/1506 VRB04KT CAVOK TX22/1416Z TN07/1405Z"
    },
    {
      "icao": "LEMG",
      "alert": "OK",
      "vis_m": 9999,
      "fzfg": false,
      "metar_trigger": false,
      "taf_trigger": false,
      "metar": "METAR LEMG 140430Z 26014KT 230V290 CAVOK 17/08 Q1013 NOSIG",
      "taf": "TAF LEMG 132300Z 1400/1424 28010KT CAVOK TX28/1414Z TN15/1406Z"
    },
    {
      "icao": "LEVC",
      "alert": "OK",
      "vis_m": 9999,
      "fzfg": false,
      "metar_trigger": false,
      "taf_trigger": false,
      "metar": "METAR LEVC 140430Z 25003KT CAVOK 12/11 Q1012 NOSIG",
      "taf": "TAF LEVC 132300Z 1400/1424 VRB03KT CAVOK TX28/1412Z TN15/1406Z"
    },
    {
      "icao": "LEXJ",
      "alert": "OK",
      "vis_m": 9999,
      "fzfg": false,
      "metar_trigger": false,
      "taf_trigger": false,
      "metar": "METAR LEXJ 140430Z 30018KT 9999 FEW033 BKN046 14/07 Q1015",
      "taf": "TAF LEXJ 140200Z 1403/1503 28009KT 9999 FEW020 BKN035 TX16/1414Z TN11/1502Z"
    },
    {
      "icao": "LEZG",
      "alert": "OK",
      "vis_m": 9999,
      "fzfg": false,
      "metar_trigger": false,
      "taf_trigger": false,
      "metar": "METAR LEZG 140430Z 27009KT 9999 SCT040 BKN075 13/07 Q1013 NOSIG",
      "taf": "TAF LEZG 132300Z 1400/1424 30008KT 9999 FEW050 TX20/1418Z TN11/1405Z"
    },
    {
      "icao": "LEZL",
      "alert": "OK",
      "vis_m": 9999,
      "fzfg": false,
      "metar_trigger": false,
      "taf_trigger": false,
      "metar": "METAR LEZL 140430Z 15003KT 100V170 CAVOK 13/12 Q1014 NOSIG",
      "taf": "TAF LEZL 140200Z 1403/1503 VRB03KT CAVOK TX27/1415Z TN12/1406Z"
    },
    {
      "icao": "LFBD",
      "alert": "OK",
      "vis_m": 9999,
      "fzfg": false,
      "metar_trigger": false,
      "taf_trigger": false,
      "metar": "METAR LFBD 140430Z AUTO 23006KT 9999 FEW034 BKN045 OVC054 10/10 Q1009 TEMPO 3000 RA BKN010 FEW015CB BKN020TCU",
      "taf": "TAF LFBD 132300Z 1400/1506 27010KT 9999 BKN040 TX14/1412Z TN06/1506Z"
    },
    {
      "icao": "LFLL",
      "alert": "OK",
      "vis_m": 9999,
      "fzfg": false,
      "metar_trigger": false,
      "taf_trigger": false,
      "metar": "METAR LFLL 140430Z 12004KT 9999 -RA FEW043 BKN046 11/07 Q1006 NOSIG",
      "taf": "TAF LFLL 132300Z 1400/1506 21008KT CAVOK"
    },
    {
      "icao": "LFLS",
      "alert": "OK",
      "vis_m": 9999,
      "fzfg": false,
      "metar_trigger": false,
      "taf_trigger": false,
      "metar": "METAR LFLS 140430Z AUTO 20004KT 9999 FEW052 BKN080 BKN098 10/04 Q1007 TEMPO 4000 SHRA SCT015 SCT040TCU",
      "taf": "TAF LFLS 140200Z 1403/1503 VRB03KT 9999 SCT040 BKN060"
    },
    {
      "icao": "LFMN",
      "alert": "OK",
      "vis_m": 9999,
      "fzfg": false,
      "metar_trigger": false,
      "taf_trigger": false,
      "metar": "METAR LFMN 140430Z 32007KT CAVOK 16/05 Q1003 NOSIG",
      "taf": "TAF LFMN 140200Z 1403/1509 25010KT CAVOK"
    },
    {
      "icao": "LFOB",
      "alert": "OK",
      "vis_m": 9999,
      "fzfg": false,
      "metar_trigger": false,
      "taf_trigger": false,
      "metar": "METAR LFOB 140430Z AUTO 23006KT 9999 SCT040/// BKN047/// BKN074/// ///CB 07/06 Q1001 TEMPO 3000 SHRA",
      "taf": "TAF LFOB 132300Z 1400/1424 26010KT 9999 SCT020 BKN040"
    },
    {
      "icao": "LFPO",
      "alert": "OK",
      "vis_m": 9999,
      "fzfg": false,
      "metar_trigger": false,
      "taf_trigger": false,
      "metar": "METAR LFPO 140430Z AUTO 24006KT 9999 FEW041/// BKN054/// BKN072/// ///TCU 07/06 Q1002 TEMPO 33015G25KT 4500 -SHRA BKN030CB",
      "taf": "TAF LFPO 132300Z 1400/1506 25006KT CAVOK"
    },
    {
      "icao": "LFSB",
      "alert": "OK",
      "vis_m": 9999,
      "fzfg": false,
      "metar_trigger": false,
      "taf_trigger": false,
      "metar": "METAR LFSB 140430Z AUTO 23003KT 9999 SCT025/// SCT036/// BKN046/// ///TCU 08/06 Q1004 NOSIG",
      "taf": "TAF LFSB 132300Z 1400/1424 25009KT 9999 FEW020 BKN040"
    },
    {
      "icao": "LGAV",
      "alert": "OK",
      "vis_m": 9999,
      "fzfg": false,
      "metar_trigger": false,
      "taf_trigger": false,
      "metar": "METAR LGAV 140450Z VRB03KT 9999 SCT025 20/10 Q1004 NOSIG",
      "taf": "TAF LGAV 132300Z 1400/1424 26008KT 9999 FEW020"
    },
    {
      "icao": "LGTS",
      "alert": "OK",
      "vis_m": 9999,
      "fzfg": false,
      "metar_trigger": false,
      "taf_trigger": false,
      "metar": "METAR LGTS 140450Z 33007KT 9999 FEW020 SCT030 16/10 Q1005 NOSIG",
      "taf": "TAF LGTS 132300Z 1400/1424 33013KT 9999 FEW030"
    },
    {
      "icao": "LHBP",
      "alert": "OK",
      "vis_m": 9999,
      "fzfg": false,
      "metar_trigger": false,
      "taf_trigger": false,
      "metar": "METAR LHBP 140430Z VRB02KT CAVOK 06/02 Q1006 NOSIG",
      "taf": "TAF LHBP 132315Z 1400/1424 VRB03KT CAVOK"
    },
    {
      "icao": "LHDC",
      "alert": "OK",
      "vis_m": 9999,
      "fzfg": false,
      "metar_trigger": false,
      "taf_trigger": false,
      "metar": "METAR LHDC 140415Z AUTO 17004KT 140V200 CAVOK 07/05 Q1007 NOSIG",
      "taf": "TAF LHDC 140215Z 1403/1412 VRB03KT CAVOK"
    },
    {
      "icao": "LIBD",
      "alert": "OK",
      "vis_m": 9999,
      "fzfg": false,
      "metar_trigger": false,
      "taf_trigger": false,
      "metar": "METAR LIBD 140450Z 26005KT CAVOK 13/11 Q1007",
      "taf": "TAF LIBD 132300Z 1400/1424 25006KT 9999 SCT020"
    },
    {
      "icao": "LIBG",
      "alert": "OK",
      "vis_m": null,
      "fzfg": false,
      "metar_trigger": false,
      "taf_trigger": false,
      "metar": "",
      "taf": ""
    },
    {
      "icao": "LIBP",
      "alert": "OK",
      "vis_m": 9999,
      "fzfg": false,
      "metar_trigger": false,
      "taf_trigger": false,
      "metar": "METAR LIBP 140450Z AUTO VRB02KT 9999 NCD 10/09 Q1006",
      "taf": "TAF LIBP 132300Z 1400/1424 VRB05KT 9999 SCT070"
    },
    {
      "icao": "LIBR",
      "alert": "OK",
      "vis_m": 9999,
      "fzfg": false,
      "metar_trigger": false,
      "taf_trigger": false,
      "metar": "METAR LIBR 140450Z 28005KT CAVOK 15/13 Q1007",
      "taf": "TAF LIBR 132300Z 1400/1424 VRB06KT 9999 SCT040"
    },
    {
      "icao": "LICA",
      "alert": "OK",
      "vis_m": 8000,
      "fzfg": false,
      "metar_trigger": false,
      "taf_trigger": false,
      "metar": "METAR LICA 140450Z AUTO 24008KT 8000 RA BKN038/// OVC059/// 16/15 Q1008",
      "taf": "TAF LICA 132300Z 1400/1424 27013KT 9999 SCT013"
    },
    {
      "icao": "LICC",
      "alert": "OK",
      "vis_m": 9999,
      "fzfg": false,
      "metar_trigger": false,
      "taf_trigger": false,
      "metar": "METAR LICC 140450Z 26013KT CAVOK 16/10 Q1009",
      "taf": "TAF LICC 132300Z 1400/1424 26012KT CAVOK"
    },
    {
      "icao": "LICJ",
      "alert": "OK",
      "vis_m": 9999,
      "fzfg": false,
      "metar_trigger": false,
      "taf_trigger": false,
      "metar": "METAR LICJ 140450Z 28016KT 9999 SCT020 18/13 Q1011",
      "taf": "TAF LICJ 132300Z 1400/1424 26016KT CAVOK"
    },
    {
      "icao": "LIMC",
      "alert": "OK",
      "vis_m": 9999,
      "fzfg": false,
      "metar_trigger": false,
      "taf_trigger": false,
      "metar": "METAR LIMC 140450Z 09006KT CAVOK 11/09 Q1002 NOSIG",
      "taf": "TAF LIMC 132300Z 1400/1506 VRB05KT 9999 BKN060"
    },
    {
      "icao": "LIME",
      "alert": "OK",
      "vis_m": 9999,
      "fzfg": false,
      "metar_trigger": false,
      "taf_trigger": false,
      "metar": "METAR LIME 140450Z VRB02KT 9999 SCT080 12/08 Q1002 NOSIG",
      "taf": "TAF LIME 132300Z 1400/1424 VRB05KT 9999 SCT060"
    },
    {
      "icao": "LIMF",
      "alert": "OK",
      "vis_m": 9999,
      "fzfg": false,
      "metar_trigger": false,
      "taf_trigger": false,
      "metar": "METAR LIMF 140450Z 26003KT 9999 FEW050 09/06 Q1002",
      "taf": "TAF LIMF 132300Z 1400/1424 VRB05KT CAVOK"
    },
    {
      "icao": "LIMJ",
      "alert": "OK",
      "vis_m": 9999,
      "fzfg": false,
      "metar_trigger": false,
      "taf_trigger": false,
      "metar": "METAR LIMJ 140450Z 05005KT 9999 FEW023 15/10 Q1001",
      "taf": "TAF LIMJ 132300Z 1400/1424 VRB05KT 9999 FEW020"
    },
    {
      "icao": "LIPE",
      "alert": "OK",
      "vis_m": 9999,
      "fzfg": false,
      "metar_trigger": false,
      "taf_trigger": false,
      "metar": "METAR LIPE 140450Z 18005KT CAVOK 14/09 Q1002",
      "taf": "TAF LIPE 132300Z 1400/1424 VRB05KT 9999 SCT060"
    },
    {
      "icao": "LIPH",
      "alert": "OK",
      "vis_m": 9999,
      "fzfg": false,
      "metar_trigger": false,
      "taf_trigger": false,
      "metar": "METAR LIPH 140450Z AUTO 03004KT 360V060 9999 OVC049/// 12/08 Q1004",
      "taf": "TAF LIPH 132300Z 1400/1424 VRB05KT 9999 SCT040"
    },
    {
      "icao": "LIPQ",
      "alert": "OK",
      "vis_m": 9999,
      "fzfg": false,
      "metar_trigger": false,
      "taf_trigger": false,
      "metar": "METAR LIPQ 140450Z AUTO 07003KT 020V100 9999 OVC094/// 10/06 Q1004",
      "taf": "TAF LIPQ 132300Z 1400/1424 07006KT 9999 SCT060"
    },
    {
      "icao": "LIPR",
      "alert": "OK",
      "vis_m": 9999,
      "fzfg": false,
      "metar_trigger": false,
      "taf_trigger": false,
      "metar": "METAR LIPR 140450Z AUTO 15003KT 9999 BKN084/// 13/11 Q1004",
      "taf": "TAF LIPR 132300Z 1400/1424 VRB05KT 9999 FEW060"
    },
    {
      "icao": "LIPX",
      "alert": "OK",
      "vis_m": 9999,
      "fzfg": false,
      "metar_trigger": false,
      "taf_trigger": false,
      "metar": "METAR LIPX 140450Z 09004KT 050V130 9999 FEW040 SCT060 13/08 Q1003",
      "taf": "TAF LIPX 132300Z 1400/1424 VRB05KT 9999 SCT060"
    },
    {
      "icao": "LIPY",
      "alert": "OK",
      "vis_m": 9999,
      "fzfg": false,
      "metar_trigger": false,
      "taf_trigger": false,
      "metar": "METAR LIPY 140450Z AUTO VRB02KT 9999 BKN087/// 13/11 Q1005",
      "taf": "TAF LIPY 132300Z 1400/1424 VRB05KT 9999 FEW060"
    },
    {
      "icao": "LIPZ",
      "alert": "OK",
      "vis_m": 9999,
      "fzfg": false,
      "metar_trigger": false,
      "taf_trigger": false,
      "metar": "METAR LIPZ 140450Z 07004KT 040V110 9999 FEW070 13/10 Q1004 NOSIG",
      "taf": "TAF LIPZ 132300Z 1400/1506 VRB05KT 9999 SCT060"
    },
    {
      "icao": "LIRF",
      "alert": "OK",
      "vis_m": 9999,
      "fzfg": false,
      "metar_trigger": false,
      "taf_trigger": false,
      "metar": "METAR LIRF 140450Z 09006KT 9999 FEW020 12/11 Q1006 NOSIG",
      "taf": "TAF LIRF 132300Z 1400/1506 06007KT 9999 FEW030"
    },
    {
      "icao": "LIRN",
      "alert": "OK",
      "vis_m": 9999,
      "fzfg": false,
      "metar_trigger": false,
      "taf_trigger": false,
      "metar": "METAR LIRN 140450Z 03002KT 9999 FEW020 14/12 Q1007 NOSIG",
      "taf": "TAF LIRN 132300Z 1400/1424 VRB05KT CAVOK"
    },
    {
      "icao": "LIRP",
      "alert": "OK",
      "vis_m": 9999,
      "fzfg": false,
      "metar_trigger": false,
      "taf_trigger": false,
      "metar": "METAR LIRP 140445Z 22015KT 9999 FEW025 SCT040 15/10 Q1004 NOSIG",
      "taf": "TAF LIRP 132300Z 1400/1424 25003KT 9999 FEW020 BKN060"
    },
    {
      "icao": "LIRZ",
      "alert": "OK",
      "vis_m": 8000,
      "fzfg": false,
      "metar_trigger": false,
      "taf_trigger": false,
      "metar": "METAR LIRZ 140450Z AUTO 27003KT 8000 FEW003/// SCT071/// 10/10 Q1007",
      "taf": "TAF LIRZ 132300Z 1400/1424 VRB05KT 9999 SCT030"
    },
    {
      "icao": "LJLJ",
      "alert": "OK",
      "vis_m": 9999,
      "fzfg": false,
      "metar_trigger": false,
      "taf_trigger": false,
      "metar": "METAR LJLJ 140430Z VRB01KT 9999 BKN060 04/04 Q1005 NOSIG",
      "taf": "TAF LJLJ 132300Z 1400/1500 22003KT 9999 FEW055"
    },
    {
      "icao": "LKMT",
      "alert": "OK",
      "vis_m": 9999,
      "fzfg": false,
      "metar_trigger": false,
      "taf_trigger": false,
      "metar": "METAR LKMT 140430Z 23004KT 190V260 CAVOK 08/04 Q1003 NOSIG",
      "taf": "TAF LKMT 132300Z 1400/1424 20008KT CAVOK"
    },
    {
      "icao": "LKPR",
      "alert": "OK",
      "vis_m": 9999,
      "fzfg": false,
      "metar_trigger": false,
      "taf_trigger": false,
      "metar": "METAR LKPR 140430Z 21011KT 9999 BKN027 08/05 Q1000 NOSIG",
      "taf": "TAF LKPR 140200Z 1403/1509 22010KT 9999 SCT045"
    },
    {
      "icao": "LLBG",
      "alert": "OK",
      "vis_m": 9999,
      "fzfg": false,
      "metar_trigger": false,
      "taf_trigger": false,
      "metar": "METAR LLBG 140450Z 15004KT CAVOK 23/09 Q1011 NOSIG",
      "taf": "TAF LLBG 132304Z 1400/1424 VRB03KT CAVOK TX34/1412Z TN18/1403Z"
    },
    {
      "icao": "LMML",
      "alert": "OK",
      "vis_m": 9999,
      "fzfg": false,
      "metar_trigger": false,
      "taf_trigger": false,
      "metar": "METAR LMML 140445Z 29010KT 260V320 9999 FEW025 17/12 Q1013 NOSIG",
      "taf": "TAF LMML 132300Z 1400/1424 29017KT 9999 FEW015"
    },
    {
      "icao": "LOWW",
      "alert": "OK",
      "vis_m": 9999,
      "fzfg": false,
      "metar_trigger": false,
      "taf_trigger": false,
      "metar": "METAR LOWW 140450Z 14004KT 9999 BKN050 10/05 Q1004 NOSIG",
      "taf": "TAF LOWW 140215Z 1403/1509 18005KT CAVOK TX15/1413Z TN08/1403Z"
    },
    {
      "icao": "LPFR",
      "alert": "OK",
      "vis_m": 9999,
      "fzfg": false,
      "metar_trigger": false,
      "taf_trigger": false,
      "metar": "METAR LPFR 140430Z 29004KT 260V320 CAVOK 14/12 Q1015",
      "taf": "TAF LPFR 132300Z 1400/1424 31007KT CAVOK"
    },
    {
      "icao": "LPMA",
      "alert": "OK",
      "vis_m": 9999,
      "fzfg": false,
      "metar_trigger": false,
      "taf_trigger": false,
      "metar": "METAR LPMA 140430Z 34006KT 300V010 9999 SCT015 15/07 Q1019",
      "taf": "TAF LPMA 132300Z 1400/1424 35008KT 9999 SCT015"
    },
    {
      "icao": "LPPR",
      "alert": "OK",
      "vis_m": 9999,
      "fzfg": false,
      "metar_trigger": false,
      "taf_trigger": false,
      "metar": "METAR LPPR 140430Z 02004KT 360V070 9999 FEW018 10/09 Q1016",
      "taf": "TAF LPPR 132300Z 1400/1424 VRB02KT 9999 FEW015"
    },
    {
      "icao": "LPPS",
      "alert": "OK",
      "vis_m": 9999,
      "fzfg": false,
      "metar_trigger": false,
      "taf_trigger": false,
      "metar": "METAR LPPS 140430Z 31012KT 9999 SCT015 16/11 Q1019",
      "taf": "TAF LPPS 132300Z 1400/1506 34010KT 9999 SCT015"
    },
    {
      "icao": "LPPT",
      "alert": "OK",
      "vis_m": 9999,
      "fzfg": false,
      "metar_trigger": false,
      "taf_trigger": false,
      "metar": "METAR LPPT 140430Z 34010KT 9999 FEW020 13/11 Q1016",
      "taf": "TAF LPPT 132300Z 1400/1506 33007KT 9999 FEW012"
    },
    {
      "icao": "LQBK",
      "alert": "OK",
      "vis_m": 9999,
      "fzfg": false,
      "metar_trigger": false,
      "taf_trigger": false,
      "metar": "METAR LQBK 140430Z VRB01KT CAVOK 04/02 Q1006 NOSIG",
      "taf": "TAF LQBK 132300Z 1400/1424 15005KT CAVOK TX19/1413Z TN02/1404Z"
    },
    {
      "icao": "LQSA",
      "alert": "OK",
      "vis_m": 9999,
      "fzfg": false,
      "metar_trigger": false,
      "taf_trigger": false,
      "metar": "METAR LQSA 140430Z VRB01KT CAVOK 03/02 Q1007 NOSIG",
      "taf": "TAF LQSA 132300Z 1400/1424 VRB02KT CAVOK TX22/1413Z TN03/1404Z"
    },
    {
      "icao": "LQTZ",
      "alert": "OK",
      "vis_m": 9999,
      "fzfg": false,
      "metar_trigger": false,
      "taf_trigger": false,
      "metar": "METAR LQTZ 140430Z 11001KT CAVOK 03/03 Q1006",
      "taf": "TAF LQTZ 132300Z 1400/1424 VRB02KT CAVOK TX21/1413Z TN01/1404Z"
    },
    {
      "icao": "LRBC",
      "alert": "OK",
      "vis_m": 9999,
      "fzfg": false,
      "metar_trigger": false,
      "taf_trigger": false,
      "metar": "METAR LRBC 140430Z 04004KT CAVOK 10/08 Q1007",
      "taf": "TAF LRBC 140200Z 1403/1412 35006KT CAVOK"
    },
    {
      "icao": "LRBS",
      "alert": "OK",
      "vis_m": 9999,
      "fzfg": false,
      "metar_trigger": false,
      "taf_trigger": false,
      "metar": "METAR LRBS 140430Z VRB01KT CAVOK 12/09 Q1007 NOSIG",
      "taf": "TAF LRBS 132300Z 1400/1424 VRB04KT 9999 SCT045"
    },
    {
      "icao": "LRBV",
      "alert": "OK",
      "vis_m": 9999,
      "fzfg": false,
      "metar_trigger": false,
      "taf_trigger": false,
      "metar": "METAR LRBV 140430Z 22006KT 9999 FEW031 SCT056 06/04 Q1008",
      "taf": "TAF LRBV 140200Z 1403/1412 VRB04KT 9999 BKN035"
    },
    {
      "icao": "LRCL",
      "alert": "OK",
      "vis_m": 3500,
      "fzfg": false,
      "metar_trigger": false,
      "taf_trigger": false,
      "metar": "METAR LRCL 140430Z AUTO VRB02KT 3500 0600E R25/1900U PRFG BR FEW001 03/02 Q1008",
      "taf": ""
    },
    {
      "icao": "LRCV",
      "alert": "OK",
      "vis_m": 9999,
      "fzfg": false,
      "metar_trigger": false,
      "taf_trigger": false,
      "metar": "METAR LRCV 140430Z 05005KT 9999 FEW049 08/07 Q1007",
      "taf": "TAF LRCV 140200Z 1403/1412 03007KT 9999 SCT045"
    },
    {
      "icao": "LRIA",
      "alert": "OK",
      "vis_m": 9999,
      "fzfg": false,
      "metar_trigger": false,
      "taf_trigger": false,
      "metar": "METAR LRIA 140430Z 30005KT 260V330 CAVOK 09/03 Q1007",
      "taf": "TAF LRIA 140200Z 1403/1412 32006KT CAVOK"
    },
    {
      "icao": "LROP",
      "alert": "OK",
      "vis_m": 9999,
      "fzfg": false,
      "metar_trigger": false,
      "taf_trigger": false,
      "metar": "METAR LROP 140430Z 00000KT CAVOK 11/09 Q1007 NOSIG",
      "taf": "TAF LROP 132300Z 1400/1424 VRB04KT 9999 SCT045"
    },
    {
      "icao": "LRSB",
      "alert": "OK",
      "vis_m": 9999,
      "fzfg": false,
      "metar_trigger": false,
      "taf_trigger": false,
      "metar": "METAR LRSB 140430Z 09002KT CAVOK 06/04 Q1008",
      "taf": "TAF LRSB 132300Z 1400/1424 VRB04KT 5000 BR SCT050"
    },
    {
      "icao": "LRSM",
      "alert": "OK",
      "vis_m": 9999,
      "fzfg": false,
      "metar_trigger": false,
      "taf_trigger": false,
      "metar": "METAR LRSM 140430Z 00000KT CAVOK 08/05 Q1007",
      "taf": "TAF LRSM 140200Z 1403/1412 VRB04KT 9999 SCT045"
    },
    {
      "icao": "LRSV",
      "alert": "OK",
      "vis_m": 9999,
      "fzfg": false,
      "metar_trigger": false,
      "taf_trigger": false,
      "metar": "METAR LRSV 140430Z 30006KT CAVOK 08/03 Q1007",
      "taf": "TAF LRSV 140200Z 1403/1412 31006KT CAVOK"
    },
    {
      "icao": "LRTM",
      "alert": "OK",
      "vis_m": 250,
      "fzfg": false,
      "metar_trigger": false,
      "taf_trigger": false,
      "metar": "METAR LRTM 140430Z 10005KT 0250 R07/0500D FG VV001 05/05 Q1008",
      "taf": "TAF LRTM 140200Z 1403/1412 VRB04KT 0350 FG BKN001"
    },
    {
      "icao": "LRTR",
      "alert": "OK",
      "vis_m": 9999,
      "fzfg": false,
      "metar_trigger": false,
      "taf_trigger": false,
      "metar": "METAR LRTR 140430Z 09003KT 9999 MIFG NSC 05/05 Q1008",
      "taf": "TAF LRTR 132300Z 1400/1424 09006KT CAVOK"
    },
    {
      "icao": "LTAC",
      "alert": "OK",
      "vis_m": 9999,
      "fzfg": false,
      "metar_trigger": false,
      "taf_trigger": false,
      "metar": "METAR LTAC 140450Z 02004KT 310V050 9999 SCT040 SCT100 14/10 Q1005 NOSIG RMK RWY21C 03005KT RWY03L 02003KT 320V050 RWY21R 01006KT RWY03R 00000KT RWY21L 34004KT 300V360",
      "taf": "TAF LTAC 132240Z 1400/1424 VRB02KT 9999 SCT040 SCT100"
    },
    {
      "icao": "LTFM",
      "alert": "OK",
      "vis_m": 9999,
      "fzfg": false,
      "metar_trigger": false,
      "taf_trigger": false,
      "metar": "METAR LTFM 140450Z 02009KT 9999 -SHRA SCT035 BKN090 12/09 Q1006 RESHRA NOSIG RMK RWY17L 01005KT RWY34L 01007KT RWY16R 01005KT RWY36 02010KT RWY18 03006KT",
      "taf": "TAF LTFM 132240Z 1400/1506 05008KT 9999 -SHRA BKN028 BKN100"
    },
    {
      "icao": "LUKK",
      "alert": "OK",
      "vis_m": 9999,
      "fzfg": false,
      "metar_trigger": false,
      "taf_trigger": false,
      "metar": "METAR LUKK 140430Z 34011KT CAVOK 11/04 Q1005 NOSIG",
      "taf": "TAF LUKK 132309Z 1400/1424 33012KT CAVOK"
    },
    {
      "icao": "LWOH",
      "alert": "OK",
      "vis_m": null,
      "fzfg": false,
      "metar_trigger": false,
      "taf_trigger": false,
      "metar": "",
      "taf": "TAF LWOH 140220Z 1403/1503 VRB02KT 9999 SCT040"
    },
    {
      "icao": "LWSK",
      "alert": "OK",
      "vis_m": 9999,
      "fzfg": false,
      "metar_trigger": false,
      "taf_trigger": false,
      "metar": "METAR LWSK 140450Z 00000KT 9999 FEW070 08/05 Q1008 NOSIG",
      "taf": "TAF LWSK 140220Z 1403/1503 VRB02KT 9999 SCT060"
    },
    {
      "icao": "LYBE",
      "alert": "OK",
      "vis_m": 9999,
      "fzfg": false,
      "metar_trigger": false,
      "taf_trigger": false,
      "metar": "METAR LYBE 140430Z 13003KT CAVOK 07/04 Q1007 NOSIG",
      "taf": "TAF LYBE 132300Z 1400/1424 12005KT CAVOK TX21/1413Z TN05/1404Z"
    },
    {
      "icao": "LYNI",
      "alert": "OK",
      "vis_m": 9999,
      "fzfg": false,
      "metar_trigger": false,
      "taf_trigger": false,
      "metar": "METAR LYNI 140430Z 11002KT CAVOK 05/03 Q1008 NOSIG",
      "taf": "TAF LYNI 132300Z 1400/1424 06004KT CAVOK TX21/1413Z TN03/1404Z"
    },
    {
      "icao": "LYPG",
      "alert": "OK",
      "vis_m": 9999,
      "fzfg": false,
      "metar_trigger": false,
      "taf_trigger": false,
      "metar": "METAR LYPG 140430Z VRB02KT 9999 FEW020 15/10 Q1007 NOSIG",
      "taf": "TAF LYPG 132300Z 1400/1424 VRB02KT CAVOK TX22/1413Z TN12/1404Z"
    },
    {
      "icao": "LZIB",
      "alert": "OK",
      "vis_m": 9999,
      "fzfg": false,
      "metar_trigger": false,
      "taf_trigger": false,
      "metar": "METAR LZIB 140430Z 13006KT CAVOK 09/04 Q1005 NOSIG",
      "taf": "TAF LZIB 132315Z 1400/1500 21005KT 9999 FEW040"
    },
    {
      "icao": "LZKZ",
      "alert": "OK",
      "vis_m": 9999,
      "fzfg": false,
      "metar_trigger": false,
      "taf_trigger": false,
      "metar": "METAR LZKZ 140430Z VRB02KT 9999 VCFG NSC 07/04 Q1006 NOSIG",
      "taf": "TAF LZKZ 132315Z 1400/1500 VRB02KT CAVOK"
    },
    {
      "icao": "LZTT",
      "alert": "OK",
      "vis_m": 9999,
      "fzfg": false,
      "metar_trigger": false,
      "taf_trigger": false,
      "metar": "METAR LZTT 140430Z 27006KT 9999 FEW060 04/01 Q1005",
      "taf": "TAF LZTT 132315Z 1400/1500 25007KT 9999 FEW050"
    },
    {
      "icao": "OEJN",
      "alert": "OK",
      "vis_m": 9999,
      "fzfg": false,
      "metar_trigger": false,
      "taf_trigger": false,
      "metar": "METAR OEJN 140400Z 33008KT CAVOK 29/15 Q1006 NOSIG",
      "taf": "TAF OEJN 132300Z 1400/1506 36005KT CAVOK"
    },
    {
      "icao": "OEMA",
      "alert": "OK",
      "vis_m": 9999,
      "fzfg": false,
      "metar_trigger": false,
      "taf_trigger": false,
      "metar": "METAR OEMA 140400Z 03004KT CAVOK 27/M05 Q1012 NOSIG",
      "taf": "TAF OEMA 132300Z 1400/1506 VRB03KT CAVOK"
    },
    {
      "icao": "OJAI",
      "alert": "OK",
      "vis_m": 5000,
      "fzfg": false,
      "metar_trigger": false,
      "taf_trigger": false,
      "metar": "METAR OJAI 140400Z 06004KT 5000 HZ NSC 15/05 Q1014 NOSIG",
      "taf": "TAF OJAI 132300Z 1400/1506 28012KT 5000 HZ NSC"
    },
    {
      "icao": "OMAA",
      "alert": "OK",
      "vis_m": 9999,
      "fzfg": false,
      "metar_trigger": false,
      "taf_trigger": false,
      "metar": "METAR OMAA 140430Z 27008KT 230V290 CAVOK 33/14 Q1004 NOSIG",
      "taf": "TAF OMAA 132300Z 1400/1506 26005KT 8000 NSC"
    },
    {
      "icao": "OMDB",
      "alert": "OK",
      "vis_m": 9999,
      "fzfg": false,
      "metar_trigger": false,
      "taf_trigger": false,
      "metar": "METAR OMDB 140430Z VRB06KT CAVOK 30/19 Q1003 NOSIG",
      "taf": ""
    },
    {
      "icao": "UAAA",
      "alert": "OK",
      "vis_m": 9999,
      "fzfg": false,
      "metar_trigger": false,
      "taf_trigger": false,
      "metar": "METAR UAAA 140430Z 31002MPS 9999 NSC 17/01 Q1017 NOSIG",
      "taf": "TAF UAAA 132301Z 1400/1424 20003MPS 9999 FEW050 SCT100 TX21/1406Z TN08/1401Z"
    },
    {
      "icao": "UBBB",
      "alert": "OK",
      "vis_m": 9999,
      "fzfg": false,
      "metar_trigger": false,
      "taf_trigger": false,
      "metar": "METAR UBBB 140430Z 30008KT CAVOK 21/14 Q1003 NOSIG",
      "taf": "TAF UBBB 132306Z 1400/1424 28008KT 9999 SCT025 TX23/1410Z TN17/1401Z"
    },
    {
      "icao": "UDSG",
      "alert": "OK",
      "vis_m": 9999,
      "fzfg": false,
      "metar_trigger": false,
      "taf_trigger": false,
      "metar": "METAR UDSG 140430Z 08002KT 9999 NSC 09/07 Q1012 NOSIG",
      "taf": "TAF UDSG 132300Z 1400/1424 24006KT 9999 SCT040"
    },
    {
      "icao": "UDYZ",
      "alert": "OK",
      "vis_m": 9999,
      "fzfg": false,
      "metar_trigger": false,
      "taf_trigger": false,
      "metar": "METAR UDYZ 140430Z VRB02KT 9999 NSC 15/08 Q1010 NOSIG",
      "taf": "TAF UDYZ 132300Z 1400/1424 08006KT 9999 SCT040"
    },
    {
      "icao": "UGKO",
      "alert": "OK",
      "vis_m": 9999,
      "fzfg": false,
      "metar_trigger": false,
      "taf_trigger": false,
      "metar": "METAR UGKO 140430Z 10009KT CAVOK 17/13 Q1005 NOSIG",
      "taf": "TAF UGKO 132300Z 1400/1424 09007KT CAVOK TX29/1411Z TN12/1402Z"
    }
  ]
}