{
  "ts_utc": "2026-05-30T20:54:56Z",
  "threshold_m": 150,
  "source": "stations_override.txt (ICAO list) + aviationweather.gov (METAR/TAF raw)",
  "station_count": 159,
  "stations": [
    {
      "icao": "BIKF",
      "alert": "OK",
      "vis_m": 9999,
      "fzfg": false,
      "metar_trigger": false,
      "taf_trigger": false,
      "metar": "METAR BIKF 302030Z 04008KT 9999 BKN012 OVC027 09/07 Q1006",
      "taf": "TAF BIKF 301958Z 3021/3121 04008KT 9999 -RA FEW018 BKN040 TX12/3112Z TN07/3100Z"
    },
    {
      "icao": "BKPR",
      "alert": "OK",
      "vis_m": null,
      "fzfg": false,
      "metar_trigger": false,
      "taf_trigger": false,
      "metar": "",
      "taf": "TAF BKPR 301730Z 3018/3118 29008KT CAVOK"
    },
    {
      "icao": "EBCI",
      "alert": "OK",
      "vis_m": 9999,
      "fzfg": false,
      "metar_trigger": false,
      "taf_trigger": false,
      "metar": "METAR EBCI 302020Z VRB05KT 9999 -TSRA FEW025CB BKN040 18/15 Q1019 TEMPO 15015G27KT 2500 TSRA",
      "taf": "TAF EBCI 301700Z 3018/3124 VRB04KT 9999 FEW040CB"
    },
    {
      "icao": "EDDB",
      "alert": "OK",
      "vis_m": 9999,
      "fzfg": false,
      "metar_trigger": false,
      "taf_trigger": false,
      "metar": "METAR EDDB 302050Z AUTO 27005KT 9999 FEW042 18/13 Q1016 NOSIG",
      "taf": "TAF EDDB 301700Z 3018/3118 30012KT CAVOK"
    },
    {
      "icao": "EDDH",
      "alert": "OK",
      "vis_m": 9999,
      "fzfg": false,
      "metar_trigger": false,
      "taf_trigger": false,
      "metar": "METAR EDDH 302050Z AUTO 29004KT CAVOK 14/10 Q1017 NOSIG",
      "taf": "TAF EDDH 301700Z 3018/3124 30011KT CAVOK"
    },
    {
      "icao": "EDDK",
      "alert": "OK",
      "vis_m": 9999,
      "fzfg": false,
      "metar_trigger": false,
      "taf_trigger": false,
      "metar": "METAR EDDK 302050Z AUTO 06003KT 040V110 CAVOK 21/17 Q1016 NOSIG",
      "taf": "TAF EDDK 301700Z 3018/3124 VRB03KT CAVOK"
    },
    {
      "icao": "EDDN",
      "alert": "OK",
      "vis_m": 9999,
      "fzfg": false,
      "metar_trigger": false,
      "taf_trigger": false,
      "metar": "METAR EDDN 302050Z AUTO 30006KT CAVOK 22/12 Q1018",
      "taf": ""
    },
    {
      "icao": "EDDS",
      "alert": "OK",
      "vis_m": 9999,
      "fzfg": false,
      "metar_trigger": false,
      "taf_trigger": false,
      "metar": "METAR EDDS 302050Z AUTO VRB01KT CAVOK 21/11 Q1018",
      "taf": "TAF EDDS 301700Z 3018/3118 01006KT CAVOK"
    },
    {
      "icao": "EDFH",
      "alert": "OK",
      "vis_m": 9999,
      "fzfg": false,
      "metar_trigger": false,
      "taf_trigger": false,
      "metar": "METAR EDFH 302020Z 17005KT CAVOK 19/15 Q1019",
      "taf": ""
    },
    {
      "icao": "EDJA",
      "alert": "OK",
      "vis_m": 9999,
      "fzfg": false,
      "metar_trigger": false,
      "taf_trigger": false,
      "metar": "METAR EDJA 302020Z 00000KT CAVOK 20/13 Q1020",
      "taf": "TAF EDJA 301700Z 3018/3103 04006KT CAVOK"
    },
    {
      "icao": "EDLW",
      "alert": "OK",
      "vis_m": 9999,
      "fzfg": false,
      "metar_trigger": false,
      "taf_trigger": false,
      "metar": "METAR EDLW 302020Z 08005KT CAVOK 20/14 Q1017",
      "taf": "TAF EDLW 301700Z 3018/3118 VRB03KT CAVOK"
    },
    {
      "icao": "EDNY",
      "alert": "OK",
      "vis_m": 9999,
      "fzfg": false,
      "metar_trigger": false,
      "taf_trigger": false,
      "metar": "METAR EDNY 302020Z AUTO 07004KT 020V090 9999 // NCD 17/13 Q1019",
      "taf": ""
    },
    {
      "icao": "EDSB",
      "alert": "OK",
      "vis_m": 9999,
      "fzfg": false,
      "metar_trigger": false,
      "taf_trigger": false,
      "metar": "METAR EDSB 302020Z 07002KT CAVOK 23/16 Q1017",
      "taf": "TAF EDSB 301700Z 3018/3118 02005KT CAVOK"
    },
    {
      "icao": "EETN",
      "alert": "OK",
      "vis_m": 9999,
      "fzfg": false,
      "metar_trigger": false,
      "taf_trigger": false,
      "metar": "METAR EETN 302050Z 12003KT CAVOK 12/06 Q1009 NOSIG",
      "taf": "TAF EETN 301730Z 3018/3118 30010KT CAVOK"
    },
    {
      "icao": "EFTU",
      "alert": "OK",
      "vis_m": 9999,
      "fzfg": false,
      "metar_trigger": false,
      "taf_trigger": false,
      "metar": "METAR EFTU 302050Z AUTO VRB02KT CAVOK 13/01 Q1009",
      "taf": "TAF EFTU 302033Z 3021/3121 31003KT CAVOK"
    },
    {
      "icao": "EGBB",
      "alert": "OK",
      "vis_m": 9999,
      "fzfg": false,
      "metar_trigger": false,
      "taf_trigger": false,
      "metar": "METAR EGBB 302020Z 24004KT CAVOK 20/08 Q1016",
      "taf": "TAF EGBB 301655Z 3018/3118 26006KT CAVOK"
    },
    {
      "icao": "EGGP",
      "alert": "OK",
      "vis_m": 9999,
      "fzfg": false,
      "metar_trigger": false,
      "taf_trigger": false,
      "metar": "METAR EGGP 302020Z 33005KT 9999 VCSH FEW040 16/10 Q1017",
      "taf": ""
    },
    {
      "icao": "EGGW",
      "alert": "OK",
      "vis_m": 9999,
      "fzfg": false,
      "metar_trigger": false,
      "taf_trigger": false,
      "metar": "METAR EGGW 302020Z AUTO 34006KT 300V360 9999 NCD 21/09 Q1016",
      "taf": "TAF EGGW 301659Z 3018/3118 27006KT CAVOK"
    },
    {
      "icao": "EGKK",
      "alert": "OK",
      "vis_m": 9999,
      "fzfg": false,
      "metar_trigger": false,
      "taf_trigger": false,
      "metar": "METAR EGKK 302020Z 23005KT CAVOK 21/12 Q1016",
      "taf": "TAF EGKK 301701Z 3018/3124 26007KT CAVOK"
    },
    {
      "icao": "EGNM",
      "alert": "OK",
      "vis_m": 9999,
      "fzfg": false,
      "metar_trigger": false,
      "taf_trigger": false,
      "metar": "METAR EGNM 302020Z 28013KT CAVOK 16/10 Q1016",
      "taf": "TAF EGNM 301658Z 3018/3118 29010KT CAVOK"
    },
    {
      "icao": "EGPD",
      "alert": "OK",
      "vis_m": 9999,
      "fzfg": false,
      "metar_trigger": false,
      "taf_trigger": false,
      "metar": "METAR EGPD 302020Z COR AUTO 15007KT 9999 NCD 14/11 Q1014 NOSIG",
      "taf": "TAF EGPD 301656Z 3018/3118 18009KT 9999 SCT030"
    },
    {
      "icao": "EGPF",
      "alert": "OK",
      "vis_m": 9999,
      "fzfg": false,
      "metar_trigger": false,
      "taf_trigger": false,
      "metar": "METAR EGPF 302020Z AUTO 03003KT 9999 FEW009 OVC040 13/12 Q1014",
      "taf": ""
    },
    {
      "icao": "EHBK",
      "alert": "OK",
      "vis_m": 9999,
      "fzfg": false,
      "metar_trigger": false,
      "taf_trigger": false,
      "metar": "METAR EHBK 302025Z AUTO 30004KT 230V020 9999 -SHRA FEW022CB 22/16 Q1017 REDZ TEMPO 4000 SHRA TSRA SCT050CB",
      "taf": "TAF EHBK 301715Z 3018/3124 VRB02KT CAVOK"
    },
    {
      "icao": "EHEH",
      "alert": "OK",
      "vis_m": 9999,
      "fzfg": false,
      "metar_trigger": false,
      "taf_trigger": false,
      "metar": "METAR EHEH 302025Z AUTO 09005KT 060V120 9999 OVC250 22/12 Q1016 BLU NOSIG RMK TREND REMOTE BY EHWX",
      "taf": "TAF EHEH 301732Z 3018/3124 07005KT CAVOK"
    },
    {
      "icao": "EKBI",
      "alert": "OK",
      "vis_m": 9999,
      "fzfg": false,
      "metar_trigger": false,
      "taf_trigger": false,
      "metar": "METAR EKBI 302050Z AUTO 29009KT 9999 OVC011/// 12/10 Q1016",
      "taf": "TAF EKBI 302027Z 3021/3121 30008KT 9999 BKN011"
    },
    {
      "icao": "EKCH",
      "alert": "OK",
      "vis_m": 9999,
      "fzfg": false,
      "metar_trigger": false,
      "taf_trigger": false,
      "metar": "METAR EKCH 302050Z AUTO 30007KT 9999 BKN039/// 15/09 Q1014 NOSIG",
      "taf": "TAF EKCH 302027Z 3021/3121 31011KT 9999 BKN040"
    },
    {
      "icao": "ENAL",
      "alert": "OK",
      "vis_m": 9999,
      "fzfg": false,
      "metar_trigger": false,
      "taf_trigger": false,
      "metar": "METAR ENAL 302020Z 02002KT 9999 -DZRA FEW004 BKN016 11/10 Q1015",
      "taf": "TAF ENAL 302000Z 3021/3106 35005KT 9999 SCT004 BKN018"
    },
    {
      "icao": "ENBR",
      "alert": "OK",
      "vis_m": 9999,
      "fzfg": false,
      "metar_trigger": false,
      "taf_trigger": false,
      "metar": "METAR ENBR 302020Z 21003KT 9999 FEW015 BKN050 10/09 Q1015 RMK WIND 1200FT VRB02KT",
      "taf": "TAF ENBR 301700Z 3018/3118 22005KT 9999 SCT006 BKN016"
    },
    {
      "icao": "ENGM",
      "alert": "OK",
      "vis_m": 9999,
      "fzfg": false,
      "metar_trigger": false,
      "taf_trigger": false,
      "metar": "METAR ENGM 302020Z 35004KT 320V030 CAVOK 17/07 Q1011 NOSIG",
      "taf": "TAF ENGM 301700Z 3018/3118 36010KT CAVOK"
    },
    {
      "icao": "ENHD",
      "alert": "OK",
      "vis_m": 9999,
      "fzfg": false,
      "metar_trigger": false,
      "taf_trigger": false,
      "metar": "METAR ENHD 302020Z AUTO 29006KT 9999 FEW003/// BKN004/// BKN006/// 11/10 Q1015",
      "taf": ""
    },
    {
      "icao": "ENTC",
      "alert": "OK",
      "vis_m": 9999,
      "fzfg": false,
      "metar_trigger": false,
      "taf_trigger": false,
      "metar": "METAR ENTC 302020Z 02007KT 350V050 9999 FEW039 06/00 Q1021 RMK WIND 2600FT 36008KT",
      "taf": "TAF ENTC 301700Z 3018/3118 01009KT 9999 SCT040"
    },
    {
      "icao": "ENTO",
      "alert": "OK",
      "vis_m": 9999,
      "fzfg": false,
      "metar_trigger": false,
      "taf_trigger": false,
      "metar": "METAR ENTO 302020Z 24004KT CAVOK 17/09 Q1011 NOSIG",
      "taf": "TAF ENTO 301700Z 3018/3118 18010KT CAVOK"
    },
    {
      "icao": "ENVA",
      "alert": "OK",
      "vis_m": 9999,
      "fzfg": false,
      "metar_trigger": false,
      "taf_trigger": false,
      "metar": "METAR ENVA 302020Z 28004KT 240V300 9999 BKN040 12/10 Q1015 RMK WIND 670FT 29007KT",
      "taf": "TAF ENVA 301700Z 3018/3118 27008KT 9999 SCT020 BKN025"
    },
    {
      "icao": "ENZV",
      "alert": "OK",
      "vis_m": 9000,
      "fzfg": false,
      "metar_trigger": false,
      "taf_trigger": false,
      "metar": "METAR ENZV 302020Z 30007KT 9000 BKN010 11/10 Q1016",
      "taf": "TAF ENZV 301700Z 3018/3118 30008KT 8000 SCT006 BKN018"
    },
    {
      "icao": "EPGD",
      "alert": "OK",
      "vis_m": 9999,
      "fzfg": false,
      "metar_trigger": false,
      "taf_trigger": false,
      "metar": "METAR EPGD 302030Z 28008KT CAVOK 14/11 Q1012",
      "taf": "TAF EPGD 301730Z 3018/3118 31015KT 9999 SCT038"
    },
    {
      "icao": "EPKK",
      "alert": "OK",
      "vis_m": 9999,
      "fzfg": false,
      "metar_trigger": false,
      "taf_trigger": false,
      "metar": "METAR EPKK 302030Z 24003KT CAVOK 14/13 Q1014",
      "taf": "TAF EPKK 302030Z 3021/3121 23004KT CAVOK"
    },
    {
      "icao": "EPKT",
      "alert": "OK",
      "vis_m": 9999,
      "fzfg": false,
      "metar_trigger": false,
      "taf_trigger": false,
      "metar": "METAR EPKT 302030Z 32005KT 9999 MIFG NSC 13/13 Q1014",
      "taf": ""
    },
    {
      "icao": "EPLB",
      "alert": "OK",
      "vis_m": 9999,
      "fzfg": false,
      "metar_trigger": false,
      "taf_trigger": false,
      "metar": "METAR EPLB 302030Z 30008KT 9999 -SHRA SCT034 BKN038TCU 18/14 Q1010",
      "taf": "TAF EPLB 301730Z 3018/3118 30010KT CAVOK"
    },
    {
      "icao": "EPMO",
      "alert": "OK",
      "vis_m": 9999,
      "fzfg": false,
      "metar_trigger": false,
      "taf_trigger": false,
      "metar": "METAR EPMO 302030Z 36006KT 9999 FEW047 17/10 Q1012",
      "taf": "TAF EPMO 301730Z 3018/3118 29012KT 9999 SCT030"
    },
    {
      "icao": "EPPO",
      "alert": "OK",
      "vis_m": 9999,
      "fzfg": false,
      "metar_trigger": false,
      "taf_trigger": false,
      "metar": "METAR EPPO 302030Z 32006KT 9999 FEW038 OVC042 17/11 Q1015",
      "taf": "TAF EPPO 301730Z 3018/3118 33010KT CAVOK"
    },
    {
      "icao": "EPRA",
      "alert": "OK",
      "vis_m": 9999,
      "fzfg": false,
      "metar_trigger": false,
      "taf_trigger": false,
      "metar": "METAR EPRA 302030Z 30006KT 9999 FEW049 18/13 Q1011",
      "taf": "TAF EPRA 302030Z 3021/3106 30006KT CAVOK"
    },
    {
      "icao": "EPRZ",
      "alert": "OK",
      "vis_m": 9999,
      "fzfg": false,
      "metar_trigger": false,
      "taf_trigger": false,
      "metar": "METAR EPRZ 302030Z 27011KT 9999 -SHRA SCT030CB 16/15 Q1011",
      "taf": "TAF EPRZ 301730Z 3018/3118 27007KT 9999 BKN007"
    },
    {
      "icao": "EPSC",
      "alert": "OK",
      "vis_m": 9999,
      "fzfg": false,
      "metar_trigger": false,
      "taf_trigger": false,
      "metar": "METAR EPSC 302030Z 29007KT 9999 FEW033 OVC049 17/11 Q1015",
      "taf": "TAF EPSC 301730Z 3018/3118 30010KT 9999 BKN035"
    },
    {
      "icao": "EPSY",
      "alert": "OK",
      "vis_m": 9999,
      "fzfg": false,
      "metar_trigger": false,
      "taf_trigger": false,
      "metar": "METAR EPSY 302030Z 31004KT 270V350 CAVOK 15/10 Q1011",
      "taf": "TAF EPSY 302030Z 3021/3106 32006KT CAVOK"
    },
    {
      "icao": "EPWA",
      "alert": "OK",
      "vis_m": 9999,
      "fzfg": false,
      "metar_trigger": false,
      "taf_trigger": false,
      "metar": "METAR EPWA 302030Z 36010KT 9999 FEW042 18/10 Q1011 NOSIG",
      "taf": "TAF EPWA 302030Z 3021/3121 35010KT 9999 BKN040"
    },
    {
      "icao": "EPWR",
      "alert": "OK",
      "vis_m": 9999,
      "fzfg": false,
      "metar_trigger": false,
      "taf_trigger": false,
      "metar": "METAR EPWR 302030Z 31008KT CAVOK 18/09 Q1015",
      "taf": "TAF EPWR 302030Z 3021/3121 32010KT 9999 BKN045"
    },
    {
      "icao": "ESGG",
      "alert": "OK",
      "vis_m": 9999,
      "fzfg": false,
      "metar_trigger": false,
      "taf_trigger": false,
      "metar": "METAR ESGG 302020Z 25007KT CAVOK 12/11 Q1012",
      "taf": "TAF ESGG 302030Z 3021/3121 27011KT 9999 SCT010"
    },
    {
      "icao": "ESKN",
      "alert": "OK",
      "vis_m": 9999,
      "fzfg": false,
      "metar_trigger": false,
      "taf_trigger": false,
      "metar": "METAR ESKN 302020Z 07004KT CAVOK 11/10 Q1010",
      "taf": "TAF ESKN 302030Z 3021/3121 VRB03KT CAVOK"
    },
    {
      "icao": "ESMS",
      "alert": "OK",
      "vis_m": 9999,
      "fzfg": false,
      "metar_trigger": false,
      "taf_trigger": false,
      "metar": "METAR ESMS 302020Z 29009KT 9999 OVC047 15/11 Q1013",
      "taf": "TAF ESMS 302027Z 3021/3121 31008KT 9999 BKN035"
    },
    {
      "icao": "ESSA",
      "alert": "OK",
      "vis_m": 9999,
      "fzfg": false,
      "metar_trigger": false,
      "taf_trigger": false,
      "metar": "METAR ESSA 302020Z 22006KT CAVOK 14/05 Q1010 NOSIG",
      "taf": "TAF ESSA 302030Z 3021/3121 24006KT CAVOK"
    },
    {
      "icao": "EYKA",
      "alert": "OK",
      "vis_m": 3500,
      "fzfg": false,
      "metar_trigger": false,
      "taf_trigger": false,
      "metar": "METAR EYKA 302050Z 11003KT 050V170 3500 BR NSC 10/08 Q1008",
      "taf": "TAF EYKA 301703Z 3018/3118 VRB03KT 9000 NSC"
    },
    {
      "icao": "EYPA",
      "alert": "OK",
      "vis_m": 9999,
      "fzfg": false,
      "metar_trigger": false,
      "taf_trigger": false,
      "metar": "METAR EYPA 302050Z VRB01KT CAVOK 07/06 Q1009",
      "taf": "TAF EYPA 301703Z 3018/3118 VRB03KT 9000 NSC"
    },
    {
      "icao": "EYVI",
      "alert": "OK",
      "vis_m": 9999,
      "fzfg": false,
      "metar_trigger": false,
      "taf_trigger": false,
      "metar": "METAR EYVI 302050Z 29003KT 250V320 CAVOK 13/07 Q1008 NOSIG",
      "taf": "TAF EYVI 301703Z 3018/3118 VRB03KT 9000 SCT045"
    },
    {
      "icao": "GCFV",
      "alert": "OK",
      "vis_m": 9999,
      "fzfg": false,
      "metar_trigger": false,
      "taf_trigger": false,
      "metar": "METAR GCFV 302030Z 01017KT 9999 OVC025 22/15 Q1021",
      "taf": "TAF GCFV 302000Z 3021/3121 01013KT 9999 BKN020 TX24/3114Z TN18/3106Z"
    },
    {
      "icao": "GCLP",
      "alert": "OK",
      "vis_m": 9999,
      "fzfg": false,
      "metar_trigger": false,
      "taf_trigger": false,
      "metar": "METAR GCLP 302030Z 36021KT 9999 BKN025 21/14 Q1021 NOSIG",
      "taf": "TAF GCLP 302000Z 3021/3121 36022KT 9999 BKN025 TX23/3114Z TN18/3106Z"
    },
    {
      "icao": "GCTS",
      "alert": "OK",
      "vis_m": 9999,
      "fzfg": false,
      "metar_trigger": false,
      "taf_trigger": false,
      "metar": "METAR GCTS 302030Z 08011KT 040V100 9999 FEW030 21/14 Q1021 NOSIG",
      "taf": "TAF GCTS 302000Z 3021/3121 04009KT 9999 FEW030 TX25/3114Z TN17/3106Z"
    },
    {
      "icao": "GMAD",
      "alert": "OK",
      "vis_m": 6000,
      "fzfg": false,
      "metar_trigger": false,
      "taf_trigger": false,
      "metar": "METAR GMAD 302030Z 19010KT 6000 SCT016 20/16 Q1018 NOSIG",
      "taf": "TAF GMAD 301700Z 3018/3124 20010KT 8000 BKN016"
    },
    {
      "icao": "GMMN",
      "alert": "OK",
      "vis_m": 9999,
      "fzfg": false,
      "metar_trigger": false,
      "taf_trigger": false,
      "metar": "METAR GMMN 302030Z 32006KT CAVOK 20/17 Q1019 NOSIG",
      "taf": "TAF GMMN 301700Z 3018/3124 34010KT CAVOK"
    },
    {
      "icao": "GMMX",
      "alert": "OK",
      "vis_m": 8000,
      "fzfg": false,
      "metar_trigger": false,
      "taf_trigger": false,
      "metar": "METAR GMMX 302030Z 01006KT 320V050 8000 SCT026 27/17 Q1018 NOSIG",
      "taf": "TAF GMMX 301700Z 3018/3124 06006KT 8000 SCT033 SCT100"
    },
    {
      "icao": "HEGN",
      "alert": "OK",
      "vis_m": 9999,
      "fzfg": false,
      "metar_trigger": false,
      "taf_trigger": false,
      "metar": "METAR HEGN 302000Z 31012KT CAVOK 29/11 Q1011 NOSIG",
      "taf": "TAF HEGN 301700Z 3018/3124 32015KT CAVOK"
    },
    {
      "icao": "HEMA",
      "alert": "OK",
      "vis_m": 9999,
      "fzfg": false,
      "metar_trigger": false,
      "taf_trigger": false,
      "metar": "METAR HEMA 302000Z 34008KT CAVOK 28/06 Q1010 NOSIG",
      "taf": "TAF HEMA 301700Z 3018/3124 33008G20KT CAVOK"
    },
    {
      "icao": "HESH",
      "alert": "OK",
      "vis_m": 9999,
      "fzfg": false,
      "metar_trigger": false,
      "taf_trigger": false,
      "metar": "METAR HESH 302000Z 35012KT CAVOK 30/10 Q1010 NOSIG",
      "taf": "TAF HESH 301700Z 3018/3124 34013KT CAVOK"
    },
    {
      "icao": "HESX",
      "alert": "OK",
      "vis_m": 9999,
      "fzfg": false,
      "metar_trigger": false,
      "taf_trigger": false,
      "metar": "METAR HESX 302000Z 01008KT CAVOK 24/13 Q1014 NOSIG",
      "taf": "TAF HESX 301700Z 3018/3124 35010KT CAVOK"
    },
    {
      "icao": "LATI",
      "alert": "OK",
      "vis_m": 9999,
      "fzfg": false,
      "metar_trigger": false,
      "taf_trigger": false,
      "metar": "METAR LATI 302050Z 14003KT CAVOK 17/11 Q1016 NOSIG",
      "taf": "TAF LATI 301700Z 3018/3118 33008KT CAVOK TX31/3111Z TN13/3104Z"
    },
    {
      "icao": "LBPD",
      "alert": "OK",
      "vis_m": 9999,
      "fzfg": false,
      "metar_trigger": false,
      "taf_trigger": false,
      "metar": "METAR LBPD 302030Z AUTO 24004KT 200V290 9999 FEW120/// 18/08 Q1014",
      "taf": "TAF LBPD 301700Z 3018/3118 28015KT 9999 SCT080"
    },
    {
      "icao": "LBSF",
      "alert": "OK",
      "vis_m": 9999,
      "fzfg": false,
      "metar_trigger": false,
      "taf_trigger": false,
      "metar": "METAR LBSF 302030Z AUTO 03004KT 9999 NSC 15/07 Q1016 NOSIG",
      "taf": "TAF LBSF 301700Z 3018/3118 30012KT 9999 SCT070"
    },
    {
      "icao": "LBWN",
      "alert": "OK",
      "vis_m": 9999,
      "fzfg": false,
      "metar_trigger": false,
      "taf_trigger": false,
      "metar": "METAR LBWN 302030Z AUTO 00000KT 9999 NCD 14/14 Q1013 NOSIG",
      "taf": "TAF LBWN 301700Z 3018/3118 11010KT 9999 SCT045"
    },
    {
      "icao": "LCLK",
      "alert": "OK",
      "vis_m": 9999,
      "fzfg": false,
      "metar_trigger": false,
      "taf_trigger": false,
      "metar": "METAR LCLK 302030Z 21005KT CAVOK 21/20 Q1012 NOSIG",
      "taf": "TAF LCLK 301730Z 3018/3118 20010KT 9999 FEW030"
    },
    {
      "icao": "LCPH",
      "alert": "OK",
      "vis_m": 9999,
      "fzfg": false,
      "metar_trigger": false,
      "taf_trigger": false,
      "metar": "METAR LCPH 302030Z AUTO VRB02KT 9999 SCT015 21/19 Q1012 NOSIG",
      "taf": "TAF LCPH 301730Z 3018/3118 05007KT 9999 FEW009"
    },
    {
      "icao": "LEAL",
      "alert": "OK",
      "vis_m": 9999,
      "fzfg": false,
      "metar_trigger": false,
      "taf_trigger": false,
      "metar": "METAR LEAL 302030Z 06004KT 020V100 CAVOK 25/15 Q1019 NOSIG",
      "taf": "TAF LEAL 301700Z 3018/3118 18010KT CAVOK TX30/3112Z TN19/3106Z"
    },
    {
      "icao": "LEBB",
      "alert": "OK",
      "vis_m": 9999,
      "fzfg": false,
      "metar_trigger": false,
      "taf_trigger": false,
      "metar": "METAR LEBB 302030Z 32005KT 9999 FEW021 BKN030 18/16 Q1024 NOSIG",
      "taf": "TAF LEBB 301700Z 3018/3118 32009KT 9000 BKN016 TX22/3113Z TN15/3105Z"
    },
    {
      "icao": "LEBL",
      "alert": "OK",
      "vis_m": 9999,
      "fzfg": false,
      "metar_trigger": false,
      "taf_trigger": false,
      "metar": "METAR LEBL 302030Z 14002KT 9999 FEW025 23/20 Q1019 NOSIG",
      "taf": "TAF LEBL 301700Z 3018/3118 12007KT 9999 FEW010 TX27/3112Z TN20/3105Z"
    },
    {
      "icao": "LECH",
      "alert": "OK",
      "vis_m": 9000,
      "fzfg": false,
      "metar_trigger": false,
      "taf_trigger": false,
      "metar": "METAR LECH 302030Z AUTO 11004KT 9000 FEW004 20/19 Q1020",
      "taf": "TAF LECH 301700Z 3018/3118 10010KT CAVOK TX32/3113Z TN16/3106Z"
    },
    {
      "icao": "LEMD",
      "alert": "OK",
      "vis_m": 9999,
      "fzfg": false,
      "metar_trigger": false,
      "taf_trigger": false,
      "metar": "METAR LEMD 302030Z 25009KT 230V290 CAVOK 31/06 Q1019 NOSIG",
      "taf": ""
    },
    {
      "icao": "LEMG",
      "alert": "OK",
      "vis_m": 9999,
      "fzfg": false,
      "metar_trigger": false,
      "taf_trigger": false,
      "metar": "METAR LEMG 302030Z 29005KT CAVOK 22/14 Q1018 NOSIG",
      "taf": "TAF LEMG 301700Z 3018/3118 13010KT CAVOK TX29/3114Z TN17/3106Z"
    },
    {
      "icao": "LEVC",
      "alert": "OK",
      "vis_m": 9999,
      "fzfg": false,
      "metar_trigger": false,
      "taf_trigger": false,
      "metar": "METAR LEVC 302030Z 19005KT 150V240 CAVOK 24/18 Q1018 NOSIG",
      "taf": "TAF LEVC 301700Z 3018/3118 06012KT 9999 FEW015 TX31/3112Z TN19/3106Z"
    },
    {
      "icao": "LEXJ",
      "alert": "OK",
      "vis_m": 9999,
      "fzfg": false,
      "metar_trigger": false,
      "taf_trigger": false,
      "metar": "METAR LEXJ 302030Z 27004KT 9999 SCT021 17/14 Q1024",
      "taf": "TAF LEXJ 302000Z 3021/3121 25009KT 9999 BKN020 TX21/3112Z TN15/3105Z"
    },
    {
      "icao": "LEZG",
      "alert": "OK",
      "vis_m": 9999,
      "fzfg": false,
      "metar_trigger": false,
      "taf_trigger": false,
      "metar": "METAR LEZG 302030Z 28007KT CAVOK 29/14 Q1018 NOSIG",
      "taf": "TAF LEZG 301700Z 3018/3118 32012KT CAVOK TX33/3115Z TN17/3106Z"
    },
    {
      "icao": "LEZL",
      "alert": "OK",
      "vis_m": 9999,
      "fzfg": false,
      "metar_trigger": false,
      "taf_trigger": false,
      "metar": "METAR LEZL 302030Z 21008KT CAVOK 29/14 Q1017 NOSIG",
      "taf": "TAF LEZL 302000Z 3021/3121 20007KT CAVOK TX38/3115Z TN19/3106Z"
    },
    {
      "icao": "LFBD",
      "alert": "OK",
      "vis_m": 9999,
      "fzfg": false,
      "metar_trigger": false,
      "taf_trigger": false,
      "metar": "METAR LFBD 302030Z AUTO 22007KT 9999 SCT012 OVC021 19/17 Q1022 BECMG BKN010",
      "taf": ""
    },
    {
      "icao": "LFLL",
      "alert": "OK",
      "vis_m": 9999,
      "fzfg": false,
      "metar_trigger": false,
      "taf_trigger": false,
      "metar": "METAR LFLL 302030Z 00000KT CAVOK 25/14 Q1018 NOSIG",
      "taf": "TAF LFLL 301700Z 3018/3124 VRB05KT CAVOK"
    },
    {
      "icao": "LFLS",
      "alert": "OK",
      "vis_m": 9999,
      "fzfg": false,
      "metar_trigger": false,
      "taf_trigger": false,
      "metar": "METAR LFLS 302030Z AUTO 10006KT CAVOK 17/15 Q1019",
      "taf": "TAF LFLS 301400Z 3015/3115 VRB03KT CAVOK"
    },
    {
      "icao": "LFMN",
      "alert": "OK",
      "vis_m": 9999,
      "fzfg": false,
      "metar_trigger": false,
      "taf_trigger": false,
      "metar": "METAR LFMN 302030Z VRB01KT CAVOK 23/20 Q1017 NOSIG",
      "taf": "TAF LFMN 302000Z 3021/0103 VRB04KT CAVOK"
    },
    {
      "icao": "LFOB",
      "alert": "OK",
      "vis_m": 9999,
      "fzfg": false,
      "metar_trigger": false,
      "taf_trigger": false,
      "metar": "METAR LFOB 302030Z AUTO 07003KT 070V170 CAVOK 22/19 Q1016 TEMPO 3500 TSRAGS SCT070CB BECMG 28010KT",
      "taf": "TAF LFOB 301700Z 3018/3118 28010KT CAVOK"
    },
    {
      "icao": "LFPO",
      "alert": "OK",
      "vis_m": 9999,
      "fzfg": false,
      "metar_trigger": false,
      "taf_trigger": false,
      "metar": "METAR LFPO 302030Z AUTO 29006KT 260V320 CAVOK 24/16 Q1016 TEMPO VRB15G30KT 2000 TSRAGR BKN080CB",
      "taf": "TAF LFPO 301700Z 3018/3124 VRB05KT CAVOK"
    },
    {
      "icao": "LFSB",
      "alert": "OK",
      "vis_m": 9999,
      "fzfg": false,
      "metar_trigger": false,
      "taf_trigger": false,
      "metar": "METAR LFSB 302030Z AUTO 23003KT CAVOK 19/14 Q1018 NOSIG",
      "taf": "TAF LFSB 301700Z 3018/3118 36005KT CAVOK"
    },
    {
      "icao": "LGAV",
      "alert": "OK",
      "vis_m": 9999,
      "fzfg": false,
      "metar_trigger": false,
      "taf_trigger": false,
      "metar": "METAR LGAV 302020Z 25003KT 9999 FEW025 21/08 Q1016 NOSIG",
      "taf": "TAF LGAV 301700Z 3018/3118 24008KT 9999 FEW025"
    },
    {
      "icao": "LGTS",
      "alert": "OK",
      "vis_m": 9999,
      "fzfg": false,
      "metar_trigger": false,
      "taf_trigger": false,
      "metar": "METAR LGTS 302020Z 10004KT CAVOK 19/13 Q1014 NOSIG",
      "taf": "TAF LGTS 301700Z 3018/3118 VRB03KT 9999 FEW025"
    },
    {
      "icao": "LHBP",
      "alert": "OK",
      "vis_m": 9999,
      "fzfg": false,
      "metar_trigger": false,
      "taf_trigger": false,
      "metar": "METAR LHBP 302030Z 27006KT CAVOK 20/11 Q1013 NOSIG",
      "taf": "TAF LHBP 301715Z 3018/3118 33008KT CAVOK"
    },
    {
      "icao": "LHDC",
      "alert": "OK",
      "vis_m": 9999,
      "fzfg": false,
      "metar_trigger": false,
      "taf_trigger": false,
      "metar": "METAR LHDC 302015Z AUTO VRB02KT 9999 -RA NSC 17/11 Q1013 NOSIG",
      "taf": "TAF LHDC 302015Z 3021/3106 VRB03KT CAVOK"
    },
    {
      "icao": "LIBD",
      "alert": "OK",
      "vis_m": 9999,
      "fzfg": false,
      "metar_trigger": false,
      "taf_trigger": false,
      "metar": "METAR LIBD 302020Z VRB02KT CAVOK 17/12 Q1017",
      "taf": "TAF LIBD 301700Z 3018/3118 VRB05KT CAVOK"
    },
    {
      "icao": "LIBG",
      "alert": "OK",
      "vis_m": null,
      "fzfg": false,
      "metar_trigger": false,
      "taf_trigger": false,
      "metar": "",
      "taf": "TAF LIBG 301700Z 3018/3118 VRB05KT CAVOK"
    },
    {
      "icao": "LIBP",
      "alert": "OK",
      "vis_m": 9999,
      "fzfg": false,
      "metar_trigger": false,
      "taf_trigger": false,
      "metar": "METAR LIBP 302020Z AUTO 24003KT 9999 NCD 18/14 Q1017",
      "taf": "TAF LIBP 301700Z 3018/3118 VRB05KT CAVOK"
    },
    {
      "icao": "LIBR",
      "alert": "OK",
      "vis_m": 9999,
      "fzfg": false,
      "metar_trigger": false,
      "taf_trigger": false,
      "metar": "METAR LIBR 302020Z 30004KT 250V340 CAVOK 19/18 Q1016",
      "taf": "TAF LIBR 301700Z 3018/3118 VRB05KT CAVOK"
    },
    {
      "icao": "LICA",
      "alert": "OK",
      "vis_m": 9999,
      "fzfg": false,
      "metar_trigger": false,
      "taf_trigger": false,
      "metar": "METAR LICA 302020Z AUTO VRB01KT 9999 BKN015/// 20/18 Q1018",
      "taf": "TAF LICA 301700Z 3018/3118 VRB05KT 9999 FEW015"
    },
    {
      "icao": "LICC",
      "alert": "OK",
      "vis_m": 9999,
      "fzfg": false,
      "metar_trigger": false,
      "taf_trigger": false,
      "metar": "METAR LICC 302020Z 05006KT CAVOK 22/13 Q1017",
      "taf": "TAF LICC 301700Z 3018/3118 VRB05KT 9999 FEW060"
    },
    {
      "icao": "LICJ",
      "alert": "OK",
      "vis_m": 9999,
      "fzfg": false,
      "metar_trigger": false,
      "taf_trigger": false,
      "metar": "METAR LICJ 302020Z 10004KT 070V130 CAVOK 23/18 Q1017",
      "taf": "TAF LICJ 301700Z 3018/3118 03010KT CAVOK"
    },
    {
      "icao": "LIMC",
      "alert": "OK",
      "vis_m": 9999,
      "fzfg": false,
      "metar_trigger": false,
      "taf_trigger": false,
      "metar": "METAR LIMC 302020Z 04004KT CAVOK 22/16 Q1017 NOSIG",
      "taf": "TAF LIMC 301700Z 3018/3124 VRB06KT CAVOK"
    },
    {
      "icao": "LIME",
      "alert": "OK",
      "vis_m": 9999,
      "fzfg": false,
      "metar_trigger": false,
      "taf_trigger": false,
      "metar": "METAR LIME 302020Z 01004KT CAVOK 25/16 Q1017 NOSIG",
      "taf": "TAF LIME 301700Z 3018/3118 VRB05KT CAVOK"
    },
    {
      "icao": "LIMF",
      "alert": "OK",
      "vis_m": 9999,
      "fzfg": false,
      "metar_trigger": false,
      "taf_trigger": false,
      "metar": "METAR LIMF 302020Z 35003KT CAVOK 25/16 Q1017",
      "taf": "TAF LIMF 301700Z 3018/3118 VRB06KT CAVOK"
    },
    {
      "icao": "LIMJ",
      "alert": "OK",
      "vis_m": 9999,
      "fzfg": false,
      "metar_trigger": false,
      "taf_trigger": false,
      "metar": "METAR LIMJ 302020Z 36003KT CAVOK 24/16 Q1017",
      "taf": "TAF LIMJ 301700Z 3018/3118 VRB05KT CAVOK"
    },
    {
      "icao": "LIPE",
      "alert": "OK",
      "vis_m": 9999,
      "fzfg": false,
      "metar_trigger": false,
      "taf_trigger": false,
      "metar": "METAR LIPE 302020Z VRB01KT CAVOK 24/16 Q1016",
      "taf": "TAF LIPE 301700Z 3018/3118 VRB05KT CAVOK"
    },
    {
      "icao": "LIPH",
      "alert": "OK",
      "vis_m": 9999,
      "fzfg": false,
      "metar_trigger": false,
      "taf_trigger": false,
      "metar": "METAR LIPH 302020Z 15003KT CAVOK 24/18 Q1016",
      "taf": "TAF LIPH 301700Z 3018/3118 VRB05KT CAVOK"
    },
    {
      "icao": "LIPQ",
      "alert": "OK",
      "vis_m": 9999,
      "fzfg": false,
      "metar_trigger": false,
      "taf_trigger": false,
      "metar": "METAR LIPQ 302020Z AUTO 10003KT 9999 NCD 21/17 Q1016",
      "taf": "TAF LIPQ 301700Z 3018/3118 VRB05KT CAVOK"
    },
    {
      "icao": "LIPR",
      "alert": "OK",
      "vis_m": 9999,
      "fzfg": false,
      "metar_trigger": false,
      "taf_trigger": false,
      "metar": "METAR LIPR 302020Z VRB02KT CAVOK 22/17 Q1016",
      "taf": "TAF LIPR 301700Z 3018/3118 VRB05KT CAVOK"
    },
    {
      "icao": "LIPX",
      "alert": "OK",
      "vis_m": 9999,
      "fzfg": false,
      "metar_trigger": false,
      "taf_trigger": false,
      "metar": "METAR LIPX 302020Z VRB02KT CAVOK 24/17 Q1016",
      "taf": "TAF LIPX 301700Z 3018/3118 VRB04KT CAVOK"
    },
    {
      "icao": "LIPY",
      "alert": "OK",
      "vis_m": 9999,
      "fzfg": false,
      "metar_trigger": false,
      "taf_trigger": false,
      "metar": "METAR LIPY 302020Z AUTO 16004KT 9999 FEW250/// 21/15 Q1016",
      "taf": "TAF LIPY 301700Z 3018/3118 VRB05KT CAVOK"
    },
    {
      "icao": "LIPZ",
      "alert": "OK",
      "vis_m": 9999,
      "fzfg": false,
      "metar_trigger": false,
      "taf_trigger": false,
      "metar": "METAR LIPZ 302020Z 19004KT CAVOK 25/18 Q1016 NOSIG",
      "taf": "TAF LIPZ 301700Z 3018/3124 VRB05KT CAVOK"
    },
    {
      "icao": "LIRF",
      "alert": "OK",
      "vis_m": 9999,
      "fzfg": false,
      "metar_trigger": false,
      "taf_trigger": false,
      "metar": "METAR LIRF 302020Z 00000KT CAVOK 20/19 Q1017 NOSIG",
      "taf": "TAF LIRF 301700Z 3018/3124 27010KT CAVOK"
    },
    {
      "icao": "LIRN",
      "alert": "OK",
      "vis_m": 9999,
      "fzfg": false,
      "metar_trigger": false,
      "taf_trigger": false,
      "metar": "METAR LIRN 302020Z 27003KT CAVOK 22/09 Q1018 NOSIG",
      "taf": "TAF LIRN 301700Z 3018/3118 30010KT CAVOK"
    },
    {
      "icao": "LIRP",
      "alert": "OK",
      "vis_m": 9999,
      "fzfg": false,
      "metar_trigger": false,
      "taf_trigger": false,
      "metar": "METAR LIRP 302015Z 22004KT CAVOK 20/17 Q1017 NOSIG",
      "taf": "TAF LIRP 301700Z 3018/3118 30008KT 9999 SCT030"
    },
    {
      "icao": "LIRZ",
      "alert": "OK",
      "vis_m": 9999,
      "fzfg": false,
      "metar_trigger": false,
      "taf_trigger": false,
      "metar": "METAR LIRZ 302020Z AUTO 35003KT 310V020 9999 NCD 21/14 Q1017",
      "taf": "TAF LIRZ 301700Z 3018/3118 VRB05KT CAVOK"
    },
    {
      "icao": "LJLJ",
      "alert": "OK",
      "vis_m": 9999,
      "fzfg": false,
      "metar_trigger": false,
      "taf_trigger": false,
      "metar": "METAR LJLJ 302030Z 09009KT 9999 VCTS FEW050CB SCT090 BKN250 20/15 Q1018 NOSIG",
      "taf": ""
    },
    {
      "icao": "LKMT",
      "alert": "OK",
      "vis_m": 9999,
      "fzfg": false,
      "metar_trigger": false,
      "taf_trigger": false,
      "metar": "METAR LKMT 302030Z 25002KT CAVOK 15/14 Q1015 NOSIG",
      "taf": "TAF LKMT 301700Z 3018/3118 22006KT CAVOK"
    },
    {
      "icao": "LKPR",
      "alert": "OK",
      "vis_m": 9999,
      "fzfg": false,
      "metar_trigger": false,
      "taf_trigger": false,
      "metar": "METAR LKPR 302030Z 33007KT CAVOK 16/09 Q1017 NOSIG",
      "taf": "TAF LKPR 302000Z 3021/0103 27008KT CAVOK"
    },
    {
      "icao": "LLBG",
      "alert": "OK",
      "vis_m": 9999,
      "fzfg": false,
      "metar_trigger": false,
      "taf_trigger": false,
      "metar": "METAR LLBG 302050Z VRB01KT 9999 FEW020 21/18 Q1013 NOSIG",
      "taf": "TAF LLBG 301708Z 3018/3118 VRB04KT 9999 FEW017 TX28/3111Z TN19/3103Z"
    },
    {
      "icao": "LMML",
      "alert": "OK",
      "vis_m": 9999,
      "fzfg": false,
      "metar_trigger": false,
      "taf_trigger": false,
      "metar": "METAR LMML 302045Z 22003KT 150V250 CAVOK 21/16 Q1018 NOSIG",
      "taf": "TAF LMML 301700Z 3018/3118 VRB05KT CAVOK"
    },
    {
      "icao": "LOWW",
      "alert": "OK",
      "vis_m": 9999,
      "fzfg": false,
      "metar_trigger": false,
      "taf_trigger": false,
      "metar": "METAR LOWW 302020Z 30010KT CAVOK 21/12 Q1015 NOSIG",
      "taf": "TAF LOWW 302015Z 3021/0103 30010KT 9999 FEW050 TX26/3112Z TN16/3103Z"
    },
    {
      "icao": "LPFR",
      "alert": "OK",
      "vis_m": 9999,
      "fzfg": false,
      "metar_trigger": false,
      "taf_trigger": false,
      "metar": "METAR LPFR 302030Z 30008KT CAVOK 27/16 Q1018",
      "taf": "TAF LPFR 301700Z 3018/3118 25008KT CAVOK"
    },
    {
      "icao": "LPMA",
      "alert": "OK",
      "vis_m": 9999,
      "fzfg": false,
      "metar_trigger": false,
      "taf_trigger": false,
      "metar": "METAR LPMA 302030Z 35010KT 260V040 9999 FEW015 19/13 Q1025",
      "taf": "TAF LPMA 301700Z 3018/3118 01013KT 9999 SCT015"
    },
    {
      "icao": "LPPR",
      "alert": "OK",
      "vis_m": 9999,
      "fzfg": false,
      "metar_trigger": false,
      "taf_trigger": false,
      "metar": "METAR LPPR 302030Z 35008KT CAVOK 17/14 Q1022",
      "taf": "TAF LPPR 301700Z 3018/3118 32013KT 9999 SCT015"
    },
    {
      "icao": "LPPS",
      "alert": "OK",
      "vis_m": 9999,
      "fzfg": false,
      "metar_trigger": false,
      "taf_trigger": false,
      "metar": "METAR LPPS 302030Z 36015KT 9999 SCT015 18/13 Q1025",
      "taf": "TAF LPPS 301700Z 3018/3124 01013KT 9999 SCT015"
    },
    {
      "icao": "LPPT",
      "alert": "OK",
      "vis_m": 9999,
      "fzfg": false,
      "metar_trigger": false,
      "taf_trigger": false,
      "metar": "METAR LPPT 302030Z 31012KT 290V350 9999 FEW010 17/14 Q1021",
      "taf": "TAF LPPT 301700Z 3018/3124 33013KT CAVOK"
    },
    {
      "icao": "LQBK",
      "alert": "OK",
      "vis_m": 9999,
      "fzfg": false,
      "metar_trigger": false,
      "taf_trigger": false,
      "metar": "METAR LQBK 302030Z 18003KT 140V200 CAVOK 19/12 Q1016 NOSIG",
      "taf": "TAF LQBK 301700Z 3018/3118 20005KT CAVOK TX28/3114Z TN14/3104Z"
    },
    {
      "icao": "LQSA",
      "alert": "OK",
      "vis_m": 9999,
      "fzfg": false,
      "metar_trigger": false,
      "taf_trigger": false,
      "metar": "METAR LQSA 302030Z 12004KT CAVOK 16/08 Q1018 NOSIG",
      "taf": "TAF LQSA 301700Z 3018/3118 VRB02KT CAVOK TX26/3113Z TN12/3104Z"
    },
    {
      "icao": "LQTZ",
      "alert": "OK",
      "vis_m": 9999,
      "fzfg": false,
      "metar_trigger": false,
      "taf_trigger": false,
      "metar": "METAR LQTZ 302030Z VRB02KT CAVOK 15/12 Q1016",
      "taf": "TAF LQTZ 301700Z 3018/3118 27006KT CAVOK TX27/3114Z TN10/3103Z"
    },
    {
      "icao": "LRBC",
      "alert": "OK",
      "vis_m": 9999,
      "fzfg": false,
      "metar_trigger": false,
      "taf_trigger": false,
      "metar": "METAR LRBC 302030Z 14005KT CAVOK 14/10 Q1010",
      "taf": "TAF LRBC 302000Z 3021/3106 VRB04KT CAVOK"
    },
    {
      "icao": "LRBS",
      "alert": "OK",
      "vis_m": 9999,
      "fzfg": false,
      "metar_trigger": false,
      "taf_trigger": false,
      "metar": "METAR LRBS 302030Z 08004KT CAVOK 15/11 Q1011 NOSIG",
      "taf": "TAF LRBS 301700Z 3018/3118 VRB04KT CAVOK"
    },
    {
      "icao": "LRBV",
      "alert": "OK",
      "vis_m": 9999,
      "fzfg": false,
      "metar_trigger": false,
      "taf_trigger": false,
      "metar": "METAR LRBV 302030Z AUTO 30004KT 9999 OVC078/// 14/07 Q1013",
      "taf": "TAF LRBV 301700Z 3018/3103 29008KT CAVOK"
    },
    {
      "icao": "LRCL",
      "alert": "OK",
      "vis_m": 9999,
      "fzfg": false,
      "metar_trigger": false,
      "taf_trigger": false,
      "metar": "METAR LRCL 302030Z 30010KT 270V340 CAVOK 18/10 Q1013",
      "taf": "TAF LRCL 302000Z 3021/3106 28007KT CAVOK"
    },
    {
      "icao": "LRCV",
      "alert": "OK",
      "vis_m": 9999,
      "fzfg": false,
      "metar_trigger": false,
      "taf_trigger": false,
      "metar": "METAR LRCV 302030Z 26005KT CAVOK 18/11 Q1012",
      "taf": "TAF LRCV 302000Z 3021/3106 28007KT CAVOK"
    },
    {
      "icao": "LRIA",
      "alert": "OK",
      "vis_m": 9999,
      "fzfg": false,
      "metar_trigger": false,
      "taf_trigger": false,
      "metar": "METAR LRIA 302030Z 06001KT CAVOK 15/07 Q1009",
      "taf": "TAF LRIA 302000Z 3021/3106 VRB04KT CAVOK"
    },
    {
      "icao": "LROP",
      "alert": "OK",
      "vis_m": 9999,
      "fzfg": false,
      "metar_trigger": false,
      "taf_trigger": false,
      "metar": "METAR LROP 302030Z 14004KT 080V200 CAVOK 15/12 Q1012 NOSIG",
      "taf": "TAF LROP 301700Z 3018/3118 VRB04KT CAVOK"
    },
    {
      "icao": "LRSB",
      "alert": "OK",
      "vis_m": 9999,
      "fzfg": false,
      "metar_trigger": false,
      "taf_trigger": false,
      "metar": "METAR LRSB 302030Z COR 25004KT 220V320 9999 FEW070 13/08 Q1013",
      "taf": "TAF LRSB 301700Z 3018/3118 29010KT 9999 SCT050"
    },
    {
      "icao": "LRSM",
      "alert": "OK",
      "vis_m": 9999,
      "fzfg": false,
      "metar_trigger": false,
      "taf_trigger": false,
      "metar": "METAR LRSM 302030Z AUTO 28003KT 9999 BKN055/// BKN070/// 18/12 Q1013",
      "taf": "TAF LRSM 301400Z 3015/3024 33012KT CAVOK"
    },
    {
      "icao": "LRSV",
      "alert": "OK",
      "vis_m": 9999,
      "fzfg": false,
      "metar_trigger": false,
      "taf_trigger": false,
      "metar": "METAR LRSV 302030Z 27009KT CAVOK 17/06 Q1009",
      "taf": "TAF LRSV 302000Z 3021/3106 26008KT CAVOK"
    },
    {
      "icao": "LRTM",
      "alert": "OK",
      "vis_m": 9999,
      "fzfg": false,
      "metar_trigger": false,
      "taf_trigger": false,
      "metar": "METAR LRTM 302030Z 28010KT CAVOK 18/08 Q1012",
      "taf": "TAF LRTM 302000Z 3021/3106 28008KT CAVOK"
    },
    {
      "icao": "LRTR",
      "alert": "OK",
      "vis_m": 9999,
      "fzfg": false,
      "metar_trigger": false,
      "taf_trigger": false,
      "metar": "METAR LRTR 302030Z 29004KT 270V330 CAVOK 17/11 Q1014",
      "taf": "TAF LRTR 301700Z 3018/3118 VRB04KT CAVOK"
    },
    {
      "icao": "LTAC",
      "alert": "OK",
      "vis_m": 9999,
      "fzfg": false,
      "metar_trigger": false,
      "taf_trigger": false,
      "metar": "METAR LTAC 302020Z 27004KT 9999 SCT040 11/04 Q1015 NOSIG RMK RWY21C 29004KT 250V320 RWY03L 27003KT RWY21R 28004KT 240V310 RWY03R 27005KT RWY21L 28003KT 240V350",
      "taf": "TAF LTAC 301640Z 3018/3118 25007KT 9999 SCT040"
    },
    {
      "icao": "LTFM",
      "alert": "OK",
      "vis_m": 9999,
      "fzfg": false,
      "metar_trigger": false,
      "taf_trigger": false,
      "metar": "METAR LTFM 302020Z 04009KT 9999 FEW040 18/14 Q1014 NOSIG RMK RWY17L 03006KT 340V070 RWY34L 35007KT 310V050 RWY16R 07010KT 010V090 RWY36 03008KT 350V070 RWY18 07008KT 020V090",
      "taf": "TAF LTFM 301640Z 3018/3124 23012KT 9999 SCT040"
    },
    {
      "icao": "LUKK",
      "alert": "OK",
      "vis_m": 9999,
      "fzfg": false,
      "metar_trigger": false,
      "taf_trigger": false,
      "metar": "METAR LUKK 302030Z VRB01KT CAVOK 11/09 Q1010 NOSIG",
      "taf": "TAF LUKK 301703Z 3018/3118 VRB05KT CAVOK"
    },
    {
      "icao": "LWOH",
      "alert": "OK",
      "vis_m": 9999,
      "fzfg": false,
      "metar_trigger": false,
      "taf_trigger": false,
      "metar": "METAR LWOH 302020Z 10003KT 050V140 CAVOK 16/12 Q1018",
      "taf": "TAF LWOH 302005Z 3021/3121 32006KT CAVOK"
    },
    {
      "icao": "LWSK",
      "alert": "OK",
      "vis_m": 9999,
      "fzfg": false,
      "metar_trigger": false,
      "taf_trigger": false,
      "metar": "METAR LWSK 302050Z 16005KT 130V210 CAVOK 18/09 Q1016 NOSIG",
      "taf": "TAF LWSK 302005Z 3021/3121 VRB03KT CAVOK"
    },
    {
      "icao": "LYBE",
      "alert": "OK",
      "vis_m": 9999,
      "fzfg": false,
      "metar_trigger": false,
      "taf_trigger": false,
      "metar": "METAR LYBE 302030Z 25005KT CAVOK 20/11 Q1015 NOSIG",
      "taf": "TAF LYBE 301700Z 3018/3118 26006KT CAVOK TX30/3113Z TN15/3104Z"
    },
    {
      "icao": "LYNI",
      "alert": "OK",
      "vis_m": 9999,
      "fzfg": false,
      "metar_trigger": false,
      "taf_trigger": false,
      "metar": "METAR LYNI 302030Z 11003KT 080V140 CAVOK 19/11 Q1015 NOSIG",
      "taf": "TAF LYNI 301700Z 3018/3118 10005KT CAVOK TX28/3113Z TN12/3104Z"
    },
    {
      "icao": "LYPG",
      "alert": "OK",
      "vis_m": 9999,
      "fzfg": false,
      "metar_trigger": false,
      "taf_trigger": false,
      "metar": "METAR LYPG 302030Z VRB02KT CAVOK 21/09 Q1016 NOSIG",
      "taf": "TAF LYPG 301700Z 3018/3118 36008KT CAVOK TX30/3114Z TN18/3103Z"
    },
    {
      "icao": "LZIB",
      "alert": "OK",
      "vis_m": 9999,
      "fzfg": false,
      "metar_trigger": false,
      "taf_trigger": false,
      "metar": "METAR LZIB 302030Z 29013KT CAVOK 20/14 Q1014 NOSIG",
      "taf": ""
    },
    {
      "icao": "LZKZ",
      "alert": "OK",
      "vis_m": 9999,
      "fzfg": false,
      "metar_trigger": false,
      "taf_trigger": false,
      "metar": "METAR LZKZ 302030Z 31003KT 270V350 9999 -RA NSC 16/14 Q1013 NOSIG",
      "taf": "TAF LZKZ 301715Z 3018/3118 35010KT CAVOK"
    },
    {
      "icao": "LZTT",
      "alert": "OK",
      "vis_m": 9999,
      "fzfg": false,
      "metar_trigger": false,
      "taf_trigger": false,
      "metar": "METAR LZTT 302030Z 31007KT 9999 FEW016 BKN056 13/13 Q1014",
      "taf": ""
    },
    {
      "icao": "OEJN",
      "alert": "OK",
      "vis_m": 9999,
      "fzfg": false,
      "metar_trigger": false,
      "taf_trigger": false,
      "metar": "METAR OEJN 302000Z 36007KT CAVOK 29/15 Q1007 NOSIG",
      "taf": "TAF OEJN 301700Z 3018/3124 36010KT CAVOK"
    },
    {
      "icao": "OEMA",
      "alert": "OK",
      "vis_m": 9999,
      "fzfg": false,
      "metar_trigger": false,
      "taf_trigger": false,
      "metar": "METAR OEMA 302000Z 25009KT CAVOK 35/02 Q1012 NOSIG",
      "taf": "TAF OEMA 301700Z 3018/3124 27006KT CAVOK"
    },
    {
      "icao": "OJAI",
      "alert": "OK",
      "vis_m": 5000,
      "fzfg": false,
      "metar_trigger": false,
      "taf_trigger": false,
      "metar": "METAR OJAI 302000Z 27006KT 5000 HZ NSC 18/06 Q1017 NOSIG",
      "taf": "TAF OJAI 301700Z 3018/3124 29010KT 5000 HZ NSC"
    },
    {
      "icao": "OMAA",
      "alert": "OK",
      "vis_m": 9999,
      "fzfg": false,
      "metar_trigger": false,
      "taf_trigger": false,
      "metar": "METAR OMAA 302030Z 26003KT CAVOK 31/23 Q1003 NOSIG",
      "taf": "TAF OMAA 301700Z 3018/0100 24005KT 8000 NSC"
    },
    {
      "icao": "OMDB",
      "alert": "OK",
      "vis_m": 9999,
      "fzfg": false,
      "metar_trigger": false,
      "taf_trigger": false,
      "metar": "METAR OMDB 302030Z 19008KT CAVOK 32/18 Q1002 NOSIG",
      "taf": "TAF OMDB 301700Z 3018/0100 20007KT CAVOK"
    },
    {
      "icao": "UAAA",
      "alert": "OK",
      "vis_m": 9999,
      "fzfg": false,
      "metar_trigger": false,
      "taf_trigger": false,
      "metar": "METAR UAAA 302030Z 27003MPS 190V320 9999 SCT050 BKN100 20/13 Q1009 NOSIG",
      "taf": "TAF UAAA 301702Z 3018/3118 17003MPS 9999 SCT050CB BKN100 TX31/3110Z TN17/3101Z"
    },
    {
      "icao": "UBBB",
      "alert": "OK",
      "vis_m": 9999,
      "fzfg": false,
      "metar_trigger": false,
      "taf_trigger": false,
      "metar": "METAR UBBB 302030Z 00000KT 9999 BKN030 15/13 Q1013 NOSIG",
      "taf": "TAF UBBB 301705Z 3018/3118 33005KT 9999 SCT012 FEW050CB TX22/3110Z TN13/3100Z"
    },
    {
      "icao": "UDSG",
      "alert": "OK",
      "vis_m": 9999,
      "fzfg": false,
      "metar_trigger": false,
      "taf_trigger": false,
      "metar": "METAR UDSG 302030Z 03002KT 9999 FEW049 04/02 Q1016 NOSIG",
      "taf": "TAF UDSG 301658Z 3018/3118 VRB06KT 9999 FEW050"
    },
    {
      "icao": "UDYZ",
      "alert": "OK",
      "vis_m": 9999,
      "fzfg": false,
      "metar_trigger": false,
      "taf_trigger": false,
      "metar": "METAR UDYZ 302030Z 27004KT 9999 FEW046 13/03 Q1012 NOSIG",
      "taf": "TAF UDYZ 301700Z 3018/3118 06006KT 9999 FEW040"
    },
    {
      "icao": "UGKO",
      "alert": "OK",
      "vis_m": 9999,
      "fzfg": false,
      "metar_trigger": false,
      "taf_trigger": false,
      "metar": "METAR UGKO 302030Z 09008KT CAVOK 09/08 Q1015 NOSIG",
      "taf": "TAF UGKO 301700Z 3018/3118 09007KT CAVOK TX17/3111Z TN10/3102Z"
    }
  ]
}