{
  "ts_utc": "2026-05-10T17:07:47Z",
  "threshold_m": 150,
  "source": "stations_override.txt (ICAO list) + aviationweather.gov (METAR/TAF raw)",
  "station_count": 159,
  "stations": [
    {
      "icao": "BIKF",
      "alert": "OK",
      "vis_m": 7000,
      "fzfg": false,
      "metar_trigger": false,
      "taf_trigger": false,
      "metar": "METAR BIKF 101700Z 22010KT 7000 DZ OVC003 07/07 Q1017",
      "taf": "TAF BIKF 101622Z 1018/1118 22012KT 7000 -RADZ BKN005 TX08/1114Z TN05/1110Z"
    },
    {
      "icao": "BKPR",
      "alert": "OK",
      "vis_m": 9999,
      "fzfg": false,
      "metar_trigger": false,
      "taf_trigger": false,
      "metar": "METAR BKPR 101700Z 24002KT CAVOK 22/10 Q1013 NOSIG",
      "taf": "TAF BKPR 101130Z 1012/1112 VRB03KT 9999 FEW030 BKN100"
    },
    {
      "icao": "EBCI",
      "alert": "OK",
      "vis_m": 9999,
      "fzfg": false,
      "metar_trigger": false,
      "taf_trigger": false,
      "metar": "METAR EBCI 101650Z 02009KT CAVOK 16/08 Q1009 NOSIG",
      "taf": "TAF EBCI 101118Z 1012/1118 03010KT 9999 SCT035"
    },
    {
      "icao": "EDDB",
      "alert": "OK",
      "vis_m": 9999,
      "fzfg": false,
      "metar_trigger": false,
      "taf_trigger": false,
      "metar": "METAR EDDB 101650Z AUTO 21001KT CAVOK 20/06 Q1009 NOSIG",
      "taf": "TAF EDDB 101100Z 1012/1112 24004KT CAVOK"
    },
    {
      "icao": "EDDH",
      "alert": "OK",
      "vis_m": 9999,
      "fzfg": false,
      "metar_trigger": false,
      "taf_trigger": false,
      "metar": "METAR EDDH 101650Z AUTO 01007KT 340V050 CAVOK 16/07 Q1010 NOSIG",
      "taf": "TAF EDDH 101100Z 1012/1118 VRB03KT CAVOK"
    },
    {
      "icao": "EDDK",
      "alert": "OK",
      "vis_m": 9999,
      "fzfg": false,
      "metar_trigger": false,
      "taf_trigger": false,
      "metar": "METAR EDDK 101650Z AUTO 02006KT 350V060 CAVOK 20/09 Q1008 NOSIG",
      "taf": "TAF EDDK 101100Z 1012/1118 35008KT CAVOK"
    },
    {
      "icao": "EDDN",
      "alert": "OK",
      "vis_m": 9999,
      "fzfg": false,
      "metar_trigger": false,
      "taf_trigger": false,
      "metar": "METAR EDDN 101650Z AUTO 07004KT CAVOK 22/06 Q1006 NOSIG",
      "taf": "TAF EDDN 101100Z 1012/1112 11009KT CAVOK"
    },
    {
      "icao": "EDDS",
      "alert": "OK",
      "vis_m": 9999,
      "fzfg": false,
      "metar_trigger": false,
      "taf_trigger": false,
      "metar": "METAR EDDS 101650Z AUTO 08006KT 9999 -SHRA FEW035 FEW///CB 21/10 Q1006 TEMPO SHRA BKN030CB",
      "taf": "TAF EDDS 101100Z 1012/1112 03006KT CAVOK"
    },
    {
      "icao": "EDFH",
      "alert": "OK",
      "vis_m": 9999,
      "fzfg": false,
      "metar_trigger": false,
      "taf_trigger": false,
      "metar": "METAR EDFH 101650Z 01010KT 9999 FEW090CB 17/10 Q1007",
      "taf": "TAF EDFH 101100Z 1012/1112 03008KT CAVOK"
    },
    {
      "icao": "EDJA",
      "alert": "OK",
      "vis_m": 9999,
      "fzfg": false,
      "metar_trigger": false,
      "taf_trigger": false,
      "metar": "METAR EDJA 101650Z 13004KT 070V200 9999 BKN062 16/11 Q1008",
      "taf": "TAF EDJA 101400Z 1015/1024 24007KT 9999 SCT040"
    },
    {
      "icao": "EDLW",
      "alert": "OK",
      "vis_m": 9999,
      "fzfg": false,
      "metar_trigger": false,
      "taf_trigger": false,
      "metar": "METAR EDLW 101650Z 36007KT CAVOK 18/09 Q1008",
      "taf": "TAF EDLW 101100Z 1012/1112 35005KT CAVOK"
    },
    {
      "icao": "EDNY",
      "alert": "OK",
      "vis_m": 9999,
      "fzfg": false,
      "metar_trigger": false,
      "taf_trigger": false,
      "metar": "METAR EDNY 101650Z 19003KT 160V220 9999 FEW056 BKN078CB 20/07 Q1007",
      "taf": "TAF EDNY 101400Z 1015/1024 24007KT 9999 SCT055"
    },
    {
      "icao": "EDSB",
      "alert": "OK",
      "vis_m": 1600,
      "fzfg": false,
      "metar_trigger": false,
      "taf_trigger": false,
      "metar": "METAR EDSB 101650Z 18022KT 1600 1300 R21/P2000N TSRA FEW012 BKN040 OVC051CB 15/13 Q1007",
      "taf": "TAF EDSB 101100Z 1012/1112 01006KT CAVOK"
    },
    {
      "icao": "EETN",
      "alert": "OK",
      "vis_m": 9999,
      "fzfg": false,
      "metar_trigger": false,
      "taf_trigger": false,
      "metar": "METAR EETN 101650Z 18003KT CAVOK 13/03 Q1011 NOSIG",
      "taf": "TAF EETN 101130Z 1012/1112 04010KT 9999 BKN045"
    },
    {
      "icao": "EFTU",
      "alert": "OK",
      "vis_m": 9999,
      "fzfg": false,
      "metar_trigger": false,
      "taf_trigger": false,
      "metar": "METAR EFTU 101650Z AUTO 19009KT 170V230 CAVOK 13/M02 Q1010",
      "taf": "TAF EFTU 101432Z 1015/1115 19009KT CAVOK"
    },
    {
      "icao": "EGBB",
      "alert": "OK",
      "vis_m": 9999,
      "fzfg": false,
      "metar_trigger": false,
      "taf_trigger": false,
      "metar": "METAR EGBB 101650Z 02009KT CAVOK 13/M00 Q1016",
      "taf": "TAF EGBB 101053Z 1012/1112 03010KT 9999 SCT040"
    },
    {
      "icao": "EGGP",
      "alert": "OK",
      "vis_m": 9999,
      "fzfg": false,
      "metar_trigger": false,
      "taf_trigger": false,
      "metar": "METAR EGGP 101650Z 34011KT 310V010 9999 SCT044 12/01 Q1017",
      "taf": ""
    },
    {
      "icao": "EGGW",
      "alert": "OK",
      "vis_m": 9999,
      "fzfg": false,
      "metar_trigger": false,
      "taf_trigger": false,
      "metar": "METAR EGGW 101650Z AUTO 02015KT 9999 BKN045 12/02 Q1015",
      "taf": "TAF EGGW 101058Z 1012/1112 03010KT 9999 SCT040"
    },
    {
      "icao": "EGKK",
      "alert": "OK",
      "vis_m": 9999,
      "fzfg": false,
      "metar_trigger": false,
      "taf_trigger": false,
      "metar": "METAR EGKK 101650Z 06011KT 9999 FEW025 SCT034 11/07 Q1014",
      "taf": "TAF EGKK 101101Z 1012/1118 03013KT 9999 SCT035"
    },
    {
      "icao": "EGNM",
      "alert": "OK",
      "vis_m": 9999,
      "fzfg": false,
      "metar_trigger": false,
      "taf_trigger": false,
      "metar": "METAR EGNM 101650Z VRB02KT CAVOK 10/M01 Q1016",
      "taf": "TAF EGNM 101100Z 1012/1112 03009KT 9999 FEW015"
    },
    {
      "icao": "EGPD",
      "alert": "OK",
      "vis_m": 9999,
      "fzfg": false,
      "metar_trigger": false,
      "taf_trigger": false,
      "metar": "METAR EGPD 101650Z AUTO 27010KT 250V310 9999 -RA SCT037 BKN045 10/05 Q1012 TEMPO RA",
      "taf": "TAF EGPD 101057Z 1012/1112 30008KT 9999 SCT030"
    },
    {
      "icao": "EGPF",
      "alert": "OK",
      "vis_m": 9999,
      "fzfg": false,
      "metar_trigger": false,
      "taf_trigger": false,
      "metar": "METAR EGPF 101650Z AUTO 27013KT 9999 BKN035 12/03 Q1017",
      "taf": "TAF EGPF 101058Z 1012/1112 29009KT 9999 FEW030"
    },
    {
      "icao": "EHBK",
      "alert": "OK",
      "vis_m": 9999,
      "fzfg": false,
      "metar_trigger": false,
      "taf_trigger": false,
      "metar": "METAR EHBK 101655Z AUTO 01010KT 340V050 9999 NSC 17/08 Q1009 NOSIG",
      "taf": "TAF EHBK 101114Z 1012/1118 03010KT CAVOK"
    },
    {
      "icao": "EHEH",
      "alert": "OK",
      "vis_m": 9999,
      "fzfg": false,
      "metar_trigger": false,
      "taf_trigger": false,
      "metar": "METAR EHEH 101655Z AUTO 01008KT 340V070 9999 BKN048 BKN170 BKN260 17/07 Q1009 BLU NOSIG RMK TREND REMOTE BY EHWX",
      "taf": "TAF EHEH 101115Z 1012/1118 03008G18KT 9999 SCT040"
    },
    {
      "icao": "EKBI",
      "alert": "OK",
      "vis_m": 9999,
      "fzfg": false,
      "metar_trigger": false,
      "taf_trigger": false,
      "metar": "METAR EKBI 101650Z AUTO 30012KT 260V330 9999 NCD 10/M00 Q1012",
      "taf": "TAF EKBI 101427Z 1015/1115 33008KT 9999 SCT040"
    },
    {
      "icao": "EKCH",
      "alert": "OK",
      "vis_m": 9999,
      "fzfg": false,
      "metar_trigger": false,
      "taf_trigger": false,
      "metar": "METAR EKCH 101650Z AUTO 02006KT 9999 FEW100/// 12/07 Q1010 NOSIG",
      "taf": "TAF EKCH 101427Z 1015/1115 20006KT CAVOK"
    },
    {
      "icao": "ENAL",
      "alert": "OK",
      "vis_m": 9999,
      "fzfg": false,
      "metar_trigger": false,
      "taf_trigger": false,
      "metar": "METAR ENAL 101650Z 23006KT 9999 VCSH FEW012TCU SCT016 BKN053 03/01 Q1010",
      "taf": ""
    },
    {
      "icao": "ENBR",
      "alert": "OK",
      "vis_m": 9999,
      "fzfg": false,
      "metar_trigger": false,
      "taf_trigger": false,
      "metar": "METAR ENBR 101650Z 30006KT 9999 VCSH SCT025 SCT039 05/M01 Q1010 TEMPO SHRA BKN014TCU RMK WIND 1200FT 27009KT",
      "taf": "TAF ENBR 101100Z 1012/1112 30005KT 9999 -SHRA FEW015 BKN035"
    },
    {
      "icao": "ENGM",
      "alert": "OK",
      "vis_m": 9999,
      "fzfg": false,
      "metar_trigger": false,
      "taf_trigger": false,
      "metar": "METAR ENGM 101650Z 18010KT 9999 VCSH FEW040CB 09/M02 Q1005 NOSIG",
      "taf": "TAF ENGM 101100Z 1012/1112 16010KT 9999 SCT020"
    },
    {
      "icao": "ENHD",
      "alert": "OK",
      "vis_m": 9999,
      "fzfg": false,
      "metar_trigger": false,
      "taf_trigger": false,
      "metar": "METAR ENHD 101650Z 26010KT 9999 -SHRA FEW019TCU SCT027 BKN038 06/01 Q1011",
      "taf": ""
    },
    {
      "icao": "ENTC",
      "alert": "OK",
      "vis_m": 9999,
      "fzfg": false,
      "metar_trigger": false,
      "taf_trigger": false,
      "metar": "METAR ENTC 101650Z 03007KT CAVOK 07/02 Q1007 NOSIG RMK WIND 2600FT 18007KT",
      "taf": "TAF ENTC 101100Z 1012/1112 18006KT 9999 FEW030"
    },
    {
      "icao": "ENTO",
      "alert": "OK",
      "vis_m": 9999,
      "fzfg": false,
      "metar_trigger": false,
      "taf_trigger": false,
      "metar": "METAR ENTO 101650Z 20013KT 9999 FEW030TCU 10/02 Q1007 NOSIG",
      "taf": "TAF ENTO 101100Z 1012/1112 35008KT 9999 SCT020"
    },
    {
      "icao": "ENVA",
      "alert": "OK",
      "vis_m": 9999,
      "fzfg": false,
      "metar_trigger": false,
      "taf_trigger": false,
      "metar": "METAR ENVA 101650Z 28012KT 9999 VCSH FEW040 BKN048 07/M02 Q1008 RMK WIND 670FT 25007KT",
      "taf": "TAF ENVA 101100Z 1012/1112 28010KT 9999 SCT045"
    },
    {
      "icao": "ENZV",
      "alert": "OK",
      "vis_m": 9999,
      "fzfg": false,
      "metar_trigger": false,
      "taf_trigger": false,
      "metar": "METAR ENZV 101650Z 30011KT 9999 FEW019 07/02 Q1011 TEMPO SCT020CB",
      "taf": "TAF ENZV 101100Z 1012/1112 30009KT 9999 FEW015 SCT025"
    },
    {
      "icao": "EPGD",
      "alert": "OK",
      "vis_m": 9999,
      "fzfg": false,
      "metar_trigger": false,
      "taf_trigger": false,
      "metar": "METAR EPGD 101700Z 09007KT CAVOK 15/02 Q1010",
      "taf": "TAF EPGD 101130Z 1012/1112 VRB04KT CAVOK"
    },
    {
      "icao": "EPKK",
      "alert": "OK",
      "vis_m": 9999,
      "fzfg": false,
      "metar_trigger": false,
      "taf_trigger": false,
      "metar": "METAR EPKK 101700Z 06010KT CAVOK 18/04 Q1011",
      "taf": "TAF EPKK 101430Z 1015/1115 08010KT CAVOK"
    },
    {
      "icao": "EPKT",
      "alert": "OK",
      "vis_m": 9999,
      "fzfg": false,
      "metar_trigger": false,
      "taf_trigger": false,
      "metar": "METAR EPKT 101700Z 10009KT CAVOK 18/04 Q1011",
      "taf": "TAF EPKT 101130Z 1012/1112 12010KT CAVOK"
    },
    {
      "icao": "EPLB",
      "alert": "OK",
      "vis_m": 9999,
      "fzfg": false,
      "metar_trigger": false,
      "taf_trigger": false,
      "metar": "METAR EPLB 101700Z 08006KT CAVOK 16/07 Q1013",
      "taf": "TAF EPLB 101130Z 1012/1112 VRB03KT CAVOK"
    },
    {
      "icao": "EPMO",
      "alert": "OK",
      "vis_m": 9999,
      "fzfg": false,
      "metar_trigger": false,
      "taf_trigger": false,
      "metar": "METAR EPMO 101700Z 06003KT 350V090 CAVOK 19/M02 Q1012",
      "taf": "TAF EPMO 101130Z 1012/1112 VRB03KT CAVOK"
    },
    {
      "icao": "EPPO",
      "alert": "OK",
      "vis_m": 9999,
      "fzfg": false,
      "metar_trigger": false,
      "taf_trigger": false,
      "metar": "METAR EPPO 101700Z 20007KT CAVOK 19/03 Q1010",
      "taf": "TAF EPPO 101130Z 1012/1112 16010KT CAVOK"
    },
    {
      "icao": "EPRA",
      "alert": "OK",
      "vis_m": 9999,
      "fzfg": false,
      "metar_trigger": false,
      "taf_trigger": false,
      "metar": "METAR EPRA 101700Z 27002KT CAVOK 18/01 Q1012",
      "taf": "TAF EPRA 101430Z 1015/1024 VRB02KT CAVOK"
    },
    {
      "icao": "EPRZ",
      "alert": "OK",
      "vis_m": 9999,
      "fzfg": false,
      "metar_trigger": false,
      "taf_trigger": false,
      "metar": "METAR EPRZ 101700Z 11006KT CAVOK 17/04 Q1013",
      "taf": "TAF EPRZ 101130Z 1012/1112 VRB05KT CAVOK"
    },
    {
      "icao": "EPSC",
      "alert": "OK",
      "vis_m": 9999,
      "fzfg": false,
      "metar_trigger": false,
      "taf_trigger": false,
      "metar": "METAR EPSC 101700Z 29012KT CAVOK 16/07 Q1010",
      "taf": ""
    },
    {
      "icao": "EPSY",
      "alert": "OK",
      "vis_m": 9999,
      "fzfg": false,
      "metar_trigger": false,
      "taf_trigger": false,
      "metar": "METAR EPSY 101700Z 14005KT 100V180 CAVOK 17/01 Q1012",
      "taf": "TAF EPSY 101430Z 1015/1024 VRB02KT CAVOK"
    },
    {
      "icao": "EPWA",
      "alert": "OK",
      "vis_m": 9999,
      "fzfg": false,
      "metar_trigger": false,
      "taf_trigger": false,
      "metar": "METAR EPWA 101700Z 20003KT CAVOK 19/M03 Q1012 NOSIG",
      "taf": "TAF EPWA 101430Z 1015/1115 VRB05KT CAVOK"
    },
    {
      "icao": "EPWR",
      "alert": "OK",
      "vis_m": 9999,
      "fzfg": false,
      "metar_trigger": false,
      "taf_trigger": false,
      "metar": "METAR EPWR 101700Z 10005KT CAVOK 20/04 Q1010",
      "taf": "TAF EPWR 101430Z 1015/1115 14010KT CAVOK"
    },
    {
      "icao": "ESGG",
      "alert": "OK",
      "vis_m": 9999,
      "fzfg": false,
      "metar_trigger": false,
      "taf_trigger": false,
      "metar": "METAR ESGG 101650Z 25009KT 220V280 9999 SCT033 10/00 Q1009",
      "taf": "TAF ESGG 101430Z 1015/1115 26010KT 9999 SCT020 BKN025"
    },
    {
      "icao": "ESKN",
      "alert": "OK",
      "vis_m": 9999,
      "fzfg": false,
      "metar_trigger": false,
      "taf_trigger": false,
      "metar": "METAR ESKN 101650Z 21009KT 170V240 9999 -RA BKN080 12/04 Q1007",
      "taf": "TAF ESKN 101430Z 1015/1115 14012KT CAVOK"
    },
    {
      "icao": "ESMS",
      "alert": "OK",
      "vis_m": 9999,
      "fzfg": false,
      "metar_trigger": false,
      "taf_trigger": false,
      "metar": "METAR ESMS 101650Z 27005KT CAVOK 14/05 Q1010",
      "taf": "TAF ESMS 101427Z 1015/1115 24006KT CAVOK"
    },
    {
      "icao": "ESSA",
      "alert": "OK",
      "vis_m": 9999,
      "fzfg": false,
      "metar_trigger": false,
      "taf_trigger": false,
      "metar": "METAR ESSA 101650Z 18017KT 9999 NSC 12/M05 Q1007 NOSIG",
      "taf": "TAF ESSA 101430Z 1015/1115 18013G24KT CAVOK"
    },
    {
      "icao": "EYKA",
      "alert": "OK",
      "vis_m": 9999,
      "fzfg": false,
      "metar_trigger": false,
      "taf_trigger": false,
      "metar": "METAR EYKA 101650Z 16004KT 9999 FEW024 10/06 Q1014",
      "taf": "TAF EYKA 101700Z 1018/1118 VRB03KT 5000 MIFG BR SCT025"
    },
    {
      "icao": "EYPA",
      "alert": "OK",
      "vis_m": 9999,
      "fzfg": false,
      "metar_trigger": false,
      "taf_trigger": false,
      "metar": "METAR EYPA 101650Z VRB02KT CAVOK 12/M01 Q1012",
      "taf": "TAF EYPA 101700Z 1018/1118 VRB03KT 9000 NSC"
    },
    {
      "icao": "EYVI",
      "alert": "OK",
      "vis_m": 9999,
      "fzfg": false,
      "metar_trigger": false,
      "taf_trigger": false,
      "metar": "METAR EYVI 101650Z 24003KT 9999 BKN015 BKN023 09/06 Q1014 NOSIG",
      "taf": "TAF EYVI 101700Z 1018/1118 VRB03KT 8000 SCT010 BKN015"
    },
    {
      "icao": "GCFV",
      "alert": "OK",
      "vis_m": 9999,
      "fzfg": false,
      "metar_trigger": false,
      "taf_trigger": false,
      "metar": "METAR GCFV 101700Z 13004KT 080V180 9999 FEW030 BKN045 21/14 Q1016",
      "taf": "TAF GCFV 101400Z 1015/1115 08006KT 9999 FEW030 SCT045 TX24/1114Z TN17/1106Z"
    },
    {
      "icao": "GCLP",
      "alert": "OK",
      "vis_m": 9999,
      "fzfg": false,
      "metar_trigger": false,
      "taf_trigger": false,
      "metar": "METAR GCLP 101700Z 01005KT 340V050 9999 BKN035 21/14 Q1016 NOSIG",
      "taf": "TAF GCLP 101400Z 1015/1115 20005KT 9999 FEW025 BKN040 TX23/1114Z TN17/1106Z"
    },
    {
      "icao": "GCTS",
      "alert": "OK",
      "vis_m": 9999,
      "fzfg": false,
      "metar_trigger": false,
      "taf_trigger": false,
      "metar": "METAR GCTS 101700Z VRB03KT 9999 -RA FEW025 BKN045 20/15 Q1016 NOSIG",
      "taf": "TAF GCTS 101400Z 1015/1115 19008KT 9999 FEW030 BKN060 TX23/1114Z TN16/1106Z"
    },
    {
      "icao": "GMAD",
      "alert": "OK",
      "vis_m": 9999,
      "fzfg": false,
      "metar_trigger": false,
      "taf_trigger": false,
      "metar": "METAR GMAD 101700Z 26013KT CAVOK 23/11 Q1014 NOSIG",
      "taf": "TAF GMAD 101100Z 1012/1118 26012KT 8000 SCT020"
    },
    {
      "icao": "GMMN",
      "alert": "OK",
      "vis_m": 9999,
      "fzfg": false,
      "metar_trigger": false,
      "taf_trigger": false,
      "metar": "METAR GMMN 101700Z 33014KT 9999 BKN030 20/14 Q1016 NOSIG",
      "taf": "TAF GMMN 101100Z 1012/1118 23014KT 9999 BKN020"
    },
    {
      "icao": "GMMX",
      "alert": "OK",
      "vis_m": 9999,
      "fzfg": false,
      "metar_trigger": false,
      "taf_trigger": false,
      "metar": "METAR GMMX 101700Z 32006KT 270V020 CAVOK 26/10 Q1015 NOSIG",
      "taf": "TAF GMMX 101100Z 1012/1118 32015KT CAVOK"
    },
    {
      "icao": "HEGN",
      "alert": "OK",
      "vis_m": 9999,
      "fzfg": false,
      "metar_trigger": false,
      "taf_trigger": false,
      "metar": "METAR HEGN 101600Z 35013KT CAVOK 28/14 Q1010 NOSIG",
      "taf": "TAF HEGN 101700Z 1018/1124 33010G20KT CAVOK"
    },
    {
      "icao": "HEMA",
      "alert": "OK",
      "vis_m": 9999,
      "fzfg": false,
      "metar_trigger": false,
      "taf_trigger": false,
      "metar": "METAR HEMA 101600Z 34015KT CAVOK 30/09 Q1010 NOSIG",
      "taf": "TAF HEMA 101700Z 1018/1124 32010G20KT CAVOK"
    },
    {
      "icao": "HESH",
      "alert": "OK",
      "vis_m": 9999,
      "fzfg": false,
      "metar_trigger": false,
      "taf_trigger": false,
      "metar": "METAR HESH 101600Z 34012KT CAVOK 33/08 Q1009 NOSIG",
      "taf": "TAF HESH 101700Z 1018/1124 36010G20KT CAVOK"
    },
    {
      "icao": "HESX",
      "alert": "OK",
      "vis_m": 9999,
      "fzfg": false,
      "metar_trigger": false,
      "taf_trigger": false,
      "metar": "METAR HESX 101600Z 01014KT CAVOK 30/09 Q1014 NOSIG",
      "taf": "TAF HESX 101700Z 1018/1124 01014KT CAVOK"
    },
    {
      "icao": "LATI",
      "alert": "OK",
      "vis_m": 9999,
      "fzfg": false,
      "metar_trigger": false,
      "taf_trigger": false,
      "metar": "METAR LATI 101650Z 31007KT 9999 FEW120 21/16 Q1014 NOSIG",
      "taf": "TAF LATI 101700Z 1018/1118 VRB05KT 9999 SCT040 BKN080 TX25/1112Z TN15/1104Z"
    },
    {
      "icao": "LBPD",
      "alert": "OK",
      "vis_m": 9999,
      "fzfg": false,
      "metar_trigger": false,
      "taf_trigger": false,
      "metar": "METAR LBPD 101700Z AUTO 15010KT 9999 BKN100/// OVC120/// 21/12 Q1012 NOSIG",
      "taf": "TAF LBPD 101100Z 1012/1112 30012KT 9999 SCT060"
    },
    {
      "icao": "LBSF",
      "alert": "OK",
      "vis_m": 9999,
      "fzfg": false,
      "metar_trigger": false,
      "taf_trigger": false,
      "metar": "METAR LBSF 101700Z AUTO 05003KT 020V080 9999 SCT090/// 20/10 Q1013 NOSIG",
      "taf": "TAF LBSF 101100Z 1012/1112 34010KT 9999 SCT040 SCT060"
    },
    {
      "icao": "LBWN",
      "alert": "OK",
      "vis_m": 9999,
      "fzfg": false,
      "metar_trigger": false,
      "taf_trigger": false,
      "metar": "METAR LBWN 101700Z AUTO 01004KT 9999 NCD 18/13 Q1013 NOSIG",
      "taf": "TAF LBWN 101100Z 1012/1112 30010KT 9999 SCT015 BKN030"
    },
    {
      "icao": "LCLK",
      "alert": "OK",
      "vis_m": 9999,
      "fzfg": false,
      "metar_trigger": false,
      "taf_trigger": false,
      "metar": "METAR LCLK 101700Z VRB03KT CAVOK 24/14 Q1013 NOSIG",
      "taf": "TAF LCLK 101130Z 1012/1112 22015KT 9999 FEW030"
    },
    {
      "icao": "LCPH",
      "alert": "OK",
      "vis_m": 9999,
      "fzfg": false,
      "metar_trigger": false,
      "taf_trigger": false,
      "metar": "METAR LCPH 101700Z 32010KT CAVOK 20/13 Q1014 NOSIG",
      "taf": "TAF LCPH 101130Z 1012/1112 29015KT 9999 FEW030"
    },
    {
      "icao": "LEAL",
      "alert": "OK",
      "vis_m": 9999,
      "fzfg": false,
      "metar_trigger": false,
      "taf_trigger": false,
      "metar": "METAR LEAL 101700Z 18010KT 140V230 9999 FEW035 24/14 Q1011 NOSIG",
      "taf": "TAF LEAL 101100Z 1012/1112 18010KT 9999 FEW035 TX25/1012Z TN16/1105Z"
    },
    {
      "icao": "LEBB",
      "alert": "OK",
      "vis_m": 9000,
      "fzfg": false,
      "metar_trigger": false,
      "taf_trigger": false,
      "metar": "METAR LEBB 101700Z VRB02KT 9000 FEW026 SCT069 18/13 Q1008 RESHRA NOSIG",
      "taf": ""
    },
    {
      "icao": "LEBL",
      "alert": "OK",
      "vis_m": 9999,
      "fzfg": false,
      "metar_trigger": false,
      "taf_trigger": false,
      "metar": "METAR LEBL 101700Z 23015KT CAVOK 20/15 Q1010 NOSIG",
      "taf": "TAF LEBL 101100Z 1012/1112 24010KT 9999 FEW050 TX21/1013Z TN14/1106Z"
    },
    {
      "icao": "LECH",
      "alert": "OK",
      "vis_m": 9000,
      "fzfg": false,
      "metar_trigger": false,
      "taf_trigger": false,
      "metar": "METAR LECH 101700Z AUTO 17013KT 150V210 9000 NSC 18/11 Q1011",
      "taf": "TAF LECH 101100Z 1012/1112 22010KT 9999 FEW020 TX23/1014Z TN10/1105Z"
    },
    {
      "icao": "LEMD",
      "alert": "OK",
      "vis_m": 9999,
      "fzfg": false,
      "metar_trigger": false,
      "taf_trigger": false,
      "metar": "METAR LEMD 101700Z 22015G26KT 190V250 9999 FEW046 16/05 Q1012 NOSIG",
      "taf": "TAF LEMD 101100Z 1012/1118 20010KT 9999 SCT030 TX16/1015Z TN06/1105Z"
    },
    {
      "icao": "LEMG",
      "alert": "OK",
      "vis_m": 9999,
      "fzfg": false,
      "metar_trigger": false,
      "taf_trigger": false,
      "metar": "METAR LEMG 101700Z 17007KT 140V200 9999 FEW045 SCT070 20/13 Q1014 NOSIG",
      "taf": "TAF LEMG 101100Z 1012/1112 18006KT 9999 SCT030 TX22/1014Z TN13/1106Z"
    },
    {
      "icao": "LEVC",
      "alert": "OK",
      "vis_m": 9999,
      "fzfg": false,
      "metar_trigger": false,
      "taf_trigger": false,
      "metar": "METAR LEVC 101700Z 18003KT 110V270 9999 FEW030 BKN057 22/15 Q1010 NOSIG",
      "taf": "TAF LEVC 101100Z 1012/1112 25010KT 9999 FEW020 TX24/1012Z TN14/1105Z"
    },
    {
      "icao": "LEXJ",
      "alert": "OK",
      "vis_m": 9999,
      "fzfg": false,
      "metar_trigger": false,
      "taf_trigger": false,
      "metar": "METAR LEXJ 101700Z 31007KT 260V340 9999 FEW027 BKN053 17/12 Q1009",
      "taf": ""
    },
    {
      "icao": "LEZG",
      "alert": "OK",
      "vis_m": 9999,
      "fzfg": false,
      "metar_trigger": false,
      "taf_trigger": false,
      "metar": "METAR LEZG 101700Z 22003KT 150V260 9999 FEW070 BKN080 16/10 Q1011 NOSIG",
      "taf": ""
    },
    {
      "icao": "LEZL",
      "alert": "OK",
      "vis_m": 9999,
      "fzfg": false,
      "metar_trigger": false,
      "taf_trigger": false,
      "metar": "METAR LEZL 101700Z 23013KT 200V270 9999 FEW039 21/11 Q1014 NOSIG",
      "taf": "TAF LEZL 101400Z 1015/1115 22012KT 9999 SCT030 TX22/1015Z TN11/1107Z"
    },
    {
      "icao": "LFBD",
      "alert": "OK",
      "vis_m": 9999,
      "fzfg": false,
      "metar_trigger": false,
      "taf_trigger": false,
      "metar": "METAR LFBD 101700Z AUTO 28010KT CAVOK 20/08 Q1008 TEMPO VRB20G30KT 3000 TSRA BKN030CB",
      "taf": "TAF LFBD 101100Z 1012/1118 24010KT 9999 SCT040 TX22/1013Z TN11/1105Z"
    },
    {
      "icao": "LFLL",
      "alert": "OK",
      "vis_m": 9999,
      "fzfg": false,
      "metar_trigger": false,
      "taf_trigger": false,
      "metar": "METAR LFLL 101700Z 20007KT 170V230 9999 VCTS FEW033 FEW040CB SCT100 BKN230 18/13 Q1008 NOSIG",
      "taf": ""
    },
    {
      "icao": "LFLS",
      "alert": "OK",
      "vis_m": 9999,
      "fzfg": false,
      "metar_trigger": false,
      "taf_trigger": false,
      "metar": "METAR LFLS 101700Z AUTO 22005KT 200V260 9999 BKN019/// BKN029/// ///CB 17/13 Q1009 BECMG SCT020 BKN040",
      "taf": "TAF LFLS 101400Z 1015/1115 22009KT 9999 SCT020 BKN040"
    },
    {
      "icao": "LFMN",
      "alert": "OK",
      "vis_m": 9999,
      "fzfg": false,
      "metar_trigger": false,
      "taf_trigger": false,
      "metar": "METAR LFMN 101700Z 09010KT 9999 FEW011 BKN033 18/15 Q1011 NOSIG",
      "taf": "TAF LFMN 101400Z 1015/1121 10010KT 9999 FEW016 OVC050"
    },
    {
      "icao": "LFOB",
      "alert": "OK",
      "vis_m": 8000,
      "fzfg": false,
      "metar_trigger": false,
      "taf_trigger": false,
      "metar": "METAR LFOB 101700Z AUTO 03015KT 8000 -RA FEW036/// SCT043/// BKN054/// ///CB 12/11 Q1008 TEMPO VRB15G27KT 4000 SHRA BKN014 BKN020CB",
      "taf": ""
    },
    {
      "icao": "LFPO",
      "alert": "OK",
      "vis_m": 6000,
      "fzfg": false,
      "metar_trigger": false,
      "taf_trigger": false,
      "metar": "METAR LFPO 101700Z 05007KT 6000 -RA BKN006 BKN011 15/14 Q1007 NOSIG",
      "taf": "TAF LFPO 101100Z 1012/1118 VRB05KT 9999 BKN030"
    },
    {
      "icao": "LFSB",
      "alert": "OK",
      "vis_m": 9999,
      "fzfg": false,
      "metar_trigger": false,
      "taf_trigger": false,
      "metar": "METAR LFSB 101700Z AUTO 19004KT 140V230 CAVOK 16/13 Q1008 TEMPO FEW040CB BKN050",
      "taf": "TAF LFSB 101100Z 1012/1112 28008KT CAVOK"
    },
    {
      "icao": "LGAV",
      "alert": "OK",
      "vis_m": 9999,
      "fzfg": false,
      "metar_trigger": false,
      "taf_trigger": false,
      "metar": "METAR LGAV 101650Z 22004KT 9999 FEW025 21/12 Q1014 NOSIG",
      "taf": "TAF LGAV 101100Z 1012/1112 18010KT 9999 FEW025"
    },
    {
      "icao": "LGTS",
      "alert": "OK",
      "vis_m": 9999,
      "fzfg": false,
      "metar_trigger": false,
      "taf_trigger": false,
      "metar": "METAR LGTS 101650Z 18007KT 9999 FEW025 22/13 Q1013 NOSIG",
      "taf": "TAF LGTS 101100Z 1012/1112 VRB03KT 9999 FEW025"
    },
    {
      "icao": "LHBP",
      "alert": "OK",
      "vis_m": 9999,
      "fzfg": false,
      "metar_trigger": false,
      "taf_trigger": false,
      "metar": "METAR LHBP 101700Z 20003KT 170V240 CAVOK 23/07 Q1011 NOSIG",
      "taf": "TAF LHBP 101115Z 1012/1112 VRB03KT CAVOK"
    },
    {
      "icao": "LHDC",
      "alert": "OK",
      "vis_m": 9999,
      "fzfg": false,
      "metar_trigger": false,
      "taf_trigger": false,
      "metar": "METAR LHDC 101645Z AUTO 31004KT 280V020 CAVOK 23/06 Q1011 NOSIG",
      "taf": "TAF LHDC 101415Z 1015/1024 VRB04KT CAVOK"
    },
    {
      "icao": "LIBD",
      "alert": "OK",
      "vis_m": 9999,
      "fzfg": false,
      "metar_trigger": false,
      "taf_trigger": false,
      "metar": "METAR LIBD 101650Z 18005KT 140V210 CAVOK 23/13 Q1012",
      "taf": "TAF LIBD 101100Z 1012/1112 10010KT CAVOK"
    },
    {
      "icao": "LIBG",
      "alert": "OK",
      "vis_m": 9999,
      "fzfg": false,
      "metar_trigger": false,
      "taf_trigger": false,
      "metar": "METAR LIBG 101650Z 18007KT CAVOK 20/13 Q1013",
      "taf": "TAF LIBG 101400Z 1015/1024 18010KT 9999 SCT030"
    },
    {
      "icao": "LIBP",
      "alert": "OK",
      "vis_m": 9999,
      "fzfg": false,
      "metar_trigger": false,
      "taf_trigger": false,
      "metar": "METAR LIBP 101650Z AUTO 35008KT 320V020 9999 FEW019/// 19/16 Q1011",
      "taf": ""
    },
    {
      "icao": "LIBR",
      "alert": "OK",
      "vis_m": 9999,
      "fzfg": false,
      "metar_trigger": false,
      "taf_trigger": false,
      "metar": "METAR LIBR 101650Z 21014KT CAVOK 22/11 Q1013",
      "taf": "TAF LIBR 101100Z 1012/1112 12010KT 9999 FEW040"
    },
    {
      "icao": "LICA",
      "alert": "OK",
      "vis_m": 9999,
      "fzfg": false,
      "metar_trigger": false,
      "taf_trigger": false,
      "metar": "METAR LICA 101650Z AUTO 21003KT 160V260 9999 NCD 20/17 Q1014",
      "taf": "TAF LICA 101100Z 1012/1112 08012KT 9999 FEW050"
    },
    {
      "icao": "LICC",
      "alert": "OK",
      "vis_m": 9999,
      "fzfg": false,
      "metar_trigger": false,
      "taf_trigger": false,
      "metar": "METAR LICC 101650Z 07009KT CAVOK 22/17 Q1013",
      "taf": "TAF LICC 101100Z 1012/1112 08012KT 9999 FEW080"
    },
    {
      "icao": "LICJ",
      "alert": "OK",
      "vis_m": 9999,
      "fzfg": false,
      "metar_trigger": false,
      "taf_trigger": false,
      "metar": "METAR LICJ 101650Z 28015KT CAVOK 19/16 Q1014",
      "taf": "TAF LICJ 101100Z 1012/1112 27013KT 9999 FEW050"
    },
    {
      "icao": "LIMC",
      "alert": "OK",
      "vis_m": 9999,
      "fzfg": false,
      "metar_trigger": false,
      "taf_trigger": false,
      "metar": "METAR LIMC 101650Z 07004KT 9999 -RA BKN060 15/12 Q1012 NOSIG",
      "taf": "TAF LIMC 101100Z 1012/1118 VRB05KT 4000 RA BKN050"
    },
    {
      "icao": "LIME",
      "alert": "OK",
      "vis_m": 9999,
      "fzfg": false,
      "metar_trigger": false,
      "taf_trigger": false,
      "metar": "METAR LIME 101650Z 04005KT 350V070 9999 SCT035 BKN045 14/12 Q1012 NOSIG",
      "taf": "TAF LIME 101100Z 1012/1112 VRB05KT 4000 RA SCT050"
    },
    {
      "icao": "LIMF",
      "alert": "OK",
      "vis_m": 7000,
      "fzfg": false,
      "metar_trigger": false,
      "taf_trigger": false,
      "metar": "METAR LIMF 101650Z 01003KT 330V030 7000 SCT007 BKN020 14/13 Q1012",
      "taf": ""
    },
    {
      "icao": "LIMJ",
      "alert": "OK",
      "vis_m": 5000,
      "fzfg": false,
      "metar_trigger": false,
      "taf_trigger": false,
      "metar": "METAR LIMJ 101650Z 02003KT 5000 BR SCT018 BKN027 17/15 Q1012",
      "taf": "TAF LIMJ 101100Z 1012/1112 VRB05KT 4000 RA SCT020"
    },
    {
      "icao": "LIPE",
      "alert": "OK",
      "vis_m": 9999,
      "fzfg": false,
      "metar_trigger": false,
      "taf_trigger": false,
      "metar": "METAR LIPE 101650Z VRB02KT 9999 FEW015 BKN025 18/16 Q1011",
      "taf": "TAF LIPE 101100Z 1012/1112 11005KT 9999 SCT040 SCT070"
    },
    {
      "icao": "LIPH",
      "alert": "OK",
      "vis_m": 8000,
      "fzfg": false,
      "metar_trigger": false,
      "taf_trigger": false,
      "metar": "METAR LIPH 101650Z 04002KT 8000 -RA BKN040 16/15 Q1012",
      "taf": "TAF LIPH 101100Z 1012/1112 16012KT 9999 BKN070"
    },
    {
      "icao": "LIPQ",
      "alert": "OK",
      "vis_m": 9999,
      "fzfg": false,
      "metar_trigger": false,
      "taf_trigger": false,
      "metar": "METAR LIPQ 101650Z AUTO 24005KT 210V270 9999 BKN055/// 19/14 Q1012",
      "taf": "TAF LIPQ 101100Z 1012/1112 VRB05KT CAVOK"
    },
    {
      "icao": "LIPR",
      "alert": "OK",
      "vis_m": 9999,
      "fzfg": false,
      "metar_trigger": false,
      "taf_trigger": false,
      "metar": "METAR LIPR 101650Z 02003KT 350V050 9999 FEW008 SCT040 18/16 Q1011",
      "taf": "TAF LIPR 101100Z 1012/1112 10010KT 9999 FEW060"
    },
    {
      "icao": "LIPX",
      "alert": "OK",
      "vis_m": 9999,
      "fzfg": false,
      "metar_trigger": false,
      "taf_trigger": false,
      "metar": "METAR LIPX 101650Z 06003KT 040V100 9999 BKN040 18/10 Q1012",
      "taf": "TAF LIPX 101100Z 1012/1112 VRB05KT 4000 RA"
    },
    {
      "icao": "LIPY",
      "alert": "OK",
      "vis_m": 9000,
      "fzfg": false,
      "metar_trigger": false,
      "taf_trigger": false,
      "metar": "METAR LIPY 101650Z AUTO VRB02KT 9000 RA FEW003/// BKN081/// 18/17 Q1012",
      "taf": "TAF LIPY 101100Z 1012/1112 15010KT 9999 FEW060"
    },
    {
      "icao": "LIPZ",
      "alert": "OK",
      "vis_m": 9999,
      "fzfg": false,
      "metar_trigger": false,
      "taf_trigger": false,
      "metar": "METAR LIPZ 101650Z VRB02KT 9999 -RA BKN060 17/14 Q1012 TEMPO RA",
      "taf": "TAF LIPZ 101100Z 1012/1118 11010KT 9999 SCT070"
    },
    {
      "icao": "LIRF",
      "alert": "OK",
      "vis_m": 9999,
      "fzfg": false,
      "metar_trigger": false,
      "taf_trigger": false,
      "metar": "METAR LIRF 101650Z 20006KT 9999 SCT012 20/17 Q1010 NOSIG",
      "taf": "TAF LIRF 101100Z 1012/1118 17013KT 9999 SCT040"
    },
    {
      "icao": "LIRN",
      "alert": "OK",
      "vis_m": 8000,
      "fzfg": false,
      "metar_trigger": false,
      "taf_trigger": false,
      "metar": "METAR LIRN 101650Z 20011KT 8000 SCT010 BKN030 19/16 Q1013 NOSIG",
      "taf": "TAF LIRN 101100Z 1012/1112 19012KT 9999 FEW050"
    },
    {
      "icao": "LIRP",
      "alert": "OK",
      "vis_m": 9999,
      "fzfg": false,
      "metar_trigger": false,
      "taf_trigger": false,
      "metar": "METAR LIRP 101645Z 15002KT 9999 FEW025 20/14 Q1011 NOSIG",
      "taf": "TAF LIRP 101100Z 1012/1112 10007KT 9999 SCT030 BKN060"
    },
    {
      "icao": "LIRZ",
      "alert": "OK",
      "vis_m": 9999,
      "fzfg": false,
      "metar_trigger": false,
      "taf_trigger": false,
      "metar": "METAR LIRZ 101650Z AUTO 02005KT 9999 SCT041/// SCT057/// BKN096/// 17/14 Q1012",
      "taf": "TAF LIRZ 101100Z 1012/1112 VRB05KT 9999 BKN030"
    },
    {
      "icao": "LJLJ",
      "alert": "OK",
      "vis_m": 9999,
      "fzfg": false,
      "metar_trigger": false,
      "taf_trigger": false,
      "metar": "METAR LJLJ 101700Z 24005KT 9999 -RA FEW055 BKN100 18/07 Q1012 NOSIG",
      "taf": "TAF LJLJ 101700Z 1018/1118 12005KT 9999 SCT040 BKN080"
    },
    {
      "icao": "LKMT",
      "alert": "OK",
      "vis_m": 9999,
      "fzfg": false,
      "metar_trigger": false,
      "taf_trigger": false,
      "metar": "METAR LKMT 101700Z 02003KT CAVOK 20/09 Q1010 NOSIG",
      "taf": "TAF LKMT 101100Z 1012/1112 VRB02KT CAVOK"
    },
    {
      "icao": "LKPR",
      "alert": "OK",
      "vis_m": 9999,
      "fzfg": false,
      "metar_trigger": false,
      "taf_trigger": false,
      "metar": "METAR LKPR 101700Z 06008KT CAVOK 19/05 Q1009 NOSIG",
      "taf": "TAF LKPR 101400Z 1015/1121 09005KT CAVOK"
    },
    {
      "icao": "LLBG",
      "alert": "OK",
      "vis_m": 9999,
      "fzfg": false,
      "metar_trigger": false,
      "taf_trigger": false,
      "metar": "METAR LLBG 101650Z 33006KT CAVOK 23/13 Q1014 NOSIG",
      "taf": "TAF LLBG 101702Z 1018/1118 VRB04KT CAVOK TX27/1111Z TN15/1103Z"
    },
    {
      "icao": "LMML",
      "alert": "OK",
      "vis_m": 9999,
      "fzfg": false,
      "metar_trigger": false,
      "taf_trigger": false,
      "metar": "METAR LMML 101645Z 02012KT 9999 FEW014 20/16 Q1013 NOSIG",
      "taf": "TAF LMML 101700Z 1018/1118 03012KT 9999 FEW015"
    },
    {
      "icao": "LOWW",
      "alert": "OK",
      "vis_m": 9999,
      "fzfg": false,
      "metar_trigger": false,
      "taf_trigger": false,
      "metar": "METAR LOWW 101650Z 16010KT CAVOK 21/10 Q1008 NOSIG",
      "taf": "TAF LOWW 101415Z 1015/1121 16014KT 9999 FEW050 TX22/1015Z TN14/1121Z"
    },
    {
      "icao": "LPFR",
      "alert": "OK",
      "vis_m": 9999,
      "fzfg": false,
      "metar_trigger": false,
      "taf_trigger": false,
      "metar": "METAR LPFR 101700Z 22011KT 9999 FEW020 18/13 Q1014",
      "taf": "TAF LPFR 101100Z 1012/1112 23013KT 9999 SCT020"
    },
    {
      "icao": "LPMA",
      "alert": "OK",
      "vis_m": 9999,
      "fzfg": false,
      "metar_trigger": false,
      "taf_trigger": false,
      "metar": "METAR LPMA 101700Z 03009KT 350V060 9999 SCT016 18/10 Q1015",
      "taf": ""
    },
    {
      "icao": "LPPR",
      "alert": "OK",
      "vis_m": 9999,
      "fzfg": false,
      "metar_trigger": false,
      "taf_trigger": false,
      "metar": "METAR LPPR 101700Z 18017KT 9999 VCSH FEW020 FEW025CB BKN040 17/12 Q1008",
      "taf": "TAF LPPR 101100Z 1012/1112 18018KT 9999 SCT020"
    },
    {
      "icao": "LPPS",
      "alert": "OK",
      "vis_m": 9999,
      "fzfg": false,
      "metar_trigger": false,
      "taf_trigger": false,
      "metar": "METAR LPPS 101700Z 28012KT 9999 FEW015 18/08 Q1016",
      "taf": "TAF LPPS 101100Z 1012/1118 27013KT 9999 SCT015"
    },
    {
      "icao": "LPPT",
      "alert": "OK",
      "vis_m": 9999,
      "fzfg": false,
      "metar_trigger": false,
      "taf_trigger": false,
      "metar": "METAR LPPT 101700Z 21018KT 9999 VCSH FEW015 BKN018 FEW022CB 16/13 Q1010",
      "taf": "TAF LPPT 101100Z 1012/1118 21018KT 9999 SCT020"
    },
    {
      "icao": "LQBK",
      "alert": "OK",
      "vis_m": 9999,
      "fzfg": false,
      "metar_trigger": false,
      "taf_trigger": false,
      "metar": "METAR LQBK 101700Z 14007KT 9999 -SHRA FEW035TCU BKN043 18/12 Q1011 NOSIG",
      "taf": "TAF LQBK 101700Z 1018/1118 16005KT CAVOK TX24/1113Z TN12/1104Z"
    },
    {
      "icao": "LQSA",
      "alert": "OK",
      "vis_m": 9999,
      "fzfg": false,
      "metar_trigger": false,
      "taf_trigger": false,
      "metar": "METAR LQSA 101700Z VRB02KT CAVOK 21/10 Q1012 NOSIG",
      "taf": "TAF LQSA 101700Z 1018/1118 VRB02KT 9999 SCT065 TX25/1114Z TN08/1104Z"
    },
    {
      "icao": "LQTZ",
      "alert": "OK",
      "vis_m": 9999,
      "fzfg": false,
      "metar_trigger": false,
      "taf_trigger": false,
      "metar": "METAR LQTZ 101700Z 12003KT 9999 SCT050 21/10 Q1011",
      "taf": "TAF LQTZ 101700Z 1018/1118 10005KT CAVOK TX25/1113Z TN10/1104Z"
    },
    {
      "icao": "LRBC",
      "alert": "OK",
      "vis_m": 9999,
      "fzfg": false,
      "metar_trigger": false,
      "taf_trigger": false,
      "metar": "METAR LRBC 101700Z VRB02KT CAVOK 16/10 Q1014",
      "taf": "TAF LRBC 101400Z 1015/1024 34006KT 9999 BKN040"
    },
    {
      "icao": "LRBS",
      "alert": "OK",
      "vis_m": 9999,
      "fzfg": false,
      "metar_trigger": false,
      "taf_trigger": false,
      "metar": "METAR LRBS 101700Z 18006KT 9999 FEW050TCU 20/13 Q1013 TEMPO VRB25KT 5000 TSRA",
      "taf": "TAF LRBS 101100Z 1012/1112 VRB04KT 9999 SCT035"
    },
    {
      "icao": "LRBV",
      "alert": "OK",
      "vis_m": 9999,
      "fzfg": false,
      "metar_trigger": false,
      "taf_trigger": false,
      "metar": "METAR LRBV 101700Z 28005KT CAVOK 17/10 Q1014",
      "taf": "TAF LRBV 101400Z 1015/1024 VRB04KT 9999 SCT045"
    },
    {
      "icao": "LRCL",
      "alert": "OK",
      "vis_m": 9999,
      "fzfg": false,
      "metar_trigger": false,
      "taf_trigger": false,
      "metar": "METAR LRCL 101700Z 16004KT 130V190 9999 FEW050 19/12 Q1012",
      "taf": "TAF LRCL 101400Z 1015/1024 VRB04KT 9999 SCT045"
    },
    {
      "icao": "LRCV",
      "alert": "OK",
      "vis_m": 9999,
      "fzfg": false,
      "metar_trigger": false,
      "taf_trigger": false,
      "metar": "METAR LRCV 101700Z 21004KT CAVOK 21/14 Q1013",
      "taf": "TAF LRCV 101400Z 1015/1024 VRB04KT CAVOK"
    },
    {
      "icao": "LRIA",
      "alert": "OK",
      "vis_m": 9999,
      "fzfg": false,
      "metar_trigger": false,
      "taf_trigger": false,
      "metar": "METAR LRIA 101700Z 01005KT 9999 FEW027 16/11 Q1014",
      "taf": "TAF LRIA 101400Z 1015/1024 33010KT 9999 BKN025"
    },
    {
      "icao": "LROP",
      "alert": "OK",
      "vis_m": 9999,
      "fzfg": false,
      "metar_trigger": false,
      "taf_trigger": false,
      "metar": "METAR LROP 101700Z 21006KT 170V230 9999 -SHRA FEW050CB 19/14 Q1013 TEMPO VRB25KT 5000 TSRA",
      "taf": "TAF LROP 101100Z 1012/1112 VRB04KT 9999 SCT035"
    },
    {
      "icao": "LRSB",
      "alert": "OK",
      "vis_m": 9999,
      "fzfg": false,
      "metar_trigger": false,
      "taf_trigger": false,
      "metar": "METAR LRSB 101700Z 17003KT CAVOK 18/11 Q1013",
      "taf": ""
    },
    {
      "icao": "LRSM",
      "alert": "OK",
      "vis_m": 9999,
      "fzfg": false,
      "metar_trigger": false,
      "taf_trigger": false,
      "metar": "METAR LRSM 101700Z AUTO 08003KT 9999 NCD 21/07 Q1011",
      "taf": ""
    },
    {
      "icao": "LRSV",
      "alert": "OK",
      "vis_m": 9999,
      "fzfg": false,
      "metar_trigger": false,
      "taf_trigger": false,
      "metar": "METAR LRSV 101700Z 33001KT 9999 BKN042 14/10 Q1014",
      "taf": "TAF LRSV 101400Z 1015/1024 02006KT 9999 SCT025 BKN045"
    },
    {
      "icao": "LRTM",
      "alert": "OK",
      "vis_m": 9999,
      "fzfg": false,
      "metar_trigger": false,
      "taf_trigger": false,
      "metar": "METAR LRTM 101700Z 22006KT CAVOK 18/11 Q1013",
      "taf": "TAF LRTM 101400Z 1015/1024 VRB04KT CAVOK"
    },
    {
      "icao": "LRTR",
      "alert": "OK",
      "vis_m": 9999,
      "fzfg": false,
      "metar_trigger": false,
      "taf_trigger": false,
      "metar": "METAR LRTR 101700Z 05005KT CAVOK 22/14 Q1011",
      "taf": "TAF LRTR 101100Z 1012/1112 VRB04KT CAVOK"
    },
    {
      "icao": "LTAC",
      "alert": "OK",
      "vis_m": 9999,
      "fzfg": false,
      "metar_trigger": false,
      "taf_trigger": false,
      "metar": "METAR LTAC 101650Z 30004KT 9999 FEW040 SCT100 19/08 Q1016 NOSIG RMK RWY21C 30004KT 250V330 RWY03L 29004KT RWY21R 29003KT 260V330 RWY03R 29004KT RWY21L 29004KT",
      "taf": "TAF LTAC 101640Z 1018/1118 VRB02KT 9999 FEW040 SCT100"
    },
    {
      "icao": "LTFM",
      "alert": "OK",
      "vis_m": 9999,
      "fzfg": false,
      "metar_trigger": false,
      "taf_trigger": false,
      "metar": "METAR LTFM 101650Z 09007KT 9999 FEW030 SCT080 18/12 Q1014 NOSIG RMK RWY17L 10007KT RWY34L 07008KT RWY16R 09009KT RWY36 09007KT 020V110 RWY18 10008KT",
      "taf": "TAF LTFM 101640Z 1018/1124 13012KT 9999 SCT040 BKN090"
    },
    {
      "icao": "LUKK",
      "alert": "OK",
      "vis_m": 9999,
      "fzfg": false,
      "metar_trigger": false,
      "taf_trigger": false,
      "metar": "METAR LUKK 101700Z 36008KT 9999 FEW015 SCT041 15/13 Q1013 NOSIG",
      "taf": "TAF LUKK 101102Z 1012/1112 31010KT 9999 BKN020"
    },
    {
      "icao": "LWOH",
      "alert": "OK",
      "vis_m": 9999,
      "fzfg": false,
      "metar_trigger": false,
      "taf_trigger": false,
      "metar": "METAR LWOH 101650Z 33002KT 9999 FEW040 19/12 Q1015",
      "taf": "TAF LWOH 101415Z 1015/1115 16006KT 9999 SCT040 BKN090"
    },
    {
      "icao": "LWSK",
      "alert": "OK",
      "vis_m": 9999,
      "fzfg": false,
      "metar_trigger": false,
      "taf_trigger": false,
      "metar": "METAR LWSK 101650Z 10004KT 9999 FEW050 BKN070 21/13 Q1012 NOSIG",
      "taf": "TAF LWSK 101415Z 1015/1115 VRB02KT 9999 FEW050 SCT100"
    },
    {
      "icao": "LYBE",
      "alert": "OK",
      "vis_m": 9999,
      "fzfg": false,
      "metar_trigger": false,
      "taf_trigger": false,
      "metar": "METAR LYBE 101700Z 16005KT CAVOK 24/11 Q1011 NOSIG",
      "taf": "TAF LYBE 101100Z 1012/1112 16006KT 9999 SCT045 TX27/1014Z TN15/1103Z"
    },
    {
      "icao": "LYNI",
      "alert": "OK",
      "vis_m": 9999,
      "fzfg": false,
      "metar_trigger": false,
      "taf_trigger": false,
      "metar": "METAR LYNI 101700Z 00000KT CAVOK 24/07 Q1012 NOSIG",
      "taf": "TAF LYNI 101100Z 1012/1112 17004KT 9999 SCT045 TX25/1013Z TN11/1103Z"
    },
    {
      "icao": "LYPG",
      "alert": "OK",
      "vis_m": 9999,
      "fzfg": false,
      "metar_trigger": false,
      "taf_trigger": false,
      "metar": "METAR LYPG 101700Z 15004KT 9999 FEW034 21/13 Q1013 NOSIG",
      "taf": "TAF LYPG 101100Z 1012/1112 18008KT 9999 SCT040 BKN090 TX23/1014Z TN15/1104Z"
    },
    {
      "icao": "LZIB",
      "alert": "OK",
      "vis_m": 9999,
      "fzfg": false,
      "metar_trigger": false,
      "taf_trigger": false,
      "metar": "METAR LZIB 101700Z 15005KT CAVOK 22/11 Q1009 NOSIG",
      "taf": ""
    },
    {
      "icao": "LZKZ",
      "alert": "OK",
      "vis_m": 9999,
      "fzfg": false,
      "metar_trigger": false,
      "taf_trigger": false,
      "metar": "METAR LZKZ 101700Z 13004KT CAVOK 19/06 Q1011 NOSIG",
      "taf": ""
    },
    {
      "icao": "LZTT",
      "alert": "OK",
      "vis_m": 9999,
      "fzfg": false,
      "metar_trigger": false,
      "taf_trigger": false,
      "metar": "METAR LZTT 101700Z 15005KT 120V180 9999 FEW050 SCT060 16/07 Q1012 NOSIG",
      "taf": ""
    },
    {
      "icao": "OEJN",
      "alert": "OK",
      "vis_m": 9999,
      "fzfg": false,
      "metar_trigger": false,
      "taf_trigger": false,
      "metar": "METAR OEJN 101700Z 32004KT 9999 FEW040 30/21 Q1009 NOSIG",
      "taf": "TAF OEJN 101100Z 1012/1118 28012KT 9999 FEW040"
    },
    {
      "icao": "OEMA",
      "alert": "OK",
      "vis_m": 9999,
      "fzfg": false,
      "metar_trigger": false,
      "taf_trigger": false,
      "metar": "METAR OEMA 101700Z 28014KT CAVOK 37/M04 Q1012 NOSIG",
      "taf": "TAF OEMA 101100Z 1012/1118 24013KT 7000 FEW040"
    },
    {
      "icao": "OJAI",
      "alert": "OK",
      "vis_m": 4000,
      "fzfg": false,
      "metar_trigger": false,
      "taf_trigger": false,
      "metar": "METAR OJAI 101600Z 28016KT 4000 BLDU NSC 26/08 Q1016 NOSIG",
      "taf": "TAF OJAI 101100Z 1012/1118 31008KT 5000 HZ NSC"
    },
    {
      "icao": "OMAA",
      "alert": "OK",
      "vis_m": 9999,
      "fzfg": false,
      "metar_trigger": false,
      "taf_trigger": false,
      "metar": "METAR OMAA 101700Z 28008KT CAVOK 30/15 Q1008 NOSIG",
      "taf": "TAF OMAA 101700Z 1018/1200 29010KT 8000 NSC"
    },
    {
      "icao": "OMDB",
      "alert": "OK",
      "vis_m": 9999,
      "fzfg": false,
      "metar_trigger": false,
      "taf_trigger": false,
      "metar": "METAR OMDB 101700Z 24005KT 200V270 CAVOK 30/18 Q1007 NOSIG",
      "taf": "TAF OMDB 101700Z 1018/1200 26010KT CAVOK"
    },
    {
      "icao": "UAAA",
      "alert": "OK",
      "vis_m": 9999,
      "fzfg": false,
      "metar_trigger": false,
      "taf_trigger": false,
      "metar": "METAR UAAA 101700Z 32004MPS 270V340 9999 -SHRA BKN033CB OVC100 14/13 Q1015 NOSIG",
      "taf": "TAF UAAA 101110Z 1012/1112 23003G08MPS 2500 SHRA BR SCT011 BKN020CB OVC100 TX18/1106Z TN11/1100Z"
    },
    {
      "icao": "UBBB",
      "alert": "OK",
      "vis_m": 9999,
      "fzfg": false,
      "metar_trigger": false,
      "taf_trigger": false,
      "metar": "METAR UBBB 101700Z 15008KT CAVOK 18/16 Q1017 NOSIG",
      "taf": "TAF UBBB 101658Z 1018/1118 15008KT CAVOK TX24/1110Z TN14/1101Z"
    },
    {
      "icao": "UDSG",
      "alert": "OK",
      "vis_m": 9999,
      "fzfg": false,
      "metar_trigger": false,
      "taf_trigger": false,
      "metar": "METAR UDSG 101700Z 06009KT 020V100 9999 -SHRA BKN043CB 12/07 Q1022 NOSIG",
      "taf": "TAF UDSG 101058Z 1012/1112 06006KT 9999 SCT050"
    },
    {
      "icao": "UDYZ",
      "alert": "OK",
      "vis_m": 9999,
      "fzfg": false,
      "metar_trigger": false,
      "taf_trigger": false,
      "metar": "METAR UDYZ 101700Z 10002KT 9999 FEW043CB 20/07 Q1017 NOSIG",
      "taf": "TAF UDYZ 101100Z 1012/1112 22006KT 9999 FEW040"
    },
    {
      "icao": "UGKO",
      "alert": "OK",
      "vis_m": 9999,
      "fzfg": false,
      "metar_trigger": false,
      "taf_trigger": false,
      "metar": "METAR UGKO 101700Z 01007KT 9999 SCT045CB 17/11 Q1015 NOSIG",
      "taf": "TAF UGKO 101700Z 1018/1118 08008KT CAVOK TX30/1112Z TN12/1102Z"
    }
  ]
}