{
  "ts_utc": "2026-07-03T17:49:53Z",
  "threshold_m": 150,
  "source": "stations_override.txt (ICAO list) + aviationweather.gov (METAR/TAF raw)",
  "station_count": 159,
  "stations": [
    {
      "icao": "BIKF",
      "alert": "OK",
      "vis_m": 9999,
      "fzfg": false,
      "metar_trigger": false,
      "taf_trigger": false,
      "metar": "METAR BIKF 031730Z 30010KT 260V340 9999 SCT032 BKN180 11/04 Q1005",
      "taf": "TAF BIKF 031626Z 0318/0418 33012KT 9999 SCT030 TX12/0415Z TN05/0404Z"
    },
    {
      "icao": "BKPR",
      "alert": "OK",
      "vis_m": 9999,
      "fzfg": false,
      "metar_trigger": false,
      "taf_trigger": false,
      "metar": "METAR BKPR 031730Z 35009KT 9999 BKN060 22/16 Q1018 NOSIG",
      "taf": "TAF BKPR 031730Z 0318/0418 33008KT 9999 FEW050"
    },
    {
      "icao": "EBCI",
      "alert": "OK",
      "vis_m": 9999,
      "fzfg": false,
      "metar_trigger": false,
      "taf_trigger": false,
      "metar": "METAR EBCI 031720Z 32006KT 240V010 CAVOK 22/07 Q1027 NOSIG",
      "taf": "TAF EBCI 031701Z 0318/0424 34007KT CAVOK"
    },
    {
      "icao": "EDDB",
      "alert": "OK",
      "vis_m": 9999,
      "fzfg": false,
      "metar_trigger": false,
      "taf_trigger": false,
      "metar": "METAR EDDB 031720Z AUTO 29015KT 9999 SCT048 21/10 Q1021 TEMPO 29015G25KT",
      "taf": "TAF EDDB 031700Z 0318/0418 30015G25KT CAVOK"
    },
    {
      "icao": "EDDH",
      "alert": "OK",
      "vis_m": 9999,
      "fzfg": false,
      "metar_trigger": false,
      "taf_trigger": false,
      "metar": "METAR EDDH 031720Z AUTO 29013KT 260V320 9999 OVC038 17/09 Q1023 TEMPO 30015G25KT",
      "taf": "TAF EDDH 031700Z 0318/0424 30015G25KT 9999 SCT030"
    },
    {
      "icao": "EDDK",
      "alert": "OK",
      "vis_m": 9999,
      "fzfg": false,
      "metar_trigger": false,
      "taf_trigger": false,
      "metar": "METAR EDDK 031720Z AUTO 31008KT CAVOK 23/09 Q1025 NOSIG",
      "taf": "TAF EDDK 031700Z 0318/0424 32009KT CAVOK"
    },
    {
      "icao": "EDDN",
      "alert": "OK",
      "vis_m": 9999,
      "fzfg": false,
      "metar_trigger": false,
      "taf_trigger": false,
      "metar": "METAR EDDN 031720Z AUTO 32008KT 290V350 CAVOK 24/08 Q1024 NOSIG",
      "taf": "TAF EDDN 031700Z 0318/0418 32008KT CAVOK"
    },
    {
      "icao": "EDDS",
      "alert": "OK",
      "vis_m": 9999,
      "fzfg": false,
      "metar_trigger": false,
      "taf_trigger": false,
      "metar": "METAR EDDS 031720Z AUTO 33006KT 290V020 CAVOK 25/03 Q1025 NOSIG",
      "taf": "TAF EDDS 031700Z 0318/0418 33007KT CAVOK"
    },
    {
      "icao": "EDFH",
      "alert": "OK",
      "vis_m": 9999,
      "fzfg": false,
      "metar_trigger": false,
      "taf_trigger": false,
      "metar": "METAR EDFH 031720Z 32008KT 290V350 CAVOK 22/04 Q1026",
      "taf": "TAF EDFH 031700Z 0318/0418 32006KT CAVOK"
    },
    {
      "icao": "EDJA",
      "alert": "OK",
      "vis_m": 9999,
      "fzfg": false,
      "metar_trigger": false,
      "taf_trigger": false,
      "metar": "METAR EDJA 031720Z 35006KT 330V040 CAVOK 23/07 Q1025",
      "taf": "TAF EDJA 031700Z 0318/0403 35004KT CAVOK"
    },
    {
      "icao": "EDLW",
      "alert": "OK",
      "vis_m": 9999,
      "fzfg": false,
      "metar_trigger": false,
      "taf_trigger": false,
      "metar": "METAR EDLW 031720Z 27006KT 220V340 CAVOK 22/09 Q1025",
      "taf": "TAF EDLW 031700Z 0318/0418 30007KT CAVOK"
    },
    {
      "icao": "EDNY",
      "alert": "OK",
      "vis_m": 9999,
      "fzfg": false,
      "metar_trigger": false,
      "taf_trigger": false,
      "metar": "METAR EDNY 031720Z 21006KT 160V230 CAVOK 25/14 Q1024",
      "taf": "TAF EDNY 031700Z 0318/0403 VRB03KT CAVOK"
    },
    {
      "icao": "EDSB",
      "alert": "OK",
      "vis_m": 9999,
      "fzfg": false,
      "metar_trigger": false,
      "taf_trigger": false,
      "metar": "METAR EDSB 031720Z 33003KT 250V010 CAVOK 27/05 Q1024",
      "taf": "TAF EDSB 031700Z 0318/0418 02004KT CAVOK"
    },
    {
      "icao": "EETN",
      "alert": "OK",
      "vis_m": 9999,
      "fzfg": false,
      "metar_trigger": false,
      "taf_trigger": false,
      "metar": "METAR EETN 031720Z 13004KT 9999 VCSH FEW030CB SCT042 17/15 Q1003 TEMPO 5000 SHRA",
      "taf": "TAF EETN 031730Z 0318/0418 15005KT 9999 SCT030"
    },
    {
      "icao": "EFTU",
      "alert": "OK",
      "vis_m": 9999,
      "fzfg": false,
      "metar_trigger": false,
      "taf_trigger": false,
      "metar": "METAR EFTU 031720Z AUTO 23008KT 9999 VCTS SCT030 //////CB 19/13 Q1002",
      "taf": "TAF EFTU 031734Z 0318/0418 21006KT 9999 BKN030 FEW040CB"
    },
    {
      "icao": "EGBB",
      "alert": "OK",
      "vis_m": 9999,
      "fzfg": false,
      "metar_trigger": false,
      "taf_trigger": false,
      "metar": "METAR EGBB 031720Z 27010KT CAVOK 25/08 Q1026",
      "taf": "TAF EGBB 031659Z 0318/0418 26010KT 9999 FEW045"
    },
    {
      "icao": "EGGP",
      "alert": "OK",
      "vis_m": 9999,
      "fzfg": false,
      "metar_trigger": false,
      "taf_trigger": false,
      "metar": "METAR EGGP 031720Z 26013KT CAVOK 21/10 Q1026",
      "taf": "TAF EGGP 031656Z 0318/0418 27010KT 9999 FEW035"
    },
    {
      "icao": "EGGW",
      "alert": "OK",
      "vis_m": 9999,
      "fzfg": false,
      "metar_trigger": false,
      "taf_trigger": false,
      "metar": "METAR EGGW 031720Z AUTO 26012KT 230V310 9999 NCD 25/08 Q1026",
      "taf": "TAF EGGW 031653Z 0318/0418 29008KT 9999 FEW040"
    },
    {
      "icao": "EGKK",
      "alert": "OK",
      "vis_m": 9999,
      "fzfg": false,
      "metar_trigger": false,
      "taf_trigger": false,
      "metar": "METAR EGKK 031720Z 22011KT 190V260 CAVOK 24/12 Q1027",
      "taf": "TAF EGKK 031652Z 0318/0424 25009KT 9999 FEW030"
    },
    {
      "icao": "EGNM",
      "alert": "OK",
      "vis_m": 9999,
      "fzfg": false,
      "metar_trigger": false,
      "taf_trigger": false,
      "metar": "METAR EGNM 031720Z 26012KT 9999 FEW029 18/12 Q1025",
      "taf": "TAF EGNM 031655Z 0318/0418 25012KT 9999 SCT030"
    },
    {
      "icao": "EGPD",
      "alert": "OK",
      "vis_m": 9999,
      "fzfg": false,
      "metar_trigger": false,
      "taf_trigger": false,
      "metar": "METAR EGPD 031720Z AUTO 32012KT 9999 NCD 21/10 Q1020",
      "taf": "TAF EGPD 031657Z 0318/0418 33007KT 9999 FEW040"
    },
    {
      "icao": "EGPF",
      "alert": "OK",
      "vis_m": 9999,
      "fzfg": false,
      "metar_trigger": false,
      "taf_trigger": false,
      "metar": "METAR EGPF 031720Z AUTO 22011KT 9999 -RA BKN017 BKN038 BKN049 14/12 Q1023",
      "taf": "TAF EGPF 031655Z 0318/0418 23010KT 9999 FEW020"
    },
    {
      "icao": "EHBK",
      "alert": "OK",
      "vis_m": 9999,
      "fzfg": false,
      "metar_trigger": false,
      "taf_trigger": false,
      "metar": "METAR EHBK 031725Z AUTO 30007KT 250V020 9999 NSC 22/11 Q1026 NOSIG",
      "taf": "TAF EHBK 031713Z 0318/0424 32010KT CAVOK"
    },
    {
      "icao": "EHEH",
      "alert": "OK",
      "vis_m": 9999,
      "fzfg": false,
      "metar_trigger": false,
      "taf_trigger": false,
      "metar": "METAR EHEH 031725Z AUTO 34007KT 250V060 9999 OVC180 20/09 Q1027 BLU NOSIG RMK TREND REMOTE BY EHWX",
      "taf": "TAF EHEH 031139Z 0312/0418 29008KT 9999 BKN045"
    },
    {
      "icao": "EKBI",
      "alert": "OK",
      "vis_m": 9999,
      "fzfg": false,
      "metar_trigger": false,
      "taf_trigger": false,
      "metar": "METAR EKBI 031720Z AUTO 28021KT 9999 OVC029/// 14/09 Q1020",
      "taf": "TAF EKBI 031727Z 0318/0418 28022KT 9999 SCT025"
    },
    {
      "icao": "EKCH",
      "alert": "OK",
      "vis_m": 9999,
      "fzfg": false,
      "metar_trigger": false,
      "taf_trigger": false,
      "metar": "METAR EKCH 031720Z AUTO 28023G33KT 9999 BKN032/// 17/10 Q1015 TEMPO 28022G30KT",
      "taf": "TAF EKCH 031727Z 0318/0418 28020KT 9999 BKN025"
    },
    {
      "icao": "ENAL",
      "alert": "OK",
      "vis_m": 9999,
      "fzfg": false,
      "metar_trigger": false,
      "taf_trigger": false,
      "metar": "METAR ENAL 031720Z 24012KT 9999 FEW040 BKN054 13/10 Q1016",
      "taf": "TAF ENAL 031700Z 0318/0403 28008KT 9999 SCT009 BKN020"
    },
    {
      "icao": "ENBR",
      "alert": "OK",
      "vis_m": 9999,
      "fzfg": false,
      "metar_trigger": false,
      "taf_trigger": false,
      "metar": "METAR ENBR 031720Z VRB06KT 9999 FEW014 SCT019 BKN028 12/10 Q1019 TEMPO BKN014 RMK WIND 1200FT 27013KT",
      "taf": "TAF ENBR 031700Z 0318/0418 24007KT 9999 FEW010 BKN025"
    },
    {
      "icao": "ENGM",
      "alert": "OK",
      "vis_m": 9999,
      "fzfg": false,
      "metar_trigger": false,
      "taf_trigger": false,
      "metar": "METAR ENGM 031720Z 02004KT 340V050 9999 VCSH FEW044CB 16/12 Q1011 NOSIG",
      "taf": "TAF ENGM 031700Z 0318/0418 32006KT 9999 FEW030"
    },
    {
      "icao": "ENHD",
      "alert": "OK",
      "vis_m": 9999,
      "fzfg": false,
      "metar_trigger": false,
      "taf_trigger": false,
      "metar": "METAR ENHD 031720Z 29012KT 9999 FEW018 BKN040 14/09 Q1020",
      "taf": "TAF ENHD 031400Z 0315/0322 32015KT 9999 SCT022 BKN035"
    },
    {
      "icao": "ENTC",
      "alert": "OK",
      "vis_m": 9999,
      "fzfg": false,
      "metar_trigger": false,
      "taf_trigger": false,
      "metar": "METAR ENTC 031720Z 02014KT CAVOK 13/08 Q1007 NOSIG RMK WIND 2600FT 17009KT",
      "taf": "TAF ENTC 031700Z 0318/0418 02010KT 9999 FEW060"
    },
    {
      "icao": "ENTO",
      "alert": "OK",
      "vis_m": 9999,
      "fzfg": false,
      "metar_trigger": false,
      "taf_trigger": false,
      "metar": "METAR ENTO 031720Z 32005KT 9999 -SHRA FEW013 SCT040 20/11 Q1011 NOSIG",
      "taf": "TAF ENTO 031700Z 0318/0418 32012KT 9999 FEW040"
    },
    {
      "icao": "ENVA",
      "alert": "OK",
      "vis_m": 9999,
      "fzfg": false,
      "metar_trigger": false,
      "taf_trigger": false,
      "metar": "METAR ENVA 031720Z 28015KT 9999 VCSH FEW015CB SCT027 BKN056 14/11 Q1014 TEMPO SHRA BKN020CB RMK WIND 670FT 29017KT",
      "taf": "TAF ENVA 031700Z 0318/0418 26020KT 9999 SCT015 BKN018"
    },
    {
      "icao": "ENZV",
      "alert": "OK",
      "vis_m": 9999,
      "fzfg": false,
      "metar_trigger": false,
      "taf_trigger": false,
      "metar": "METAR ENZV 031720Z 31012KT 9999 FEW018 BKN030 14/09 Q1020 NOSIG",
      "taf": "TAF ENZV 031700Z 0318/0418 31012KT 9999 FEW015 BKN035"
    },
    {
      "icao": "EPGD",
      "alert": "OK",
      "vis_m": 9999,
      "fzfg": false,
      "metar_trigger": false,
      "taf_trigger": false,
      "metar": "METAR EPGD 031730Z 27017KT 9999 BKN012 FEW014TCU 14/12 Q1014",
      "taf": "TAF EPGD 031730Z 0318/0418 25015KT 9999 SCT015"
    },
    {
      "icao": "EPKK",
      "alert": "OK",
      "vis_m": 9999,
      "fzfg": false,
      "metar_trigger": false,
      "taf_trigger": false,
      "metar": "METAR EPKK 031730Z 29013KT 9999 FEW065 21/06 Q1019",
      "taf": "TAF EPKK 031730Z 0318/0418 30013KT 9999 FEW060"
    },
    {
      "icao": "EPKT",
      "alert": "OK",
      "vis_m": 9999,
      "fzfg": false,
      "metar_trigger": false,
      "taf_trigger": false,
      "metar": "METAR EPKT 031730Z 29012KT 260V330 CAVOK 19/06 Q1020",
      "taf": "TAF EPKT 031730Z 0318/0418 30015KT CAVOK"
    },
    {
      "icao": "EPLB",
      "alert": "OK",
      "vis_m": 9999,
      "fzfg": false,
      "metar_trigger": false,
      "taf_trigger": false,
      "metar": "METAR EPLB 031730Z 30016KT CAVOK 21/07 Q1016",
      "taf": "TAF EPLB 031730Z 0318/0418 29014KT CAVOK"
    },
    {
      "icao": "EPMO",
      "alert": "OK",
      "vis_m": 9999,
      "fzfg": false,
      "metar_trigger": false,
      "taf_trigger": false,
      "metar": "METAR EPMO 031730Z 29010KT CAVOK 20/07 Q1016",
      "taf": "TAF EPMO 031730Z 0318/0418 29012KT CAVOK"
    },
    {
      "icao": "EPPO",
      "alert": "OK",
      "vis_m": 9999,
      "fzfg": false,
      "metar_trigger": false,
      "taf_trigger": false,
      "metar": "METAR EPPO 031730Z 28016KT CAVOK 20/07 Q1018",
      "taf": "TAF EPPO 031730Z 0318/0418 29016KT CAVOK"
    },
    {
      "icao": "EPRA",
      "alert": "OK",
      "vis_m": 9999,
      "fzfg": false,
      "metar_trigger": false,
      "taf_trigger": false,
      "metar": "METAR EPRA 031730Z 30011KT 270V330 CAVOK 21/05 Q1017",
      "taf": "TAF EPRA 031730Z 0318/0403 28010KT CAVOK"
    },
    {
      "icao": "EPRZ",
      "alert": "OK",
      "vis_m": 9999,
      "fzfg": false,
      "metar_trigger": false,
      "taf_trigger": false,
      "metar": "METAR EPRZ 031730Z 30012KT CAVOK 22/06 Q1017",
      "taf": "TAF EPRZ 031730Z 0318/0418 30012KT CAVOK"
    },
    {
      "icao": "EPSC",
      "alert": "OK",
      "vis_m": 9999,
      "fzfg": false,
      "metar_trigger": false,
      "taf_trigger": false,
      "metar": "METAR EPSC 031730Z 28016KT 9999 SCT048 19/07 Q1018",
      "taf": "TAF EPSC 031730Z 0318/0418 28015KT 9999 SCT040"
    },
    {
      "icao": "EPSY",
      "alert": "OK",
      "vis_m": 9999,
      "fzfg": false,
      "metar_trigger": false,
      "taf_trigger": false,
      "metar": "METAR EPSY 031730Z 26014KT 230V300 9999 SCT040 17/09 Q1015",
      "taf": "TAF EPSY 031730Z 0318/0403 27012KT 9999 SCT040"
    },
    {
      "icao": "EPWA",
      "alert": "OK",
      "vis_m": 9999,
      "fzfg": false,
      "metar_trigger": false,
      "taf_trigger": false,
      "metar": "METAR EPWA 031730Z 30015KT CAVOK 20/07 Q1016 NOSIG",
      "taf": "TAF EPWA 031730Z 0318/0418 29012KT CAVOK"
    },
    {
      "icao": "EPWR",
      "alert": "OK",
      "vis_m": 9999,
      "fzfg": false,
      "metar_trigger": false,
      "taf_trigger": false,
      "metar": "METAR EPWR 031730Z 30020KT CAVOK 22/08 Q1020",
      "taf": "TAF EPWR 031730Z 0318/0418 28018KT CAVOK"
    },
    {
      "icao": "ESGG",
      "alert": "OK",
      "vis_m": 9999,
      "fzfg": false,
      "metar_trigger": false,
      "taf_trigger": false,
      "metar": "METAR ESGG 031720Z 29012KT CAVOK 19/12 Q1011",
      "taf": "TAF ESGG 031730Z 0318/0418 29012KT CAVOK"
    },
    {
      "icao": "ESKN",
      "alert": "OK",
      "vis_m": 9999,
      "fzfg": false,
      "metar_trigger": false,
      "taf_trigger": false,
      "metar": "METAR ESKN 031720Z 33011KT 9999 FEW007 SCT013 BKN019 16/15 Q1005 RERA",
      "taf": "TAF ESKN 031730Z 0318/0418 32010KT 9999 SCT015 BKN040"
    },
    {
      "icao": "ESMS",
      "alert": "OK",
      "vis_m": 9999,
      "fzfg": false,
      "metar_trigger": false,
      "taf_trigger": false,
      "metar": "METAR ESMS 031720Z 28017G28KT 9999 SCT028 16/11 Q1014",
      "taf": "TAF ESMS 031727Z 0318/0418 28020KT 9999 BKN025"
    },
    {
      "icao": "ESSA",
      "alert": "OK",
      "vis_m": 9999,
      "fzfg": false,
      "metar_trigger": false,
      "taf_trigger": false,
      "metar": "METAR ESSA 031720Z 33013KT 9999 BKN013 14/12 Q1004 TEMPO SCT050CB",
      "taf": "TAF ESSA 031730Z 0318/0418 33012KT 9999 BKN030"
    },
    {
      "icao": "EYKA",
      "alert": "OK",
      "vis_m": 9999,
      "fzfg": false,
      "metar_trigger": false,
      "taf_trigger": false,
      "metar": "METAR EYKA 031720Z 27012KT 9999 VCSH FEW024CB 16/14 Q1011",
      "taf": "TAF EYKA 031706Z 0318/0418 25010KT 8000 SCT015 BKN030"
    },
    {
      "icao": "EYPA",
      "alert": "OK",
      "vis_m": 9999,
      "fzfg": false,
      "metar_trigger": false,
      "taf_trigger": false,
      "metar": "METAR EYPA 031720Z 26009KT 220V310 9999 BKN012CB BKN017 OVC023 17/15 Q1006",
      "taf": "TAF EYPA 031700Z 0318/0418 28008G18KT 8000 BKN010 BKN020"
    },
    {
      "icao": "EYVI",
      "alert": "OK",
      "vis_m": 9999,
      "fzfg": false,
      "metar_trigger": false,
      "taf_trigger": false,
      "metar": "METAR EYVI 031720Z 26013KT 240V300 CAVOK 18/11 Q1011 TEMPO SCT045CB",
      "taf": "TAF EYVI 031708Z 0318/0418 24010KT 8000 SCT035"
    },
    {
      "icao": "GCFV",
      "alert": "OK",
      "vis_m": 9999,
      "fzfg": false,
      "metar_trigger": false,
      "taf_trigger": false,
      "metar": "METAR GCFV 031730Z 13006KT 100V170 9999 FEW020 25/20 Q1014",
      "taf": "TAF GCFV 031400Z 0315/0415 12006KT 9999 FEW020 TX27/0414Z TN21/0406Z"
    },
    {
      "icao": "GCLP",
      "alert": "OK",
      "vis_m": 9999,
      "fzfg": false,
      "metar_trigger": false,
      "taf_trigger": false,
      "metar": "METAR GCLP 031730Z 05009KT 020V080 9999 FEW020 25/19 Q1014 NOSIG",
      "taf": "TAF GCLP 031400Z 0315/0415 07010KT 9999 FEW020 TX27/0414Z TN21/0406Z"
    },
    {
      "icao": "GCTS",
      "alert": "OK",
      "vis_m": 9999,
      "fzfg": false,
      "metar_trigger": false,
      "taf_trigger": false,
      "metar": "METAR GCTS 031730Z 14006KT 070V180 9999 FEW030 26/17 Q1015 WS R07 NOSIG",
      "taf": "TAF GCTS 031400Z 0315/0415 18006KT 9999 SCT030 TX27/0414Z TN22/0406Z"
    },
    {
      "icao": "GMAD",
      "alert": "OK",
      "vis_m": 6000,
      "fzfg": false,
      "metar_trigger": false,
      "taf_trigger": false,
      "metar": "METAR GMAD 031700Z COR 24012KT 6000 SCT026TCU SCT200 26/19 Q1013 NOSIG",
      "taf": "TAF GMAD 031700Z 0318/0424 22008KT 6000 SCT020 SCT100"
    },
    {
      "icao": "GMMN",
      "alert": "OK",
      "vis_m": 9999,
      "fzfg": false,
      "metar_trigger": false,
      "taf_trigger": false,
      "metar": "METAR GMMN 031730Z 34008KT 310V010 CAVOK 38/17 Q1014 NOSIG",
      "taf": "TAF GMMN 031700Z 0318/0424 35008KT CAVOK"
    },
    {
      "icao": "GMMX",
      "alert": "OK",
      "vis_m": 5000,
      "fzfg": false,
      "metar_trigger": false,
      "taf_trigger": false,
      "metar": "METAR GMMX 031630Z 14013KT 100V160 5000 FEW006 BKN033 FEW040CB 39/13 Q1015 NOSIG",
      "taf": "TAF GMMX 031700Z 0318/0424 24006KT 8000 SCT033 SCT080"
    },
    {
      "icao": "HEGN",
      "alert": "OK",
      "vis_m": 9999,
      "fzfg": false,
      "metar_trigger": false,
      "taf_trigger": false,
      "metar": "METAR HEGN 031700Z 34012KT CAVOK 33/13 Q1006 NOSIG",
      "taf": "TAF HEGN 031700Z 0318/0424 33015KT CAVOK"
    },
    {
      "icao": "HEMA",
      "alert": "OK",
      "vis_m": 9999,
      "fzfg": false,
      "metar_trigger": false,
      "taf_trigger": false,
      "metar": "METAR HEMA 031700Z 34008KT CAVOK 32/09 Q1005 NOSIG",
      "taf": "TAF HEMA 031700Z 0318/0424 32012KT CAVOK"
    },
    {
      "icao": "HESH",
      "alert": "OK",
      "vis_m": 9999,
      "fzfg": false,
      "metar_trigger": false,
      "taf_trigger": false,
      "metar": "METAR HESH 031700Z 34014KT CAVOK 36/13 Q1005 NOSIG",
      "taf": "TAF HESH 031700Z 0318/0424 36015KT CAVOK"
    },
    {
      "icao": "HESX",
      "alert": "OK",
      "vis_m": 9999,
      "fzfg": false,
      "metar_trigger": false,
      "taf_trigger": false,
      "metar": "METAR HESX 031700Z 35010KT CAVOK 31/17 Q1010 NOSIG",
      "taf": "TAF HESX 031700Z 0318/0424 35010KT CAVOK"
    },
    {
      "icao": "LATI",
      "alert": "OK",
      "vis_m": null,
      "fzfg": false,
      "metar_trigger": false,
      "taf_trigger": false,
      "metar": "",
      "taf": "TAF LATI 031700Z 0318/0418 VRB05KT CAVOK TX36/0412Z TN21/0404Z"
    },
    {
      "icao": "LBPD",
      "alert": "OK",
      "vis_m": 9999,
      "fzfg": false,
      "metar_trigger": false,
      "taf_trigger": false,
      "metar": "METAR LBPD 031730Z AUTO 28013KT 9999 FEW064/// BKN150/// 28/18 Q1011 NOSIG",
      "taf": "TAF LBPD 031700Z 0318/0418 29014KT 9999 SCT050"
    },
    {
      "icao": "LBSF",
      "alert": "OK",
      "vis_m": 9999,
      "fzfg": false,
      "metar_trigger": false,
      "taf_trigger": false,
      "metar": "METAR LBSF 031730Z AUTO 29012KT 9999 BKN081/// 23/16 Q1016 NOSIG",
      "taf": "TAF LBSF 031700Z 0318/0418 30012KT 9999 SCT050"
    },
    {
      "icao": "LBWN",
      "alert": "OK",
      "vis_m": 9999,
      "fzfg": false,
      "metar_trigger": false,
      "taf_trigger": false,
      "metar": "METAR LBWN 031730Z AUTO 12003KT 080V160 9999 NSC 26/19 Q1009 NOSIG",
      "taf": "TAF LBWN 031700Z 0318/0418 34010KT 9999 SCT030 SCT045"
    },
    {
      "icao": "LCLK",
      "alert": "OK",
      "vis_m": 9999,
      "fzfg": false,
      "metar_trigger": false,
      "taf_trigger": false,
      "metar": "METAR LCLK 031730Z 22008KT CAVOK 28/24 Q1005 NOSIG",
      "taf": "TAF LCLK 031730Z 0318/0418 22006KT CAVOK"
    },
    {
      "icao": "LCPH",
      "alert": "OK",
      "vis_m": 9999,
      "fzfg": false,
      "metar_trigger": false,
      "taf_trigger": false,
      "metar": "METAR LCPH 031730Z 31007KT 9999 SCT014 26/23 Q1006 NOSIG",
      "taf": "TAF LCPH 031730Z 0318/0418 34007KT 9999 SCT016"
    },
    {
      "icao": "LEAL",
      "alert": "OK",
      "vis_m": 9999,
      "fzfg": false,
      "metar_trigger": false,
      "taf_trigger": false,
      "metar": "METAR LEAL 031730Z 18007KT 130V230 CAVOK 32/13 Q1021 NOSIG",
      "taf": "TAF LEAL 031700Z 0318/0418 15009KT CAVOK TX33/0412Z TN21/0406Z"
    },
    {
      "icao": "LEBB",
      "alert": "OK",
      "vis_m": 9999,
      "fzfg": false,
      "metar_trigger": false,
      "taf_trigger": false,
      "metar": "METAR LEBB 031730Z VRB04KT 9999 FEW018 BKN032 24/19 Q1027 NOSIG",
      "taf": "TAF LEBB 031700Z 0318/0418 VRB03KT 9999 SCT025 BKN030 TX29/0412Z TN18/0401Z"
    },
    {
      "icao": "LEBL",
      "alert": "OK",
      "vis_m": 9999,
      "fzfg": false,
      "metar_trigger": false,
      "taf_trigger": false,
      "metar": "METAR LEBL 031730Z 20009KT CAVOK 28/20 Q1021 NOSIG",
      "taf": "TAF LEBL 031700Z 0318/0418 20009KT CAVOK TX30/0413Z TN24/0406Z"
    },
    {
      "icao": "LECH",
      "alert": "OK",
      "vis_m": 9999,
      "fzfg": false,
      "metar_trigger": false,
      "taf_trigger": false,
      "metar": "METAR LECH 031730Z AUTO 16008KT 120V200 CAVOK 29/12 Q1022",
      "taf": "TAF LECH 031700Z 0318/0418 22008KT CAVOK TX33/0412Z TN19/0406Z"
    },
    {
      "icao": "LEMD",
      "alert": "OK",
      "vis_m": 9999,
      "fzfg": false,
      "metar_trigger": false,
      "taf_trigger": false,
      "metar": "METAR LEMD 031730Z 17004KT 110V250 CAVOK 36/03 Q1021 NOSIG",
      "taf": "TAF LEMD 031700Z 0318/0424 VRB04KT CAVOK TX39/0416Z TN20/0405Z"
    },
    {
      "icao": "LEMG",
      "alert": "OK",
      "vis_m": 9999,
      "fzfg": false,
      "metar_trigger": false,
      "taf_trigger": false,
      "metar": "METAR LEMG 031730Z 11006KT 070V160 CAVOK 28/16 Q1021 NOSIG",
      "taf": "TAF LEMG 031700Z 0318/0418 12011KT 9999 FEW035 TX31/0414Z TN21/0405Z"
    },
    {
      "icao": "LEVC",
      "alert": "OK",
      "vis_m": 9999,
      "fzfg": false,
      "metar_trigger": false,
      "taf_trigger": false,
      "metar": "METAR LEVC 031730Z 12010KT 080V150 CAVOK 32/13 Q1020 NOSIG",
      "taf": "TAF LEVC 031700Z 0318/0418 13009KT CAVOK TX34/0412Z TN22/0406Z"
    },
    {
      "icao": "LEXJ",
      "alert": "OK",
      "vis_m": 9999,
      "fzfg": false,
      "metar_trigger": false,
      "taf_trigger": false,
      "metar": "METAR LEXJ 031730Z 04004KT 320V120 9999 SCT025 23/19 Q1027",
      "taf": "TAF LEXJ 031400Z 0315/0415 05009KT 9999 FEW020 BKN030 TX28/0412Z TN18/0405Z"
    },
    {
      "icao": "LEZG",
      "alert": "OK",
      "vis_m": 9999,
      "fzfg": false,
      "metar_trigger": false,
      "taf_trigger": false,
      "metar": "METAR LEZG 031730Z 31023KT CAVOK 31/14 Q1021 NOSIG",
      "taf": "TAF LEZG 031700Z 0318/0418 30015KT CAVOK TX36/0414Z TN19/0406Z"
    },
    {
      "icao": "LEZL",
      "alert": "OK",
      "vis_m": 9999,
      "fzfg": false,
      "metar_trigger": false,
      "taf_trigger": false,
      "metar": "METAR LEZL 031730Z 23010KT 190V260 CAVOK 39/18 Q1016 NOSIG",
      "taf": "TAF LEZL 031400Z 0315/0415 10009KT CAVOK TX41/0315Z TN25/0405Z"
    },
    {
      "icao": "LFBD",
      "alert": "OK",
      "vis_m": 9999,
      "fzfg": false,
      "metar_trigger": false,
      "taf_trigger": false,
      "metar": "METAR LFBD 031730Z AUTO 30013KT CAVOK 28/17 Q1026 NOSIG",
      "taf": "TAF LFBD 031700Z 0318/0424 30010KT CAVOK TX35/0415Z TN17/0405Z"
    },
    {
      "icao": "LFLL",
      "alert": "OK",
      "vis_m": 9999,
      "fzfg": false,
      "metar_trigger": false,
      "taf_trigger": false,
      "metar": "METAR LFLL 031730Z 35014KT CAVOK 29/09 Q1023 NOSIG",
      "taf": "TAF LFLL 031700Z 0318/0424 35012KT CAVOK"
    },
    {
      "icao": "LFLS",
      "alert": "OK",
      "vis_m": 9999,
      "fzfg": false,
      "metar_trigger": false,
      "taf_trigger": false,
      "metar": "METAR LFLS 031730Z AUTO 33017KT CAVOK 28/10 Q1023 TEMPO 35018G28KT",
      "taf": "TAF LFLS 031400Z 0315/0415 35015KT CAVOK"
    },
    {
      "icao": "LFMN",
      "alert": "OK",
      "vis_m": 9999,
      "fzfg": false,
      "metar_trigger": false,
      "taf_trigger": false,
      "metar": "METAR LFMN 031730Z 22009KT 9999 FEW120 29/19 Q1018 NOSIG",
      "taf": "TAF LFMN 031400Z 0315/0421 19006KT CAVOK"
    },
    {
      "icao": "LFOB",
      "alert": "OK",
      "vis_m": 9999,
      "fzfg": false,
      "metar_trigger": false,
      "taf_trigger": false,
      "metar": "METAR LFOB 031730Z AUTO 31010KT CAVOK 25/07 Q1027 NOSIG",
      "taf": "TAF LFOB 031700Z 0318/0418 33010KT CAVOK"
    },
    {
      "icao": "LFPO",
      "alert": "OK",
      "vis_m": 9999,
      "fzfg": false,
      "metar_trigger": false,
      "taf_trigger": false,
      "metar": "METAR LFPO 031730Z AUTO 35009KT 300V030 CAVOK 29/08 Q1026 NOSIG",
      "taf": "TAF LFPO 031700Z 0318/0424 33008KT CAVOK"
    },
    {
      "icao": "LFSB",
      "alert": "OK",
      "vis_m": 9999,
      "fzfg": false,
      "metar_trigger": false,
      "taf_trigger": false,
      "metar": "METAR LFSB 031730Z AUTO 01010KT CAVOK 27/08 Q1024 NOSIG",
      "taf": "TAF LFSB 031700Z 0318/0418 35008KT CAVOK"
    },
    {
      "icao": "LGAV",
      "alert": "OK",
      "vis_m": 9999,
      "fzfg": false,
      "metar_trigger": false,
      "taf_trigger": false,
      "metar": "METAR LGAV 031720Z 21004KT 140V250 9999 FEW025 29/18 Q1011 NOSIG",
      "taf": "TAF LGAV 031700Z 0318/0418 06010KT 9999 FEW025"
    },
    {
      "icao": "LGTS",
      "alert": "OK",
      "vis_m": 9999,
      "fzfg": false,
      "metar_trigger": false,
      "taf_trigger": false,
      "metar": "METAR LGTS 031720Z 34011KT 9999 FEW025 32/17 Q1009 NOSIG",
      "taf": "TAF LGTS 031700Z 0318/0418 33013KT 9999 FEW030"
    },
    {
      "icao": "LHBP",
      "alert": "OK",
      "vis_m": 9999,
      "fzfg": false,
      "metar_trigger": false,
      "taf_trigger": false,
      "metar": "METAR LHBP 031730Z 32019KT CAVOK 26/03 Q1017 NOSIG",
      "taf": "TAF LHBP 031715Z 0318/0418 31014G26KT CAVOK"
    },
    {
      "icao": "LHDC",
      "alert": "OK",
      "vis_m": 9999,
      "fzfg": false,
      "metar_trigger": false,
      "taf_trigger": false,
      "metar": "METAR LHDC 031715Z AUTO 03014KT 360V060 CAVOK 25/14 Q1015 NOSIG",
      "taf": "TAF LHDC 031415Z 0315/0324 35012G22KT CAVOK"
    },
    {
      "icao": "LIBD",
      "alert": "OK",
      "vis_m": 9999,
      "fzfg": false,
      "metar_trigger": false,
      "taf_trigger": false,
      "metar": "METAR LIBD 031720Z 33008KT 290V010 CAVOK 28/20 Q1014",
      "taf": "TAF LIBD 031700Z 0318/0418 35010KT 9999 FEW030"
    },
    {
      "icao": "LIBG",
      "alert": "OK",
      "vis_m": 9999,
      "fzfg": false,
      "metar_trigger": false,
      "taf_trigger": false,
      "metar": "METAR LIBG 031720Z AUTO 01013KT 9999 NCD 29/16 Q1013",
      "taf": "TAF LIBG 031700Z 0318/0418 35015KT 9999 FEW030"
    },
    {
      "icao": "LIBP",
      "alert": "OK",
      "vis_m": 9999,
      "fzfg": false,
      "metar_trigger": false,
      "taf_trigger": false,
      "metar": "METAR LIBP 031720Z AUTO 34005KT 300V020 9999 NCD 28/16 Q1017",
      "taf": "TAF LIBP 031700Z 0318/0418 01010KT 9999 FEW040"
    },
    {
      "icao": "LIBR",
      "alert": "OK",
      "vis_m": 9999,
      "fzfg": false,
      "metar_trigger": false,
      "taf_trigger": false,
      "metar": "METAR LIBR 031720Z 34014KT CAVOK 28/21 Q1013",
      "taf": "TAF LIBR 031700Z 0318/0418 33013KT 9999 FEW030"
    },
    {
      "icao": "LICA",
      "alert": "OK",
      "vis_m": 9999,
      "fzfg": false,
      "metar_trigger": false,
      "taf_trigger": false,
      "metar": "METAR LICA 031720Z AUTO 23011KT 9999 BKN064/// 27/22 Q1014",
      "taf": "TAF LICA 031700Z 0318/0418 25010KT 9999 FEW030"
    },
    {
      "icao": "LICC",
      "alert": "OK",
      "vis_m": 9999,
      "fzfg": false,
      "metar_trigger": false,
      "taf_trigger": false,
      "metar": "METAR LICC 031720Z 09003KT 9999 FEW080 SCT100 25/18 Q1013",
      "taf": "TAF LICC 031700Z 0318/0418 VRB05KT 9999 FEW040"
    },
    {
      "icao": "LICJ",
      "alert": "OK",
      "vis_m": 9999,
      "fzfg": false,
      "metar_trigger": false,
      "taf_trigger": false,
      "metar": "METAR LICJ 031720Z 03012KT 9999 FEW030 28/21 Q1014",
      "taf": "TAF LICJ 031700Z 0318/0418 01010KT 9999 FEW030"
    },
    {
      "icao": "LIMC",
      "alert": "OK",
      "vis_m": 9999,
      "fzfg": false,
      "metar_trigger": false,
      "taf_trigger": false,
      "metar": "METAR LIMC 031720Z 24006KT 220V280 CAVOK 32/10 Q1018 NOSIG",
      "taf": "TAF LIMC 031700Z 0318/0424 VRB05KT 9999 FEW070"
    },
    {
      "icao": "LIME",
      "alert": "OK",
      "vis_m": 9999,
      "fzfg": false,
      "metar_trigger": false,
      "taf_trigger": false,
      "metar": "METAR LIME 031720Z 18005KT CAVOK 31/13 Q1018 NOSIG",
      "taf": "TAF LIME 031700Z 0318/0418 VRB05KT 9999 FEW070"
    },
    {
      "icao": "LIMF",
      "alert": "OK",
      "vis_m": 9999,
      "fzfg": false,
      "metar_trigger": false,
      "taf_trigger": false,
      "metar": "METAR LIMF 031720Z VRB02KT CAVOK 33/10 Q1018",
      "taf": "TAF LIMF 031700Z 0318/0418 VRB05KT 9999 FEW090"
    },
    {
      "icao": "LIMJ",
      "alert": "OK",
      "vis_m": 9999,
      "fzfg": false,
      "metar_trigger": false,
      "taf_trigger": false,
      "metar": "METAR LIMJ 031720Z 28004KT 9999 FEW060 29/18 Q1017",
      "taf": "TAF LIMJ 031700Z 0318/0418 VRB05KT CAVOK"
    },
    {
      "icao": "LIPE",
      "alert": "OK",
      "vis_m": 9999,
      "fzfg": false,
      "metar_trigger": false,
      "taf_trigger": false,
      "metar": "METAR LIPE 031720Z 06004KT 020V090 CAVOK 31/13 Q1017",
      "taf": "TAF LIPE 031700Z 0318/0418 VRB05KT CAVOK"
    },
    {
      "icao": "LIPH",
      "alert": "OK",
      "vis_m": 9999,
      "fzfg": false,
      "metar_trigger": false,
      "taf_trigger": false,
      "metar": "METAR LIPH 031720Z 14005KT CAVOK 31/15 Q1017",
      "taf": "TAF LIPH 031700Z 0318/0418 VRB05KT 9999 FEW030"
    },
    {
      "icao": "LIPQ",
      "alert": "OK",
      "vis_m": 9999,
      "fzfg": false,
      "metar_trigger": false,
      "taf_trigger": false,
      "metar": "METAR LIPQ 031720Z AUTO 25006KT 9999 NCD 31/15 Q1017",
      "taf": "TAF LIPQ 031700Z 0318/0418 VRB05KT CAVOK"
    },
    {
      "icao": "LIPR",
      "alert": "OK",
      "vis_m": 9999,
      "fzfg": false,
      "metar_trigger": false,
      "taf_trigger": false,
      "metar": "METAR LIPR 031720Z 02004KT CAVOK 29/16 Q1017",
      "taf": "TAF LIPR 031700Z 0318/0418 VRB05KT CAVOK"
    },
    {
      "icao": "LIPX",
      "alert": "OK",
      "vis_m": 9999,
      "fzfg": false,
      "metar_trigger": false,
      "taf_trigger": false,
      "metar": "METAR LIPX 031720Z 19004KT 160V240 CAVOK 31/16 Q1017",
      "taf": "TAF LIPX 031700Z 0318/0418 VRB05KT 9999 FEW080"
    },
    {
      "icao": "LIPY",
      "alert": "OK",
      "vis_m": 9999,
      "fzfg": false,
      "metar_trigger": false,
      "taf_trigger": false,
      "metar": "METAR LIPY 031720Z AUTO 35008KT 9999 NCD 28/18 Q1017",
      "taf": "TAF LIPY 031700Z 0318/0418 35010KT CAVOK"
    },
    {
      "icao": "LIPZ",
      "alert": "OK",
      "vis_m": 9999,
      "fzfg": false,
      "metar_trigger": false,
      "taf_trigger": false,
      "metar": "METAR LIPZ 031720Z 19002KT CAVOK 31/14 Q1017 NOSIG",
      "taf": "TAF LIPZ 031700Z 0318/0424 VRB05KT CAVOK"
    },
    {
      "icao": "LIRF",
      "alert": "OK",
      "vis_m": 9999,
      "fzfg": false,
      "metar_trigger": false,
      "taf_trigger": false,
      "metar": "METAR LIRF 031720Z 29014KT CAVOK 28/20 Q1014 NOSIG",
      "taf": "TAF LIRF 031700Z 0318/0424 30014KT CAVOK"
    },
    {
      "icao": "LIRN",
      "alert": "OK",
      "vis_m": 9999,
      "fzfg": false,
      "metar_trigger": false,
      "taf_trigger": false,
      "metar": "METAR LIRN 031720Z 06010KT CAVOK 31/16 Q1015 NOSIG",
      "taf": "TAF LIRN 031700Z 0318/0418 VRB05KT 9999 FEW030"
    },
    {
      "icao": "LIRP",
      "alert": "OK",
      "vis_m": 9999,
      "fzfg": false,
      "metar_trigger": false,
      "taf_trigger": false,
      "metar": "METAR LIRP 031715Z 32009KT 9999 FEW040 31/15 Q1016 NOSIG",
      "taf": "TAF LIRP 031700Z 0318/0418 32012KT 9999 FEW035"
    },
    {
      "icao": "LIRZ",
      "alert": "OK",
      "vis_m": 9999,
      "fzfg": false,
      "metar_trigger": false,
      "taf_trigger": false,
      "metar": "METAR LIRZ 031720Z AUTO 03015KT 9999 NCD 29/11 Q1017",
      "taf": "TAF LIRZ 031700Z 0318/0418 02013KT CAVOK"
    },
    {
      "icao": "LJLJ",
      "alert": "OK",
      "vis_m": 9999,
      "fzfg": false,
      "metar_trigger": false,
      "taf_trigger": false,
      "metar": "METAR LJLJ 031730Z 07006KT 060V140 9999 FEW075 26/14 Q1019 NOSIG",
      "taf": "TAF LJLJ 031700Z 0318/0418 07006KT 9999 FEW070"
    },
    {
      "icao": "LKMT",
      "alert": "OK",
      "vis_m": 9999,
      "fzfg": false,
      "metar_trigger": false,
      "taf_trigger": false,
      "metar": "METAR LKMT 031730Z 34007KT CAVOK 21/08 Q1021 NOSIG",
      "taf": "TAF LKMT 031700Z 0318/0418 32008KT CAVOK"
    },
    {
      "icao": "LKPR",
      "alert": "OK",
      "vis_m": 9999,
      "fzfg": false,
      "metar_trigger": false,
      "taf_trigger": false,
      "metar": "METAR LKPR 031730Z 31017KT CAVOK 21/06 Q1023 NOSIG",
      "taf": "TAF LKPR 031700Z 0318/0424 32010KT CAVOK"
    },
    {
      "icao": "LLBG",
      "alert": "OK",
      "vis_m": 9999,
      "fzfg": false,
      "metar_trigger": false,
      "taf_trigger": false,
      "metar": "METAR LLBG 031720Z 29006KT 9999 FEW022 27/22 Q1009 NOSIG",
      "taf": "TAF LLBG 031702Z 0318/0418 VRB04KT 9999 SCT022 TX30/0412Z TN24/0403Z"
    },
    {
      "icao": "LMML",
      "alert": "OK",
      "vis_m": 9999,
      "fzfg": false,
      "metar_trigger": false,
      "taf_trigger": false,
      "metar": "METAR LMML 031745Z 29013KT 9999 FEW025 26/19 Q1014 NOSIG",
      "taf": "TAF LMML 031700Z 0318/0418 30011KT 9999 FEW020"
    },
    {
      "icao": "LOWW",
      "alert": "OK",
      "vis_m": 9999,
      "fzfg": false,
      "metar_trigger": false,
      "taf_trigger": false,
      "metar": "METAR LOWW 031720Z 34016KT 310V010 CAVOK 26/06 Q1020 NOSIG",
      "taf": "TAF LOWW 031732Z 0318/0424 33015KT CAVOK TX26/0414Z TN15/0403Z"
    },
    {
      "icao": "LPFR",
      "alert": "OK",
      "vis_m": 9999,
      "fzfg": false,
      "metar_trigger": false,
      "taf_trigger": false,
      "metar": "METAR LPFR 031730Z 11007KT CAVOK 30/19 Q1017",
      "taf": "TAF LPFR 031700Z 0318/0418 09010KT CAVOK"
    },
    {
      "icao": "LPMA",
      "alert": "OK",
      "vis_m": 9999,
      "fzfg": false,
      "metar_trigger": false,
      "taf_trigger": false,
      "metar": "METAR LPMA 031730Z 15005KT 120V180 9999 FEW010 24/20 Q1015",
      "taf": "TAF LPMA 031700Z 0318/0418 VRB05KT 9999 FEW015"
    },
    {
      "icao": "LPPR",
      "alert": "OK",
      "vis_m": 9999,
      "fzfg": false,
      "metar_trigger": false,
      "taf_trigger": false,
      "metar": "METAR LPPR 031730Z 33008KT CAVOK 35/13 Q1018",
      "taf": "TAF LPPR 031700Z 0318/0418 33010KT CAVOK"
    },
    {
      "icao": "LPPS",
      "alert": "OK",
      "vis_m": 9999,
      "fzfg": false,
      "metar_trigger": false,
      "taf_trigger": false,
      "metar": "METAR LPPS 031730Z 34011KT 9999 FEW008 24/20 Q1016",
      "taf": "TAF LPPS 031700Z 0318/0424 35013KT 9999 SCT008 SCT015"
    },
    {
      "icao": "LPPT",
      "alert": "OK",
      "vis_m": 9999,
      "fzfg": false,
      "metar_trigger": false,
      "taf_trigger": false,
      "metar": "METAR LPPT 031730Z 31011KT CAVOK 33/15 Q1018 NOSIG",
      "taf": "TAF LPPT 031700Z 0318/0424 32010KT CAVOK"
    },
    {
      "icao": "LQBK",
      "alert": "OK",
      "vis_m": 9999,
      "fzfg": false,
      "metar_trigger": false,
      "taf_trigger": false,
      "metar": "METAR LQBK 031730Z 36008KT 320V020 CAVOK 27/13 Q1018 NOSIG",
      "taf": "TAF LQBK 031700Z 0318/0418 29005KT CAVOK TX28/0413Z TN14/0403Z"
    },
    {
      "icao": "LQSA",
      "alert": "OK",
      "vis_m": 9999,
      "fzfg": false,
      "metar_trigger": false,
      "taf_trigger": false,
      "metar": "METAR LQSA 031730Z 31006KT CAVOK 24/13 Q1019 NOSIG",
      "taf": "TAF LQSA 031700Z 0318/0418 29005KT 9999 SCT055 TX27/0413Z TN13/0403Z"
    },
    {
      "icao": "LQTZ",
      "alert": "OK",
      "vis_m": 9999,
      "fzfg": false,
      "metar_trigger": false,
      "taf_trigger": false,
      "metar": "METAR LQTZ 031730Z 32005KT 9999 FEW068 25/16 Q1018",
      "taf": "TAF LQTZ 031700Z 0318/0418 27005KT CAVOK TX26/0413Z TN14/0403Z"
    },
    {
      "icao": "LRBC",
      "alert": "OK",
      "vis_m": 9999,
      "fzfg": false,
      "metar_trigger": false,
      "taf_trigger": false,
      "metar": "METAR LRBC 031730Z 32019KT 9999 FEW034 SCT053 20/13 Q1014",
      "taf": "TAF LRBC 031700Z 0318/0403 35014KT 9999 SCT040"
    },
    {
      "icao": "LRBS",
      "alert": "OK",
      "vis_m": 9999,
      "fzfg": false,
      "metar_trigger": false,
      "taf_trigger": false,
      "metar": "METAR LRBS 031730Z 27004KT CAVOK 25/17 Q1010 NOSIG",
      "taf": "TAF LRBS 031700Z 0318/0418 VRB04KT 9999 SCT045"
    },
    {
      "icao": "LRBV",
      "alert": "OK",
      "vis_m": 9999,
      "fzfg": false,
      "metar_trigger": false,
      "taf_trigger": false,
      "metar": "METAR LRBV 031730Z VRB01KT 9999 SCT028 BKN066 20/17 Q1015",
      "taf": "TAF LRBV 031700Z 0318/0403 30009KT 9999 SCT045"
    },
    {
      "icao": "LRCL",
      "alert": "OK",
      "vis_m": 9999,
      "fzfg": false,
      "metar_trigger": false,
      "taf_trigger": false,
      "metar": "METAR LRCL 031730Z 31008KT 280V340 9999 FEW069 26/11 Q1014",
      "taf": "TAF LRCL 031700Z 0318/0403 32010KT 9999 SCT045"
    },
    {
      "icao": "LRCV",
      "alert": "OK",
      "vis_m": 9999,
      "fzfg": false,
      "metar_trigger": false,
      "taf_trigger": false,
      "metar": "METAR LRCV 031730Z 25007KT 9999 VCSH FEW050CB 24/21 Q1012",
      "taf": "TAF LRCV 031700Z 0318/0403 31009KT 9999 SCT045"
    },
    {
      "icao": "LRIA",
      "alert": "OK",
      "vis_m": 9999,
      "fzfg": false,
      "metar_trigger": false,
      "taf_trigger": false,
      "metar": "METAR LRIA 031730Z 30014KT CAVOK 23/14 Q1012",
      "taf": "TAF LRIA 031700Z 0318/0403 31015KT 9999 SCT045"
    },
    {
      "icao": "LROP",
      "alert": "OK",
      "vis_m": 9999,
      "fzfg": false,
      "metar_trigger": false,
      "taf_trigger": false,
      "metar": "METAR LROP 031730Z 25006KT CAVOK 23/18 Q1010 NOSIG",
      "taf": "TAF LROP 031700Z 0318/0418 VRB04KT 9999 SCT045"
    },
    {
      "icao": "LRSB",
      "alert": "OK",
      "vis_m": 9999,
      "fzfg": false,
      "metar_trigger": false,
      "taf_trigger": false,
      "metar": "METAR LRSB 031730Z 19005KT 9999 SCT055 BKN080 19/18 Q1015",
      "taf": "TAF LRSB 031700Z 0318/0418 27007KT 9999 FEW040CB"
    },
    {
      "icao": "LRSM",
      "alert": "OK",
      "vis_m": 9999,
      "fzfg": false,
      "metar_trigger": false,
      "taf_trigger": false,
      "metar": "METAR LRSM 031730Z AUTO 35014KT 9999 SCT090/// 24/13 Q1015",
      "taf": "TAF LRSM 031400Z 0315/0324 34015KT CAVOK"
    },
    {
      "icao": "LRSV",
      "alert": "OK",
      "vis_m": 9999,
      "fzfg": false,
      "metar_trigger": false,
      "taf_trigger": false,
      "metar": "METAR LRSV 031730Z 30008KT 9999 -RA NSC 16/15 Q1015",
      "taf": "TAF LRSV 031700Z 0318/0403 30016KT 9999 SCT035"
    },
    {
      "icao": "LRTM",
      "alert": "OK",
      "vis_m": 9999,
      "fzfg": false,
      "metar_trigger": false,
      "taf_trigger": false,
      "metar": "METAR LRTM 031730Z VRB02KT CAVOK 23/19 Q1014",
      "taf": "TAF LRTM 031700Z 0318/0403 VRB04KT 9999 SCT040"
    },
    {
      "icao": "LRTR",
      "alert": "OK",
      "vis_m": 9999,
      "fzfg": false,
      "metar_trigger": false,
      "taf_trigger": false,
      "metar": "METAR LRTR 031730Z 34006KT CAVOK 28/12 Q1014",
      "taf": "TAF LRTR 031700Z 0318/0418 35008KT CAVOK"
    },
    {
      "icao": "LTAC",
      "alert": "OK",
      "vis_m": 9999,
      "fzfg": false,
      "metar_trigger": false,
      "taf_trigger": false,
      "metar": "METAR LTAC 031720Z 05010KT 9999 FEW040 SCT100 25/09 Q1011 NOSIG",
      "taf": "TAF LTAC 031640Z 0318/0418 VRB02KT CAVOK"
    },
    {
      "icao": "LTFM",
      "alert": "OK",
      "vis_m": 9999,
      "fzfg": false,
      "metar_trigger": false,
      "taf_trigger": false,
      "metar": "METAR LTFM 031720Z 03005KT CAVOK 27/17 Q1009 NOSIG",
      "taf": "TAF LTFM 031640Z 0318/0424 VRB02KT CAVOK"
    },
    {
      "icao": "LUKK",
      "alert": "OK",
      "vis_m": 9999,
      "fzfg": false,
      "metar_trigger": false,
      "taf_trigger": false,
      "metar": "METAR LUKK 031730Z 34009KT 310V020 9999 FEW033CB 26/19 Q1010 TEMPO 34020G30KT SCT035CB",
      "taf": "TAF LUKK 031704Z 0318/0418 33012KT 9999 SCT030"
    },
    {
      "icao": "LWOH",
      "alert": "OK",
      "vis_m": null,
      "fzfg": false,
      "metar_trigger": false,
      "taf_trigger": false,
      "metar": "",
      "taf": "TAF LWOH 031710Z 0318/0418 34010KT 9999 FEW035 SCT090"
    },
    {
      "icao": "LWSK",
      "alert": "OK",
      "vis_m": null,
      "fzfg": false,
      "metar_trigger": false,
      "taf_trigger": false,
      "metar": "",
      "taf": "TAF LWSK 031710Z 0318/0418 35016KT 9999 SCT060"
    },
    {
      "icao": "LYBE",
      "alert": "OK",
      "vis_m": 9999,
      "fzfg": false,
      "metar_trigger": false,
      "taf_trigger": false,
      "metar": "METAR LYBE 031730Z 33012KT CAVOK 28/13 Q1015 NOSIG",
      "taf": "TAF LYBE 031700Z 0318/0418 32008KT CAVOK TX28/0318Z TN16/0403Z"
    },
    {
      "icao": "LYNI",
      "alert": "OK",
      "vis_m": 9999,
      "fzfg": false,
      "metar_trigger": false,
      "taf_trigger": false,
      "metar": "METAR LYNI 031730Z 29006KT 250V330 9999 BKN090 25/17 Q1016 NOSIG",
      "taf": "TAF LYNI 031700Z 0318/0418 30008KT 9999 SCT030 BKN050 TX26/0413Z TN18/0403Z"
    },
    {
      "icao": "LYPG",
      "alert": "OK",
      "vis_m": 9999,
      "fzfg": false,
      "metar_trigger": false,
      "taf_trigger": false,
      "metar": "METAR LYPG 031730Z 01014KT 340V040 9999 FEW040 30/13 Q1012 TEMPO 01030KT",
      "taf": "TAF LYPG 031700Z 0318/0418 36017KT CAVOK TX33/0413Z TN25/0403Z"
    },
    {
      "icao": "LZIB",
      "alert": "OK",
      "vis_m": 9999,
      "fzfg": false,
      "metar_trigger": false,
      "taf_trigger": false,
      "metar": "METAR LZIB 031730Z 35013KT CAVOK 25/07 Q1020 NOSIG",
      "taf": "TAF LZIB 031715Z 0318/0418 33010KT CAVOK"
    },
    {
      "icao": "LZKZ",
      "alert": "OK",
      "vis_m": 9999,
      "fzfg": false,
      "metar_trigger": false,
      "taf_trigger": false,
      "metar": "METAR LZKZ 031730Z 36021KT CAVOK 23/07 Q1017 NOSIG",
      "taf": "TAF LZKZ 031715Z 0318/0418 02014KT CAVOK"
    },
    {
      "icao": "LZTT",
      "alert": "OK",
      "vis_m": 9999,
      "fzfg": false,
      "metar_trigger": false,
      "taf_trigger": false,
      "metar": "METAR LZTT 031730Z VRB04KT 9999 FEW063 19/03 Q1019 NOSIG",
      "taf": "TAF LZTT 031715Z 0318/0418 27007KT 9999 FEW060"
    },
    {
      "icao": "OEJN",
      "alert": "OK",
      "vis_m": 9999,
      "fzfg": false,
      "metar_trigger": false,
      "taf_trigger": false,
      "metar": "METAR OEJN 031700Z 33009KT CAVOK 35/19 Q1004 NOSIG",
      "taf": "TAF OEJN 031700Z 0318/0424 36005KT 7000 NSC"
    },
    {
      "icao": "OEMA",
      "alert": "OK",
      "vis_m": 9999,
      "fzfg": false,
      "metar_trigger": false,
      "taf_trigger": false,
      "metar": "METAR OEMA 031700Z 21011KT CAVOK 42/06 Q1008 NOSIG",
      "taf": "TAF OEMA 031700Z 0318/0424 29006KT CAVOK"
    },
    {
      "icao": "OJAI",
      "alert": "OK",
      "vis_m": 4000,
      "fzfg": false,
      "metar_trigger": false,
      "taf_trigger": false,
      "metar": "METAR OJAI 031700Z 30013KT 4000 DU NSC 26/14 Q1012 NOSIG",
      "taf": "TAF OJAI 031648Z 0318/0424 29012KT 4000 DU NSC"
    },
    {
      "icao": "OMAA",
      "alert": "OK",
      "vis_m": 8000,
      "fzfg": false,
      "metar_trigger": false,
      "taf_trigger": false,
      "metar": "METAR OMAA 031730Z 33002KT 8000 NSC 33/28 Q0999 NOSIG",
      "taf": "TAF OMAA 031700Z 0318/0500 VRB02KT 7000 NSC"
    },
    {
      "icao": "OMDB",
      "alert": "OK",
      "vis_m": 9999,
      "fzfg": false,
      "metar_trigger": false,
      "taf_trigger": false,
      "metar": "METAR OMDB 031730Z 33005KT 300V010 CAVOK 37/26 Q0999 NOSIG",
      "taf": "TAF OMDB 031700Z 0318/0500 04005KT 8000 NSC"
    },
    {
      "icao": "UAAA",
      "alert": "OK",
      "vis_m": 3600,
      "fzfg": false,
      "metar_trigger": false,
      "taf_trigger": false,
      "metar": "METAR UAAA 031730Z 05002MPS 3600 BR FEW100 BKN200 15/15 Q1012 NOSIG",
      "taf": "TAF UAAA 031700Z 0318/0418 14002MPS 3100 BR SCT015CB BKN100 TX20/0410Z TN13/0401Z"
    },
    {
      "icao": "UBBB",
      "alert": "OK",
      "vis_m": 9999,
      "fzfg": false,
      "metar_trigger": false,
      "taf_trigger": false,
      "metar": "METAR UBBB 031730Z 16008KT CAVOK 25/19 Q1007 NOSIG",
      "taf": "TAF UBBB 031658Z 0318/0418 16005KT 9999 SCT040 TX31/0410Z TN20/0401Z"
    },
    {
      "icao": "UDSG",
      "alert": "OK",
      "vis_m": 9000,
      "fzfg": false,
      "metar_trigger": false,
      "taf_trigger": false,
      "metar": "METAR UDSG 031730Z 03012KT 9000 -TSRA BKN033CB 15/13 Q1017 NOSIG",
      "taf": "TAF UDSG 031700Z 0318/0418 03006KT 9999 SCT040"
    },
    {
      "icao": "UDYZ",
      "alert": "OK",
      "vis_m": 9999,
      "fzfg": false,
      "metar_trigger": false,
      "taf_trigger": false,
      "metar": "METAR UDYZ 031730Z 02023G34KT 9999 VCTS BKN043CB 28/13 Q1005 TEMPO 03036G46KT -TSRA",
      "taf": "TAF UDYZ 031700Z 0318/0418 04006KT 9999 SCT040"
    },
    {
      "icao": "UGKO",
      "alert": "OK",
      "vis_m": 9999,
      "fzfg": false,
      "metar_trigger": false,
      "taf_trigger": false,
      "metar": "METAR UGKO 031730Z 28007KT 9999 SCT035 BKN050 24/20 Q1008 NOSIG",
      "taf": "TAF UGKO 031700Z 0318/0418 26007KT 9999 SCT030 BKN050 TX28/0412Z TN20/0402Z"
    }
  ]
}