{
  "ts_utc": "2026-05-09T08:07:58Z",
  "threshold_m": 150,
  "source": "stations_override.txt (ICAO list) + aviationweather.gov (METAR/TAF raw)",
  "station_count": 159,
  "stations": [
    {
      "icao": "BIKF",
      "alert": "OK",
      "vis_m": 8000,
      "fzfg": false,
      "metar_trigger": false,
      "taf_trigger": false,
      "metar": "METAR BIKF 090800Z 27010KT 8000 SCT019 BKN034 06/05 Q1024",
      "taf": "TAF BIKF 090752Z 0909/1009 26010KT 9999 SCT013 BKN023 TX06/0915Z TN05/1006Z"
    },
    {
      "icao": "BKPR",
      "alert": "OK",
      "vis_m": 9999,
      "fzfg": false,
      "metar_trigger": false,
      "taf_trigger": false,
      "metar": "METAR BKPR 090800Z 34006KT 9999 -RA SCT006 BKN020 13/13 Q1017 NOSIG",
      "taf": "TAF BKPR 090530Z 0906/1006 VRB03KT 9999 SCT015 BKN030"
    },
    {
      "icao": "EBCI",
      "alert": "OK",
      "vis_m": 9999,
      "fzfg": false,
      "metar_trigger": false,
      "taf_trigger": false,
      "metar": "METAR EBCI 090750Z 05005KT 020V080 CAVOK 15/08 Q1018 NOSIG",
      "taf": "TAF EBCI 090501Z 0906/1012 09003KT CAVOK"
    },
    {
      "icao": "EDDB",
      "alert": "OK",
      "vis_m": 9999,
      "fzfg": false,
      "metar_trigger": false,
      "taf_trigger": false,
      "metar": "METAR EDDB 090750Z AUTO 06005KT 030V110 CAVOK 12/07 Q1021 NOSIG",
      "taf": "TAF EDDB 090500Z 0906/1006 06005KT 9999 SCT045"
    },
    {
      "icao": "EDDH",
      "alert": "OK",
      "vis_m": 9999,
      "fzfg": false,
      "metar_trigger": false,
      "taf_trigger": false,
      "metar": "METAR EDDH 090750Z AUTO 10008KT 060V130 CAVOK 13/01 Q1021 NOSIG",
      "taf": "TAF EDDH 090500Z 0906/1012 06005KT 9999 SCT040"
    },
    {
      "icao": "EDDK",
      "alert": "OK",
      "vis_m": 9999,
      "fzfg": false,
      "metar_trigger": false,
      "taf_trigger": false,
      "metar": "METAR EDDK 090750Z AUTO 15005KT 100V180 CAVOK 14/08 Q1019 NOSIG",
      "taf": "TAF EDDK 090500Z 0906/1012 05003KT CAVOK"
    },
    {
      "icao": "EDDN",
      "alert": "OK",
      "vis_m": 9999,
      "fzfg": false,
      "metar_trigger": false,
      "taf_trigger": false,
      "metar": "METAR EDDN 090750Z AUTO 14005KT 100V180 CAVOK 13/08 Q1019 NOSIG",
      "taf": "TAF EDDN 090500Z 0906/1006 VRB02KT CAVOK"
    },
    {
      "icao": "EDDS",
      "alert": "OK",
      "vis_m": 9999,
      "fzfg": false,
      "metar_trigger": false,
      "taf_trigger": false,
      "metar": "METAR EDDS 090750Z AUTO VRB03KT CAVOK 15/08 Q1017 NOSIG",
      "taf": "TAF EDDS 090500Z 0906/1006 VRB02KT CAVOK"
    },
    {
      "icao": "EDFH",
      "alert": "OK",
      "vis_m": 9999,
      "fzfg": false,
      "metar_trigger": false,
      "taf_trigger": false,
      "metar": "METAR EDFH 090750Z 11007KT 080V150 CAVOK 13/08 Q1018",
      "taf": "TAF EDFH 090500Z 0906/1006 11006KT CAVOK"
    },
    {
      "icao": "EDJA",
      "alert": "OK",
      "vis_m": 9999,
      "fzfg": false,
      "metar_trigger": false,
      "taf_trigger": false,
      "metar": "METAR EDJA 090750Z 22004KT 180V250 CAVOK 15/09 Q1018",
      "taf": "TAF EDJA 090500Z 0906/0915 05004KT 9999 SCT020"
    },
    {
      "icao": "EDLW",
      "alert": "OK",
      "vis_m": 9999,
      "fzfg": false,
      "metar_trigger": false,
      "taf_trigger": false,
      "metar": "METAR EDLW 090750Z VRB01KT CAVOK 14/09 Q1019",
      "taf": "TAF EDLW 090500Z 0906/1006 08004KT CAVOK"
    },
    {
      "icao": "EDNY",
      "alert": "OK",
      "vis_m": 9999,
      "fzfg": false,
      "metar_trigger": false,
      "taf_trigger": false,
      "metar": "METAR EDNY 090750Z VRB02KT CAVOK 16/09 Q1018",
      "taf": "TAF EDNY 090500Z 0906/0915 04004KT 9999 FEW010 SCT045"
    },
    {
      "icao": "EDSB",
      "alert": "OK",
      "vis_m": 9999,
      "fzfg": false,
      "metar_trigger": false,
      "taf_trigger": false,
      "metar": "METAR EDSB 090750Z 02004KT 300V070 CAVOK 14/09 Q1017",
      "taf": "TAF EDSB 090500Z 0906/1006 01006KT CAVOK"
    },
    {
      "icao": "EETN",
      "alert": "OK",
      "vis_m": 9999,
      "fzfg": false,
      "metar_trigger": false,
      "taf_trigger": false,
      "metar": "METAR EETN 090750Z 10013KT CAVOK 12/M04 Q1028 NOSIG",
      "taf": "TAF EETN 090530Z 0906/1006 08007KT CAVOK"
    },
    {
      "icao": "EFTU",
      "alert": "OK",
      "vis_m": 9999,
      "fzfg": false,
      "metar_trigger": false,
      "taf_trigger": false,
      "metar": "METAR EFTU 090750Z AUTO 16006KT 100V220 CAVOK 13/M05 Q1028",
      "taf": "TAF EFTU 090524Z 0906/1006 14004KT CAVOK"
    },
    {
      "icao": "EGBB",
      "alert": "OK",
      "vis_m": 9999,
      "fzfg": false,
      "metar_trigger": false,
      "taf_trigger": false,
      "metar": "METAR EGBB 090750Z 10003KT 060V140 CAVOK 14/06 Q1019",
      "taf": "TAF EGBB 090456Z 0906/1006 13003KT 9999 FEW045"
    },
    {
      "icao": "EGGP",
      "alert": "OK",
      "vis_m": 9999,
      "fzfg": false,
      "metar_trigger": false,
      "taf_trigger": false,
      "metar": "METAR EGGP 090750Z 33005KT 300V360 9999 SCT008 BKN044 12/10 Q1020",
      "taf": ""
    },
    {
      "icao": "EGGW",
      "alert": "OK",
      "vis_m": 9999,
      "fzfg": false,
      "metar_trigger": false,
      "taf_trigger": false,
      "metar": "METAR EGGW 090750Z AUTO 08007KT 9999 NCD 14/07 Q1019",
      "taf": ""
    },
    {
      "icao": "EGKK",
      "alert": "OK",
      "vis_m": 9999,
      "fzfg": false,
      "metar_trigger": false,
      "taf_trigger": false,
      "metar": "METAR EGKK 090750Z 06007KT 030V090 CAVOK 14/10 Q1018",
      "taf": "TAF EGKK 090459Z 0906/1012 05003KT CAVOK"
    },
    {
      "icao": "EGNM",
      "alert": "OK",
      "vis_m": 3500,
      "fzfg": false,
      "metar_trigger": false,
      "taf_trigger": false,
      "metar": "METAR EGNM 090750Z 01005KT 3500 -RADZ FEW006 SCT045 08/08 Q1020",
      "taf": ""
    },
    {
      "icao": "EGPD",
      "alert": "OK",
      "vis_m": 9999,
      "fzfg": false,
      "metar_trigger": false,
      "taf_trigger": false,
      "metar": "METAR EGPD 090750Z COR AUTO 33011KT 9999 FEW023 07/03 Q1024 NOSIG",
      "taf": "TAF EGPD 090455Z 0906/1006 34007KT 9999 FEW020 SCT025"
    },
    {
      "icao": "EGPF",
      "alert": "OK",
      "vis_m": 9999,
      "fzfg": false,
      "metar_trigger": false,
      "taf_trigger": false,
      "metar": "METAR EGPF 090750Z AUTO 07011KT 9999 BKN031 OVC045 10/03 Q1024",
      "taf": "TAF EGPF 090501Z 0906/1006 23004KT 9999 SCT030"
    },
    {
      "icao": "EHBK",
      "alert": "OK",
      "vis_m": 9999,
      "fzfg": false,
      "metar_trigger": false,
      "taf_trigger": false,
      "metar": "METAR EHBK 090755Z AUTO 04004KT 360V080 9999 NCD 16/09 Q1018 NOSIG",
      "taf": "TAF EHBK 090448Z 0906/1012 06005KT CAVOK"
    },
    {
      "icao": "EHEH",
      "alert": "OK",
      "vis_m": 9999,
      "fzfg": false,
      "metar_trigger": false,
      "taf_trigger": false,
      "metar": "METAR EHEH 090755Z AUTO 07005KT 040V110 9999 NCD 15/10 Q1019 BLU NOSIG RMK TREND REMOTE BY EHWX",
      "taf": "TAF EHEH 090507Z 0906/1012 04003KT 8000 BR NSC"
    },
    {
      "icao": "EKBI",
      "alert": "OK",
      "vis_m": 9999,
      "fzfg": false,
      "metar_trigger": false,
      "taf_trigger": false,
      "metar": "METAR EKBI 090750Z AUTO 12006KT 080V160 9999 NCD 12/M01 Q1023",
      "taf": "TAF EKBI 090527Z 0906/1006 09008KT CAVOK"
    },
    {
      "icao": "EKCH",
      "alert": "OK",
      "vis_m": 9999,
      "fzfg": false,
      "metar_trigger": false,
      "taf_trigger": false,
      "metar": "METAR EKCH 090750Z AUTO 07004KT 020V120 9999 NCD 11/01 Q1024 NOSIG",
      "taf": "TAF EKCH 090527Z 0906/1006 05005KT CAVOK"
    },
    {
      "icao": "ENAL",
      "alert": "OK",
      "vis_m": 9999,
      "fzfg": false,
      "metar_trigger": false,
      "taf_trigger": false,
      "metar": "METAR ENAL 090750Z 23013KT 9999 -DZ SCT034 BKN039 08/03 Q1017",
      "taf": "TAF ENAL 090500Z 0906/0915 20015KT 9999 -RA FEW020 BKN040"
    },
    {
      "icao": "ENBR",
      "alert": "OK",
      "vis_m": 9999,
      "fzfg": false,
      "metar_trigger": false,
      "taf_trigger": false,
      "metar": "METAR ENBR 090750Z VRB03KT 9999 -RA FEW014 BKN021 06/03 Q1021 TEMPO 18008KT 4000 RA BKN008 RMK WIND 1200FT 28010KT",
      "taf": "TAF ENBR 090500Z 0906/1006 16010KT 9999 SCT008 BKN018"
    },
    {
      "icao": "ENGM",
      "alert": "OK",
      "vis_m": 9999,
      "fzfg": false,
      "metar_trigger": false,
      "taf_trigger": false,
      "metar": "METAR ENGM 090750Z 17006KT 150V210 CAVOK 12/02 Q1022 NOSIG",
      "taf": "TAF ENGM 090500Z 0906/1006 VRB03KT CAVOK"
    },
    {
      "icao": "ENHD",
      "alert": "OK",
      "vis_m": 9999,
      "fzfg": false,
      "metar_trigger": false,
      "taf_trigger": false,
      "metar": "METAR ENHD 090750Z 30009KT 9999 -RA SCT005 BKN011 BKN021 08/06 Q1022",
      "taf": "TAF ENHD 090500Z 0906/0915 17012KT 9999 FEW008 BKN050"
    },
    {
      "icao": "ENTC",
      "alert": "OK",
      "vis_m": 9999,
      "fzfg": false,
      "metar_trigger": false,
      "taf_trigger": false,
      "metar": "METAR ENTC 090750Z 01006KT CAVOK 07/M03 Q1019 NOSIG RMK WIND 2600FT 16016KT",
      "taf": "TAF ENTC 090500Z 0906/1006 20006KT CAVOK"
    },
    {
      "icao": "ENTO",
      "alert": "OK",
      "vis_m": 9999,
      "fzfg": false,
      "metar_trigger": false,
      "taf_trigger": false,
      "metar": "METAR ENTO 090750Z 22011KT CAVOK 12/06 Q1023 NOSIG",
      "taf": "TAF ENTO 090500Z 0906/1006 VRB03KT CAVOK"
    },
    {
      "icao": "ENVA",
      "alert": "OK",
      "vis_m": 9999,
      "fzfg": false,
      "metar_trigger": false,
      "taf_trigger": false,
      "metar": "METAR ENVA 090750Z 18008KT 150V210 CAVOK 13/00 Q1017 NOSIG RMK WIND 670FT 19014KT",
      "taf": "TAF ENVA 090500Z 0906/1006 18008KT CAVOK"
    },
    {
      "icao": "ENZV",
      "alert": "OK",
      "vis_m": 9999,
      "fzfg": false,
      "metar_trigger": false,
      "taf_trigger": false,
      "metar": "METAR ENZV 090750Z 20010KT 170V230 9999 VCSH SCT016 SCT048 11/07 Q1022 TEMPO RA BKN012",
      "taf": "TAF ENZV 090500Z 0906/1006 17008KT CAVOK"
    },
    {
      "icao": "EPGD",
      "alert": "OK",
      "vis_m": 9999,
      "fzfg": false,
      "metar_trigger": false,
      "taf_trigger": false,
      "metar": "METAR EPGD 090800Z 01008KT 350V050 CAVOK 14/02 Q1021",
      "taf": "TAF EPGD 090530Z 0906/1006 32005KT CAVOK"
    },
    {
      "icao": "EPKK",
      "alert": "OK",
      "vis_m": 9999,
      "fzfg": false,
      "metar_trigger": false,
      "taf_trigger": false,
      "metar": "METAR EPKK 090800Z 30004KT 250V340 9999 SCT030 OVC046 12/05 Q1020",
      "taf": "TAF EPKK 090530Z 0906/1006 34006KT 9999 BKN040"
    },
    {
      "icao": "EPKT",
      "alert": "OK",
      "vis_m": 9999,
      "fzfg": false,
      "metar_trigger": false,
      "taf_trigger": false,
      "metar": "METAR EPKT 090800Z 33006KT 290V360 9999 SCT020 BKN030 11/06 Q1020",
      "taf": "TAF EPKT 090530Z 0906/1006 31003KT 9999 BKN040"
    },
    {
      "icao": "EPLB",
      "alert": "OK",
      "vis_m": 9999,
      "fzfg": false,
      "metar_trigger": false,
      "taf_trigger": false,
      "metar": "METAR EPLB 090800Z 30010KT 9999 SCT020 OVC046 12/07 Q1018",
      "taf": "TAF EPLB 090530Z 0906/1006 30006KT 9999 BKN030"
    },
    {
      "icao": "EPMO",
      "alert": "OK",
      "vis_m": 9999,
      "fzfg": false,
      "metar_trigger": false,
      "taf_trigger": false,
      "metar": "METAR EPMO 090800Z 35008KT 310V030 9999 SCT027 BKN036 11/05 Q1020",
      "taf": "TAF EPMO 090530Z 0906/1006 34005KT 9999 BKN025"
    },
    {
      "icao": "EPPO",
      "alert": "OK",
      "vis_m": 9999,
      "fzfg": false,
      "metar_trigger": false,
      "taf_trigger": false,
      "metar": "METAR EPPO 090800Z 03006KT 010V090 9999 FEW026 14/05 Q1021",
      "taf": "TAF EPPO 090530Z 0906/1006 32002KT CAVOK"
    },
    {
      "icao": "EPRA",
      "alert": "OK",
      "vis_m": 9999,
      "fzfg": false,
      "metar_trigger": false,
      "taf_trigger": false,
      "metar": "METAR EPRA 090800Z 32006KT 280V350 9999 BKN018 OVC024 10/06 Q1019",
      "taf": "TAF EPRA 090530Z 0906/0915 30008KT 9999 OVC009"
    },
    {
      "icao": "EPRZ",
      "alert": "OK",
      "vis_m": 9999,
      "fzfg": false,
      "metar_trigger": false,
      "taf_trigger": false,
      "metar": "METAR EPRZ 090800Z 32008KT 9999 SCT026 BKN046 13/06 Q1019",
      "taf": "TAF EPRZ 090530Z 0906/1006 30003KT 9999 BKN040"
    },
    {
      "icao": "EPSC",
      "alert": "OK",
      "vis_m": 9999,
      "fzfg": false,
      "metar_trigger": false,
      "taf_trigger": false,
      "metar": "METAR EPSC 090800Z 06003KT 360V110 CAVOK 14/01 Q1022",
      "taf": "TAF EPSC 090530Z 0906/1006 04004KT CAVOK"
    },
    {
      "icao": "EPSY",
      "alert": "OK",
      "vis_m": 9999,
      "fzfg": false,
      "metar_trigger": false,
      "taf_trigger": false,
      "metar": "METAR EPSY 090800Z 01006KT 350V060 9999 SCT020 BKN044 10/05 Q1020",
      "taf": "TAF EPSY 090530Z 0906/0915 02008KT 9999 BKN035"
    },
    {
      "icao": "EPWA",
      "alert": "OK",
      "vis_m": 9999,
      "fzfg": false,
      "metar_trigger": false,
      "taf_trigger": false,
      "metar": "METAR EPWA 090800Z 36007KT 330V090 9999 SCT020 BKN028 10/05 Q1020 NOSIG",
      "taf": "TAF EPWA 090530Z 0906/1006 34005KT 9999 BKN025"
    },
    {
      "icao": "EPWR",
      "alert": "OK",
      "vis_m": 9999,
      "fzfg": false,
      "metar_trigger": false,
      "taf_trigger": false,
      "metar": "METAR EPWR 090800Z VRB04KT 9999 SCT024 13/06 Q1021",
      "taf": "TAF EPWR 090530Z 0906/1006 30002KT 8000 NSC"
    },
    {
      "icao": "ESGG",
      "alert": "OK",
      "vis_m": 9999,
      "fzfg": false,
      "metar_trigger": false,
      "taf_trigger": false,
      "metar": "METAR ESGG 090750Z VRB02KT CAVOK 12/02 Q1024",
      "taf": "TAF ESGG 090530Z 0906/1006 14008KT CAVOK"
    },
    {
      "icao": "ESKN",
      "alert": "OK",
      "vis_m": 9999,
      "fzfg": false,
      "metar_trigger": false,
      "taf_trigger": false,
      "metar": "METAR ESKN 090750Z 13008KT 100V160 CAVOK 12/M03 Q1026",
      "taf": "TAF ESKN 090530Z 0906/1006 VRB02KT CAVOK"
    },
    {
      "icao": "ESMS",
      "alert": "OK",
      "vis_m": 9999,
      "fzfg": false,
      "metar_trigger": false,
      "taf_trigger": false,
      "metar": "METAR ESMS 090750Z 10006KT CAVOK 13/M00 Q1023",
      "taf": "TAF ESMS 090527Z 0906/1006 06005KT CAVOK"
    },
    {
      "icao": "ESSA",
      "alert": "OK",
      "vis_m": 9999,
      "fzfg": false,
      "metar_trigger": false,
      "taf_trigger": false,
      "metar": "METAR ESSA 090750Z 16009KT 120V190 CAVOK 12/M05 Q1026 NOSIG",
      "taf": "TAF ESSA 090530Z 0906/1006 VRB02KT CAVOK"
    },
    {
      "icao": "EYKA",
      "alert": "OK",
      "vis_m": 9999,
      "fzfg": false,
      "metar_trigger": false,
      "taf_trigger": false,
      "metar": "METAR EYKA 090750Z 03010KT 340V060 9999 -RA BKN015 OVC021 07/05 Q1018",
      "taf": "TAF EYKA 090500Z 0906/1006 02008KT 5000 RA BR SCT010 BKN015"
    },
    {
      "icao": "EYPA",
      "alert": "OK",
      "vis_m": 9999,
      "fzfg": false,
      "metar_trigger": false,
      "taf_trigger": false,
      "metar": "METAR EYPA 090750Z 07008KT 040V100 CAVOK 12/M02 Q1022",
      "taf": "TAF EYPA 090500Z 0906/1006 08008KT 9000 NSC"
    },
    {
      "icao": "EYVI",
      "alert": "OK",
      "vis_m": 9999,
      "fzfg": false,
      "metar_trigger": false,
      "taf_trigger": false,
      "metar": "METAR EYVI 090750Z 02015KT 9999 -RA OVC010 05/04 Q1016 NOSIG",
      "taf": "TAF EYVI 090500Z 0906/1006 03012KT 5000 RA BR OVC010"
    },
    {
      "icao": "GCFV",
      "alert": "OK",
      "vis_m": 9999,
      "fzfg": false,
      "metar_trigger": false,
      "taf_trigger": false,
      "metar": "METAR GCFV 090800Z COR 31013G23KT 270V340 9999 FEW025 21/13 Q1015",
      "taf": "TAF GCFV 090200Z 0903/1003 27005KT 9999 SCT030 TX24/0914Z TN17/0906Z"
    },
    {
      "icao": "GCLP",
      "alert": "OK",
      "vis_m": 9999,
      "fzfg": false,
      "metar_trigger": false,
      "taf_trigger": false,
      "metar": "METAR GCLP 090800Z 35008KT 9999 FEW030 21/12 Q1016 NOSIG",
      "taf": "TAF GCLP 090200Z 0903/1003 VRB05KT 9999 BKN030 TX22/0914Z TN16/0906Z"
    },
    {
      "icao": "GCTS",
      "alert": "OK",
      "vis_m": 9999,
      "fzfg": false,
      "metar_trigger": false,
      "taf_trigger": false,
      "metar": "METAR GCTS 090800Z 10005KT 060V140 9999 SCT030 20/14 Q1016 NOSIG",
      "taf": "TAF GCTS 090200Z 0903/1003 30005KT 9999 SCT025 TX24/0914Z TN16/0906Z"
    },
    {
      "icao": "GMAD",
      "alert": "OK",
      "vis_m": 9999,
      "fzfg": false,
      "metar_trigger": false,
      "taf_trigger": false,
      "metar": "METAR GMAD 090800Z 05007KT 020V080 9999 BKN033 18/12 Q1015 NOSIG",
      "taf": "TAF GMAD 090500Z 0906/1012 06005KT 8000 BKN016"
    },
    {
      "icao": "GMMN",
      "alert": "OK",
      "vis_m": 9999,
      "fzfg": false,
      "metar_trigger": false,
      "taf_trigger": false,
      "metar": "METAR GMMN 090800Z 22017G29KT 180V260 9999 FEW020 19/12 Q1012 NOSIG",
      "taf": "TAF GMMN 090500Z 0906/1012 19009KT 9999 FEW020"
    },
    {
      "icao": "GMMX",
      "alert": "OK",
      "vis_m": 9999,
      "fzfg": false,
      "metar_trigger": false,
      "taf_trigger": false,
      "metar": "METAR GMMX 090800Z 13004KT 080V170 9999 SCT080 18/09 Q1014 NOSIG",
      "taf": "TAF GMMX 090500Z 0906/1012 26006KT 9999 SCT080"
    },
    {
      "icao": "HEGN",
      "alert": "OK",
      "vis_m": 9999,
      "fzfg": false,
      "metar_trigger": false,
      "taf_trigger": false,
      "metar": "METAR HEGN 090700Z 33013KT CAVOK 26/06 Q1013 NOSIG",
      "taf": "TAF HEGN 090500Z 0906/1012 32010G20KT CAVOK"
    },
    {
      "icao": "HEMA",
      "alert": "OK",
      "vis_m": 9999,
      "fzfg": false,
      "metar_trigger": false,
      "taf_trigger": false,
      "metar": "METAR HEMA 090700Z 34018KT CAVOK 29/08 Q1011 NOSIG",
      "taf": "TAF HEMA 090500Z 0906/1012 33010G20KT CAVOK"
    },
    {
      "icao": "HESH",
      "alert": "OK",
      "vis_m": 9999,
      "fzfg": false,
      "metar_trigger": false,
      "taf_trigger": false,
      "metar": "METAR HESH 090700Z 35016KT CAVOK 27/16 Q1011 NOSIG",
      "taf": "TAF HESH 090500Z 0906/1012 36010G20KT CAVOK"
    },
    {
      "icao": "HESX",
      "alert": "OK",
      "vis_m": 9999,
      "fzfg": false,
      "metar_trigger": false,
      "taf_trigger": false,
      "metar": "METAR HESX 090700Z 06011KT CAVOK 21/14 Q1016 NOSIG",
      "taf": "TAF HESX 090500Z 0906/1012 05006KT 6000 NSC"
    },
    {
      "icao": "LATI",
      "alert": "OK",
      "vis_m": 9999,
      "fzfg": false,
      "metar_trigger": false,
      "taf_trigger": false,
      "metar": "METAR LATI 090750Z 36003KT 300V060 9999 SCT025 OVC040 17/14 Q1016 NOSIG",
      "taf": "TAF LATI 090500Z 0906/1006 VRB05KT 9999 BKN015 OVC030 TX22/0911Z TN12/1004Z"
    },
    {
      "icao": "LBPD",
      "alert": "OK",
      "vis_m": 9999,
      "fzfg": false,
      "metar_trigger": false,
      "taf_trigger": false,
      "metar": "METAR LBPD 090800Z AUTO 00000KT 9999 FEW015/// SCT069/// BKN170/// 17/14 Q1014 NOSIG",
      "taf": "TAF LBPD 090500Z 0906/1006 VRB03KT 9999 BKN070"
    },
    {
      "icao": "LBSF",
      "alert": "OK",
      "vis_m": 9999,
      "fzfg": false,
      "metar_trigger": false,
      "taf_trigger": false,
      "metar": "METAR LBSF 090800Z 30009KT 9999 FEW019 SCT046 OVC058 15/11 Q1015 NOSIG",
      "taf": "TAF LBSF 090500Z 0906/1006 VRB03KT 9999 SCT025 BKN050"
    },
    {
      "icao": "LBWN",
      "alert": "OK",
      "vis_m": 9999,
      "fzfg": false,
      "metar_trigger": false,
      "taf_trigger": false,
      "metar": "METAR LBWN 090800Z 11011KT 9999 SCT033 OVC048 16/14 Q1014 NOSIG",
      "taf": "TAF LBWN 090500Z 0906/1006 VRB04KT 9999 SCT020 OVC045"
    },
    {
      "icao": "LCLK",
      "alert": "OK",
      "vis_m": 9999,
      "fzfg": false,
      "metar_trigger": false,
      "taf_trigger": false,
      "metar": "METAR LCLK 090800Z 18008KT CAVOK 28/09 Q1016 NOSIG",
      "taf": "TAF LCLK 090530Z 0906/1006 32007KT CAVOK"
    },
    {
      "icao": "LCPH",
      "alert": "OK",
      "vis_m": 9999,
      "fzfg": false,
      "metar_trigger": false,
      "taf_trigger": false,
      "metar": "METAR LCPH 090800Z AUTO 30013KT 250V320 9999 NCD 22/18 Q1017 NOSIG",
      "taf": "TAF LCPH 090530Z 0906/1006 04007KT CAVOK"
    },
    {
      "icao": "LEAL",
      "alert": "OK",
      "vis_m": 9000,
      "fzfg": false,
      "metar_trigger": false,
      "taf_trigger": false,
      "metar": "METAR LEAL 090800Z 01006KT 300V050 9000 VCTS RA FEW018CB SCT063 16/15 Q1009 RETS BECMG NSW",
      "taf": "TAF LEAL 090500Z 0906/1006 VRB05KT 9999 FEW035 TX24/0912Z TN14/1005Z"
    },
    {
      "icao": "LEBB",
      "alert": "OK",
      "vis_m": 9999,
      "fzfg": false,
      "metar_trigger": false,
      "taf_trigger": false,
      "metar": "METAR LEBB 090800Z 16014G27KT 080V240 CAVOK 18/12 Q1009 NOSIG",
      "taf": "TAF LEBB 090500Z 0906/1006 13009KT 9999 FEW055 TX23/0912Z TN13/1003Z"
    },
    {
      "icao": "LEBL",
      "alert": "OK",
      "vis_m": 9999,
      "fzfg": false,
      "metar_trigger": false,
      "taf_trigger": false,
      "metar": "METAR LEBL 090800Z 07012KT 9999 BKN018 19/15 Q1013 NOSIG",
      "taf": "TAF LEBL 090500Z 0906/1006 08006KT 9999 FEW020 TX19/0913Z TN14/1005Z"
    },
    {
      "icao": "LECH",
      "alert": "OK",
      "vis_m": 9000,
      "fzfg": false,
      "metar_trigger": false,
      "taf_trigger": false,
      "metar": "METAR LECH 090800Z AUTO 06003KT 350V100 9000 SCT047 15/12 Q1013",
      "taf": "TAF LECH 090500Z 0906/1006 VRB04KT 9999 FEW020 TX19/0914Z TN11/1005Z"
    },
    {
      "icao": "LEMD",
      "alert": "OK",
      "vis_m": 9999,
      "fzfg": false,
      "metar_trigger": false,
      "taf_trigger": false,
      "metar": "METAR LEMD 090800Z 13006KT 100V160 9999 FEW053 14/10 Q1010 NOSIG",
      "taf": "TAF LEMD 090500Z 0906/1012 18007KT 9999 FEW045 TX17/0913Z TN08/1005Z"
    },
    {
      "icao": "LEMG",
      "alert": "OK",
      "vis_m": 9999,
      "fzfg": false,
      "metar_trigger": false,
      "taf_trigger": false,
      "metar": "METAR LEMG 090800Z 12010KT 080V140 9999 VCSH FEW014 SCT018 FEW022TCU BKN053 17/15 Q1011 NOSIG",
      "taf": "TAF LEMG 090500Z 0906/1006 17008KT 9999 SCT015 TX20/0914Z TN16/0906Z"
    },
    {
      "icao": "LEVC",
      "alert": "OK",
      "vis_m": 9999,
      "fzfg": false,
      "metar_trigger": false,
      "taf_trigger": false,
      "metar": "METAR LEVC 090800Z 36005KT 310V030 9999 -RA FEW025 BKN050 16/13 Q1012 RERA NOSIG",
      "taf": "TAF LEVC 090500Z 0906/1006 02005KT 9999 BKN020 TX20/0912Z TN14/1005Z"
    },
    {
      "icao": "LEXJ",
      "alert": "OK",
      "vis_m": 9999,
      "fzfg": false,
      "metar_trigger": false,
      "taf_trigger": false,
      "metar": "METAR LEXJ 090800Z 10003KT 040V170 9999 FEW030 14/12 Q1008",
      "taf": ""
    },
    {
      "icao": "LEZG",
      "alert": "OK",
      "vis_m": 9999,
      "fzfg": false,
      "metar_trigger": false,
      "taf_trigger": false,
      "metar": "METAR LEZG 090800Z 12008KT 090V160 9999 BKN020 OVC025 15/12 Q1012 NOSIG",
      "taf": "TAF LEZG 090500Z 0906/1006 12010KT 9999 FEW020 TX20/0914Z TN13/1005Z"
    },
    {
      "icao": "LEZL",
      "alert": "OK",
      "vis_m": 9999,
      "fzfg": false,
      "metar_trigger": false,
      "taf_trigger": false,
      "metar": "METAR LEZL 090800Z 18016KT 9999 FEW030 18/14 Q1009 NOSIG",
      "taf": "TAF LEZL 090200Z 0903/1003 20009KT CAVOK TX22/0914Z TN15/0906Z"
    },
    {
      "icao": "LFBD",
      "alert": "OK",
      "vis_m": 9999,
      "fzfg": false,
      "metar_trigger": false,
      "taf_trigger": false,
      "metar": "METAR LFBD 090800Z AUTO 12008KT CAVOK 17/12 Q1011 NOSIG",
      "taf": "TAF LFBD 090500Z 0906/1012 12010KT CAVOK TX24/0914Z TN14/0906Z"
    },
    {
      "icao": "LFLL",
      "alert": "OK",
      "vis_m": 9999,
      "fzfg": false,
      "metar_trigger": false,
      "taf_trigger": false,
      "metar": "METAR LFLL 090800Z 17006KT 130V220 CAVOK 18/07 Q1016 NOSIG",
      "taf": "TAF LFLL 090500Z 0906/1012 16008KT CAVOK"
    },
    {
      "icao": "LFLS",
      "alert": "OK",
      "vis_m": 9999,
      "fzfg": false,
      "metar_trigger": false,
      "taf_trigger": false,
      "metar": "METAR LFLS 090800Z AUTO VRB03KT CAVOK 17/11 Q1016 NOSIG",
      "taf": "TAF LFLS 090200Z 0903/1003 09005KT CAVOK"
    },
    {
      "icao": "LFMN",
      "alert": "OK",
      "vis_m": 9999,
      "fzfg": false,
      "metar_trigger": false,
      "taf_trigger": false,
      "metar": "METAR LFMN 090800Z 08005KT CAVOK 21/12 Q1016 NOSIG",
      "taf": "TAF LFMN 090200Z 0903/1009 33010KT CAVOK"
    },
    {
      "icao": "LFOB",
      "alert": "OK",
      "vis_m": 9999,
      "fzfg": false,
      "metar_trigger": false,
      "taf_trigger": false,
      "metar": "METAR LFOB 090800Z AUTO 09007KT 040V120 CAVOK 15/11 Q1016 NOSIG",
      "taf": "TAF LFOB 090500Z 0906/1006 VRB03KT CAVOK"
    },
    {
      "icao": "LFPO",
      "alert": "OK",
      "vis_m": 9999,
      "fzfg": false,
      "metar_trigger": false,
      "taf_trigger": false,
      "metar": "METAR LFPO 090800Z 09006KT 060V130 CAVOK 17/10 Q1015 NOSIG",
      "taf": "TAF LFPO 090500Z 0906/1012 04006KT CAVOK"
    },
    {
      "icao": "LFSB",
      "alert": "OK",
      "vis_m": 9999,
      "fzfg": false,
      "metar_trigger": false,
      "taf_trigger": false,
      "metar": "METAR LFSB 090800Z AUTO VRB02KT CAVOK 16/12 Q1017 NOSIG",
      "taf": "TAF LFSB 090500Z 0906/1006 VRB03KT CAVOK"
    },
    {
      "icao": "LGAV",
      "alert": "OK",
      "vis_m": 9999,
      "fzfg": false,
      "metar_trigger": false,
      "taf_trigger": false,
      "metar": "METAR LGAV 090750Z 26004KT 100V320 9999 FEW025 24/10 Q1015 NOSIG",
      "taf": "TAF LGAV 090500Z 0906/1006 19010KT 9999 SCT025"
    },
    {
      "icao": "LGTS",
      "alert": "OK",
      "vis_m": 9999,
      "fzfg": false,
      "metar_trigger": false,
      "taf_trigger": false,
      "metar": "METAR LGTS 090750Z 29003KT 9999 FEW010 18/16 Q1015 NOSIG",
      "taf": "TAF LGTS 090500Z 0906/1006 VRB03KT 9999 SCT025"
    },
    {
      "icao": "LHBP",
      "alert": "OK",
      "vis_m": 9999,
      "fzfg": false,
      "metar_trigger": false,
      "taf_trigger": false,
      "metar": "METAR LHBP 090800Z VRB03KT 9999 FEW032 19/11 Q1017 NOSIG",
      "taf": "TAF LHBP 090515Z 0906/1006 33007KT CAVOK"
    },
    {
      "icao": "LHDC",
      "alert": "OK",
      "vis_m": 9999,
      "fzfg": false,
      "metar_trigger": false,
      "taf_trigger": false,
      "metar": "METAR LHDC 090745Z AUTO 03008KT 360V060 CAVOK 17/11 Q1016 NOSIG",
      "taf": "TAF LHDC 090515Z 0906/0915 02008KT CAVOK"
    },
    {
      "icao": "LIBD",
      "alert": "OK",
      "vis_m": 9999,
      "fzfg": false,
      "metar_trigger": false,
      "taf_trigger": false,
      "metar": "METAR LIBD 090750Z 33005KT 290V020 CAVOK 21/12 Q1017",
      "taf": "TAF LIBD 090500Z 0906/1006 28008KT CAVOK"
    },
    {
      "icao": "LIBG",
      "alert": "OK",
      "vis_m": 9999,
      "fzfg": false,
      "metar_trigger": false,
      "taf_trigger": false,
      "metar": "METAR LIBG 090750Z 25006KT 210V300 CAVOK 20/13 Q1017",
      "taf": "TAF LIBG 090605Z 0907/0915 VRB05KT CAVOK"
    },
    {
      "icao": "LIBP",
      "alert": "OK",
      "vis_m": 9999,
      "fzfg": false,
      "metar_trigger": false,
      "taf_trigger": false,
      "metar": "METAR LIBP 090750Z AUTO 05005KT 360V080 9999 NCD 20/15 Q1017",
      "taf": "TAF LIBP 090500Z 0906/1006 VRB05KT CAVOK"
    },
    {
      "icao": "LIBR",
      "alert": "OK",
      "vis_m": 9999,
      "fzfg": false,
      "metar_trigger": false,
      "taf_trigger": false,
      "metar": "METAR LIBR 090750Z 32011KT CAVOK 18/13 Q1016",
      "taf": "TAF LIBR 090500Z 0906/1006 02010KT 9999 FEW020"
    },
    {
      "icao": "LICA",
      "alert": "OK",
      "vis_m": 9999,
      "fzfg": false,
      "metar_trigger": false,
      "taf_trigger": false,
      "metar": "METAR LICA 090750Z AUTO 22008KT 9999 NCD 21/15 Q1017",
      "taf": ""
    },
    {
      "icao": "LICC",
      "alert": "OK",
      "vis_m": 9999,
      "fzfg": false,
      "metar_trigger": false,
      "taf_trigger": false,
      "metar": "METAR LICC 090750Z 08008KT 050V110 9999 FEW015 21/18 Q1017",
      "taf": ""
    },
    {
      "icao": "LICJ",
      "alert": "OK",
      "vis_m": 9999,
      "fzfg": false,
      "metar_trigger": false,
      "taf_trigger": false,
      "metar": "METAR LICJ 090750Z 04017KT CAVOK 19/15 Q1015",
      "taf": ""
    },
    {
      "icao": "LIMC",
      "alert": "OK",
      "vis_m": 9999,
      "fzfg": false,
      "metar_trigger": false,
      "taf_trigger": false,
      "metar": "METAR LIMC 090750Z VRB02KT CAVOK 19/11 Q1018 NOSIG",
      "taf": ""
    },
    {
      "icao": "LIME",
      "alert": "OK",
      "vis_m": 9999,
      "fzfg": false,
      "metar_trigger": false,
      "taf_trigger": false,
      "metar": "METAR LIME 090750Z VRB03KT CAVOK 19/11 Q1018 NOSIG",
      "taf": ""
    },
    {
      "icao": "LIMF",
      "alert": "OK",
      "vis_m": 9999,
      "fzfg": false,
      "metar_trigger": false,
      "taf_trigger": false,
      "metar": "METAR LIMF 090750Z 17003KT 110V220 CAVOK 17/11 Q1018",
      "taf": ""
    },
    {
      "icao": "LIMJ",
      "alert": "OK",
      "vis_m": 9999,
      "fzfg": false,
      "metar_trigger": false,
      "taf_trigger": false,
      "metar": "METAR LIMJ 090750Z 12007KT 080V140 CAVOK 20/11 Q1017",
      "taf": ""
    },
    {
      "icao": "LIPE",
      "alert": "OK",
      "vis_m": 9999,
      "fzfg": false,
      "metar_trigger": false,
      "taf_trigger": false,
      "metar": "METAR LIPE 090750Z VRB02KT CAVOK 20/11 Q1017",
      "taf": "TAF LIPE 090500Z 0906/1006 VRB05KT CAVOK"
    },
    {
      "icao": "LIPH",
      "alert": "OK",
      "vis_m": 9999,
      "fzfg": false,
      "metar_trigger": false,
      "taf_trigger": false,
      "metar": "METAR LIPH 090750Z VRB02KT CAVOK 20/12 Q1017",
      "taf": "TAF LIPH 090500Z 0906/1006 VRB05KT CAVOK"
    },
    {
      "icao": "LIPQ",
      "alert": "OK",
      "vis_m": 9999,
      "fzfg": false,
      "metar_trigger": false,
      "taf_trigger": false,
      "metar": "METAR LIPQ 090750Z AUTO VRB01KT 9999 NCD 21/13 Q1017",
      "taf": "TAF LIPQ 090500Z 0906/1006 VRB05KT CAVOK"
    },
    {
      "icao": "LIPR",
      "alert": "OK",
      "vis_m": 9999,
      "fzfg": false,
      "metar_trigger": false,
      "taf_trigger": false,
      "metar": "METAR LIPR 090750Z 03005KT CAVOK 19/14 Q1017",
      "taf": "TAF LIPR 090500Z 0906/1006 VRB05KT CAVOK"
    },
    {
      "icao": "LIPX",
      "alert": "OK",
      "vis_m": 9999,
      "fzfg": false,
      "metar_trigger": false,
      "taf_trigger": false,
      "metar": "METAR LIPX 090750Z VRB03KT CAVOK 19/12 Q1017",
      "taf": ""
    },
    {
      "icao": "LIPY",
      "alert": "OK",
      "vis_m": 9999,
      "fzfg": false,
      "metar_trigger": false,
      "taf_trigger": false,
      "metar": "METAR LIPY 090750Z AUTO 34004KT 270V030 9999 NCD 20/13 Q1017",
      "taf": "TAF LIPY 090500Z 0906/1006 VRB05KT CAVOK"
    },
    {
      "icao": "LIPZ",
      "alert": "OK",
      "vis_m": 9999,
      "fzfg": false,
      "metar_trigger": false,
      "taf_trigger": false,
      "metar": "METAR LIPZ 090750Z VRB02KT CAVOK 19/14 Q1017 NOSIG",
      "taf": "TAF LIPZ 090500Z 0906/1012 VRB05KT CAVOK"
    },
    {
      "icao": "LIRF",
      "alert": "OK",
      "vis_m": 9999,
      "fzfg": false,
      "metar_trigger": false,
      "taf_trigger": false,
      "metar": "METAR LIRF 090750Z 07005KT 030V110 CAVOK 20/14 Q1017 NOSIG",
      "taf": ""
    },
    {
      "icao": "LIRN",
      "alert": "OK",
      "vis_m": 9999,
      "fzfg": false,
      "metar_trigger": false,
      "taf_trigger": false,
      "metar": "METAR LIRN 090750Z 04004KT 350V070 CAVOK 19/10 Q1017 NOSIG",
      "taf": ""
    },
    {
      "icao": "LIRP",
      "alert": "OK",
      "vis_m": 9999,
      "fzfg": false,
      "metar_trigger": false,
      "taf_trigger": false,
      "metar": "METAR LIRP 090745Z 13006KT CAVOK 19/14 Q1017 NOSIG",
      "taf": "TAF LIRP 090500Z 0906/1006 09005KT CAVOK"
    },
    {
      "icao": "LIRZ",
      "alert": "OK",
      "vis_m": 9999,
      "fzfg": false,
      "metar_trigger": false,
      "taf_trigger": false,
      "metar": "METAR LIRZ 090750Z AUTO VRB02KT 9999 OVC004/// 14/13 Q1018",
      "taf": ""
    },
    {
      "icao": "LJLJ",
      "alert": "OK",
      "vis_m": 9999,
      "fzfg": false,
      "metar_trigger": false,
      "taf_trigger": false,
      "metar": "METAR LJLJ 090800Z VRB03KT 9999 FEW050 18/10 Q1017 NOSIG",
      "taf": "TAF LJLJ 090500Z 0906/1006 VRB02KT CAVOK"
    },
    {
      "icao": "LKMT",
      "alert": "OK",
      "vis_m": 9999,
      "fzfg": false,
      "metar_trigger": false,
      "taf_trigger": false,
      "metar": "METAR LKMT 090800Z 02009KT 9999 SCT028 BKN040 12/04 Q1020 NOSIG",
      "taf": "TAF LKMT 090500Z 0906/1006 02008KT 9999 SCT030"
    },
    {
      "icao": "LKPR",
      "alert": "OK",
      "vis_m": 9999,
      "fzfg": false,
      "metar_trigger": false,
      "taf_trigger": false,
      "metar": "METAR LKPR 090800Z 04004KT 340V090 9999 SCT016 12/08 Q1020 NOSIG",
      "taf": "TAF LKPR 090500Z 0906/1012 35005KT 6000 NSC"
    },
    {
      "icao": "LLBG",
      "alert": "OK",
      "vis_m": 9999,
      "fzfg": false,
      "metar_trigger": false,
      "taf_trigger": false,
      "metar": "METAR LLBG 090750Z 31005KT 250V340 CAVOK 24/14 Q1015 BECMG 33012KT",
      "taf": "TAF LLBG 090507Z 0906/1006 VRB04KT 9999 SCT018 TX28/0911Z TN15/1003Z"
    },
    {
      "icao": "LMML",
      "alert": "OK",
      "vis_m": 9999,
      "fzfg": false,
      "metar_trigger": false,
      "taf_trigger": false,
      "metar": "METAR LMML 090745Z 36008KT CAVOK 23/15 Q1016 NOSIG",
      "taf": "TAF LMML 090500Z 0906/1006 33010KT 9999 FEW011"
    },
    {
      "icao": "LOWW",
      "alert": "OK",
      "vis_m": 9999,
      "fzfg": false,
      "metar_trigger": false,
      "taf_trigger": false,
      "metar": "METAR LOWW 090750Z 35008KT 310V030 CAVOK 16/08 Q1019 NOSIG",
      "taf": "TAF LOWW 090515Z 0906/1012 36008KT CAVOK TX22/1012Z TN08/1004Z"
    },
    {
      "icao": "LPFR",
      "alert": "OK",
      "vis_m": 9999,
      "fzfg": false,
      "metar_trigger": false,
      "taf_trigger": false,
      "metar": "METAR LPFR 090800Z 21016KT 9999 FEW013 SCT020 17/14 Q1005",
      "taf": "TAF LPFR 090500Z 0906/1006 19015KT 9999 SCT020"
    },
    {
      "icao": "LPMA",
      "alert": "OK",
      "vis_m": 9999,
      "fzfg": false,
      "metar_trigger": false,
      "taf_trigger": false,
      "metar": "METAR LPMA 090800Z 04003KT 360V110 9999 FEW015 17/12 Q1011",
      "taf": "TAF LPMA 090500Z 0906/1006 VRB05KT 9999 SCT015"
    },
    {
      "icao": "LPPR",
      "alert": "OK",
      "vis_m": 9999,
      "fzfg": false,
      "metar_trigger": false,
      "taf_trigger": false,
      "metar": "METAR LPPR 090800Z 19008KT 9999 -RA FEW020 BKN040 15/11 Q1004",
      "taf": "TAF LPPR 090500Z 0906/1006 13007KT 9999 SCT020"
    },
    {
      "icao": "LPPS",
      "alert": "OK",
      "vis_m": 9999,
      "fzfg": false,
      "metar_trigger": false,
      "taf_trigger": false,
      "metar": "METAR LPPS 090800Z 27014KT 9999 SCT014 FEW018TCU 17/12 Q1011",
      "taf": "TAF LPPS 090500Z 0906/1012 28015KT 9999 SCT015 SCT030"
    },
    {
      "icao": "LPPT",
      "alert": "OK",
      "vis_m": 9999,
      "fzfg": false,
      "metar_trigger": false,
      "taf_trigger": false,
      "metar": "METAR LPPT 090800Z 15008G19KT 110V180 9999 VCSH FEW006 BKN008 FEW015CB 14/13 Q1003",
      "taf": "TAF LPPT 090500Z 0906/1012 16012KT 9999 SCT020"
    },
    {
      "icao": "LQBK",
      "alert": "OK",
      "vis_m": 9999,
      "fzfg": false,
      "metar_trigger": false,
      "taf_trigger": false,
      "metar": "METAR LQBK 090800Z 19006KT 140V240 CAVOK 21/12 Q1017 NOSIG",
      "taf": "TAF LQBK 090500Z 0906/1006 15005KT CAVOK TX23/0913Z TN11/1004Z"
    },
    {
      "icao": "LQSA",
      "alert": "OK",
      "vis_m": 9999,
      "fzfg": false,
      "metar_trigger": false,
      "taf_trigger": false,
      "metar": "METAR LQSA 090800Z 30005KT 260V320 9999 SCT030 BKN050 15/11 Q1018 NOSIG",
      "taf": "TAF LQSA 090500Z 0906/1006 VRB02KT 9999 BKN040 TX20/0913Z TN09/1004Z"
    },
    {
      "icao": "LQTZ",
      "alert": "OK",
      "vis_m": 9999,
      "fzfg": false,
      "metar_trigger": false,
      "taf_trigger": false,
      "metar": "METAR LQTZ 090800Z 32003KT 9999 FEW020 BKN055 16/15 Q1017",
      "taf": "TAF LQTZ 090500Z 0906/1006 27005KT 9999 SCT045 TX21/0913Z TN10/1004Z"
    },
    {
      "icao": "LRBC",
      "alert": "OK",
      "vis_m": 9999,
      "fzfg": false,
      "metar_trigger": false,
      "taf_trigger": false,
      "metar": "METAR LRBC 090800Z 34008KT 9999 BKN008 OVC015 15/14 Q1016",
      "taf": ""
    },
    {
      "icao": "LRBS",
      "alert": "OK",
      "vis_m": 9999,
      "fzfg": false,
      "metar_trigger": false,
      "taf_trigger": false,
      "metar": "METAR LRBS 090800Z 05010KT 010V070 9999 FEW007 SCT010 BKN014 16/13 Q1014 BECMG SCT015 SCT035",
      "taf": "TAF LRBS 090500Z 0906/1006 06010KT 9999 SCT035"
    },
    {
      "icao": "LRBV",
      "alert": "OK",
      "vis_m": 9000,
      "fzfg": false,
      "metar_trigger": false,
      "taf_trigger": false,
      "metar": "METAR LRBV 090800Z 08003KT 030V120 9000 -RA SCT008 BKN017 OVC037 14/13 Q1015",
      "taf": "TAF LRBV 090500Z 0906/0915 VRB04KT 9999 -RA BKN010 OVC045"
    },
    {
      "icao": "LRCL",
      "alert": "OK",
      "vis_m": 9999,
      "fzfg": false,
      "metar_trigger": false,
      "taf_trigger": false,
      "metar": "METAR LRCL 090800Z 09003KT 040V130 CAVOK 17/12 Q1015",
      "taf": "TAF LRCL 090500Z 0906/0915 VRB04KT 9999 SCT045"
    },
    {
      "icao": "LRCV",
      "alert": "OK",
      "vis_m": 2000,
      "fzfg": false,
      "metar_trigger": false,
      "taf_trigger": false,
      "metar": "METAR LRCV 090800Z 05008KT 2000 RA BKN003 OVC041 15/15 Q1015",
      "taf": ""
    },
    {
      "icao": "LRIA",
      "alert": "OK",
      "vis_m": 9999,
      "fzfg": false,
      "metar_trigger": false,
      "taf_trigger": false,
      "metar": "METAR LRIA 090800Z 03008KT 9999 OVC008 16/15 Q1017",
      "taf": "TAF LRIA 090500Z 0906/0915 VRB04KT 3000 BR BKN002"
    },
    {
      "icao": "LROP",
      "alert": "OK",
      "vis_m": 9000,
      "fzfg": false,
      "metar_trigger": false,
      "taf_trigger": false,
      "metar": "METAR LROP 090800Z 05012KT 9000 FEW009 SCT011 16/14 Q1015 NOSIG",
      "taf": "TAF LROP 090500Z 0906/1006 08010KT 9999 SCT035"
    },
    {
      "icao": "LRSB",
      "alert": "OK",
      "vis_m": 9999,
      "fzfg": false,
      "metar_trigger": false,
      "taf_trigger": false,
      "metar": "METAR LRSB 090800Z 34003KT 310V010 9999 -RA FEW010 SCT035 BKN045 16/14 Q1016",
      "taf": "TAF LRSB 090500Z 0906/1006 VRB04KT 9999 BKN050"
    },
    {
      "icao": "LRSM",
      "alert": "OK",
      "vis_m": 9999,
      "fzfg": false,
      "metar_trigger": false,
      "taf_trigger": false,
      "metar": "METAR LRSM 090800Z VRB02KT CAVOK 15/12 Q1016",
      "taf": "TAF LRSM 090500Z 0906/0915 31005KT 5000 BR BKN002"
    },
    {
      "icao": "LRSV",
      "alert": "OK",
      "vis_m": 6000,
      "fzfg": false,
      "metar_trigger": false,
      "taf_trigger": false,
      "metar": "METAR LRSV 090800Z 05006KT 6000 -RA BKN005 OVC041 12/12 Q1017",
      "taf": "TAF LRSV 090500Z 0906/0915 01008KT 9999 BKN040"
    },
    {
      "icao": "LRTM",
      "alert": "OK",
      "vis_m": 9999,
      "fzfg": false,
      "metar_trigger": false,
      "taf_trigger": false,
      "metar": "METAR LRTM 090800Z VRB01KT 9999 -RA FEW030 SCT047 18/13 Q1015",
      "taf": "TAF LRTM 090500Z 0906/0915 VRB04KT 9999 SCT045"
    },
    {
      "icao": "LRTR",
      "alert": "OK",
      "vis_m": 9999,
      "fzfg": false,
      "metar_trigger": false,
      "taf_trigger": false,
      "metar": "METAR LRTR 090800Z 14005KT 100V170 CAVOK 18/13 Q1016",
      "taf": "TAF LRTR 090500Z 0906/1006 VRB04KT CAVOK"
    },
    {
      "icao": "LTAC",
      "alert": "OK",
      "vis_m": 9999,
      "fzfg": false,
      "metar_trigger": false,
      "taf_trigger": false,
      "metar": "METAR LTAC 090750Z VRB02KT 9999 SCT040 BKN100 17/08 Q1020 NOSIG RMK RWY21C VRB02KT RWY03L VRB02KT RWY21R VRB01KT RWY03R VRB01KT RWY21L VRB01KT",
      "taf": "TAF LTAC 090440Z 0906/1006 VRB02KT 9999 SCT040 BKN100"
    },
    {
      "icao": "LTFM",
      "alert": "OK",
      "vis_m": 9999,
      "fzfg": false,
      "metar_trigger": false,
      "taf_trigger": false,
      "metar": "METAR LTFM 090750Z 20012KT 9999 -SHRA FEW025TCU BKN032 BKN080 19/12 Q1015 NOSIG RMK RWY17L 21011KT RWY34L 19010KT RWY16R 19010KT RWY36 20011KT RWY18 20010KT",
      "taf": "TAF LTFM 090440Z 0906/1012 20014KT 9999 SCT035 BKN080"
    },
    {
      "icao": "LUKK",
      "alert": "OK",
      "vis_m": 9999,
      "fzfg": false,
      "metar_trigger": false,
      "taf_trigger": false,
      "metar": "METAR LUKK 090800Z 09008KT 060V120 9999 FEW017 17/13 Q1017 NOSIG",
      "taf": "TAF LUKK 090517Z 0906/1006 11008KT CAVOK"
    },
    {
      "icao": "LWOH",
      "alert": "OK",
      "vis_m": 9999,
      "fzfg": false,
      "metar_trigger": false,
      "taf_trigger": false,
      "metar": "METAR LWOH 090750Z VRB02KT 9999 BKN010 OVC020 12/11 Q1017",
      "taf": "TAF LWOH 090525Z 0906/1006 VRB02KT 9999 SCT010 OVC020"
    },
    {
      "icao": "LWSK",
      "alert": "OK",
      "vis_m": 9999,
      "fzfg": false,
      "metar_trigger": false,
      "taf_trigger": false,
      "metar": "METAR LWSK 090750Z VRB02KT 9999 -DZ SCT008 BKN055 OVC075 16/13 Q1016 NOSIG",
      "taf": "TAF LWSK 090525Z 0906/1006 VRB02KT 9999 SCT020 OVC080"
    },
    {
      "icao": "LYBE",
      "alert": "OK",
      "vis_m": 9999,
      "fzfg": false,
      "metar_trigger": false,
      "taf_trigger": false,
      "metar": "METAR LYBE 090800Z 27013KT 9999 FEW040 18/14 Q1016 NOSIG",
      "taf": "TAF LYBE 090500Z 0906/1006 29007KT 9999 SCT040 TX22/0913Z TN11/1003Z"
    },
    {
      "icao": "LYNI",
      "alert": "OK",
      "vis_m": 9999,
      "fzfg": false,
      "metar_trigger": false,
      "taf_trigger": false,
      "metar": "METAR LYNI 090800Z VRB01KT 9999 -RA SCT007 BKN013 OVC023 15/14 Q1016 NOSIG",
      "taf": "TAF LYNI 090500Z 0906/1006 16004KT 9999 SCT050 BKN070 TX18/0914Z TN09/1003Z"
    },
    {
      "icao": "LYPG",
      "alert": "OK",
      "vis_m": 9999,
      "fzfg": false,
      "metar_trigger": false,
      "taf_trigger": false,
      "metar": "METAR LYPG 090800Z VRB02KT 9999 FEW030 SCT050 BKN090 17/15 Q1016 NOSIG",
      "taf": "TAF LYPG 090500Z 0906/1006 16005KT 9999 FEW040 SCT080 TX24/0914Z TN13/1005Z"
    },
    {
      "icao": "LZIB",
      "alert": "OK",
      "vis_m": 9999,
      "fzfg": false,
      "metar_trigger": false,
      "taf_trigger": false,
      "metar": "METAR LZIB 090800Z 05004KT 330V120 CAVOK 18/06 Q1018 NOSIG",
      "taf": "TAF LZIB 090515Z 0906/1006 VRB04KT CAVOK"
    },
    {
      "icao": "LZKZ",
      "alert": "OK",
      "vis_m": 9999,
      "fzfg": false,
      "metar_trigger": false,
      "taf_trigger": false,
      "metar": "METAR LZKZ 090800Z 01015KT CAVOK 15/08 Q1017 NOSIG",
      "taf": "TAF LZKZ 090515Z 0906/1006 02012KT CAVOK"
    },
    {
      "icao": "LZTT",
      "alert": "OK",
      "vis_m": 7000,
      "fzfg": false,
      "metar_trigger": false,
      "taf_trigger": false,
      "metar": "METAR LZTT 090800Z 08007KT 7000 3500W PRFG FEW002 BKN007 OVC020 08/07 Q1018 NOSIG",
      "taf": "TAF LZTT 090515Z 0906/1006 04005KT 5000 BR SCT004 OVC016"
    },
    {
      "icao": "OEJN",
      "alert": "OK",
      "vis_m": 9999,
      "fzfg": false,
      "metar_trigger": false,
      "taf_trigger": false,
      "metar": "METAR OEJN 090800Z 33011KT CAVOK 35/19 Q1007 NOSIG",
      "taf": "TAF OEJN 090500Z 0906/1012 32016KT 7000 NSC"
    },
    {
      "icao": "OEMA",
      "alert": "OK",
      "vis_m": 8000,
      "fzfg": false,
      "metar_trigger": false,
      "taf_trigger": false,
      "metar": "METAR OEMA 090800Z 11013KT 8000 NSC 35/08 Q1015 NOSIG",
      "taf": "TAF OEMA 090500Z 0906/1012 14014KT 6000 FEW045"
    },
    {
      "icao": "OJAI",
      "alert": "OK",
      "vis_m": 4500,
      "fzfg": false,
      "metar_trigger": false,
      "taf_trigger": false,
      "metar": "METAR OJAI 090700Z 14009KT 4500 HZ NSC 26/07 Q1018 NOSIG",
      "taf": "TAF OJAI 090435Z 0906/1012 VRB02KT 5000 HZ NSC"
    },
    {
      "icao": "OMAA",
      "alert": "OK",
      "vis_m": 9999,
      "fzfg": false,
      "metar_trigger": false,
      "taf_trigger": false,
      "metar": "METAR OMAA 090800Z 32019KT CAVOK 35/17 Q1008 NOSIG",
      "taf": "TAF OMAA 090500Z 0906/1012 32015KT 8000 NSC"
    },
    {
      "icao": "OMDB",
      "alert": "OK",
      "vis_m": 9999,
      "fzfg": false,
      "metar_trigger": false,
      "taf_trigger": false,
      "metar": "METAR OMDB 090800Z 30012KT 270V330 CAVOK 36/16 Q1008 NOSIG",
      "taf": "TAF OMDB 090500Z 0906/1012 22008KT 8000 NSC"
    },
    {
      "icao": "UAAA",
      "alert": "OK",
      "vis_m": 9999,
      "fzfg": false,
      "metar_trigger": false,
      "taf_trigger": false,
      "metar": "METAR UAAA 090800Z 24002MPS 9999 FEW050CB BKN100 28/10 Q1014 NOSIG",
      "taf": "TAF UAAA 090505Z 0906/1006 32002G07MPS 9999 SCT050CB BKN100 TX30/0910Z TN17/1000Z"
    },
    {
      "icao": "UBBB",
      "alert": "OK",
      "vis_m": 9999,
      "fzfg": false,
      "metar_trigger": false,
      "taf_trigger": false,
      "metar": "METAR UBBB 090800Z 01006KT CAVOK 24/10 Q1018 NOSIG",
      "taf": "TAF UBBB 090503Z 0906/1006 VRB04KT CAVOK TX24/0910Z TN13/1001Z"
    },
    {
      "icao": "UDSG",
      "alert": "OK",
      "vis_m": 9999,
      "fzfg": false,
      "metar_trigger": false,
      "taf_trigger": false,
      "metar": "METAR UDSG 090800Z 17003KT 130V210 9999 NSC 14/M00 Q1023 NOSIG",
      "taf": "TAF UDSG 090500Z 0906/1006 22006KT 9999 FEW050"
    },
    {
      "icao": "UDYZ",
      "alert": "OK",
      "vis_m": 9999,
      "fzfg": false,
      "metar_trigger": false,
      "taf_trigger": false,
      "metar": "METAR UDYZ 090800Z 24004KT 9999 NSC 20/03 Q1021 NOSIG",
      "taf": "TAF UDYZ 090500Z 0906/1006 24006KT 9999 FEW040"
    },
    {
      "icao": "UGKO",
      "alert": "OK",
      "vis_m": 9999,
      "fzfg": false,
      "metar_trigger": false,
      "taf_trigger": false,
      "metar": "METAR UGKO 090800Z VRB02KT CAVOK 24/10 Q1018 NOSIG",
      "taf": "TAF UGKO 090500Z 0906/1006 09007KT CAVOK TX26/0912Z TN12/0920Z"
    }
  ]
}