{
  "ts_utc": "2026-06-07T18:43:57Z",
  "threshold_m": 150,
  "source": "stations_override.txt (ICAO list) + aviationweather.gov (METAR/TAF raw)",
  "station_count": 159,
  "stations": [
    {
      "icao": "BIKF",
      "alert": "OK",
      "vis_m": 9999,
      "fzfg": false,
      "metar_trigger": false,
      "taf_trigger": false,
      "metar": "METAR BIKF 071830Z 33016KT 9999 FEW037 SCT045 BKN090 12/05 Q0996",
      "taf": "TAF BIKF 071625Z 0718/0818 32010KT 9999 SCT020 BKN037 TX11/0815Z TN08/0805Z"
    },
    {
      "icao": "BKPR",
      "alert": "OK",
      "vis_m": 9999,
      "fzfg": false,
      "metar_trigger": false,
      "taf_trigger": false,
      "metar": "METAR BKPR 071830Z 36007KT 9999 BKN065 22/14 Q1021 NOSIG",
      "taf": "TAF BKPR 071730Z 0718/0818 01008KT 9999 FEW080"
    },
    {
      "icao": "EBCI",
      "alert": "OK",
      "vis_m": 9999,
      "fzfg": false,
      "metar_trigger": false,
      "taf_trigger": false,
      "metar": "METAR EBCI 071820Z 26006KT 9999 FEW031 16/10 Q1023 NOSIG",
      "taf": "TAF EBCI 071700Z 0718/0824 19004KT 9999 SCT045"
    },
    {
      "icao": "EDDB",
      "alert": "OK",
      "vis_m": 9999,
      "fzfg": false,
      "metar_trigger": false,
      "taf_trigger": false,
      "metar": "METAR EDDB 071820Z AUTO 28006KT CAVOK 19/11 Q1021 NOSIG",
      "taf": "TAF EDDB 071700Z 0718/0818 28011KT 9999 SCT045"
    },
    {
      "icao": "EDDH",
      "alert": "OK",
      "vis_m": 9999,
      "fzfg": false,
      "metar_trigger": false,
      "taf_trigger": false,
      "metar": "METAR EDDH 071820Z AUTO 30007KT 250V320 9999 VCSH SCT017 BKN023 FEW///TCU 17/15 Q1020 RESHRA TEMPO SHRA",
      "taf": "TAF EDDH 071700Z 0718/0824 28008KT 9999 SCT030"
    },
    {
      "icao": "EDDK",
      "alert": "OK",
      "vis_m": 9999,
      "fzfg": false,
      "metar_trigger": false,
      "taf_trigger": false,
      "metar": "METAR EDDK 071820Z AUTO 35005KT 320V020 CAVOK 18/10 Q1022 NOSIG",
      "taf": "TAF EDDK 071700Z 0718/0824 31005KT 9999 SCT040"
    },
    {
      "icao": "EDDN",
      "alert": "OK",
      "vis_m": 9999,
      "fzfg": false,
      "metar_trigger": false,
      "taf_trigger": false,
      "metar": "METAR EDDN 071820Z AUTO 30006KT CAVOK 21/08 Q1022 BECMG 09003KT",
      "taf": "TAF EDDN 071700Z 0718/0818 30008KT CAVOK"
    },
    {
      "icao": "EDDS",
      "alert": "OK",
      "vis_m": 9999,
      "fzfg": false,
      "metar_trigger": false,
      "taf_trigger": false,
      "metar": "METAR EDDS 071820Z AUTO 35007KT 320V030 CAVOK 21/08 Q1022 NOSIG",
      "taf": "TAF EDDS 071700Z 0718/0818 36007KT CAVOK"
    },
    {
      "icao": "EDFH",
      "alert": "OK",
      "vis_m": 9999,
      "fzfg": false,
      "metar_trigger": false,
      "taf_trigger": false,
      "metar": "METAR EDFH 071820Z 27004KT 250V320 CAVOK 16/08 Q1023",
      "taf": "TAF EDFH 071700Z 0718/0818 25004KT CAVOK"
    },
    {
      "icao": "EDJA",
      "alert": "OK",
      "vis_m": 9999,
      "fzfg": false,
      "metar_trigger": false,
      "taf_trigger": false,
      "metar": "METAR EDJA 071820Z 26004KT 230V290 CAVOK 21/08 Q1021",
      "taf": "TAF EDJA 071700Z 0718/0803 28009KT CAVOK"
    },
    {
      "icao": "EDLW",
      "alert": "OK",
      "vis_m": 9999,
      "fzfg": false,
      "metar_trigger": false,
      "taf_trigger": false,
      "metar": "METAR EDLW 071820Z 24004KT CAVOK 17/11 Q1022",
      "taf": "TAF EDLW 071700Z 0718/0818 23005KT CAVOK"
    },
    {
      "icao": "EDNY",
      "alert": "OK",
      "vis_m": 9999,
      "fzfg": false,
      "metar_trigger": false,
      "taf_trigger": false,
      "metar": "METAR EDNY 071820Z 22003KT 180V260 CAVOK 22/12 Q1022",
      "taf": "TAF EDNY 071700Z 0718/0803 21005KT CAVOK"
    },
    {
      "icao": "EDSB",
      "alert": "OK",
      "vis_m": 9999,
      "fzfg": false,
      "metar_trigger": false,
      "taf_trigger": false,
      "metar": "METAR EDSB 071820Z 33003KT 300V360 CAVOK 22/09 Q1022",
      "taf": "TAF EDSB 071700Z 0718/0818 VRB02KT CAVOK"
    },
    {
      "icao": "EETN",
      "alert": "OK",
      "vis_m": 9999,
      "fzfg": false,
      "metar_trigger": false,
      "taf_trigger": false,
      "metar": "METAR EETN 071820Z 32004KT CAVOK 17/10 Q1019 NOSIG",
      "taf": "TAF EETN 071730Z 0718/0818 32010KT CAVOK"
    },
    {
      "icao": "EFTU",
      "alert": "OK",
      "vis_m": 9999,
      "fzfg": false,
      "metar_trigger": false,
      "taf_trigger": false,
      "metar": "METAR EFTU 071820Z AUTO 22007KT CAVOK 16/09 Q1018",
      "taf": "TAF EFTU 071725Z 0718/0818 20006KT CAVOK"
    },
    {
      "icao": "EGBB",
      "alert": "OK",
      "vis_m": 9999,
      "fzfg": false,
      "metar_trigger": false,
      "taf_trigger": false,
      "metar": "METAR EGBB 071820Z 21005KT 160V250 9999 FEW043 16/10 Q1017",
      "taf": "TAF EGBB 071654Z 0718/0818 21008KT 9999 SCT025"
    },
    {
      "icao": "EGGP",
      "alert": "OK",
      "vis_m": 9999,
      "fzfg": false,
      "metar_trigger": false,
      "taf_trigger": false,
      "metar": "METAR EGGP 071820Z 19007KT 160V230 9999 -RA SCT038 14/07 Q1015",
      "taf": "TAF EGGP 071655Z 0718/0818 22006KT 9999 FEW040"
    },
    {
      "icao": "EGGW",
      "alert": "OK",
      "vis_m": 9999,
      "fzfg": false,
      "metar_trigger": false,
      "taf_trigger": false,
      "metar": "METAR EGGW 071820Z AUTO 20010KT 170V230 9999 FEW024 16/11 Q1018",
      "taf": "TAF EGGW 071710Z 0718/0818 23010KT 9999 SCT030"
    },
    {
      "icao": "EGKK",
      "alert": "OK",
      "vis_m": 9999,
      "fzfg": false,
      "metar_trigger": false,
      "taf_trigger": false,
      "metar": "METAR EGKK 071820Z 22008KT 9999 FEW021 16/11 Q1020",
      "taf": "TAF EGKK 071656Z 0718/0824 22013KT 9999 SCT030"
    },
    {
      "icao": "EGNM",
      "alert": "OK",
      "vis_m": 9999,
      "fzfg": false,
      "metar_trigger": false,
      "taf_trigger": false,
      "metar": "METAR EGNM 071820Z 21012KT 9999 -SHRA FEW025 13/10 Q1015",
      "taf": "TAF EGNM 071653Z 0718/0818 21014KT 9999 SCT030"
    },
    {
      "icao": "EGPD",
      "alert": "OK",
      "vis_m": 9999,
      "fzfg": false,
      "metar_trigger": false,
      "taf_trigger": false,
      "metar": "METAR EGPD 071820Z COR AUTO 19013KT 9999 FEW029 BKN034 17/10 Q1008 NOSIG",
      "taf": "TAF EGPD 071655Z 0718/0818 20010KT 9999 FEW030"
    },
    {
      "icao": "EGPF",
      "alert": "OK",
      "vis_m": 9999,
      "fzfg": false,
      "metar_trigger": false,
      "taf_trigger": false,
      "metar": "METAR EGPF 071820Z AUTO 19010KT 9999 -RA BKN013/// OVC020/// //////CB 14/13 Q1008",
      "taf": "TAF EGPF 071657Z 0718/0818 21013KT 9999 SCT025"
    },
    {
      "icao": "EHBK",
      "alert": "OK",
      "vis_m": 9999,
      "fzfg": false,
      "metar_trigger": false,
      "taf_trigger": false,
      "metar": "METAR EHBK 071825Z AUTO 27005KT 230V310 9999 NSC 17/10 Q1022 NOSIG",
      "taf": "TAF EHBK 071704Z 0718/0824 25005KT 9999 SCT030"
    },
    {
      "icao": "EHEH",
      "alert": "OK",
      "vis_m": 9999,
      "fzfg": false,
      "metar_trigger": false,
      "taf_trigger": false,
      "metar": "METAR EHEH 071825Z AUTO 22007KT 190V250 9999 OVC037 17/11 Q1022 BLU TEMPO BKN015",
      "taf": "TAF EHEH 071741Z 0718/0824 22008KT 9999 BKN030"
    },
    {
      "icao": "EKBI",
      "alert": "OK",
      "vis_m": 9999,
      "fzfg": false,
      "metar_trigger": false,
      "taf_trigger": false,
      "metar": "METAR EKBI 071820Z AUTO 26012KT 9999 OVC014/// 14/11 Q1017",
      "taf": "TAF EKBI 071727Z 0718/0818 25010KT 9999 BKN045"
    },
    {
      "icao": "EKCH",
      "alert": "OK",
      "vis_m": 9999,
      "fzfg": false,
      "metar_trigger": false,
      "taf_trigger": false,
      "metar": "METAR EKCH 071820Z AUTO 24011KT 9999 BKN079/// 17/13 Q1017 TEMPO FEW020CB",
      "taf": "TAF EKCH 071727Z 0718/0818 23010KT 9999 BKN030"
    },
    {
      "icao": "ENAL",
      "alert": "OK",
      "vis_m": 9999,
      "fzfg": false,
      "metar_trigger": false,
      "taf_trigger": false,
      "metar": "METAR ENAL 071820Z VRB02KT 9999 FEW046 BKN062 14/11 Q1012",
      "taf": "TAF ENAL 071700Z 0718/0803 34005KT 9999 FEW030 SCT060"
    },
    {
      "icao": "ENBR",
      "alert": "OK",
      "vis_m": 9999,
      "fzfg": false,
      "metar_trigger": false,
      "taf_trigger": false,
      "metar": "METAR ENBR 071820Z 16009KT 9999 FEW008 FEW035TCU BKN051 13/11 Q1013 NOSIG RMK WIND 1200FT 19010KT",
      "taf": "TAF ENBR 071700Z 0718/0818 18010KT 9999 FEW040 BKN050"
    },
    {
      "icao": "ENGM",
      "alert": "OK",
      "vis_m": 9999,
      "fzfg": false,
      "metar_trigger": false,
      "taf_trigger": false,
      "metar": "METAR ENGM 071820Z 22010KT CAVOK 18/09 Q1013 NOSIG",
      "taf": "TAF ENGM 071700Z 0718/0818 20008KT CAVOK"
    },
    {
      "icao": "ENHD",
      "alert": "OK",
      "vis_m": 9999,
      "fzfg": false,
      "metar_trigger": false,
      "taf_trigger": false,
      "metar": "METAR ENHD 071820Z 19007KT 9999 SCT008 SCT014 14/12 Q1013",
      "taf": ""
    },
    {
      "icao": "ENTC",
      "alert": "OK",
      "vis_m": 9999,
      "fzfg": false,
      "metar_trigger": false,
      "taf_trigger": false,
      "metar": "METAR ENTC 071820Z 07004KT 360V120 CAVOK 15/12 Q1010 NOSIG RMK WIND 2600FT 12012KT",
      "taf": "TAF ENTC 071700Z 0718/0818 02009KT 9999 SCT060"
    },
    {
      "icao": "ENTO",
      "alert": "OK",
      "vis_m": 9999,
      "fzfg": false,
      "metar_trigger": false,
      "taf_trigger": false,
      "metar": "METAR ENTO 071820Z 21009KT CAVOK 16/13 Q1014 NOSIG",
      "taf": "TAF ENTO 071700Z 0718/0818 19008KT 9999 FEW014"
    },
    {
      "icao": "ENVA",
      "alert": "OK",
      "vis_m": 9999,
      "fzfg": false,
      "metar_trigger": false,
      "taf_trigger": false,
      "metar": "METAR ENVA 071820Z 23007KT CAVOK 15/09 Q1012 RMK WIND 670FT 28005KT",
      "taf": "TAF ENVA 071700Z 0718/0818 27012KT CAVOK"
    },
    {
      "icao": "ENZV",
      "alert": "OK",
      "vis_m": 9999,
      "fzfg": false,
      "metar_trigger": false,
      "taf_trigger": false,
      "metar": "METAR ENZV 071820Z 20011KT 9999 SCT011 16/13 Q1013 TEMPO BKN012",
      "taf": "TAF ENZV 071700Z 0718/0818 20010KT 9999 FEW030 BKN050"
    },
    {
      "icao": "EPGD",
      "alert": "OK",
      "vis_m": 9999,
      "fzfg": false,
      "metar_trigger": false,
      "taf_trigger": false,
      "metar": "METAR EPGD 071830Z 23005KT 200V260 CAVOK 15/14 Q1018",
      "taf": "TAF EPGD 071730Z 0718/0818 23003KT CAVOK"
    },
    {
      "icao": "EPKK",
      "alert": "OK",
      "vis_m": 9999,
      "fzfg": false,
      "metar_trigger": false,
      "taf_trigger": false,
      "metar": "METAR EPKK 071830Z 27004KT CAVOK 17/13 Q1020",
      "taf": "TAF EPKK 071730Z 0718/0818 32010KT CAVOK"
    },
    {
      "icao": "EPKT",
      "alert": "OK",
      "vis_m": 9999,
      "fzfg": false,
      "metar_trigger": false,
      "taf_trigger": false,
      "metar": "METAR EPKT 071830Z 32004KT 9999 FEW053TCU 19/10 Q1021",
      "taf": "TAF EPKT 071730Z 0718/0818 32005KT CAVOK"
    },
    {
      "icao": "EPLB",
      "alert": "OK",
      "vis_m": 9999,
      "fzfg": false,
      "metar_trigger": false,
      "taf_trigger": false,
      "metar": "METAR EPLB 071830Z VRB02KT CAVOK 18/13 Q1018",
      "taf": "TAF EPLB 071730Z 0718/0818 VRB05KT CAVOK"
    },
    {
      "icao": "EPMO",
      "alert": "OK",
      "vis_m": 9999,
      "fzfg": false,
      "metar_trigger": false,
      "taf_trigger": false,
      "metar": "METAR EPMO 071830Z 26008KT 9999 SCT055CB 19/13 Q1019",
      "taf": "TAF EPMO 071730Z 0718/0818 VRB05KT CAVOK"
    },
    {
      "icao": "EPPO",
      "alert": "OK",
      "vis_m": 9999,
      "fzfg": false,
      "metar_trigger": false,
      "taf_trigger": false,
      "metar": "METAR EPPO 071830Z 32004KT CAVOK 19/12 Q1020",
      "taf": "TAF EPPO 071730Z 0718/0818 28005KT CAVOK"
    },
    {
      "icao": "EPRA",
      "alert": "OK",
      "vis_m": 9999,
      "fzfg": false,
      "metar_trigger": false,
      "taf_trigger": false,
      "metar": "METAR EPRA 071830Z 26002KT CAVOK 17/14 Q1019",
      "taf": "TAF EPRA 071730Z 0718/0803 VRB03KT CAVOK"
    },
    {
      "icao": "EPRZ",
      "alert": "OK",
      "vis_m": 9999,
      "fzfg": false,
      "metar_trigger": false,
      "taf_trigger": false,
      "metar": "METAR EPRZ 071830Z 32004KT 9999 SCT060CB 22/09 Q1019",
      "taf": "TAF EPRZ 071730Z 0718/0818 29007KT CAVOK"
    },
    {
      "icao": "EPSC",
      "alert": "OK",
      "vis_m": 9999,
      "fzfg": false,
      "metar_trigger": false,
      "taf_trigger": false,
      "metar": "METAR EPSC 071830Z 25004KT 9999 SCT033 BKN041 18/12 Q1019",
      "taf": "TAF EPSC 071730Z 0718/0818 26010KT 9999 FEW030"
    },
    {
      "icao": "EPSY",
      "alert": "OK",
      "vis_m": 9999,
      "fzfg": false,
      "metar_trigger": false,
      "taf_trigger": false,
      "metar": "METAR EPSY 071830Z 17003KT 130V240 CAVOK 18/14 Q1018",
      "taf": "TAF EPSY 071730Z 0718/0803 VRB02KT CAVOK"
    },
    {
      "icao": "EPWA",
      "alert": "OK",
      "vis_m": 9999,
      "fzfg": false,
      "metar_trigger": false,
      "taf_trigger": false,
      "metar": "METAR EPWA 071830Z 25011KT 9999 -SHRA SCT040CB 19/13 Q1019 TEMPO 4000 SHRA",
      "taf": "TAF EPWA 071730Z 0718/0818 VRB05KT CAVOK"
    },
    {
      "icao": "EPWR",
      "alert": "OK",
      "vis_m": 9999,
      "fzfg": false,
      "metar_trigger": false,
      "taf_trigger": false,
      "metar": "METAR EPWR 071830Z 26007KT CAVOK 21/10 Q1020",
      "taf": "TAF EPWR 071730Z 0718/0818 29014KT CAVOK"
    },
    {
      "icao": "ESGG",
      "alert": "OK",
      "vis_m": 9999,
      "fzfg": false,
      "metar_trigger": false,
      "taf_trigger": false,
      "metar": "METAR ESGG 071820Z 21008KT 9999 FEW014 16/13 Q1015",
      "taf": "TAF ESGG 071730Z 0718/0818 21008KT 9999 SCT020"
    },
    {
      "icao": "ESKN",
      "alert": "OK",
      "vis_m": 9999,
      "fzfg": false,
      "metar_trigger": false,
      "taf_trigger": false,
      "metar": "METAR ESKN 071820Z 13006KT CAVOK 17/12 Q1016",
      "taf": "TAF ESKN 071730Z 0718/0818 16006KT CAVOK"
    },
    {
      "icao": "ESMS",
      "alert": "OK",
      "vis_m": 9999,
      "fzfg": false,
      "metar_trigger": false,
      "taf_trigger": false,
      "metar": "METAR ESMS 071820Z 22011KT CAVOK 16/13 Q1017",
      "taf": "TAF ESMS 071727Z 0718/0818 23012KT 9999 FEW030"
    },
    {
      "icao": "ESSA",
      "alert": "OK",
      "vis_m": 9999,
      "fzfg": false,
      "metar_trigger": false,
      "taf_trigger": false,
      "metar": "METAR ESSA 071820Z 17011KT CAVOK 18/06 Q1015 NOSIG",
      "taf": "TAF ESSA 071730Z 0718/0818 18012KT CAVOK"
    },
    {
      "icao": "EYKA",
      "alert": "OK",
      "vis_m": 9999,
      "fzfg": false,
      "metar_trigger": false,
      "taf_trigger": false,
      "metar": "METAR EYKA 071820Z 08003KT CAVOK 20/12 Q1018",
      "taf": ""
    },
    {
      "icao": "EYPA",
      "alert": "OK",
      "vis_m": 9999,
      "fzfg": false,
      "metar_trigger": false,
      "taf_trigger": false,
      "metar": "METAR EYPA 071820Z 15006KT 9999 BKN086CB 19/13 Q1018",
      "taf": "TAF EYPA 071703Z 0718/0818 VRB03KT 9000 SCT040"
    },
    {
      "icao": "EYVI",
      "alert": "OK",
      "vis_m": 9999,
      "fzfg": false,
      "metar_trigger": false,
      "taf_trigger": false,
      "metar": "METAR EYVI 071820Z 05002KT CAVOK 18/14 Q1018 NOSIG",
      "taf": "TAF EYVI 071705Z 0718/0818 VRB03KT 9000 SCT045"
    },
    {
      "icao": "GCFV",
      "alert": "OK",
      "vis_m": 9999,
      "fzfg": false,
      "metar_trigger": false,
      "taf_trigger": false,
      "metar": "METAR GCFV 071830Z 01019KT 9999 FEW025 23/16 Q1018",
      "taf": "TAF GCFV 071400Z 0715/0815 05017KT 9999 FEW020 TX25/0814Z TN19/0806Z"
    },
    {
      "icao": "GCLP",
      "alert": "OK",
      "vis_m": 9999,
      "fzfg": false,
      "metar_trigger": false,
      "taf_trigger": false,
      "metar": "METAR GCLP 071830Z 35024G35KT 9999 BKN020 23/16 Q1019 NOSIG",
      "taf": "TAF GCLP 071400Z 0715/0815 01026KT 9999 FEW025 TX25/0814Z TN20/0806Z"
    },
    {
      "icao": "GCTS",
      "alert": "OK",
      "vis_m": 9999,
      "fzfg": false,
      "metar_trigger": false,
      "taf_trigger": false,
      "metar": "METAR GCTS 071830Z 08023KT CAVOK 23/17 Q1020 NOSIG",
      "taf": "TAF GCTS 071400Z 0715/0815 09018KT 9999 FEW025 TX27/0814Z TN19/0806Z"
    },
    {
      "icao": "GMAD",
      "alert": "OK",
      "vis_m": 9999,
      "fzfg": false,
      "metar_trigger": false,
      "taf_trigger": false,
      "metar": "METAR GMAD 071830Z 21010KT CAVOK 24/16 Q1014 NOSIG",
      "taf": "TAF GMAD 071700Z 0718/0824 20008KT CAVOK"
    },
    {
      "icao": "GMMN",
      "alert": "OK",
      "vis_m": 9999,
      "fzfg": false,
      "metar_trigger": false,
      "taf_trigger": false,
      "metar": "METAR GMMN 071830Z 33009KT 310V010 CAVOK 22/18 Q1018 NOSIG",
      "taf": "TAF GMMN 071700Z 0718/0824 32013KT CAVOK"
    },
    {
      "icao": "GMMX",
      "alert": "OK",
      "vis_m": 9999,
      "fzfg": false,
      "metar_trigger": false,
      "taf_trigger": false,
      "metar": "METAR GMMX 071830Z 36008KT 320V040 CAVOK 34/16 Q1017 NOSIG",
      "taf": "TAF GMMX 071700Z 0718/0824 06006KT 8000 NSC"
    },
    {
      "icao": "HEGN",
      "alert": "OK",
      "vis_m": 9999,
      "fzfg": false,
      "metar_trigger": false,
      "taf_trigger": false,
      "metar": "METAR HEGN 071800Z 33016KT CAVOK 30/12 Q1010 NOSIG",
      "taf": "TAF HEGN 071700Z 0718/0824 32015KT CAVOK"
    },
    {
      "icao": "HEMA",
      "alert": "OK",
      "vis_m": 9999,
      "fzfg": false,
      "metar_trigger": false,
      "taf_trigger": false,
      "metar": "METAR HEMA 071800Z 30008KT CAVOK 29/06 Q1010 NOSIG",
      "taf": "TAF HEMA 071700Z 0718/0824 31012KT CAVOK"
    },
    {
      "icao": "HESH",
      "alert": "OK",
      "vis_m": 9999,
      "fzfg": false,
      "metar_trigger": false,
      "taf_trigger": false,
      "metar": "METAR HESH 071800Z 35011KT CAVOK 32/12 Q1008 NOSIG",
      "taf": "TAF HESH 071700Z 0718/0824 36015KT CAVOK"
    },
    {
      "icao": "HESX",
      "alert": "OK",
      "vis_m": 9999,
      "fzfg": false,
      "metar_trigger": false,
      "taf_trigger": false,
      "metar": "METAR HESX 071800Z 02006KT CAVOK 27/13 Q1013 NOSIG",
      "taf": "TAF HESX 071700Z 0718/0824 04012KT CAVOK"
    },
    {
      "icao": "LATI",
      "alert": "OK",
      "vis_m": 9999,
      "fzfg": false,
      "metar_trigger": false,
      "taf_trigger": false,
      "metar": "METAR LATI 071820Z 32003KT CAVOK 23/16 Q1018 NOSIG",
      "taf": "TAF LATI 071700Z 0718/0818 34008KT CAVOK TX32/0811Z TN17/0804Z"
    },
    {
      "icao": "LBPD",
      "alert": "OK",
      "vis_m": 9999,
      "fzfg": false,
      "metar_trigger": false,
      "taf_trigger": false,
      "metar": "METAR LBPD 071830Z AUTO 20004KT 160V230 9999 NCD 21/18 Q1017 NOSIG",
      "taf": "TAF LBPD 071700Z 0718/0818 32010KT 9999 SCT050"
    },
    {
      "icao": "LBSF",
      "alert": "OK",
      "vis_m": 9999,
      "fzfg": false,
      "metar_trigger": false,
      "taf_trigger": false,
      "metar": "METAR LBSF 071830Z AUTO 01002KT 9999 BKN051/// 21/15 Q1020 NOSIG",
      "taf": "TAF LBSF 071700Z 0718/0818 VRB04KT 9999 SCT050"
    },
    {
      "icao": "LBWN",
      "alert": "OK",
      "vis_m": 9999,
      "fzfg": false,
      "metar_trigger": false,
      "taf_trigger": false,
      "metar": "METAR LBWN 071830Z AUTO 01004KT 9999 NSC 19/16 Q1017 TEMPO VRB16G26KT 5000 TSRA SCT030CB",
      "taf": "TAF LBWN 071700Z 0718/0818 VRB04KT 9999 SCT040"
    },
    {
      "icao": "LCLK",
      "alert": "OK",
      "vis_m": 8000,
      "fzfg": false,
      "metar_trigger": false,
      "taf_trigger": false,
      "metar": "METAR LCLK 071830Z 22006KT 8000 NSC 24/23 Q1011 NOSIG",
      "taf": "TAF LCLK 071730Z 0718/0818 22010KT 9999 FEW020"
    },
    {
      "icao": "LCPH",
      "alert": "OK",
      "vis_m": 9999,
      "fzfg": false,
      "metar_trigger": false,
      "taf_trigger": false,
      "metar": "METAR LCPH 071830Z 31007KT 9999 FEW017 23/21 Q1012 NOSIG",
      "taf": "TAF LCPH 071730Z 0718/0818 35009KT 9999 FEW017"
    },
    {
      "icao": "LEAL",
      "alert": "OK",
      "vis_m": 9999,
      "fzfg": false,
      "metar_trigger": false,
      "taf_trigger": false,
      "metar": "METAR LEAL 071830Z 08012KT CAVOK 25/18 Q1020 NOSIG",
      "taf": "TAF LEAL 071700Z 0718/0818 08013KT 9999 FEW030 TX29/0812Z TN19/0806Z"
    },
    {
      "icao": "LEBB",
      "alert": "OK",
      "vis_m": 9999,
      "fzfg": false,
      "metar_trigger": false,
      "taf_trigger": false,
      "metar": "METAR LEBB 071830Z 31009KT 280V340 9999 FEW018 20/16 Q1021 NOSIG",
      "taf": "TAF LEBB 071700Z 0718/0818 30009KT 9999 SCT020 TX21/0814Z TN17/0806Z"
    },
    {
      "icao": "LEBL",
      "alert": "OK",
      "vis_m": 9999,
      "fzfg": false,
      "metar_trigger": false,
      "taf_trigger": false,
      "metar": "METAR LEBL 071830Z 21005KT 170V250 CAVOK 22/17 Q1021 NOSIG",
      "taf": "TAF LEBL 071700Z 0718/0818 18008KT 9999 FEW020 TX26/0812Z TN18/0806Z"
    },
    {
      "icao": "LECH",
      "alert": "OK",
      "vis_m": 9999,
      "fzfg": false,
      "metar_trigger": false,
      "taf_trigger": false,
      "metar": "METAR LECH 071830Z AUTO 14005KT 110V180 CAVOK 21/16 Q1022",
      "taf": "TAF LECH 071700Z 0718/0818 12009KT 9999 FEW020 TX30/0813Z TN16/0806Z"
    },
    {
      "icao": "LEMD",
      "alert": "OK",
      "vis_m": 9999,
      "fzfg": false,
      "metar_trigger": false,
      "taf_trigger": false,
      "metar": "METAR LEMD 071830Z 26008KT 230V290 CAVOK 32/06 Q1018 NOSIG",
      "taf": "TAF LEMD 071700Z 0718/0824 VRB04KT CAVOK TX34/0816Z TN17/0805Z"
    },
    {
      "icao": "LEMG",
      "alert": "OK",
      "vis_m": 9999,
      "fzfg": false,
      "metar_trigger": false,
      "taf_trigger": false,
      "metar": "METAR LEMG 071830Z 12008KT 080V150 CAVOK 23/18 Q1020 NOSIG",
      "taf": "TAF LEMG 071700Z 0718/0818 13010KT 9999 FEW030 TX28/0814Z TN20/0806Z"
    },
    {
      "icao": "LEVC",
      "alert": "OK",
      "vis_m": 9999,
      "fzfg": false,
      "metar_trigger": false,
      "taf_trigger": false,
      "metar": "METAR LEVC 071830Z 09005KT 060V120 CAVOK 24/16 Q1021 NOSIG",
      "taf": "TAF LEVC 071700Z 0718/0818 10010KT 9999 FEW020 TX29/0812Z TN17/0806Z"
    },
    {
      "icao": "LEXJ",
      "alert": "OK",
      "vis_m": 9999,
      "fzfg": false,
      "metar_trigger": false,
      "taf_trigger": false,
      "metar": "METAR LEXJ 071830Z 06003KT 320V130 9999 SCT027 19/15 Q1021",
      "taf": "TAF LEXJ 071400Z 0715/0815 26005KT 9999 FEW030 TX20/0813Z TN16/0805Z"
    },
    {
      "icao": "LEZG",
      "alert": "OK",
      "vis_m": 9999,
      "fzfg": false,
      "metar_trigger": false,
      "taf_trigger": false,
      "metar": "METAR LEZG 071830Z 11015KT 080V140 CAVOK 30/14 Q1018 NOSIG",
      "taf": "TAF LEZG 071700Z 0718/0818 12010KT 9999 FEW015 TX34/0815Z TN17/0806Z"
    },
    {
      "icao": "LEZL",
      "alert": "OK",
      "vis_m": 9999,
      "fzfg": false,
      "metar_trigger": false,
      "taf_trigger": false,
      "metar": "METAR LEZL 071830Z 25011KT 210V280 CAVOK 32/17 Q1016 NOSIG",
      "taf": "TAF LEZL 071400Z 0715/0815 VRB03KT CAVOK TX36/0715Z TN19/0806Z"
    },
    {
      "icao": "LFBD",
      "alert": "OK",
      "vis_m": 9999,
      "fzfg": false,
      "metar_trigger": false,
      "taf_trigger": false,
      "metar": "METAR LFBD 071830Z AUTO 12007KT CAVOK 25/12 Q1019 NOSIG",
      "taf": "TAF LFBD 071700Z 0718/0824 12005KT CAVOK TX26/0718Z TN16/0805Z"
    },
    {
      "icao": "LFLL",
      "alert": "OK",
      "vis_m": 9999,
      "fzfg": false,
      "metar_trigger": false,
      "taf_trigger": false,
      "metar": "METAR LFLL 071830Z 04004KT CAVOK 23/08 Q1021 NOSIG",
      "taf": "TAF LFLL 071700Z 0718/0824 04005KT CAVOK"
    },
    {
      "icao": "LFLS",
      "alert": "OK",
      "vis_m": 9999,
      "fzfg": false,
      "metar_trigger": false,
      "taf_trigger": false,
      "metar": "METAR LFLS 071830Z AUTO 05005KT CAVOK 22/13 Q1022 NOSIG",
      "taf": "TAF LFLS 071400Z 0715/0815 01005KT CAVOK"
    },
    {
      "icao": "LFMN",
      "alert": "OK",
      "vis_m": 9999,
      "fzfg": false,
      "metar_trigger": false,
      "taf_trigger": false,
      "metar": "METAR LFMN 071830Z VRB02KT CAVOK 22/16 Q1020 NOSIG",
      "taf": "TAF LFMN 071400Z 0715/0821 15006KT 9999 FEW023"
    },
    {
      "icao": "LFOB",
      "alert": "OK",
      "vis_m": 9999,
      "fzfg": false,
      "metar_trigger": false,
      "taf_trigger": false,
      "metar": "METAR LFOB 071830Z AUTO 10004KT 9999 FEW048 19/12 Q1021 NOSIG",
      "taf": "TAF LFOB 071700Z 0718/0818 20006KT 9999 SCT040"
    },
    {
      "icao": "LFPO",
      "alert": "OK",
      "vis_m": 9999,
      "fzfg": false,
      "metar_trigger": false,
      "taf_trigger": false,
      "metar": "METAR LFPO 071830Z AUTO 21004KT CAVOK 21/09 Q1021 NOSIG",
      "taf": "TAF LFPO 071700Z 0718/0824 18005KT CAVOK"
    },
    {
      "icao": "LFSB",
      "alert": "OK",
      "vis_m": 9999,
      "fzfg": false,
      "metar_trigger": false,
      "taf_trigger": false,
      "metar": "METAR LFSB 071830Z AUTO 31004KT CAVOK 22/10 Q1022 NOSIG",
      "taf": "TAF LFSB 071700Z 0718/0818 28005KT CAVOK"
    },
    {
      "icao": "LGAV",
      "alert": "OK",
      "vis_m": 9999,
      "fzfg": false,
      "metar_trigger": false,
      "taf_trigger": false,
      "metar": "METAR LGAV 071820Z VRB01KT CAVOK 26/13 Q1016 NOSIG",
      "taf": "TAF LGAV 071700Z 0718/0818 VRB05KT 9999 FEW025"
    },
    {
      "icao": "LGTS",
      "alert": "OK",
      "vis_m": 9999,
      "fzfg": false,
      "metar_trigger": false,
      "taf_trigger": false,
      "metar": "METAR LGTS 071820Z 16004KT 9999 FEW025 27/14 Q1015 NOSIG",
      "taf": "TAF LGTS 071700Z 0718/0818 VRB03KT 9999 FEW030"
    },
    {
      "icao": "LHBP",
      "alert": "OK",
      "vis_m": 9999,
      "fzfg": false,
      "metar_trigger": false,
      "taf_trigger": false,
      "metar": "METAR LHBP 071830Z 32007KT CAVOK 23/10 Q1020 NOSIG",
      "taf": "TAF LHBP 071715Z 0718/0818 31009KT CAVOK"
    },
    {
      "icao": "LHDC",
      "alert": "OK",
      "vis_m": 9999,
      "fzfg": false,
      "metar_trigger": false,
      "taf_trigger": false,
      "metar": "METAR LHDC 071815Z AUTO 03008KT 360V060 CAVOK 22/13 Q1018 NOSIG",
      "taf": "TAF LHDC 071715Z 0718/0803 VRB03KT CAVOK"
    },
    {
      "icao": "LIBD",
      "alert": "OK",
      "vis_m": 9999,
      "fzfg": false,
      "metar_trigger": false,
      "taf_trigger": false,
      "metar": "METAR LIBD 071820Z VRB02KT CAVOK 23/15 Q1019",
      "taf": "TAF LIBD 071700Z 0718/0818 VRB05KT CAVOK"
    },
    {
      "icao": "LIBG",
      "alert": "OK",
      "vis_m": 9999,
      "fzfg": false,
      "metar_trigger": false,
      "taf_trigger": false,
      "metar": "METAR LIBG 071820Z AUTO 34005KT 9999 NCD 25/12 Q1018",
      "taf": "TAF LIBG 071700Z 0718/0818 VRB05KT CAVOK"
    },
    {
      "icao": "LIBP",
      "alert": "OK",
      "vis_m": 9999,
      "fzfg": false,
      "metar_trigger": false,
      "taf_trigger": false,
      "metar": "METAR LIBP 071820Z AUTO 05002KT 9999 SCT081/// 23/15 Q1020",
      "taf": "TAF LIBP 071700Z 0718/0818 VRB05KT 9999 SCT060"
    },
    {
      "icao": "LIBR",
      "alert": "OK",
      "vis_m": 9999,
      "fzfg": false,
      "metar_trigger": false,
      "taf_trigger": false,
      "metar": "METAR LIBR 071820Z 34008KT CAVOK 22/20 Q1018",
      "taf": "TAF LIBR 071700Z 0718/0818 34013KT CAVOK"
    },
    {
      "icao": "LICA",
      "alert": "OK",
      "vis_m": 9999,
      "fzfg": false,
      "metar_trigger": false,
      "taf_trigger": false,
      "metar": "METAR LICA 071820Z AUTO 24006KT 9999 NCD 23/19 Q1020",
      "taf": "TAF LICA 071700Z 0718/0818 26010KT 9999 FEW020"
    },
    {
      "icao": "LICC",
      "alert": "OK",
      "vis_m": 9999,
      "fzfg": false,
      "metar_trigger": false,
      "taf_trigger": false,
      "metar": "METAR LICC 071820Z 07010KT CAVOK 24/17 Q1019",
      "taf": "TAF LICC 071700Z 0718/0818 08010KT CAVOK"
    },
    {
      "icao": "LICJ",
      "alert": "OK",
      "vis_m": 9999,
      "fzfg": false,
      "metar_trigger": false,
      "taf_trigger": false,
      "metar": "METAR LICJ 071820Z 05013KT CAVOK 23/18 Q1019",
      "taf": "TAF LICJ 071700Z 0718/0818 05012KT CAVOK"
    },
    {
      "icao": "LIMC",
      "alert": "OK",
      "vis_m": 9999,
      "fzfg": false,
      "metar_trigger": false,
      "taf_trigger": false,
      "metar": "METAR LIMC 071820Z 27004KT 250V320 CAVOK 26/14 Q1020 NOSIG",
      "taf": "TAF LIMC 071700Z 0718/0824 VRB03KT 9999 FEW050"
    },
    {
      "icao": "LIME",
      "alert": "OK",
      "vis_m": 9999,
      "fzfg": false,
      "metar_trigger": false,
      "taf_trigger": false,
      "metar": "METAR LIME 071820Z 19005KT 160V240 CAVOK 26/15 Q1019 NOSIG",
      "taf": "TAF LIME 071700Z 0718/0818 VRB04KT 9999 FEW050"
    },
    {
      "icao": "LIMF",
      "alert": "OK",
      "vis_m": 9999,
      "fzfg": false,
      "metar_trigger": false,
      "taf_trigger": false,
      "metar": "METAR LIMF 071820Z 36003KT 9999 FEW060 26/17 Q1020",
      "taf": "TAF LIMF 071700Z 0718/0818 VRB04KT 9999 FEW050"
    },
    {
      "icao": "LIMJ",
      "alert": "OK",
      "vis_m": 9999,
      "fzfg": false,
      "metar_trigger": false,
      "taf_trigger": false,
      "metar": "METAR LIMJ 071820Z 21003KT CAVOK 22/16 Q1020",
      "taf": "TAF LIMJ 071700Z 0718/0818 VRB05KT CAVOK"
    },
    {
      "icao": "LIPE",
      "alert": "OK",
      "vis_m": 9999,
      "fzfg": false,
      "metar_trigger": false,
      "taf_trigger": false,
      "metar": "METAR LIPE 071820Z 11008KT CAVOK 27/15 Q1018",
      "taf": "TAF LIPE 071700Z 0718/0818 09012KT CAVOK"
    },
    {
      "icao": "LIPH",
      "alert": "OK",
      "vis_m": 9999,
      "fzfg": false,
      "metar_trigger": false,
      "taf_trigger": false,
      "metar": "METAR LIPH 071820Z 15004KT CAVOK 26/18 Q1019",
      "taf": "TAF LIPH 071700Z 0718/0818 VRB05KT CAVOK"
    },
    {
      "icao": "LIPQ",
      "alert": "OK",
      "vis_m": 9999,
      "fzfg": false,
      "metar_trigger": false,
      "taf_trigger": false,
      "metar": "METAR LIPQ 071820Z AUTO 15004KT 9999 NCD 24/21 Q1019",
      "taf": "TAF LIPQ 071700Z 0718/0818 VRB05KT CAVOK"
    },
    {
      "icao": "LIPR",
      "alert": "OK",
      "vis_m": 9999,
      "fzfg": false,
      "metar_trigger": false,
      "taf_trigger": false,
      "metar": "METAR LIPR 071820Z 10005KT CAVOK 23/17 Q1019",
      "taf": "TAF LIPR 071700Z 0718/0818 VRB05KT CAVOK"
    },
    {
      "icao": "LIPX",
      "alert": "OK",
      "vis_m": 9999,
      "fzfg": false,
      "metar_trigger": false,
      "taf_trigger": false,
      "metar": "METAR LIPX 071820Z 22002KT CAVOK 27/17 Q1019",
      "taf": "TAF LIPX 071700Z 0718/0818 VRB03KT CAVOK"
    },
    {
      "icao": "LIPY",
      "alert": "OK",
      "vis_m": 9999,
      "fzfg": false,
      "metar_trigger": false,
      "taf_trigger": false,
      "metar": "METAR LIPY 071820Z AUTO 28002KT 9999 NCD 23/16 Q1019",
      "taf": "TAF LIPY 071700Z 0718/0818 VRB05KT CAVOK"
    },
    {
      "icao": "LIPZ",
      "alert": "OK",
      "vis_m": 9999,
      "fzfg": false,
      "metar_trigger": false,
      "taf_trigger": false,
      "metar": "METAR LIPZ 071820Z 15004KT CAVOK 25/20 Q1019 NOSIG",
      "taf": "TAF LIPZ 071700Z 0718/0824 03006KT CAVOK"
    },
    {
      "icao": "LIRF",
      "alert": "OK",
      "vis_m": 9999,
      "fzfg": false,
      "metar_trigger": false,
      "taf_trigger": false,
      "metar": "METAR LIRF 071820Z 30006KT CAVOK 23/17 Q1019 NOSIG",
      "taf": "TAF LIRF 071700Z 0718/0824 29012KT CAVOK"
    },
    {
      "icao": "LIRN",
      "alert": "OK",
      "vis_m": 9999,
      "fzfg": false,
      "metar_trigger": false,
      "taf_trigger": false,
      "metar": "METAR LIRN 071820Z 30006KT CAVOK 25/13 Q1020 NOSIG",
      "taf": "TAF LIRN 071700Z 0718/0818 VRB05KT CAVOK"
    },
    {
      "icao": "LIRP",
      "alert": "OK",
      "vis_m": 9999,
      "fzfg": false,
      "metar_trigger": false,
      "taf_trigger": false,
      "metar": "METAR LIRP 071815Z 30006KT CAVOK 23/15 Q1020 NOSIG",
      "taf": "TAF LIRP 071700Z 0718/0818 29008KT 9999 FEW020"
    },
    {
      "icao": "LIRZ",
      "alert": "OK",
      "vis_m": 9999,
      "fzfg": false,
      "metar_trigger": false,
      "taf_trigger": false,
      "metar": "METAR LIRZ 071820Z AUTO 33004KT 9999 NCD 26/12 Q1019",
      "taf": "TAF LIRZ 071700Z 0718/0818 VRB05KT CAVOK"
    },
    {
      "icao": "LJLJ",
      "alert": "OK",
      "vis_m": 9999,
      "fzfg": false,
      "metar_trigger": false,
      "taf_trigger": false,
      "metar": "METAR LJLJ 071830Z 10006KT 9999 FEW060 21/15 Q1021 NOSIG",
      "taf": "TAF LJLJ 071700Z 0718/0818 10005KT 9999 FEW060"
    },
    {
      "icao": "LKMT",
      "alert": "OK",
      "vis_m": 9999,
      "fzfg": false,
      "metar_trigger": false,
      "taf_trigger": false,
      "metar": "METAR LKMT 071830Z 01008KT CAVOK 19/13 Q1021 NOSIG",
      "taf": "TAF LKMT 071700Z 0718/0818 VRB02KT CAVOK"
    },
    {
      "icao": "LKPR",
      "alert": "OK",
      "vis_m": 9999,
      "fzfg": false,
      "metar_trigger": false,
      "taf_trigger": false,
      "metar": "METAR LKPR 071830Z 35006KT CAVOK 19/09 Q1022 NOSIG",
      "taf": "TAF LKPR 071700Z 0718/0824 27012KT CAVOK"
    },
    {
      "icao": "LLBG",
      "alert": "OK",
      "vis_m": 9999,
      "fzfg": false,
      "metar_trigger": false,
      "taf_trigger": false,
      "metar": "METAR LLBG 071820Z 34004KT 9999 FEW022 24/18 Q1014 NOSIG",
      "taf": "TAF LLBG 071605Z 0718/0818 VRB04KT 9999 SCT020 TX29/0810Z TN20/0803Z"
    },
    {
      "icao": "LMML",
      "alert": "OK",
      "vis_m": 9999,
      "fzfg": false,
      "metar_trigger": false,
      "taf_trigger": false,
      "metar": "METAR LMML 071815Z 36006KT CAVOK 25/21 Q1019 NOSIG",
      "taf": "TAF LMML 071700Z 0718/0818 08007KT 9999 FEW015"
    },
    {
      "icao": "LOWW",
      "alert": "OK",
      "vis_m": 9999,
      "fzfg": false,
      "metar_trigger": false,
      "taf_trigger": false,
      "metar": "METAR LOWW 071820Z 30008KT CAVOK 25/11 Q1021 NOSIG",
      "taf": "TAF LOWW 071715Z 0718/0824 30011KT CAVOK TX28/0815Z TN14/0803Z"
    },
    {
      "icao": "LPFR",
      "alert": "OK",
      "vis_m": 9999,
      "fzfg": false,
      "metar_trigger": false,
      "taf_trigger": false,
      "metar": "METAR LPFR 071830Z 26010KT CAVOK 23/16 Q1018",
      "taf": "TAF LPFR 071700Z 0718/0818 25010KT CAVOK"
    },
    {
      "icao": "LPMA",
      "alert": "OK",
      "vis_m": 9999,
      "fzfg": false,
      "metar_trigger": false,
      "taf_trigger": false,
      "metar": "METAR LPMA 071830Z 02018KT 340V040 9999 FEW016 20/13 Q1024",
      "taf": "TAF LPMA 071700Z 0718/0818 02015KT 9999 SCT015"
    },
    {
      "icao": "LPPR",
      "alert": "OK",
      "vis_m": 9999,
      "fzfg": false,
      "metar_trigger": false,
      "taf_trigger": false,
      "metar": "METAR LPPR 071830Z 33013KT CAVOK 17/13 Q1021",
      "taf": "TAF LPPR 071700Z 0718/0818 32015KT CAVOK"
    },
    {
      "icao": "LPPS",
      "alert": "OK",
      "vis_m": 9999,
      "fzfg": false,
      "metar_trigger": false,
      "taf_trigger": false,
      "metar": "METAR LPPS 071830Z 01014KT 9999 FEW015 BKN030 20/14 Q1025",
      "taf": "TAF LPPS 071700Z 0718/0824 02015KT 9999 SCT015 BKN030"
    },
    {
      "icao": "LPPT",
      "alert": "OK",
      "vis_m": 9999,
      "fzfg": false,
      "metar_trigger": false,
      "taf_trigger": false,
      "metar": "METAR LPPT 071830Z 32014KT 290V350 CAVOK 21/11 Q1021",
      "taf": "TAF LPPT 071700Z 0718/0824 31015KT CAVOK"
    },
    {
      "icao": "LQBK",
      "alert": "OK",
      "vis_m": 9999,
      "fzfg": false,
      "metar_trigger": false,
      "taf_trigger": false,
      "metar": "METAR LQBK 071830Z VRB01KT CAVOK 22/17 Q1020 NOSIG",
      "taf": "TAF LQBK 071700Z 0718/0818 VRB03KT CAVOK TX29/0814Z TN15/0804Z"
    },
    {
      "icao": "LQSA",
      "alert": "OK",
      "vis_m": 9999,
      "fzfg": false,
      "metar_trigger": false,
      "taf_trigger": false,
      "metar": "METAR LQSA 071830Z 34006KT 310V010 9999 SCT055 23/13 Q1020 NOSIG",
      "taf": "TAF LQSA 071700Z 0718/0818 VRB02KT 9999 SCT060 TX29/0814Z TN14/0803Z"
    },
    {
      "icao": "LQTZ",
      "alert": "OK",
      "vis_m": 9999,
      "fzfg": false,
      "metar_trigger": false,
      "taf_trigger": false,
      "metar": "METAR LQTZ 071830Z 03003KT CAVOK 22/16 Q1020",
      "taf": "TAF LQTZ 071700Z 0718/0818 05005KT CAVOK TX28/0814Z TN12/0803Z"
    },
    {
      "icao": "LRBC",
      "alert": "OK",
      "vis_m": 9999,
      "fzfg": false,
      "metar_trigger": false,
      "taf_trigger": false,
      "metar": "METAR LRBC 071830Z 28004KT 9999 FEW023 FEW035CB 18/17 Q1019",
      "taf": "TAF LRBC 071700Z 0718/0803 29008KT 9999 FEW040CB"
    },
    {
      "icao": "LRBS",
      "alert": "OK",
      "vis_m": 9999,
      "fzfg": false,
      "metar_trigger": false,
      "taf_trigger": false,
      "metar": "METAR LRBS 071830Z 07004KT 9999 FEW040 20/17 Q1018 NOSIG",
      "taf": "TAF LRBS 071700Z 0718/0818 06010KT CAVOK"
    },
    {
      "icao": "LRBV",
      "alert": "OK",
      "vis_m": 9999,
      "fzfg": false,
      "metar_trigger": false,
      "taf_trigger": false,
      "metar": "METAR LRBV 071830Z 30004KT 9999 FEW056 SCT068 17/13 Q1020",
      "taf": "TAF LRBV 071700Z 0718/0803 24008KT 9999 SCT060"
    },
    {
      "icao": "LRCL",
      "alert": "OK",
      "vis_m": 9999,
      "fzfg": false,
      "metar_trigger": false,
      "taf_trigger": false,
      "metar": "METAR LRCL 071830Z 30004KT CAVOK 20/12 Q1019",
      "taf": "TAF LRCL 071700Z 0718/0803 30006KT CAVOK"
    },
    {
      "icao": "LRCV",
      "alert": "OK",
      "vis_m": 9999,
      "fzfg": false,
      "metar_trigger": false,
      "taf_trigger": false,
      "metar": "METAR LRCV 071830Z 36006KT 280V060 CAVOK 21/16 Q1018",
      "taf": "TAF LRCV 071700Z 0718/0803 26010KT CAVOK"
    },
    {
      "icao": "LRIA",
      "alert": "OK",
      "vis_m": 9999,
      "fzfg": false,
      "metar_trigger": false,
      "taf_trigger": false,
      "metar": "METAR LRIA 071830Z 27004KT 240V300 9999 FEW027 18/15 Q1018",
      "taf": "TAF LRIA 071700Z 0718/0803 VRB04KT 9999 SCT030"
    },
    {
      "icao": "LROP",
      "alert": "OK",
      "vis_m": 9999,
      "fzfg": false,
      "metar_trigger": false,
      "taf_trigger": false,
      "metar": "METAR LROP 071830Z 09004KT CAVOK 20/17 Q1018 NOSIG",
      "taf": "TAF LROP 071700Z 0718/0818 06010KT CAVOK"
    },
    {
      "icao": "LRSB",
      "alert": "OK",
      "vis_m": 9999,
      "fzfg": false,
      "metar_trigger": false,
      "taf_trigger": false,
      "metar": "METAR LRSB 071830Z 24006KT 9999 FEW075 18/16 Q1020",
      "taf": "TAF LRSB 071700Z 0718/0818 VRB04KT 9999 SCT050"
    },
    {
      "icao": "LRSM",
      "alert": "OK",
      "vis_m": 9999,
      "fzfg": false,
      "metar_trigger": false,
      "taf_trigger": false,
      "metar": "METAR LRSM 071830Z AUTO VRB01KT 9999 BKN100/// 19/15 Q1018 RERA",
      "taf": ""
    },
    {
      "icao": "LRSV",
      "alert": "OK",
      "vis_m": 9999,
      "fzfg": false,
      "metar_trigger": false,
      "taf_trigger": false,
      "metar": "METAR LRSV 071830Z 27005KT 9999 FEW045 16/13 Q1019",
      "taf": "TAF LRSV 071700Z 0718/0803 31010KT CAVOK"
    },
    {
      "icao": "LRTM",
      "alert": "OK",
      "vis_m": 9999,
      "fzfg": false,
      "metar_trigger": false,
      "taf_trigger": false,
      "metar": "METAR LRTM 071830Z 24004KT CAVOK 19/15 Q1019",
      "taf": "TAF LRTM 071700Z 0718/0803 VRB04KT CAVOK"
    },
    {
      "icao": "LRTR",
      "alert": "OK",
      "vis_m": 9999,
      "fzfg": false,
      "metar_trigger": false,
      "taf_trigger": false,
      "metar": "METAR LRTR 071830Z 28004KT CAVOK 24/12 Q1019",
      "taf": "TAF LRTR 071700Z 0718/0818 VRB04KT CAVOK"
    },
    {
      "icao": "LTAC",
      "alert": "OK",
      "vis_m": 9999,
      "fzfg": false,
      "metar_trigger": false,
      "taf_trigger": false,
      "metar": "METAR LTAC 071820Z 06008KT 9999 FEW040 SCT100 21/09 Q1018 NOSIG RMK RWY21C 04007KT RWY03L 04006KT RWY21R 03008KT RWY03R 05005KT RWY21L 04007KT",
      "taf": "TAF LTAC 071640Z 0718/0818 03008KT 9999 SCT040"
    },
    {
      "icao": "LTFM",
      "alert": "OK",
      "vis_m": 9999,
      "fzfg": false,
      "metar_trigger": false,
      "taf_trigger": false,
      "metar": "METAR LTFM 071820Z 07010KT 9999 FEW012 BKN120 21/18 Q1017 NOSIG RMK RWY17L 07007KT RWY34L 06008KT RWY16R 07008KT RWY36 06009KT 020V080 RWY18 07008KT",
      "taf": "TAF LTFM 071640Z 0718/0824 04012KT 9999 SCT012 BKN120"
    },
    {
      "icao": "LUKK",
      "alert": "OK",
      "vis_m": 9999,
      "fzfg": false,
      "metar_trigger": false,
      "taf_trigger": false,
      "metar": "METAR LUKK 071830Z 29006KT CAVOK 18/16 Q1017 NOSIG",
      "taf": "TAF LUKK 071708Z 0718/0818 27008KT 9999 SCT030"
    },
    {
      "icao": "LWOH",
      "alert": "OK",
      "vis_m": 9999,
      "fzfg": false,
      "metar_trigger": false,
      "taf_trigger": false,
      "metar": "METAR LWOH 071750Z VRB02KT 9999 FEW040 24/17 Q1019",
      "taf": "TAF LWOH 071710Z 0718/0818 16006KT 9999 SCT040"
    },
    {
      "icao": "LWSK",
      "alert": "OK",
      "vis_m": 9999,
      "fzfg": false,
      "metar_trigger": false,
      "taf_trigger": false,
      "metar": "METAR LWSK 071820Z 36012KT 9999 FEW060 26/14 Q1018 NOSIG",
      "taf": "TAF LWSK 071710Z 0718/0818 36010KT 9999 FEW050"
    },
    {
      "icao": "LYBE",
      "alert": "OK",
      "vis_m": 9999,
      "fzfg": false,
      "metar_trigger": false,
      "taf_trigger": false,
      "metar": "METAR LYBE 071830Z 28003KT CAVOK 23/15 Q1019 NOSIG",
      "taf": "TAF LYBE 071700Z 0718/0818 25005KT CAVOK TX30/0814Z TN16/0803Z"
    },
    {
      "icao": "LYNI",
      "alert": "OK",
      "vis_m": 9999,
      "fzfg": false,
      "metar_trigger": false,
      "taf_trigger": false,
      "metar": "METAR LYNI 071830Z 34005KT CAVOK 22/15 Q1019 NOSIG",
      "taf": "TAF LYNI 071700Z 0718/0818 07005KT CAVOK TX30/0814Z TN12/0803Z"
    },
    {
      "icao": "LYPG",
      "alert": "OK",
      "vis_m": 9999,
      "fzfg": false,
      "metar_trigger": false,
      "taf_trigger": false,
      "metar": "METAR LYPG 071830Z 13005KT CAVOK 25/19 Q1017 NOSIG",
      "taf": "TAF LYPG 071700Z 0718/0818 VRB02KT CAVOK TX31/0814Z TN19/0803Z"
    },
    {
      "icao": "LZIB",
      "alert": "OK",
      "vis_m": 9999,
      "fzfg": false,
      "metar_trigger": false,
      "taf_trigger": false,
      "metar": "METAR LZIB 071830Z 29004KT CAVOK 23/13 Q1020 NOSIG",
      "taf": "TAF LZIB 071715Z 0718/0818 30007KT CAVOK"
    },
    {
      "icao": "LZKZ",
      "alert": "OK",
      "vis_m": 9999,
      "fzfg": false,
      "metar_trigger": false,
      "taf_trigger": false,
      "metar": "METAR LZKZ 071830Z 35007KT 9999 FEW015 19/15 Q1020 NOSIG",
      "taf": ""
    },
    {
      "icao": "LZTT",
      "alert": "OK",
      "vis_m": 9999,
      "fzfg": false,
      "metar_trigger": false,
      "taf_trigger": false,
      "metar": "METAR LZTT 071830Z VRB03KT 9999 FEW060 16/10 Q1021",
      "taf": "TAF LZTT 071715Z 0718/0818 29005KT 9999 FEW030"
    },
    {
      "icao": "OEJN",
      "alert": "OK",
      "vis_m": 9999,
      "fzfg": false,
      "metar_trigger": false,
      "taf_trigger": false,
      "metar": "METAR OEJN 071800Z 36008KT CAVOK 32/16 Q1008 NOSIG",
      "taf": "TAF OEJN 071700Z 0718/0824 36010KT CAVOK"
    },
    {
      "icao": "OEMA",
      "alert": "OK",
      "vis_m": 9999,
      "fzfg": false,
      "metar_trigger": false,
      "taf_trigger": false,
      "metar": "METAR OEMA 071800Z 22010KT CAVOK 38/01 Q1013 NOSIG",
      "taf": "TAF OEMA 071700Z 0718/0824 27010KT CAVOK"
    },
    {
      "icao": "OJAI",
      "alert": "OK",
      "vis_m": 5000,
      "fzfg": false,
      "metar_trigger": false,
      "taf_trigger": false,
      "metar": "METAR OJAI 071800Z 28008KT 5000 HZ NSC 23/12 Q1016 NOSIG",
      "taf": "TAF OJAI 071700Z 0718/0824 29010KT 5000 HZ NSC"
    },
    {
      "icao": "OMAA",
      "alert": "OK",
      "vis_m": 9999,
      "fzfg": false,
      "metar_trigger": false,
      "taf_trigger": false,
      "metar": "METAR OMAA 071830Z 05004KT 020V090 CAVOK 31/25 Q1004 NOSIG",
      "taf": "TAF OMAA 071700Z 0718/0900 17005KT 8000 NSC"
    },
    {
      "icao": "OMDB",
      "alert": "OK",
      "vis_m": 9999,
      "fzfg": false,
      "metar_trigger": false,
      "taf_trigger": false,
      "metar": "METAR OMDB 071830Z 23003KT 190V250 CAVOK 34/23 Q1004 NOSIG",
      "taf": "TAF OMDB 071700Z 0718/0900 VRB02KT CAVOK"
    },
    {
      "icao": "UAAA",
      "alert": "OK",
      "vis_m": 9999,
      "fzfg": false,
      "metar_trigger": false,
      "taf_trigger": false,
      "metar": "METAR UAAA 071830Z 16001MPS 9999 SCT100 17/12 Q1016 NOSIG",
      "taf": "TAF UAAA 071700Z 0718/0818 20003MPS 9999 FEW050CB SCT100 TX30/0810Z TN15/0801Z"
    },
    {
      "icao": "UBBB",
      "alert": "OK",
      "vis_m": 9999,
      "fzfg": false,
      "metar_trigger": false,
      "taf_trigger": false,
      "metar": "METAR UBBB 071830Z 33006KT CAVOK 21/15 Q1015 NOSIG",
      "taf": "TAF UBBB 071701Z 0718/0818 31005KT 9999 FEW050CB TX26/0810Z TN17/0800Z"
    },
    {
      "icao": "UDSG",
      "alert": "OK",
      "vis_m": 9999,
      "fzfg": false,
      "metar_trigger": false,
      "taf_trigger": false,
      "metar": "METAR UDSG 071830Z 09004KT 9999 FEW049 15/08 Q1020 NOSIG",
      "taf": "TAF UDSG 071658Z 0718/0818 VRB06KT 9999 FEW050"
    },
    {
      "icao": "UDYZ",
      "alert": "OK",
      "vis_m": 9999,
      "fzfg": false,
      "metar_trigger": false,
      "taf_trigger": false,
      "metar": "METAR UDYZ 071830Z 03017KT 9999 FEW046 23/09 Q1014 NOSIG",
      "taf": "TAF UDYZ 071700Z 0718/0818 02006KT 9999 FEW040"
    },
    {
      "icao": "UGKO",
      "alert": "OK",
      "vis_m": 9999,
      "fzfg": false,
      "metar_trigger": false,
      "taf_trigger": false,
      "metar": "METAR UGKO 071830Z 29007KT CAVOK 19/17 Q1016 NOSIG",
      "taf": "TAF UGKO 071700Z 0718/0818 VRB02KT CAVOK TX27/0811Z TN14/0802Z"
    }
  ]
}