{
  "ts_utc": "2026-06-21T14:35:06Z",
  "threshold_m": 150,
  "source": "stations_override.txt (ICAO list) + aviationweather.gov (METAR/TAF raw)",
  "station_count": 159,
  "stations": [
    {
      "icao": "BIKF",
      "alert": "OK",
      "vis_m": 9999,
      "fzfg": false,
      "metar_trigger": false,
      "taf_trigger": false,
      "metar": "METAR BIKF 211430Z 23010KT 190V260 9999 FEW018 SCT035 12/06 Q1017",
      "taf": "TAF BIKF 211359Z 2115/2215 23012KT 9999 FEW020 BKN030 TX11/2115Z TN08/2204Z"
    },
    {
      "icao": "BKPR",
      "alert": "OK",
      "vis_m": 9999,
      "fzfg": false,
      "metar_trigger": false,
      "taf_trigger": false,
      "metar": "METAR BKPR 211430Z 15007KT 9999 BKN050 29/15 Q1024 NOSIG",
      "taf": "TAF BKPR 211130Z 2112/2212 34008KT 9999 FEW050"
    },
    {
      "icao": "EBCI",
      "alert": "OK",
      "vis_m": 9999,
      "fzfg": false,
      "metar_trigger": false,
      "taf_trigger": false,
      "metar": "METAR EBCI 211420Z 01005KT 300V060 9999 FEW040 30/21 Q1025 NOSIG",
      "taf": "TAF EBCI 211118Z 2112/2218 VRB04KT CAVOK"
    },
    {
      "icao": "EDDB",
      "alert": "OK",
      "vis_m": 9999,
      "fzfg": false,
      "metar_trigger": false,
      "taf_trigger": false,
      "metar": "METAR EDDB 211420Z AUTO 28005KT 240V300 9999 SHRA FEW///TCU 25/19 Q1025 TEMPO NSW",
      "taf": "TAF EDDB 211100Z 2112/2212 32007KT 9999 FEW035"
    },
    {
      "icao": "EDDH",
      "alert": "OK",
      "vis_m": 9999,
      "fzfg": false,
      "metar_trigger": false,
      "taf_trigger": false,
      "metar": "METAR EDDH 211420Z AUTO 36006KT 310V050 9999 SCT040 26/17 Q1026 NOSIG",
      "taf": "TAF EDDH 211100Z 2112/2218 02005KT CAVOK"
    },
    {
      "icao": "EDDK",
      "alert": "OK",
      "vis_m": 9999,
      "fzfg": false,
      "metar_trigger": false,
      "taf_trigger": false,
      "metar": "METAR EDDK 211420Z AUTO VRB04KT CAVOK 32/17 Q1024 NOSIG",
      "taf": "TAF EDDK 211100Z 2112/2218 01006KT CAVOK"
    },
    {
      "icao": "EDDN",
      "alert": "OK",
      "vis_m": 9999,
      "fzfg": false,
      "metar_trigger": false,
      "taf_trigger": false,
      "metar": "METAR EDDN 211420Z AUTO 08006KT 050V130 9999 SHRA VCTS SCT///CB 21/18 Q1025 RETS BECMG NSW",
      "taf": ""
    },
    {
      "icao": "EDDS",
      "alert": "OK",
      "vis_m": 9999,
      "fzfg": false,
      "metar_trigger": false,
      "taf_trigger": false,
      "metar": "METAR EDDS 211420Z AUTO 03003KT CAVOK 35/13 Q1024 NOSIG",
      "taf": "TAF EDDS 211100Z 2112/2212 VRB03KT CAVOK"
    },
    {
      "icao": "EDFH",
      "alert": "OK",
      "vis_m": 9999,
      "fzfg": false,
      "metar_trigger": false,
      "taf_trigger": false,
      "metar": "METAR EDFH 211420Z 30006KT 240V010 9999 SCT070CB 33/15 Q1025",
      "taf": "TAF EDFH 211100Z 2112/2212 15004KT CAVOK"
    },
    {
      "icao": "EDJA",
      "alert": "OK",
      "vis_m": 9999,
      "fzfg": false,
      "metar_trigger": false,
      "taf_trigger": false,
      "metar": "METAR EDJA 211420Z 30012G30KT 260V330 9999 VCTS SCT086CB 30/15 Q1026",
      "taf": "TAF EDJA 211400Z 2115/2124 33006KT CAVOK"
    },
    {
      "icao": "EDLW",
      "alert": "OK",
      "vis_m": 9999,
      "fzfg": false,
      "metar_trigger": false,
      "taf_trigger": false,
      "metar": "METAR EDLW 211420Z COR 03005KT 330V080 CAVOK 28/19 Q1025",
      "taf": "TAF EDLW 211100Z 2112/2212 03005KT CAVOK"
    },
    {
      "icao": "EDNY",
      "alert": "OK",
      "vis_m": 9999,
      "fzfg": false,
      "metar_trigger": false,
      "taf_trigger": false,
      "metar": "METAR EDNY 211420Z 05003KT 350V080 CAVOK 30/19 Q1025",
      "taf": "TAF EDNY 211400Z 2115/2124 04004KT CAVOK"
    },
    {
      "icao": "EDSB",
      "alert": "OK",
      "vis_m": 9999,
      "fzfg": false,
      "metar_trigger": false,
      "taf_trigger": false,
      "metar": "METAR EDSB 211420Z 03005KT 330V060 CAVOK 35/16 Q1022",
      "taf": "TAF EDSB 211100Z 2112/2212 35007KT CAVOK"
    },
    {
      "icao": "EETN",
      "alert": "OK",
      "vis_m": 9999,
      "fzfg": false,
      "metar_trigger": false,
      "taf_trigger": false,
      "metar": "METAR EETN 211420Z 29011KT 260V320 9999 FEW035TCU 24/15 Q1018 NOSIG",
      "taf": "TAF EETN 211130Z 2112/2212 26012KT 9999 SCT030"
    },
    {
      "icao": "EFTU",
      "alert": "OK",
      "vis_m": 9999,
      "fzfg": false,
      "metar_trigger": false,
      "taf_trigger": false,
      "metar": "METAR EFTU 211420Z AUTO 30009KT CAVOK 22/11 Q1018",
      "taf": "TAF EFTU 211125Z 2112/2212 29007KT CAVOK"
    },
    {
      "icao": "EGBB",
      "alert": "OK",
      "vis_m": 9999,
      "fzfg": false,
      "metar_trigger": false,
      "taf_trigger": false,
      "metar": "METAR EGBB 211420Z VRB04KT 9999 BKN041 25/16 Q1026",
      "taf": "TAF EGBB 211058Z 2112/2212 05004KT 9999 FEW040"
    },
    {
      "icao": "EGGP",
      "alert": "OK",
      "vis_m": 9999,
      "fzfg": false,
      "metar_trigger": false,
      "taf_trigger": false,
      "metar": "METAR EGGP 211420Z VRB01KT CAVOK 24/14 Q1026",
      "taf": "TAF EGGP 211058Z 2112/2212 08008KT 9999 SCT045"
    },
    {
      "icao": "EGGW",
      "alert": "OK",
      "vis_m": 9999,
      "fzfg": false,
      "metar_trigger": false,
      "taf_trigger": false,
      "metar": "METAR EGGW 211420Z AUTO 05006KT 360V130 9999 FEW033 26/18 Q1026",
      "taf": "TAF EGGW 211059Z 2112/2212 08008KT 9999 FEW030"
    },
    {
      "icao": "EGKK",
      "alert": "OK",
      "vis_m": 9999,
      "fzfg": false,
      "metar_trigger": false,
      "taf_trigger": false,
      "metar": "METAR EGKK 211420Z 07005KT 010V140 9999 FEW048 28/18 Q1024",
      "taf": "TAF EGKK 211057Z 2112/2218 13004KT 9999 FEW040"
    },
    {
      "icao": "EGNM",
      "alert": "OK",
      "vis_m": 9999,
      "fzfg": false,
      "metar_trigger": false,
      "taf_trigger": false,
      "metar": "METAR EGNM 211420Z 10007KT 9999 SCT032 21/15 Q1028",
      "taf": "TAF EGNM 211057Z 2112/2212 08006KT 9999 FEW025"
    },
    {
      "icao": "EGPD",
      "alert": "OK",
      "vis_m": 9999,
      "fzfg": false,
      "metar_trigger": false,
      "taf_trigger": false,
      "metar": "METAR EGPD 211420Z AUTO 11009KT 070V150 9999 NCD 18/07 Q1029",
      "taf": "TAF EGPD 211055Z 2112/2212 29006KT 9999 FEW045"
    },
    {
      "icao": "EGPF",
      "alert": "OK",
      "vis_m": 9999,
      "fzfg": false,
      "metar_trigger": false,
      "taf_trigger": false,
      "metar": "METAR EGPF 211420Z AUTO VRB02KT 9999 BKN049 21/10 Q1028",
      "taf": "TAF EGPF 211054Z 2112/2212 VRB03KT 9999 SCT040"
    },
    {
      "icao": "EHBK",
      "alert": "OK",
      "vis_m": 9999,
      "fzfg": false,
      "metar_trigger": false,
      "taf_trigger": false,
      "metar": "METAR EHBK 211425Z AUTO 36004KT 300V060 9999 NSC 30/18 Q1024 NOSIG",
      "taf": "TAF EHBK 211101Z 2112/2218 35005KT CAVOK"
    },
    {
      "icao": "EHEH",
      "alert": "OK",
      "vis_m": 9999,
      "fzfg": false,
      "metar_trigger": false,
      "taf_trigger": false,
      "metar": "METAR EHEH 211425Z AUTO 03005KT 350V060 9999 SCT036 SCT041 OVC270 28/20 Q1024 BLU NOSIG",
      "taf": "TAF EHEH 211150Z 2112/2218 04006KT 9999 FEW035"
    },
    {
      "icao": "EKBI",
      "alert": "OK",
      "vis_m": 9999,
      "fzfg": false,
      "metar_trigger": false,
      "taf_trigger": false,
      "metar": "METAR EKBI 211432Z 29005KT 240V320 CAVOK 22/09 Q1027",
      "taf": "TAF EKBI 211427Z 2115/2215 30005KT 9999 FEW040"
    },
    {
      "icao": "EKCH",
      "alert": "OK",
      "vis_m": 9999,
      "fzfg": false,
      "metar_trigger": false,
      "taf_trigger": false,
      "metar": "METAR EKCH 211420Z AUTO 02014KT 9999 NCD 21/11 Q1026 NOSIG",
      "taf": "TAF EKCH 211427Z 2115/2215 01012KT CAVOK"
    },
    {
      "icao": "ENAL",
      "alert": "OK",
      "vis_m": 9999,
      "fzfg": false,
      "metar_trigger": false,
      "taf_trigger": false,
      "metar": "METAR ENAL 211420Z 25020KT 9999 FEW030 SCT046 14/09 Q1024",
      "taf": "TAF ENAL 211100Z 2112/2121 24022G32KT 9999 -SHRA FEW025TCU BKN050"
    },
    {
      "icao": "ENBR",
      "alert": "OK",
      "vis_m": 9999,
      "fzfg": false,
      "metar_trigger": false,
      "taf_trigger": false,
      "metar": "METAR ENBR 211420Z 25007KT 9999 FEW022 SCT032 14/06 Q1028 NOSIG RMK WIND 1200FT 27012KT",
      "taf": "TAF ENBR 211100Z 2112/2212 27008KT 9999 SCT025"
    },
    {
      "icao": "ENGM",
      "alert": "OK",
      "vis_m": 9999,
      "fzfg": false,
      "metar_trigger": false,
      "taf_trigger": false,
      "metar": "METAR ENGM 211420Z 29006KT 230V330 CAVOK 21/05 Q1022 NOSIG",
      "taf": "TAF ENGM 211100Z 2112/2212 26007KT CAVOK"
    },
    {
      "icao": "ENHD",
      "alert": "OK",
      "vis_m": 9999,
      "fzfg": false,
      "metar_trigger": false,
      "taf_trigger": false,
      "metar": "METAR ENHD 211420Z 28008KT 9999 FEW014 16/10 Q1028",
      "taf": "TAF ENHD 211100Z 2112/2121 25007KT 9999 SCT015"
    },
    {
      "icao": "ENTC",
      "alert": "OK",
      "vis_m": 9999,
      "fzfg": false,
      "metar_trigger": false,
      "taf_trigger": false,
      "metar": "METAR ENTC 211420Z 24017KT 9999 FEW047 BKN065 13/07 Q1008 TEMPO SHRA BKN012CB RMK WIND 2600FT 21027KT",
      "taf": ""
    },
    {
      "icao": "ENTO",
      "alert": "OK",
      "vis_m": 9999,
      "fzfg": false,
      "metar_trigger": false,
      "taf_trigger": false,
      "metar": "METAR ENTO 211420Z 27009KT 240V300 CAVOK 23/08 Q1023 NOSIG",
      "taf": ""
    },
    {
      "icao": "ENVA",
      "alert": "OK",
      "vis_m": 7000,
      "fzfg": false,
      "metar_trigger": false,
      "taf_trigger": false,
      "metar": "METAR ENVA 211420Z 29017KT 7000 RA SCT047CB 14/10 Q1021 RMK WIND 670FT 30019KT",
      "taf": ""
    },
    {
      "icao": "ENZV",
      "alert": "OK",
      "vis_m": 9999,
      "fzfg": false,
      "metar_trigger": false,
      "taf_trigger": false,
      "metar": "METAR ENZV 211420Z 30009KT CAVOK 17/09 Q1028 NOSIG",
      "taf": "TAF ENZV 211100Z 2112/2212 25008KT 9999 SCT015"
    },
    {
      "icao": "EPGD",
      "alert": "OK",
      "vis_m": 9999,
      "fzfg": false,
      "metar_trigger": false,
      "taf_trigger": false,
      "metar": "METAR EPGD 211430Z 09009KT 9999 -TSRA SCT030CB 24/19 Q1023",
      "taf": "TAF EPGD 211130Z 2112/2212 VRB02KT 9999 SCT040"
    },
    {
      "icao": "EPKK",
      "alert": "OK",
      "vis_m": 9999,
      "fzfg": false,
      "metar_trigger": false,
      "taf_trigger": false,
      "metar": "METAR EPKK 211430Z VRB02KT 9999 FEW042CB SCT058 24/18 Q1024",
      "taf": "TAF EPKK 211430Z 2115/2215 30010KT 9999 SCT040"
    },
    {
      "icao": "EPKT",
      "alert": "OK",
      "vis_m": 9999,
      "fzfg": false,
      "metar_trigger": false,
      "taf_trigger": false,
      "metar": "METAR EPKT 211430Z 02005KT 330V060 CAVOK 27/17 Q1024",
      "taf": "TAF EPKT 211130Z 2112/2212 27010KT CAVOK"
    },
    {
      "icao": "EPLB",
      "alert": "OK",
      "vis_m": 9999,
      "fzfg": false,
      "metar_trigger": false,
      "taf_trigger": false,
      "metar": "METAR EPLB 211430Z 13004KT 100V160 CAVOK 32/14 Q1022",
      "taf": "TAF EPLB 211130Z 2112/2212 12005KT CAVOK"
    },
    {
      "icao": "EPMO",
      "alert": "OK",
      "vis_m": 9999,
      "fzfg": false,
      "metar_trigger": false,
      "taf_trigger": false,
      "metar": "METAR EPMO 211430Z 33004KT 280V040 CAVOK 28/20 Q1022",
      "taf": "TAF EPMO 211130Z 2112/2212 34008KT CAVOK"
    },
    {
      "icao": "EPPO",
      "alert": "OK",
      "vis_m": 9999,
      "fzfg": false,
      "metar_trigger": false,
      "taf_trigger": false,
      "metar": "METAR EPPO 211430Z 31015G29KT 9999 SCT043CB 26/18 Q1024",
      "taf": ""
    },
    {
      "icao": "EPRA",
      "alert": "OK",
      "vis_m": 9999,
      "fzfg": false,
      "metar_trigger": false,
      "taf_trigger": false,
      "metar": "METAR EPRA 211430Z 33009KT 9999 -TSRA SCT055CB 25/17 Q1024",
      "taf": "TAF EPRA 211430Z 2115/2124 28010KT CAVOK"
    },
    {
      "icao": "EPRZ",
      "alert": "OK",
      "vis_m": 9999,
      "fzfg": false,
      "metar_trigger": false,
      "taf_trigger": false,
      "metar": "METAR EPRZ 211430Z 34006KT 320V030 9999 -SHRA BKN050CB 22/19 Q1022 RETS RESHRA",
      "taf": "TAF EPRZ 211130Z 2112/2212 13004KT CAVOK"
    },
    {
      "icao": "EPSC",
      "alert": "OK",
      "vis_m": 9999,
      "fzfg": false,
      "metar_trigger": false,
      "taf_trigger": false,
      "metar": "METAR EPSC 211430Z 35005KT 310V010 9999 FEW020 24/20 Q1024",
      "taf": "TAF EPSC 211130Z 2112/2212 34016KT CAVOK"
    },
    {
      "icao": "EPSY",
      "alert": "OK",
      "vis_m": 9999,
      "fzfg": false,
      "metar_trigger": false,
      "taf_trigger": false,
      "metar": "METAR EPSY 211430Z 07006KT 020V110 CAVOK 25/18 Q1023",
      "taf": "TAF EPSY 211430Z 2115/2124 VRB02KT CAVOK"
    },
    {
      "icao": "EPWA",
      "alert": "OK",
      "vis_m": 9999,
      "fzfg": false,
      "metar_trigger": false,
      "taf_trigger": false,
      "metar": "METAR EPWA 211430Z 32008KT 9999 FEW036 29/20 Q1022 NOSIG",
      "taf": "TAF EPWA 211430Z 2115/2215 36005KT CAVOK"
    },
    {
      "icao": "EPWR",
      "alert": "OK",
      "vis_m": 9999,
      "fzfg": false,
      "metar_trigger": false,
      "taf_trigger": false,
      "metar": "METAR EPWR 211430Z 02008KT 290V060 9999 FEW046 30/18 Q1024",
      "taf": "TAF EPWR 211430Z 2115/2215 32006KT CAVOK"
    },
    {
      "icao": "ESGG",
      "alert": "OK",
      "vis_m": 9999,
      "fzfg": false,
      "metar_trigger": false,
      "taf_trigger": false,
      "metar": "METAR ESGG 211420Z 28012KT CAVOK 18/08 Q1025",
      "taf": "TAF ESGG 211430Z 2115/2215 28010KT CAVOK"
    },
    {
      "icao": "ESKN",
      "alert": "OK",
      "vis_m": 9999,
      "fzfg": false,
      "metar_trigger": false,
      "taf_trigger": false,
      "metar": "METAR ESKN 211420Z 28011KT CAVOK 25/10 Q1020",
      "taf": "TAF ESKN 211430Z 2115/2215 27011KT CAVOK"
    },
    {
      "icao": "ESMS",
      "alert": "OK",
      "vis_m": 9999,
      "fzfg": false,
      "metar_trigger": false,
      "taf_trigger": false,
      "metar": "METAR ESMS 211420Z 33013KT CAVOK 23/08 Q1025",
      "taf": "TAF ESMS 211427Z 2115/2215 32012KT 9999 FEW040"
    },
    {
      "icao": "ESSA",
      "alert": "OK",
      "vis_m": 9999,
      "fzfg": false,
      "metar_trigger": false,
      "taf_trigger": false,
      "metar": "METAR ESSA 211420Z 26012KT CAVOK 23/11 Q1019 NOSIG",
      "taf": "TAF ESSA 211430Z 2115/2215 26010KT CAVOK"
    },
    {
      "icao": "EYKA",
      "alert": "OK",
      "vis_m": 9999,
      "fzfg": false,
      "metar_trigger": false,
      "taf_trigger": false,
      "metar": "METAR EYKA 211420Z 20005KT CAVOK 23/20 Q1022",
      "taf": "TAF EYKA 211129Z 2112/2212 VRB03KT 8000 NSC"
    },
    {
      "icao": "EYPA",
      "alert": "OK",
      "vis_m": 9999,
      "fzfg": false,
      "metar_trigger": false,
      "taf_trigger": false,
      "metar": "METAR EYPA 211420Z 29003KT 220V010 CAVOK 23/18 Q1022",
      "taf": "TAF EYPA 211100Z 2112/2212 VRB03KT 6000 NSC"
    },
    {
      "icao": "EYVI",
      "alert": "OK",
      "vis_m": 9999,
      "fzfg": false,
      "metar_trigger": false,
      "taf_trigger": false,
      "metar": "METAR EYVI 211420Z 31010KT 9999 VCSH FEW049CB 26/15 Q1022 NOSIG",
      "taf": "TAF EYVI 211123Z 2112/2212 VRB03KT 9000 NSC"
    },
    {
      "icao": "GCFV",
      "alert": "OK",
      "vis_m": 9999,
      "fzfg": false,
      "metar_trigger": false,
      "taf_trigger": false,
      "metar": "METAR GCFV 211400Z 05011KT 9999 FEW025 23/17 Q1019",
      "taf": "TAF GCFV 211400Z 2115/2215 06012KT 9999 FEW025 TX26/2214Z TN20/2206Z"
    },
    {
      "icao": "GCLP",
      "alert": "OK",
      "vis_m": 9999,
      "fzfg": false,
      "metar_trigger": false,
      "taf_trigger": false,
      "metar": "METAR GCLP 211400Z 03019KT CAVOK 25/17 Q1019 NOSIG",
      "taf": "TAF GCLP 211400Z 2115/2215 03017KT 9999 FEW020 TX27/2214Z TN20/2206Z"
    },
    {
      "icao": "GCTS",
      "alert": "OK",
      "vis_m": 9999,
      "fzfg": false,
      "metar_trigger": false,
      "taf_trigger": false,
      "metar": "METAR GCTS 211400Z 11013KT 080V150 9999 FEW025 25/17 Q1020 NOSIG",
      "taf": "TAF GCTS 211400Z 2115/2215 10014KT 9999 FEW025 TX27/2214Z TN19/2206Z"
    },
    {
      "icao": "GMAD",
      "alert": "OK",
      "vis_m": 9999,
      "fzfg": false,
      "metar_trigger": false,
      "taf_trigger": false,
      "metar": "METAR GMAD 211430Z 24012KT 210V270 CAVOK 27/17 Q1017 NOSIG",
      "taf": "TAF GMAD 211100Z 2112/2218 200004KT 8000 BKN020"
    },
    {
      "icao": "GMMN",
      "alert": "OK",
      "vis_m": 9999,
      "fzfg": false,
      "metar_trigger": false,
      "taf_trigger": false,
      "metar": "METAR GMMN 211430Z 31012KT 280V340 CAVOK 29/21 Q1017 NOSIG",
      "taf": "TAF GMMN 211100Z 2112/2218 32014KT CAVOK"
    },
    {
      "icao": "GMMX",
      "alert": "OK",
      "vis_m": 9999,
      "fzfg": false,
      "metar_trigger": false,
      "taf_trigger": false,
      "metar": "METAR GMMX 211430Z VRB03KT CAVOK 35/20 Q1017 NOSIG",
      "taf": "TAF GMMX 211100Z 2112/2218 28006KT 8000 NSC"
    },
    {
      "icao": "HEGN",
      "alert": "OK",
      "vis_m": 9999,
      "fzfg": false,
      "metar_trigger": false,
      "taf_trigger": false,
      "metar": "METAR HEGN 211400Z 36016KT CAVOK 33/16 Q1007 NOSIG",
      "taf": "TAF HEGN 211100Z 2112/2218 01018KT CAVOK"
    },
    {
      "icao": "HEMA",
      "alert": "OK",
      "vis_m": 9999,
      "fzfg": false,
      "metar_trigger": false,
      "taf_trigger": false,
      "metar": "METAR HEMA 211400Z 34010KT CAVOK 31/16 Q1008 NOSIG",
      "taf": "TAF HEMA 211100Z 2112/2218 34020KT 6000 NSC"
    },
    {
      "icao": "HESH",
      "alert": "OK",
      "vis_m": 9999,
      "fzfg": false,
      "metar_trigger": false,
      "taf_trigger": false,
      "metar": "METAR HESH 211400Z 35012KT CAVOK 38/15 Q1007 NOSIG",
      "taf": "TAF HESH 211100Z 2112/2218 03015KT CAVOK"
    },
    {
      "icao": "HESX",
      "alert": "OK",
      "vis_m": 9999,
      "fzfg": false,
      "metar_trigger": false,
      "taf_trigger": false,
      "metar": "METAR HESX 211400Z 01012KT CAVOK 31/13 Q1012 NOSIG",
      "taf": "TAF HESX 211100Z 2112/2218 36010KT CAVOK"
    },
    {
      "icao": "LATI",
      "alert": "OK",
      "vis_m": 9999,
      "fzfg": false,
      "metar_trigger": false,
      "taf_trigger": false,
      "metar": "METAR LATI 211420Z 34012KT 300V010 CAVOK 31/16 Q1021 NOSIG",
      "taf": "TAF LATI 211100Z 2112/2212 32012KT CAVOK TX36/2211Z TN18/2203Z"
    },
    {
      "icao": "LBPD",
      "alert": "OK",
      "vis_m": 9999,
      "fzfg": false,
      "metar_trigger": false,
      "taf_trigger": false,
      "metar": "METAR LBPD 211430Z AUTO VRB05KT 9999 SCT110/// 33/14 Q1020 NOSIG",
      "taf": "TAF LBPD 211100Z 2112/2212 09006KT 9999 SCT080"
    },
    {
      "icao": "LBSF",
      "alert": "OK",
      "vis_m": 9999,
      "fzfg": false,
      "metar_trigger": false,
      "taf_trigger": false,
      "metar": "METAR LBSF 211430Z 07008KT 360V120 9999 FEW066 30/13 Q1023 NOSIG",
      "taf": "TAF LBSF 211100Z 2112/2212 06010KT 9999 SCT070"
    },
    {
      "icao": "LBWN",
      "alert": "OK",
      "vis_m": 9999,
      "fzfg": false,
      "metar_trigger": false,
      "taf_trigger": false,
      "metar": "METAR LBWN 211430Z 12005KT 080V150 9999 SCT045 26/17 Q1021 NOSIG",
      "taf": "TAF LBWN 211100Z 2112/2212 12014KT 9999 SCT040"
    },
    {
      "icao": "LCLK",
      "alert": "OK",
      "vis_m": 9999,
      "fzfg": false,
      "metar_trigger": false,
      "taf_trigger": false,
      "metar": "METAR LCLK 211430Z 21015KT 9999 FEW030 31/20 Q1010 NOSIG",
      "taf": "TAF LCLK 211130Z 2112/2212 21017KT 9999 FEW025"
    },
    {
      "icao": "LCPH",
      "alert": "OK",
      "vis_m": 9999,
      "fzfg": false,
      "metar_trigger": false,
      "taf_trigger": false,
      "metar": "METAR LCPH 211430Z 31015KT 260V320 9999 FEW030 27/22 Q1011 NOSIG",
      "taf": "TAF LCPH 211130Z 2112/2212 28014KT 9999 FEW020"
    },
    {
      "icao": "LEAL",
      "alert": "OK",
      "vis_m": 9999,
      "fzfg": false,
      "metar_trigger": false,
      "taf_trigger": false,
      "metar": "METAR LEAL 211400Z 08018KT CAVOK 32/17 Q1021 NOSIG",
      "taf": "TAF LEAL 211100Z 2112/2212 07016KT CAVOK TX33/2112Z TN24/2206Z"
    },
    {
      "icao": "LEBB",
      "alert": "OK",
      "vis_m": 9999,
      "fzfg": false,
      "metar_trigger": false,
      "taf_trigger": false,
      "metar": "METAR LEBB 211400Z 11013KT 070V150 CAVOK 42/14 Q1017 NOSIG",
      "taf": "TAF LEBB 211100Z 2112/2212 10009KT CAVOK TX42/2115Z TN22/2206Z"
    },
    {
      "icao": "LEBL",
      "alert": "OK",
      "vis_m": 9999,
      "fzfg": false,
      "metar_trigger": false,
      "taf_trigger": false,
      "metar": "METAR LEBL 211400Z 11009KT CAVOK 29/21 Q1023 NOSIG",
      "taf": "TAF LEBL 211100Z 2112/2212 13009KT CAVOK TX32/2112Z TN23/2205Z"
    },
    {
      "icao": "LECH",
      "alert": "OK",
      "vis_m": 9999,
      "fzfg": false,
      "metar_trigger": false,
      "taf_trigger": false,
      "metar": "METAR LECH 211400Z AUTO 13009KT 100V170 CAVOK 32/06 Q1025",
      "taf": "TAF LECH 211100Z 2112/2212 13007KT CAVOK TX36/2112Z TN20/2206Z"
    },
    {
      "icao": "LEMD",
      "alert": "OK",
      "vis_m": 9999,
      "fzfg": false,
      "metar_trigger": false,
      "taf_trigger": false,
      "metar": "METAR LEMD 211400Z 13011KT 080V160 CAVOK 39/07 Q1020 NOSIG",
      "taf": "TAF LEMD 211100Z 2112/2218 14010KT CAVOK TX39/2115Z TN22/2205Z"
    },
    {
      "icao": "LEMG",
      "alert": "OK",
      "vis_m": 9999,
      "fzfg": false,
      "metar_trigger": false,
      "taf_trigger": false,
      "metar": "METAR LEMG 211400Z 15008KT 100V200 CAVOK 31/18 Q1018 NOSIG",
      "taf": "TAF LEMG 211100Z 2112/2212 13010KT CAVOK TX34/2114Z TN24/2206Z"
    },
    {
      "icao": "LEVC",
      "alert": "OK",
      "vis_m": 9999,
      "fzfg": false,
      "metar_trigger": false,
      "taf_trigger": false,
      "metar": "METAR LEVC 211400Z 09008KT 050V140 CAVOK 31/13 Q1023 NOSIG",
      "taf": "TAF LEVC 211100Z 2112/2212 09010KT CAVOK TX34/2112Z TN22/2206Z"
    },
    {
      "icao": "LEXJ",
      "alert": "OK",
      "vis_m": 9999,
      "fzfg": false,
      "metar_trigger": false,
      "taf_trigger": false,
      "metar": "METAR LEXJ 211400Z 06004KT 350V160 CAVOK 26/22 Q1017",
      "taf": "TAF LEXJ 211400Z 2115/2215 28009KT 9999 FEW010 TX36/2212Z TN22/2120Z"
    },
    {
      "icao": "LEZG",
      "alert": "OK",
      "vis_m": 9999,
      "fzfg": false,
      "metar_trigger": false,
      "taf_trigger": false,
      "metar": "METAR LEZG 211400Z 09013KT CAVOK 39/08 Q1020 NOSIG",
      "taf": "TAF LEZG 211100Z 2112/2212 12012KT CAVOK TX42/2115Z TN23/2206Z"
    },
    {
      "icao": "LEZL",
      "alert": "OK",
      "vis_m": 9999,
      "fzfg": false,
      "metar_trigger": false,
      "taf_trigger": false,
      "metar": "METAR LEZL 211400Z 22005KT CAVOK 37/17 Q1016 NOSIG",
      "taf": "TAF LEZL 211400Z 2115/2215 22006KT CAVOK TX40/2115Z TN23/2206Z"
    },
    {
      "icao": "LFBD",
      "alert": "OK",
      "vis_m": 9999,
      "fzfg": false,
      "metar_trigger": false,
      "taf_trigger": false,
      "metar": "METAR LFBD 211430Z AUTO 12009KT 070V140 CAVOK 39/16 Q1019 NOSIG",
      "taf": "TAF LFBD 211100Z 2112/2218 12010KT CAVOK TX43/2215Z TN26/2205Z"
    },
    {
      "icao": "LFLL",
      "alert": "OK",
      "vis_m": 9999,
      "fzfg": false,
      "metar_trigger": false,
      "taf_trigger": false,
      "metar": "METAR LFLL 211430Z 17004KT 120V220 CAVOK 37/09 Q1023 NOSIG",
      "taf": "TAF LFLL 211100Z 2112/2218 17008KT CAVOK"
    },
    {
      "icao": "LFLS",
      "alert": "OK",
      "vis_m": 9999,
      "fzfg": false,
      "metar_trigger": false,
      "taf_trigger": false,
      "metar": "METAR LFLS 211430Z AUTO 19003KT 120V280 CAVOK 35/11 Q1024 NOSIG",
      "taf": "TAF LFLS 211400Z 2115/2215 21010KT CAVOK"
    },
    {
      "icao": "LFMN",
      "alert": "OK",
      "vis_m": 9999,
      "fzfg": false,
      "metar_trigger": false,
      "taf_trigger": false,
      "metar": "METAR LFMN 211430Z 18003KT 150V220 CAVOK 28/23 Q1023 NOSIG",
      "taf": "TAF LFMN 211400Z 2115/2221 18005KT CAVOK"
    },
    {
      "icao": "LFOB",
      "alert": "OK",
      "vis_m": 9999,
      "fzfg": false,
      "metar_trigger": false,
      "taf_trigger": false,
      "metar": "METAR LFOB 211430Z AUTO 05006KT 360V090 CAVOK 33/20 Q1023 TEMPO 4000 -SHRA FEW050CB",
      "taf": "TAF LFOB 211100Z 2112/2212 VRB03KT CAVOK"
    },
    {
      "icao": "LFPO",
      "alert": "OK",
      "vis_m": 9999,
      "fzfg": false,
      "metar_trigger": false,
      "taf_trigger": false,
      "metar": "METAR LFPO 211430Z 05003KT 330V130 CAVOK 36/15 Q1023 NOSIG",
      "taf": "TAF LFPO 211100Z 2112/2218 VRB02KT CAVOK"
    },
    {
      "icao": "LFSB",
      "alert": "OK",
      "vis_m": 9999,
      "fzfg": false,
      "metar_trigger": false,
      "taf_trigger": false,
      "metar": "METAR LFSB 211430Z AUTO VRB04KT CAVOK 36/12 Q1023 TEMPO SCT080CB",
      "taf": "TAF LFSB 211100Z 2112/2212 01005KT CAVOK"
    },
    {
      "icao": "LGAV",
      "alert": "OK",
      "vis_m": 9999,
      "fzfg": false,
      "metar_trigger": false,
      "taf_trigger": false,
      "metar": "METAR LGAV 211420Z 01020KT 340V050 9999 FEW025 30/10 Q1019 NOSIG",
      "taf": "TAF LGAV 211100Z 2112/2212 02014KT 9999 FEW025"
    },
    {
      "icao": "LGTS",
      "alert": "OK",
      "vis_m": 9999,
      "fzfg": false,
      "metar_trigger": false,
      "taf_trigger": false,
      "metar": "METAR LGTS 211420Z 28009KT 9999 FEW025 32/15 Q1020 NOSIG",
      "taf": "TAF LGTS 211100Z 2112/2212 VRB03KT 9999 FEW030"
    },
    {
      "icao": "LHBP",
      "alert": "OK",
      "vis_m": 9999,
      "fzfg": false,
      "metar_trigger": false,
      "taf_trigger": false,
      "metar": "METAR LHBP 211430Z 23008KT 9999 VCTS SCT060CB 31/16 Q1021 TEMPO 4000 TSRA SCT050CB BKN080",
      "taf": "TAF LHBP 211115Z 2112/2212 VRB04KT CAVOK"
    },
    {
      "icao": "LHDC",
      "alert": "OK",
      "vis_m": 9999,
      "fzfg": false,
      "metar_trigger": false,
      "taf_trigger": false,
      "metar": "METAR LHDC 211415Z AUTO VRB06G25KT 9999 TS //////CB 33/16 Q1021 TEMPO VRB24G40KT 4000 TSRA SQ",
      "taf": "TAF LHDC 211415Z 2115/2124 VRB04KT CAVOK"
    },
    {
      "icao": "LIBD",
      "alert": "OK",
      "vis_m": 9999,
      "fzfg": false,
      "metar_trigger": false,
      "taf_trigger": false,
      "metar": "METAR LIBD 211420Z 05007KT 010V080 CAVOK 31/17 Q1021",
      "taf": "TAF LIBD 211100Z 2112/2212 05010KT CAVOK"
    },
    {
      "icao": "LIBG",
      "alert": "OK",
      "vis_m": 9999,
      "fzfg": false,
      "metar_trigger": false,
      "taf_trigger": false,
      "metar": "METAR LIBG 211420Z AUTO VRB03KT 9999 BKN089/// 35/13 Q1021",
      "taf": "TAF LIBG 211100Z 2112/2212 20010KT 9999 SCT030"
    },
    {
      "icao": "LIBP",
      "alert": "OK",
      "vis_m": 9999,
      "fzfg": false,
      "metar_trigger": false,
      "taf_trigger": false,
      "metar": "METAR LIBP 211420Z AUTO 04005KT 010V090 9999 NCD 30/19 Q1022",
      "taf": "TAF LIBP 211100Z 2112/2212 06010KT CAVOK"
    },
    {
      "icao": "LIBR",
      "alert": "OK",
      "vis_m": 9999,
      "fzfg": false,
      "metar_trigger": false,
      "taf_trigger": false,
      "metar": "METAR LIBR 211420Z 36010KT CAVOK 29/18 Q1021",
      "taf": "TAF LIBR 211100Z 2112/2212 36010KT CAVOK"
    },
    {
      "icao": "LICA",
      "alert": "OK",
      "vis_m": 9999,
      "fzfg": false,
      "metar_trigger": false,
      "taf_trigger": false,
      "metar": "METAR LICA 211420Z AUTO 24009KT 210V270 9999 FEW082/// 28/22 Q1022",
      "taf": "TAF LICA 211100Z 2112/2212 27010KT CAVOK"
    },
    {
      "icao": "LICC",
      "alert": "OK",
      "vis_m": 9999,
      "fzfg": false,
      "metar_trigger": false,
      "taf_trigger": false,
      "metar": "METAR LICC 211420Z 07009KT 9999 FEW120 29/19 Q1021",
      "taf": "TAF LICC 211100Z 2112/2212 08012KT CAVOK"
    },
    {
      "icao": "LICJ",
      "alert": "OK",
      "vis_m": 9999,
      "fzfg": false,
      "metar_trigger": false,
      "taf_trigger": false,
      "metar": "METAR LICJ 211420Z 04017KT CAVOK 28/23 Q1021",
      "taf": "TAF LICJ 211100Z 2112/2212 02012KT CAVOK"
    },
    {
      "icao": "LIMC",
      "alert": "OK",
      "vis_m": 9999,
      "fzfg": false,
      "metar_trigger": false,
      "taf_trigger": false,
      "metar": "METAR LIMC 211420Z 24008KT 200V300 CAVOK 34/19 Q1023 NOSIG",
      "taf": "TAF LIMC 211100Z 2112/2218 VRB05KT 9999 FEW050"
    },
    {
      "icao": "LIME",
      "alert": "OK",
      "vis_m": 9999,
      "fzfg": false,
      "metar_trigger": false,
      "taf_trigger": false,
      "metar": "METAR LIME 211420Z VRB04KT 9999 FEW070 33/18 Q1023 NOSIG",
      "taf": "TAF LIME 211100Z 2112/2212 VRB05KT 9999 FEW060"
    },
    {
      "icao": "LIMF",
      "alert": "OK",
      "vis_m": 9999,
      "fzfg": false,
      "metar_trigger": false,
      "taf_trigger": false,
      "metar": "METAR LIMF 211420Z 14004KT 070V220 CAVOK 36/19 Q1023",
      "taf": "TAF LIMF 211100Z 2112/2212 VRB05KT 9999 FEW060"
    },
    {
      "icao": "LIMJ",
      "alert": "OK",
      "vis_m": 9999,
      "fzfg": false,
      "metar_trigger": false,
      "taf_trigger": false,
      "metar": "METAR LIMJ 211420Z 21004KT 9999 FEW035 28/23 Q1022",
      "taf": "TAF LIMJ 211100Z 2112/2212 VRB05KT 9999 FEW040"
    },
    {
      "icao": "LIPE",
      "alert": "OK",
      "vis_m": 9999,
      "fzfg": false,
      "metar_trigger": false,
      "taf_trigger": false,
      "metar": "METAR LIPE 211420Z VRB04KT 9999 FEW070 35/17 Q1022",
      "taf": "TAF LIPE 211100Z 2112/2212 VRB05KT CAVOK"
    },
    {
      "icao": "LIPH",
      "alert": "OK",
      "vis_m": 9999,
      "fzfg": false,
      "metar_trigger": false,
      "taf_trigger": false,
      "metar": "METAR LIPH 211420Z VRB04KT CAVOK 36/15 Q1021",
      "taf": "TAF LIPH 211100Z 2112/2212 VRB05KT 9999 SCT030"
    },
    {
      "icao": "LIPQ",
      "alert": "OK",
      "vis_m": 9999,
      "fzfg": false,
      "metar_trigger": false,
      "taf_trigger": false,
      "metar": "METAR LIPQ 211420Z AUTO 26008KT 9999 NCD 35/21 Q1021",
      "taf": "TAF LIPQ 211100Z 2112/2212 20010KT 9999 SCT030"
    },
    {
      "icao": "LIPR",
      "alert": "OK",
      "vis_m": 9999,
      "fzfg": false,
      "metar_trigger": false,
      "taf_trigger": false,
      "metar": "METAR LIPR 211420Z 08003KT 050V120 CAVOK 30/20 Q1022",
      "taf": "TAF LIPR 211100Z 2112/2212 05010KT 9999 FEW030"
    },
    {
      "icao": "LIPX",
      "alert": "OK",
      "vis_m": 9999,
      "fzfg": false,
      "metar_trigger": false,
      "taf_trigger": false,
      "metar": "METAR LIPX 211420Z 26006KT 220V320 CAVOK 35/17 Q1022",
      "taf": "TAF LIPX 211100Z 2112/2212 VRB05KT 9999 FEW060"
    },
    {
      "icao": "LIPY",
      "alert": "OK",
      "vis_m": 9999,
      "fzfg": false,
      "metar_trigger": false,
      "taf_trigger": false,
      "metar": "METAR LIPY 211420Z AUTO 01007KT 9999 NCD 30/19 Q1022",
      "taf": "TAF LIPY 211100Z 2112/2212 03010KT CAVOK"
    },
    {
      "icao": "LIPZ",
      "alert": "OK",
      "vis_m": 9999,
      "fzfg": false,
      "metar_trigger": false,
      "taf_trigger": false,
      "metar": "METAR LIPZ 211420Z 19004KT 150V220 CAVOK 33/21 Q1021 NOSIG",
      "taf": "TAF LIPZ 211100Z 2112/2218 VRB05KT 9999 FEW030"
    },
    {
      "icao": "LIRF",
      "alert": "OK",
      "vis_m": 9999,
      "fzfg": false,
      "metar_trigger": false,
      "taf_trigger": false,
      "metar": "METAR LIRF 211420Z 26010KT 240V300 CAVOK 31/18 Q1021 NOSIG",
      "taf": "TAF LIRF 211100Z 2112/2218 25012KT CAVOK"
    },
    {
      "icao": "LIRN",
      "alert": "OK",
      "vis_m": 9999,
      "fzfg": false,
      "metar_trigger": false,
      "taf_trigger": false,
      "metar": "METAR LIRN 211420Z 20007KT 160V240 CAVOK 34/15 Q1022 NOSIG",
      "taf": "TAF LIRN 211100Z 2112/2212 21012KT CAVOK"
    },
    {
      "icao": "LIRP",
      "alert": "OK",
      "vis_m": 9999,
      "fzfg": false,
      "metar_trigger": false,
      "taf_trigger": false,
      "metar": "METAR LIRP 211415Z 28009KT CAVOK 33/13 Q1022 NOSIG",
      "taf": "TAF LIRP 211100Z 2112/2212 30010KT CAVOK"
    },
    {
      "icao": "LIRZ",
      "alert": "OK",
      "vis_m": 9999,
      "fzfg": false,
      "metar_trigger": false,
      "taf_trigger": false,
      "metar": "METAR LIRZ 211420Z AUTO 33014KT 9999 NCD 33/20 Q1022",
      "taf": "TAF LIRZ 211100Z 2112/2212 VRB05KT CAVOK"
    },
    {
      "icao": "LJLJ",
      "alert": "OK",
      "vis_m": 9999,
      "fzfg": false,
      "metar_trigger": false,
      "taf_trigger": false,
      "metar": "METAR LJLJ 211400Z 10003KT 330V150 9999 FEW060TCU 32/18 Q1023 NOSIG",
      "taf": "TAF LJLJ 211100Z 2112/2212 10004KT 9999 FEW060"
    },
    {
      "icao": "LKMT",
      "alert": "OK",
      "vis_m": 9999,
      "fzfg": false,
      "metar_trigger": false,
      "taf_trigger": false,
      "metar": "METAR LKMT 211430Z 01009KT CAVOK 28/18 Q1023 NOSIG",
      "taf": "TAF LKMT 211100Z 2112/2212 02007KT CAVOK"
    },
    {
      "icao": "LKPR",
      "alert": "OK",
      "vis_m": 9999,
      "fzfg": false,
      "metar_trigger": false,
      "taf_trigger": false,
      "metar": "METAR LKPR 211430Z 30012KT 9999 VCTS FEW050CB 26/14 Q1026 NOSIG",
      "taf": "TAF LKPR 211400Z 2115/2221 33004KT CAVOK"
    },
    {
      "icao": "LLBG",
      "alert": "OK",
      "vis_m": 9999,
      "fzfg": false,
      "metar_trigger": false,
      "taf_trigger": false,
      "metar": "METAR LLBG 211420Z 32011KT CAVOK 28/19 Q1011 NOSIG",
      "taf": "TAF LLBG 211107Z 2112/2212 32010KT 9999 FEW030 TX30/2112Z TN22/2202Z"
    },
    {
      "icao": "LMML",
      "alert": "OK",
      "vis_m": 9999,
      "fzfg": false,
      "metar_trigger": false,
      "taf_trigger": false,
      "metar": "METAR LMML 211415Z 20009KT 150V240 CAVOK 31/17 Q1022 NOSIG",
      "taf": "TAF LMML 211100Z 2112/2212 VRB06KT CAVOK"
    },
    {
      "icao": "LOWW",
      "alert": "OK",
      "vis_m": 9999,
      "fzfg": false,
      "metar_trigger": false,
      "taf_trigger": false,
      "metar": "METAR LOWW 211420Z 31007KT 260V340 CAVOK 35/15 Q1022 NOSIG",
      "taf": "TAF LOWW 211420Z 2115/2221 35009KT CAVOK TX34/2115Z TN22/2203Z"
    },
    {
      "icao": "LPFR",
      "alert": "OK",
      "vis_m": 9999,
      "fzfg": false,
      "metar_trigger": false,
      "taf_trigger": false,
      "metar": "METAR LPFR 211400Z 12011KT 9999 FEW009 26/22 Q1017",
      "taf": "TAF LPFR 211100Z 2112/2212 12013KT 9999 SCT008"
    },
    {
      "icao": "LPMA",
      "alert": "OK",
      "vis_m": 9999,
      "fzfg": false,
      "metar_trigger": false,
      "taf_trigger": false,
      "metar": "METAR LPMA 211400Z VRB05KT 9999 FEW015 25/20 Q1020",
      "taf": "TAF LPMA 211100Z 2112/2212 20010KT 9999 FEW012"
    },
    {
      "icao": "LPPR",
      "alert": "OK",
      "vis_m": 9999,
      "fzfg": false,
      "metar_trigger": false,
      "taf_trigger": false,
      "metar": "METAR LPPR 211400Z 28006KT CAVOK 23/18 Q1018",
      "taf": "TAF LPPR 211100Z 2112/2212 26005KT 9999 FEW008"
    },
    {
      "icao": "LPPS",
      "alert": "OK",
      "vis_m": 9999,
      "fzfg": false,
      "metar_trigger": false,
      "taf_trigger": false,
      "metar": "METAR LPPS 211400Z 16009KT 120V190 9999 FEW015 24/19 Q1021",
      "taf": "TAF LPPS 211100Z 2112/2218 18008KT 9999 SCT015"
    },
    {
      "icao": "LPPT",
      "alert": "OK",
      "vis_m": 9999,
      "fzfg": false,
      "metar_trigger": false,
      "taf_trigger": false,
      "metar": "METAR LPPT 211400Z 24006KT 150V300 CAVOK 34/12 Q1016",
      "taf": "TAF LPPT 211100Z 2112/2218 29005KT CAVOK"
    },
    {
      "icao": "LQBK",
      "alert": "OK",
      "vis_m": 9999,
      "fzfg": false,
      "metar_trigger": false,
      "taf_trigger": false,
      "metar": "METAR LQBK 211430Z 26007KT 220V300 9999 FEW040 33/17 Q1022 NOSIG",
      "taf": "TAF LQBK 211100Z 2112/2212 VRB03KT CAVOK TX33/2114Z TN18/2203Z"
    },
    {
      "icao": "LQSA",
      "alert": "OK",
      "vis_m": 9999,
      "fzfg": false,
      "metar_trigger": false,
      "taf_trigger": false,
      "metar": "METAR LQSA 211430Z 05010KT 350V130 9999 TS FEW035CB SCT050 26/15 Q1023 BECMG 33005KT NSW NSC",
      "taf": "TAF LQSA 211100Z 2112/2212 VRB02KT CAVOK TX32/2113Z TN17/2203Z"
    },
    {
      "icao": "LQTZ",
      "alert": "OK",
      "vis_m": 9999,
      "fzfg": false,
      "metar_trigger": false,
      "taf_trigger": false,
      "metar": "METAR LQTZ 211430Z VRB04KT 9999 FEW060 32/16 Q1022",
      "taf": "TAF LQTZ 211100Z 2112/2212 05005KT CAVOK TX33/2114Z TN16/2203Z"
    },
    {
      "icao": "LRBC",
      "alert": "OK",
      "vis_m": 9999,
      "fzfg": false,
      "metar_trigger": false,
      "taf_trigger": false,
      "metar": "METAR LRBC 211400Z AUTO 02006KT 360V070 9999 NCD 28/15 Q1023",
      "taf": "TAF LRBC 211400Z 2115/2124 36006KT CAVOK"
    },
    {
      "icao": "LRBS",
      "alert": "OK",
      "vis_m": 9999,
      "fzfg": false,
      "metar_trigger": false,
      "taf_trigger": false,
      "metar": "METAR LRBS 211400Z COR 07008KT 360V110 CAVOK 32/17 Q1022 NOSIG",
      "taf": "TAF LRBS 211100Z 2112/2212 07007KT 9999 FEW045"
    },
    {
      "icao": "LRBV",
      "alert": "OK",
      "vis_m": 9999,
      "fzfg": false,
      "metar_trigger": false,
      "taf_trigger": false,
      "metar": "METAR LRBV 211400Z 02009KT 340V040 9999 FEW058 FEW060TCU 25/17 Q1023",
      "taf": "TAF LRBV 211400Z 2115/2124 02008KT 9999 SCT060"
    },
    {
      "icao": "LRCL",
      "alert": "OK",
      "vis_m": 9999,
      "fzfg": false,
      "metar_trigger": false,
      "taf_trigger": false,
      "metar": "METAR LRCL 211400Z 24005KT 210V310 9999 FEW050 28/17 Q1022",
      "taf": "TAF LRCL 211400Z 2115/2124 VRB04KT 9999 FEW050"
    },
    {
      "icao": "LRCV",
      "alert": "OK",
      "vis_m": 9999,
      "fzfg": false,
      "metar_trigger": false,
      "taf_trigger": false,
      "metar": "METAR LRCV 211400Z 19006KT 170V230 CAVOK 33/15 Q1021",
      "taf": "TAF LRCV 211400Z 2115/2124 VRB04KT CAVOK"
    },
    {
      "icao": "LRIA",
      "alert": "OK",
      "vis_m": 9999,
      "fzfg": false,
      "metar_trigger": false,
      "taf_trigger": false,
      "metar": "METAR LRIA 211400Z VRB03KT CAVOK 28/11 Q1023",
      "taf": "TAF LRIA 211400Z 2115/2124 VRB04KT CAVOK"
    },
    {
      "icao": "LROP",
      "alert": "OK",
      "vis_m": 9999,
      "fzfg": false,
      "metar_trigger": false,
      "taf_trigger": false,
      "metar": "METAR LROP 211400Z 09006KT CAVOK 31/16 Q1022 NOSIG",
      "taf": "TAF LROP 211100Z 2112/2212 07007KT 9999 FEW045"
    },
    {
      "icao": "LRSB",
      "alert": "OK",
      "vis_m": 9999,
      "fzfg": false,
      "metar_trigger": false,
      "taf_trigger": false,
      "metar": "METAR LRSB 211400Z 28006KT 210V320 9999 FEW055 30/14 Q1023",
      "taf": "TAF LRSB 211100Z 2112/2212 01006KT 9999 FEW050"
    },
    {
      "icao": "LRSM",
      "alert": "OK",
      "vis_m": 9999,
      "fzfg": false,
      "metar_trigger": false,
      "taf_trigger": false,
      "metar": "METAR LRSM 211400Z AUTO 34006KT 310V020 9999 NCD 33/17 Q1020",
      "taf": ""
    },
    {
      "icao": "LRSV",
      "alert": "OK",
      "vis_m": 9999,
      "fzfg": false,
      "metar_trigger": false,
      "taf_trigger": false,
      "metar": "METAR LRSV 211400Z 07005KT 010V110 CAVOK 26/15 Q1024",
      "taf": "TAF LRSV 211400Z 2115/2124 08006KT CAVOK"
    },
    {
      "icao": "LRTM",
      "alert": "OK",
      "vis_m": 9999,
      "fzfg": false,
      "metar_trigger": false,
      "taf_trigger": false,
      "metar": "METAR LRTM 211400Z 28004KT 250V320 9999 SCT045 FEW048CB 30/19 Q1022",
      "taf": "TAF LRTM 211400Z 2115/2124 VRB04KT 9999 FEW045CB"
    },
    {
      "icao": "LRTR",
      "alert": "OK",
      "vis_m": 9999,
      "fzfg": false,
      "metar_trigger": false,
      "taf_trigger": false,
      "metar": "METAR LRTR 211400Z 25007KT 230V310 9999 -TSRA SCT040CB 28/19 Q1021",
      "taf": ""
    },
    {
      "icao": "LTAC",
      "alert": "OK",
      "vis_m": 9999,
      "fzfg": false,
      "metar_trigger": false,
      "taf_trigger": false,
      "metar": "METAR LTAC 211420Z 06010KT 010V080 9999 SCT040 26/09 Q1020 NOSIG RMK RWY21C 06011KT 350V100 RWY03L 06010KT 020V090 RWY21R 04011KT RWY03R 05010KT 010V080 RWY21L 07010KT 020V100",
      "taf": "TAF LTAC 211040Z 2112/2212 05009KT 9999 FEW040"
    },
    {
      "icao": "LTFM",
      "alert": "OK",
      "vis_m": 9999,
      "fzfg": false,
      "metar_trigger": false,
      "taf_trigger": false,
      "metar": "METAR LTFM 211420Z 04014KT 010V070 CAVOK 25/15 Q1021 NOSIG RMK RWY17L 02012KT RWY34L 02012KT 350V050 RWY16R 03013KT RWY36 03014KT RWY18 05012KT",
      "taf": "TAF LTFM 211040Z 2112/2218 03012KT CAVOK"
    },
    {
      "icao": "LUKK",
      "alert": "OK",
      "vis_m": 9999,
      "fzfg": false,
      "metar_trigger": false,
      "taf_trigger": false,
      "metar": "METAR LUKK 211430Z 04008KT 360V070 CAVOK 29/12 Q1022 NOSIG",
      "taf": "TAF LUKK 211101Z 2112/2212 03008KT CAVOK"
    },
    {
      "icao": "LWOH",
      "alert": "OK",
      "vis_m": 9999,
      "fzfg": false,
      "metar_trigger": false,
      "taf_trigger": false,
      "metar": "METAR LWOH 211420Z 15008KT 100V190 9999 SCT040 27/15 Q1024",
      "taf": "TAF LWOH 211410Z 2115/2215 15008KT 9999 SCT040"
    },
    {
      "icao": "LWSK",
      "alert": "OK",
      "vis_m": 9999,
      "fzfg": false,
      "metar_trigger": false,
      "taf_trigger": false,
      "metar": "METAR LWSK 211420Z VRB03KT 9999 FEW085 33/14 Q1020 NOSIG",
      "taf": "TAF LWSK 211410Z 2115/2215 VRB02KT 9999 FEW080"
    },
    {
      "icao": "LYBE",
      "alert": "OK",
      "vis_m": 9999,
      "fzfg": false,
      "metar_trigger": false,
      "taf_trigger": false,
      "metar": "METAR LYBE 211430Z 01005KT 310V050 CAVOK 32/17 Q1021 NOSIG",
      "taf": "TAF LYBE 211100Z 2112/2212 01005KT CAVOK TX33/2113Z TN20/2203Z"
    },
    {
      "icao": "LYNI",
      "alert": "OK",
      "vis_m": 9999,
      "fzfg": false,
      "metar_trigger": false,
      "taf_trigger": false,
      "metar": "METAR LYNI 211430Z 33009KT 290V020 9999 FEW050 32/15 Q1021 NOSIG",
      "taf": "TAF LYNI 211100Z 2112/2212 32007KT CAVOK TX33/2113Z TN17/2203Z"
    },
    {
      "icao": "LYPG",
      "alert": "OK",
      "vis_m": 9999,
      "fzfg": false,
      "metar_trigger": false,
      "taf_trigger": false,
      "metar": "METAR LYPG 211430Z 19010KT 9999 FEW050 35/13 Q1019 NOSIG",
      "taf": "TAF LYPG 211100Z 2112/2212 18008KT 9999 FEW050 TX36/2114Z TN23/2203Z"
    },
    {
      "icao": "LZIB",
      "alert": "OK",
      "vis_m": 9999,
      "fzfg": false,
      "metar_trigger": false,
      "taf_trigger": false,
      "metar": "METAR LZIB 211430Z 34010KT CAVOK 35/14 Q1021 NOSIG",
      "taf": "TAF LZIB 211115Z 2112/2212 30008KT CAVOK"
    },
    {
      "icao": "LZKZ",
      "alert": "OK",
      "vis_m": 9999,
      "fzfg": false,
      "metar_trigger": false,
      "taf_trigger": false,
      "metar": "METAR LZKZ 211430Z 03006KT CAVOK 24/19 Q1023 NOSIG",
      "taf": "TAF LZKZ 211115Z 2112/2212 31009KT CAVOK"
    },
    {
      "icao": "LZTT",
      "alert": "OK",
      "vis_m": 9999,
      "fzfg": false,
      "metar_trigger": false,
      "taf_trigger": false,
      "metar": "METAR LZTT 211430Z 26005KT 9999 -SHRA FEW050CB SCT060 21/19 Q1025 TEMPO TSRA BKN030CB",
      "taf": "TAF LZTT 211115Z 2112/2212 03010KT 9999 FEW020 SCT030 BKN040"
    },
    {
      "icao": "OEJN",
      "alert": "OK",
      "vis_m": 9999,
      "fzfg": false,
      "metar_trigger": false,
      "taf_trigger": false,
      "metar": "METAR OEJN 211400Z 28008KT CAVOK 33/21 Q1004 NOSIG",
      "taf": "TAF OEJN 211100Z 2112/2218 32012KT CAVOK"
    },
    {
      "icao": "OEMA",
      "alert": "OK",
      "vis_m": 9999,
      "fzfg": false,
      "metar_trigger": false,
      "taf_trigger": false,
      "metar": "METAR OEMA 211400Z 28006KT CAVOK 45/M06 Q1007 NOSIG",
      "taf": "TAF OEMA 211100Z 2112/2218 30012KT CAVOK"
    },
    {
      "icao": "OJAI",
      "alert": "OK",
      "vis_m": 5000,
      "fzfg": false,
      "metar_trigger": false,
      "taf_trigger": false,
      "metar": "METAR OJAI 211400Z 28009KT 5000 HZ NSC 32/09 Q1014 NOSIG",
      "taf": "TAF OJAI 211100Z 2112/2218 29010KT 5000 HZ NSC"
    },
    {
      "icao": "OMAA",
      "alert": "OK",
      "vis_m": 9999,
      "fzfg": false,
      "metar_trigger": false,
      "taf_trigger": false,
      "metar": "METAR OMAA 211430Z 31009KT CAVOK 36/17 Q1000 NOSIG",
      "taf": "TAF OMAA 211100Z 2112/2218 32012KT CAVOK"
    },
    {
      "icao": "OMDB",
      "alert": "OK",
      "vis_m": 9999,
      "fzfg": false,
      "metar_trigger": false,
      "taf_trigger": false,
      "metar": "METAR OMDB 211430Z 26008KT CAVOK 36/21 Q0999 NOSIG",
      "taf": "TAF OMDB 211100Z 2112/2218 27010KT CAVOK"
    },
    {
      "icao": "UAAA",
      "alert": "OK",
      "vis_m": 9999,
      "fzfg": false,
      "metar_trigger": false,
      "taf_trigger": false,
      "metar": "METAR UAAA 211400Z 16002MPS 9999 SCT050CB BKN100 28/10 Q1010 NOSIG",
      "taf": "TAF UAAA 211105Z 2112/2212 20003MPS 9999 SCT050CB BKN100 TX33/2210Z TN21/2201Z"
    },
    {
      "icao": "UBBB",
      "alert": "OK",
      "vis_m": 9999,
      "fzfg": false,
      "metar_trigger": false,
      "taf_trigger": false,
      "metar": "METAR UBBB 211430Z 34022KT CAVOK 25/17 Q1012 NOSIG",
      "taf": "TAF UBBB 211058Z 2112/2212 32022G32KT CAVOK TX26/2112Z TN20/2201Z"
    },
    {
      "icao": "UDSG",
      "alert": "OK",
      "vis_m": 9999,
      "fzfg": false,
      "metar_trigger": false,
      "taf_trigger": false,
      "metar": "METAR UDSG 211400Z 01007KT 330V040 9999 FEW049TCU 25/12 Q1019 NOSIG",
      "taf": "TAF UDSG 211100Z 2112/2212 36006KT 9999 FEW050"
    },
    {
      "icao": "UDYZ",
      "alert": "OK",
      "vis_m": 9999,
      "fzfg": false,
      "metar_trigger": false,
      "taf_trigger": false,
      "metar": "METAR UDYZ 211400Z 23007KT 9999 FEW046 35/09 Q1011 NOSIG",
      "taf": "TAF UDYZ 211100Z 2112/2212 04006KT 9999 FEW040"
    },
    {
      "icao": "UGKO",
      "alert": "OK",
      "vis_m": 9999,
      "fzfg": false,
      "metar_trigger": false,
      "taf_trigger": false,
      "metar": "METAR UGKO 211400Z 26014KT 9999 FEW020 25/18 Q1017 NOSIG",
      "taf": "TAF UGKO 211100Z 2112/2212 27008KT 9999 -RA SCT020 BKN040 TX26/2212Z TN18/2202Z"
    }
  ]
}