{
  "ts_utc": "2026-06-25T05:40:06Z",
  "threshold_m": 150,
  "source": "stations_override.txt (ICAO list) + aviationweather.gov (METAR/TAF raw)",
  "station_count": 159,
  "stations": [
    {
      "icao": "BIKF",
      "alert": "OK",
      "vis_m": 9999,
      "fzfg": false,
      "metar_trigger": false,
      "taf_trigger": false,
      "metar": "METAR BIKF 250530Z 21003KT 9999 FEW015 BKN050 BKN060 09/07 Q1005",
      "taf": "TAF BIKF 250439Z 2506/2606 22008KT 9999 BKN015 TX10/2518Z TN08/2512Z"
    },
    {
      "icao": "BKPR",
      "alert": "OK",
      "vis_m": 9999,
      "fzfg": false,
      "metar_trigger": false,
      "taf_trigger": false,
      "metar": "METAR BKPR 250530Z VRB02KT CAVOK 20/17 Q1020 NOSIG",
      "taf": "TAF BKPR 250530Z 2506/2606 02008KT 9999 FEW050"
    },
    {
      "icao": "EBCI",
      "alert": "OK",
      "vis_m": 9999,
      "fzfg": false,
      "metar_trigger": false,
      "taf_trigger": false,
      "metar": "METAR EBCI 250520Z 07005KT CAVOK 26/19 Q1018 NOSIG",
      "taf": "TAF EBCI 250508Z 2506/2612 06006KT CAVOK"
    },
    {
      "icao": "EDDB",
      "alert": "OK",
      "vis_m": 9999,
      "fzfg": false,
      "metar_trigger": false,
      "taf_trigger": false,
      "metar": "METAR EDDB 250520Z AUTO 23003KT 200V260 CAVOK 26/15 Q1018 NOSIG",
      "taf": "TAF EDDB 250500Z 2506/2606 VRB03KT CAVOK"
    },
    {
      "icao": "EDDH",
      "alert": "OK",
      "vis_m": 9999,
      "fzfg": false,
      "metar_trigger": false,
      "taf_trigger": false,
      "metar": "METAR EDDH 250520Z AUTO 34005KT CAVOK 21/18 Q1019 NOSIG",
      "taf": "TAF EDDH 250500Z 2506/2612 33006KT CAVOK"
    },
    {
      "icao": "EDDK",
      "alert": "OK",
      "vis_m": 9999,
      "fzfg": false,
      "metar_trigger": false,
      "taf_trigger": false,
      "metar": "METAR EDDK 250520Z AUTO VRB01KT CAVOK 24/21 Q1018 NOSIG",
      "taf": "TAF EDDK 250500Z 2506/2612 VRB03KT CAVOK"
    },
    {
      "icao": "EDDN",
      "alert": "OK",
      "vis_m": 9999,
      "fzfg": false,
      "metar_trigger": false,
      "taf_trigger": false,
      "metar": "METAR EDDN 250520Z AUTO VRB01KT CAVOK 24/16 Q1020 NOSIG",
      "taf": "TAF EDDN 250500Z 2506/2606 VRB02KT CAVOK"
    },
    {
      "icao": "EDDS",
      "alert": "OK",
      "vis_m": 9999,
      "fzfg": false,
      "metar_trigger": false,
      "taf_trigger": false,
      "metar": "METAR EDDS 250520Z AUTO VRB01KT CAVOK 23/17 Q1019 NOSIG",
      "taf": "TAF EDDS 250500Z 2506/2606 VRB03KT CAVOK"
    },
    {
      "icao": "EDFH",
      "alert": "OK",
      "vis_m": 9999,
      "fzfg": false,
      "metar_trigger": false,
      "taf_trigger": false,
      "metar": "METAR EDFH 250520Z 13007KT CAVOK 25/16 Q1020",
      "taf": "TAF EDFH 250500Z 2506/2606 11006KT CAVOK"
    },
    {
      "icao": "EDJA",
      "alert": "OK",
      "vis_m": 9999,
      "fzfg": false,
      "metar_trigger": false,
      "taf_trigger": false,
      "metar": "METAR EDJA 250520Z VRB02KT CAVOK 19/16 Q1021",
      "taf": "TAF EDJA 250500Z 2506/2515 VRB03KT CAVOK"
    },
    {
      "icao": "EDLW",
      "alert": "OK",
      "vis_m": 9999,
      "fzfg": false,
      "metar_trigger": false,
      "taf_trigger": false,
      "metar": "METAR EDLW 250520Z 15006KT CAVOK 23/19 Q1019",
      "taf": "TAF EDLW 250500Z 2506/2606 14004KT CAVOK"
    },
    {
      "icao": "EDNY",
      "alert": "OK",
      "vis_m": 9999,
      "fzfg": false,
      "metar_trigger": false,
      "taf_trigger": false,
      "metar": "METAR EDNY 250520Z 06005KT CAVOK 21/15 Q1019",
      "taf": "TAF EDNY 250500Z 2506/2515 05005KT CAVOK"
    },
    {
      "icao": "EDSB",
      "alert": "OK",
      "vis_m": 9999,
      "fzfg": false,
      "metar_trigger": false,
      "taf_trigger": false,
      "metar": "METAR EDSB 250520Z 03005KT CAVOK 23/19 Q1017",
      "taf": "TAF EDSB 250500Z 2506/2606 01005KT CAVOK"
    },
    {
      "icao": "EETN",
      "alert": "OK",
      "vis_m": 9999,
      "fzfg": false,
      "metar_trigger": false,
      "taf_trigger": false,
      "metar": "METAR EETN 250520Z 31006KT CAVOK 16/09 Q1014 NOSIG",
      "taf": "TAF EETN 250530Z 2506/2606 32010KT 9999 SCT040"
    },
    {
      "icao": "EFTU",
      "alert": "OK",
      "vis_m": 9999,
      "fzfg": false,
      "metar_trigger": false,
      "taf_trigger": false,
      "metar": "METAR EFTU 250520Z AUTO VRB01KT CAVOK 15/10 Q1014",
      "taf": "TAF EFTU 250224Z 2503/2603 VRB02KT CAVOK"
    },
    {
      "icao": "EGBB",
      "alert": "OK",
      "vis_m": 9999,
      "fzfg": false,
      "metar_trigger": false,
      "taf_trigger": false,
      "metar": "METAR EGBB 250520Z 06005KT CAVOK 20/16 Q1020",
      "taf": "TAF EGBB 250509Z 2506/2606 09008KT CAVOK"
    },
    {
      "icao": "EGGP",
      "alert": "OK",
      "vis_m": 9999,
      "fzfg": false,
      "metar_trigger": false,
      "taf_trigger": false,
      "metar": "METAR EGGP 250520Z 10006KT CAVOK 20/17 Q1019",
      "taf": "TAF EGGP 250457Z 2506/2606 VRB03KT CAVOK"
    },
    {
      "icao": "EGGW",
      "alert": "OK",
      "vis_m": 9999,
      "fzfg": false,
      "metar_trigger": false,
      "taf_trigger": false,
      "metar": "METAR EGGW 250520Z AUTO 06008KT 9999 NCD 20/17 Q1019",
      "taf": "TAF EGGW 250453Z 2506/2606 08010KT CAVOK"
    },
    {
      "icao": "EGKK",
      "alert": "OK",
      "vis_m": 9999,
      "fzfg": false,
      "metar_trigger": false,
      "taf_trigger": false,
      "metar": "METAR EGKK 250520Z 04007KT CAVOK 20/18 Q1018",
      "taf": "TAF EGKK 250508Z 2506/2612 07008KT CAVOK"
    },
    {
      "icao": "EGNM",
      "alert": "OK",
      "vis_m": 9999,
      "fzfg": false,
      "metar_trigger": false,
      "taf_trigger": false,
      "metar": "METAR EGNM 250520Z 06002KT CAVOK 16/14 Q1021",
      "taf": "TAF EGNM 250500Z 2506/2606 11005KT CAVOK"
    },
    {
      "icao": "EGPD",
      "alert": "OK",
      "vis_m": 9999,
      "fzfg": false,
      "metar_trigger": false,
      "taf_trigger": false,
      "metar": "METAR EGPD 250520Z AUTO 04001KT 9999 NCD 12/12 Q1021",
      "taf": "TAF EGPD 250455Z 2506/2606 VRB03KT 6000 BKN001"
    },
    {
      "icao": "EGPF",
      "alert": "OK",
      "vis_m": 9999,
      "fzfg": false,
      "metar_trigger": false,
      "taf_trigger": false,
      "metar": "METAR EGPF 250520Z AUTO 32001KT 9999 NCD 14/13 Q1021",
      "taf": "TAF EGPF 250454Z 2506/2606 25004KT CAVOK"
    },
    {
      "icao": "EHBK",
      "alert": "OK",
      "vis_m": 9999,
      "fzfg": false,
      "metar_trigger": false,
      "taf_trigger": false,
      "metar": "METAR EHBK 250525Z AUTO 03005KT 9999 NCD 25/21 Q1018 NOSIG",
      "taf": "TAF EHBK 250503Z 2506/2612 04003KT CAVOK"
    },
    {
      "icao": "EHEH",
      "alert": "OK",
      "vis_m": 9999,
      "fzfg": false,
      "metar_trigger": false,
      "taf_trigger": false,
      "metar": "METAR EHEH 250525Z AUTO 05006KT 020V080 9999 NCD 25/20 Q1018 BLU TREND REMOTE BY EHWX",
      "taf": "TAF EHEH 242326Z 2500/2606 02005KT CAVOK"
    },
    {
      "icao": "EKBI",
      "alert": "OK",
      "vis_m": 9999,
      "fzfg": false,
      "metar_trigger": false,
      "taf_trigger": false,
      "metar": "METAR EKBI 250520Z AUTO 29011KT 9999 NCD 15/13 Q1020",
      "taf": "TAF EKBI 250527Z 2506/2606 30006KT 9999 FEW040"
    },
    {
      "icao": "EKCH",
      "alert": "OK",
      "vis_m": 9999,
      "fzfg": false,
      "metar_trigger": false,
      "taf_trigger": false,
      "metar": "METAR EKCH 250520Z AUTO 30005KT 260V340 9999 NCD 21/15 Q1018 NOSIG",
      "taf": "TAF EKCH 250527Z 2506/2606 25006KT CAVOK"
    },
    {
      "icao": "ENAL",
      "alert": "OK",
      "vis_m": 9999,
      "fzfg": false,
      "metar_trigger": false,
      "taf_trigger": false,
      "metar": "METAR ENAL 250520Z 24015KT 9999 -DZRA FEW004 SCT015 BKN032 12/11 Q1018",
      "taf": "TAF ENAL 250500Z 2506/2515 24015KT 9999 FEW012 BKN025"
    },
    {
      "icao": "ENBR",
      "alert": "OK",
      "vis_m": 9999,
      "fzfg": false,
      "metar_trigger": false,
      "taf_trigger": false,
      "metar": "METAR ENBR 250520Z VRB02KT 9999 FEW008 SCT025 BKN035 12/11 Q1021 NOSIG RMK WIND 1200FT 25003KT",
      "taf": "TAF ENBR 250500Z 2506/2606 17005KT 9999 FEW008 SCT012 BKN035"
    },
    {
      "icao": "ENGM",
      "alert": "OK",
      "vis_m": 9999,
      "fzfg": false,
      "metar_trigger": false,
      "taf_trigger": false,
      "metar": "METAR ENGM 250520Z 34004KT 310V020 CAVOK 17/07 Q1016 NOSIG",
      "taf": "TAF ENGM 250500Z 2506/2606 32006KT CAVOK"
    },
    {
      "icao": "ENHD",
      "alert": "OK",
      "vis_m": 9999,
      "fzfg": false,
      "metar_trigger": false,
      "taf_trigger": false,
      "metar": "METAR ENHD 250520Z AUTO VRB01KT 9999 OVC039/// 14/12 Q1022",
      "taf": "TAF ENHD 250500Z 2506/2515 VRB03KT 9999 FEW012 BKN035"
    },
    {
      "icao": "ENTC",
      "alert": "OK",
      "vis_m": 9999,
      "fzfg": false,
      "metar_trigger": false,
      "taf_trigger": false,
      "metar": "METAR ENTC 250520Z VRB02KT 9999 FEW009 09/06 Q1011 NOSIG RMK WIND 2600FT 15006KT",
      "taf": ""
    },
    {
      "icao": "ENTO",
      "alert": "OK",
      "vis_m": 9999,
      "fzfg": false,
      "metar_trigger": false,
      "taf_trigger": false,
      "metar": "METAR ENTO 250520Z 32006KT CAVOK 17/09 Q1016 NOSIG",
      "taf": "TAF ENTO 250500Z 2506/2606 34006KT CAVOK"
    },
    {
      "icao": "ENVA",
      "alert": "OK",
      "vis_m": 9999,
      "fzfg": false,
      "metar_trigger": false,
      "taf_trigger": false,
      "metar": "METAR ENVA 250520Z VRB03KT 9999 FEW018 SCT027 BKN036 13/11 Q1017 NOSIG RMK WIND 670FT 19008KT",
      "taf": "TAF ENVA 250500Z 2506/2606 27005KT 9999 -DZ FEW020 BKN035"
    },
    {
      "icao": "ENZV",
      "alert": "OK",
      "vis_m": 9999,
      "fzfg": false,
      "metar_trigger": false,
      "taf_trigger": false,
      "metar": "METAR ENZV 250520Z 33009KT 9999 SCT042 14/11 Q1022 NOSIG",
      "taf": "TAF ENZV 250500Z 2506/2606 35010KT 9999 SCT040"
    },
    {
      "icao": "EPGD",
      "alert": "OK",
      "vis_m": 9999,
      "fzfg": false,
      "metar_trigger": false,
      "taf_trigger": false,
      "metar": "METAR EPGD 250530Z 27007KT CAVOK 21/12 Q1017",
      "taf": "TAF EPGD 250530Z 2506/2606 28010KT CAVOK"
    },
    {
      "icao": "EPKK",
      "alert": "OK",
      "vis_m": 9999,
      "fzfg": false,
      "metar_trigger": false,
      "taf_trigger": false,
      "metar": "METAR EPKK 250530Z 24005KT CAVOK 18/13 Q1020",
      "taf": "TAF EPKK 250530Z 2506/2606 23004KT CAVOK"
    },
    {
      "icao": "EPKT",
      "alert": "OK",
      "vis_m": 9999,
      "fzfg": false,
      "metar_trigger": false,
      "taf_trigger": false,
      "metar": "METAR EPKT 250530Z VRB01KT CAVOK 20/13 Q1020",
      "taf": "TAF EPKT 250530Z 2506/2606 32004KT CAVOK"
    },
    {
      "icao": "EPLB",
      "alert": "OK",
      "vis_m": 9999,
      "fzfg": false,
      "metar_trigger": false,
      "taf_trigger": false,
      "metar": "METAR EPLB 250530Z 29003KT 250V310 CAVOK 21/11 Q1018",
      "taf": "TAF EPLB 250530Z 2506/2606 VRB03KT CAVOK"
    },
    {
      "icao": "EPMO",
      "alert": "OK",
      "vis_m": 9999,
      "fzfg": false,
      "metar_trigger": false,
      "taf_trigger": false,
      "metar": "METAR EPMO 250530Z 25006KT CAVOK 22/13 Q1018",
      "taf": "TAF EPMO 250530Z 2506/2606 VRB02KT CAVOK"
    },
    {
      "icao": "EPPO",
      "alert": "OK",
      "vis_m": 9999,
      "fzfg": false,
      "metar_trigger": false,
      "taf_trigger": false,
      "metar": "METAR EPPO 250530Z VRB02KT CAVOK 24/16 Q1018",
      "taf": "TAF EPPO 250530Z 2506/2606 VRB02KT CAVOK"
    },
    {
      "icao": "EPRA",
      "alert": "OK",
      "vis_m": 9999,
      "fzfg": false,
      "metar_trigger": false,
      "taf_trigger": false,
      "metar": "METAR EPRA 250530Z 27003KT CAVOK 22/10 Q1018",
      "taf": "TAF EPRA 250530Z 2506/2515 27008KT CAVOK"
    },
    {
      "icao": "EPRZ",
      "alert": "OK",
      "vis_m": 9999,
      "fzfg": false,
      "metar_trigger": false,
      "taf_trigger": false,
      "metar": "METAR EPRZ 250530Z 24003KT 190V260 CAVOK 20/13 Q1019",
      "taf": "TAF EPRZ 250530Z 2506/2606 28006KT CAVOK"
    },
    {
      "icao": "EPSC",
      "alert": "OK",
      "vis_m": 9999,
      "fzfg": false,
      "metar_trigger": false,
      "taf_trigger": false,
      "metar": "METAR EPSC 250530Z 25003KT CAVOK 22/14 Q1018",
      "taf": "TAF EPSC 250530Z 2506/2606 VRB02KT CAVOK"
    },
    {
      "icao": "EPSY",
      "alert": "OK",
      "vis_m": 9999,
      "fzfg": false,
      "metar_trigger": false,
      "taf_trigger": false,
      "metar": "METAR EPSY 250530Z 26005KT 220V310 CAVOK 21/13 Q1017",
      "taf": "TAF EPSY 250530Z 2506/2515 28006KT CAVOK"
    },
    {
      "icao": "EPWA",
      "alert": "OK",
      "vis_m": 9999,
      "fzfg": false,
      "metar_trigger": false,
      "taf_trigger": false,
      "metar": "METAR EPWA 250530Z 25004KT CAVOK 22/11 Q1018 NOSIG",
      "taf": "TAF EPWA 250530Z 2506/2606 VRB02KT CAVOK"
    },
    {
      "icao": "EPWR",
      "alert": "OK",
      "vis_m": 9999,
      "fzfg": false,
      "metar_trigger": false,
      "taf_trigger": false,
      "metar": "METAR EPWR 250530Z VRB02KT CAVOK 22/15 Q1019",
      "taf": "TAF EPWR 250530Z 2506/2606 VRB02KT CAVOK"
    },
    {
      "icao": "ESGG",
      "alert": "OK",
      "vis_m": 9999,
      "fzfg": false,
      "metar_trigger": false,
      "taf_trigger": false,
      "metar": "METAR ESGG 250520Z 22007KT 9999 BKN004 16/15 Q1015",
      "taf": "TAF ESGG 250530Z 2506/2606 22007KT 9999 BKN004"
    },
    {
      "icao": "ESKN",
      "alert": "OK",
      "vis_m": 9999,
      "fzfg": false,
      "metar_trigger": false,
      "taf_trigger": false,
      "metar": "METAR ESKN 250520Z 24006KT CAVOK 19/17 Q1013",
      "taf": "TAF ESKN 250530Z 2506/2606 27008KT CAVOK"
    },
    {
      "icao": "ESMS",
      "alert": "OK",
      "vis_m": 9999,
      "fzfg": false,
      "metar_trigger": false,
      "taf_trigger": false,
      "metar": "METAR ESMS 250520Z 31008KT CAVOK 20/17 Q1017",
      "taf": "TAF ESMS 250527Z 2506/2606 25005KT CAVOK"
    },
    {
      "icao": "ESSA",
      "alert": "OK",
      "vis_m": 9999,
      "fzfg": false,
      "metar_trigger": false,
      "taf_trigger": false,
      "metar": "METAR ESSA 250520Z VRB02KT CAVOK 16/14 Q1013 NOSIG",
      "taf": "TAF ESSA 250530Z 2506/2606 36005KT CAVOK"
    },
    {
      "icao": "EYKA",
      "alert": "OK",
      "vis_m": 9999,
      "fzfg": false,
      "metar_trigger": false,
      "taf_trigger": false,
      "metar": "METAR EYKA 250520Z 32004KT 290V360 CAVOK 18/14 Q1016",
      "taf": "TAF EYKA 250509Z 2506/2606 VRB03KT 9000 SCT035"
    },
    {
      "icao": "EYPA",
      "alert": "OK",
      "vis_m": 9999,
      "fzfg": false,
      "metar_trigger": false,
      "taf_trigger": false,
      "metar": "METAR EYPA 250520Z 09003KT 060V140 CAVOK 20/16 Q1015",
      "taf": "TAF EYPA 250502Z 2506/2606 VRB03KT 9000 FEW040"
    },
    {
      "icao": "EYVI",
      "alert": "OK",
      "vis_m": 9999,
      "fzfg": false,
      "metar_trigger": false,
      "taf_trigger": false,
      "metar": "METAR EYVI 250520Z 31005KT 270V360 CAVOK 17/13 Q1016 NOSIG",
      "taf": "TAF EYVI 250501Z 2506/2606 32013KT 9000 SCT040"
    },
    {
      "icao": "GCFV",
      "alert": "OK",
      "vis_m": 9999,
      "fzfg": false,
      "metar_trigger": false,
      "taf_trigger": false,
      "metar": "METAR GCFV 250530Z 34004KT 9999 FEW020 20/16 Q1019",
      "taf": "TAF GCFV 250200Z 2503/2603 35007KT 9999 SCT020 TX26/2514Z TN20/2506Z"
    },
    {
      "icao": "GCLP",
      "alert": "OK",
      "vis_m": 9999,
      "fzfg": false,
      "metar_trigger": false,
      "taf_trigger": false,
      "metar": "METAR GCLP 250530Z 01010KT 9999 FEW025 21/16 Q1019 NOSIG",
      "taf": "TAF GCLP 250200Z 2503/2603 36015KT 9999 SCT020 TX26/2514Z TN20/2506Z"
    },
    {
      "icao": "GCTS",
      "alert": "OK",
      "vis_m": 9999,
      "fzfg": false,
      "metar_trigger": false,
      "taf_trigger": false,
      "metar": "METAR GCTS 250530Z 36005KT 350V050 9999 FEW025 20/14 Q1019 NOSIG",
      "taf": "TAF GCTS 250200Z 2503/2603 VRB04KT 9999 BKN020 TX26/2514Z TN18/2506Z"
    },
    {
      "icao": "GMAD",
      "alert": "OK",
      "vis_m": 8000,
      "fzfg": false,
      "metar_trigger": false,
      "taf_trigger": false,
      "metar": "METAR GMAD 250530Z 07003KT 8000 SCT006 BKN016 17/16 Q1017 NOSIG",
      "taf": "TAF GMAD 250500Z 2506/2612 09005KT 8000 BKN013"
    },
    {
      "icao": "GMMN",
      "alert": "OK",
      "vis_m": 9999,
      "fzfg": false,
      "metar_trigger": false,
      "taf_trigger": false,
      "metar": "METAR GMMN 250530Z 22003KT 9999 SCT024 18/15 Q1019 NOSIG",
      "taf": "TAF GMMN 242300Z 2500/2606 30005KT 9999 BKN024"
    },
    {
      "icao": "GMMX",
      "alert": "OK",
      "vis_m": 9999,
      "fzfg": false,
      "metar_trigger": false,
      "taf_trigger": false,
      "metar": "METAR GMMX 250530Z 27003KT 230V300 CAVOK 18/14 Q1019 NOSIG",
      "taf": "TAF GMMX 242300Z 2500/2606 26006KT 8000 SCT023"
    },
    {
      "icao": "HEGN",
      "alert": "OK",
      "vis_m": 9999,
      "fzfg": false,
      "metar_trigger": false,
      "taf_trigger": false,
      "metar": "METAR HEGN 250500Z 33015KT CAVOK 31/13 Q1010 NOSIG",
      "taf": "TAF HEGN 250500Z 2506/2612 32008G22KT CAVOK"
    },
    {
      "icao": "HEMA",
      "alert": "OK",
      "vis_m": 9999,
      "fzfg": false,
      "metar_trigger": false,
      "taf_trigger": false,
      "metar": "METAR HEMA 250500Z 33014KT CAVOK 31/07 Q1009 NOSIG",
      "taf": "TAF HEMA 250500Z 2506/2612 33008G22KT CAVOK"
    },
    {
      "icao": "HESH",
      "alert": "OK",
      "vis_m": 9999,
      "fzfg": false,
      "metar_trigger": false,
      "taf_trigger": false,
      "metar": "METAR HESH 250500Z 35012KT CAVOK 30/14 Q1009 NOSIG",
      "taf": "TAF HESH 250500Z 2506/2612 35014KT CAVOK"
    },
    {
      "icao": "HESX",
      "alert": "OK",
      "vis_m": 9999,
      "fzfg": false,
      "metar_trigger": false,
      "taf_trigger": false,
      "metar": "METAR HESX 250500Z 29003KT CAVOK 21/15 Q1013 NOSIG",
      "taf": "TAF HESX 250500Z 2506/2612 33008KT CAVOK"
    },
    {
      "icao": "LATI",
      "alert": "OK",
      "vis_m": 9999,
      "fzfg": false,
      "metar_trigger": false,
      "taf_trigger": false,
      "metar": "METAR LATI 250520Z VRB03KT CAVOK 24/18 Q1015 NOSIG",
      "taf": "TAF LATI 250500Z 2506/2606 VRB05KT CAVOK TX34/2512Z TN20/2604Z"
    },
    {
      "icao": "LBPD",
      "alert": "OK",
      "vis_m": 9999,
      "fzfg": false,
      "metar_trigger": false,
      "taf_trigger": false,
      "metar": "METAR LBPD 250530Z AUTO 31005KT 9999 NCD 22/16 Q1017 NOSIG",
      "taf": "TAF LBPD 250500Z 2506/2606 VRB04KT 9999 SCT070"
    },
    {
      "icao": "LBSF",
      "alert": "OK",
      "vis_m": 9999,
      "fzfg": false,
      "metar_trigger": false,
      "taf_trigger": false,
      "metar": "METAR LBSF 250530Z 00000KT CAVOK 19/15 Q1020 NOSIG",
      "taf": "TAF LBSF 250500Z 2506/2606 VRB04KT 9999 SCT060"
    },
    {
      "icao": "LBWN",
      "alert": "OK",
      "vis_m": 9999,
      "fzfg": false,
      "metar_trigger": false,
      "taf_trigger": false,
      "metar": "METAR LBWN 250530Z 32005KT 270V020 CAVOK 26/19 Q1015 NOSIG",
      "taf": "TAF LBWN 250500Z 2506/2606 26010KT CAVOK"
    },
    {
      "icao": "LCLK",
      "alert": "OK",
      "vis_m": 8000,
      "fzfg": false,
      "metar_trigger": false,
      "taf_trigger": false,
      "metar": "METAR LCLK 250530Z 18005KT 130V210 8000 BKN002 27/25 Q1008 BECMG SCT005",
      "taf": "TAF LCLK 250530Z 2506/2606 09006KT 9999 FEW015"
    },
    {
      "icao": "LCPH",
      "alert": "OK",
      "vis_m": 9999,
      "fzfg": false,
      "metar_trigger": false,
      "taf_trigger": false,
      "metar": "METAR LCPH 250530Z 31009KT 250V320 9999 FEW014 25/22 Q1008 NOSIG",
      "taf": "TAF LCPH 250530Z 2506/2606 02007KT 9999 FEW015"
    },
    {
      "icao": "LEAL",
      "alert": "OK",
      "vis_m": 9999,
      "fzfg": false,
      "metar_trigger": false,
      "taf_trigger": false,
      "metar": "METAR LEAL 250530Z 00000KT CAVOK 23/13 Q1014 NOSIG",
      "taf": "TAF LEAL 250500Z 2506/2606 VRB04KT CAVOK TX32/2512Z TN22/2506Z"
    },
    {
      "icao": "LEBB",
      "alert": "OK",
      "vis_m": 9999,
      "fzfg": false,
      "metar_trigger": false,
      "taf_trigger": false,
      "metar": "METAR LEBB 250530Z 08003KT 010V120 CAVOK 22/20 Q1011 NOSIG",
      "taf": "TAF LEBB 250500Z 2506/2606 14009KT CAVOK TX33/2509Z TN19/2605Z"
    },
    {
      "icao": "LEBL",
      "alert": "OK",
      "vis_m": 9999,
      "fzfg": false,
      "metar_trigger": false,
      "taf_trigger": false,
      "metar": "METAR LEBL 250530Z 32008KT 290V350 CAVOK 24/15 Q1015 NOSIG",
      "taf": "TAF LEBL 250500Z 2506/2606 32007KT CAVOK TX32/2512Z TN23/2506Z"
    },
    {
      "icao": "LECH",
      "alert": "OK",
      "vis_m": 9999,
      "fzfg": false,
      "metar_trigger": false,
      "taf_trigger": false,
      "metar": "METAR LECH 250530Z AUTO VRB01KT CAVOK 20/13 Q1017",
      "taf": "TAF LECH 250500Z 2506/2606 VRB03KT CAVOK TX34/2512Z TN20/2506Z"
    },
    {
      "icao": "LEMD",
      "alert": "OK",
      "vis_m": 9999,
      "fzfg": false,
      "metar_trigger": false,
      "taf_trigger": false,
      "metar": "METAR LEMD 250530Z 17006G16KT 060V220 CAVOK 24/11 Q1017 NOSIG",
      "taf": "TAF LEMD 250500Z 2506/2612 21010KT CAVOK TX34/2516Z TN18/2605Z"
    },
    {
      "icao": "LEMG",
      "alert": "OK",
      "vis_m": 9999,
      "fzfg": false,
      "metar_trigger": false,
      "taf_trigger": false,
      "metar": "METAR LEMG 250530Z 29006KT 240V300 9999 FEW010 22/15 Q1015 NOSIG",
      "taf": "TAF LEMG 250500Z 2506/2606 29010KT CAVOK TX34/2513Z TN20/2605Z"
    },
    {
      "icao": "LEVC",
      "alert": "OK",
      "vis_m": 9999,
      "fzfg": false,
      "metar_trigger": false,
      "taf_trigger": false,
      "metar": "METAR LEVC 250530Z VRB02KT CAVOK 22/14 Q1015 NOSIG",
      "taf": "TAF LEVC 250500Z 2506/2606 VRB03KT CAVOK TX33/2512Z TN21/2506Z"
    },
    {
      "icao": "LEXJ",
      "alert": "OK",
      "vis_m": 9999,
      "fzfg": false,
      "metar_trigger": false,
      "taf_trigger": false,
      "metar": "METAR LEXJ 250530Z 10004KT 060V140 CAVOK 21/19 Q1010",
      "taf": "TAF LEXJ 250200Z 2503/2603 VRB03KT CAVOK TX28/2513Z TN21/2505Z"
    },
    {
      "icao": "LEZG",
      "alert": "OK",
      "vis_m": 9999,
      "fzfg": false,
      "metar_trigger": false,
      "taf_trigger": false,
      "metar": "METAR LEZG 250530Z 10006KT 070V150 CAVOK 24/13 Q1015 NOSIG",
      "taf": "TAF LEZG 250500Z 2506/2606 11009KT CAVOK TX39/2515Z TN23/2506Z"
    },
    {
      "icao": "LEZL",
      "alert": "OK",
      "vis_m": 9999,
      "fzfg": false,
      "metar_trigger": false,
      "taf_trigger": false,
      "metar": "METAR LEZL 250530Z 23004KT 200V270 9999 FEW025 21/18 Q1017 NOSIG",
      "taf": "TAF LEZL 250200Z 2503/2603 VRB02KT 9999 FEW015 TX32/2515Z TN18/2505Z"
    },
    {
      "icao": "LFBD",
      "alert": "OK",
      "vis_m": 9999,
      "fzfg": false,
      "metar_trigger": false,
      "taf_trigger": false,
      "metar": "METAR LFBD 250530Z AUTO 14006KT CAVOK 28/15 Q1011 NOSIG",
      "taf": "TAF LFBD 250500Z 2506/2612 12010KT CAVOK TX39/2516Z TN24/2605Z"
    },
    {
      "icao": "LFLL",
      "alert": "OK",
      "vis_m": 9999,
      "fzfg": false,
      "metar_trigger": false,
      "taf_trigger": false,
      "metar": "METAR LFLL 250530Z 15004KT CAVOK 24/16 Q1017 NOSIG",
      "taf": "TAF LFLL 250500Z 2506/2612 15007KT CAVOK"
    },
    {
      "icao": "LFLS",
      "alert": "OK",
      "vis_m": 9999,
      "fzfg": false,
      "metar_trigger": false,
      "taf_trigger": false,
      "metar": "METAR LFLS 250530Z AUTO 08011KT CAVOK 21/16 Q1018 NOSIG",
      "taf": "TAF LFLS 250200Z 2503/2603 09008KT CAVOK"
    },
    {
      "icao": "LFMN",
      "alert": "OK",
      "vis_m": 9999,
      "fzfg": false,
      "metar_trigger": false,
      "taf_trigger": false,
      "metar": "METAR LFMN 250530Z 33007KT CAVOK 26/13 Q1016 NOSIG",
      "taf": "TAF LFMN 250200Z 2503/2609 33010KT CAVOK"
    },
    {
      "icao": "LFOB",
      "alert": "OK",
      "vis_m": 9999,
      "fzfg": false,
      "metar_trigger": false,
      "taf_trigger": false,
      "metar": "METAR LFOB 250530Z AUTO VRB01KT CAVOK 25/21 Q1017 BECMG 09012KT",
      "taf": "TAF LFOB 242300Z 2500/2524 VRB04KT CAVOK"
    },
    {
      "icao": "LFPO",
      "alert": "OK",
      "vis_m": 9999,
      "fzfg": false,
      "metar_trigger": false,
      "taf_trigger": false,
      "metar": "METAR LFPO 250530Z 08002KT CAVOK 29/17 Q1016 NOSIG",
      "taf": "TAF LFPO 250500Z 2506/2612 08003KT CAVOK"
    },
    {
      "icao": "LFSB",
      "alert": "OK",
      "vis_m": 9999,
      "fzfg": false,
      "metar_trigger": false,
      "taf_trigger": false,
      "metar": "METAR LFSB 250530Z AUTO 00000KT CAVOK 23/17 Q1018 NOSIG",
      "taf": "TAF LFSB 250500Z 2506/2606 VRB03KT CAVOK"
    },
    {
      "icao": "LGAV",
      "alert": "OK",
      "vis_m": 9999,
      "fzfg": false,
      "metar_trigger": false,
      "taf_trigger": false,
      "metar": "METAR LGAV 250520Z 35007KT 9999 FEW025 28/10 Q1014 NOSIG",
      "taf": "TAF LGAV 250500Z 2506/2606 04015KT 9999 FEW025"
    },
    {
      "icao": "LGTS",
      "alert": "OK",
      "vis_m": 9999,
      "fzfg": false,
      "metar_trigger": false,
      "taf_trigger": false,
      "metar": "METAR LGTS 250520Z 31006KT 9999 FEW025 24/22 Q1016 NOSIG",
      "taf": "TAF LGTS 250500Z 2506/2606 34008KT 9999 FEW025"
    },
    {
      "icao": "LHBP",
      "alert": "OK",
      "vis_m": 9999,
      "fzfg": false,
      "metar_trigger": false,
      "taf_trigger": false,
      "metar": "METAR LHBP 250530Z 02003KT 340V050 CAVOK 25/12 Q1018 NOSIG",
      "taf": "TAF LHBP 250515Z 2506/2606 VRB02KT CAVOK"
    },
    {
      "icao": "LHDC",
      "alert": "OK",
      "vis_m": 9999,
      "fzfg": false,
      "metar_trigger": false,
      "taf_trigger": false,
      "metar": "METAR LHDC 250515Z AUTO 04010KT 010V070 CAVOK 24/12 Q1017 NOSIG",
      "taf": "TAF LHDC 250515Z 2506/2515 03008KT CAVOK"
    },
    {
      "icao": "LIBD",
      "alert": "OK",
      "vis_m": 9999,
      "fzfg": false,
      "metar_trigger": false,
      "taf_trigger": false,
      "metar": "METAR LIBD 250520Z 26003KT CAVOK 26/16 Q1015",
      "taf": "TAF LIBD 250500Z 2506/2606 27006KT CAVOK"
    },
    {
      "icao": "LIBG",
      "alert": "OK",
      "vis_m": 9999,
      "fzfg": false,
      "metar_trigger": false,
      "taf_trigger": false,
      "metar": "METAR LIBG 250520Z AUTO 29003KT 240V340 9999 NCD 27/17 Q1015",
      "taf": "TAF LIBG 250500Z 2506/2606 VRB05KT 9999 FEW030"
    },
    {
      "icao": "LIBP",
      "alert": "OK",
      "vis_m": 9999,
      "fzfg": false,
      "metar_trigger": false,
      "taf_trigger": false,
      "metar": "METAR LIBP 250520Z AUTO 26004KT 230V290 9999 NCD 24/16 Q1016",
      "taf": "TAF LIBP 250500Z 2506/2606 VRB05KT CAVOK"
    },
    {
      "icao": "LIBR",
      "alert": "OK",
      "vis_m": 9999,
      "fzfg": false,
      "metar_trigger": false,
      "taf_trigger": false,
      "metar": "METAR LIBR 250520Z 35008KT CAVOK 27/24 Q1014",
      "taf": "TAF LIBR 250500Z 2506/2606 33010KT 9999 FEW030"
    },
    {
      "icao": "LICA",
      "alert": "OK",
      "vis_m": 9999,
      "fzfg": false,
      "metar_trigger": false,
      "taf_trigger": false,
      "metar": "METAR LICA 250520Z AUTO 09004KT 9999 FEW015/// 23/22 Q1016",
      "taf": "TAF LICA 250500Z 2506/2606 VRB05KT CAVOK"
    },
    {
      "icao": "LICC",
      "alert": "OK",
      "vis_m": 9999,
      "fzfg": false,
      "metar_trigger": false,
      "taf_trigger": false,
      "metar": "METAR LICC 250520Z 23004KT CAVOK 23/16 Q1015",
      "taf": "TAF LICC 250500Z 2506/2606 VRB05KT CAVOK"
    },
    {
      "icao": "LICJ",
      "alert": "OK",
      "vis_m": 9999,
      "fzfg": false,
      "metar_trigger": false,
      "taf_trigger": false,
      "metar": "METAR LICJ 250520Z 04002KT CAVOK 26/23 Q1015",
      "taf": "TAF LICJ 250500Z 2506/2606 VRB05KT CAVOK"
    },
    {
      "icao": "LIMC",
      "alert": "OK",
      "vis_m": 9999,
      "fzfg": false,
      "metar_trigger": false,
      "taf_trigger": false,
      "metar": "METAR LIMC 250520Z 02005KT CAVOK 26/22 Q1018 NOSIG",
      "taf": "TAF LIMC 250500Z 2506/2612 VRB06KT 9999 FEW040"
    },
    {
      "icao": "LIME",
      "alert": "OK",
      "vis_m": 9999,
      "fzfg": false,
      "metar_trigger": false,
      "taf_trigger": false,
      "metar": "METAR LIME 250520Z 36003KT 330V030 CAVOK 26/19 Q1018 NOSIG",
      "taf": "TAF LIME 250500Z 2506/2606 VRB05KT CAVOK"
    },
    {
      "icao": "LIMF",
      "alert": "OK",
      "vis_m": 9999,
      "fzfg": false,
      "metar_trigger": false,
      "taf_trigger": false,
      "metar": "METAR LIMF 250520Z 21004KT 190V260 CAVOK 24/18 Q1018",
      "taf": "TAF LIMF 250500Z 2506/2606 VRB06KT CAVOK"
    },
    {
      "icao": "LIMJ",
      "alert": "OK",
      "vis_m": 9999,
      "fzfg": false,
      "metar_trigger": false,
      "taf_trigger": false,
      "metar": "METAR LIMJ 250520Z 04007KT CAVOK 29/18 Q1015",
      "taf": "TAF LIMJ 250500Z 2506/2606 VRB06KT CAVOK"
    },
    {
      "icao": "LIPE",
      "alert": "OK",
      "vis_m": 9999,
      "fzfg": false,
      "metar_trigger": false,
      "taf_trigger": false,
      "metar": "METAR LIPE 250520Z 21004KT 180V240 CAVOK 25/19 Q1016",
      "taf": "TAF LIPE 250500Z 2506/2606 VRB05KT 9999 FEW040"
    },
    {
      "icao": "LIPH",
      "alert": "OK",
      "vis_m": 9999,
      "fzfg": false,
      "metar_trigger": false,
      "taf_trigger": false,
      "metar": "METAR LIPH 250520Z 05004KT CAVOK 26/22 Q1017",
      "taf": "TAF LIPH 250500Z 2506/2606 VRB05KT 9999 FEW040"
    },
    {
      "icao": "LIPQ",
      "alert": "OK",
      "vis_m": 9999,
      "fzfg": false,
      "metar_trigger": false,
      "taf_trigger": false,
      "metar": "METAR LIPQ 250520Z AUTO 05003KT 9999 NCD 26/21 Q1017",
      "taf": "TAF LIPQ 250500Z 2506/2606 VRB04KT 9999 FEW040"
    },
    {
      "icao": "LIPR",
      "alert": "OK",
      "vis_m": 9999,
      "fzfg": false,
      "metar_trigger": false,
      "taf_trigger": false,
      "metar": "METAR LIPR 250520Z 22002KT CAVOK 25/18 Q1016",
      "taf": "TAF LIPR 250500Z 2506/2606 VRB05KT CAVOK"
    },
    {
      "icao": "LIPX",
      "alert": "OK",
      "vis_m": 9999,
      "fzfg": false,
      "metar_trigger": false,
      "taf_trigger": false,
      "metar": "METAR LIPX 250520Z 35003KT CAVOK 28/20 Q1017",
      "taf": "TAF LIPX 250500Z 2506/2606 VRB05KT 9999 SCT040"
    },
    {
      "icao": "LIPY",
      "alert": "OK",
      "vis_m": 9999,
      "fzfg": false,
      "metar_trigger": false,
      "taf_trigger": false,
      "metar": "METAR LIPY 250520Z AUTO 19003KT 170V230 9999 NCD 25/17 Q1016",
      "taf": "TAF LIPY 250500Z 2506/2606 VRB05KT CAVOK"
    },
    {
      "icao": "LIPZ",
      "alert": "OK",
      "vis_m": 9999,
      "fzfg": false,
      "metar_trigger": false,
      "taf_trigger": false,
      "metar": "METAR LIPZ 250520Z 04004KT CAVOK 26/22 Q1016 NOSIG",
      "taf": "TAF LIPZ 250500Z 2506/2612 VRB05KT CAVOK"
    },
    {
      "icao": "LIRF",
      "alert": "OK",
      "vis_m": 9999,
      "fzfg": false,
      "metar_trigger": false,
      "taf_trigger": false,
      "metar": "METAR LIRF 250520Z 07005KT CAVOK 25/19 Q1015 NOSIG",
      "taf": "TAF LIRF 250500Z 2506/2612 05006KT 9999 FEW030"
    },
    {
      "icao": "LIRN",
      "alert": "OK",
      "vis_m": 9999,
      "fzfg": false,
      "metar_trigger": false,
      "taf_trigger": false,
      "metar": "METAR LIRN 250520Z 32005KT 270V030 CAVOK 27/15 Q1016 NOSIG",
      "taf": "TAF LIRN 250500Z 2506/2606 VRB05KT CAVOK"
    },
    {
      "icao": "LIRP",
      "alert": "OK",
      "vis_m": 9999,
      "fzfg": false,
      "metar_trigger": false,
      "taf_trigger": false,
      "metar": "METAR LIRP 250515Z 11006KT CAVOK 22/19 Q1016 NOSIG",
      "taf": "TAF LIRP 250500Z 2506/2606 12004KT 9999 FEW030"
    },
    {
      "icao": "LIRZ",
      "alert": "OK",
      "vis_m": 9999,
      "fzfg": false,
      "metar_trigger": false,
      "taf_trigger": false,
      "metar": "METAR LIRZ 250520Z AUTO 36004KT 330V050 9999 NCD 23/16 Q1017",
      "taf": "TAF LIRZ 250500Z 2506/2606 VRB05KT CAVOK"
    },
    {
      "icao": "LJLJ",
      "alert": "OK",
      "vis_m": 9999,
      "fzfg": false,
      "metar_trigger": false,
      "taf_trigger": false,
      "metar": "METAR LJLJ 250530Z 03006KT 330V040 9999 FEW055 22/20 Q1020 NOSIG",
      "taf": "TAF LJLJ 250500Z 2506/2606 03005KT 9999 FEW055"
    },
    {
      "icao": "LKMT",
      "alert": "OK",
      "vis_m": 9999,
      "fzfg": false,
      "metar_trigger": false,
      "taf_trigger": false,
      "metar": "METAR LKMT 250530Z VRB02KT CAVOK 18/13 Q1020 NOSIG",
      "taf": "TAF LKMT 250500Z 2506/2606 20003KT CAVOK"
    },
    {
      "icao": "LKPR",
      "alert": "OK",
      "vis_m": 9999,
      "fzfg": false,
      "metar_trigger": false,
      "taf_trigger": false,
      "metar": "METAR LKPR 250530Z 02003KT 340V040 CAVOK 24/15 Q1020 NOSIG",
      "taf": "TAF LKPR 250500Z 2506/2612 VRB02KT CAVOK"
    },
    {
      "icao": "LLBG",
      "alert": "OK",
      "vis_m": 9999,
      "fzfg": false,
      "metar_trigger": false,
      "taf_trigger": false,
      "metar": "METAR LLBG 250520Z 20007KT 170V230 9999 SCT020 26/20 Q1011 NOSIG",
      "taf": "TAF LLBG 250504Z 2506/2606 16007KT 9999 SCT020 TX30/2512Z TN23/2603Z"
    },
    {
      "icao": "LMML",
      "alert": "OK",
      "vis_m": 9999,
      "fzfg": false,
      "metar_trigger": false,
      "taf_trigger": false,
      "metar": "METAR LMML 250515Z 25005KT CAVOK 26/22 Q1015 NOSIG",
      "taf": "TAF LMML 250500Z 2506/2606 28008KT CAVOK"
    },
    {
      "icao": "LOWW",
      "alert": "OK",
      "vis_m": 9999,
      "fzfg": false,
      "metar_trigger": false,
      "taf_trigger": false,
      "metar": "METAR LOWW 250520Z VRB02KT CAVOK 22/11 Q1019 NOSIG",
      "taf": "TAF LOWW 250515Z 2506/2612 VRB03KT CAVOK TX34/2612Z TN19/2603Z"
    },
    {
      "icao": "LPFR",
      "alert": "OK",
      "vis_m": 9999,
      "fzfg": false,
      "metar_trigger": false,
      "taf_trigger": false,
      "metar": "METAR LPFR 250530Z 20006KT 9999 FEW010 20/18 Q1016",
      "taf": "TAF LPFR 250500Z 2506/2606 21010KT 9999 SCT015"
    },
    {
      "icao": "LPMA",
      "alert": "OK",
      "vis_m": 9999,
      "fzfg": false,
      "metar_trigger": false,
      "taf_trigger": false,
      "metar": "METAR LPMA 250530Z VRB03KT 9999 BKN015 22/18 Q1019",
      "taf": "TAF LPMA 250500Z 2506/2606 VRB05KT 9999 BKN015"
    },
    {
      "icao": "LPPR",
      "alert": "OK",
      "vis_m": 9999,
      "fzfg": false,
      "metar_trigger": false,
      "taf_trigger": false,
      "metar": "METAR LPPR 250530Z 19005KT 9999 SCT004 BKN025 19/18 Q1013",
      "taf": "TAF LPPR 250500Z 2506/2606 18007KT 9999 BKN018"
    },
    {
      "icao": "LPPS",
      "alert": "OK",
      "vis_m": 9999,
      "fzfg": false,
      "metar_trigger": false,
      "taf_trigger": false,
      "metar": "METAR LPPS 250530Z COR 28007KT 9999 SCT014 SCT030 21/18 Q1019",
      "taf": "TAF LPPS 250500Z 2506/2612 30010KT 9999 SCT015"
    },
    {
      "icao": "LPPT",
      "alert": "OK",
      "vis_m": 9999,
      "fzfg": false,
      "metar_trigger": false,
      "taf_trigger": false,
      "metar": "METAR LPPT 250530Z 19011KT 9999 BKN008 FEW020CB 20/18 Q1015",
      "taf": "TAF LPPT 250500Z 2506/2612 19013KT 9999 BKN025"
    },
    {
      "icao": "LQBK",
      "alert": "OK",
      "vis_m": 9999,
      "fzfg": false,
      "metar_trigger": false,
      "taf_trigger": false,
      "metar": "METAR LQBK 250530Z VRB02KT CAVOK 21/18 Q1018 NOSIG",
      "taf": "TAF LQBK 250500Z 2506/2606 16005KT CAVOK TX32/2514Z TN18/2603Z"
    },
    {
      "icao": "LQSA",
      "alert": "OK",
      "vis_m": 9999,
      "fzfg": false,
      "metar_trigger": false,
      "taf_trigger": false,
      "metar": "METAR LQSA 250530Z VRB02KT 9999 FEW005 18/15 Q1020 NOSIG",
      "taf": "TAF LQSA 250500Z 2506/2606 VRB02KT CAVOK TX30/2514Z TN16/2603Z"
    },
    {
      "icao": "LQTZ",
      "alert": "OK",
      "vis_m": 9999,
      "fzfg": false,
      "metar_trigger": false,
      "taf_trigger": false,
      "metar": "METAR LQTZ 250530Z 00000KT CAVOK 21/19 Q1019",
      "taf": "TAF LQTZ 250500Z 2506/2606 VRB02KT CAVOK TX33/2514Z TN16/2603Z"
    },
    {
      "icao": "LRBC",
      "alert": "OK",
      "vis_m": 9999,
      "fzfg": false,
      "metar_trigger": false,
      "taf_trigger": false,
      "metar": "METAR LRBC 250530Z VRB02KT CAVOK 22/17 Q1017",
      "taf": "TAF LRBC 250500Z 2506/2515 VRB04KT CAVOK"
    },
    {
      "icao": "LRBS",
      "alert": "OK",
      "vis_m": 9999,
      "fzfg": false,
      "metar_trigger": false,
      "taf_trigger": false,
      "metar": "METAR LRBS 250530Z 08003KT 020V120 CAVOK 26/20 Q1017 NOSIG",
      "taf": "TAF LRBS 250500Z 2506/2606 VRB04KT CAVOK"
    },
    {
      "icao": "LRBV",
      "alert": "OK",
      "vis_m": 9999,
      "fzfg": false,
      "metar_trigger": false,
      "taf_trigger": false,
      "metar": "METAR LRBV 250530Z 04002KT CAVOK 19/16 Q1019",
      "taf": "TAF LRBV 250500Z 2506/2515 VRB04KT CAVOK"
    },
    {
      "icao": "LRCL",
      "alert": "OK",
      "vis_m": 9999,
      "fzfg": false,
      "metar_trigger": false,
      "taf_trigger": false,
      "metar": "METAR LRCL 250530Z COR 00000KT CAVOK 22/14 Q1018",
      "taf": "TAF LRCL 250500Z 2506/2515 VRB04KT CAVOK"
    },
    {
      "icao": "LRCV",
      "alert": "OK",
      "vis_m": 9999,
      "fzfg": false,
      "metar_trigger": false,
      "taf_trigger": false,
      "metar": "METAR LRCV 250530Z 11004KT CAVOK 23/21 Q1017",
      "taf": "TAF LRCV 250500Z 2506/2515 VRB04KT CAVOK"
    },
    {
      "icao": "LRIA",
      "alert": "OK",
      "vis_m": 9999,
      "fzfg": false,
      "metar_trigger": false,
      "taf_trigger": false,
      "metar": "METAR LRIA 250530Z 25003KT 170V310 CAVOK 22/15 Q1017",
      "taf": "TAF LRIA 250500Z 2506/2515 VRB04KT CAVOK"
    },
    {
      "icao": "LROP",
      "alert": "OK",
      "vis_m": 9999,
      "fzfg": false,
      "metar_trigger": false,
      "taf_trigger": false,
      "metar": "METAR LROP 250530Z 06003KT 010V100 CAVOK 26/20 Q1017 NOSIG",
      "taf": "TAF LROP 250500Z 2506/2606 VRB04KT CAVOK"
    },
    {
      "icao": "LRSB",
      "alert": "OK",
      "vis_m": 9999,
      "fzfg": false,
      "metar_trigger": false,
      "taf_trigger": false,
      "metar": "METAR LRSB 250530Z VRB02KT CAVOK 22/16 Q1018 NOSIG",
      "taf": "TAF LRSB 250500Z 2506/2606 VRB04KT CAVOK"
    },
    {
      "icao": "LRSM",
      "alert": "OK",
      "vis_m": 9999,
      "fzfg": false,
      "metar_trigger": false,
      "taf_trigger": false,
      "metar": "METAR LRSM 250530Z VRB02KT CAVOK 21/15 Q1017",
      "taf": "TAF LRSM 250500Z 2506/2515 VRB04KT CAVOK"
    },
    {
      "icao": "LRSV",
      "alert": "OK",
      "vis_m": 9999,
      "fzfg": false,
      "metar_trigger": false,
      "taf_trigger": false,
      "metar": "METAR LRSV 250530Z 30011KT CAVOK 21/12 Q1018",
      "taf": "TAF LRSV 250500Z 2506/2515 30010KT CAVOK"
    },
    {
      "icao": "LRTM",
      "alert": "OK",
      "vis_m": 9999,
      "fzfg": false,
      "metar_trigger": false,
      "taf_trigger": false,
      "metar": "METAR LRTM 250530Z VRB01KT CAVOK 22/19 Q1018",
      "taf": "TAF LRTM 250500Z 2506/2515 VRB04KT CAVOK"
    },
    {
      "icao": "LRTR",
      "alert": "OK",
      "vis_m": 9999,
      "fzfg": false,
      "metar_trigger": false,
      "taf_trigger": false,
      "metar": "METAR LRTR 250530Z 11008KT 9999 FEW020 21/19 Q1017",
      "taf": "TAF LRTR 250500Z 2506/2606 10007KT CAVOK"
    },
    {
      "icao": "LTAC",
      "alert": "OK",
      "vis_m": 9999,
      "fzfg": false,
      "metar_trigger": false,
      "taf_trigger": false,
      "metar": "METAR LTAC 250520Z 04005KT 350V070 9999 FEW040 SCT100 20/11 Q1017 NOSIG RMK RWY21C VRB03KT RWY03L 02004KT 280V060 RWY21R VRB03KT RWY03R 01008KT 340V040 RWY21L 36005KT 330V030",
      "taf": "TAF LTAC 250440Z 2506/2606 03009KT 9999 FEW040 SCT100"
    },
    {
      "icao": "LTFM",
      "alert": "OK",
      "vis_m": 9999,
      "fzfg": false,
      "metar_trigger": false,
      "taf_trigger": false,
      "metar": "METAR LTFM 250520Z 03013KT 9999 SCT008 24/20 Q1015 NOSIG RMK RWY17L 01010KT RWY34L 36012KT RWY16R 01010KT RWY36 03012KT RWY18 02010KT",
      "taf": "TAF LTFM 250440Z 2506/2612 03012KT 9999 SCT012"
    },
    {
      "icao": "LUKK",
      "alert": "OK",
      "vis_m": 9999,
      "fzfg": false,
      "metar_trigger": false,
      "taf_trigger": false,
      "metar": "METAR LUKK 250530Z VRB01KT CAVOK 24/17 Q1016 NOSIG",
      "taf": "TAF LUKK 250503Z 2506/2606 VRB05KT CAVOK"
    },
    {
      "icao": "LWOH",
      "alert": "OK",
      "vis_m": 9999,
      "fzfg": false,
      "metar_trigger": false,
      "taf_trigger": false,
      "metar": "METAR LWOH 250520Z 34004KT 300V010 9999 FEW040 18/16 Q1020",
      "taf": "TAF LWOH 250515Z 2506/2606 VRB02KT 9999 FEW040 SCT080"
    },
    {
      "icao": "LWSK",
      "alert": "OK",
      "vis_m": 9999,
      "fzfg": false,
      "metar_trigger": false,
      "taf_trigger": false,
      "metar": "METAR LWSK 250520Z VRB02KT CAVOK 21/18 Q1018 NOSIG",
      "taf": "TAF LWSK 250515Z 2506/2606 VRB02KT CAVOK"
    },
    {
      "icao": "LYBE",
      "alert": "OK",
      "vis_m": 9999,
      "fzfg": false,
      "metar_trigger": false,
      "taf_trigger": false,
      "metar": "METAR LYBE 250530Z 23006KT 190V250 CAVOK 23/19 Q1017 NOSIG",
      "taf": "TAF LYBE 250500Z 2506/2606 31006KT CAVOK TX33/2514Z TN22/2603Z"
    },
    {
      "icao": "LYNI",
      "alert": "OK",
      "vis_m": 9999,
      "fzfg": false,
      "metar_trigger": false,
      "taf_trigger": false,
      "metar": "METAR LYNI 250530Z VRB01KT CAVOK 21/18 Q1018 NOSIG",
      "taf": "TAF LYNI 250500Z 2506/2606 34007KT 9999 SCT040 TX32/2514Z TN19/2603Z"
    },
    {
      "icao": "LYPG",
      "alert": "OK",
      "vis_m": 9999,
      "fzfg": false,
      "metar_trigger": false,
      "taf_trigger": false,
      "metar": "METAR LYPG 250530Z 30004KT 260V340 CAVOK 26/17 Q1015 NOSIG",
      "taf": "TAF LYPG 250500Z 2506/2606 18008KT 9999 FEW050 TX36/2514Z TN20/2603Z"
    },
    {
      "icao": "LZIB",
      "alert": "OK",
      "vis_m": 9999,
      "fzfg": false,
      "metar_trigger": false,
      "taf_trigger": false,
      "metar": "METAR LZIB 250500Z 29004KT CAVOK 24/10 Q1018 NOSIG",
      "taf": "TAF LZIB 250515Z 2506/2606 VRB02KT CAVOK"
    },
    {
      "icao": "LZKZ",
      "alert": "OK",
      "vis_m": 9999,
      "fzfg": false,
      "metar_trigger": false,
      "taf_trigger": false,
      "metar": "METAR LZKZ 250530Z 04004KT 330V100 CAVOK 23/12 Q1018 NOSIG",
      "taf": "TAF LZKZ 250515Z 2506/2606 VRB02KT CAVOK"
    },
    {
      "icao": "LZTT",
      "alert": "OK",
      "vis_m": 9999,
      "fzfg": false,
      "metar_trigger": false,
      "taf_trigger": false,
      "metar": "METAR LZTT 250530Z VRB03KT CAVOK 17/13 Q1021 NOSIG",
      "taf": "TAF LZTT 250515Z 2506/2606 VRB02KT CAVOK"
    },
    {
      "icao": "OEJN",
      "alert": "OK",
      "vis_m": 9999,
      "fzfg": false,
      "metar_trigger": false,
      "taf_trigger": false,
      "metar": "METAR OEJN 250500Z 32008KT 9999 FEW040 31/23 Q1006 NOSIG",
      "taf": "TAF OEJN 250500Z 2506/2612 32015KT 9999 SCT040"
    },
    {
      "icao": "OEMA",
      "alert": "OK",
      "vis_m": 9999,
      "fzfg": false,
      "metar_trigger": false,
      "taf_trigger": false,
      "metar": "METAR OEMA 250500Z VRB02KT CAVOK 34/M06 Q1013 NOSIG",
      "taf": "TAF OEMA 250500Z 2506/2612 30010KT CAVOK"
    },
    {
      "icao": "OJAI",
      "alert": "OK",
      "vis_m": 5000,
      "fzfg": false,
      "metar_trigger": false,
      "taf_trigger": false,
      "metar": "METAR OJAI 250500Z 22005KT 5000 HZ NSC 22/09 Q1014 NOSIG",
      "taf": "TAF OJAI 250500Z 2506/2612 30010KT 5000 HZ NSC"
    },
    {
      "icao": "OMAA",
      "alert": "OK",
      "vis_m": 8000,
      "fzfg": false,
      "metar_trigger": false,
      "taf_trigger": false,
      "metar": "METAR OMAA 250530Z 13004KT 090V180 8000 NSC 37/19 Q1000 NOSIG",
      "taf": "TAF OMAA 250500Z 2506/2612 15005KT 8000 NSC"
    },
    {
      "icao": "OMDB",
      "alert": "OK",
      "vis_m": 6000,
      "fzfg": false,
      "metar_trigger": false,
      "taf_trigger": false,
      "metar": "METAR OMDB 250530Z 22005KT 180V260 6000 NSC 37/22 Q1000 BECMG 29012KT",
      "taf": "TAF OMDB 250500Z 2506/2612 23008KT 7000 NSC"
    },
    {
      "icao": "UAAA",
      "alert": "OK",
      "vis_m": 9999,
      "fzfg": false,
      "metar_trigger": false,
      "taf_trigger": false,
      "metar": "METAR UAAA 250530Z 28002MPS 9999 FEW050CB BKN200 29/12 Q1011 NOSIG",
      "taf": "TAF UAAA 250503Z 2506/2606 34003G08MPS 9999 FEW050CB SCT100 TX33/2510Z TN18/2601Z"
    },
    {
      "icao": "UBBB",
      "alert": "OK",
      "vis_m": 9999,
      "fzfg": false,
      "metar_trigger": false,
      "taf_trigger": false,
      "metar": "METAR UBBB 250530Z 28008KT 9999 FEW060CB 28/15 Q1009 NOSIG",
      "taf": "TAF UBBB 250520Z 2506/2606 35010KT CAVOK TX29/2510Z TN18/2601Z"
    },
    {
      "icao": "UDSG",
      "alert": "OK",
      "vis_m": 9999,
      "fzfg": false,
      "metar_trigger": false,
      "taf_trigger": false,
      "metar": "METAR UDSG 250530Z 32001KT 9999 NSC 18/11 Q1018 NOSIG",
      "taf": "TAF UDSG 250500Z 2506/2606 24006KT 9999 FEW050"
    },
    {
      "icao": "UDYZ",
      "alert": "OK",
      "vis_m": 9999,
      "fzfg": false,
      "metar_trigger": false,
      "taf_trigger": false,
      "metar": "METAR UDYZ 250530Z 17004KT 130V210 9999 NSC 21/13 Q1014 NOSIG",
      "taf": "TAF UDYZ 250500Z 2506/2606 16006KT 9999 FEW040"
    },
    {
      "icao": "UGKO",
      "alert": "OK",
      "vis_m": 9999,
      "fzfg": false,
      "metar_trigger": false,
      "taf_trigger": false,
      "metar": "METAR UGKO 250530Z VRB02KT 9999 SCT014 23/18 Q1012 NOSIG",
      "taf": "TAF UGKO 250500Z 2506/2606 25007KT CAVOK TX27/2511Z TN18/2602Z"
    }
  ]
}