{
  "ts_utc": "2026-07-15T17:17:27Z",
  "threshold_m": 150,
  "source": "stations_override.txt (ICAO list) + aviationweather.gov (METAR/TAF raw)",
  "station_count": 159,
  "stations": [
    {
      "icao": "BIKF",
      "alert": "OK",
      "vis_m": 9999,
      "fzfg": false,
      "metar_trigger": false,
      "taf_trigger": false,
      "metar": "METAR BIKF 151700Z 21019KT 9999 -DZ BKN010 OVC017 11/09 Q1018",
      "taf": "TAF BIKF 151611Z 1518/1618 22020G30KT 9999 SCT010 BKN020 TX11/1615Z TN09/1606Z"
    },
    {
      "icao": "BKPR",
      "alert": "OK",
      "vis_m": 9999,
      "fzfg": false,
      "metar_trigger": false,
      "taf_trigger": false,
      "metar": "METAR BKPR 151700Z 01007KT 9999 FEW030CB SCT050 24/18 Q1019 TEMPO TS",
      "taf": ""
    },
    {
      "icao": "EBCI",
      "alert": "OK",
      "vis_m": 9999,
      "fzfg": false,
      "metar_trigger": false,
      "taf_trigger": false,
      "metar": "METAR EBCI 151650Z 03011KT 340V050 CAVOK 28/09 Q1019 NOSIG",
      "taf": "TAF EBCI 151120Z 1512/1618 04008KT 9999 FEW045"
    },
    {
      "icao": "EDDB",
      "alert": "OK",
      "vis_m": 9999,
      "fzfg": false,
      "metar_trigger": false,
      "taf_trigger": false,
      "metar": "METAR EDDB 151650Z AUTO 06008KT 030V100 CAVOK 24/07 Q1020 NOSIG",
      "taf": "TAF EDDB 151100Z 1512/1612 06006KT CAVOK"
    },
    {
      "icao": "EDDH",
      "alert": "OK",
      "vis_m": 9999,
      "fzfg": false,
      "metar_trigger": false,
      "taf_trigger": false,
      "metar": "METAR EDDH 151650Z AUTO 05012KT 010V080 CAVOK 24/13 Q1021 NOSIG",
      "taf": "TAF EDDH 151100Z 1512/1618 33008KT CAVOK"
    },
    {
      "icao": "EDDK",
      "alert": "OK",
      "vis_m": 9999,
      "fzfg": false,
      "metar_trigger": false,
      "taf_trigger": false,
      "metar": "METAR EDDK 151650Z AUTO 05011KT 020V080 CAVOK 30/12 Q1018 NOSIG",
      "taf": "TAF EDDK 151100Z 1512/1618 04008KT CAVOK"
    },
    {
      "icao": "EDDN",
      "alert": "OK",
      "vis_m": 9999,
      "fzfg": false,
      "metar_trigger": false,
      "taf_trigger": false,
      "metar": "METAR EDDN 151650Z AUTO 36006KT 340V040 CAVOK 27/13 Q1018 NOSIG",
      "taf": "TAF EDDN 151100Z 1512/1612 06007KT CAVOK"
    },
    {
      "icao": "EDDS",
      "alert": "OK",
      "vis_m": 9999,
      "fzfg": false,
      "metar_trigger": false,
      "taf_trigger": false,
      "metar": "METAR EDDS 151650Z AUTO 19003KT 160V220 9999 TSRA SCT///CB 25/16 Q1018 TEMPO 29015G30KT TSRAGR",
      "taf": "TAF EDDS 151100Z 1512/1612 01005KT CAVOK"
    },
    {
      "icao": "EDFH",
      "alert": "OK",
      "vis_m": 9999,
      "fzfg": false,
      "metar_trigger": false,
      "taf_trigger": false,
      "metar": "METAR EDFH 151650Z VRB05KT CAVOK 27/11 Q1019",
      "taf": "TAF EDFH 151100Z 1512/1612 06009KT CAVOK"
    },
    {
      "icao": "EDJA",
      "alert": "OK",
      "vis_m": 9999,
      "fzfg": false,
      "metar_trigger": false,
      "taf_trigger": false,
      "metar": "METAR EDJA 151650Z 13003KT 060V170 CAVOK 19/17 Q1020",
      "taf": "TAF EDJA 151400Z 1515/1524 VRB03KT CAVOK"
    },
    {
      "icao": "EDLW",
      "alert": "OK",
      "vis_m": 9999,
      "fzfg": false,
      "metar_trigger": false,
      "taf_trigger": false,
      "metar": "METAR EDLW 151650Z 07009KT 020V100 CAVOK 27/10 Q1019",
      "taf": "TAF EDLW 151100Z 1512/1612 06009KT CAVOK"
    },
    {
      "icao": "EDNY",
      "alert": "OK",
      "vis_m": 9999,
      "fzfg": false,
      "metar_trigger": false,
      "taf_trigger": false,
      "metar": "METAR EDNY 151650Z VRB02KT 9999 VCTS FEW070CB 20/18 Q1019",
      "taf": "TAF EDNY 151400Z 1515/1524 VRB03KT CAVOK"
    },
    {
      "icao": "EDSB",
      "alert": "OK",
      "vis_m": 9999,
      "fzfg": false,
      "metar_trigger": false,
      "taf_trigger": false,
      "metar": "METAR EDSB 151650Z 04009KT 360V080 CAVOK 29/14 Q1015",
      "taf": "TAF EDSB 151100Z 1512/1612 02012KT CAVOK"
    },
    {
      "icao": "EETN",
      "alert": "OK",
      "vis_m": 9999,
      "fzfg": false,
      "metar_trigger": false,
      "taf_trigger": false,
      "metar": "METAR EETN 151650Z 29008KT CAVOK 24/14 Q1018 NOSIG",
      "taf": "TAF EETN 151130Z 1512/1612 32010KT CAVOK"
    },
    {
      "icao": "EFTU",
      "alert": "OK",
      "vis_m": 9999,
      "fzfg": false,
      "metar_trigger": false,
      "taf_trigger": false,
      "metar": "METAR EFTU 151650Z AUTO 33006KT 290V010 CAVOK 22/11 Q1020",
      "taf": "TAF EFTU 151431Z 1515/1615 32008KT CAVOK"
    },
    {
      "icao": "EGBB",
      "alert": "OK",
      "vis_m": 9999,
      "fzfg": false,
      "metar_trigger": false,
      "taf_trigger": false,
      "metar": "METAR EGBB 151650Z 05011KT 010V080 CAVOK 27/10 Q1023",
      "taf": "TAF EGBB 151701Z 1518/1618 06009KT CAVOK"
    },
    {
      "icao": "EGGP",
      "alert": "OK",
      "vis_m": 9999,
      "fzfg": false,
      "metar_trigger": false,
      "taf_trigger": false,
      "metar": "METAR EGGP 151650Z 05008KT 360V080 CAVOK 27/10 Q1023",
      "taf": "TAF EGGP 151706Z 1518/1618 08007KT CAVOK"
    },
    {
      "icao": "EGGW",
      "alert": "OK",
      "vis_m": 9999,
      "fzfg": false,
      "metar_trigger": false,
      "taf_trigger": false,
      "metar": "METAR EGGW 151650Z AUTO 05012KT 020V080 9999 NCD 26/13 Q1022",
      "taf": "TAF EGGW 151702Z 1518/1618 04009KT 9999 FEW045"
    },
    {
      "icao": "EGKK",
      "alert": "OK",
      "vis_m": 9999,
      "fzfg": false,
      "metar_trigger": false,
      "taf_trigger": false,
      "metar": "METAR EGKK 151650Z 07014KT CAVOK 26/12 Q1021",
      "taf": "TAF EGKK 151659Z 1518/1624 05014KT 9999 FEW040"
    },
    {
      "icao": "EGNM",
      "alert": "OK",
      "vis_m": 9999,
      "fzfg": false,
      "metar_trigger": false,
      "taf_trigger": false,
      "metar": "METAR EGNM 151650Z 07009KT 050V110 CAVOK 22/12 Q1025",
      "taf": "TAF EGNM 151702Z 1518/1618 05006KT 9999 SCT015"
    },
    {
      "icao": "EGPD",
      "alert": "OK",
      "vis_m": 9999,
      "fzfg": false,
      "metar_trigger": false,
      "taf_trigger": false,
      "metar": "METAR EGPD 151650Z AUTO 12007KT 090V150 9999 NCD 16/11 Q1028",
      "taf": "TAF EGPD 151701Z 1518/1618 11010KT 9999 SCT016"
    },
    {
      "icao": "EGPF",
      "alert": "OK",
      "vis_m": 9999,
      "fzfg": false,
      "metar_trigger": false,
      "taf_trigger": false,
      "metar": "METAR EGPF 151650Z AUTO 05007KT 9999 NCD 25/09 Q1026",
      "taf": "TAF EGPF 151654Z 1518/1618 07006KT CAVOK"
    },
    {
      "icao": "EHBK",
      "alert": "OK",
      "vis_m": 9999,
      "fzfg": false,
      "metar_trigger": false,
      "taf_trigger": false,
      "metar": "METAR EHBK 151655Z AUTO 03012KT 350V060 9999 NCD 29/11 Q1018 NOSIG",
      "taf": "TAF EHBK 151102Z 1512/1618 05011KT CAVOK"
    },
    {
      "icao": "EHEH",
      "alert": "OK",
      "vis_m": 9999,
      "fzfg": false,
      "metar_trigger": false,
      "taf_trigger": false,
      "metar": "METAR EHEH 151655Z AUTO 03009KT 350V070 9999 NCD 28/09 Q1019 BLU NOSIG RMK TREND REMOTE BY EHWX",
      "taf": "TAF EHEH 151104Z 1512/1618 06011KT CAVOK"
    },
    {
      "icao": "EKBI",
      "alert": "OK",
      "vis_m": 9999,
      "fzfg": false,
      "metar_trigger": false,
      "taf_trigger": false,
      "metar": "METAR EKBI 151650Z AUTO 10007KT 9999 NCD 27/10 Q1024",
      "taf": "TAF EKBI 151427Z 1515/1615 VRB03KT CAVOK"
    },
    {
      "icao": "EKCH",
      "alert": "OK",
      "vis_m": 9999,
      "fzfg": false,
      "metar_trigger": false,
      "taf_trigger": false,
      "metar": "METAR EKCH 151650Z AUTO 20005KT 9999 NCD 24/12 Q1023 NOSIG",
      "taf": "TAF EKCH 151427Z 1515/1615 18008KT CAVOK"
    },
    {
      "icao": "ENAL",
      "alert": "OK",
      "vis_m": 9999,
      "fzfg": false,
      "metar_trigger": false,
      "taf_trigger": false,
      "metar": "METAR ENAL 151650Z 05011KT 9999 FEW010 15/12 Q1027",
      "taf": "TAF ENAL 151400Z 1515/1524 06008KT 9999 FEW010"
    },
    {
      "icao": "ENBR",
      "alert": "OK",
      "vis_m": 9999,
      "fzfg": false,
      "metar_trigger": false,
      "taf_trigger": false,
      "metar": "METAR ENBR 151650Z 32006KT CAVOK 20/14 Q1025 NOSIG RMK WIND 1200FT VRB02KT",
      "taf": "TAF ENBR 151100Z 1512/1612 33008KT CAVOK"
    },
    {
      "icao": "ENGM",
      "alert": "OK",
      "vis_m": 9999,
      "fzfg": false,
      "metar_trigger": false,
      "taf_trigger": false,
      "metar": "METAR ENGM 151650Z 19007KT CAVOK 31/11 Q1023 NOSIG",
      "taf": "TAF ENGM 151100Z 1512/1612 18010KT CAVOK"
    },
    {
      "icao": "ENHD",
      "alert": "OK",
      "vis_m": 250,
      "fzfg": false,
      "metar_trigger": false,
      "taf_trigger": false,
      "metar": "METAR ENHD 151650Z 35008KT 0250 R13/0450N R31/0600U FG VV002 13/12 Q1026",
      "taf": ""
    },
    {
      "icao": "ENTC",
      "alert": "OK",
      "vis_m": 9999,
      "fzfg": false,
      "metar_trigger": false,
      "taf_trigger": false,
      "metar": "METAR ENTC 151650Z 19016KT 9999 FEW011 SCT023 BKN030 12/10 Q1020 NOSIG RMK WIND 2600FT 20020KT",
      "taf": ""
    },
    {
      "icao": "ENTO",
      "alert": "OK",
      "vis_m": 9999,
      "fzfg": false,
      "metar_trigger": false,
      "taf_trigger": false,
      "metar": "METAR ENTO 151650Z 23005KT CAVOK 30/14 Q1024 NOSIG",
      "taf": "TAF ENTO 151100Z 1512/1612 36005KT CAVOK"
    },
    {
      "icao": "ENVA",
      "alert": "OK",
      "vis_m": 9999,
      "fzfg": false,
      "metar_trigger": false,
      "taf_trigger": false,
      "metar": "METAR ENVA 151650Z 25006KT CAVOK 19/10 Q1027 NOSIG RMK WIND 670FT 29004KT",
      "taf": "TAF ENVA 151100Z 1512/1612 27006KT CAVOK"
    },
    {
      "icao": "ENZV",
      "alert": "OK",
      "vis_m": 9999,
      "fzfg": false,
      "metar_trigger": false,
      "taf_trigger": false,
      "metar": "METAR ENZV 151650Z 29005KT CAVOK 18/14 Q1025 NOSIG",
      "taf": "TAF ENZV 151100Z 1512/1612 30008KT CAVOK"
    },
    {
      "icao": "EPGD",
      "alert": "OK",
      "vis_m": 9999,
      "fzfg": false,
      "metar_trigger": false,
      "taf_trigger": false,
      "metar": "METAR EPGD 151700Z 04008KT 360V060 CAVOK 20/11 Q1022",
      "taf": "TAF EPGD 151130Z 1512/1612 03008KT 9999 BKN005"
    },
    {
      "icao": "EPKK",
      "alert": "OK",
      "vis_m": 9999,
      "fzfg": false,
      "metar_trigger": false,
      "taf_trigger": false,
      "metar": "METAR EPKK 151700Z 21006KT 9999 FEW036TCU 22/17 Q1019",
      "taf": ""
    },
    {
      "icao": "EPKT",
      "alert": "OK",
      "vis_m": 9999,
      "fzfg": false,
      "metar_trigger": false,
      "taf_trigger": false,
      "metar": "METAR EPKT 151700Z 02003KT 320V040 9999 FEW033 22/17 Q1020",
      "taf": "TAF EPKT 151130Z 1512/1612 29005KT 9999 FEW006 BKN009"
    },
    {
      "icao": "EPLB",
      "alert": "OK",
      "vis_m": 9999,
      "fzfg": false,
      "metar_trigger": false,
      "taf_trigger": false,
      "metar": "METAR EPLB 151700Z 22013KT 9999 VCTS SCT050CB 22/18 Q1019",
      "taf": "TAF EPLB 151130Z 1512/1612 VRB05KT CAVOK"
    },
    {
      "icao": "EPMO",
      "alert": "OK",
      "vis_m": 9999,
      "fzfg": false,
      "metar_trigger": false,
      "taf_trigger": false,
      "metar": "METAR EPMO 151700Z 02006KT 320V050 CAVOK 26/15 Q1019",
      "taf": "TAF EPMO 151130Z 1512/1612 02005KT CAVOK"
    },
    {
      "icao": "EPPO",
      "alert": "OK",
      "vis_m": 9999,
      "fzfg": false,
      "metar_trigger": false,
      "taf_trigger": false,
      "metar": "METAR EPPO 151700Z 31004KT CAVOK 22/16 Q1021",
      "taf": "TAF EPPO 151130Z 1512/1612 VRB02KT CAVOK"
    },
    {
      "icao": "EPRA",
      "alert": "OK",
      "vis_m": 9999,
      "fzfg": false,
      "metar_trigger": false,
      "taf_trigger": false,
      "metar": "METAR EPRA 151700Z 31003KT 240V340 CAVOK 22/18 Q1019",
      "taf": "TAF EPRA 151430Z 1515/1524 05004KT 9999 SCT040"
    },
    {
      "icao": "EPRZ",
      "alert": "OK",
      "vis_m": 9999,
      "fzfg": false,
      "metar_trigger": false,
      "taf_trigger": false,
      "metar": "METAR EPRZ 151700Z 25004KT 9999 -TSRA BKN036CB 20/18 Q1019",
      "taf": ""
    },
    {
      "icao": "EPSC",
      "alert": "OK",
      "vis_m": 9999,
      "fzfg": false,
      "metar_trigger": false,
      "taf_trigger": false,
      "metar": "METAR EPSC 151700Z 36009KT 340V040 9999 FEW045 24/15 Q1020",
      "taf": "TAF EPSC 151130Z 1512/1612 VRB05KT 9999 SCT045"
    },
    {
      "icao": "EPSY",
      "alert": "OK",
      "vis_m": 9999,
      "fzfg": false,
      "metar_trigger": false,
      "taf_trigger": false,
      "metar": "METAR EPSY 151700Z 02010KT 9999 FEW039 24/15 Q1020",
      "taf": "TAF EPSY 151430Z 1515/1524 02008KT 9999 SCT040"
    },
    {
      "icao": "EPWA",
      "alert": "OK",
      "vis_m": 9999,
      "fzfg": false,
      "metar_trigger": false,
      "taf_trigger": false,
      "metar": "METAR EPWA 151700Z 03007KT 350V060 CAVOK 27/12 Q1019 NOSIG",
      "taf": "TAF EPWA 151430Z 1515/1615 03008KT CAVOK"
    },
    {
      "icao": "EPWR",
      "alert": "OK",
      "vis_m": 9999,
      "fzfg": false,
      "metar_trigger": false,
      "taf_trigger": false,
      "metar": "METAR EPWR 151700Z 35006KT 320V020 9999 BKN009 19/17 Q1021",
      "taf": ""
    },
    {
      "icao": "ESGG",
      "alert": "OK",
      "vis_m": 9999,
      "fzfg": false,
      "metar_trigger": false,
      "taf_trigger": false,
      "metar": "METAR ESGG 151650Z 31008KT CAVOK 29/12 Q1023",
      "taf": ""
    },
    {
      "icao": "ESKN",
      "alert": "OK",
      "vis_m": 9999,
      "fzfg": false,
      "metar_trigger": false,
      "taf_trigger": false,
      "metar": "METAR ESKN 151650Z 12007KT CAVOK 27/12 Q1023",
      "taf": "TAF ESKN 151430Z 1515/1615 VRB03KT CAVOK"
    },
    {
      "icao": "ESMS",
      "alert": "OK",
      "vis_m": 9999,
      "fzfg": false,
      "metar_trigger": false,
      "taf_trigger": false,
      "metar": "METAR ESMS 151650Z 21006KT CAVOK 25/13 Q1023",
      "taf": "TAF ESMS 151427Z 1515/1615 VRB03KT CAVOK"
    },
    {
      "icao": "ESSA",
      "alert": "OK",
      "vis_m": 9999,
      "fzfg": false,
      "metar_trigger": false,
      "taf_trigger": false,
      "metar": "METAR ESSA 151650Z 26003KT 230V300 CAVOK 26/08 Q1022 NOSIG",
      "taf": "TAF ESSA 151430Z 1515/1615 30006KT CAVOK"
    },
    {
      "icao": "EYKA",
      "alert": "OK",
      "vis_m": 9999,
      "fzfg": false,
      "metar_trigger": false,
      "taf_trigger": false,
      "metar": "METAR EYKA 151650Z 35007KT CAVOK 25/14 Q1019",
      "taf": "TAF EYKA 151700Z 1518/1618 VRB03KT 9000 NSC"
    },
    {
      "icao": "EYPA",
      "alert": "OK",
      "vis_m": 9999,
      "fzfg": false,
      "metar_trigger": false,
      "taf_trigger": false,
      "metar": "METAR EYPA 151650Z 35006KT 280V030 CAVOK 20/14 Q1021",
      "taf": "TAF EYPA 151700Z 1518/1618 VRB03KT 9000 NSC"
    },
    {
      "icao": "EYVI",
      "alert": "OK",
      "vis_m": 9999,
      "fzfg": false,
      "metar_trigger": false,
      "taf_trigger": false,
      "metar": "METAR EYVI 151650Z 01010KT 340V040 9999 FEW042 24/15 Q1019 NOSIG",
      "taf": "TAF EYVI 151700Z 1518/1618 VRB03KT 9000 NSC"
    },
    {
      "icao": "GCFV",
      "alert": "OK",
      "vis_m": 9999,
      "fzfg": false,
      "metar_trigger": false,
      "taf_trigger": false,
      "metar": "METAR GCFV 151700Z 02014KT CAVOK 26/20 Q1017",
      "taf": "TAF GCFV 151400Z 1515/1615 03014KT CAVOK TX29/1614Z TN22/1606Z"
    },
    {
      "icao": "GCLP",
      "alert": "OK",
      "vis_m": 9999,
      "fzfg": false,
      "metar_trigger": false,
      "taf_trigger": false,
      "metar": "METAR GCLP 151700Z 01023KT 9999 FEW020 27/20 Q1017 NOSIG",
      "taf": "TAF GCLP 151400Z 1515/1615 02021KT 9999 FEW020 TX29/1614Z TN23/1606Z"
    },
    {
      "icao": "GCTS",
      "alert": "OK",
      "vis_m": 9999,
      "fzfg": false,
      "metar_trigger": false,
      "taf_trigger": false,
      "metar": "METAR GCTS 151700Z 08019KT CAVOK 28/20 Q1017 NOSIG",
      "taf": "TAF GCTS 151400Z 1515/1615 09016KT CAVOK TX31/1614Z TN21/1606Z"
    },
    {
      "icao": "GMAD",
      "alert": "OK",
      "vis_m": 9999,
      "fzfg": false,
      "metar_trigger": false,
      "taf_trigger": false,
      "metar": "METAR GMAD 151700Z 21013KT CAVOK 31/18 Q1013 NOSIG",
      "taf": "TAF GMAD 151700Z 1518/1624 20008KT 8000 NSC"
    },
    {
      "icao": "GMMN",
      "alert": "OK",
      "vis_m": 9999,
      "fzfg": false,
      "metar_trigger": false,
      "taf_trigger": false,
      "metar": "METAR GMMN 151700Z 36014KT 330V030 CAVOK 28/18 Q1017 NOSIG",
      "taf": "TAF GMMN 151100Z 1512/1618 36014KT CAVOK"
    },
    {
      "icao": "GMMX",
      "alert": "OK",
      "vis_m": 8000,
      "fzfg": false,
      "metar_trigger": false,
      "taf_trigger": false,
      "metar": "METAR GMMX 151700Z 32006KT 260V060 8000 SCT023 40/15 Q1016 NOSIG",
      "taf": "TAF GMMX 151100Z 1512/1618 06006KT 8000 SCT033 SCT100"
    },
    {
      "icao": "HEGN",
      "alert": "OK",
      "vis_m": 9999,
      "fzfg": false,
      "metar_trigger": false,
      "taf_trigger": false,
      "metar": "METAR HEGN 151600Z 35009KT CAVOK 36/13 Q1005 NOSIG",
      "taf": "TAF HEGN 151700Z 1518/1624 33015KT CAVOK"
    },
    {
      "icao": "HEMA",
      "alert": "OK",
      "vis_m": 9999,
      "fzfg": false,
      "metar_trigger": false,
      "taf_trigger": false,
      "metar": "METAR HEMA 151600Z 02008KT CAVOK 33/15 Q1005 NOSIG",
      "taf": "TAF HEMA 151700Z 1518/1624 30012KT CAVOK"
    },
    {
      "icao": "HESH",
      "alert": "OK",
      "vis_m": 9999,
      "fzfg": false,
      "metar_trigger": false,
      "taf_trigger": false,
      "metar": "METAR HESH 151600Z 02006KT CAVOK 36/11 Q1004 NOSIG",
      "taf": "TAF HESH 151700Z 1518/1624 36010KT CAVOK"
    },
    {
      "icao": "HESX",
      "alert": "OK",
      "vis_m": 9999,
      "fzfg": false,
      "metar_trigger": false,
      "taf_trigger": false,
      "metar": "METAR HESX 151600Z 35010KT CAVOK 30/18 Q1009 NOSIG",
      "taf": "TAF HESX 151700Z 1518/1624 33012KT CAVOK"
    },
    {
      "icao": "LATI",
      "alert": "OK",
      "vis_m": null,
      "fzfg": false,
      "metar_trigger": false,
      "taf_trigger": false,
      "metar": "",
      "taf": "TAF LATI 151700Z 1518/1618 VRB03KT CAVOK TX37/1613Z TN19/1604Z"
    },
    {
      "icao": "LBPD",
      "alert": "OK",
      "vis_m": 9999,
      "fzfg": false,
      "metar_trigger": false,
      "taf_trigger": false,
      "metar": "METAR LBPD 151700Z AUTO 10008KT 9999 FEW250/// 32/14 Q1015 NOSIG",
      "taf": "TAF LBPD 151700Z 1518/1618 09010KT CAVOK"
    },
    {
      "icao": "LBSF",
      "alert": "OK",
      "vis_m": 9999,
      "fzfg": false,
      "metar_trigger": false,
      "taf_trigger": false,
      "metar": "METAR LBSF 151700Z AUTO 03005KT 9999 NSC 29/14 Q1018 NOSIG",
      "taf": "TAF LBSF 151700Z 1518/1618 06010KT 9999 SCT060"
    },
    {
      "icao": "LBWN",
      "alert": "OK",
      "vis_m": 9999,
      "fzfg": false,
      "metar_trigger": false,
      "taf_trigger": false,
      "metar": "METAR LBWN 151700Z AUTO 10007KT 9999 NSC 23/20 Q1016 NOSIG",
      "taf": "TAF LBWN 151700Z 1518/1618 VRB03KT 9999 SCT045"
    },
    {
      "icao": "LCLK",
      "alert": "OK",
      "vis_m": 9999,
      "fzfg": false,
      "metar_trigger": false,
      "taf_trigger": false,
      "metar": "METAR LCLK 151700Z 21011KT CAVOK 29/25 Q1006 NOSIG",
      "taf": "TAF LCLK 151130Z 1512/1612 21014KT 9999 FEW020"
    },
    {
      "icao": "LCPH",
      "alert": "OK",
      "vis_m": 9999,
      "fzfg": false,
      "metar_trigger": false,
      "taf_trigger": false,
      "metar": "METAR LCPH 151700Z 31012KT CAVOK 28/25 Q1007 NOSIG",
      "taf": "TAF LCPH 151130Z 1512/1612 29010KT 9999 FEW020"
    },
    {
      "icao": "LEAL",
      "alert": "OK",
      "vis_m": 9999,
      "fzfg": false,
      "metar_trigger": false,
      "taf_trigger": false,
      "metar": "METAR LEAL 151700Z 08006KT 050V120 CAVOK 34/20 Q1015 NOSIG",
      "taf": "TAF LEAL 151100Z 1512/1612 18012KT CAVOK TX37/1515Z TN25/1605Z"
    },
    {
      "icao": "LEBB",
      "alert": "OK",
      "vis_m": 9999,
      "fzfg": false,
      "metar_trigger": false,
      "taf_trigger": false,
      "metar": "METAR LEBB 151700Z 33010KT 280V350 9999 SCT019 27/22 Q1019 NOSIG",
      "taf": "TAF LEBB 151100Z 1512/1612 32009KT 9999 SCT025 TX28/1514Z TN19/1606Z"
    },
    {
      "icao": "LEBL",
      "alert": "OK",
      "vis_m": 8000,
      "fzfg": false,
      "metar_trigger": false,
      "taf_trigger": false,
      "metar": "METAR LEBL 151700Z 23017KT 8000 SCT050 29/26 Q1015 NOSIG",
      "taf": ""
    },
    {
      "icao": "LECH",
      "alert": "OK",
      "vis_m": 9999,
      "fzfg": false,
      "metar_trigger": false,
      "taf_trigger": false,
      "metar": "METAR LECH 151700Z AUTO 14006KT 110V180 CAVOK 32/18 Q1017",
      "taf": "TAF LECH 151100Z 1512/1612 VRB04KT CAVOK TX34/1515Z TN25/1605Z"
    },
    {
      "icao": "LEMD",
      "alert": "OK",
      "vis_m": 9999,
      "fzfg": false,
      "metar_trigger": false,
      "taf_trigger": false,
      "metar": "METAR LEMD 151700Z 24007KT 200V300 CAVOK 36/07 Q1018 NOSIG",
      "taf": "TAF LEMD 151100Z 1512/1618 21010KT CAVOK TX37/1516Z TN20/1605Z"
    },
    {
      "icao": "LEMG",
      "alert": "OK",
      "vis_m": 9999,
      "fzfg": false,
      "metar_trigger": false,
      "taf_trigger": false,
      "metar": "METAR LEMG 151700Z 06008KT 040V100 CAVOK 28/17 Q1014 NOSIG",
      "taf": ""
    },
    {
      "icao": "LEVC",
      "alert": "OK",
      "vis_m": 9999,
      "fzfg": false,
      "metar_trigger": false,
      "taf_trigger": false,
      "metar": "METAR LEVC 151700Z 07008KT 020V110 CAVOK 32/24 Q1014 NOSIG",
      "taf": "TAF LEVC 151100Z 1512/1612 32008KT 9999 FEW070 TX42/1515Z TN25/1605Z"
    },
    {
      "icao": "LEXJ",
      "alert": "OK",
      "vis_m": 9999,
      "fzfg": false,
      "metar_trigger": false,
      "taf_trigger": false,
      "metar": "METAR LEXJ 151700Z 33006KT 300V020 9999 SCT036 BKN054 25/21 Q1019",
      "taf": "TAF LEXJ 151400Z 1515/1615 24005KT 9999 SCT040 TX26/1613Z TN20/1604Z"
    },
    {
      "icao": "LEZG",
      "alert": "OK",
      "vis_m": 9999,
      "fzfg": false,
      "metar_trigger": false,
      "taf_trigger": false,
      "metar": "METAR LEZG 151700Z 25011KT 210V280 CAVOK 41/05 Q1014 NOSIG",
      "taf": "TAF LEZG 151100Z 1512/1612 VRB04KT CAVOK TX43/1515Z TN22/1605Z"
    },
    {
      "icao": "LEZL",
      "alert": "OK",
      "vis_m": 9999,
      "fzfg": false,
      "metar_trigger": false,
      "taf_trigger": false,
      "metar": "METAR LEZL 151700Z 22007KT 160V280 CAVOK 36/13 Q1015 NOSIG",
      "taf": "TAF LEZL 151400Z 1515/1615 23009KT CAVOK TX36/1515Z TN21/1605Z"
    },
    {
      "icao": "LFBD",
      "alert": "OK",
      "vis_m": 9999,
      "fzfg": false,
      "metar_trigger": false,
      "taf_trigger": false,
      "metar": "METAR LFBD 151700Z AUTO 29011KT 250V320 CAVOK 31/19 Q1016 NOSIG",
      "taf": "TAF LFBD 151100Z 1512/1618 03005KT CAVOK TX35/1515Z TN21/1605Z"
    },
    {
      "icao": "LFLL",
      "alert": "OK",
      "vis_m": 9999,
      "fzfg": false,
      "metar_trigger": false,
      "taf_trigger": false,
      "metar": "METAR LFLL 151700Z 17004KT 140V220 9999 FEW040 FEW073CB SCT110 27/19 Q1016 RETSRA TEMPO SHRA",
      "taf": ""
    },
    {
      "icao": "LFLS",
      "alert": "OK",
      "vis_m": 9999,
      "fzfg": false,
      "metar_trigger": false,
      "taf_trigger": false,
      "metar": "METAR LFLS 151700Z AUTO 09011KT CAVOK 28/16 Q1017 TEMPO VRB20G40KT 3000 TSRAGR BKN070CB",
      "taf": "TAF LFLS 151400Z 1515/1615 VRB05KT CAVOK"
    },
    {
      "icao": "LFMN",
      "alert": "OK",
      "vis_m": 9999,
      "fzfg": false,
      "metar_trigger": false,
      "taf_trigger": false,
      "metar": "METAR LFMN 151700Z 20011KT 9999 FEW026 28/24 Q1015 NOSIG",
      "taf": "TAF LFMN 151400Z 1515/1621 18010KT 9999 BKN020"
    },
    {
      "icao": "LFOB",
      "alert": "OK",
      "vis_m": 9999,
      "fzfg": false,
      "metar_trigger": false,
      "taf_trigger": false,
      "metar": "METAR LFOB 151700Z AUTO 04013KT CAVOK 29/14 Q1017 NOSIG",
      "taf": "TAF LFOB 151100Z 1512/1612 04010KT CAVOK"
    },
    {
      "icao": "LFPO",
      "alert": "OK",
      "vis_m": 9999,
      "fzfg": false,
      "metar_trigger": false,
      "taf_trigger": false,
      "metar": "METAR LFPO 151700Z 02009KT 340V060 CAVOK 31/10 Q1016 NOSIG",
      "taf": "TAF LFPO 151100Z 1512/1618 04010KT CAVOK"
    },
    {
      "icao": "LFSB",
      "alert": "OK",
      "vis_m": 9999,
      "fzfg": false,
      "metar_trigger": false,
      "taf_trigger": false,
      "metar": "METAR LFSB 151700Z AUTO VRB03KT CAVOK 25/18 Q1017 TEMPO 24015G30KT 3000 TSRA SCT060CB",
      "taf": "TAF LFSB 151100Z 1512/1612 33005KT 9999 FEW050 SCT150"
    },
    {
      "icao": "LGAV",
      "alert": "OK",
      "vis_m": 9999,
      "fzfg": false,
      "metar_trigger": false,
      "taf_trigger": false,
      "metar": "METAR LGAV 151650Z 05016KT CAVOK 30/11 Q1015 NOSIG",
      "taf": "TAF LGAV 151700Z 1518/1618 02016KT 9999 FEW025"
    },
    {
      "icao": "LGTS",
      "alert": "OK",
      "vis_m": 9999,
      "fzfg": false,
      "metar_trigger": false,
      "taf_trigger": false,
      "metar": "METAR LGTS 151650Z 17012KT 9999 FEW025 30/16 Q1014 NOSIG",
      "taf": "TAF LGTS 151700Z 1518/1618 VRB03KT 9999 FEW030"
    },
    {
      "icao": "LHBP",
      "alert": "OK",
      "vis_m": 9999,
      "fzfg": false,
      "metar_trigger": false,
      "taf_trigger": false,
      "metar": "METAR LHBP 151700Z 04004KT 010V080 CAVOK 30/16 Q1017 NOSIG",
      "taf": "TAF LHBP 151115Z 1512/1612 09006KT CAVOK"
    },
    {
      "icao": "LHDC",
      "alert": "OK",
      "vis_m": 9999,
      "fzfg": false,
      "metar_trigger": false,
      "taf_trigger": false,
      "metar": "METAR LHDC 151645Z AUTO 04006KT 350V080 CAVOK 28/17 Q1017 NOSIG",
      "taf": "TAF LHDC 151415Z 1515/1524 35006KT CAVOK"
    },
    {
      "icao": "LIBD",
      "alert": "OK",
      "vis_m": 9999,
      "fzfg": false,
      "metar_trigger": false,
      "taf_trigger": false,
      "metar": "METAR LIBD 151650Z 07006KT 030V090 CAVOK 30/20 Q1015",
      "taf": "TAF LIBD 151100Z 1512/1612 04010KT CAVOK"
    },
    {
      "icao": "LIBG",
      "alert": "OK",
      "vis_m": 9999,
      "fzfg": false,
      "metar_trigger": false,
      "taf_trigger": false,
      "metar": "METAR LIBG 151650Z AUTO 27006KT 240V300 9999 NCD 34/17 Q1014",
      "taf": "TAF LIBG 151100Z 1512/1612 VRB05KT 9999 FEW030"
    },
    {
      "icao": "LIBP",
      "alert": "OK",
      "vis_m": 9999,
      "fzfg": false,
      "metar_trigger": false,
      "taf_trigger": false,
      "metar": "METAR LIBP 151650Z AUTO 10006KT 050V130 9999 NCD 33/15 Q1015",
      "taf": "TAF LIBP 151100Z 1512/1612 08010KT CAVOK"
    },
    {
      "icao": "LIBR",
      "alert": "OK",
      "vis_m": 9999,
      "fzfg": false,
      "metar_trigger": false,
      "taf_trigger": false,
      "metar": "METAR LIBR 151650Z 07007KT CAVOK 29/24 Q1014",
      "taf": "TAF LIBR 151100Z 1512/1612 VRB05KT CAVOK"
    },
    {
      "icao": "LICA",
      "alert": "OK",
      "vis_m": 9999,
      "fzfg": false,
      "metar_trigger": false,
      "taf_trigger": false,
      "metar": "METAR LICA 151650Z AUTO 21009KT 9999 NCD 29/26 Q1015",
      "taf": "TAF LICA 151100Z 1512/1612 27013KT 9999 FEW015"
    },
    {
      "icao": "LICC",
      "alert": "OK",
      "vis_m": 9999,
      "fzfg": false,
      "metar_trigger": false,
      "taf_trigger": false,
      "metar": "METAR LICC 151650Z 07008KT CAVOK 32/16 Q1014",
      "taf": "TAF LICC 151100Z 1512/1612 09012KT CAVOK"
    },
    {
      "icao": "LICJ",
      "alert": "OK",
      "vis_m": 9999,
      "fzfg": false,
      "metar_trigger": false,
      "taf_trigger": false,
      "metar": "METAR LICJ 151650Z 01008KT CAVOK 29/26 Q1016",
      "taf": "TAF LICJ 151100Z 1512/1612 35012KT CAVOK"
    },
    {
      "icao": "LIMC",
      "alert": "OK",
      "vis_m": 9999,
      "fzfg": false,
      "metar_trigger": false,
      "taf_trigger": false,
      "metar": "METAR LIMC 151650Z 32011KT 9999 -RA FEW070 25/19 Q1017 NOSIG",
      "taf": "TAF LIMC 151100Z 1512/1618 VRB05KT CAVOK"
    },
    {
      "icao": "LIME",
      "alert": "OK",
      "vis_m": 9999,
      "fzfg": false,
      "metar_trigger": false,
      "taf_trigger": false,
      "metar": "METAR LIME 151650Z 09006KT 9999 SCT055 27/20 Q1016 NOSIG",
      "taf": "TAF LIME 151100Z 1512/1612 VRB05KT CAVOK"
    },
    {
      "icao": "LIMF",
      "alert": "OK",
      "vis_m": 6000,
      "fzfg": false,
      "metar_trigger": false,
      "taf_trigger": false,
      "metar": "METAR LIMF 151650Z 01004KT 310V100 6000 RA SCT040 OVC100 25/22 Q1019",
      "taf": "TAF LIMF 151100Z 1512/1612 VRB05KT 9999 FEW060"
    },
    {
      "icao": "LIMJ",
      "alert": "OK",
      "vis_m": 9999,
      "fzfg": false,
      "metar_trigger": false,
      "taf_trigger": false,
      "metar": "METAR LIMJ 151650Z 27005KT 9999 FEW050 28/25 Q1014",
      "taf": ""
    },
    {
      "icao": "LIPE",
      "alert": "OK",
      "vis_m": 300,
      "fzfg": false,
      "metar_trigger": false,
      "taf_trigger": false,
      "metar": "METAR LIPE 151650Z 29030G41KT 0300 R12/0700D R30/1200D +TSRA SCT400CB 21/21 Q1020",
      "taf": "TAF LIPE 151100Z 1512/1612 VRB05KT 9999 FEW030"
    },
    {
      "icao": "LIPH",
      "alert": "OK",
      "vis_m": 9999,
      "fzfg": false,
      "metar_trigger": false,
      "taf_trigger": false,
      "metar": "METAR LIPH 151650Z 33010KT 310V010 9999 -TSRA FEW015CB BKN030 27/16 Q1016",
      "taf": "TAF LIPH 151100Z 1512/1612 12010KT 9999 SCT030"
    },
    {
      "icao": "LIPQ",
      "alert": "OK",
      "vis_m": 9999,
      "fzfg": false,
      "metar_trigger": false,
      "taf_trigger": false,
      "metar": "METAR LIPQ 151650Z AUTO 24004KT 9999 FEW130/// 30/18 Q1015",
      "taf": "TAF LIPQ 151100Z 1512/1612 VRB05KT 9999 SCT050"
    },
    {
      "icao": "LIPR",
      "alert": "OK",
      "vis_m": 9999,
      "fzfg": false,
      "metar_trigger": false,
      "taf_trigger": false,
      "metar": "METAR LIPR 151650Z 11009KT CAVOK 28/23 Q1014",
      "taf": "TAF LIPR 151100Z 1512/1612 04010KT 9999 FEW030"
    },
    {
      "icao": "LIPX",
      "alert": "OK",
      "vis_m": 9999,
      "fzfg": false,
      "metar_trigger": false,
      "taf_trigger": false,
      "metar": "METAR LIPX 151650Z 23013KT 9999 TS FEW040CB SCT060 26/22 Q1015",
      "taf": ""
    },
    {
      "icao": "LIPY",
      "alert": "OK",
      "vis_m": 9999,
      "fzfg": false,
      "metar_trigger": false,
      "taf_trigger": false,
      "metar": "METAR LIPY 151650Z AUTO 11005KT 070V140 9999 NCD 32/18 Q1014",
      "taf": "TAF LIPY 151100Z 1512/1612 04010KT 9999 FEW050"
    },
    {
      "icao": "LIPZ",
      "alert": "OK",
      "vis_m": 9999,
      "fzfg": false,
      "metar_trigger": false,
      "taf_trigger": false,
      "metar": "METAR LIPZ 151650Z VRB04KT 9999 SCT050 29/22 Q1016 TEMPO TSRA",
      "taf": "TAF LIPZ 151100Z 1512/1618 13010KT 9999 SCT040"
    },
    {
      "icao": "LIRF",
      "alert": "OK",
      "vis_m": 9999,
      "fzfg": false,
      "metar_trigger": false,
      "taf_trigger": false,
      "metar": "METAR LIRF 151650Z 24007KT CAVOK 30/24 Q1015 NOSIG",
      "taf": "TAF LIRF 151100Z 1512/1618 23010KT CAVOK"
    },
    {
      "icao": "LIRN",
      "alert": "OK",
      "vis_m": 9999,
      "fzfg": false,
      "metar_trigger": false,
      "taf_trigger": false,
      "metar": "METAR LIRN 151650Z 17005KT 130V220 CAVOK 31/23 Q1016 NOSIG",
      "taf": "TAF LIRN 151100Z 1512/1612 23010KT CAVOK"
    },
    {
      "icao": "LIRP",
      "alert": "OK",
      "vis_m": 9999,
      "fzfg": false,
      "metar_trigger": false,
      "taf_trigger": false,
      "metar": "METAR LIRP 151645Z 30009KT 9999 SCT025 30/24 Q1015 NOSIG",
      "taf": "TAF LIRP 151100Z 1512/1612 27010KT 9999 FEW030"
    },
    {
      "icao": "LIRZ",
      "alert": "OK",
      "vis_m": 9999,
      "fzfg": false,
      "metar_trigger": false,
      "taf_trigger": false,
      "metar": "METAR LIRZ 151650Z AUTO 21005KT 170V250 9999 FEW054/// 37/15 Q1015",
      "taf": "TAF LIRZ 151100Z 1512/1612 VRB05KT CAVOK"
    },
    {
      "icao": "LJLJ",
      "alert": "OK",
      "vis_m": 9999,
      "fzfg": false,
      "metar_trigger": false,
      "taf_trigger": false,
      "metar": "METAR LJLJ 151700Z 08007KT 9999 FEW060CB SCT075 29/16 Q1017 NOSIG",
      "taf": "TAF LJLJ 151700Z 1518/1618 12005KT 9999 FEW070"
    },
    {
      "icao": "LKMT",
      "alert": "OK",
      "vis_m": 9999,
      "fzfg": false,
      "metar_trigger": false,
      "taf_trigger": false,
      "metar": "METAR LKMT 151700Z 36007KT 9999 FEW019 SCT026 21/16 Q1020 NOSIG",
      "taf": "TAF LKMT 151100Z 1512/1612 02006KT 9999 SCT012 BKN027"
    },
    {
      "icao": "LKPR",
      "alert": "OK",
      "vis_m": 9999,
      "fzfg": false,
      "metar_trigger": false,
      "taf_trigger": false,
      "metar": "METAR LKPR 151700Z 03010KT CAVOK 24/14 Q1019 NOSIG",
      "taf": "TAF LKPR 151400Z 1515/1621 02004KT CAVOK"
    },
    {
      "icao": "LLBG",
      "alert": "OK",
      "vis_m": 9999,
      "fzfg": false,
      "metar_trigger": false,
      "taf_trigger": false,
      "metar": "METAR LLBG 151650Z 34005KT CAVOK 28/21 Q1008 NOSIG",
      "taf": "TAF LLBG 151705Z 1518/1618 32005KT 9999 FEW020 TX33/1612Z TN24/1603Z"
    },
    {
      "icao": "LMML",
      "alert": "OK",
      "vis_m": 9999,
      "fzfg": false,
      "metar_trigger": false,
      "taf_trigger": false,
      "metar": "METAR LMML 151715Z 23013KT CAVOK 29/23 Q1016 NOSIG",
      "taf": "TAF LMML 151700Z 1518/1618 26010KT CAVOK"
    },
    {
      "icao": "LOWW",
      "alert": "OK",
      "vis_m": 9999,
      "fzfg": false,
      "metar_trigger": false,
      "taf_trigger": false,
      "metar": "METAR LOWW 151650Z 18007KT CAVOK 27/15 Q1017 NOSIG",
      "taf": "TAF LOWW 151715Z 1518/1624 16005KT 9999 FEW050 TX31/1615Z TN19/1603Z"
    },
    {
      "icao": "LPFR",
      "alert": "OK",
      "vis_m": 9999,
      "fzfg": false,
      "metar_trigger": false,
      "taf_trigger": false,
      "metar": "METAR LPFR 151700Z 25016KT CAVOK 26/19 Q1016",
      "taf": "TAF LPFR 151700Z 1518/1618 25015KT CAVOK"
    },
    {
      "icao": "LPMA",
      "alert": "OK",
      "vis_m": 9999,
      "fzfg": false,
      "metar_trigger": false,
      "taf_trigger": false,
      "metar": "METAR LPMA 151700Z 15004KT 070V200 9999 SCT015 BKN030 24/20 Q1020",
      "taf": "TAF LPMA 151700Z 1518/1618 VRB05KT 9999 SCT015 BKN030"
    },
    {
      "icao": "LPPR",
      "alert": "OK",
      "vis_m": 9999,
      "fzfg": false,
      "metar_trigger": false,
      "taf_trigger": false,
      "metar": "METAR LPPR 151700Z 28005KT 230V310 9999 FEW020 23/18 Q1019",
      "taf": "TAF LPPR 151700Z 1518/1618 VRB02KT 9999 SCT015"
    },
    {
      "icao": "LPPS",
      "alert": "OK",
      "vis_m": 9999,
      "fzfg": false,
      "metar_trigger": false,
      "taf_trigger": false,
      "metar": "METAR LPPS 151700Z 15007KT 120V190 9999 FEW015 25/19 Q1020",
      "taf": "TAF LPPS 151700Z 1518/1624 15008KT 9999 SCT015"
    },
    {
      "icao": "LPPT",
      "alert": "OK",
      "vis_m": 9999,
      "fzfg": false,
      "metar_trigger": false,
      "taf_trigger": false,
      "metar": "METAR LPPT 151700Z 29009KT 260V320 9999 FEW040 26/16 Q1019 NOSIG",
      "taf": "TAF LPPT 151700Z 1518/1624 31010KT 9999 FEW030"
    },
    {
      "icao": "LQBK",
      "alert": "OK",
      "vis_m": 9999,
      "fzfg": false,
      "metar_trigger": false,
      "taf_trigger": false,
      "metar": "METAR LQBK 151700Z 31006KT CAVOK 32/17 Q1016 NOSIG",
      "taf": "TAF LQBK 151700Z 1518/1618 14005KT CAVOK TX32/1614Z TN17/1603Z"
    },
    {
      "icao": "LQSA",
      "alert": "OK",
      "vis_m": 9999,
      "fzfg": false,
      "metar_trigger": false,
      "taf_trigger": false,
      "metar": "METAR LQSA 151700Z 33004KT 300V010 CAVOK 30/17 Q1018 NOSIG",
      "taf": "TAF LQSA 151700Z 1518/1618 VRB02KT CAVOK TX30/1612Z TN17/1604Z"
    },
    {
      "icao": "LQTZ",
      "alert": "OK",
      "vis_m": 9999,
      "fzfg": false,
      "metar_trigger": false,
      "taf_trigger": false,
      "metar": "METAR LQTZ 151700Z 03006KT 9999 FEW060 31/19 Q1016",
      "taf": "TAF LQTZ 151700Z 1518/1618 20005KT CAVOK TX32/1614Z TN16/1603Z"
    },
    {
      "icao": "LRBC",
      "alert": "OK",
      "vis_m": 9999,
      "fzfg": false,
      "metar_trigger": false,
      "taf_trigger": false,
      "metar": "METAR LRBC 151700Z 32008KT CAVOK 27/19 Q1017",
      "taf": "TAF LRBC 151400Z 1515/1524 34010KT 9999 FEW045"
    },
    {
      "icao": "LRBS",
      "alert": "OK",
      "vis_m": 9999,
      "fzfg": false,
      "metar_trigger": false,
      "taf_trigger": false,
      "metar": "METAR LRBS 151700Z 28004KT 260V320 9999 FEW060TCU 30/17 Q1016 NOSIG",
      "taf": "TAF LRBS 151100Z 1512/1612 VRB04KT CAVOK"
    },
    {
      "icao": "LRBV",
      "alert": "OK",
      "vis_m": 9999,
      "fzfg": false,
      "metar_trigger": false,
      "taf_trigger": false,
      "metar": "METAR LRBV 151700Z 09005KT CAVOK 24/16 Q1019",
      "taf": "TAF LRBV 151400Z 1515/1524 VRB04KT 9999 SCT050"
    },
    {
      "icao": "LRCL",
      "alert": "OK",
      "vis_m": 9999,
      "fzfg": false,
      "metar_trigger": false,
      "taf_trigger": false,
      "metar": "METAR LRCL 151700Z 28004KT 250V320 CAVOK 24/17 Q1018",
      "taf": "TAF LRCL 151400Z 1515/1524 26010KT 9999 SCT045"
    },
    {
      "icao": "LRCV",
      "alert": "OK",
      "vis_m": 9999,
      "fzfg": false,
      "metar_trigger": false,
      "taf_trigger": false,
      "metar": "METAR LRCV 151700Z 32009KT 300V360 9999 -SHRA FEW036 SCT050CB 27/18 Q1017",
      "taf": "TAF LRCV 151400Z 1515/1524 VRB04KT CAVOK"
    },
    {
      "icao": "LRIA",
      "alert": "OK",
      "vis_m": 9999,
      "fzfg": false,
      "metar_trigger": false,
      "taf_trigger": false,
      "metar": "METAR LRIA 151700Z 32007KT CAVOK 27/15 Q1016",
      "taf": "TAF LRIA 151400Z 1515/1524 34010KT 9999 SCT045"
    },
    {
      "icao": "LROP",
      "alert": "OK",
      "vis_m": 9999,
      "fzfg": false,
      "metar_trigger": false,
      "taf_trigger": false,
      "metar": "METAR LROP 151700Z 30004KT 270V340 CAVOK 27/18 Q1016 NOSIG",
      "taf": "TAF LROP 151100Z 1512/1612 VRB04KT CAVOK"
    },
    {
      "icao": "LRSB",
      "alert": "OK",
      "vis_m": 9999,
      "fzfg": false,
      "metar_trigger": false,
      "taf_trigger": false,
      "metar": "METAR LRSB 151700Z 25010KT 9999 -SHRA FEW044CB SCT050 BKN075 19/18 Q1019",
      "taf": "TAF LRSB 151100Z 1512/1612 VRB04KT 9999 SCT045"
    },
    {
      "icao": "LRSM",
      "alert": "OK",
      "vis_m": 9999,
      "fzfg": false,
      "metar_trigger": false,
      "taf_trigger": false,
      "metar": "METAR LRSM 151700Z AUTO 03005KT 9999 BKN120/// 28/17 Q1017",
      "taf": "TAF LRSM 151400Z 1515/1524 35010KT CAVOK"
    },
    {
      "icao": "LRSV",
      "alert": "OK",
      "vis_m": 9999,
      "fzfg": false,
      "metar_trigger": false,
      "taf_trigger": false,
      "metar": "METAR LRSV 151700Z 31010KT 9999 FEW049 24/16 Q1018",
      "taf": "TAF LRSV 151400Z 1515/1524 32006KT 9999 SCT045"
    },
    {
      "icao": "LRTM",
      "alert": "OK",
      "vis_m": 9999,
      "fzfg": false,
      "metar_trigger": false,
      "taf_trigger": false,
      "metar": "METAR LRTM 151700Z 27006KT 240V300 CAVOK 24/19 Q1018",
      "taf": "TAF LRTM 151400Z 1515/1524 VRB04KT 9999 SCT045"
    },
    {
      "icao": "LRTR",
      "alert": "OK",
      "vis_m": 9999,
      "fzfg": false,
      "metar_trigger": false,
      "taf_trigger": false,
      "metar": "METAR LRTR 151700Z 36004KT CAVOK 31/14 Q1016",
      "taf": "TAF LRTR 151100Z 1512/1612 36007KT CAVOK"
    },
    {
      "icao": "LTAC",
      "alert": "OK",
      "vis_m": 9999,
      "fzfg": false,
      "metar_trigger": false,
      "taf_trigger": false,
      "metar": "METAR LTAC 151650Z 07009KT 9999 SCT040 26/08 Q1016 NOSIG RMK RWY21C 06009KT 020V080 RWY03L 07008KT RWY21R 04009KT RWY03R 05007KT RWY21L 05008KT",
      "taf": "TAF LTAC 151640Z 1518/1618 VRB02KT CAVOK"
    },
    {
      "icao": "LTFM",
      "alert": "OK",
      "vis_m": 9999,
      "fzfg": false,
      "metar_trigger": false,
      "taf_trigger": false,
      "metar": "METAR LTFM 151650Z 04009KT 360V060 CAVOK 25/20 Q1016 NOSIG RMK RWY17L 05008KT RWY34L 04008KT RWY16R 04008KT RWY36 05010KT RWY18 05008KT 020V080",
      "taf": "TAF LTFM 151640Z 1518/1624 04012KT CAVOK"
    },
    {
      "icao": "LUKK",
      "alert": "OK",
      "vis_m": 9999,
      "fzfg": false,
      "metar_trigger": false,
      "taf_trigger": false,
      "metar": "METAR LUKK 151700Z 35005KT CAVOK 28/16 Q1015 NOSIG",
      "taf": "TAF LUKK 151102Z 1512/1612 35012KT CAVOK"
    },
    {
      "icao": "LWOH",
      "alert": "OK",
      "vis_m": 9999,
      "fzfg": false,
      "metar_trigger": false,
      "taf_trigger": false,
      "metar": "METAR LWOH 151650Z 25005KT 190V300 9999 FEW035 SCT085 31/16 Q1018",
      "taf": "TAF LWOH 151715Z 1518/1618 34005KT 9999 FEW040 SCT080"
    },
    {
      "icao": "LWSK",
      "alert": "OK",
      "vis_m": 9999,
      "fzfg": false,
      "metar_trigger": false,
      "taf_trigger": false,
      "metar": "METAR LWSK 151650Z 17005KT 130V200 9999 FEW040TCU BKN090 31/16 Q1015 NOSIG",
      "taf": "TAF LWSK 151715Z 1518/1618 VRB02KT 9999 FEW050 SCT090"
    },
    {
      "icao": "LYBE",
      "alert": "OK",
      "vis_m": 9999,
      "fzfg": false,
      "metar_trigger": false,
      "taf_trigger": false,
      "metar": "METAR LYBE 151700Z 06003KT 010V090 CAVOK 32/16 Q1015 NOSIG",
      "taf": "TAF LYBE 151100Z 1512/1612 36005KT CAVOK TX33/1514Z TN21/1603Z"
    },
    {
      "icao": "LYNI",
      "alert": "OK",
      "vis_m": 9999,
      "fzfg": false,
      "metar_trigger": false,
      "taf_trigger": false,
      "metar": "METAR LYNI 151700Z 33005KT CAVOK 32/15 Q1015 NOSIG",
      "taf": "TAF LYNI 151100Z 1512/1612 32005KT 9999 SCT050 TX34/1514Z TN18/1603Z"
    },
    {
      "icao": "LYPG",
      "alert": "OK",
      "vis_m": 9999,
      "fzfg": false,
      "metar_trigger": false,
      "taf_trigger": false,
      "metar": "METAR LYPG 151700Z 05006KT 020V080 9999 SCT050 32/17 Q1014 NOSIG",
      "taf": "TAF LYPG 151100Z 1512/1612 18008KT 9999 FEW050 TX36/1513Z TN24/1603Z"
    },
    {
      "icao": "LZIB",
      "alert": "OK",
      "vis_m": 9999,
      "fzfg": false,
      "metar_trigger": false,
      "taf_trigger": false,
      "metar": "METAR LZIB 151700Z 08004KT 040V130 CAVOK 29/17 Q1016 NOSIG",
      "taf": "TAF LZIB 151715Z 1518/1618 08004KT CAVOK"
    },
    {
      "icao": "LZKZ",
      "alert": "OK",
      "vis_m": 9999,
      "fzfg": false,
      "metar_trigger": false,
      "taf_trigger": false,
      "metar": "METAR LZKZ 151700Z 01006KT CAVOK 24/17 Q1018 NOSIG",
      "taf": "TAF LZKZ 151715Z 1518/1618 02007KT CAVOK"
    },
    {
      "icao": "LZTT",
      "alert": "OK",
      "vis_m": 9999,
      "fzfg": false,
      "metar_trigger": false,
      "taf_trigger": false,
      "metar": "METAR LZTT 151700Z 05010KT 9999 FEW020 BKN033 20/17 Q1021 TEMPO SHRA FEW030TCU",
      "taf": "TAF LZTT 151715Z 1518/1618 27004KT 9999 FEW020"
    },
    {
      "icao": "OEJN",
      "alert": "OK",
      "vis_m": 9999,
      "fzfg": false,
      "metar_trigger": false,
      "taf_trigger": false,
      "metar": "METAR OEJN 151700Z 32010KT CAVOK 37/08 Q1004 NOSIG",
      "taf": "TAF OEJN 151700Z 1518/1624 35007KT CAVOK"
    },
    {
      "icao": "OEMA",
      "alert": "OK",
      "vis_m": 9999,
      "fzfg": false,
      "metar_trigger": false,
      "taf_trigger": false,
      "metar": "METAR OEMA 151700Z 28008KT 9999 SCT040 42/06 Q1008 NOSIG",
      "taf": "TAF OEMA 151700Z 1518/1624 34010KT CAVOK"
    },
    {
      "icao": "OJAI",
      "alert": "OK",
      "vis_m": 5000,
      "fzfg": false,
      "metar_trigger": false,
      "taf_trigger": false,
      "metar": "METAR OJAI 151700Z 30010KT 5000 DU NSC 30/14 Q1012 NOSIG",
      "taf": "TAF OJAI 151700Z 1518/1624 27008KT 5000 HZ NSC"
    },
    {
      "icao": "OMAA",
      "alert": "OK",
      "vis_m": 8000,
      "fzfg": false,
      "metar_trigger": false,
      "taf_trigger": false,
      "metar": "METAR OMAA 151700Z 35008KT 8000 NSC 36/28 Q0996 NOSIG",
      "taf": "TAF OMAA 151700Z 1518/1700 36010KT 8000 NSC"
    },
    {
      "icao": "OMDB",
      "alert": "OK",
      "vis_m": 9000,
      "fzfg": false,
      "metar_trigger": false,
      "taf_trigger": false,
      "metar": "METAR OMDB 151700Z 09006KT 050V130 9000 NSC 41/15 Q0996 NOSIG",
      "taf": "TAF OMDB 151700Z 1518/1700 09012KT 8000 NSC"
    },
    {
      "icao": "UAAA",
      "alert": "OK",
      "vis_m": 9999,
      "fzfg": false,
      "metar_trigger": false,
      "taf_trigger": false,
      "metar": "METAR UAAA 151700Z 17003MPS 9999 BKN100 28/09 Q1008 NOSIG",
      "taf": "TAF UAAA 151102Z 1512/1612 04003MPS 9999 FEW050CB SCT100 TX38/1610Z TN20/1601Z"
    },
    {
      "icao": "UBBB",
      "alert": "OK",
      "vis_m": 9999,
      "fzfg": false,
      "metar_trigger": false,
      "taf_trigger": false,
      "metar": "METAR UBBB 151700Z 33023G33KT CAVOK 26/22 Q1008 NOSIG",
      "taf": "TAF UBBB 151656Z 1518/1618 33022G32KT 9999 SCT015 TX29/1610Z TN23/1601Z"
    },
    {
      "icao": "UDSG",
      "alert": "OK",
      "vis_m": 9999,
      "fzfg": false,
      "metar_trigger": false,
      "taf_trigger": false,
      "metar": "METAR UDSG 151700Z 36009KT 9999 FEW049 21/14 Q1018 NOSIG",
      "taf": "TAF UDSG 151100Z 1512/1612 33006KT 9999 FEW050"
    },
    {
      "icao": "UDYZ",
      "alert": "OK",
      "vis_m": 9999,
      "fzfg": false,
      "metar_trigger": false,
      "taf_trigger": false,
      "metar": "METAR UDYZ 151700Z 03022KT 9999 NSC 30/15 Q1009 TEMPO 04026G36KT",
      "taf": "TAF UDYZ 151100Z 1512/1612 04006KT 9999 FEW040"
    },
    {
      "icao": "UGKO",
      "alert": "OK",
      "vis_m": 9999,
      "fzfg": false,
      "metar_trigger": false,
      "taf_trigger": false,
      "metar": "METAR UGKO 151700Z 29006KT 9999 SCT032 23/20 Q1014 NOSIG",
      "taf": "TAF UGKO 151700Z 1518/1618 26006KT 9999 SCT030 BKN070 TX28/1612Z TN19/1602Z"
    }
  ]
}