{
  "ts_utc": "2026-03-06T11:05:17Z",
  "threshold_m": 150,
  "source": "stations_override.txt (ICAO list) + aviationweather.gov (METAR/TAF raw)",
  "station_count": 159,
  "stations": [
    {
      "icao": "BIKF",
      "alert": "OK",
      "vis_m": 9999,
      "fzfg": false,
      "metar_trigger": false,
      "taf_trigger": false,
      "metar": "METAR BIKF 061100Z 14026G37KT 9999 SCT021 BKN032 04/01 Q0979",
      "taf": "TAF BIKF 061053Z 0612/0712 15025KT 9999 -RA BKN014 OVC022 TX05/0612Z TN01/0624Z"
    },
    {
      "icao": "BKPR",
      "alert": "WARNING",
      "vis_m": 9999,
      "fzfg": true,
      "metar_trigger": false,
      "taf_trigger": true,
      "metar": "METAR BKPR 061100Z VRB02KT CAVOK 12/05 Q1026 NOSIG",
      "taf": "TAF BKPR 060530Z 0606/0706 VRB05KT 0150 FZFG BKN002"
    },
    {
      "icao": "EBCI",
      "alert": "OK",
      "vis_m": 9999,
      "fzfg": false,
      "metar_trigger": false,
      "taf_trigger": false,
      "metar": "METAR EBCI 061050Z VRB02KT CAVOK 16/05 Q1021 NOSIG",
      "taf": "TAF EBCI 060500Z 0606/0712 18004KT CAVOK"
    },
    {
      "icao": "EDDB",
      "alert": "OK",
      "vis_m": 9999,
      "fzfg": false,
      "metar_trigger": false,
      "taf_trigger": false,
      "metar": "METAR EDDB 061050Z AUTO 14007KT CAVOK 14/01 Q1025 NOSIG",
      "taf": "TAF EDDB 060500Z 0606/0706 11005KT CAVOK"
    },
    {
      "icao": "EDDH",
      "alert": "OK",
      "vis_m": 9999,
      "fzfg": false,
      "metar_trigger": false,
      "taf_trigger": false,
      "metar": "METAR EDDH 061050Z AUTO 14005KT 100V170 CAVOK 14/02 Q1023 NOSIG",
      "taf": "TAF EDDH 060500Z 0606/0712 13004KT CAVOK"
    },
    {
      "icao": "EDDK",
      "alert": "OK",
      "vis_m": 9999,
      "fzfg": false,
      "metar_trigger": false,
      "taf_trigger": false,
      "metar": "METAR EDDK 061050Z AUTO 16007KT 120V180 CAVOK 15/04 Q1022 NOSIG",
      "taf": "TAF EDDK 060500Z 0606/0712 12005KT CAVOK"
    },
    {
      "icao": "EDDN",
      "alert": "OK",
      "vis_m": 9999,
      "fzfg": false,
      "metar_trigger": false,
      "taf_trigger": false,
      "metar": "METAR EDDN 061050Z AUTO 13005KT 070V190 CAVOK 13/03 Q1022 NOSIG",
      "taf": "TAF EDDN 060500Z 0606/0706 10004KT CAVOK"
    },
    {
      "icao": "EDDS",
      "alert": "OK",
      "vis_m": 9999,
      "fzfg": false,
      "metar_trigger": false,
      "taf_trigger": false,
      "metar": "METAR EDDS 061050Z AUTO VRB02KT CAVOK 12/05 Q1021 NOSIG",
      "taf": "TAF EDDS 060500Z 0606/0706 VRB03KT 4000 BR NSC"
    },
    {
      "icao": "EDFH",
      "alert": "OK",
      "vis_m": 9999,
      "fzfg": false,
      "metar_trigger": false,
      "taf_trigger": false,
      "metar": "METAR EDFH 061050Z 13008KT CAVOK 11/04 Q1022",
      "taf": "TAF EDFH 060500Z 0606/0706 13010KT CAVOK"
    },
    {
      "icao": "EDJA",
      "alert": "OK",
      "vis_m": 9999,
      "fzfg": false,
      "metar_trigger": false,
      "taf_trigger": false,
      "metar": "METAR EDJA 061050Z 01005KT 330V040 CAVOK 13/04 Q1021",
      "taf": "TAF EDJA 060800Z 0609/0618 07005KT CAVOK"
    },
    {
      "icao": "EDLW",
      "alert": "OK",
      "vis_m": 9999,
      "fzfg": false,
      "metar_trigger": false,
      "taf_trigger": false,
      "metar": "METAR EDLW 061050Z VRB03KT CAVOK 16/05 Q1021",
      "taf": ""
    },
    {
      "icao": "EDNY",
      "alert": "OK",
      "vis_m": 9000,
      "fzfg": false,
      "metar_trigger": false,
      "taf_trigger": false,
      "metar": "METAR EDNY 061050Z VRB02KT 9000 SCT029 09/05 Q1022",
      "taf": ""
    },
    {
      "icao": "EDSB",
      "alert": "OK",
      "vis_m": 9999,
      "fzfg": false,
      "metar_trigger": false,
      "taf_trigger": false,
      "metar": "METAR EDSB 061050Z 33003KT 310V010 CAVOK 10/05 Q1022",
      "taf": "TAF EDSB 060500Z 0606/0706 VRB03KT CAVOK"
    },
    {
      "icao": "EETN",
      "alert": "OK",
      "vis_m": 9999,
      "fzfg": false,
      "metar_trigger": false,
      "taf_trigger": false,
      "metar": "METAR EETN 061050Z 23009KT CAVOK 07/M00 Q1021 NOSIG",
      "taf": "TAF EETN 060530Z 0606/0706 20008KT CAVOK"
    },
    {
      "icao": "EFTU",
      "alert": "OK",
      "vis_m": 9999,
      "fzfg": false,
      "metar_trigger": false,
      "taf_trigger": false,
      "metar": "METAR EFTU 061050Z AUTO 23008KT CAVOK 06/M01 Q1019",
      "taf": "TAF EFTU 060833Z 0609/0709 22008KT CAVOK"
    },
    {
      "icao": "EGBB",
      "alert": "OK",
      "vis_m": 9999,
      "fzfg": false,
      "metar_trigger": false,
      "taf_trigger": false,
      "metar": "METAR EGBB 061050Z 35005KT 9999 OVC007 06/05 Q1023",
      "taf": ""
    },
    {
      "icao": "EGGP",
      "alert": "OK",
      "vis_m": 9999,
      "fzfg": false,
      "metar_trigger": false,
      "taf_trigger": false,
      "metar": "METAR EGGP 061050Z 32006KT 9999 -DZ BKN009 BKN015 06/04 Q1024",
      "taf": ""
    },
    {
      "icao": "EGGW",
      "alert": "OK",
      "vis_m": 6000,
      "fzfg": false,
      "metar_trigger": false,
      "taf_trigger": false,
      "metar": "METAR EGGW 061050Z AUTO 33010KT 6000 OVC005 07/06 Q1021",
      "taf": "TAF EGGW 060456Z 0606/0706 33006KT 9999 FEW040"
    },
    {
      "icao": "EGKK",
      "alert": "OK",
      "vis_m": 4000,
      "fzfg": false,
      "metar_trigger": false,
      "taf_trigger": false,
      "metar": "METAR EGKK 061050Z 32007KT 280V340 4000 BR BKN006 09/08 Q1021",
      "taf": ""
    },
    {
      "icao": "EGNM",
      "alert": "OK",
      "vis_m": 9999,
      "fzfg": false,
      "metar_trigger": false,
      "taf_trigger": false,
      "metar": "METAR EGNM 061050Z 36011KT 9999 BKN008 04/02 Q1022",
      "taf": "TAF EGNM 060455Z 0606/0706 02012KT 9999 SCT008"
    },
    {
      "icao": "EGPD",
      "alert": "OK",
      "vis_m": 9999,
      "fzfg": false,
      "metar_trigger": false,
      "taf_trigger": false,
      "metar": "METAR EGPD 061050Z COR AUTO 31008KT 9999 OVC049 05/01 Q1024 NOSIG",
      "taf": "TAF EGPD 060455Z 0606/0706 30006KT 9999 FEW035"
    },
    {
      "icao": "EGPF",
      "alert": "OK",
      "vis_m": 9999,
      "fzfg": false,
      "metar_trigger": false,
      "taf_trigger": false,
      "metar": "METAR EGPF 061050Z AUTO VRB02KT 9999 NCD 05/03 Q1026",
      "taf": ""
    },
    {
      "icao": "EHBK",
      "alert": "OK",
      "vis_m": 9999,
      "fzfg": false,
      "metar_trigger": false,
      "taf_trigger": false,
      "metar": "METAR EHBK 061055Z AUTO 09003KT 030V140 9999 NCD 16/05 Q1021 NOSIG",
      "taf": "TAF EHBK 060457Z 0606/0712 14003KT CAVOK"
    },
    {
      "icao": "EHEH",
      "alert": "OK",
      "vis_m": 9999,
      "fzfg": false,
      "metar_trigger": false,
      "taf_trigger": false,
      "metar": "METAR EHEH 061055Z AUTO 17004KT 130V230 9999 NCD 16/06 Q1021 BLU NOSIG RMK TREND REMOTE BY EHWX",
      "taf": "TAF EHEH 060503Z 0606/0712 15002KT CAVOK"
    },
    {
      "icao": "EKBI",
      "alert": "OK",
      "vis_m": 9999,
      "fzfg": false,
      "metar_trigger": false,
      "taf_trigger": false,
      "metar": "METAR EKBI 061050Z AUTO 17005KT 130V200 9999 NCD 11/02 Q1022",
      "taf": "TAF EKBI 060827Z 0609/0709 14006KT CAVOK"
    },
    {
      "icao": "EKCH",
      "alert": "OK",
      "vis_m": 9999,
      "fzfg": false,
      "metar_trigger": false,
      "taf_trigger": false,
      "metar": "METAR EKCH 061050Z AUTO 15008KT 9999 NCD 08/M01 Q1025 NOSIG",
      "taf": "TAF EKCH 060827Z 0609/0709 14007KT CAVOK"
    },
    {
      "icao": "ENAL",
      "alert": "OK",
      "vis_m": 9999,
      "fzfg": false,
      "metar_trigger": false,
      "taf_trigger": false,
      "metar": "METAR ENAL 061050Z 15008KT 9999 FEW029 04/03 Q1022",
      "taf": "TAF ENAL 060800Z 0609/0618 17008KT 9999 -RA FEW010 BKN040"
    },
    {
      "icao": "ENBR",
      "alert": "OK",
      "vis_m": 4800,
      "fzfg": false,
      "metar_trigger": false,
      "taf_trigger": false,
      "metar": "METAR ENBR 061050Z 16005KT 4800 -RA BR FEW006 SCT007 BKN009 05/04 Q1021 TEMPO 2000 DZRA BR BKN004 RMK WIND 1200FT 19006KT",
      "taf": "TAF ENBR 060500Z 0606/0706 20008KT 7000 -RADZ SCT007 BKN015"
    },
    {
      "icao": "ENGM",
      "alert": "OK",
      "vis_m": 250,
      "fzfg": true,
      "metar_trigger": false,
      "taf_trigger": false,
      "metar": "METAR ENGM 061050Z 19004KT 160V230 0250 R19R/0300N R01R/0250N R19L/0350N R01L/0450N FZFG VV002 M01/M01 Q1021 BECMG FG",
      "taf": ""
    },
    {
      "icao": "ENHD",
      "alert": "OK",
      "vis_m": 9999,
      "fzfg": false,
      "metar_trigger": false,
      "taf_trigger": false,
      "metar": "METAR ENHD 061050Z 20009KT 9999 OVC019 06/03 Q1021",
      "taf": ""
    },
    {
      "icao": "ENTC",
      "alert": "OK",
      "vis_m": 9999,
      "fzfg": false,
      "metar_trigger": false,
      "taf_trigger": false,
      "metar": "METAR ENTC 061050Z 23018KT 9999 -SHRASN SCT017CB BKN026 01/M01 Q1004 TEMPO 24018G28KT 4000 SHRASN BKN008 SCT020CB RMK WIND 2600FT 26038G52KT",
      "taf": "TAF ENTC 060500Z 0606/0706 20018KT 9999 -SHRA SCT015 BKN030"
    },
    {
      "icao": "ENTO",
      "alert": "OK",
      "vis_m": 9999,
      "fzfg": false,
      "metar_trigger": false,
      "taf_trigger": false,
      "metar": "METAR ENTO 061050Z 20003KT CAVOK 07/03 Q1023 NOSIG",
      "taf": ""
    },
    {
      "icao": "ENVA",
      "alert": "OK",
      "vis_m": 9999,
      "fzfg": false,
      "metar_trigger": false,
      "taf_trigger": false,
      "metar": "METAR ENVA 061050Z 25011KT 9999 SCT017 BKN024 05/03 Q1021 NOSIG RMK WIND 670FT 26013KT",
      "taf": ""
    },
    {
      "icao": "ENZV",
      "alert": "OK",
      "vis_m": 9999,
      "fzfg": false,
      "metar_trigger": false,
      "taf_trigger": false,
      "metar": "METAR ENZV 061050Z VRB02KT CAVOK 08/04 Q1021 NOSIG",
      "taf": "TAF ENZV 060500Z 0606/0706 14008KT 9999 BKN025"
    },
    {
      "icao": "EPGD",
      "alert": "OK",
      "vis_m": 9999,
      "fzfg": false,
      "metar_trigger": false,
      "taf_trigger": false,
      "metar": "METAR EPGD 061100Z 26003KT 220V320 CAVOK 12/M07 Q1027",
      "taf": "TAF EPGD 060530Z 0606/0706 VRB04KT CAVOK"
    },
    {
      "icao": "EPKK",
      "alert": "OK",
      "vis_m": 9999,
      "fzfg": false,
      "metar_trigger": false,
      "taf_trigger": false,
      "metar": "METAR EPKK 061100Z 09006KT 050V110 CAVOK 12/M03 Q1027",
      "taf": "TAF EPKK 060830Z 0609/0709 08004KT CAVOK"
    },
    {
      "icao": "EPKT",
      "alert": "OK",
      "vis_m": 9999,
      "fzfg": false,
      "metar_trigger": false,
      "taf_trigger": false,
      "metar": "METAR EPKT 061100Z 11004KT 050V150 CAVOK 13/M05 Q1027",
      "taf": "TAF EPKT 060530Z 0606/0706 08003KT 8000 NSC"
    },
    {
      "icao": "EPLB",
      "alert": "OK",
      "vis_m": 9999,
      "fzfg": false,
      "metar_trigger": false,
      "taf_trigger": false,
      "metar": "METAR EPLB 061100Z 33008KT CAVOK 09/M00 Q1027",
      "taf": "TAF EPLB 060530Z 0606/0706 30004KT CAVOK"
    },
    {
      "icao": "EPMO",
      "alert": "OK",
      "vis_m": 9999,
      "fzfg": false,
      "metar_trigger": false,
      "taf_trigger": false,
      "metar": "METAR EPMO 061100Z 29005KT 240V340 CAVOK 10/02 Q1028",
      "taf": "TAF EPMO 060530Z 0606/0706 VRB03KT 2500 BR NSC"
    },
    {
      "icao": "EPPO",
      "alert": "OK",
      "vis_m": 9999,
      "fzfg": false,
      "metar_trigger": false,
      "taf_trigger": false,
      "metar": "METAR EPPO 061100Z 13008KT CAVOK 12/M01 Q1027",
      "taf": "TAF EPPO 060530Z 0606/0706 10004KT 4000 BR NSC"
    },
    {
      "icao": "EPRA",
      "alert": "OK",
      "vis_m": 9999,
      "fzfg": false,
      "metar_trigger": false,
      "taf_trigger": false,
      "metar": "METAR EPRA 061100Z VRB04KT CAVOK 09/M02 Q1028",
      "taf": "TAF EPRA 060830Z 0609/0618 VRB02KT CAVOK"
    },
    {
      "icao": "EPRZ",
      "alert": "OK",
      "vis_m": 9999,
      "fzfg": false,
      "metar_trigger": false,
      "taf_trigger": false,
      "metar": "METAR EPRZ 061100Z VRB04KT CAVOK 11/M01 Q1027",
      "taf": "TAF EPRZ 060530Z 0606/0706 23004KT 7000 NSC"
    },
    {
      "icao": "EPSC",
      "alert": "OK",
      "vis_m": 9999,
      "fzfg": false,
      "metar_trigger": false,
      "taf_trigger": false,
      "metar": "METAR EPSC 061100Z 14012KT CAVOK 11/M01 Q1026",
      "taf": "TAF EPSC 060530Z 0606/0706 12005KT CAVOK"
    },
    {
      "icao": "EPSY",
      "alert": "OK",
      "vis_m": 9999,
      "fzfg": false,
      "metar_trigger": false,
      "taf_trigger": false,
      "metar": "METAR EPSY 061100Z VRB02KT CAVOK 09/M02 Q1027",
      "taf": "TAF EPSY 060830Z 0609/0618 28005KT CAVOK"
    },
    {
      "icao": "EPWA",
      "alert": "OK",
      "vis_m": 9999,
      "fzfg": false,
      "metar_trigger": false,
      "taf_trigger": false,
      "metar": "METAR EPWA 061100Z VRB04KT CAVOK 10/M01 Q1028 NOSIG",
      "taf": "TAF EPWA 060830Z 0609/0709 VRB03KT CAVOK"
    },
    {
      "icao": "EPWR",
      "alert": "OK",
      "vis_m": 9999,
      "fzfg": false,
      "metar_trigger": false,
      "taf_trigger": false,
      "metar": "METAR EPWR 061100Z 14011KT CAVOK 12/01 Q1027",
      "taf": "TAF EPWR 060830Z 0609/0709 12006KT CAVOK"
    },
    {
      "icao": "ESGG",
      "alert": "OK",
      "vis_m": 9999,
      "fzfg": false,
      "metar_trigger": false,
      "taf_trigger": false,
      "metar": "METAR ESGG 061050Z 18009KT CAVOK 09/00 Q1023",
      "taf": "TAF ESGG 060830Z 0609/0709 15007KT CAVOK"
    },
    {
      "icao": "ESKN",
      "alert": "OK",
      "vis_m": 9999,
      "fzfg": false,
      "metar_trigger": false,
      "taf_trigger": false,
      "metar": "METAR ESKN 061050Z 23006KT CAVOK 10/M01 Q1022",
      "taf": "TAF ESKN 060830Z 0609/0709 27007KT CAVOK"
    },
    {
      "icao": "ESMS",
      "alert": "OK",
      "vis_m": 9999,
      "fzfg": false,
      "metar_trigger": false,
      "taf_trigger": false,
      "metar": "METAR ESMS 061050Z 14008KT CAVOK 09/01 Q1025",
      "taf": "TAF ESMS 060827Z 0609/0709 13005KT CAVOK"
    },
    {
      "icao": "ESSA",
      "alert": "OK",
      "vis_m": 9999,
      "fzfg": false,
      "metar_trigger": false,
      "taf_trigger": false,
      "metar": "METAR ESSA 061050Z 24011KT CAVOK 07/02 Q1021 NOSIG",
      "taf": "TAF ESSA 060830Z 0609/0709 24008KT CAVOK"
    },
    {
      "icao": "EYKA",
      "alert": "OK",
      "vis_m": 6000,
      "fzfg": false,
      "metar_trigger": false,
      "taf_trigger": false,
      "metar": "METAR EYKA 061050Z 22004KT 180V240 6000 OVC003 M00/M01 Q1027",
      "taf": "TAF EYKA 061100Z 0612/0712 VRB04KT 5000 BR BKN003"
    },
    {
      "icao": "EYPA",
      "alert": "OK",
      "vis_m": 4900,
      "fzfg": false,
      "metar_trigger": false,
      "taf_trigger": false,
      "metar": "METAR EYPA 061050Z 17006KT 4900 BR OVC003 02/02 Q1027",
      "taf": "TAF EYPA 061100Z 0612/0712 VRB04KT 5000 BR BKN002"
    },
    {
      "icao": "EYVI",
      "alert": "OK",
      "vis_m": 9999,
      "fzfg": false,
      "metar_trigger": false,
      "taf_trigger": false,
      "metar": "METAR EYVI 061050Z VRB02KT CAVOK 04/M00 Q1026 NOSIG",
      "taf": "TAF EYVI 061100Z 0612/0712 VRB04KT 8000 NSC"
    },
    {
      "icao": "GCFV",
      "alert": "OK",
      "vis_m": 9999,
      "fzfg": false,
      "metar_trigger": false,
      "taf_trigger": false,
      "metar": "METAR GCFV 061030Z 02023KT 9999 FEW020 SCT040 19/12 Q1022",
      "taf": "TAF GCFV 060800Z 0609/0709 03020KT 9999 SCT025 TX20/0614Z TN14/0706Z"
    },
    {
      "icao": "GCLP",
      "alert": "OK",
      "vis_m": 9999,
      "fzfg": false,
      "metar_trigger": false,
      "taf_trigger": false,
      "metar": "METAR GCLP 061030Z 03026KT 9999 SCT030 19/13 Q1023 NOSIG",
      "taf": "TAF GCLP 060800Z 0609/0709 03022KT 9999 SCT030 TX18/0614Z TN14/0706Z"
    },
    {
      "icao": "GCTS",
      "alert": "OK",
      "vis_m": 9999,
      "fzfg": false,
      "metar_trigger": false,
      "taf_trigger": false,
      "metar": "METAR GCTS 061030Z 07025KT 9999 BKN040 19/08 Q1023 NOSIG",
      "taf": ""
    },
    {
      "icao": "GMAD",
      "alert": "OK",
      "vis_m": 8000,
      "fzfg": false,
      "metar_trigger": false,
      "taf_trigger": false,
      "metar": "METAR GMAD 061100Z 32004KT 240V030 8000 SCT020 18/15 Q1019 NOSIG",
      "taf": "TAF GMAD 060500Z 0606/0712 12005KT 8000 SCT020"
    },
    {
      "icao": "GMMN",
      "alert": "OK",
      "vis_m": 9999,
      "fzfg": false,
      "metar_trigger": false,
      "taf_trigger": false,
      "metar": "METAR GMMN 061100Z 33012KT 300V360 9999 BKN026 14/09 Q1022 NOSIG",
      "taf": "TAF GMMN 060500Z 0606/0712 28004KT 9999 BKN016"
    },
    {
      "icao": "GMMX",
      "alert": "OK",
      "vis_m": 9999,
      "fzfg": false,
      "metar_trigger": false,
      "taf_trigger": false,
      "metar": "METAR GMMX 061100Z 03006KT 340V060 9999 FEW013 BKN020 13/09 Q1022 NOSIG",
      "taf": "TAF GMMX 060500Z 0606/0712 24006KT 8000 SCT026"
    },
    {
      "icao": "HEGN",
      "alert": "OK",
      "vis_m": 9999,
      "fzfg": false,
      "metar_trigger": false,
      "taf_trigger": false,
      "metar": "METAR HEGN 061000Z 36015KT CAVOK 21/08 Q1017 NOSIG",
      "taf": "TAF HEGN 061100Z 0612/0718 36008G20KT CAVOK"
    },
    {
      "icao": "HEMA",
      "alert": "OK",
      "vis_m": 9999,
      "fzfg": false,
      "metar_trigger": false,
      "taf_trigger": false,
      "metar": "METAR HEMA 061000Z 34019KT CAVOK 24/07 Q1016 NOSIG",
      "taf": "TAF HEMA 061100Z 0612/0718 36006G18KT CAVOK"
    },
    {
      "icao": "HESH",
      "alert": "OK",
      "vis_m": 9999,
      "fzfg": false,
      "metar_trigger": false,
      "taf_trigger": false,
      "metar": "METAR HESH 061000Z 01012KT CAVOK 24/10 Q1017 NOSIG",
      "taf": "TAF HESH 061100Z 0612/0718 12008KT CAVOK"
    },
    {
      "icao": "HESX",
      "alert": "OK",
      "vis_m": 9999,
      "fzfg": false,
      "metar_trigger": false,
      "taf_trigger": false,
      "metar": "METAR HESX 061000Z 01012KT CAVOK 18/08 Q1020 NOSIG",
      "taf": "TAF HESX 061100Z 0612/0718 35012KT 9999 SCT025"
    },
    {
      "icao": "LATI",
      "alert": "OK",
      "vis_m": 9999,
      "fzfg": false,
      "metar_trigger": false,
      "taf_trigger": false,
      "metar": "METAR LATI 061050Z VRB02KT CAVOK 19/M01 Q1023 NOSIG",
      "taf": "TAF LATI 061100Z 0612/0712 VRB04KT CAVOK TX21/0712Z TN04/0705Z"
    },
    {
      "icao": "LBPD",
      "alert": "OK",
      "vis_m": 9999,
      "fzfg": false,
      "metar_trigger": false,
      "taf_trigger": false,
      "metar": "METAR LBPD 061100Z AUTO 31009KT 9999 NCD 17/01 Q1023 NOSIG",
      "taf": "TAF LBPD 060500Z 0606/0706 VRB03KT CAVOK"
    },
    {
      "icao": "LBSF",
      "alert": "OK",
      "vis_m": 9999,
      "fzfg": false,
      "metar_trigger": false,
      "taf_trigger": false,
      "metar": "METAR LBSF 061100Z 31005KT 250V360 CAVOK 12/04 Q1024 NOSIG",
      "taf": "TAF LBSF 060500Z 0606/0706 VRB03KT 3000 BR BKN010"
    },
    {
      "icao": "LBWN",
      "alert": "OK",
      "vis_m": 9999,
      "fzfg": false,
      "metar_trigger": false,
      "taf_trigger": false,
      "metar": "METAR LBWN 061100Z VRB07KT 9999 FEW045 14/01 Q1024 NOSIG",
      "taf": "TAF LBWN 060500Z 0606/0706 VRB03KT 9999 BKN030"
    },
    {
      "icao": "LCLK",
      "alert": "OK",
      "vis_m": 9999,
      "fzfg": false,
      "metar_trigger": false,
      "taf_trigger": false,
      "metar": "METAR LCLK 061100Z 21013KT 9999 FEW025 SCT060 20/12 Q1018 NOSIG",
      "taf": "TAF LCLK 060530Z 0606/0706 31005KT 9999 FEW025"
    },
    {
      "icao": "LCPH",
      "alert": "OK",
      "vis_m": 9999,
      "fzfg": false,
      "metar_trigger": false,
      "taf_trigger": false,
      "metar": "METAR LCPH 061100Z 28008KT 240V320 9999 FEW035TCU SCT045 19/11 Q1019 NOSIG",
      "taf": "TAF LCPH 060530Z 0606/0706 04007KT 9999 FEW030 SCT050"
    },
    {
      "icao": "LEAL",
      "alert": "OK",
      "vis_m": 9999,
      "fzfg": false,
      "metar_trigger": false,
      "taf_trigger": false,
      "metar": "METAR LEAL 061030Z 22005KT 170V280 9999 FEW025 16/11 Q1011 NOSIG",
      "taf": "TAF LEAL 060500Z 0606/0706 27007KT 9999 FEW020 TX15/0613Z TN07/0606Z"
    },
    {
      "icao": "LEBB",
      "alert": "OK",
      "vis_m": 3000,
      "fzfg": false,
      "metar_trigger": false,
      "taf_trigger": false,
      "metar": "METAR LEBB 061030Z 31015KT 280V340 3000 RA SCT007 BKN012 BKN036 11/11 Q1020 TEMPO 6000 NSW",
      "taf": ""
    },
    {
      "icao": "LEBL",
      "alert": "OK",
      "vis_m": 2000,
      "fzfg": false,
      "metar_trigger": false,
      "taf_trigger": false,
      "metar": "SPECI LEBL 061049Z 07019KT 040V100 2000 R24R/1200N R06L/1600N R06R/1000N R24L/1600U BR BKN005 FEW013TCU BKN021 OVC040 14/13 Q1013 NOSIG",
      "taf": ""
    },
    {
      "icao": "LECH",
      "alert": "OK",
      "vis_m": 9999,
      "fzfg": false,
      "metar_trigger": false,
      "taf_trigger": false,
      "metar": "METAR LECH 061030Z AUTO 07008KT 040V100 9999 BKN009 BKN048 OVC070 11/10 Q1012",
      "taf": ""
    },
    {
      "icao": "LEMD",
      "alert": "OK",
      "vis_m": 9999,
      "fzfg": false,
      "metar_trigger": false,
      "taf_trigger": false,
      "metar": "METAR LEMD 061030Z 04004KT 350V100 9999 -RA BKN045 09/08 Q1013 NOSIG",
      "taf": "TAF LEMD 060500Z 0606/0712 04010KT 9999 FEW060 TX14/0613Z TN07/0607Z"
    },
    {
      "icao": "LEMG",
      "alert": "OK",
      "vis_m": 9999,
      "fzfg": false,
      "metar_trigger": false,
      "taf_trigger": false,
      "metar": "METAR LEMG 061030Z 28003KT 9999 SCT050 13/04 Q1014 NOSIG",
      "taf": "TAF LEMG 060500Z 0606/0706 29008KT 9999 FEW035 TX14/0614Z TN09/0607Z"
    },
    {
      "icao": "LEVC",
      "alert": "OK",
      "vis_m": 9999,
      "fzfg": false,
      "metar_trigger": false,
      "taf_trigger": false,
      "metar": "METAR LEVC 061030Z 32014KT 9999 BKN013 FEW020TCU 13/11 Q1010 NOSIG",
      "taf": "TAF LEVC 060500Z 0606/0706 30007KT 9999 BKN015 TX15/0613Z TN10/0606Z"
    },
    {
      "icao": "LEXJ",
      "alert": "OK",
      "vis_m": 9999,
      "fzfg": false,
      "metar_trigger": false,
      "taf_trigger": false,
      "metar": "METAR LEXJ 061030Z 33009G19KT 290V010 9999 BKN016 BKN021 BKN035 10/07 Q1022",
      "taf": "TAF LEXJ 060800Z 0609/0709 30009KT 9000 FEW015 BKN025 TX11/0612Z TN09/0705Z"
    },
    {
      "icao": "LEZG",
      "alert": "OK",
      "vis_m": 5000,
      "fzfg": false,
      "metar_trigger": false,
      "taf_trigger": false,
      "metar": "METAR LEZG 061030Z 31007KT 5000 2000SW RA FEW004 OVC025 11/11 Q1015 NOSIG",
      "taf": "TAF LEZG 060500Z 0606/0706 31009KT 9999 BKN020 TX12/0614Z TN09/0606Z"
    },
    {
      "icao": "LEZL",
      "alert": "OK",
      "vis_m": 9999,
      "fzfg": false,
      "metar_trigger": false,
      "taf_trigger": false,
      "metar": "METAR LEZL 061030Z 29006KT 250V330 9999 OVC035 11/07 Q1014 NOSIG",
      "taf": "TAF LEZL 060800Z 0609/0709 26009KT 9999 SCT020 BKN030 TX15/0615Z TN08/0707Z"
    },
    {
      "icao": "LFBD",
      "alert": "OK",
      "vis_m": 9999,
      "fzfg": false,
      "metar_trigger": false,
      "taf_trigger": false,
      "metar": "METAR LFBD 061100Z AUTO 12005KT 090V150 9999 SCT013 BKN020 OVC035 14/11 Q1019 TEMPO BKN006",
      "taf": ""
    },
    {
      "icao": "LFLL",
      "alert": "OK",
      "vis_m": 9999,
      "fzfg": false,
      "metar_trigger": false,
      "taf_trigger": false,
      "metar": "METAR LFLL 061100Z VRB02KT CAVOK 16/07 Q1021 NOSIG",
      "taf": "TAF LFLL 060500Z 0606/0712 17005KT CAVOK"
    },
    {
      "icao": "LFLS",
      "alert": "OK",
      "vis_m": 9999,
      "fzfg": false,
      "metar_trigger": false,
      "taf_trigger": false,
      "metar": "METAR LFLS 061100Z AUTO VRB02KT CAVOK 16/06 Q1021 NOSIG",
      "taf": "TAF LFLS 060800Z 0609/0709 10006KT CAVOK"
    },
    {
      "icao": "LFMN",
      "alert": "OK",
      "vis_m": 9999,
      "fzfg": false,
      "metar_trigger": false,
      "taf_trigger": false,
      "metar": "METAR LFMN 061100Z 08019KT 9999 FEW080 BKN260 17/09 Q1020 NOSIG",
      "taf": "TAF LFMN 060800Z 0609/0715 10018KT 9999 SCT070 BKN230"
    },
    {
      "icao": "LFOB",
      "alert": "OK",
      "vis_m": 9000,
      "fzfg": false,
      "metar_trigger": false,
      "taf_trigger": false,
      "metar": "METAR LFOB 061100Z AUTO 33004KT 300V360 9000 NSC 13/10 Q1021 NOSIG",
      "taf": "TAF LFOB 060500Z 0606/0706 VRB03KT CAVOK"
    },
    {
      "icao": "LFPO",
      "alert": "OK",
      "vis_m": 9999,
      "fzfg": false,
      "metar_trigger": false,
      "taf_trigger": false,
      "metar": "METAR LFPO 061100Z 19003KT 150V240 CAVOK 15/09 Q1021 NOSIG",
      "taf": "TAF LFPO 060500Z 0606/0712 VRB03KT CAVOK"
    },
    {
      "icao": "LFSB",
      "alert": "OK",
      "vis_m": 9999,
      "fzfg": false,
      "metar_trigger": false,
      "taf_trigger": false,
      "metar": "METAR LFSB 061100Z AUTO VRB02KT CAVOK 14/05 Q1021 NOSIG",
      "taf": "TAF LFSB 060500Z 0606/0706 VRB02KT CAVOK"
    },
    {
      "icao": "LGAV",
      "alert": "OK",
      "vis_m": 9999,
      "fzfg": false,
      "metar_trigger": false,
      "taf_trigger": false,
      "metar": "METAR LGAV 061050Z 05013KT 9999 SCT030 16/07 Q1024 NOSIG",
      "taf": "TAF LGAV 060500Z 0606/0706 VRB05KT 9999 SCT025 SCT070"
    },
    {
      "icao": "LGTS",
      "alert": "OK",
      "vis_m": 9999,
      "fzfg": false,
      "metar_trigger": false,
      "taf_trigger": false,
      "metar": "METAR LGTS 061050Z 26006KT 9999 FEW016 15/06 Q1025 NOSIG",
      "taf": "TAF LGTS 060500Z 0606/0706 VRB03KT 9999 FEW025"
    },
    {
      "icao": "LHBP",
      "alert": "OK",
      "vis_m": 9999,
      "fzfg": false,
      "metar_trigger": false,
      "taf_trigger": false,
      "metar": "METAR LHBP 061100Z VRB03KT CAVOK 14/00 Q1027 NOSIG",
      "taf": "TAF LHBP 060515Z 0606/0706 34004KT CAVOK"
    },
    {
      "icao": "LHDC",
      "alert": "OK",
      "vis_m": 9999,
      "fzfg": false,
      "metar_trigger": false,
      "taf_trigger": false,
      "metar": "METAR LHDC 061045Z AUTO 02004KT 290V070 CAVOK 14/M03 Q1027 NOSIG",
      "taf": "TAF LHDC 060815Z 0609/0618 03007KT CAVOK"
    },
    {
      "icao": "LIBD",
      "alert": "OK",
      "vis_m": 6000,
      "fzfg": false,
      "metar_trigger": false,
      "taf_trigger": false,
      "metar": "METAR LIBD 061050Z 35006KT 310V030 6000 FEW015 14/12 Q1024",
      "taf": "TAF LIBD 060500Z 0606/0706 VRB05KT 6000 SCT015"
    },
    {
      "icao": "LIBG",
      "alert": "OK",
      "vis_m": 9999,
      "fzfg": false,
      "metar_trigger": false,
      "taf_trigger": false,
      "metar": "METAR LIBG 060950Z 05006KT CAVOK 16/09 Q1023",
      "taf": "TAF LIBG 060704Z 0608/0615 VRB06KT 9999 FEW020"
    },
    {
      "icao": "LIBP",
      "alert": "OK",
      "vis_m": 9999,
      "fzfg": false,
      "metar_trigger": false,
      "taf_trigger": false,
      "metar": "METAR LIBP 061050Z AUTO 08006KT 9999 NCD 14/11 Q1025",
      "taf": "TAF LIBP 060500Z 0606/0706 VRB05KT 3000 BR FEW030"
    },
    {
      "icao": "LIBR",
      "alert": "OK",
      "vis_m": 9999,
      "fzfg": false,
      "metar_trigger": false,
      "taf_trigger": false,
      "metar": "METAR LIBR 061050Z 34008KT CAVOK 15/10 Q1023",
      "taf": "TAF LIBR 060500Z 0606/0706 35008KT 7000 FEW020"
    },
    {
      "icao": "LICA",
      "alert": "OK",
      "vis_m": 9999,
      "fzfg": false,
      "metar_trigger": false,
      "taf_trigger": false,
      "metar": "METAR LICA 061050Z AUTO 09014KT 9999 NCD 16/10 Q1022",
      "taf": "TAF LICA 060500Z 0606/0706 08016KT CAVOK"
    },
    {
      "icao": "LICC",
      "alert": "OK",
      "vis_m": 9999,
      "fzfg": false,
      "metar_trigger": false,
      "taf_trigger": false,
      "metar": "METAR LICC 061050Z 09011KT 9999 SCT015 BKN050 16/14 Q1022",
      "taf": "TAF LICC 060500Z 0606/0706 08012KT 9999 FEW015 BKN040"
    },
    {
      "icao": "LICJ",
      "alert": "OK",
      "vis_m": 9999,
      "fzfg": false,
      "metar_trigger": false,
      "taf_trigger": false,
      "metar": "METAR LICJ 061050Z 36005KT 9999 FEW060 16/11 Q1019",
      "taf": "TAF LICJ 060500Z 0606/0706 VRB05KT CAVOK"
    },
    {
      "icao": "LIMC",
      "alert": "OK",
      "vis_m": 5000,
      "fzfg": false,
      "metar_trigger": false,
      "taf_trigger": false,
      "metar": "METAR LIMC 061050Z 25004KT 200V310 5000 BR NSC 13/08 Q1025 NOSIG",
      "taf": ""
    },
    {
      "icao": "LIME",
      "alert": "OK",
      "vis_m": 4500,
      "fzfg": false,
      "metar_trigger": false,
      "taf_trigger": false,
      "metar": "METAR LIME 061050Z VRB02KT 4500 BR NSC 13/06 Q1024 NOSIG",
      "taf": "TAF LIME 060500Z 0606/0706 VRB05KT 4000 BR BKN020"
    },
    {
      "icao": "LIMF",
      "alert": "OK",
      "vis_m": 3500,
      "fzfg": false,
      "metar_trigger": false,
      "taf_trigger": false,
      "metar": "METAR LIMF 061050Z VRB02KT 3500 BR NSC 13/06 Q1025",
      "taf": "TAF LIMF 060500Z 0606/0706 VRB04KT 3000 BR BKN006"
    },
    {
      "icao": "LIMJ",
      "alert": "OK",
      "vis_m": 8000,
      "fzfg": false,
      "metar_trigger": false,
      "taf_trigger": false,
      "metar": "METAR LIMJ 061050Z 04016KT 8000 NSC 14/06 Q1023",
      "taf": ""
    },
    {
      "icao": "LIPE",
      "alert": "OK",
      "vis_m": 5000,
      "fzfg": false,
      "metar_trigger": false,
      "taf_trigger": false,
      "metar": "METAR LIPE 061050Z 01003KT 320V060 5000 BR BKN018 BKN035 12/07 Q1025",
      "taf": "TAF LIPE 060500Z 0606/0706 VRB04KT 4000 BR SCT015"
    },
    {
      "icao": "LIPH",
      "alert": "OK",
      "vis_m": 9999,
      "fzfg": false,
      "metar_trigger": false,
      "taf_trigger": false,
      "metar": "METAR LIPH 061050Z VRB02KT CAVOK 14/07 Q1025",
      "taf": "TAF LIPH 060500Z 0606/0706 VRB04KT 2000 BR FEW015"
    },
    {
      "icao": "LIPQ",
      "alert": "OK",
      "vis_m": 9999,
      "fzfg": false,
      "metar_trigger": false,
      "taf_trigger": false,
      "metar": "METAR LIPQ 061050Z AUTO VRB02KT 9999 NCD 13/07 Q1025",
      "taf": "TAF LIPQ 060500Z 0606/0706 VRB05KT 2000 BR SCT015"
    },
    {
      "icao": "LIPR",
      "alert": "OK",
      "vis_m": 8000,
      "fzfg": false,
      "metar_trigger": false,
      "taf_trigger": false,
      "metar": "METAR LIPR 061050Z 02006KT 8000 BKN040 12/09 Q1025",
      "taf": "TAF LIPR 060500Z 0606/0706 VRB05KT 7000 BKN018"
    },
    {
      "icao": "LIPX",
      "alert": "OK",
      "vis_m": 8000,
      "fzfg": false,
      "metar_trigger": false,
      "taf_trigger": false,
      "metar": "METAR LIPX 061050Z VRB02KT 8000 NSC 13/07 Q1025",
      "taf": "TAF LIPX 060500Z 0606/0706 VRB05KT 6000 BKN020"
    },
    {
      "icao": "LIPY",
      "alert": "OK",
      "vis_m": 9999,
      "fzfg": false,
      "metar_trigger": false,
      "taf_trigger": false,
      "metar": "METAR LIPY 061050Z AUTO 05007KT 9999 BKN032/// 13/11 Q1025",
      "taf": ""
    },
    {
      "icao": "LIPZ",
      "alert": "OK",
      "vis_m": 4000,
      "fzfg": false,
      "metar_trigger": false,
      "taf_trigger": false,
      "metar": "METAR LIPZ 061050Z 14004KT 120V180 4000 BR NSC 13/09 Q1025 BECMG 6000",
      "taf": "TAF LIPZ 060500Z 0606/0712 VRB04KT 0700 FG BKN008"
    },
    {
      "icao": "LIRF",
      "alert": "OK",
      "vis_m": 9999,
      "fzfg": false,
      "metar_trigger": false,
      "taf_trigger": false,
      "metar": "METAR LIRF 061050Z 08006KT 050V120 CAVOK 16/09 Q1022 NOSIG",
      "taf": "TAF LIRF 060500Z 0606/0712 07008KT CAVOK"
    },
    {
      "icao": "LIRN",
      "alert": "OK",
      "vis_m": 9999,
      "fzfg": false,
      "metar_trigger": false,
      "taf_trigger": false,
      "metar": "METAR LIRN 061050Z 05004KT 360V100 CAVOK 17/07 Q1022 NOSIG",
      "taf": "TAF LIRN 060500Z 0606/0706 VRB05KT CAVOK"
    },
    {
      "icao": "LIRP",
      "alert": "OK",
      "vis_m": 9999,
      "fzfg": false,
      "metar_trigger": false,
      "taf_trigger": false,
      "metar": "METAR LIRP 061045Z 12012KT CAVOK 15/08 Q1022 NOSIG",
      "taf": "TAF LIRP 060500Z 0606/0706 11008KT 9999 FEW030 SCT070"
    },
    {
      "icao": "LIRZ",
      "alert": "OK",
      "vis_m": 9999,
      "fzfg": false,
      "metar_trigger": false,
      "taf_trigger": false,
      "metar": "METAR LIRZ 061050Z AUTO VRB01KT 9999 NCD 15/09 Q1022",
      "taf": "TAF LIRZ 060500Z 0606/0706 35010KT CAVOK"
    },
    {
      "icao": "LJLJ",
      "alert": "OK",
      "vis_m": 9999,
      "fzfg": false,
      "metar_trigger": false,
      "taf_trigger": false,
      "metar": "METAR LJLJ 061030Z 06003KT 340V130 CAVOK 12/04 Q1025 NOSIG",
      "taf": "TAF LJLJ 061100Z 0612/0712 12006KT CAVOK"
    },
    {
      "icao": "LKMT",
      "alert": "OK",
      "vis_m": 9999,
      "fzfg": false,
      "metar_trigger": false,
      "taf_trigger": false,
      "metar": "METAR LKMT 061100Z 02003KT 320V070 CAVOK 11/M02 Q1026 NOSIG",
      "taf": "TAF LKMT 060500Z 0606/0706 VRB02KT CAVOK"
    },
    {
      "icao": "LKPR",
      "alert": "OK",
      "vis_m": 9999,
      "fzfg": false,
      "metar_trigger": false,
      "taf_trigger": false,
      "metar": "METAR LKPR 061100Z 06005KT 360V120 CAVOK 10/01 Q1025 NOSIG",
      "taf": "TAF LKPR 060800Z 0609/0715 VRB02KT 4000 BR NSC"
    },
    {
      "icao": "LLBG",
      "alert": "OK",
      "vis_m": 9999,
      "fzfg": false,
      "metar_trigger": false,
      "taf_trigger": false,
      "metar": "METAR LLBG 061050Z 23006KT 170V280 CAVOK 20/05 Q1018 NOSIG",
      "taf": "TAF LLBG 060503Z 0606/0706 VRB03KT CAVOK TX19/0611Z TN10/0703Z"
    },
    {
      "icao": "LMML",
      "alert": "OK",
      "vis_m": 9999,
      "fzfg": false,
      "metar_trigger": false,
      "taf_trigger": false,
      "metar": "METAR LMML 061045Z 11014KT 9999 -RA FEW013 SCT030 15/13 Q1020 NOSIG",
      "taf": "TAF LMML 061100Z 0612/0712 11016KT 9999 FEW012"
    },
    {
      "icao": "LOWW",
      "alert": "OK",
      "vis_m": 9999,
      "fzfg": false,
      "metar_trigger": false,
      "taf_trigger": false,
      "metar": "METAR LOWW 061050Z 13012KT CAVOK 13/04 Q1025 NOSIG",
      "taf": "TAF LOWW 060815Z 0609/0715 13009KT CAVOK TX16/0614Z TN05/0705Z"
    },
    {
      "icao": "LPFR",
      "alert": "OK",
      "vis_m": 9999,
      "fzfg": false,
      "metar_trigger": false,
      "taf_trigger": false,
      "metar": "METAR LPFR 061030Z 32019KT 9999 FEW020 SCT030 12/05 Q1017",
      "taf": "TAF LPFR 060500Z 0606/0706 32015KT 9999 SCT030"
    },
    {
      "icao": "LPMA",
      "alert": "OK",
      "vis_m": 9999,
      "fzfg": false,
      "metar_trigger": false,
      "taf_trigger": false,
      "metar": "METAR LPMA 061030Z 03017KT 9999 BKN016 14/05 Q1029",
      "taf": "TAF LPMA 060500Z 0606/0706 01015G25KT 9999 SCT015"
    },
    {
      "icao": "LPPR",
      "alert": "OK",
      "vis_m": 9999,
      "fzfg": false,
      "metar_trigger": false,
      "taf_trigger": false,
      "metar": "METAR LPPR 061030Z COR 36017KT 9999 FEW030 11/03 Q1021",
      "taf": "TAF LPPR 060500Z 0606/0706 35013KT 9999 SCT025"
    },
    {
      "icao": "LPPS",
      "alert": "OK",
      "vis_m": 9999,
      "fzfg": false,
      "metar_trigger": false,
      "taf_trigger": false,
      "metar": "METAR LPPS 061030Z 04010KT 350V070 9999 FEW015 BKN030 14/06 Q1029",
      "taf": "TAF LPPS 060500Z 0606/0712 04015KT 9999 FEW015 BKN030"
    },
    {
      "icao": "LPPT",
      "alert": "OK",
      "vis_m": 9999,
      "fzfg": false,
      "metar_trigger": false,
      "taf_trigger": false,
      "metar": "METAR LPPT 061030Z 34024G38KT 9999 SCT030 11/06 Q1019 WS R02",
      "taf": "TAF LPPT 060500Z 0606/0712 33017KT 9999 SCT025"
    },
    {
      "icao": "LQBK",
      "alert": "OK",
      "vis_m": 9999,
      "fzfg": false,
      "metar_trigger": false,
      "taf_trigger": false,
      "metar": "METAR LQBK 061100Z 33003KT 270V070 CAVOK 16/03 Q1025 NOSIG",
      "taf": "TAF LQBK 060500Z 0606/0706 03005KT CAVOK TX17/0614Z TN00/0706Z"
    },
    {
      "icao": "LQSA",
      "alert": "OK",
      "vis_m": 9999,
      "fzfg": false,
      "metar_trigger": false,
      "taf_trigger": false,
      "metar": "METAR LQSA 061100Z VRB03KT CAVOK 12/02 Q1024 NOSIG",
      "taf": "TAF LQSA 060500Z 0606/0706 VRB02KT CAVOK TX17/0612Z TNM01/0606Z"
    },
    {
      "icao": "LQTZ",
      "alert": "OK",
      "vis_m": 9999,
      "fzfg": false,
      "metar_trigger": false,
      "taf_trigger": false,
      "metar": "METAR LQTZ 061100Z 10009KT 060V130 CAVOK 16/02 Q1025",
      "taf": "TAF LQTZ 060500Z 0606/0706 04005KT CAVOK TX16/0614Z TNM02/0606Z"
    },
    {
      "icao": "LRBC",
      "alert": "OK",
      "vis_m": 9999,
      "fzfg": false,
      "metar_trigger": false,
      "taf_trigger": false,
      "metar": "METAR LRBC 061030Z 34020KT 9999 FEW054 13/M01 Q1025",
      "taf": "TAF LRBC 060800Z 0609/0618 36010KT CAVOK"
    },
    {
      "icao": "LRBS",
      "alert": "OK",
      "vis_m": 9999,
      "fzfg": false,
      "metar_trigger": false,
      "taf_trigger": false,
      "metar": "METAR LRBS 061030Z 19005KT 140V240 CAVOK 12/00 Q1025 NOSIG",
      "taf": "TAF LRBS 060500Z 0606/0706 VRB04KT CAVOK"
    },
    {
      "icao": "LRBV",
      "alert": "OK",
      "vis_m": 9999,
      "fzfg": false,
      "metar_trigger": false,
      "taf_trigger": false,
      "metar": "METAR LRBV 061030Z 31010KT 280V340 CAVOK 10/M04 Q1024",
      "taf": "TAF LRBV 060800Z 0609/0618 VRB04KT CAVOK"
    },
    {
      "icao": "LRCL",
      "alert": "OK",
      "vis_m": 9999,
      "fzfg": false,
      "metar_trigger": false,
      "taf_trigger": false,
      "metar": "METAR LRCL 061030Z 36005KT 310V040 CAVOK 12/M06 Q1025",
      "taf": "TAF LRCL 060800Z 0609/0618 VRB04KT CAVOK"
    },
    {
      "icao": "LRCV",
      "alert": "OK",
      "vis_m": 9999,
      "fzfg": false,
      "metar_trigger": false,
      "taf_trigger": false,
      "metar": "METAR LRCV 061030Z 06006KT 030V100 CAVOK 13/06 Q1025",
      "taf": "TAF LRCV 060800Z 0609/0618 06007KT CAVOK"
    },
    {
      "icao": "LRIA",
      "alert": "OK",
      "vis_m": 9999,
      "fzfg": false,
      "metar_trigger": false,
      "taf_trigger": false,
      "metar": "METAR LRIA 061030Z 33020KT 9999 FEW035 10/M01 Q1025",
      "taf": "TAF LRIA 060800Z 0609/0618 32012KT CAVOK"
    },
    {
      "icao": "LROP",
      "alert": "OK",
      "vis_m": 9999,
      "fzfg": false,
      "metar_trigger": false,
      "taf_trigger": false,
      "metar": "METAR LROP 061030Z VRB03KT CAVOK 13/M05 Q1025 NOSIG",
      "taf": "TAF LROP 060500Z 0606/0706 VRB04KT CAVOK"
    },
    {
      "icao": "LRSB",
      "alert": "OK",
      "vis_m": 9999,
      "fzfg": false,
      "metar_trigger": false,
      "taf_trigger": false,
      "metar": "METAR LRSB 061030Z VRB03KT CAVOK 12/M00 Q1025",
      "taf": "TAF LRSB 060500Z 0606/0706 VRB04KT CAVOK"
    },
    {
      "icao": "LRSM",
      "alert": "OK",
      "vis_m": 9999,
      "fzfg": false,
      "metar_trigger": false,
      "taf_trigger": false,
      "metar": "METAR LRSM 061030Z 31004KT 270V360 CAVOK 12/M02 Q1027",
      "taf": "TAF LRSM 060800Z 0609/0618 VRB04KT CAVOK"
    },
    {
      "icao": "LRSV",
      "alert": "OK",
      "vis_m": 9999,
      "fzfg": false,
      "metar_trigger": false,
      "taf_trigger": false,
      "metar": "METAR LRSV 061030Z 31016KT CAVOK 10/M01 Q1025",
      "taf": "TAF LRSV 060800Z 0609/0618 31015KT CAVOK"
    },
    {
      "icao": "LRTM",
      "alert": "OK",
      "vis_m": 9999,
      "fzfg": false,
      "metar_trigger": false,
      "taf_trigger": false,
      "metar": "METAR LRTM 061030Z 21003KT 160V310 CAVOK 11/M02 Q1026",
      "taf": "TAF LRTM 060800Z 0609/0618 VRB04KT CAVOK"
    },
    {
      "icao": "LRTR",
      "alert": "OK",
      "vis_m": 9999,
      "fzfg": false,
      "metar_trigger": false,
      "taf_trigger": false,
      "metar": "METAR LRTR 061030Z 01008KT 340V040 CAVOK 15/M02 Q1026",
      "taf": "TAF LRTR 060500Z 0606/0706 VRB04KT CAVOK"
    },
    {
      "icao": "LTAC",
      "alert": "OK",
      "vis_m": 9999,
      "fzfg": false,
      "metar_trigger": false,
      "taf_trigger": false,
      "metar": "METAR LTAC 061050Z 30009KT 270V340 9999 SCT040 BKN100 08/M02 Q1019 NOSIG RMK RWY21C 29009KT 250V310 RWY03L 30009KT 260V320 RWY21R 28008KT 230V310 RWY03R 29009KT 250V320 RWY21L 29009KT 240V310",
      "taf": "TAF LTAC 061040Z 0612/0712 31012KT 9999 SCT040 SCT100"
    },
    {
      "icao": "LTFM",
      "alert": "OK",
      "vis_m": 9999,
      "fzfg": false,
      "metar_trigger": false,
      "taf_trigger": false,
      "metar": "METAR LTFM 061050Z 35008KT 320V020 CAVOK 11/04 Q1024 NOSIG RMK RWY17L 36006KT 330V060 RWY34L 35008KT 300V020 RWY16R 01005KT 330V040 RWY36 36008KT RWY18 34008KT 300V030",
      "taf": "TAF LTFM 061040Z 0612/0718 01012KT CAVOK"
    },
    {
      "icao": "LUKK",
      "alert": "OK",
      "vis_m": 9999,
      "fzfg": false,
      "metar_trigger": false,
      "taf_trigger": false,
      "metar": "METAR LUKK 061100Z 36014KT 330V050 9999 SCT040 09/M02 Q1023 TEMPO 31018G28KT",
      "taf": "TAF LUKK 060515Z 0606/0706 33012KT CAVOK"
    },
    {
      "icao": "LWOH",
      "alert": "OK",
      "vis_m": 9999,
      "fzfg": false,
      "metar_trigger": false,
      "taf_trigger": false,
      "metar": "METAR LWOH 061050Z 16006KT 120V180 9999 FEW040 10/05 Q1024",
      "taf": ""
    },
    {
      "icao": "LWSK",
      "alert": "OK",
      "vis_m": 9999,
      "fzfg": false,
      "metar_trigger": false,
      "taf_trigger": false,
      "metar": "METAR LWSK 061050Z VRB02KT CAVOK 14/07 Q1026 NOSIG",
      "taf": ""
    },
    {
      "icao": "LYBE",
      "alert": "OK",
      "vis_m": 9999,
      "fzfg": false,
      "metar_trigger": false,
      "taf_trigger": false,
      "metar": "METAR LYBE 061100Z 06007KT 020V080 CAVOK 15/M01 Q1026 NOSIG",
      "taf": "TAF LYBE 060500Z 0606/0706 05004KT 4000 BR NSC TX16/0612Z TN02/0606Z"
    },
    {
      "icao": "LYNI",
      "alert": "OK",
      "vis_m": 9999,
      "fzfg": false,
      "metar_trigger": false,
      "taf_trigger": false,
      "metar": "METAR LYNI 061100Z VRB03KT 9999 FEW030 13/07 Q1026 TEMPO FM1130 32013KT",
      "taf": "TAF LYNI 060500Z 0606/0706 20004KT 0400 FG VV001 TX16/0614Z TN01/0606Z"
    },
    {
      "icao": "LYPG",
      "alert": "OK",
      "vis_m": 9999,
      "fzfg": false,
      "metar_trigger": false,
      "taf_trigger": false,
      "metar": "METAR LYPG 061100Z VRB02KT CAVOK 18/03 Q1024 NOSIG",
      "taf": "TAF LYPG 060500Z 0606/0706 16005KT CAVOK TX19/0613Z TN04/0705Z"
    },
    {
      "icao": "LZIB",
      "alert": "OK",
      "vis_m": 9999,
      "fzfg": false,
      "metar_trigger": false,
      "taf_trigger": false,
      "metar": "METAR LZIB 061100Z 07006KT 040V110 CAVOK 13/02 Q1026 NOSIG",
      "taf": ""
    },
    {
      "icao": "LZKZ",
      "alert": "OK",
      "vis_m": 9999,
      "fzfg": false,
      "metar_trigger": false,
      "taf_trigger": false,
      "metar": "METAR LZKZ 061100Z VRB01KT CAVOK 13/M05 Q1027 NOSIG",
      "taf": ""
    },
    {
      "icao": "LZTT",
      "alert": "OK",
      "vis_m": 9999,
      "fzfg": false,
      "metar_trigger": false,
      "taf_trigger": false,
      "metar": "METAR LZTT 061100Z 06004KT 020V100 CAVOK 11/M07 Q1026 NOSIG",
      "taf": ""
    },
    {
      "icao": "OEJN",
      "alert": "OK",
      "vis_m": 9999,
      "fzfg": false,
      "metar_trigger": false,
      "taf_trigger": false,
      "metar": "METAR OEJN 061100Z 29011KT CAVOK 29/15 Q1011 NOSIG",
      "taf": "TAF OEJN 060500Z 0606/0712 28014KT 9999 SCT040"
    },
    {
      "icao": "OEMA",
      "alert": "OK",
      "vis_m": 9999,
      "fzfg": false,
      "metar_trigger": false,
      "taf_trigger": false,
      "metar": "METAR OEMA 061100Z 12005KT CAVOK 28/03 Q1015 NOSIG",
      "taf": "TAF OEMA 060500Z 0606/0712 28012KT 7000 NSC"
    },
    {
      "icao": "OJAI",
      "alert": "OK",
      "vis_m": 5000,
      "fzfg": false,
      "metar_trigger": false,
      "taf_trigger": false,
      "metar": "METAR OJAI 061000Z 21007KT 5000 HZ NSC 17/M03 Q1019 NOSIG",
      "taf": "TAF OJAI 060500Z 0606/0712 07006KT 5000 HZ NSC"
    },
    {
      "icao": "OMAA",
      "alert": "OK",
      "vis_m": null,
      "fzfg": false,
      "metar_trigger": false,
      "taf_trigger": false,
      "metar": "",
      "taf": ""
    },
    {
      "icao": "OMDB",
      "alert": "OK",
      "vis_m": null,
      "fzfg": false,
      "metar_trigger": false,
      "taf_trigger": false,
      "metar": "",
      "taf": ""
    },
    {
      "icao": "UAAA",
      "alert": "OK",
      "vis_m": 9999,
      "fzfg": false,
      "metar_trigger": false,
      "taf_trigger": false,
      "metar": "METAR UAAA 061030Z 10003MPS 070V130 9999 BKN012 OVC100 03/02 Q1023 NOSIG",
      "taf": "TAF UAAA 060504Z 0606/0706 04003MPS 6000 BKN011CB OVC030 TX05/0609Z TNM01/0701Z"
    },
    {
      "icao": "UBBB",
      "alert": "OK",
      "vis_m": 9999,
      "fzfg": false,
      "metar_trigger": false,
      "taf_trigger": false,
      "metar": "METAR UBBB 061100Z 20022KT CAVOK 12/M01 Q1012 NOSIG",
      "taf": "TAF UBBB 061050Z 0612/0712 19014G24KT CAVOK TX11/0612Z TN05/0701Z"
    },
    {
      "icao": "UDSG",
      "alert": "OK",
      "vis_m": 9999,
      "fzfg": false,
      "metar_trigger": false,
      "taf_trigger": false,
      "metar": "METAR UDSG 061030Z 22002KT 9999 SCT049 M02/M09 Q1017 NOSIG",
      "taf": "TAF UDSG 060500Z 0606/0706 VRB06KT 9999 SCT040"
    },
    {
      "icao": "UDYZ",
      "alert": "OK",
      "vis_m": 9999,
      "fzfg": false,
      "metar_trigger": false,
      "taf_trigger": false,
      "metar": "METAR UDYZ 061030Z 19003KT 160V230 9999 SCT046 07/M06 Q1017 NOSIG",
      "taf": "TAF UDYZ 060500Z 0606/0706 VRB06KT 9999 FEW040"
    },
    {
      "icao": "UGKO",
      "alert": "OK",
      "vis_m": 9999,
      "fzfg": false,
      "metar_trigger": false,
      "taf_trigger": false,
      "metar": "METAR UGKO 061030Z 26013KT 230V300 9999 SCT042 08/00 Q1019 NOSIG",
      "taf": "TAF UGKO 061100Z 0612/0712 26012KT 9999 SCT020 BKN050 TX09/0711Z TN02/0703Z"
    }
  ]
}