{
  "ts_utc": "2026-02-18T14:12:43Z",
  "threshold_m": 150,
  "source": "stations_override.txt (ICAO list) + aviationweather.gov (METAR/TAF raw)",
  "station_count": 159,
  "stations": [
    {
      "icao": "BIKF",
      "alert": "OK",
      "vis_m": 9999,
      "fzfg": false,
      "metar_trigger": false,
      "taf_trigger": false,
      "metar": "METAR BIKF 181400Z 06015KT CAVOK M01/M09 Q1009",
      "taf": "TAF BIKF 181331Z 1815/1915 06017KT 9999 FEW025 BKN045 TX00/1915Z TNM04/1824Z"
    },
    {
      "icao": "BKPR",
      "alert": "OK",
      "vis_m": 9999,
      "fzfg": false,
      "metar_trigger": false,
      "taf_trigger": false,
      "metar": "METAR BKPR 181400Z 32013KT 9999 SCT050 07/M03 Q1013 NOSIG",
      "taf": "TAF BKPR 181130Z 1812/1912 32015KT 9999 FEW040"
    },
    {
      "icao": "EBCI",
      "alert": "OK",
      "vis_m": 9999,
      "fzfg": false,
      "metar_trigger": false,
      "taf_trigger": false,
      "metar": "METAR EBCI 181350Z 11011KT CAVOK 06/M03 Q1005 NOSIG",
      "taf": "TAF EBCI 181103Z 1812/1918 10008KT 9999 FEW020"
    },
    {
      "icao": "EDDB",
      "alert": "OK",
      "vis_m": 9999,
      "fzfg": false,
      "metar_trigger": false,
      "taf_trigger": false,
      "metar": "METAR EDDB 181350Z AUTO 33006KT 9999 OVC023 M01/M04 Q1014 NOSIG",
      "taf": "TAF EDDB 181100Z 1812/1912 35004KT 9999 SCT015 BKN030"
    },
    {
      "icao": "EDDH",
      "alert": "OK",
      "vis_m": 9999,
      "fzfg": false,
      "metar_trigger": false,
      "taf_trigger": false,
      "metar": "METAR EDDH 181350Z AUTO VRB02KT 9999 FEW029 02/M06 Q1015 NOSIG",
      "taf": "TAF EDDH 181100Z 1812/1918 36004KT 9999 SCT015 BKN020"
    },
    {
      "icao": "EDDK",
      "alert": "OK",
      "vis_m": 9999,
      "fzfg": false,
      "metar_trigger": false,
      "taf_trigger": false,
      "metar": "METAR EDDK 181350Z AUTO 11008KT 070V150 9999 FEW031 06/M02 Q1009 NOSIG",
      "taf": "TAF EDDK 181100Z 1812/1918 11008KT 9999 BKN025"
    },
    {
      "icao": "EDDN",
      "alert": "OK",
      "vis_m": 9999,
      "fzfg": false,
      "metar_trigger": false,
      "taf_trigger": false,
      "metar": "METAR EDDN 181350Z AUTO 23004KT 180V300 9999 BKN043 04/M04 Q1011 BECMG 08005KT",
      "taf": "TAF EDDN 181100Z 1812/1912 27006KT 9999 BKN025"
    },
    {
      "icao": "EDDS",
      "alert": "OK",
      "vis_m": 9999,
      "fzfg": false,
      "metar_trigger": false,
      "taf_trigger": false,
      "metar": "METAR EDDS 181350Z AUTO 08005KT 050V120 9999 FEW041 04/M02 Q1009 NOSIG",
      "taf": "TAF EDDS 181100Z 1812/1912 09005KT 9999 SCT020 BKN045"
    },
    {
      "icao": "EDFH",
      "alert": "OK",
      "vis_m": 9999,
      "fzfg": false,
      "metar_trigger": false,
      "taf_trigger": false,
      "metar": "METAR EDFH 181350Z 12012KT 9999 FEW023 02/M03 Q1007",
      "taf": "TAF EDFH 181100Z 1812/1912 14007KT 9999 FEW015"
    },
    {
      "icao": "EDJA",
      "alert": "OK",
      "vis_m": 9999,
      "fzfg": false,
      "metar_trigger": false,
      "taf_trigger": false,
      "metar": "METAR EDJA 181350Z 21005KT 9999 -SN FEW012 SCT035 OVC046 02/M00 Q1009",
      "taf": "TAF EDJA 181100Z 1812/1821 VRB03KT 9999 BKN030"
    },
    {
      "icao": "EDLW",
      "alert": "OK",
      "vis_m": 9999,
      "fzfg": false,
      "metar_trigger": false,
      "taf_trigger": false,
      "metar": "METAR EDLW 181350Z 03011KT 9999 FEW016 SCT023 BKN026 02/M01 Q1011",
      "taf": "TAF EDLW 181100Z 1812/1912 08008KT 9999 SCT012 BKN020"
    },
    {
      "icao": "EDNY",
      "alert": "OK",
      "vis_m": 2500,
      "fzfg": false,
      "metar_trigger": false,
      "taf_trigger": false,
      "metar": "METAR EDNY 181350Z 11004KT 2500 SN BR FEW005 OVC021 01/00 Q1010",
      "taf": "TAF EDNY 181100Z 1812/1821 VRB03KT 9999 OVC030"
    },
    {
      "icao": "EDSB",
      "alert": "OK",
      "vis_m": 9999,
      "fzfg": false,
      "metar_trigger": false,
      "taf_trigger": false,
      "metar": "METAR EDSB 181350Z 01006KT 9999 BKN041 06/M01 Q1009",
      "taf": "TAF EDSB 181100Z 1812/1912 02005KT 9999 SCT020 BKN035"
    },
    {
      "icao": "EETN",
      "alert": "OK",
      "vis_m": 9999,
      "fzfg": false,
      "metar_trigger": false,
      "taf_trigger": false,
      "metar": "METAR EETN 181350Z 11010KT CAVOK M08/M14 Q1013 NOSIG",
      "taf": "TAF EETN 181130Z 1812/1912 14010KT CAVOK"
    },
    {
      "icao": "EFTU",
      "alert": "OK",
      "vis_m": 9999,
      "fzfg": false,
      "metar_trigger": false,
      "taf_trigger": false,
      "metar": "METAR EFTU 181350Z AUTO 10008KT CAVOK M08/M11 Q1012",
      "taf": "TAF EFTU 181127Z 1812/1912 10006KT CAVOK"
    },
    {
      "icao": "EGBB",
      "alert": "OK",
      "vis_m": 9999,
      "fzfg": false,
      "metar_trigger": false,
      "taf_trigger": false,
      "metar": "METAR EGBB 181350Z 11017KT 9999 BKN030 05/M01 Q1000",
      "taf": "TAF EGBB 181058Z 1812/1912 11012KT 9999 SCT025"
    },
    {
      "icao": "EGGP",
      "alert": "OK",
      "vis_m": 9999,
      "fzfg": false,
      "metar_trigger": false,
      "taf_trigger": false,
      "metar": "METAR EGGP 181350Z 12017KT 9999 FEW028 BKN034 05/M01 Q0999",
      "taf": "TAF EGGP 181103Z 1812/1912 11012KT 9999 FEW040"
    },
    {
      "icao": "EGGW",
      "alert": "OK",
      "vis_m": 9999,
      "fzfg": false,
      "metar_trigger": false,
      "taf_trigger": false,
      "metar": "METAR EGGW 181350Z AUTO 11017KT 9999 FEW026 BKN031 OVC039 04/M00 Q1000",
      "taf": "TAF EGGW 181055Z 1812/1912 11017G27KT 9999 SCT020"
    },
    {
      "icao": "EGKK",
      "alert": "OK",
      "vis_m": 9999,
      "fzfg": false,
      "metar_trigger": false,
      "taf_trigger": false,
      "metar": "METAR EGKK 181350Z 10013KT 9999 BKN020 05/02 Q1000",
      "taf": "TAF EGKK 181053Z 1812/1918 10012KT 9999 BKN020"
    },
    {
      "icao": "EGNM",
      "alert": "OK",
      "vis_m": 9999,
      "fzfg": false,
      "metar_trigger": false,
      "taf_trigger": false,
      "metar": "METAR EGNM 181350Z 11016KT 9999 SCT022 BKN025 03/M01 Q1002",
      "taf": "TAF EGNM 181102Z 1812/1912 12010KT 9999 SCT012 BKN025"
    },
    {
      "icao": "EGPD",
      "alert": "OK",
      "vis_m": 9999,
      "fzfg": false,
      "metar_trigger": false,
      "taf_trigger": false,
      "metar": "METAR EGPD 181350Z COR AUTO 14014G26KT 9999 SCT030 OVC038 05/M01 Q1006 NOSIG",
      "taf": "TAF EGPD 181059Z 1812/1912 14012KT 9999 SCT040"
    },
    {
      "icao": "EGPF",
      "alert": "OK",
      "vis_m": 9999,
      "fzfg": false,
      "metar_trigger": false,
      "taf_trigger": false,
      "metar": "METAR EGPF 181350Z AUTO 10015KT 9999 SCT034 05/M02 Q1002",
      "taf": "TAF EGPF 181055Z 1812/1912 09009KT 9999 SCT040"
    },
    {
      "icao": "EHBK",
      "alert": "OK",
      "vis_m": 9999,
      "fzfg": false,
      "metar_trigger": false,
      "taf_trigger": false,
      "metar": "METAR EHBK 181355Z AUTO 08012KT 030V160 9999 NCD 06/01 Q1008 NOSIG",
      "taf": "TAF EHBK 181101Z 1812/1918 09010KT CAVOK"
    },
    {
      "icao": "EHEH",
      "alert": "OK",
      "vis_m": 9999,
      "fzfg": false,
      "metar_trigger": false,
      "taf_trigger": false,
      "metar": "METAR EHEH 181355Z AUTO 09010KT 050V130 9999 OVC270 05/M01 Q1008 BLU NOSIG",
      "taf": ""
    },
    {
      "icao": "EKBI",
      "alert": "OK",
      "vis_m": 9999,
      "fzfg": false,
      "metar_trigger": false,
      "taf_trigger": false,
      "metar": "METAR EKBI 181350Z AUTO 23008KT 9999 FEW018/// M01/M05 Q1014",
      "taf": "TAF EKBI 181127Z 1812/1912 22005KT 9999 SCT040"
    },
    {
      "icao": "EKCH",
      "alert": "OK",
      "vis_m": 9999,
      "fzfg": false,
      "metar_trigger": false,
      "taf_trigger": false,
      "metar": "METAR EKCH 181350Z 28009KT 9999 -SN SCT018 BKN036 M02/M06 Q1013 NOSIG",
      "taf": "TAF EKCH 181127Z 1812/1912 30007KT 9999 BKN025"
    },
    {
      "icao": "ENAL",
      "alert": "OK",
      "vis_m": 9999,
      "fzfg": false,
      "metar_trigger": false,
      "taf_trigger": false,
      "metar": "METAR ENAL 181350Z 22008KT 170V300 9999 VCSH FEW008 SCT014 BKN035 01/M03 Q1008",
      "taf": ""
    },
    {
      "icao": "ENBR",
      "alert": "OK",
      "vis_m": 9999,
      "fzfg": false,
      "metar_trigger": false,
      "taf_trigger": false,
      "metar": "METAR ENBR 181350Z 00000KT 9999 VCSH FEW010 BKN046 01/M00 Q1011 NOSIG RMK WIND 1200FT 34003KT",
      "taf": "TAF ENBR 181100Z 1812/1912 VRB05KT 9999 -SHSN FEW010 BKN020"
    },
    {
      "icao": "ENGM",
      "alert": "OK",
      "vis_m": 9999,
      "fzfg": false,
      "metar_trigger": false,
      "taf_trigger": false,
      "metar": "METAR ENGM 181350Z VRB02KT 9999 -SHSN NSC M06/M10 Q1009 NOSIG",
      "taf": "TAF ENGM 181100Z 1812/1912 VRB03KT 9999 FEW030"
    },
    {
      "icao": "ENHD",
      "alert": "OK",
      "vis_m": 9999,
      "fzfg": false,
      "metar_trigger": false,
      "taf_trigger": false,
      "metar": "METAR ENHD 181350Z 12004KT 9999 FEW010 SCT025 03/00 Q1011",
      "taf": "TAF ENHD 181100Z 1812/1821 34012KT 9999 FEW012 BKN020"
    },
    {
      "icao": "ENTC",
      "alert": "OK",
      "vis_m": 9999,
      "fzfg": false,
      "metar_trigger": false,
      "taf_trigger": false,
      "metar": "METAR ENTC 181350Z 23006KT 9999 SCT013 BKN016 M05/M07 Q1005 TEMPO BKN012 RMK WIND 2600FT 11009KT",
      "taf": "TAF ENTC 181100Z 1812/1912 21008KT 9999 SCT012 BKN020"
    },
    {
      "icao": "ENTO",
      "alert": "OK",
      "vis_m": 9999,
      "fzfg": false,
      "metar_trigger": false,
      "taf_trigger": false,
      "metar": "METAR ENTO 181350Z 20005KT 9999 -SN BKN048 M05/M08 Q1010 NOSIG",
      "taf": "TAF ENTO 181100Z 1812/1912 VRB03KT CAVOK"
    },
    {
      "icao": "ENVA",
      "alert": "OK",
      "vis_m": 9999,
      "fzfg": false,
      "metar_trigger": false,
      "taf_trigger": false,
      "metar": "METAR ENVA 181350Z 10003KT 9999 FEW040 M01/M10 Q1008 TEMPO 2000 SHSN VV014 RMK WIND 670FT 20011KT",
      "taf": "TAF ENVA 181100Z 1812/1912 09005KT 9999 FEW020 SCT030"
    },
    {
      "icao": "ENZV",
      "alert": "OK",
      "vis_m": 9999,
      "fzfg": false,
      "metar_trigger": false,
      "taf_trigger": false,
      "metar": "METAR ENZV 181350Z 30011KT 9999 -RA OVC022 02/01 Q1011 NOSIG",
      "taf": "TAF ENZV 181100Z 1812/1912 34009KT 9999 FEW012 BKN025"
    },
    {
      "icao": "EPGD",
      "alert": "OK",
      "vis_m": 9999,
      "fzfg": false,
      "metar_trigger": false,
      "taf_trigger": false,
      "metar": "METAR EPGD 181400Z 29013KT 9999 -SN BKN011 M03/M06 Q1009",
      "taf": "TAF EPGD 181130Z 1812/1912 27010KT 9999 SCT037"
    },
    {
      "icao": "EPKK",
      "alert": "OK",
      "vis_m": 9999,
      "fzfg": false,
      "metar_trigger": false,
      "taf_trigger": false,
      "metar": "METAR EPKK 181400Z 32005KT 9999 FEW012CB BKN023 01/M00 Q1010",
      "taf": "TAF EPKK 181130Z 1812/1912 25010KT 9999 BKN020"
    },
    {
      "icao": "EPKT",
      "alert": "OK",
      "vis_m": 9999,
      "fzfg": false,
      "metar_trigger": false,
      "taf_trigger": false,
      "metar": "METAR EPKT 181400Z 26007KT 9999 -SHSN SCT017TCU BKN024 01/M02 Q1009",
      "taf": "TAF EPKT 181130Z 1812/1912 29007KT 9999 BKN035"
    },
    {
      "icao": "EPLB",
      "alert": "OK",
      "vis_m": 8000,
      "fzfg": false,
      "metar_trigger": false,
      "taf_trigger": false,
      "metar": "METAR EPLB 181400Z 13003KT 8000 OVC023 M01/M03 Q1009",
      "taf": "TAF EPLB 181130Z 1812/1912 VRB04KT 9999 BKN020"
    },
    {
      "icao": "EPMO",
      "alert": "OK",
      "vis_m": 9000,
      "fzfg": false,
      "metar_trigger": false,
      "taf_trigger": false,
      "metar": "METAR EPMO 181400Z 29010KT 270V330 9000 BKN015 M04/M06 Q1011",
      "taf": "TAF EPMO 181130Z 1812/1912 30010KT 8000 BKN020"
    },
    {
      "icao": "EPPO",
      "alert": "OK",
      "vis_m": 9999,
      "fzfg": false,
      "metar_trigger": false,
      "taf_trigger": false,
      "metar": "METAR EPPO 181400Z 30007KT 9999 SCT026 M01/M07 Q1012",
      "taf": "TAF EPPO 181130Z 1812/1912 34006KT 9999 SCT030"
    },
    {
      "icao": "EPRA",
      "alert": "OK",
      "vis_m": 2700,
      "fzfg": false,
      "metar_trigger": false,
      "taf_trigger": false,
      "metar": "METAR EPRA 181400Z 32008KT 2700 -SN BR OVC004 M01/M02 Q1009",
      "taf": "TAF EPRA 181130Z 1812/1821 16006KT 3500 -SN BR BKN007 OVC012"
    },
    {
      "icao": "EPRZ",
      "alert": "OK",
      "vis_m": 1900,
      "fzfg": false,
      "metar_trigger": false,
      "taf_trigger": false,
      "metar": "METAR EPRZ 181400Z 26004KT 1900 -SHSN BR BKN012CB 01/M01 Q1009",
      "taf": "TAF EPRZ 181130Z 1812/1912 07004KT 9999 BKN035"
    },
    {
      "icao": "EPSC",
      "alert": "OK",
      "vis_m": 9999,
      "fzfg": false,
      "metar_trigger": false,
      "taf_trigger": false,
      "metar": "METAR EPSC 181400Z 29012KT 9999 BKN029 M02/M09 Q1013",
      "taf": "TAF EPSC 181130Z 1812/1912 29012KT 7000 SCT017 BKN030"
    },
    {
      "icao": "EPSY",
      "alert": "OK",
      "vis_m": 9999,
      "fzfg": false,
      "metar_trigger": false,
      "taf_trigger": false,
      "metar": "METAR EPSY 181400Z 27004KT 230V320 9999 SCT016 M05/M09 Q1010",
      "taf": "TAF EPSY 181130Z 1812/1821 28008KT 8000 BKN012"
    },
    {
      "icao": "EPWA",
      "alert": "OK",
      "vis_m": 7000,
      "fzfg": false,
      "metar_trigger": false,
      "taf_trigger": false,
      "metar": "METAR EPWA 181400Z 31008KT 7000 BKN018 M02/M05 Q1010 NOSIG",
      "taf": "TAF EPWA 181130Z 1812/1912 31010KT 4000 -SN BR BKN014"
    },
    {
      "icao": "EPWR",
      "alert": "OK",
      "vis_m": 3000,
      "fzfg": false,
      "metar_trigger": false,
      "taf_trigger": false,
      "metar": "METAR EPWR 181400Z 01005KT 3000 -SN BR BKN008 M01/M02 Q1012",
      "taf": ""
    },
    {
      "icao": "ESGG",
      "alert": "OK",
      "vis_m": 9999,
      "fzfg": false,
      "metar_trigger": false,
      "taf_trigger": false,
      "metar": "METAR ESGG 181350Z VRB03KT CAVOK M02/M12 Q1010",
      "taf": "TAF ESGG 181130Z 1812/1912 25003KT CAVOK"
    },
    {
      "icao": "ESKN",
      "alert": "OK",
      "vis_m": 9999,
      "fzfg": false,
      "metar_trigger": false,
      "taf_trigger": false,
      "metar": "METAR ESKN 181350Z 33008KT 9999 BKN031 M03/M09 Q1010",
      "taf": "TAF ESKN 181130Z 1812/1912 36005KT 9999 BKN030"
    },
    {
      "icao": "ESMS",
      "alert": "OK",
      "vis_m": 9999,
      "fzfg": false,
      "metar_trigger": false,
      "taf_trigger": false,
      "metar": "METAR ESMS 181350Z 30011KT 9999 BKN015 M02/M06 Q1012",
      "taf": "TAF ESMS 181138Z 1812/1912 31007KT 9999 SCT020"
    },
    {
      "icao": "ESSA",
      "alert": "OK",
      "vis_m": 9999,
      "fzfg": false,
      "metar_trigger": false,
      "taf_trigger": false,
      "metar": "METAR ESSA 181350Z 35006KT 9999 BKN029 M04/M10 Q1010 NOSIG",
      "taf": ""
    },
    {
      "icao": "EYKA",
      "alert": "OK",
      "vis_m": 9999,
      "fzfg": false,
      "metar_trigger": false,
      "taf_trigger": false,
      "metar": "METAR EYKA 181350Z 15005KT 120V180 9999 OVC016 M07/M11 Q1010",
      "taf": ""
    },
    {
      "icao": "EYPA",
      "alert": "OK",
      "vis_m": 6000,
      "fzfg": false,
      "metar_trigger": false,
      "taf_trigger": false,
      "metar": "METAR EYPA 181350Z 14008KT 6000 -SHSN BKN022CB M05/M07 Q1008",
      "taf": "TAF EYPA 181100Z 1812/1912 VRB05KT 5000 BR SCT015 BKN025"
    },
    {
      "icao": "EYVI",
      "alert": "OK",
      "vis_m": 9999,
      "fzfg": false,
      "metar_trigger": false,
      "taf_trigger": false,
      "metar": "METAR EYVI 181350Z 14008KT 9999 -SN OVC024 M07/M13 Q1010 TEMPO 3000 SN BKN015",
      "taf": "TAF EYVI 181101Z 1812/1912 VRB04KT 9000 OVC020"
    },
    {
      "icao": "GCFV",
      "alert": "OK",
      "vis_m": 9999,
      "fzfg": false,
      "metar_trigger": false,
      "taf_trigger": false,
      "metar": "METAR GCFV 181400Z 03013KT 9999 FEW017 20/13 Q1023",
      "taf": "TAF GCFV 180800Z 1809/1909 04011KT 9999 FEW020 TX20/1814Z TN15/1906Z"
    },
    {
      "icao": "GCLP",
      "alert": "OK",
      "vis_m": 9999,
      "fzfg": false,
      "metar_trigger": false,
      "taf_trigger": false,
      "metar": "METAR GCLP 181400Z 03022KT 9999 FEW025 20/13 Q1023 NOSIG",
      "taf": "TAF GCLP 180800Z 1809/1909 02020KT 9999 FEW025 TX20/1814Z TN15/1906Z"
    },
    {
      "icao": "GCTS",
      "alert": "OK",
      "vis_m": 9999,
      "fzfg": false,
      "metar_trigger": false,
      "taf_trigger": false,
      "metar": "METAR GCTS 181400Z 08016KT CAVOK 23/12 Q1022 WS R07 NOSIG",
      "taf": "TAF GCTS 180800Z 1809/1909 09016KT CAVOK TX23/1814Z TN14/1906Z"
    },
    {
      "icao": "GMAD",
      "alert": "OK",
      "vis_m": 9999,
      "fzfg": false,
      "metar_trigger": false,
      "taf_trigger": false,
      "metar": "METAR GMAD 181400Z 23009KT CAVOK 23/10 Q1020 NOSIG",
      "taf": "TAF GMAD 181100Z 1812/1918 25003KT CAVOK"
    },
    {
      "icao": "GMMN",
      "alert": "OK",
      "vis_m": 6000,
      "fzfg": false,
      "metar_trigger": false,
      "taf_trigger": false,
      "metar": "METAR GMMN 181400Z 34004KT 280V060 6000 BKN016 17/13 Q1023 NOSIG",
      "taf": "TAF GMMN 181100Z 1812/1918 09010KT 9999 BKN016"
    },
    {
      "icao": "GMMX",
      "alert": "OK",
      "vis_m": 9999,
      "fzfg": false,
      "metar_trigger": false,
      "taf_trigger": false,
      "metar": "METAR GMMX 181400Z 34004KT 280V040 CAVOK 24/11 Q1021 NOSIG",
      "taf": "TAF GMMX 181100Z 1812/1918 28006KT 8000 NSC"
    },
    {
      "icao": "HEGN",
      "alert": "OK",
      "vis_m": 9999,
      "fzfg": false,
      "metar_trigger": false,
      "taf_trigger": false,
      "metar": "METAR HEGN 181300Z 36014KT CAVOK 25/06 Q1013 NOSIG",
      "taf": "TAF HEGN 181100Z 1812/1918 35012G22KT CAVOK"
    },
    {
      "icao": "HEMA",
      "alert": "OK",
      "vis_m": 9999,
      "fzfg": false,
      "metar_trigger": false,
      "taf_trigger": false,
      "metar": "METAR HEMA 181300Z 36014KT CAVOK 25/07 Q1012 NOSIG",
      "taf": "TAF HEMA 181100Z 1812/1918 34012G22KT CAVOK"
    },
    {
      "icao": "HESH",
      "alert": "OK",
      "vis_m": null,
      "fzfg": false,
      "metar_trigger": false,
      "taf_trigger": false,
      "metar": "",
      "taf": "TAF HESH 181100Z 1812/1918 02015KT CAVOK"
    },
    {
      "icao": "HESX",
      "alert": "OK",
      "vis_m": 9999,
      "fzfg": false,
      "metar_trigger": false,
      "taf_trigger": false,
      "metar": "METAR HESX 181300Z 30015KT CAVOK 19/04 Q1014 NOSIG",
      "taf": "TAF HESX 181100Z 1812/1918 27013G25KT 9999 SCT030"
    },
    {
      "icao": "LATI",
      "alert": "OK",
      "vis_m": 9999,
      "fzfg": false,
      "metar_trigger": false,
      "taf_trigger": false,
      "metar": "METAR LATI 181350Z 34008KT 320V030 CAVOK 13/M01 Q1015 NOSIG",
      "taf": "TAF LATI 181100Z 1812/1912 33010KT CAVOK TX17/1912Z TN02/1905Z"
    },
    {
      "icao": "LBPD",
      "alert": "OK",
      "vis_m": 9999,
      "fzfg": false,
      "metar_trigger": false,
      "taf_trigger": false,
      "metar": "METAR LBPD 181400Z AUTO 29027KT 9999 NCD 09/M02 Q1008 NOSIG",
      "taf": "TAF LBPD 181100Z 1812/1912 28026G38KT 9999 SCT050"
    },
    {
      "icao": "LBSF",
      "alert": "OK",
      "vis_m": 9999,
      "fzfg": false,
      "metar_trigger": false,
      "taf_trigger": false,
      "metar": "METAR LBSF 181400Z 29022G34KT 9999 SCT030 04/M02 Q1010 NOSIG",
      "taf": "TAF LBSF 181100Z 1812/1912 28026G38KT 9999 SCT025 BKN040"
    },
    {
      "icao": "LBWN",
      "alert": "OK",
      "vis_m": 5000,
      "fzfg": false,
      "metar_trigger": false,
      "taf_trigger": false,
      "metar": "METAR LBWN 181400Z 33013KT 5000 -SNRA SCT030 OVC040 00/M02 Q1006 NOSIG",
      "taf": "TAF LBWN 181100Z 1812/1912 33018G32KT 7000 -SN BKN015 OVC030"
    },
    {
      "icao": "LCLK",
      "alert": "OK",
      "vis_m": 9999,
      "fzfg": false,
      "metar_trigger": false,
      "taf_trigger": false,
      "metar": "METAR LCLK 181400Z 23019KT 9999 FEW030 SCT050 16/10 Q1008 NOSIG",
      "taf": "TAF LCLK 181130Z 1812/1912 23022KT 8000 FEW025 FEW030TCU SCT035"
    },
    {
      "icao": "LCPH",
      "alert": "OK",
      "vis_m": 9999,
      "fzfg": false,
      "metar_trigger": false,
      "taf_trigger": false,
      "metar": "METAR LCPH 181400Z 26016KT 9999 SCT035TCU SCT042 BKN055 16/10 Q1008 TEMPO 4000 SHRA",
      "taf": "TAF LCPH 181130Z 1812/1912 26026KT 8000 SCT020 FEW025TCU BKN035"
    },
    {
      "icao": "LEAL",
      "alert": "OK",
      "vis_m": 9999,
      "fzfg": false,
      "metar_trigger": false,
      "taf_trigger": false,
      "metar": "METAR LEAL 181400Z 20010KT 160V230 CAVOK 20/10 Q1014 NOSIG",
      "taf": "TAF LEAL 181100Z 1812/1912 19010KT 9999 FEW030 TX21/1813Z TN12/1906Z"
    },
    {
      "icao": "LEBB",
      "alert": "OK",
      "vis_m": 9999,
      "fzfg": false,
      "metar_trigger": false,
      "taf_trigger": false,
      "metar": "METAR LEBB 181400Z 18010KT 120V250 9999 FEW030 18/07 Q1003 NOSIG",
      "taf": ""
    },
    {
      "icao": "LEBL",
      "alert": "OK",
      "vis_m": 9999,
      "fzfg": false,
      "metar_trigger": false,
      "taf_trigger": false,
      "metar": "METAR LEBL 181400Z 23013KT 9999 FEW009 15/10 Q1011 NOSIG",
      "taf": "TAF LEBL 181100Z 1812/1912 22010KT 9999 FEW015 TX17/1813Z TN11/1906Z"
    },
    {
      "icao": "LECH",
      "alert": "OK",
      "vis_m": 9000,
      "fzfg": false,
      "metar_trigger": false,
      "taf_trigger": false,
      "metar": "METAR LECH 181400Z AUTO 14006KT 090V200 9000 NCD 16/10 Q1011",
      "taf": ""
    },
    {
      "icao": "LEMD",
      "alert": "OK",
      "vis_m": 9999,
      "fzfg": false,
      "metar_trigger": false,
      "taf_trigger": false,
      "metar": "METAR LEMD 181400Z 22016G31KT 190V270 9999 FEW035 12/03 Q1015 NOSIG",
      "taf": "TAF LEMD 181100Z 1812/1918 22012KT 9999 SCT025 TX13/1915Z TN03/1906Z"
    },
    {
      "icao": "LEMG",
      "alert": "OK",
      "vis_m": 9999,
      "fzfg": false,
      "metar_trigger": false,
      "taf_trigger": false,
      "metar": "METAR LEMG 181400Z 29010KT CAVOK 20/10 Q1018 NOSIG",
      "taf": "TAF LEMG 181100Z 1812/1912 26010KT CAVOK TX23/1814Z TN11/1907Z"
    },
    {
      "icao": "LEVC",
      "alert": "OK",
      "vis_m": 9999,
      "fzfg": false,
      "metar_trigger": false,
      "taf_trigger": false,
      "metar": "METAR LEVC 181400Z 26023KT CAVOK 21/03 Q1013 NOSIG",
      "taf": "TAF LEVC 181100Z 1812/1912 27014KT 9999 FEW035 TX23/1814Z TN12/1906Z"
    },
    {
      "icao": "LEXJ",
      "alert": "OK",
      "vis_m": 9999,
      "fzfg": false,
      "metar_trigger": false,
      "taf_trigger": false,
      "metar": "METAR LEXJ 181400Z 22015G28KT 170V280 CAVOK 17/06 Q1002",
      "taf": ""
    },
    {
      "icao": "LEZG",
      "alert": "OK",
      "vis_m": 9999,
      "fzfg": false,
      "metar_trigger": false,
      "taf_trigger": false,
      "metar": "METAR LEZG 181400Z 25014KT 9999 FEW050 17/05 Q1011 NOSIG",
      "taf": "TAF LEZG 181100Z 1812/1912 25009KT 9999 FEW040 TX19/1814Z TN07/1906Z"
    },
    {
      "icao": "LEZL",
      "alert": "OK",
      "vis_m": 9999,
      "fzfg": false,
      "metar_trigger": false,
      "taf_trigger": false,
      "metar": "METAR LEZL 181330Z 25004KT 200V290 9999 FEW030 BKN040 16/10 Q1021 NOSIG",
      "taf": ""
    },
    {
      "icao": "LFBD",
      "alert": "OK",
      "vis_m": 9999,
      "fzfg": false,
      "metar_trigger": false,
      "taf_trigger": false,
      "metar": "METAR LFBD 181400Z AUTO 20012KT 9999 BKN048 BKN062 16/08 Q1003 TEMPO VRB25G50KT 4000 -RA BKN030TCU",
      "taf": "TAF LFBD 181100Z 1812/1918 20010KT 9999 BKN040 TX16/1815Z TN08/1903Z"
    },
    {
      "icao": "LFLL",
      "alert": "OK",
      "vis_m": 9999,
      "fzfg": false,
      "metar_trigger": false,
      "taf_trigger": false,
      "metar": "METAR LFLL 181400Z 18011KT CAVOK 13/05 Q1007 NOSIG",
      "taf": "TAF LFLL 181100Z 1812/1918 18012KT 9999 BKN043"
    },
    {
      "icao": "LFLS",
      "alert": "OK",
      "vis_m": 9999,
      "fzfg": false,
      "metar_trigger": false,
      "taf_trigger": false,
      "metar": "METAR LFLS 181400Z AUTO 19009KT 150V220 9999 FEW056 BKN190 13/06 Q1008 NOSIG",
      "taf": "TAF LFLS 180800Z 1809/1909 09005KT 9999 BKN050"
    },
    {
      "icao": "LFMN",
      "alert": "OK",
      "vis_m": 9999,
      "fzfg": false,
      "metar_trigger": false,
      "taf_trigger": false,
      "metar": "METAR LFMN 181400Z 09010KT CAVOK 14/06 Q1010 NOSIG",
      "taf": "TAF LFMN 180800Z 1809/1915 33012KT CAVOK"
    },
    {
      "icao": "LFOB",
      "alert": "OK",
      "vis_m": 4700,
      "fzfg": false,
      "metar_trigger": false,
      "taf_trigger": false,
      "metar": "METAR LFOB 181400Z AUTO 11012KT 4700 BR OVC006 05/04 Q1001 TEMPO 2000 RADZ OVC003",
      "taf": "TAF LFOB 181100Z 1812/1912 11012KT 9999 OVC007"
    },
    {
      "icao": "LFPO",
      "alert": "OK",
      "vis_m": 2000,
      "fzfg": false,
      "metar_trigger": false,
      "taf_trigger": false,
      "metar": "METAR LFPO 181400Z 10008KT 2000 -DZ BKN002 OVC003 06/06 Q1001 NOSIG",
      "taf": ""
    },
    {
      "icao": "LFSB",
      "alert": "OK",
      "vis_m": 9999,
      "fzfg": false,
      "metar_trigger": false,
      "taf_trigger": false,
      "metar": "METAR LFSB 181400Z AUTO 10010KT 9999 -RA OVC029/// ///CB 03/02 Q1008 TEMPO 2000 -RA BKN004",
      "taf": "TAF LFSB 181100Z 1812/1912 17004KT 9999 FEW010 BKN070"
    },
    {
      "icao": "LGAV",
      "alert": "OK",
      "vis_m": 9999,
      "fzfg": false,
      "metar_trigger": false,
      "taf_trigger": false,
      "metar": "METAR LGAV 181350Z 31009KT 260V350 9999 FEW025 16/M04 Q1011 NOSIG",
      "taf": "TAF LGAV 181100Z 1812/1912 30015KT 9999 FEW025"
    },
    {
      "icao": "LGTS",
      "alert": "OK",
      "vis_m": 9999,
      "fzfg": false,
      "metar_trigger": false,
      "taf_trigger": false,
      "metar": "METAR LGTS 181350Z 34023G34KT 300V010 9999 FEW020 12/M01 Q1011 NOSIG",
      "taf": "TAF LGTS 181100Z 1812/1912 33025G35KT 9999 FEW030"
    },
    {
      "icao": "LHBP",
      "alert": "OK",
      "vis_m": 9999,
      "fzfg": false,
      "metar_trigger": false,
      "taf_trigger": false,
      "metar": "METAR LHBP 181400Z 32016KT 9999 SCT046 07/M05 Q1012 NOSIG",
      "taf": "TAF LHBP 181115Z 1812/1912 31017G27KT 9999 SCT035"
    },
    {
      "icao": "LHDC",
      "alert": "OK",
      "vis_m": 9999,
      "fzfg": false,
      "metar_trigger": false,
      "taf_trigger": false,
      "metar": "METAR LHDC 181345Z AUTO 25005KT CAVOK 07/M00 Q1010 NOSIG",
      "taf": "TAF LHDC 181115Z 1812/1821 26006KT CAVOK"
    },
    {
      "icao": "LIBD",
      "alert": "OK",
      "vis_m": 9999,
      "fzfg": false,
      "metar_trigger": false,
      "taf_trigger": false,
      "metar": "METAR LIBD 181350Z 07009KT CAVOK 14/05 Q1014",
      "taf": "TAF LIBD 181100Z 1812/1912 06010KT CAVOK"
    },
    {
      "icao": "LIBG",
      "alert": "OK",
      "vis_m": 9999,
      "fzfg": false,
      "metar_trigger": false,
      "taf_trigger": false,
      "metar": "METAR LIBG 181350Z 22006KT 180V250 9999 FEW020 16/02 Q1014",
      "taf": "TAF LIBG 181100Z 1812/1821 29010KT CAVOK"
    },
    {
      "icao": "LIBP",
      "alert": "OK",
      "vis_m": 9999,
      "fzfg": false,
      "metar_trigger": false,
      "taf_trigger": false,
      "metar": "METAR LIBP 181350Z AUTO 07009KT 9999 BKN190/// 15/03 Q1013",
      "taf": "TAF LIBP 181100Z 1812/1912 07010KT CAVOK"
    },
    {
      "icao": "LIBR",
      "alert": "OK",
      "vis_m": 9999,
      "fzfg": false,
      "metar_trigger": false,
      "taf_trigger": false,
      "metar": "METAR LIBR 181350Z 06006KT CAVOK 13/03 Q1015",
      "taf": "TAF LIBR 181100Z 1812/1912 32012KT CAVOK"
    },
    {
      "icao": "LICA",
      "alert": "OK",
      "vis_m": 9999,
      "fzfg": false,
      "metar_trigger": false,
      "taf_trigger": false,
      "metar": "METAR LICA 181350Z AUTO 28013KT 9999 FEW030/// SCT056/// 14/09 Q1017",
      "taf": "TAF LICA 181100Z 1812/1912 26015KT 9999 FEW025"
    },
    {
      "icao": "LICC",
      "alert": "OK",
      "vis_m": 9999,
      "fzfg": false,
      "metar_trigger": false,
      "taf_trigger": false,
      "metar": "METAR LICC 181350Z 24011KT 210V270 9999 FEW070 19/14 Q1017",
      "taf": "TAF LICC 181100Z 1812/1912 26010KT CAVOK"
    },
    {
      "icao": "LICJ",
      "alert": "OK",
      "vis_m": 9999,
      "fzfg": false,
      "metar_trigger": false,
      "taf_trigger": false,
      "metar": "METAR LICJ 181350Z 26014KT 9999 FEW030 15/09 Q1018",
      "taf": "TAF LICJ 181100Z 1812/1912 26013KT 9999 SCT035"
    },
    {
      "icao": "LIMC",
      "alert": "OK",
      "vis_m": 9999,
      "fzfg": false,
      "metar_trigger": false,
      "taf_trigger": false,
      "metar": "METAR LIMC 181350Z 19005KT 160V230 CAVOK 13/M03 Q1011 NOSIG",
      "taf": "TAF LIMC 181100Z 1812/1918 VRB05KT CAVOK"
    },
    {
      "icao": "LIME",
      "alert": "OK",
      "vis_m": 9999,
      "fzfg": false,
      "metar_trigger": false,
      "taf_trigger": false,
      "metar": "METAR LIME 181350Z 20006KT 170V240 CAVOK 12/M03 Q1011 NOSIG",
      "taf": "TAF LIME 181100Z 1812/1912 VRB05KT CAVOK"
    },
    {
      "icao": "LIMF",
      "alert": "OK",
      "vis_m": 9999,
      "fzfg": false,
      "metar_trigger": false,
      "taf_trigger": false,
      "metar": "METAR LIMF 181350Z 07004KT 040V110 CAVOK 12/M04 Q1010",
      "taf": "TAF LIMF 181100Z 1812/1912 VRB05KT CAVOK"
    },
    {
      "icao": "LIMJ",
      "alert": "OK",
      "vis_m": 9999,
      "fzfg": false,
      "metar_trigger": false,
      "taf_trigger": false,
      "metar": "METAR LIMJ 181350Z 14019KT 9999 FEW029 14/08 Q1010",
      "taf": "TAF LIMJ 181100Z 1812/1912 12012KT 9999 FEW020"
    },
    {
      "icao": "LIPE",
      "alert": "OK",
      "vis_m": 9999,
      "fzfg": false,
      "metar_trigger": false,
      "taf_trigger": false,
      "metar": "METAR LIPE 181350Z 08005KT 040V110 CAVOK 14/01 Q1011",
      "taf": "TAF LIPE 181100Z 1812/1912 VRB05KT CAVOK"
    },
    {
      "icao": "LIPH",
      "alert": "OK",
      "vis_m": 9999,
      "fzfg": false,
      "metar_trigger": false,
      "taf_trigger": false,
      "metar": "METAR LIPH 181350Z VRB03KT CAVOK 13/M06 Q1011",
      "taf": "TAF LIPH 181100Z 1812/1912 VRB05KT CAVOK"
    },
    {
      "icao": "LIPQ",
      "alert": "OK",
      "vis_m": 9999,
      "fzfg": false,
      "metar_trigger": false,
      "taf_trigger": false,
      "metar": "METAR LIPQ 181350Z AUTO 26006KT 220V290 9999 NCD 14/03 Q1012",
      "taf": "TAF LIPQ 181100Z 1812/1912 VRB05KT CAVOK"
    },
    {
      "icao": "LIPR",
      "alert": "OK",
      "vis_m": 9999,
      "fzfg": false,
      "metar_trigger": false,
      "taf_trigger": false,
      "metar": "METAR LIPR 181350Z 06004KT 9999 FEW050 10/03 Q1011",
      "taf": "TAF LIPR 181100Z 1812/1912 VRB05KT CAVOK"
    },
    {
      "icao": "LIPX",
      "alert": "OK",
      "vis_m": 9999,
      "fzfg": false,
      "metar_trigger": false,
      "taf_trigger": false,
      "metar": "METAR LIPX 181350Z 14006KT 110V180 CAVOK 13/M03 Q1011",
      "taf": "TAF LIPX 181100Z 1812/1912 07008KT CAVOK"
    },
    {
      "icao": "LIPY",
      "alert": "OK",
      "vis_m": 9999,
      "fzfg": false,
      "metar_trigger": false,
      "taf_trigger": false,
      "metar": "METAR LIPY 181350Z AUTO 26010KT 9999 NCD 16/01 Q1012",
      "taf": "TAF LIPY 181100Z 1812/1912 VRB05KT CAVOK"
    },
    {
      "icao": "LIPZ",
      "alert": "OK",
      "vis_m": 9999,
      "fzfg": false,
      "metar_trigger": false,
      "taf_trigger": false,
      "metar": "METAR LIPZ 181350Z 13004KT 090V160 CAVOK 12/02 Q1012 NOSIG",
      "taf": "TAF LIPZ 181100Z 1812/1918 VRB05KT CAVOK"
    },
    {
      "icao": "LIRF",
      "alert": "OK",
      "vis_m": 9999,
      "fzfg": false,
      "metar_trigger": false,
      "taf_trigger": false,
      "metar": "METAR LIRF 181350Z 19009KT 9999 FEW025 SCT045 15/09 Q1014 NOSIG",
      "taf": "TAF LIRF 181100Z 1812/1918 20012KT 9999 FEW025"
    },
    {
      "icao": "LIRN",
      "alert": "OK",
      "vis_m": 9999,
      "fzfg": false,
      "metar_trigger": false,
      "taf_trigger": false,
      "metar": "METAR LIRN 181350Z 20009KT 9999 SCT035 16/07 Q1016 NOSIG",
      "taf": "TAF LIRN 181100Z 1812/1912 22010KT 9999 FEW030"
    },
    {
      "icao": "LIRP",
      "alert": "OK",
      "vis_m": 9999,
      "fzfg": false,
      "metar_trigger": false,
      "taf_trigger": false,
      "metar": "METAR LIRP 181345Z 11003KT 9999 -RA SCT020 BKN050 12/11 Q1013 TEMPO 5000 RA",
      "taf": "TAF LIRP 181100Z 1812/1912 23012KT 9999 SCT025"
    },
    {
      "icao": "LIRZ",
      "alert": "OK",
      "vis_m": 9999,
      "fzfg": false,
      "metar_trigger": false,
      "taf_trigger": false,
      "metar": "METAR LIRZ 181350Z AUTO VRB02KT 9999 NCD 14/03 Q1013",
      "taf": "TAF LIRZ 181100Z 1812/1912 VRB05KT 9999 SCT035"
    },
    {
      "icao": "LJLJ",
      "alert": "OK",
      "vis_m": 9999,
      "fzfg": false,
      "metar_trigger": false,
      "taf_trigger": false,
      "metar": "METAR LJLJ 181400Z 06004KT 020V100 9999 FEW060 10/M04 Q1011 NOSIG",
      "taf": "TAF LJLJ 181100Z 1812/1912 VRB02KT 9999 FEW050"
    },
    {
      "icao": "LKMT",
      "alert": "OK",
      "vis_m": 9999,
      "fzfg": false,
      "metar_trigger": false,
      "taf_trigger": false,
      "metar": "METAR LKMT 181400Z 05005KT 9999 BKN032 01/01 Q1011 NOSIG",
      "taf": "TAF LKMT 181100Z 1812/1912 23013KT 9999 FEW018"
    },
    {
      "icao": "LKPR",
      "alert": "OK",
      "vis_m": 9999,
      "fzfg": false,
      "metar_trigger": false,
      "taf_trigger": false,
      "metar": "METAR LKPR 181400Z 27009KT 9999 FEW020 BKN044 02/M02 Q1011 TEMPO 5000 SHGS SCT008TCU BKN014",
      "taf": "TAF LKPR 181100Z 1812/1918 26010KT 9999 BKN025"
    },
    {
      "icao": "LLBG",
      "alert": "OK",
      "vis_m": 9999,
      "fzfg": false,
      "metar_trigger": false,
      "taf_trigger": false,
      "metar": "METAR LLBG 181350Z 26018KT CAVOK 19/10 Q1014 NOSIG RMK FEW070",
      "taf": "TAF LLBG 181105Z 1812/1912 23017KT 8000 NSC"
    },
    {
      "icao": "LMML",
      "alert": "OK",
      "vis_m": 9999,
      "fzfg": false,
      "metar_trigger": false,
      "taf_trigger": false,
      "metar": "METAR LMML 181345Z 28013KT 250V310 9999 FEW029 16/09 Q1020 NOSIG",
      "taf": "TAF LMML 181100Z 1812/1912 30015KT 9999 FEW025"
    },
    {
      "icao": "LOWW",
      "alert": "OK",
      "vis_m": 9999,
      "fzfg": false,
      "metar_trigger": false,
      "taf_trigger": false,
      "metar": "METAR LOWW 181350Z 29020G30KT 9999 FEW048 07/M06 Q1012 NOSIG",
      "taf": "TAF LOWW 181115Z 1812/1918 27010KT 9999 FEW050 TX06/1812Z TNM02/1903Z"
    },
    {
      "icao": "LPFR",
      "alert": "OK",
      "vis_m": 9999,
      "fzfg": false,
      "metar_trigger": false,
      "taf_trigger": false,
      "metar": "METAR LPFR 181400Z 25012KT 9999 FEW020 SCT030 BKN048 16/11 Q1022",
      "taf": "TAF LPFR 181100Z 1812/1912 22005KT 9999 SCT018"
    },
    {
      "icao": "LPMA",
      "alert": "OK",
      "vis_m": 9999,
      "fzfg": false,
      "metar_trigger": false,
      "taf_trigger": false,
      "metar": "METAR LPMA 181400Z 19007KT 160V230 9999 FEW014 19/12 Q1026",
      "taf": "TAF LPMA 181100Z 1812/1912 02008KT 9999 SCT014"
    },
    {
      "icao": "LPPR",
      "alert": "OK",
      "vis_m": 9999,
      "fzfg": false,
      "metar_trigger": false,
      "taf_trigger": false,
      "metar": "METAR LPPR 181400Z 28009KT 240V310 9999 FEW010 SCT018 15/13 Q1015",
      "taf": "TAF LPPR 181100Z 1812/1912 19017G27KT 2000 RADZ BR SCT002 BKN004"
    },
    {
      "icao": "LPPS",
      "alert": "OK",
      "vis_m": 9999,
      "fzfg": false,
      "metar_trigger": false,
      "taf_trigger": false,
      "metar": "METAR LPPS 181400Z 33008KT 9999 FEW014 18/14 Q1026",
      "taf": "TAF LPPS 181100Z 1812/1918 33005KT 9999 SCT015"
    },
    {
      "icao": "LPPT",
      "alert": "OK",
      "vis_m": 7000,
      "fzfg": false,
      "metar_trigger": false,
      "taf_trigger": false,
      "metar": "METAR LPPT 181400Z 24010KT 210V270 7000 -DZRA SCT006 BKN010 14/14 Q1019",
      "taf": "TAF LPPT 181100Z 1812/1918 22013KT 9999 SCT008 BKN015"
    },
    {
      "icao": "LQBK",
      "alert": "OK",
      "vis_m": 9999,
      "fzfg": false,
      "metar_trigger": false,
      "taf_trigger": false,
      "metar": "METAR LQBK 181400Z 10004KT 360V150 CAVOK 10/M03 Q1014 NOSIG",
      "taf": ""
    },
    {
      "icao": "LQSA",
      "alert": "OK",
      "vis_m": 9999,
      "fzfg": false,
      "metar_trigger": false,
      "taf_trigger": false,
      "metar": "METAR LQSA 181400Z 13005KT 100V170 CAVOK 07/M02 Q1014 NOSIG",
      "taf": "TAF LQSA 181100Z 1812/1912 VRB02KT 9999 SCT045 TX08/1912Z TNM02/1902Z"
    },
    {
      "icao": "LQTZ",
      "alert": "OK",
      "vis_m": 9999,
      "fzfg": false,
      "metar_trigger": false,
      "taf_trigger": false,
      "metar": "METAR LQTZ 181400Z 22004KT 150V270 9999 SCT055 08/M03 Q1014",
      "taf": "TAF LQTZ 181100Z 1812/1912 28005KT 9999 SCT045 TX10/1814Z TNM02/1901Z"
    },
    {
      "icao": "LRBC",
      "alert": "OK",
      "vis_m": 4000,
      "fzfg": false,
      "metar_trigger": false,
      "taf_trigger": false,
      "metar": "METAR LRBC 181400Z 35013KT 4000 -SN DRSN BR FEW010 OVC036 M02/M04 Q1007",
      "taf": "TAF LRBC 181100Z 1812/1821 35014KT 5000 -SN BR BKN015 OVC025"
    },
    {
      "icao": "LRBS",
      "alert": "OK",
      "vis_m": 9999,
      "fzfg": false,
      "metar_trigger": false,
      "taf_trigger": false,
      "metar": "METAR LRBS 181400Z 20003KT 170V230 CAVOK 04/01 Q1005 NOSIG",
      "taf": "TAF LRBS 181100Z 1812/1912 VRB04KT 9999 SCT010 OVC030"
    },
    {
      "icao": "LRBV",
      "alert": "OK",
      "vis_m": 9999,
      "fzfg": false,
      "metar_trigger": false,
      "taf_trigger": false,
      "metar": "METAR LRBV 181400Z 31014KT 9999 -SG BKN013 00/M03 Q1006",
      "taf": "TAF LRBV 181100Z 1812/1821 30016KT 1500 -SN BR BKN010 OVC015"
    },
    {
      "icao": "LRCL",
      "alert": "OK",
      "vis_m": 9999,
      "fzfg": false,
      "metar_trigger": false,
      "taf_trigger": false,
      "metar": "METAR LRCL 181400Z 31012KT 9999 FEW050 05/M03 Q1008",
      "taf": "TAF LRCL 181100Z 1812/1821 29015KT 9999 SCT035"
    },
    {
      "icao": "LRCV",
      "alert": "OK",
      "vis_m": 9999,
      "fzfg": false,
      "metar_trigger": false,
      "taf_trigger": false,
      "metar": "METAR LRCV 181400Z 29019KT CAVOK 08/M00 Q1007",
      "taf": "TAF LRCV 181100Z 1812/1821 29016KT CAVOK"
    },
    {
      "icao": "LRIA",
      "alert": "OK",
      "vis_m": 3000,
      "fzfg": false,
      "metar_trigger": false,
      "taf_trigger": false,
      "metar": "METAR LRIA 181400Z 31013KT 3000 -SN BR BKN008 OVC026 M04/M07 Q1007",
      "taf": "TAF LRIA 181100Z 1812/1821 32015KT 3000 -SN BR OVC008"
    },
    {
      "icao": "LROP",
      "alert": "OK",
      "vis_m": 9999,
      "fzfg": false,
      "metar_trigger": false,
      "taf_trigger": false,
      "metar": "METAR LROP 181400Z 21004KT CAVOK 04/04 Q1005 NOSIG",
      "taf": "TAF LROP 181100Z 1812/1912 VRB04KT 9999 SCT010 OVC030"
    },
    {
      "icao": "LRSB",
      "alert": "OK",
      "vis_m": 9999,
      "fzfg": false,
      "metar_trigger": false,
      "taf_trigger": false,
      "metar": "METAR LRSB 181400Z 30014KT 9999 BKN047 SCT065 03/M02 Q1008",
      "taf": "TAF LRSB 181100Z 1812/1912 32012KT 9999 SCT035 BKN065"
    },
    {
      "icao": "LRSM",
      "alert": "OK",
      "vis_m": 9999,
      "fzfg": false,
      "metar_trigger": false,
      "taf_trigger": false,
      "metar": "METAR LRSM 181400Z 26012KT 9999 FEW028 06/01 Q1010",
      "taf": "TAF LRSM 181100Z 1812/1821 29010KT CAVOK"
    },
    {
      "icao": "LRSV",
      "alert": "OK",
      "vis_m": 9999,
      "fzfg": false,
      "metar_trigger": false,
      "taf_trigger": false,
      "metar": "METAR LRSV 181400Z 31011KT 9999 SCT035 M04/M06 Q1006",
      "taf": "TAF LRSV 181100Z 1812/1821 31014KT 5000 -SN BR BKN030"
    },
    {
      "icao": "LRTM",
      "alert": "OK",
      "vis_m": 9999,
      "fzfg": false,
      "metar_trigger": false,
      "taf_trigger": false,
      "metar": "METAR LRTM 181400Z 32007KT 290V350 9999 FEW022 03/M00 Q1009",
      "taf": "TAF LRTM 181100Z 1812/1821 29008KT 9999 SCT015 BKN035"
    },
    {
      "icao": "LRTR",
      "alert": "OK",
      "vis_m": 9999,
      "fzfg": false,
      "metar_trigger": false,
      "taf_trigger": false,
      "metar": "METAR LRTR 181400Z 32009KT 9999 FEW022 FEW040TCU 07/02 Q1012 NOSIG",
      "taf": "TAF LRTR 181100Z 1812/1912 30010KT 9999 SCT015 BKN040"
    },
    {
      "icao": "LTAC",
      "alert": "OK",
      "vis_m": 6000,
      "fzfg": false,
      "metar_trigger": false,
      "taf_trigger": false,
      "metar": "SPECI LTAC 181401Z 25018G33KT 210V270 6000 -SHRA FEW020 BKN030 BKN080 05/02 Q0999 NOSIG",
      "taf": "TAF LTAC 181040Z 1812/1912 24012KT 9999 SCT040 BKN100"
    },
    {
      "icao": "LTFM",
      "alert": "OK",
      "vis_m": 4000,
      "fzfg": false,
      "metar_trigger": false,
      "taf_trigger": false,
      "metar": "METAR LTFM 181350Z 30013KT 4000 -SHSN BR BKN006 BKN022 01/M00 Q1008 NOSIG RMK RWY17L 30013KT RWY34L 30010KT RWY16R 30013KT RWY36 30012KT RWY18 30012KT",
      "taf": "TAF LTFM 181040Z 1812/1918 32018KT 9999 -SHRASN BKN010 BKN025"
    },
    {
      "icao": "LUKK",
      "alert": "OK",
      "vis_m": 1500,
      "fzfg": false,
      "metar_trigger": false,
      "taf_trigger": false,
      "metar": "METAR LUKK 181400Z 35016G30KT 1500 1000NE SN BLSN SCT009 OVC013 M05/M06 Q1004 TEMPO 35018G28KT 0800 +SN BLSN VV006",
      "taf": "TAF LUKK 181103Z 1812/1912 34014KT 5000 SN OVC008"
    },
    {
      "icao": "LWOH",
      "alert": "OK",
      "vis_m": 9999,
      "fzfg": false,
      "metar_trigger": false,
      "taf_trigger": false,
      "metar": "METAR LWOH 181350Z 17007KT 140V240 9999 FEW040 09/M04 Q1012",
      "taf": "TAF LWOH 181120Z 1812/1912 30015KT 9999 FEW040"
    },
    {
      "icao": "LWSK",
      "alert": "OK",
      "vis_m": 9999,
      "fzfg": false,
      "metar_trigger": false,
      "taf_trigger": false,
      "metar": "METAR LWSK 181350Z 35018KT 310V010 9999 FEW070 11/M03 Q1012 NOSIG",
      "taf": "TAF LWSK 181120Z 1812/1912 32015KT 9999 FEW060"
    },
    {
      "icao": "LYBE",
      "alert": "OK",
      "vis_m": 9999,
      "fzfg": false,
      "metar_trigger": false,
      "taf_trigger": false,
      "metar": "METAR LYBE 181400Z 30014KT 9999 SCT040 08/M01 Q1014 NOSIG",
      "taf": "TAF LYBE 181100Z 1812/1912 32015KT 9999 SCT030 TX12/1912Z TN01/1906Z"
    },
    {
      "icao": "LYNI",
      "alert": "OK",
      "vis_m": 9999,
      "fzfg": false,
      "metar_trigger": false,
      "taf_trigger": false,
      "metar": "METAR LYNI 181400Z 31012KT 280V350 9999 FEW025 SCT030 BKN043 08/00 Q1014 NOSIG",
      "taf": ""
    },
    {
      "icao": "LYPG",
      "alert": "OK",
      "vis_m": 9999,
      "fzfg": false,
      "metar_trigger": false,
      "taf_trigger": false,
      "metar": "METAR LYPG 181400Z VRB02KT 9999 FEW040 14/M04 Q1014 NOSIG",
      "taf": "TAF LYPG 181100Z 1812/1912 18007KT CAVOK TX13/1812Z TN02/1901Z"
    },
    {
      "icao": "LZIB",
      "alert": "OK",
      "vis_m": 9999,
      "fzfg": false,
      "metar_trigger": false,
      "taf_trigger": false,
      "metar": "METAR LZIB 181400Z 29015KT 9999 FEW045 07/M05 Q1012 NOSIG",
      "taf": "TAF LZIB 181115Z 1812/1912 26011KT 9999 SCT030"
    },
    {
      "icao": "LZKZ",
      "alert": "OK",
      "vis_m": 9999,
      "fzfg": false,
      "metar_trigger": false,
      "taf_trigger": false,
      "metar": "METAR LZKZ 181400Z 02010KT 9999 VCSH FEW040 03/00 Q1009 NOSIG",
      "taf": "TAF LZKZ 181115Z 1812/1912 18006KT 9999 SCT030"
    },
    {
      "icao": "LZTT",
      "alert": "OK",
      "vis_m": 9999,
      "fzfg": false,
      "metar_trigger": false,
      "taf_trigger": false,
      "metar": "METAR LZTT 181400Z 27016KT 9999 VCSH FEW008 SCT023 03/M04 Q1007 NOSIG",
      "taf": ""
    },
    {
      "icao": "OEJN",
      "alert": "OK",
      "vis_m": 9999,
      "fzfg": false,
      "metar_trigger": false,
      "taf_trigger": false,
      "metar": "METAR OEJN 181400Z 31012KT CAVOK 29/19 Q1010 NOSIG",
      "taf": "TAF OEJN 181100Z 1812/1918 30010KT CAVOK"
    },
    {
      "icao": "OEMA",
      "alert": "OK",
      "vis_m": 9999,
      "fzfg": false,
      "metar_trigger": false,
      "taf_trigger": false,
      "metar": "METAR OEMA 181400Z 30005KT CAVOK 33/M01 Q1013 NOSIG",
      "taf": "TAF OEMA 181100Z 1812/1918 28008KT CAVOK"
    },
    {
      "icao": "OJAI",
      "alert": "OK",
      "vis_m": 4000,
      "fzfg": false,
      "metar_trigger": false,
      "taf_trigger": false,
      "metar": "METAR OJAI 181400Z 26020KT 4000 BLDU NSC 16/02 Q1014 NOSIG",
      "taf": "TAF OJAI 181119Z 1812/1918 24010KT 4000 HZ FEW030"
    },
    {
      "icao": "OMAA",
      "alert": "OK",
      "vis_m": 9999,
      "fzfg": false,
      "metar_trigger": false,
      "taf_trigger": false,
      "metar": "METAR OMAA 181400Z 34013KT CAVOK 26/13 Q1014 NOSIG",
      "taf": "TAF OMAA 181100Z 1812/1918 01012KT 8000 NSC"
    },
    {
      "icao": "OMDB",
      "alert": "OK",
      "vis_m": 9999,
      "fzfg": false,
      "metar_trigger": false,
      "taf_trigger": false,
      "metar": "METAR OMDB 181400Z 36009KT CAVOK 27/11 Q1014 NOSIG",
      "taf": "TAF OMDB 181100Z 1812/1918 35013KT CAVOK"
    },
    {
      "icao": "UAAA",
      "alert": "OK",
      "vis_m": 3300,
      "fzfg": false,
      "metar_trigger": false,
      "taf_trigger": false,
      "metar": "METAR UAAA 181400Z 20002MPS 3300 BR BKN200 09/05 Q1017 NOSIG",
      "taf": "TAF UAAA 181108Z 1812/1912 22003MPS 5000 BR FU SCT050 BKN100 TX20/1909Z TN02/1903Z"
    },
    {
      "icao": "UBBB",
      "alert": "OK",
      "vis_m": 9999,
      "fzfg": false,
      "metar_trigger": false,
      "taf_trigger": false,
      "metar": "METAR UBBB 181400Z 03008KT 9999 BKN008 08/06 Q1009 NOSIG",
      "taf": "TAF UBBB 181047Z 1812/1912 36010KT 9999 SCT015 TX10/1812Z TN04/1900Z"
    },
    {
      "icao": "UDSG",
      "alert": "OK",
      "vis_m": 9999,
      "fzfg": false,
      "metar_trigger": false,
      "taf_trigger": false,
      "metar": "METAR UDSG 181400Z 11003KT 080V150 9999 -RA BKN046 05/01 Q1010 NOSIG",
      "taf": "TAF UDSG 181100Z 1812/1912 VRB06KT 9999 BKN040"
    },
    {
      "icao": "UDYZ",
      "alert": "OK",
      "vis_m": 9999,
      "fzfg": false,
      "metar_trigger": false,
      "taf_trigger": false,
      "metar": "METAR UDYZ 181400Z COR 13008KT 9999 FEW043CB 17/04 Q1008 NOSIG",
      "taf": ""
    },
    {
      "icao": "UGKO",
      "alert": "OK",
      "vis_m": 9999,
      "fzfg": false,
      "metar_trigger": false,
      "taf_trigger": false,
      "metar": "METAR UGKO 181400Z 07013KT 050V110 CAVOK 21/03 Q0998 NOSIG",
      "taf": "TAF UGKO 181100Z 1812/1912 08020KT 9999 BKN050 TX23/1812Z TN06/1912Z"
    }
  ]
}