{
  "ts_utc": "2025-12-30T01:49:51Z",
  "threshold_m": 150,
  "source": "stations_override.txt (ICAO list) + aviationweather.gov (METAR/TAF raw)",
  "station_count": 159,
  "stations": [
    {
      "icao": "BIKF",
      "alert": "OK",
      "vis_m": 9999,
      "fzfg": false,
      "metar_trigger": false,
      "taf_trigger": false,
      "metar": "METAR BIKF 300130Z 31006KT 270V330 9999 OVC028 05/02 Q1039",
      "taf": "TAF BIKF 300141Z 3003/3103 27005KT 9999 BKN019 OVC032 TX06/3020Z TN04/3003Z"
    },
    {
      "icao": "BKPR",
      "alert": "OK",
      "vis_m": 9999,
      "fzfg": false,
      "metar_trigger": false,
      "taf_trigger": false,
      "metar": "METAR BKPR 300130Z 33002KT CAVOK M07/M08 Q1013 NOSIG",
      "taf": "TAF BKPR 292330Z 3000/3024 33006KT CAVOK"
    },
    {
      "icao": "EBCI",
      "alert": "OK",
      "vis_m": 5000,
      "fzfg": false,
      "metar_trigger": false,
      "taf_trigger": false,
      "metar": "METAR EBCI 300120Z 02008KT 5000 BR NSC 02/02 Q1027 NOSIG",
      "taf": "TAF EBCI 292310Z 3000/3106 01007KT 1200 -DZ BR BKN003"
    },
    {
      "icao": "EDDB",
      "alert": "OK",
      "vis_m": 9999,
      "fzfg": false,
      "metar_trigger": false,
      "taf_trigger": false,
      "metar": "METAR EDDB 300120Z AUTO 32009KT CAVOK M01/M05 Q1019 NOSIG",
      "taf": "TAF EDDB 292300Z 3000/3024 33010KT CAVOK"
    },
    {
      "icao": "EDDH",
      "alert": "OK",
      "vis_m": 9999,
      "fzfg": false,
      "metar_trigger": false,
      "taf_trigger": false,
      "metar": "METAR EDDH 300120Z AUTO 32003KT 9999 SCT013 M02/M02 Q1023 NOSIG",
      "taf": "TAF EDDH 292300Z 3000/3106 31004KT CAVOK"
    },
    {
      "icao": "EDDK",
      "alert": "OK",
      "vis_m": 4200,
      "fzfg": false,
      "metar_trigger": false,
      "taf_trigger": false,
      "metar": "METAR EDDK 300120Z AUTO 32006KT 4200 BR BKN006 BKN047 02/02 Q1025 BECMG 6000 SCT004",
      "taf": "TAF EDDK 292300Z 3000/3106 33004KT 2500 BR BKN005"
    },
    {
      "icao": "EDDN",
      "alert": "OK",
      "vis_m": 9999,
      "fzfg": false,
      "metar_trigger": false,
      "taf_trigger": false,
      "metar": "METAR EDDN 300120Z AUTO 28007KT 9999 BKN006 BKN039 00/M01 Q1021 RESN",
      "taf": "TAF EDDN 292300Z 3000/3024 30006KT 9000 BKN006"
    },
    {
      "icao": "EDDS",
      "alert": "OK",
      "vis_m": 8000,
      "fzfg": false,
      "metar_trigger": false,
      "taf_trigger": false,
      "metar": "METAR EDDS 300120Z AUTO VRB02KT 8000 -SN BKN013 OVC033 M02/M03 Q1022",
      "taf": "TAF EDDS 292300Z 3000/3024 VRB02KT 9999 OVC015"
    },
    {
      "icao": "EDFH",
      "alert": "OK",
      "vis_m": 4200,
      "fzfg": false,
      "metar_trigger": false,
      "taf_trigger": false,
      "metar": "METAR EDFH 300120Z 35006KT 310V020 4200 BR OVC001 00/00 Q1023",
      "taf": "TAF EDFH 292300Z 3000/3024 35006KT 4000 BR BKN002"
    },
    {
      "icao": "EDJA",
      "alert": "OK",
      "vis_m": 5000,
      "fzfg": false,
      "metar_trigger": false,
      "taf_trigger": false,
      "metar": "METAR EDJA 300120Z AUTO 21007KT 5000 // BKN004/// OVC017/// M04/M05 Q1021",
      "taf": "TAF EDJA 291700Z 2918/3003 23006KT 6000 OVC003"
    },
    {
      "icao": "EDLW",
      "alert": "OK",
      "vis_m": 9999,
      "fzfg": false,
      "metar_trigger": false,
      "taf_trigger": false,
      "metar": "METAR EDLW 300120Z AUTO 27003KT 9999 // FEW045/// 01/01 Q1025",
      "taf": ""
    },
    {
      "icao": "EDNY",
      "alert": "OK",
      "vis_m": 9999,
      "fzfg": false,
      "metar_trigger": false,
      "taf_trigger": false,
      "metar": "METAR EDNY 300120Z AUTO 03005KT 330V070 9999 OVC017/// M02/M04 Q1023",
      "taf": "TAF EDNY 291700Z 2918/3003 VRB02KT 9999 OVC012"
    },
    {
      "icao": "EDSB",
      "alert": "OK",
      "vis_m": 2300,
      "fzfg": false,
      "metar_trigger": false,
      "taf_trigger": false,
      "metar": "METAR EDSB 300120Z AUTO 20005KT 2300 // OVC003/// M03/M03 Q1025",
      "taf": "TAF EDSB 292300Z 3000/3024 20004KT 3000 BR SCT002 BKN030"
    },
    {
      "icao": "EETN",
      "alert": "OK",
      "vis_m": 2700,
      "fzfg": false,
      "metar_trigger": false,
      "taf_trigger": false,
      "metar": "METAR EETN 300120Z 36013KT 330V030 2700 SHSN DRSN FEW016 SCT018CB OVC024 M04/M07 Q0994",
      "taf": "TAF EETN 292330Z 3000/3024 35016G26KT 9000 SCT012 BKN025"
    },
    {
      "icao": "EFTU",
      "alert": "OK",
      "vis_m": 9999,
      "fzfg": false,
      "metar_trigger": false,
      "taf_trigger": false,
      "metar": "METAR EFTU 300120Z AUTO 35010G21KT 300V030 9999 OVC028 M02/M07 Q0999",
      "taf": "TAF EFTU 292322Z 3000/3024 34013KT 9999 BKN025"
    },
    {
      "icao": "EGBB",
      "alert": "OK",
      "vis_m": 7000,
      "fzfg": false,
      "metar_trigger": false,
      "taf_trigger": false,
      "metar": "METAR EGBB 300120Z 03005KT 7000 -RA BKN008 05/04 Q1032",
      "taf": "TAF EGBB 292308Z 3000/3024 02006KT 9999 BKN025"
    },
    {
      "icao": "EGGP",
      "alert": "OK",
      "vis_m": 9999,
      "fzfg": false,
      "metar_trigger": false,
      "taf_trigger": false,
      "metar": "METAR EGGP 300120Z 02005KT 9999 BKN030 05/02 Q1034",
      "taf": "TAF EGGP 292300Z 3000/3024 02005KT 9999 BKN035"
    },
    {
      "icao": "EGGW",
      "alert": "OK",
      "vis_m": 8000,
      "fzfg": false,
      "metar_trigger": false,
      "taf_trigger": false,
      "metar": "METAR EGGW 300120Z AUTO 03007KT 8000 BKN002 04/04 Q1031",
      "taf": ""
    },
    {
      "icao": "EGKK",
      "alert": "OK",
      "vis_m": 9999,
      "fzfg": false,
      "metar_trigger": false,
      "taf_trigger": false,
      "metar": "METAR EGKK 300120Z 04006KT 9999 SCT014 05/04 Q1030",
      "taf": "TAF EGKK 292254Z 3000/3106 03008KT 9999 SCT025"
    },
    {
      "icao": "EGNM",
      "alert": "OK",
      "vis_m": null,
      "fzfg": false,
      "metar_trigger": false,
      "taf_trigger": false,
      "metar": "",
      "taf": "TAF EGNM 291656Z 2918/3018 01006KT 9999 BKN018"
    },
    {
      "icao": "EGPD",
      "alert": "OK",
      "vis_m": 9999,
      "fzfg": false,
      "metar_trigger": false,
      "taf_trigger": false,
      "metar": "METAR EGPD 300120Z COR AUTO 33005KT 9999 OVC040 02/M01 Q1037 NOSIG",
      "taf": "TAF EGPD 292254Z 3000/3024 30006KT 9999 FEW020 SCT035"
    },
    {
      "icao": "EGPF",
      "alert": "OK",
      "vis_m": 8000,
      "fzfg": false,
      "metar_trigger": false,
      "taf_trigger": false,
      "metar": "METAR EGPF 300120Z AUTO 23003KT 8000 SCT039 M02/M03 Q1038",
      "taf": "TAF EGPF 292253Z 3000/3024 VRB04KT 9999 SCT040"
    },
    {
      "icao": "EHBK",
      "alert": "OK",
      "vis_m": 5000,
      "fzfg": false,
      "metar_trigger": false,
      "taf_trigger": false,
      "metar": "METAR EHBK 300125Z AUTO 35004KT 310V030 5000 BR FEW028 OVC036 03/02 Q1026",
      "taf": "TAF EHBK 292321Z 3000/3106 34005KT 2000 BR BKN001"
    },
    {
      "icao": "EHEH",
      "alert": "OK",
      "vis_m": 9999,
      "fzfg": false,
      "metar_trigger": false,
      "taf_trigger": false,
      "metar": "SPECI EHEH 300135Z AUTO 32004KT 270V350 9999 NCD 01/M00 Q1027 BLU",
      "taf": "TAF EHEH 292353Z 3000/3106 34004KT 9000 BKN040"
    },
    {
      "icao": "EKBI",
      "alert": "OK",
      "vis_m": 9999,
      "fzfg": false,
      "metar_trigger": false,
      "taf_trigger": false,
      "metar": "METAR EKBI 300120Z AUTO 30004KT 9999 NCD M03/M07 Q1024",
      "taf": "TAF EKBI 292327Z 3000/3024 32008KT 9999 SCT040"
    },
    {
      "icao": "EKCH",
      "alert": "OK",
      "vis_m": 9999,
      "fzfg": false,
      "metar_trigger": false,
      "taf_trigger": false,
      "metar": "METAR EKCH 300120Z AUTO 33011KT 9999 NCD 01/M07 Q1019 TEMPO 35018G28KT",
      "taf": "TAF EKCH 292327Z 3000/3024 32012KT CAVOK"
    },
    {
      "icao": "ENAL",
      "alert": "OK",
      "vis_m": 1400,
      "fzfg": false,
      "metar_trigger": false,
      "taf_trigger": false,
      "metar": "METAR ENAL 300120Z AUTO 35016KT 310V010 1400 R24/P2000N -SN VV016 01/M02 Q1030",
      "taf": "TAF ENAL 292300Z 3000/3009 34012KT 9999 FEW004 SCT020CB"
    },
    {
      "icao": "ENBR",
      "alert": "OK",
      "vis_m": 9999,
      "fzfg": false,
      "metar_trigger": false,
      "taf_trigger": false,
      "metar": "METAR ENBR 300120Z AUTO 05003KT 360V080 9999 NCD M01/M04 Q1029 RMK WIND 1200FT 34016KT",
      "taf": "TAF ENBR 292300Z 3000/3024 34008KT CAVOK"
    },
    {
      "icao": "ENGM",
      "alert": "OK",
      "vis_m": 9999,
      "fzfg": false,
      "metar_trigger": false,
      "taf_trigger": false,
      "metar": "METAR ENGM 300120Z 34007KT 290V010 CAVOK M02/M11 Q1020",
      "taf": "TAF ENGM 292300Z 3000/3024 34010KT CAVOK"
    },
    {
      "icao": "ENHD",
      "alert": "OK",
      "vis_m": 9999,
      "fzfg": false,
      "metar_trigger": false,
      "taf_trigger": false,
      "metar": "METAR ENHD 300120Z AUTO 05010KT 010V070 9999 NCD 01/M04 Q1029",
      "taf": "TAF ENHD 291400Z 2915/2923 35025KT 9999 SCT040"
    },
    {
      "icao": "ENTC",
      "alert": "OK",
      "vis_m": 9999,
      "fzfg": false,
      "metar_trigger": false,
      "taf_trigger": false,
      "metar": "METAR ENTC 300120Z 05007KT 9999 -SN FEW009 SCT023 M06/M08 Q1014 RMK WIND 2600FT 35025KT",
      "taf": "TAF ENTC 292300Z 3000/3024 01008KT 8000 -SHSN FEW015 SCT020CB BKN030"
    },
    {
      "icao": "ENTO",
      "alert": "OK",
      "vis_m": 9999,
      "fzfg": false,
      "metar_trigger": false,
      "taf_trigger": false,
      "metar": "METAR ENTO 300120Z AUTO 33009KT 9999 NCD M01/M11 Q1022",
      "taf": "TAF ENTO 292300Z 3000/3024 33010KT CAVOK"
    },
    {
      "icao": "ENVA",
      "alert": "OK",
      "vis_m": 9999,
      "fzfg": false,
      "metar_trigger": false,
      "taf_trigger": false,
      "metar": "METAR ENVA 300120Z 29011KT 9999 FEW010 BKN035 M01/M03 Q1023 RMK WIND 670FT 31024KT",
      "taf": "TAF ENVA 292300Z 3000/3024 31012KT 8000 -SHSN SCT015CB BKN025"
    },
    {
      "icao": "ENZV",
      "alert": "OK",
      "vis_m": 9999,
      "fzfg": false,
      "metar_trigger": false,
      "taf_trigger": false,
      "metar": "METAR ENZV 300120Z AUTO 35013KT 9999 NCD 01/M05 Q1029",
      "taf": "TAF ENZV 292300Z 3000/3024 35009KT CAVOK"
    },
    {
      "icao": "EPGD",
      "alert": "OK",
      "vis_m": 5000,
      "fzfg": false,
      "metar_trigger": false,
      "taf_trigger": false,
      "metar": "METAR EPGD 300130Z 32015KT 5000 -SHSN DRSN FEW005 FEW009CB BKN018 M03/M05 Q1008 RESHSN",
      "taf": "TAF EPGD 292330Z 3000/3024 32020KT 9999 SCT040"
    },
    {
      "icao": "EPKK",
      "alert": "OK",
      "vis_m": 9999,
      "fzfg": false,
      "metar_trigger": false,
      "taf_trigger": false,
      "metar": "METAR EPKK 300130Z 27005KT 9999 FEW042 M00/M03 Q1010",
      "taf": "TAF EPKK 292330Z 3000/3024 25012KT 4000 SN BKN014"
    },
    {
      "icao": "EPKT",
      "alert": "OK",
      "vis_m": 9999,
      "fzfg": false,
      "metar_trigger": false,
      "taf_trigger": false,
      "metar": "METAR EPKT 300130Z 30007KT 9999 FEW016 SCT020 M01/M03 Q1010",
      "taf": ""
    },
    {
      "icao": "EPLB",
      "alert": "OK",
      "vis_m": 9999,
      "fzfg": false,
      "metar_trigger": false,
      "taf_trigger": false,
      "metar": "METAR EPLB 300130Z 29007KT CAVOK M05/M07 Q1006",
      "taf": "TAF EPLB 292330Z 3000/3024 29013KT 9999 SCT040"
    },
    {
      "icao": "EPMO",
      "alert": "OK",
      "vis_m": 9999,
      "fzfg": false,
      "metar_trigger": false,
      "taf_trigger": false,
      "metar": "METAR EPMO 300130Z 28014KT CAVOK M02/M07 Q1006",
      "taf": "TAF EPMO 292330Z 3000/3024 29012KT 9999 FEW040"
    },
    {
      "icao": "EPPO",
      "alert": "OK",
      "vis_m": 9999,
      "fzfg": false,
      "metar_trigger": false,
      "taf_trigger": false,
      "metar": "METAR EPPO 300130Z 31012KT CAVOK M01/M07 Q1013",
      "taf": "TAF EPPO 292330Z 3000/3024 32010KT CAVOK"
    },
    {
      "icao": "EPRA",
      "alert": "OK",
      "vis_m": 9999,
      "fzfg": false,
      "metar_trigger": false,
      "taf_trigger": false,
      "metar": "METAR EPRA 300130Z 30008KT CAVOK M02/M07 Q1007",
      "taf": "TAF EPRA 292330Z 3000/3009 32014KT CAVOK"
    },
    {
      "icao": "EPRZ",
      "alert": "OK",
      "vis_m": 9999,
      "fzfg": false,
      "metar_trigger": false,
      "taf_trigger": false,
      "metar": "METAR EPRZ 300130Z 32010KT 9999 SCT018 M00/M03 Q1007",
      "taf": ""
    },
    {
      "icao": "EPSC",
      "alert": "OK",
      "vis_m": 9999,
      "fzfg": false,
      "metar_trigger": false,
      "taf_trigger": false,
      "metar": "METAR EPSC 300130Z 32010KT CAVOK M00/M07 Q1016",
      "taf": "TAF EPSC 292330Z 3000/3024 30010KT CAVOK"
    },
    {
      "icao": "EPSY",
      "alert": "OK",
      "vis_m": 9999,
      "fzfg": false,
      "metar_trigger": false,
      "taf_trigger": false,
      "metar": "METAR EPSY 300130Z 28008KT 9999 SCT032 BKN040 M03/M03 Q1004",
      "taf": "TAF EPSY 292330Z 3000/3009 30008KT 9999 SCT030"
    },
    {
      "icao": "EPWA",
      "alert": "OK",
      "vis_m": 9999,
      "fzfg": false,
      "metar_trigger": false,
      "taf_trigger": false,
      "metar": "METAR EPWA 300130Z 28012KT 9999 FEW030 M03/M07 Q1007 NOSIG",
      "taf": "TAF EPWA 292330Z 3000/3024 29012KT 9999 FEW040"
    },
    {
      "icao": "EPWR",
      "alert": "OK",
      "vis_m": 9999,
      "fzfg": false,
      "metar_trigger": false,
      "taf_trigger": false,
      "metar": "METAR EPWR 300130Z 31013KT CAVOK 00/M04 Q1014",
      "taf": "TAF EPWR 292330Z 3000/3024 33012KT CAVOK"
    },
    {
      "icao": "ESGG",
      "alert": "OK",
      "vis_m": 9999,
      "fzfg": false,
      "metar_trigger": false,
      "taf_trigger": false,
      "metar": "METAR ESGG 300120Z 33010KT CAVOK M03/M10 Q1018",
      "taf": "TAF ESGG 292330Z 3000/3024 34007KT CAVOK"
    },
    {
      "icao": "ESKN",
      "alert": "OK",
      "vis_m": 9999,
      "fzfg": false,
      "metar_trigger": false,
      "taf_trigger": false,
      "metar": "METAR ESKN 300120Z 31012KT CAVOK M02/M09 Q1011",
      "taf": "TAF ESKN 292330Z 3000/3024 33015G25KT CAVOK"
    },
    {
      "icao": "ESMS",
      "alert": "OK",
      "vis_m": 9999,
      "fzfg": false,
      "metar_trigger": false,
      "taf_trigger": false,
      "metar": "METAR ESMS 300120Z 32011KT CAVOK M02/M08 Q1018",
      "taf": "TAF ESMS 292327Z 3000/3024 33012KT CAVOK"
    },
    {
      "icao": "ESSA",
      "alert": "OK",
      "vis_m": 9999,
      "fzfg": false,
      "metar_trigger": false,
      "taf_trigger": false,
      "metar": "METAR ESSA 300120Z 31014KT 9999 -SHSN FEW027 SCT055TCU M03/M10 Q1009 NOSIG",
      "taf": ""
    },
    {
      "icao": "EYKA",
      "alert": "OK",
      "vis_m": 9999,
      "fzfg": false,
      "metar_trigger": false,
      "taf_trigger": false,
      "metar": "METAR EYKA 300120Z 28008KT 250V310 CAVOK M04/M06 Q0999",
      "taf": "TAF EYKA 292313Z 3000/3024 28010KT 9000 SCT020"
    },
    {
      "icao": "EYPA",
      "alert": "OK",
      "vis_m": 9999,
      "fzfg": false,
      "metar_trigger": false,
      "taf_trigger": false,
      "metar": "METAR EYPA 300120Z 34004KT 270V060 9999 -SHSN BKN057CB M02/M04 Q1003",
      "taf": "TAF EYPA 292311Z 3000/3024 35012G23KT 5000 SHSN SCT020CB BKN025"
    },
    {
      "icao": "EYVI",
      "alert": "OK",
      "vis_m": 9999,
      "fzfg": false,
      "metar_trigger": false,
      "taf_trigger": false,
      "metar": "METAR EYVI 300120Z 29009KT 250V320 9999 BKN012 M04/M07 Q0997 NOSIG",
      "taf": "TAF EYVI 292316Z 3000/3024 29010KT 9000 SCT015"
    },
    {
      "icao": "GCFV",
      "alert": "OK",
      "vis_m": 9999,
      "fzfg": false,
      "metar_trigger": false,
      "taf_trigger": false,
      "metar": "METAR GCFV 300130Z AUTO 27005KT CAVOK 15/11 Q1021",
      "taf": "TAF GCFV 292000Z 2921/3021 29004KT 9999 FEW035 TX21/3014Z TN14/3006Z"
    },
    {
      "icao": "GCLP",
      "alert": "OK",
      "vis_m": 9999,
      "fzfg": false,
      "metar_trigger": false,
      "taf_trigger": false,
      "metar": "METAR GCLP 300130Z 26005KT 240V330 9999 FEW025 17/12 Q1021 NOSIG",
      "taf": "TAF GCLP 292000Z 2921/3021 30004KT 9999 SCT030 TX22/3014Z TN15/3006Z"
    },
    {
      "icao": "GCTS",
      "alert": "OK",
      "vis_m": 9999,
      "fzfg": false,
      "metar_trigger": false,
      "taf_trigger": false,
      "metar": "METAR GCTS 300130Z 36008KT 350V050 9999 FEW025 16/09 Q1021 NOSIG",
      "taf": "TAF GCTS 292000Z 2921/3021 35003KT 9999 SCT030 TX24/3014Z TN16/3006Z"
    },
    {
      "icao": "GMAD",
      "alert": "OK",
      "vis_m": 9999,
      "fzfg": false,
      "metar_trigger": false,
      "taf_trigger": false,
      "metar": "METAR GMAD 300130Z 03004KT 9999 FEW026 09/09 Q1021 NOSIG",
      "taf": "TAF GMAD 292300Z 3000/3106 16005KT 8000 SCT020"
    },
    {
      "icao": "GMMN",
      "alert": "OK",
      "vis_m": 5000,
      "fzfg": false,
      "metar_trigger": false,
      "taf_trigger": false,
      "metar": "METAR GMMN 300130Z 18006KT 5000 FEW010 SCT016 08/07 Q1021 NOSIG",
      "taf": "TAF GMMN 292300Z 3000/3106 15003KT 6000 FEW010 SCT016"
    },
    {
      "icao": "GMMX",
      "alert": "OK",
      "vis_m": 8000,
      "fzfg": false,
      "metar_trigger": false,
      "taf_trigger": false,
      "metar": "METAR GMMX 300130Z VRB01KT 8000 SCT020 08/07 Q1020 NOSIG",
      "taf": "TAF GMMX 292300Z 3000/3106 14006KT 8000 SCT020"
    },
    {
      "icao": "HEGN",
      "alert": "OK",
      "vis_m": 9999,
      "fzfg": false,
      "metar_trigger": false,
      "taf_trigger": false,
      "metar": "METAR HEGN 300100Z 30005KT CAVOK 12/02 Q1020 NOSIG",
      "taf": "TAF HEGN 292300Z 3000/3106 30010KT CAVOK"
    },
    {
      "icao": "HEMA",
      "alert": "OK",
      "vis_m": 9999,
      "fzfg": false,
      "metar_trigger": false,
      "taf_trigger": false,
      "metar": "METAR HEMA 300100Z 25008KT CAVOK 15/11 Q1017 NOSIG",
      "taf": "TAF HEMA 292300Z 3000/3106 26010KT CAVOK"
    },
    {
      "icao": "HESH",
      "alert": "OK",
      "vis_m": 9999,
      "fzfg": false,
      "metar_trigger": false,
      "taf_trigger": false,
      "metar": "METAR HESH 300100Z 27004KT CAVOK 17/03 Q1018 NOSIG",
      "taf": "TAF HESH 292300Z 3000/3106 33010KT CAVOK"
    },
    {
      "icao": "HESX",
      "alert": "OK",
      "vis_m": 9999,
      "fzfg": false,
      "metar_trigger": false,
      "taf_trigger": false,
      "metar": "METAR HESX 300100Z 15004KT CAVOK 13/09 Q1020 NOSIG",
      "taf": "TAF HESX 292300Z 3000/3106 31009KT 9999 SCT025"
    },
    {
      "icao": "LATI",
      "alert": "OK",
      "vis_m": null,
      "fzfg": false,
      "metar_trigger": false,
      "taf_trigger": false,
      "metar": "",
      "taf": "TAF LATI 292300Z 3000/3024 VRB05KT CAVOK TX15/3012Z TNM03/3005Z"
    },
    {
      "icao": "LBPD",
      "alert": "OK",
      "vis_m": 9999,
      "fzfg": false,
      "metar_trigger": false,
      "taf_trigger": false,
      "metar": "METAR LBPD 300130Z AUTO 20003KT 9999 NCD 00/M08 Q1010",
      "taf": "TAF LBPD 292300Z 3000/3024 VRB04KT CAVOK"
    },
    {
      "icao": "LBSF",
      "alert": "OK",
      "vis_m": 9999,
      "fzfg": false,
      "metar_trigger": false,
      "taf_trigger": false,
      "metar": "METAR LBSF 300130Z AUTO 15003KT 100V190 9999 NCD M06/M09 Q1011 NOSIG",
      "taf": "TAF LBSF 292300Z 3000/3024 VRB04KT CAVOK"
    },
    {
      "icao": "LBWN",
      "alert": "OK",
      "vis_m": 9999,
      "fzfg": false,
      "metar_trigger": false,
      "taf_trigger": false,
      "metar": "METAR LBWN 300130Z AUTO 31007KT 9999 NCD M02/M07 Q1008 NOSIG",
      "taf": "TAF LBWN 292300Z 3000/3024 29008KT CAVOK"
    },
    {
      "icao": "LCLK",
      "alert": "OK",
      "vis_m": 9999,
      "fzfg": false,
      "metar_trigger": false,
      "taf_trigger": false,
      "metar": "METAR LCLK 300130Z 31006KT CAVOK 06/02 Q1018 NOSIG",
      "taf": "TAF LCLK 292330Z 3000/3100 35008KT 9999 FEW025"
    },
    {
      "icao": "LCPH",
      "alert": "OK",
      "vis_m": 9999,
      "fzfg": false,
      "metar_trigger": false,
      "taf_trigger": false,
      "metar": "METAR LCPH 300130Z AUTO 05005KT 010V080 9999 NCD 08/02 Q1018 NOSIG",
      "taf": "TAF LCPH 292330Z 3000/3100 04008KT 9999 FEW020"
    },
    {
      "icao": "LEAL",
      "alert": "OK",
      "vis_m": 9999,
      "fzfg": false,
      "metar_trigger": false,
      "taf_trigger": false,
      "metar": "METAR LEAL 300130Z 27006KT CAVOK 11/09 Q1020 NOSIG",
      "taf": "TAF LEAL 292300Z 3000/3024 29005KT 9999 FEW020 TX18/3013Z TN07/3006Z"
    },
    {
      "icao": "LEBB",
      "alert": "OK",
      "vis_m": 9999,
      "fzfg": false,
      "metar_trigger": false,
      "taf_trigger": false,
      "metar": "METAR LEBB 300130Z AUTO VRB02KT 9999 BKN037 06/05 Q1021",
      "taf": "TAF LEBB 292300Z 3000/3024 VRB03KT 9999 SCT020 BKN030 TX12/3014Z TN05/3006Z"
    },
    {
      "icao": "LEBL",
      "alert": "OK",
      "vis_m": 9999,
      "fzfg": false,
      "metar_trigger": false,
      "taf_trigger": false,
      "metar": "METAR LEBL 300130Z 32010KT CAVOK 09/08 Q1018 NOSIG",
      "taf": "TAF LEBL 292300Z 3000/3024 34006KT 9999 FEW020 TX15/3012Z TN07/3007Z"
    },
    {
      "icao": "LECH",
      "alert": "OK",
      "vis_m": 6000,
      "fzfg": false,
      "metar_trigger": false,
      "taf_trigger": false,
      "metar": "METAR LECH 300130Z AUTO 17004KT 150V210 6000 OVC060 06/06 Q1019",
      "taf": ""
    },
    {
      "icao": "LEMD",
      "alert": "OK",
      "vis_m": 9999,
      "fzfg": false,
      "metar_trigger": false,
      "taf_trigger": false,
      "metar": "METAR LEMD 300130Z 36002KT CAVOK 02/02 Q1020 NOSIG",
      "taf": "TAF LEMD 292300Z 3000/3106 VRB04KT CAVOK TX11/3015Z TNM01/3007Z"
    },
    {
      "icao": "LEMG",
      "alert": "OK",
      "vis_m": 9999,
      "fzfg": false,
      "metar_trigger": false,
      "taf_trigger": false,
      "metar": "METAR LEMG 300130Z 30008KT CAVOK 07/06 Q1021 NOSIG",
      "taf": "TAF LEMG 292300Z 3000/3024 29008KT 9999 FEW050 TX18/3014Z TN06/3006Z"
    },
    {
      "icao": "LEVC",
      "alert": "OK",
      "vis_m": 9999,
      "fzfg": false,
      "metar_trigger": false,
      "taf_trigger": false,
      "metar": "METAR LEVC 300130Z VRB02KT CAVOK 06/06 Q1019 NOSIG",
      "taf": "TAF LEVC 292300Z 3000/3024 29006KT 9999 FEW030 TX17/3013Z TN05/3006Z"
    },
    {
      "icao": "LEXJ",
      "alert": "OK",
      "vis_m": 6000,
      "fzfg": false,
      "metar_trigger": false,
      "taf_trigger": false,
      "metar": "METAR LEXJ 300130Z AUTO 30002KT 6000 FEW060 08/06 Q1021",
      "taf": ""
    },
    {
      "icao": "LEZG",
      "alert": "OK",
      "vis_m": 8000,
      "fzfg": false,
      "metar_trigger": false,
      "taf_trigger": false,
      "metar": "METAR LEZG 300130Z 26004KT 8000 FEW080 06/06 Q1020 NOSIG",
      "taf": "TAF LEZG 292300Z 3000/3024 29008KT 9999 FEW010 TX13/3014Z TN04/3006Z"
    },
    {
      "icao": "LEZL",
      "alert": "OK",
      "vis_m": 4300,
      "fzfg": false,
      "metar_trigger": false,
      "taf_trigger": false,
      "metar": "METAR LEZL 300130Z AUTO 15003KT 4300 BR NCD 08/08 Q1021",
      "taf": "TAF LEZL 292000Z 2921/3021 VRB03KT CAVOK TX16/3015Z TN06/3006Z"
    },
    {
      "icao": "LFBD",
      "alert": "OK",
      "vis_m": 450,
      "fzfg": false,
      "metar_trigger": false,
      "taf_trigger": false,
      "metar": "METAR LFBD 300130Z AUTO VRB03KT 0450 0400 R23/0700U R05/0600N R29/0450N FG VV/// 01/01 Q1022 BECMG 3000 BR OVC002",
      "taf": "TAF LFBD 292300Z 3000/3106 VRB03KT 0500 FG VV/// TX05/3014Z TNM02/3106Z"
    },
    {
      "icao": "LFLL",
      "alert": "OK",
      "vis_m": 9000,
      "fzfg": false,
      "metar_trigger": false,
      "taf_trigger": false,
      "metar": "METAR LFLL 300130Z 32007KT 290V360 9000 OVC006 M01/M02 Q1022 NOSIG",
      "taf": "TAF LFLL 292300Z 3000/3106 36005KT 7000 OVC007"
    },
    {
      "icao": "LFLS",
      "alert": "OK",
      "vis_m": 5000,
      "fzfg": false,
      "metar_trigger": false,
      "taf_trigger": false,
      "metar": "METAR LFLS 300130Z AUTO 33005KT 300V360 5000 BR OVC003 M02/M02 Q1020",
      "taf": ""
    },
    {
      "icao": "LFMN",
      "alert": "OK",
      "vis_m": 9999,
      "fzfg": false,
      "metar_trigger": false,
      "taf_trigger": false,
      "metar": "METAR LFMN 300130Z 33013KT CAVOK 06/M02 Q1014 NOSIG",
      "taf": "TAF LFMN 292000Z 2921/3103 33010KT CAVOK"
    },
    {
      "icao": "LFOB",
      "alert": "OK",
      "vis_m": 8000,
      "fzfg": false,
      "metar_trigger": false,
      "taf_trigger": false,
      "metar": "METAR LFOB 300130Z AUTO 36004KT 8000 SCT006 SCT015 OVC033 03/02 Q1027",
      "taf": ""
    },
    {
      "icao": "LFPO",
      "alert": "OK",
      "vis_m": 9999,
      "fzfg": false,
      "metar_trigger": false,
      "taf_trigger": false,
      "metar": "METAR LFPO 300130Z AUTO 05006KT 9999 OVC023 03/M00 Q1027 TEMPO BKN004",
      "taf": "TAF LFPO 292300Z 3000/3106 05012KT 9999 OVC019"
    },
    {
      "icao": "LFSB",
      "alert": "OK",
      "vis_m": 6000,
      "fzfg": true,
      "metar_trigger": false,
      "taf_trigger": false,
      "metar": "METAR LFSB 300130Z AUTO VRB02KT 6000 OVC005 M03/M03 Q1024 TEMPO 0500 FZFG VV///",
      "taf": "TAF LFSB 292300Z 3000/3024 33005KT 4000 BR OVC005"
    },
    {
      "icao": "LGAV",
      "alert": "OK",
      "vis_m": 9999,
      "fzfg": false,
      "metar_trigger": false,
      "taf_trigger": false,
      "metar": "METAR LGAV 300120Z 27002KT 9999 FEW025 05/02 Q1016 NOSIG",
      "taf": "TAF LGAV 292300Z 3000/3024 23008KT 9999 FEW025"
    },
    {
      "icao": "LGTS",
      "alert": "OK",
      "vis_m": 9999,
      "fzfg": false,
      "metar_trigger": false,
      "taf_trigger": false,
      "metar": "METAR LGTS 300120Z 10005KT CAVOK M00/M04 Q1014 NOSIG",
      "taf": "TAF LGTS 292300Z 3000/3024 VRB03KT CAVOK"
    },
    {
      "icao": "LHBP",
      "alert": "OK",
      "vis_m": 9999,
      "fzfg": false,
      "metar_trigger": false,
      "taf_trigger": false,
      "metar": "METAR LHBP 300130Z 31015KT 9999 BKN046 01/M03 Q1012 NOSIG",
      "taf": "TAF LHBP 292315Z 3000/3024 30009KT CAVOK"
    },
    {
      "icao": "LHDC",
      "alert": "OK",
      "vis_m": 6000,
      "fzfg": false,
      "metar_trigger": false,
      "taf_trigger": false,
      "metar": "METAR LHDC 300115Z AUTO 28003KT 6000 NCD M06/M07 Q1010",
      "taf": "TAF LHDC 291715Z 2918/3003 14006KT CAVOK"
    },
    {
      "icao": "LIBD",
      "alert": "OK",
      "vis_m": 9999,
      "fzfg": false,
      "metar_trigger": false,
      "taf_trigger": false,
      "metar": "METAR LIBD 300120Z 21004KT CAVOK 03/02 Q1014",
      "taf": "TAF LIBD 292300Z 3000/3024 20006KT 9999 SCT030"
    },
    {
      "icao": "LIBG",
      "alert": "OK",
      "vis_m": null,
      "fzfg": false,
      "metar_trigger": false,
      "taf_trigger": false,
      "metar": "",
      "taf": "TAF LIBG 291700Z 2918/3003 VRB05KT CAVOK"
    },
    {
      "icao": "LIBP",
      "alert": "OK",
      "vis_m": 9999,
      "fzfg": false,
      "metar_trigger": false,
      "taf_trigger": false,
      "metar": "METAR LIBP 300120Z AUTO 22004KT 9999 BKN012/// M00/M00 Q1015",
      "taf": "TAF LIBP 292300Z 3000/3024 VRB05KT 4000 BR FEW030"
    },
    {
      "icao": "LIBR",
      "alert": "OK",
      "vis_m": 9999,
      "fzfg": false,
      "metar_trigger": false,
      "taf_trigger": false,
      "metar": "METAR LIBR 300120Z 18004KT CAVOK 07/06 Q1015",
      "taf": "TAF LIBR 292300Z 3000/3024 23006KT 9999 FEW025"
    },
    {
      "icao": "LICA",
      "alert": "OK",
      "vis_m": 9999,
      "fzfg": false,
      "metar_trigger": false,
      "taf_trigger": false,
      "metar": "METAR LICA 300120Z AUTO 08004KT 9999 FEW024/// SCT045/// 07/06 Q1015",
      "taf": "TAF LICA 292300Z 3000/3024 07006KT 9999 SCT030"
    },
    {
      "icao": "LICC",
      "alert": "OK",
      "vis_m": 9999,
      "fzfg": false,
      "metar_trigger": false,
      "taf_trigger": false,
      "metar": "METAR LICC 300120Z 24006KT 9999 SCT080 08/06 Q1015",
      "taf": "TAF LICC 292300Z 3000/3024 26010KT 9999 SCT030"
    },
    {
      "icao": "LICJ",
      "alert": "OK",
      "vis_m": 9999,
      "fzfg": false,
      "metar_trigger": false,
      "taf_trigger": false,
      "metar": "METAR LICJ 300120Z 19006KT CAVOK 10/08 Q1016",
      "taf": "TAF LICJ 292300Z 3000/3024 17006KT 9999 SCT020"
    },
    {
      "icao": "LIMC",
      "alert": "OK",
      "vis_m": 9999,
      "fzfg": false,
      "metar_trigger": false,
      "taf_trigger": false,
      "metar": "METAR LIMC 300120Z 02004KT CAVOK M02/M03 Q1013 NOSIG",
      "taf": "TAF LIMC 292300Z 3000/3106 VRB04KT CAVOK"
    },
    {
      "icao": "LIME",
      "alert": "OK",
      "vis_m": 9999,
      "fzfg": false,
      "metar_trigger": false,
      "taf_trigger": false,
      "metar": "METAR LIME 300120Z 01004KT CAVOK 01/M03 Q1013 NOSIG",
      "taf": "TAF LIME 292300Z 3000/3024 VRB04KT CAVOK"
    },
    {
      "icao": "LIMF",
      "alert": "OK",
      "vis_m": 9999,
      "fzfg": false,
      "metar_trigger": false,
      "taf_trigger": false,
      "metar": "METAR LIMF 300120Z 32003KT 280V350 CAVOK 00/M05 Q1013",
      "taf": "TAF LIMF 292300Z 3000/3024 VRB05KT CAVOK"
    },
    {
      "icao": "LIMJ",
      "alert": "OK",
      "vis_m": 9999,
      "fzfg": false,
      "metar_trigger": false,
      "taf_trigger": false,
      "metar": "METAR LIMJ 300120Z VRB02KT 9999 BKN030 12/06 Q1014",
      "taf": "TAF LIMJ 292300Z 3000/3024 VRB05KT 9999 FEW020"
    },
    {
      "icao": "LIPE",
      "alert": "OK",
      "vis_m": 9999,
      "fzfg": false,
      "metar_trigger": false,
      "taf_trigger": false,
      "metar": "METAR LIPE 300120Z 29003KT 260V330 CAVOK M01/M03 Q1014",
      "taf": ""
    },
    {
      "icao": "LIPH",
      "alert": "OK",
      "vis_m": 200,
      "fzfg": false,
      "metar_trigger": false,
      "taf_trigger": false,
      "metar": "METAR LIPH 300120Z AUTO VRB02KT 0200 0150W R07/0600N FG VV002 00/00 Q1014",
      "taf": ""
    },
    {
      "icao": "LIPQ",
      "alert": "OK",
      "vis_m": 9999,
      "fzfg": false,
      "metar_trigger": false,
      "taf_trigger": false,
      "metar": "METAR LIPQ 300120Z AUTO 06003KT 040V170 9999 BKN022/// 03/02 Q1014",
      "taf": ""
    },
    {
      "icao": "LIPR",
      "alert": "OK",
      "vis_m": 9999,
      "fzfg": false,
      "metar_trigger": false,
      "taf_trigger": false,
      "metar": "METAR LIPR 300120Z AUTO 21004KT 9999 NCD 00/M01 Q1013",
      "taf": ""
    },
    {
      "icao": "LIPX",
      "alert": "OK",
      "vis_m": 4000,
      "fzfg": false,
      "metar_trigger": false,
      "taf_trigger": false,
      "metar": "METAR LIPX 300120Z 21003KT 4000 BR NSC M03/M03 Q1013",
      "taf": "TAF LIPX 292300Z 3000/3024 VRB05KT 1000 BCFG NSC"
    },
    {
      "icao": "LIPY",
      "alert": "OK",
      "vis_m": 150,
      "fzfg": false,
      "metar_trigger": false,
      "taf_trigger": false,
      "metar": "METAR LIPY 300120Z AUTO 18004KT 0150 R22/0650N -RA FG VV002 03/03 Q1014",
      "taf": ""
    },
    {
      "icao": "LIPZ",
      "alert": "CRITICAL",
      "vis_m": 100,
      "fzfg": true,
      "metar_trigger": true,
      "taf_trigger": false,
      "metar": "METAR LIPZ 300120Z 36004KT 0100 R04R/0650N FZFG VV001 M01/M01 Q1014 NOSIG",
      "taf": "TAF LIPZ 292300Z 3000/3106 VRB05KT 0200 FZFG BKN001"
    },
    {
      "icao": "LIRF",
      "alert": "OK",
      "vis_m": 9999,
      "fzfg": false,
      "metar_trigger": false,
      "taf_trigger": false,
      "metar": "METAR LIRF 300120Z 06003KT 020V090 9999 SCT040 07/05 Q1016 NOSIG",
      "taf": "TAF LIRF 292300Z 3000/3106 07007KT 9999 SCT025"
    },
    {
      "icao": "LIRN",
      "alert": "OK",
      "vis_m": 9999,
      "fzfg": false,
      "metar_trigger": false,
      "taf_trigger": false,
      "metar": "METAR LIRN 300120Z VRB02KT CAVOK 06/02 Q1015 NOSIG",
      "taf": "TAF LIRN 292300Z 3000/3024 VRB05KT 9999 FEW025"
    },
    {
      "icao": "LIRP",
      "alert": "OK",
      "vis_m": 9999,
      "fzfg": false,
      "metar_trigger": false,
      "taf_trigger": false,
      "metar": "METAR LIRP 300045Z 12004KT 9999 FEW030 SCT040 04/03 Q1015 NOSIG",
      "taf": "TAF LIRP 292300Z 3000/3024 14005KT 9999 SCT020 SCT040"
    },
    {
      "icao": "LIRZ",
      "alert": "OK",
      "vis_m": 9999,
      "fzfg": false,
      "metar_trigger": false,
      "taf_trigger": false,
      "metar": "METAR LIRZ 300120Z AUTO VRB01KT 9999 BKN031/// 00/M00 Q1016",
      "taf": "TAF LIRZ 292300Z 3000/3024 VRB03KT 9999 FEW030"
    },
    {
      "icao": "LJLJ",
      "alert": "OK",
      "vis_m": 300,
      "fzfg": true,
      "metar_trigger": false,
      "taf_trigger": false,
      "metar": "METAR LJLJ 300130Z VRB01KT 0300 R30/0250N FZFG VV001 M05/M06 Q1013 NOSIG",
      "taf": "TAF LJLJ 292300Z 3000/3100 30002KT 9999 FEW002"
    },
    {
      "icao": "LKMT",
      "alert": "OK",
      "vis_m": 6000,
      "fzfg": false,
      "metar_trigger": false,
      "taf_trigger": false,
      "metar": "METAR LKMT 300130Z 34005KT 300V020 6000 -SN SCT015 OVC044 M00/M01 Q1012 NOSIG",
      "taf": "TAF LKMT 292300Z 3000/3024 23008KT 6000 -SN OVC025"
    },
    {
      "icao": "LKPR",
      "alert": "OK",
      "vis_m": 9999,
      "fzfg": false,
      "metar_trigger": false,
      "taf_trigger": false,
      "metar": "METAR LKPR 300130Z 31009KT 9999 SCT004 SCT012 00/M01 Q1016 NOSIG",
      "taf": "TAF LKPR 292300Z 3000/3106 32014KT 9999 SCT012 BKN020"
    },
    {
      "icao": "LLBG",
      "alert": "OK",
      "vis_m": 9999,
      "fzfg": false,
      "metar_trigger": false,
      "taf_trigger": false,
      "metar": "METAR LLBG 300120Z 14007KT 9999 SCT050 12/08 Q1018 NOSIG",
      "taf": "TAF LLBG 292308Z 3000/3024 VRB04KT 9999 SCT040"
    },
    {
      "icao": "LMML",
      "alert": "OK",
      "vis_m": 9999,
      "fzfg": false,
      "metar_trigger": false,
      "taf_trigger": false,
      "metar": "METAR LMML 300145Z 30004KT 9999 FEW045 10/09 Q1015 NOSIG",
      "taf": "TAF LMML 292300Z 3000/3024 26005KT 9999 SCT019"
    },
    {
      "icao": "LOWW",
      "alert": "OK",
      "vis_m": 9999,
      "fzfg": false,
      "metar_trigger": false,
      "taf_trigger": false,
      "metar": "METAR LOWW 300120Z 29018KT 9999 FEW040 BKN050 00/M05 Q1015 NOSIG",
      "taf": "TAF LOWW 292315Z 3000/3106 30013KT CAVOK TX02/3013Z TNM02/3102Z"
    },
    {
      "icao": "LPFR",
      "alert": "OK",
      "vis_m": 9999,
      "fzfg": false,
      "metar_trigger": false,
      "taf_trigger": false,
      "metar": "METAR LPFR 300130Z 03006KT CAVOK 08/06 Q1021",
      "taf": "TAF LPFR 292300Z 3000/3024 03005KT 9999 SCT012"
    },
    {
      "icao": "LPMA",
      "alert": "OK",
      "vis_m": 9999,
      "fzfg": false,
      "metar_trigger": false,
      "taf_trigger": false,
      "metar": "METAR LPMA 300130Z 22010KT 190V280 9999 SCT015 18/15 Q1017",
      "taf": "TAF LPMA 292300Z 3000/3024 20020KT 9999 SCT015"
    },
    {
      "icao": "LPPR",
      "alert": "OK",
      "vis_m": 6000,
      "fzfg": false,
      "metar_trigger": false,
      "taf_trigger": false,
      "metar": "METAR LPPR 300130Z VRB02KT 6000 NSC 06/05 Q1021",
      "taf": "TAF LPPR 292300Z 3000/3024 VRB02KT CAVOK"
    },
    {
      "icao": "LPPS",
      "alert": "OK",
      "vis_m": 9999,
      "fzfg": false,
      "metar_trigger": false,
      "taf_trigger": false,
      "metar": "METAR LPPS 300130Z 21014KT 9999 FEW010 18/16 Q1017",
      "taf": "TAF LPPS 292300Z 3000/3106 22013KT 9999 SCT012 BKN030"
    },
    {
      "icao": "LPPT",
      "alert": "OK",
      "vis_m": 9999,
      "fzfg": false,
      "metar_trigger": false,
      "taf_trigger": false,
      "metar": "METAR LPPT 300130Z 00000KT CAVOK 07/07 Q1021",
      "taf": "TAF LPPT 292300Z 3000/3106 VRB02KT CAVOK"
    },
    {
      "icao": "LQBK",
      "alert": "OK",
      "vis_m": 4000,
      "fzfg": false,
      "metar_trigger": false,
      "taf_trigger": false,
      "metar": "METAR LQBK 300130Z 31006KT 4000 BR OVC003 M03/M03 Q1016 NOSIG",
      "taf": "TAF LQBK 292300Z 3000/3024 36005KT CAVOK TX03/3013Z TNM06/3005Z"
    },
    {
      "icao": "LQSA",
      "alert": "OK",
      "vis_m": 5000,
      "fzfg": false,
      "metar_trigger": false,
      "taf_trigger": false,
      "metar": "METAR LQSA 300130Z 00000KT 5000 BR NSC M07/M07 Q1013",
      "taf": ""
    },
    {
      "icao": "LQTZ",
      "alert": "OK",
      "vis_m": 4000,
      "fzfg": false,
      "metar_trigger": false,
      "taf_trigger": false,
      "metar": "METAR LQTZ 300130Z 07002KT 4000 BR NSC M06/M06 Q1014",
      "taf": "TAF LQTZ 292300Z 3000/3024 VRB02KT CAVOK TX02/3013Z TNM07/3005Z"
    },
    {
      "icao": "LRBC",
      "alert": "OK",
      "vis_m": 9999,
      "fzfg": false,
      "metar_trigger": false,
      "taf_trigger": false,
      "metar": "METAR LRBC 300130Z 30001KT CAVOK M05/M07 Q1006",
      "taf": "TAF LRBC 292300Z 3000/3009 VRB04KT CAVOK"
    },
    {
      "icao": "LRBS",
      "alert": "OK",
      "vis_m": 9999,
      "fzfg": false,
      "metar_trigger": false,
      "taf_trigger": false,
      "metar": "METAR LRBS 300130Z 28002KT CAVOK M03/M05 Q1008 NOSIG",
      "taf": "TAF LRBS 292300Z 3000/3024 VRB04KT CAVOK"
    },
    {
      "icao": "LRBV",
      "alert": "OK",
      "vis_m": 9999,
      "fzfg": false,
      "metar_trigger": false,
      "taf_trigger": false,
      "metar": "METAR LRBV 300130Z AUTO 21005KT 9999 NCD M08/M10 Q1007",
      "taf": "TAF LRBV 292000Z 2921/3006 27008KT 9999 SCT030"
    },
    {
      "icao": "LRCL",
      "alert": "OK",
      "vis_m": 9999,
      "fzfg": false,
      "metar_trigger": false,
      "taf_trigger": false,
      "metar": "METAR LRCL 300130Z 25004KT 9999 BKN034 M07/M08 Q1009",
      "taf": "TAF LRCL 292300Z 3000/3009 VRB04KT 9999 SCT030"
    },
    {
      "icao": "LRCV",
      "alert": "OK",
      "vis_m": 9999,
      "fzfg": false,
      "metar_trigger": false,
      "taf_trigger": false,
      "metar": "METAR LRCV 300130Z 28017KT CAVOK 02/M07 Q1007",
      "taf": "TAF LRCV 292300Z 3000/3009 28018KT CAVOK"
    },
    {
      "icao": "LRIA",
      "alert": "OK",
      "vis_m": 9999,
      "fzfg": false,
      "metar_trigger": false,
      "taf_trigger": false,
      "metar": "METAR LRIA 300130Z 24004KT 200V260 9999 OVC035 01/M06 Q1006",
      "taf": "TAF LRIA 292300Z 3000/3009 25006KT CAVOK"
    },
    {
      "icao": "LROP",
      "alert": "OK",
      "vis_m": 9999,
      "fzfg": false,
      "metar_trigger": false,
      "taf_trigger": false,
      "metar": "METAR LROP 300130Z 22003KT CAVOK M05/M05 Q1007 NOSIG",
      "taf": "TAF LROP 292300Z 3000/3024 VRB04KT CAVOK"
    },
    {
      "icao": "LRSB",
      "alert": "OK",
      "vis_m": 9999,
      "fzfg": false,
      "metar_trigger": false,
      "taf_trigger": false,
      "metar": "METAR LRSB 300130Z 23005KT CAVOK M09/M10 Q1007 NOSIG",
      "taf": "TAF LRSB 292300Z 3000/3024 VRB04KT CAVOK"
    },
    {
      "icao": "LRSM",
      "alert": "OK",
      "vis_m": 9999,
      "fzfg": false,
      "metar_trigger": false,
      "taf_trigger": false,
      "metar": "METAR LRSM 300130Z AUTO 35002KT 9999 OVC049/// M02/M04 Q1009",
      "taf": "TAF LRSM 291400Z 2915/2924 25014KT 9999 BKN015"
    },
    {
      "icao": "LRSV",
      "alert": "OK",
      "vis_m": 9999,
      "fzfg": false,
      "metar_trigger": false,
      "taf_trigger": false,
      "metar": "METAR LRSV 300130Z 25007KT 9999 BKN034 M02/M07 Q1004",
      "taf": "TAF LRSV 292300Z 3000/3009 26006KT CAVOK"
    },
    {
      "icao": "LRTM",
      "alert": "OK",
      "vis_m": 9999,
      "fzfg": false,
      "metar_trigger": false,
      "taf_trigger": false,
      "metar": "METAR LRTM 300130Z AUTO 08003KT 9999 R25////// FEW200/// M08/M09 Q1008",
      "taf": "TAF LRTM 291400Z 2915/2924 22010KT CAVOK"
    },
    {
      "icao": "LRTR",
      "alert": "OK",
      "vis_m": 9999,
      "fzfg": false,
      "metar_trigger": false,
      "taf_trigger": false,
      "metar": "METAR LRTR 300130Z 25004KT CAVOK M04/M05 Q1012 NOSIG",
      "taf": "TAF LRTR 292300Z 3000/3024 26005KT CAVOK"
    },
    {
      "icao": "LTAC",
      "alert": "OK",
      "vis_m": 9999,
      "fzfg": false,
      "metar_trigger": false,
      "taf_trigger": false,
      "metar": "METAR LTAC 300120Z 18005KT 9999 FEW040 M05/M07 Q1014 NOSIG RMK RWY21C 18006KT RWY03L 18004KT RWY21R 17006KT RWY03R 16005KT RWY21L 18007KT",
      "taf": "TAF LTAC 292240Z 3000/3024 21007KT 9999 SCT040"
    },
    {
      "icao": "LTFM",
      "alert": "OK",
      "vis_m": 9999,
      "fzfg": false,
      "metar_trigger": false,
      "taf_trigger": false,
      "metar": "METAR LTFM 300120Z 21019KT CAVOK 06/02 Q1012 NOSIG RMK RWY17L 21018KT RWY34L 20016KT RWY16R 21015KT RWY36 21017KT RWY18 22019KT",
      "taf": "TAF LTFM 292240Z 3000/3106 22018KT CAVOK"
    },
    {
      "icao": "LUKK",
      "alert": "OK",
      "vis_m": 9999,
      "fzfg": false,
      "metar_trigger": false,
      "taf_trigger": false,
      "metar": "METAR LUKK 300130Z 28009KT 9999 OVC037 M01/M06 Q1005 NOSIG",
      "taf": "TAF LUKK 292309Z 3000/3024 29010KT 9999 BKN040"
    },
    {
      "icao": "LWOH",
      "alert": "OK",
      "vis_m": null,
      "fzfg": false,
      "metar_trigger": false,
      "taf_trigger": false,
      "metar": "",
      "taf": "TAF LWOH 292030Z 2921/3021 34006KT CAVOK"
    },
    {
      "icao": "LWSK",
      "alert": "OK",
      "vis_m": null,
      "fzfg": false,
      "metar_trigger": false,
      "taf_trigger": false,
      "metar": "",
      "taf": "TAF LWSK 292030Z 2921/3021 VRB02KT CAVOK"
    },
    {
      "icao": "LYBE",
      "alert": "OK",
      "vis_m": 9999,
      "fzfg": false,
      "metar_trigger": false,
      "taf_trigger": false,
      "metar": "METAR LYBE 300130Z 31009KT CAVOK M01/M04 Q1014 NOSIG",
      "taf": "TAF LYBE 292300Z 3000/3024 25005KT CAVOK TX04/3013Z TNM04/3006Z"
    },
    {
      "icao": "LYNI",
      "alert": "OK",
      "vis_m": 9999,
      "fzfg": false,
      "metar_trigger": false,
      "taf_trigger": false,
      "metar": "METAR LYNI 300130Z 10004KT CAVOK M03/M06 Q1013 NOSIG",
      "taf": "TAF LYNI 292300Z 3000/3024 10004KT 7000 NSC TX04/3013Z TNM05/3006Z"
    },
    {
      "icao": "LYPG",
      "alert": "OK",
      "vis_m": 9999,
      "fzfg": false,
      "metar_trigger": false,
      "taf_trigger": false,
      "metar": "METAR LYPG 300130Z VRB02KT CAVOK M01/M05 Q1016 NOSIG",
      "taf": "TAF LYPG 292300Z 3000/3024 36006KT CAVOK TX09/3013Z TNM02/3005Z"
    },
    {
      "icao": "LZIB",
      "alert": "OK",
      "vis_m": 9999,
      "fzfg": false,
      "metar_trigger": false,
      "taf_trigger": false,
      "metar": "METAR LZIB 300130Z 26009KT 230V290 9999 -SHSN FEW023 BKN033 00/M04 Q1014 NOSIG",
      "taf": "TAF LZIB 292315Z 3000/3100 30010KT CAVOK"
    },
    {
      "icao": "LZKZ",
      "alert": "OK",
      "vis_m": 9999,
      "fzfg": false,
      "metar_trigger": false,
      "taf_trigger": false,
      "metar": "METAR LZKZ 300130Z 20005KT 9999 BKN038 M03/M06 Q1009 NOSIG",
      "taf": "TAF LZKZ 292315Z 3000/3100 VRB02KT CAVOK"
    },
    {
      "icao": "LZTT",
      "alert": "OK",
      "vis_m": 9999,
      "fzfg": false,
      "metar_trigger": false,
      "taf_trigger": false,
      "metar": "METAR LZTT 300130Z 30006KT 260V340 9999 -SN SCT013 OVC046 M02/M05 Q1006",
      "taf": "TAF LZTT 292315Z 3000/3100 VRB02KT 9999 -SN SCT012 OVC018"
    },
    {
      "icao": "OEJN",
      "alert": "OK",
      "vis_m": 9999,
      "fzfg": false,
      "metar_trigger": false,
      "taf_trigger": false,
      "metar": "METAR OEJN 300100Z 04003KT CAVOK 20/15 Q1016 NOSIG",
      "taf": "TAF OEJN 292300Z 3000/3106 02006KT 7000 NSC"
    },
    {
      "icao": "OEMA",
      "alert": "OK",
      "vis_m": 9999,
      "fzfg": false,
      "metar_trigger": false,
      "taf_trigger": false,
      "metar": "METAR OEMA 300100Z 36003KT CAVOK 14/03 Q1020 NOSIG",
      "taf": "TAF OEMA 292300Z 3000/3106 VRB03KT CAVOK"
    },
    {
      "icao": "OJAI",
      "alert": "OK",
      "vis_m": 2500,
      "fzfg": false,
      "metar_trigger": false,
      "taf_trigger": false,
      "metar": "METAR OJAI 300100Z 26008KT 2500 BR SCT025 08/07 Q1018 NOSIG",
      "taf": "TAF OJAI 292300Z 3000/3106 27014KT 3000 BR SCT030"
    },
    {
      "icao": "OMAA",
      "alert": "OK",
      "vis_m": 9999,
      "fzfg": false,
      "metar_trigger": false,
      "taf_trigger": false,
      "metar": "METAR OMAA 300100Z 32011KT CAVOK 21/11 Q1014 NOSIG",
      "taf": "TAF OMAA 292300Z 3000/3106 34007KT 8000 NSC"
    },
    {
      "icao": "OMDB",
      "alert": "OK",
      "vis_m": 9999,
      "fzfg": false,
      "metar_trigger": false,
      "taf_trigger": false,
      "metar": "METAR OMDB 300130Z 30017KT 9999 FEW045 23/10 Q1013 NOSIG",
      "taf": "TAF OMDB 292300Z 3000/3106 29013KT 8000 NSC"
    },
    {
      "icao": "UAAA",
      "alert": "OK",
      "vis_m": 3800,
      "fzfg": false,
      "metar_trigger": false,
      "taf_trigger": false,
      "metar": "METAR UAAA 300130Z 15001MPS 3800 BR FU SCT100 BKN200 M03/M04 Q1006 NOSIG",
      "taf": "TAF UAAA 292301Z 3000/3024 23003MPS 2100 BR FU SCT050CB BKN100 TX07/3009Z TNM04/3001Z"
    },
    {
      "icao": "UBBB",
      "alert": "OK",
      "vis_m": 9999,
      "fzfg": false,
      "metar_trigger": false,
      "taf_trigger": false,
      "metar": "METAR UBBB 300130Z 25008KT CAVOK 05/02 Q1000 NOSIG",
      "taf": ""
    },
    {
      "icao": "UDSG",
      "alert": "OK",
      "vis_m": 9999,
      "fzfg": false,
      "metar_trigger": false,
      "taf_trigger": false,
      "metar": "METAR UDSG 300130Z 13005KT 9999 SCT043 M16/M18 Q1007 NOSIG",
      "taf": "TAF UDSG 292258Z 3000/3024 VRB06KT 9999 BKN030"
    },
    {
      "icao": "UDYZ",
      "alert": "OK",
      "vis_m": 400,
      "fzfg": true,
      "metar_trigger": false,
      "taf_trigger": false,
      "metar": "METAR UDYZ 300130Z 09003KT 0400 0050N R08/1200U FZFG FEW033 M13/M15 Q1009 NOSIG",
      "taf": "TAF UDYZ 292300Z 3000/3024 VRB04KT 1500 BR SCT030"
    },
    {
      "icao": "UGKO",
      "alert": "OK",
      "vis_m": 9999,
      "fzfg": false,
      "metar_trigger": false,
      "taf_trigger": false,
      "metar": "METAR UGKO 300130Z 23013KT 9999 -RA SCT002 BKN021CB OVC025 00/00 Q1009 NOSIG",
      "taf": "TAF UGKO 292300Z 3000/3024 25010KT 7000 -SNRA SCT015 OVC035 TX02/3012Z TNM01/3018Z"
    }
  ]
}