{
  "ts_utc": "2026-06-14T14:25:48Z",
  "threshold_m": 150,
  "source": "stations_override.txt (ICAO list) + aviationweather.gov (METAR/TAF raw)",
  "station_count": 159,
  "stations": [
    {
      "icao": "BIKF",
      "alert": "OK",
      "vis_m": 9999,
      "fzfg": false,
      "metar_trigger": false,
      "taf_trigger": false,
      "metar": "METAR BIKF 141400Z 30007KT 250V330 9999 SCT018 14/09 Q1025",
      "taf": "TAF BIKF 141351Z 1415/1515 32008KT 9999 SCT020 TX14/1415Z TN08/1504Z"
    },
    {
      "icao": "BKPR",
      "alert": "OK",
      "vis_m": null,
      "fzfg": false,
      "metar_trigger": false,
      "taf_trigger": false,
      "metar": "",
      "taf": "TAF BKPR 141130Z 1412/1512 24008KT CAVOK"
    },
    {
      "icao": "EBCI",
      "alert": "OK",
      "vis_m": 9999,
      "fzfg": false,
      "metar_trigger": false,
      "taf_trigger": false,
      "metar": "METAR EBCI 141350Z 31006KT 270V350 9999 FEW035 17/08 Q1019 NOSIG",
      "taf": "TAF EBCI 141101Z 1412/1518 32010KT 9999 SCT045"
    },
    {
      "icao": "EDDB",
      "alert": "OK",
      "vis_m": 9999,
      "fzfg": false,
      "metar_trigger": false,
      "taf_trigger": false,
      "metar": "METAR EDDB 141420Z AUTO 27015KT CAVOK 17/12 Q1008 RESHRA TEMPO SHRA SCT040CB",
      "taf": "TAF EDDB 141100Z 1412/1512 26015KT 9999 SCT035"
    },
    {
      "icao": "EDDH",
      "alert": "OK",
      "vis_m": 9999,
      "fzfg": false,
      "metar_trigger": false,
      "taf_trigger": false,
      "metar": "METAR EDDH 141420Z AUTO 29017KT 260V320 9999 -RADZ SCT027 BKN036 OVC048 14/09 Q1010 TEMPO 29015G30KT",
      "taf": "TAF EDDH 141100Z 1412/1518 29015G25KT 9999 BKN025"
    },
    {
      "icao": "EDDK",
      "alert": "OK",
      "vis_m": 9999,
      "fzfg": false,
      "metar_trigger": false,
      "taf_trigger": false,
      "metar": "METAR EDDK 141420Z AUTO 27014KT 9999 FEW045 18/09 Q1017 NOSIG",
      "taf": "TAF EDDK 141100Z 1412/1518 30013KT 9999 SCT040"
    },
    {
      "icao": "EDDN",
      "alert": "OK",
      "vis_m": 9999,
      "fzfg": false,
      "metar_trigger": false,
      "taf_trigger": false,
      "metar": "METAR EDDN 141420Z AUTO 31013KT 270V340 9999 FEW040 18/08 Q1015 TEMPO 30015G25KT",
      "taf": "TAF EDDN 141100Z 1412/1512 28010KT CAVOK"
    },
    {
      "icao": "EDDS",
      "alert": "OK",
      "vis_m": 9999,
      "fzfg": false,
      "metar_trigger": false,
      "taf_trigger": false,
      "metar": "METAR EDDS 141420Z AUTO 30016KT 260V330 CAVOK 22/08 Q1015 NOSIG",
      "taf": "TAF EDDS 141100Z 1412/1512 29012KT 9999 SCT040"
    },
    {
      "icao": "EDFH",
      "alert": "OK",
      "vis_m": 9999,
      "fzfg": false,
      "metar_trigger": false,
      "taf_trigger": false,
      "metar": "METAR EDFH 141350Z COR 30008KT 270V350 9999 SCT044 15/07 Q1017",
      "taf": "TAF EDFH 141100Z 1412/1512 30010KT 9999 SCT040"
    },
    {
      "icao": "EDJA",
      "alert": "OK",
      "vis_m": 9999,
      "fzfg": false,
      "metar_trigger": false,
      "taf_trigger": false,
      "metar": "METAR EDJA 141350Z 32016KT CAVOK 23/05 Q1015",
      "taf": "TAF EDJA 141100Z 1412/1421 32012KT CAVOK"
    },
    {
      "icao": "EDLW",
      "alert": "OK",
      "vis_m": 9999,
      "fzfg": false,
      "metar_trigger": false,
      "taf_trigger": false,
      "metar": "METAR EDLW 141350Z 27008KT 220V310 9999 FEW032 16/09 Q1016",
      "taf": "TAF EDLW 141100Z 1412/1512 27007KT 9999 SCT040"
    },
    {
      "icao": "EDNY",
      "alert": "OK",
      "vis_m": 9999,
      "fzfg": false,
      "metar_trigger": false,
      "taf_trigger": false,
      "metar": "METAR EDNY 141350Z 26010KT 220V330 CAVOK 26/03 Q1014",
      "taf": "TAF EDNY 141100Z 1412/1421 25012KT CAVOK"
    },
    {
      "icao": "EDSB",
      "alert": "OK",
      "vis_m": 9999,
      "fzfg": false,
      "metar_trigger": false,
      "taf_trigger": false,
      "metar": "METAR EDSB 141350Z 26008KT 200V310 CAVOK 22/09 Q1016",
      "taf": "TAF EDSB 141100Z 1412/1512 28005KT CAVOK"
    },
    {
      "icao": "EETN",
      "alert": "OK",
      "vis_m": 9999,
      "fzfg": false,
      "metar_trigger": false,
      "taf_trigger": false,
      "metar": "METAR EETN 141420Z 11007KT 050V130 9999 SCT020 BKN047 16/11 Q0999 NOSIG",
      "taf": "TAF EETN 141130Z 1412/1512 13010KT 9999 BKN020"
    },
    {
      "icao": "EFTU",
      "alert": "OK",
      "vis_m": 9999,
      "fzfg": false,
      "metar_trigger": false,
      "taf_trigger": false,
      "metar": "METAR EFTU 141420Z AUTO 15009KT 120V190 9999 BKN029 15/08 Q0999",
      "taf": "TAF EFTU 141124Z 1412/1512 18012KT 9999 BKN023"
    },
    {
      "icao": "EGBB",
      "alert": "OK",
      "vis_m": 9999,
      "fzfg": false,
      "metar_trigger": false,
      "taf_trigger": false,
      "metar": "METAR EGBB 141420Z 35006KT 270V040 9999 SCT041 18/09 Q1020",
      "taf": "TAF EGBB 141054Z 1412/1512 31008KT 9999 SCT035"
    },
    {
      "icao": "EGGP",
      "alert": "OK",
      "vis_m": 9999,
      "fzfg": false,
      "metar_trigger": false,
      "taf_trigger": false,
      "metar": "METAR EGGP 141420Z 27009KT 9999 SCT039 16/08 Q1021",
      "taf": "TAF EGGP 141057Z 1412/1512 30007KT 9999 SCT025"
    },
    {
      "icao": "EGGW",
      "alert": "OK",
      "vis_m": 9999,
      "fzfg": false,
      "metar_trigger": false,
      "taf_trigger": false,
      "metar": "METAR EGGW 141420Z AUTO 32007KT 270V350 9999 FEW041 18/08 Q1020",
      "taf": "TAF EGGW 141058Z 1412/1512 30009KT 9999 FEW030"
    },
    {
      "icao": "EGKK",
      "alert": "OK",
      "vis_m": 9999,
      "fzfg": false,
      "metar_trigger": false,
      "taf_trigger": false,
      "metar": "METAR EGKK 141420Z VRB05KT CAVOK 20/08 Q1019",
      "taf": "TAF EGKK 141058Z 1412/1518 31010KT 9999 FEW035"
    },
    {
      "icao": "EGNM",
      "alert": "OK",
      "vis_m": 9999,
      "fzfg": false,
      "metar_trigger": false,
      "taf_trigger": false,
      "metar": "METAR EGNM 141420Z 03009KT 340V070 9999 SCT040 SCT045 15/08 Q1020",
      "taf": "TAF EGNM 141056Z 1412/1512 01008KT 9999 FEW030"
    },
    {
      "icao": "EGPD",
      "alert": "OK",
      "vis_m": 9999,
      "fzfg": false,
      "metar_trigger": false,
      "taf_trigger": false,
      "metar": "METAR EGPD 141420Z COR AUTO 33018KT 9999 BKN024 OVC031 13/07 Q1021 NOSIG",
      "taf": "TAF EGPD 141055Z 1412/1512 33012KT 9999 FEW016 SCT035"
    },
    {
      "icao": "EGPF",
      "alert": "OK",
      "vis_m": 9999,
      "fzfg": false,
      "metar_trigger": false,
      "taf_trigger": false,
      "metar": "METAR EGPF 141420Z AUTO 03004KT 310V080 9999 NCD 19/08 Q1020",
      "taf": "TAF EGPF 141058Z 1412/1512 07006KT 9999 SCT045"
    },
    {
      "icao": "EHBK",
      "alert": "OK",
      "vis_m": 9999,
      "fzfg": false,
      "metar_trigger": false,
      "taf_trigger": false,
      "metar": "METAR EHBK 141355Z AUTO 26009KT 220V320 9999 NSC 17/10 Q1018 NOSIG",
      "taf": "TAF EHBK 141110Z 1412/1518 30010KT CAVOK"
    },
    {
      "icao": "EHEH",
      "alert": "OK",
      "vis_m": 9999,
      "fzfg": false,
      "metar_trigger": false,
      "taf_trigger": false,
      "metar": "METAR EHEH 141355Z AUTO 29009KT 240V350 9999 SCT063 BKN240 18/08 Q1017 BLU NOSIG RMK TREND REMOTE BY EHWX",
      "taf": "TAF EHEH 141109Z 1412/1518 30010KT 9999 SCT030 BKN060"
    },
    {
      "icao": "EKBI",
      "alert": "OK",
      "vis_m": 9999,
      "fzfg": false,
      "metar_trigger": false,
      "taf_trigger": false,
      "metar": "METAR EKBI 141420Z AUTO 29015KT 9999 BKN028/// BKN062/// 17/10 Q1007",
      "taf": "TAF EKBI 141127Z 1412/1512 29014KT 9999 SCT020"
    },
    {
      "icao": "EKCH",
      "alert": "OK",
      "vis_m": 9999,
      "fzfg": false,
      "metar_trigger": false,
      "taf_trigger": false,
      "metar": "METAR EKCH 141420Z 31015KT 9999 FEW020CB SCT022 BKN085 16/11 Q1003 TEMPO 4000 SHRA",
      "taf": "TAF EKCH 141127Z 1412/1512 30010KT 9999 BKN020"
    },
    {
      "icao": "ENAL",
      "alert": "OK",
      "vis_m": 9999,
      "fzfg": false,
      "metar_trigger": false,
      "taf_trigger": false,
      "metar": "METAR ENAL 141350Z 02010KT 350V050 9999 BKN031 12/07 Q1015",
      "taf": "TAF ENAL 141100Z 1412/1421 03012KT 9999 BKN020"
    },
    {
      "icao": "ENBR",
      "alert": "OK",
      "vis_m": 9999,
      "fzfg": false,
      "metar_trigger": false,
      "taf_trigger": false,
      "metar": "METAR ENBR 141350Z 31013KT 9999 SCT050 17/10 Q1009 NOSIG RMK WIND 1200FT 33023KT",
      "taf": "TAF ENBR 141100Z 1412/1512 33015KT CAVOK"
    },
    {
      "icao": "ENGM",
      "alert": "OK",
      "vis_m": 9999,
      "fzfg": false,
      "metar_trigger": false,
      "taf_trigger": false,
      "metar": "METAR ENGM 141350Z 07003KT 360V120 CAVOK 15/09 Q1003 NOSIG",
      "taf": "TAF ENGM 141100Z 1412/1512 34008KT 9999 FEW030 SCT050"
    },
    {
      "icao": "ENHD",
      "alert": "OK",
      "vis_m": 9999,
      "fzfg": false,
      "metar_trigger": false,
      "taf_trigger": false,
      "metar": "METAR ENHD 141350Z 32017KT 9999 FEW008 15/11 Q1009",
      "taf": "TAF ENHD 141100Z 1412/1421 33012KT CAVOK"
    },
    {
      "icao": "ENTC",
      "alert": "OK",
      "vis_m": 9999,
      "fzfg": false,
      "metar_trigger": false,
      "taf_trigger": false,
      "metar": "METAR ENTC 141350Z 03017KT 9999 FEW038 SCT064 12/05 Q1015 NOSIG RMK WIND 2600FT 09011KT",
      "taf": "TAF ENTC 141100Z 1412/1512 03012KT 9999 FEW030 BKN040"
    },
    {
      "icao": "ENTO",
      "alert": "OK",
      "vis_m": 9999,
      "fzfg": false,
      "metar_trigger": false,
      "taf_trigger": false,
      "metar": "METAR ENTO 141350Z 28006KT 250V310 9999 VCSH FEW030CB 18/12 Q1003 NOSIG",
      "taf": ""
    },
    {
      "icao": "ENVA",
      "alert": "OK",
      "vis_m": 9999,
      "fzfg": false,
      "metar_trigger": false,
      "taf_trigger": false,
      "metar": "METAR ENVA 141350Z 28018KT 9999 SCT033 14/08 Q1010 NOSIG RMK WIND 670FT 29025KT",
      "taf": "TAF ENVA 141100Z 1412/1512 29015KT 9999 SCT012"
    },
    {
      "icao": "ENZV",
      "alert": "OK",
      "vis_m": 9999,
      "fzfg": false,
      "metar_trigger": false,
      "taf_trigger": false,
      "metar": "METAR ENZV 141350Z 31014KT CAVOK 16/12 Q1009 NOSIG",
      "taf": "TAF ENZV 141100Z 1412/1512 31008KT CAVOK"
    },
    {
      "icao": "EPGD",
      "alert": "OK",
      "vis_m": 9999,
      "fzfg": false,
      "metar_trigger": false,
      "taf_trigger": false,
      "metar": "METAR EPGD 141400Z 26014KT 9999 SCT025 14/10 Q1001",
      "taf": "TAF EPGD 141130Z 1412/1512 26015KT 9999 SCT025 BKN045"
    },
    {
      "icao": "EPKK",
      "alert": "OK",
      "vis_m": 9999,
      "fzfg": false,
      "metar_trigger": false,
      "taf_trigger": false,
      "metar": "METAR EPKK 141400Z 24008KT 200V260 9999 SCT063 15/11 Q1009",
      "taf": "TAF EPKK 141130Z 1412/1512 25010KT 9999 SCT050"
    },
    {
      "icao": "EPKT",
      "alert": "OK",
      "vis_m": 9999,
      "fzfg": false,
      "metar_trigger": false,
      "taf_trigger": false,
      "metar": "METAR EPKT 141400Z 27016KT 9999 FEW043CB 16/07 Q1009",
      "taf": "TAF EPKT 141130Z 1412/1512 25012KT 9999 SCT030"
    },
    {
      "icao": "EPLB",
      "alert": "OK",
      "vis_m": 9999,
      "fzfg": false,
      "metar_trigger": false,
      "taf_trigger": false,
      "metar": "METAR EPLB 141400Z 26017KT 9999 -SHRA FEW033 BKN041CB 15/09 Q1007",
      "taf": "TAF EPLB 141130Z 1412/1512 24015KT 9999 SCT030"
    },
    {
      "icao": "EPMO",
      "alert": "OK",
      "vis_m": 9999,
      "fzfg": false,
      "metar_trigger": false,
      "taf_trigger": false,
      "metar": "METAR EPMO 141400Z 21007KT 150V250 9999 SCT047CB 15/11 Q1005",
      "taf": "TAF EPMO 141130Z 1412/1512 24015KT 9999 SCT020"
    },
    {
      "icao": "EPPO",
      "alert": "OK",
      "vis_m": 9999,
      "fzfg": false,
      "metar_trigger": false,
      "taf_trigger": false,
      "metar": "METAR EPPO 141400Z 27012KT 9999 -SHRA SCT022CB 13/11 Q1006",
      "taf": "TAF EPPO 141130Z 1412/1512 27015G25KT 9999 SCT030CB"
    },
    {
      "icao": "EPRA",
      "alert": "OK",
      "vis_m": 9999,
      "fzfg": false,
      "metar_trigger": false,
      "taf_trigger": false,
      "metar": "METAR EPRA 141400Z 25014KT 9999 SCT040 16/08 Q1006",
      "taf": "TAF EPRA 141130Z 1412/1421 26012KT 9999 SCT040"
    },
    {
      "icao": "EPRZ",
      "alert": "OK",
      "vis_m": 9999,
      "fzfg": false,
      "metar_trigger": false,
      "taf_trigger": false,
      "metar": "METAR EPRZ 141400Z 28015KT 9999 FEW040CB 19/06 Q1007",
      "taf": "TAF EPRZ 141130Z 1412/1512 27014KT 9999 SCT030"
    },
    {
      "icao": "EPSC",
      "alert": "OK",
      "vis_m": 9999,
      "fzfg": false,
      "metar_trigger": false,
      "taf_trigger": false,
      "metar": "METAR EPSC 141400Z 28018G28KT 9999 SCT021TCU BKN031 16/11 Q1004",
      "taf": "TAF EPSC 141130Z 1412/1512 26012KT 9999 SCT045"
    },
    {
      "icao": "EPSY",
      "alert": "OK",
      "vis_m": 9999,
      "fzfg": false,
      "metar_trigger": false,
      "taf_trigger": false,
      "metar": "METAR EPSY 141400Z 25010KT 220V280 9999 -SHRA BKN020CB 14/09 Q1003",
      "taf": "TAF EPSY 141130Z 1412/1421 23012KT 9999 BKN030"
    },
    {
      "icao": "EPWA",
      "alert": "OK",
      "vis_m": 9999,
      "fzfg": false,
      "metar_trigger": false,
      "taf_trigger": false,
      "metar": "METAR EPWA 141400Z 28011KT 9999 -TSRA BKN033CB 14/10 Q1005 TEMPO 4000 SHRA",
      "taf": "TAF EPWA 141130Z 1412/1512 25015KT 9999 BKN030"
    },
    {
      "icao": "EPWR",
      "alert": "OK",
      "vis_m": 9999,
      "fzfg": false,
      "metar_trigger": false,
      "taf_trigger": false,
      "metar": "METAR EPWR 141400Z 26013KT 9999 FEW040 16/10 Q1008",
      "taf": "TAF EPWR 141130Z 1412/1512 27015G25KT 9999 SCT040CB"
    },
    {
      "icao": "ESGG",
      "alert": "OK",
      "vis_m": 9999,
      "fzfg": false,
      "metar_trigger": false,
      "taf_trigger": false,
      "metar": "METAR ESGG 141420Z 32005KT CAVOK 13/11 Q1002",
      "taf": ""
    },
    {
      "icao": "ESKN",
      "alert": "OK",
      "vis_m": 9999,
      "fzfg": false,
      "metar_trigger": false,
      "taf_trigger": false,
      "metar": "METAR ESKN 141420Z 27008KT 220V320 9999 -RA SCT011 BKN037 12/11 Q0997",
      "taf": "TAF ESKN 141130Z 1412/1512 31007KT 9999 -RA FEW025"
    },
    {
      "icao": "ESMS",
      "alert": "OK",
      "vis_m": 9999,
      "fzfg": false,
      "metar_trigger": false,
      "taf_trigger": false,
      "metar": "METAR ESMS 141420Z 32009KT 9999 VCSH FEW024CB 16/11 Q1002",
      "taf": ""
    },
    {
      "icao": "ESSA",
      "alert": "OK",
      "vis_m": 9999,
      "fzfg": false,
      "metar_trigger": false,
      "taf_trigger": false,
      "metar": "METAR ESSA 141420Z 21013KT 9999 VCSH FEW017 BKN024 10/07 Q0995 NOSIG",
      "taf": "TAF ESSA 141130Z 1412/1512 27010KT 9999 -RA SCT014 BKN040"
    },
    {
      "icao": "EYKA",
      "alert": "OK",
      "vis_m": 9999,
      "fzfg": false,
      "metar_trigger": false,
      "taf_trigger": false,
      "metar": "METAR EYKA 141420Z 28006KT 220V330 9999 -SHRA FEW011 SCT052CB 14/10 Q1001",
      "taf": "TAF EYKA 141100Z 1412/1512 23010KT 9000 BKN030"
    },
    {
      "icao": "EYPA",
      "alert": "OK",
      "vis_m": 9999,
      "fzfg": false,
      "metar_trigger": false,
      "taf_trigger": false,
      "metar": "METAR EYPA 141420Z 24007KT 190V320 9999 FEW013 15/10 Q0998",
      "taf": "TAF EYPA 141100Z 1412/1512 24010KT 9000 BKN030"
    },
    {
      "icao": "EYVI",
      "alert": "OK",
      "vis_m": 9999,
      "fzfg": false,
      "metar_trigger": false,
      "taf_trigger": false,
      "metar": "METAR EYVI 141420Z 24009KT 210V270 9999 FEW035 17/07 Q1001 TEMPO 5000 SHRA BKN020CB",
      "taf": "TAF EYVI 141100Z 1412/1512 21010KT 9000 BKN030"
    },
    {
      "icao": "GCFV",
      "alert": "OK",
      "vis_m": 9999,
      "fzfg": false,
      "metar_trigger": false,
      "taf_trigger": false,
      "metar": "METAR GCFV 141400Z 04014KT 9999 FEW020 23/16 Q1019",
      "taf": "TAF GCFV 140800Z 1409/1509 03014KT 9999 FEW020 TX25/1414Z TN19/1506Z"
    },
    {
      "icao": "GCLP",
      "alert": "OK",
      "vis_m": 9999,
      "fzfg": false,
      "metar_trigger": false,
      "taf_trigger": false,
      "metar": "METAR GCLP 141400Z 02028KT 9999 FEW030 24/15 Q1019 NOSIG",
      "taf": "TAF GCLP 141400Z 1415/1515 01023KT 9999 FEW030 TX24/1514Z TN18/1506Z"
    },
    {
      "icao": "GCTS",
      "alert": "OK",
      "vis_m": 9999,
      "fzfg": false,
      "metar_trigger": false,
      "taf_trigger": false,
      "metar": "METAR GCTS 141400Z 09022KT 070V130 9999 FEW025 25/15 Q1020 WS R07 NOSIG",
      "taf": "TAF GCTS 141400Z 1415/1515 10020KT 9999 FEW020 TX25/1514Z TN18/1506Z"
    },
    {
      "icao": "GMAD",
      "alert": "OK",
      "vis_m": 8000,
      "fzfg": false,
      "metar_trigger": false,
      "taf_trigger": false,
      "metar": "METAR GMAD 141400Z 22014KT 8000 NSC 27/15 Q1015 NOSIG",
      "taf": "TAF GMAD 141100Z 1412/1518 26014KT 8000 SCT020 SCT100"
    },
    {
      "icao": "GMMN",
      "alert": "OK",
      "vis_m": 9999,
      "fzfg": false,
      "metar_trigger": false,
      "taf_trigger": false,
      "metar": "METAR GMMN 141400Z 30012KT 270V360 CAVOK 28/17 Q1018 NOSIG",
      "taf": "TAF GMMN 141100Z 1412/1518 32012KT CAVOK"
    },
    {
      "icao": "GMMX",
      "alert": "OK",
      "vis_m": 9999,
      "fzfg": false,
      "metar_trigger": false,
      "taf_trigger": false,
      "metar": "METAR GMMX 141400Z 32005KT 260V040 9999 FEW033 32/12 Q1017 NOSIG",
      "taf": "TAF GMMX 141100Z 1412/1518 06006KT 8000 SCT090"
    },
    {
      "icao": "HEGN",
      "alert": "OK",
      "vis_m": 9999,
      "fzfg": false,
      "metar_trigger": false,
      "taf_trigger": false,
      "metar": "METAR HEGN 141400Z 15005KT CAVOK 35/11 Q1007 NOSIG",
      "taf": "TAF HEGN 141100Z 1412/1518 01010G20KT CAVOK"
    },
    {
      "icao": "HEMA",
      "alert": "OK",
      "vis_m": 9999,
      "fzfg": false,
      "metar_trigger": false,
      "taf_trigger": false,
      "metar": "METAR HEMA 141400Z 36012KT CAVOK 33/10 Q1008 NOSIG",
      "taf": "TAF HEMA 141100Z 1412/1518 36010G22KT CAVOK"
    },
    {
      "icao": "HESH",
      "alert": "OK",
      "vis_m": 9999,
      "fzfg": false,
      "metar_trigger": false,
      "taf_trigger": false,
      "metar": "METAR HESH 141400Z 07006KT CAVOK 37/10 Q1007 NOSIG",
      "taf": "TAF HESH 141100Z 1412/1518 02014KT CAVOK"
    },
    {
      "icao": "HESX",
      "alert": "OK",
      "vis_m": 9999,
      "fzfg": false,
      "metar_trigger": false,
      "taf_trigger": false,
      "metar": "METAR HESX 141400Z 35010KT CAVOK 32/14 Q1010 NOSIG",
      "taf": "TAF HESX 141100Z 1412/1518 35010KT CAVOK"
    },
    {
      "icao": "LATI",
      "alert": "OK",
      "vis_m": 9999,
      "fzfg": false,
      "metar_trigger": false,
      "taf_trigger": false,
      "metar": "METAR LATI 141420Z 31006KT 280V010 CAVOK 29/15 Q1014 NOSIG",
      "taf": "TAF LATI 141100Z 1412/1512 28012KT CAVOK TX30/1412Z TN15/1504Z"
    },
    {
      "icao": "LBPD",
      "alert": "OK",
      "vis_m": 9999,
      "fzfg": false,
      "metar_trigger": false,
      "taf_trigger": false,
      "metar": "METAR LBPD 141400Z AUTO 31009KT 260V330 9999 NCD 29/10 Q1012 NOSIG",
      "taf": "TAF LBPD 141100Z 1412/1512 28013KT CAVOK"
    },
    {
      "icao": "LBSF",
      "alert": "OK",
      "vis_m": 9999,
      "fzfg": false,
      "metar_trigger": false,
      "taf_trigger": false,
      "metar": "METAR LBSF 141400Z VRB03KT 9999 FEW065 27/10 Q1014 NOSIG",
      "taf": "TAF LBSF 141100Z 1412/1512 30010KT 9999 SCT060"
    },
    {
      "icao": "LBWN",
      "alert": "OK",
      "vis_m": 9999,
      "fzfg": false,
      "metar_trigger": false,
      "taf_trigger": false,
      "metar": "METAR LBWN 141400Z 25006KT 220V280 9999 SCT040 26/14 Q1011 NOSIG",
      "taf": "TAF LBWN 141100Z 1412/1512 27012KT 9999 SCT045"
    },
    {
      "icao": "LCLK",
      "alert": "OK",
      "vis_m": 9999,
      "fzfg": false,
      "metar_trigger": false,
      "taf_trigger": false,
      "metar": "METAR LCLK 141400Z 22017KT 9999 FEW025 29/20 Q1007 NOSIG",
      "taf": "TAF LCLK 141130Z 1412/1512 20020KT 9999 FEW020"
    },
    {
      "icao": "LCPH",
      "alert": "OK",
      "vis_m": 9999,
      "fzfg": false,
      "metar_trigger": false,
      "taf_trigger": false,
      "metar": "METAR LCPH 141400Z 29011KT 250V320 9999 SCT020 26/20 Q1009 NOSIG",
      "taf": "TAF LCPH 141130Z 1412/1512 26012KT 9999 SCT015"
    },
    {
      "icao": "LEAL",
      "alert": "OK",
      "vis_m": 9999,
      "fzfg": false,
      "metar_trigger": false,
      "taf_trigger": false,
      "metar": "METAR LEAL 141400Z 08006KT 050V150 9999 FEW050 28/16 Q1015 NOSIG",
      "taf": "TAF LEAL 141100Z 1412/1512 14010KT CAVOK TX29/1412Z TN21/1506Z"
    },
    {
      "icao": "LEBB",
      "alert": "OK",
      "vis_m": 9999,
      "fzfg": false,
      "metar_trigger": false,
      "taf_trigger": false,
      "metar": "METAR LEBB 141400Z 27009KT 230V300 CAVOK 30/17 Q1013 NOSIG",
      "taf": "TAF LEBB 141100Z 1412/1512 32009KT CAVOK TX34/1413Z TN18/1505Z"
    },
    {
      "icao": "LEBL",
      "alert": "OK",
      "vis_m": 9999,
      "fzfg": false,
      "metar_trigger": false,
      "taf_trigger": false,
      "metar": "METAR LEBL 141400Z 14006KT 070V220 9999 FEW050 28/13 Q1015 NOSIG",
      "taf": "TAF LEBL 141100Z 1412/1512 14008KT CAVOK TX30/1412Z TN21/1506Z"
    },
    {
      "icao": "LECH",
      "alert": "OK",
      "vis_m": 9999,
      "fzfg": false,
      "metar_trigger": false,
      "taf_trigger": false,
      "metar": "METAR LECH 141400Z AUTO 14010KT 110V170 CAVOK 29/08 Q1016",
      "taf": "TAF LECH 141100Z 1412/1512 15010KT CAVOK TX32/1413Z TN16/1506Z"
    },
    {
      "icao": "LEMD",
      "alert": "OK",
      "vis_m": 9999,
      "fzfg": false,
      "metar_trigger": false,
      "taf_trigger": false,
      "metar": "METAR LEMD 141400Z 29005KT 220V350 CAVOK 34/07 Q1014 NOSIG",
      "taf": "TAF LEMD 141100Z 1412/1518 VRB04KT 9999 FEW080 TX35/1416Z TN16/1505Z"
    },
    {
      "icao": "LEMG",
      "alert": "OK",
      "vis_m": 9999,
      "fzfg": false,
      "metar_trigger": false,
      "taf_trigger": false,
      "metar": "METAR LEMG 141400Z 09004KT 340V150 9999 -SHRA FEW060CB SCT065 25/17 Q1015 NOSIG",
      "taf": ""
    },
    {
      "icao": "LEVC",
      "alert": "OK",
      "vis_m": 9999,
      "fzfg": false,
      "metar_trigger": false,
      "taf_trigger": false,
      "metar": "METAR LEVC 141400Z 13012KT 080V160 CAVOK 31/13 Q1014 NOSIG",
      "taf": "TAF LEVC 141100Z 1412/1512 12010KT CAVOK TX32/1412Z TN19/1506Z"
    },
    {
      "icao": "LEXJ",
      "alert": "OK",
      "vis_m": 9999,
      "fzfg": false,
      "metar_trigger": false,
      "taf_trigger": false,
      "metar": "METAR LEXJ 141400Z 06003KT 350V140 CAVOK 24/17 Q1014",
      "taf": "TAF LEXJ 141400Z 1415/1515 29009KT CAVOK TX30/1415Z TN17/1506Z"
    },
    {
      "icao": "LEZG",
      "alert": "OK",
      "vis_m": 9999,
      "fzfg": false,
      "metar_trigger": false,
      "taf_trigger": false,
      "metar": "METAR LEZG 141400Z 12004KT CAVOK 34/02 Q1013 NOSIG",
      "taf": "TAF LEZG 141100Z 1412/1512 09005KT CAVOK TX36/1415Z TN21/1506Z"
    },
    {
      "icao": "LEZL",
      "alert": "OK",
      "vis_m": 9999,
      "fzfg": false,
      "metar_trigger": false,
      "taf_trigger": false,
      "metar": "METAR LEZL 141400Z 22012KT 170V260 9999 FEW040 28/15 Q1016 NOSIG",
      "taf": "TAF LEZL 141400Z 1415/1515 22009KT CAVOK TX35/1515Z TN18/1506Z"
    },
    {
      "icao": "LFBD",
      "alert": "OK",
      "vis_m": 9999,
      "fzfg": false,
      "metar_trigger": false,
      "taf_trigger": false,
      "metar": "METAR LFBD 141400Z AUTO 11012KT 050V140 CAVOK 34/02 Q1015 TEMPO 10017G27KT",
      "taf": "TAF LFBD 141100Z 1412/1518 06012KT CAVOK TX34/1415Z TN21/1504Z"
    },
    {
      "icao": "LFLL",
      "alert": "OK",
      "vis_m": 9999,
      "fzfg": false,
      "metar_trigger": false,
      "taf_trigger": false,
      "metar": "METAR LFLL 141400Z 36012KT CAVOK 28/09 Q1016 NOSIG",
      "taf": "TAF LFLL 141100Z 1412/1518 01010KT CAVOK"
    },
    {
      "icao": "LFLS",
      "alert": "OK",
      "vis_m": 9999,
      "fzfg": false,
      "metar_trigger": false,
      "taf_trigger": false,
      "metar": "METAR LFLS 141400Z AUTO 35014KT 320V030 CAVOK 28/11 Q1016 NOSIG",
      "taf": "TAF LFLS 140800Z 1409/1509 36012KT CAVOK"
    },
    {
      "icao": "LFMN",
      "alert": "OK",
      "vis_m": 9999,
      "fzfg": false,
      "metar_trigger": false,
      "taf_trigger": false,
      "metar": "METAR LFMN 141400Z COR 13005KT 9999 BKN020 23/17 Q1014 NOSIG",
      "taf": "TAF LFMN 141400Z 1415/1521 11008KT 9999 SCT020"
    },
    {
      "icao": "LFOB",
      "alert": "OK",
      "vis_m": 9999,
      "fzfg": false,
      "metar_trigger": false,
      "taf_trigger": false,
      "metar": "METAR LFOB 141400Z AUTO 33007KT 270V030 CAVOK 23/11 Q1019 NOSIG",
      "taf": "TAF LFOB 141100Z 1412/1512 33008KT CAVOK"
    },
    {
      "icao": "LFPO",
      "alert": "OK",
      "vis_m": 9999,
      "fzfg": false,
      "metar_trigger": false,
      "taf_trigger": false,
      "metar": "METAR LFPO 141400Z 34006KT 280V020 CAVOK 26/06 Q1018 NOSIG",
      "taf": "TAF LFPO 141100Z 1412/1518 33006KT CAVOK"
    },
    {
      "icao": "LFSB",
      "alert": "OK",
      "vis_m": 9999,
      "fzfg": false,
      "metar_trigger": false,
      "taf_trigger": false,
      "metar": "METAR LFSB 141400Z AUTO 27015KT CAVOK 26/05 Q1016 TEMPO 29015G25KT",
      "taf": "TAF LFSB 141100Z 1412/1512 28013KT CAVOK"
    },
    {
      "icao": "LGAV",
      "alert": "OK",
      "vis_m": 9999,
      "fzfg": false,
      "metar_trigger": false,
      "taf_trigger": false,
      "metar": "METAR LGAV 141420Z COR 10006KT 050V190 9999 FEW025 26/11 Q1015 NOSIG",
      "taf": "TAF LGAV 141100Z 1412/1512 08010KT 9999 FEW020"
    },
    {
      "icao": "LGTS",
      "alert": "OK",
      "vis_m": 9999,
      "fzfg": false,
      "metar_trigger": false,
      "taf_trigger": false,
      "metar": "METAR LGTS 141350Z 26005KT 9999 FEW025 30/11 Q1013 NOSIG",
      "taf": "TAF LGTS 141100Z 1412/1512 VRB03KT CAVOK"
    },
    {
      "icao": "LHBP",
      "alert": "OK",
      "vis_m": 9999,
      "fzfg": false,
      "metar_trigger": false,
      "taf_trigger": false,
      "metar": "METAR LHBP 141400Z 23007KT 9999 VCSH FEW030 BKN060 18/15 Q1011 TEMPO 4000 SHRA SCT040TCU",
      "taf": "TAF LHBP 141115Z 1412/1512 27015G25KT CAVOK"
    },
    {
      "icao": "LHDC",
      "alert": "OK",
      "vis_m": 9999,
      "fzfg": false,
      "metar_trigger": false,
      "taf_trigger": false,
      "metar": "METAR LHDC 141345Z AUTO 27024G40KT 240V300 9999 -RA FEW072 BKN099 //////CB 24/09 Q1009 TEMPO VRB25G40KT 4000 TSRA SHRA SCT045CB BKN055",
      "taf": ""
    },
    {
      "icao": "LIBD",
      "alert": "OK",
      "vis_m": 9999,
      "fzfg": false,
      "metar_trigger": false,
      "taf_trigger": false,
      "metar": "METAR LIBD 141350Z 08015KT CAVOK 30/12 Q1012",
      "taf": "TAF LIBD 141100Z 1412/1512 09014KT CAVOK"
    },
    {
      "icao": "LIBG",
      "alert": "OK",
      "vis_m": 9999,
      "fzfg": false,
      "metar_trigger": false,
      "taf_trigger": false,
      "metar": "METAR LIBG 141350Z AUTO 19007KT 160V240 9999 NCD 32/08 Q1014",
      "taf": "TAF LIBG 141100Z 1412/1512 18012KT CAVOK"
    },
    {
      "icao": "LIBP",
      "alert": "OK",
      "vis_m": 9999,
      "fzfg": false,
      "metar_trigger": false,
      "taf_trigger": false,
      "metar": "METAR LIBP 141350Z AUTO 09014KT 9999 NCD 32/13 Q1011",
      "taf": "TAF LIBP 141100Z 1412/1512 09010KT CAVOK"
    },
    {
      "icao": "LIBR",
      "alert": "OK",
      "vis_m": 9999,
      "fzfg": false,
      "metar_trigger": false,
      "taf_trigger": false,
      "metar": "METAR LIBR 141350Z 12009KT 080V140 CAVOK 27/18 Q1014",
      "taf": "TAF LIBR 141100Z 1412/1512 12013KT CAVOK"
    },
    {
      "icao": "LICA",
      "alert": "OK",
      "vis_m": 9999,
      "fzfg": false,
      "metar_trigger": false,
      "taf_trigger": false,
      "metar": "METAR LICA 141350Z AUTO 25012KT 220V280 9999 NCD 26/20 Q1016",
      "taf": "TAF LICA 141100Z 1412/1512 26012KT CAVOK"
    },
    {
      "icao": "LICC",
      "alert": "OK",
      "vis_m": 9999,
      "fzfg": false,
      "metar_trigger": false,
      "taf_trigger": false,
      "metar": "METAR LICC 141350Z 09009KT 060V120 9999 FEW050 28/18 Q1016",
      "taf": "TAF LICC 141100Z 1412/1512 08013KT CAVOK"
    },
    {
      "icao": "LICJ",
      "alert": "OK",
      "vis_m": 9999,
      "fzfg": false,
      "metar_trigger": false,
      "taf_trigger": false,
      "metar": "METAR LICJ 141350Z 34004KT 310V010 CAVOK 26/20 Q1016",
      "taf": "TAF LICJ 141100Z 1412/1512 04012KT CAVOK"
    },
    {
      "icao": "LIMC",
      "alert": "OK",
      "vis_m": 9999,
      "fzfg": false,
      "metar_trigger": false,
      "taf_trigger": false,
      "metar": "METAR LIMC 141350Z 24007KT 190V280 CAVOK 29/15 Q1011 NOSIG",
      "taf": "TAF LIMC 141100Z 1412/1518 VRB05KT CAVOK"
    },
    {
      "icao": "LIME",
      "alert": "OK",
      "vis_m": 9999,
      "fzfg": false,
      "metar_trigger": false,
      "taf_trigger": false,
      "metar": "METAR LIME 141350Z 25011KT 220V290 CAVOK 29/16 Q1010 NOSIG",
      "taf": "TAF LIME 141100Z 1412/1512 26010KT CAVOK"
    },
    {
      "icao": "LIMF",
      "alert": "OK",
      "vis_m": 9999,
      "fzfg": false,
      "metar_trigger": false,
      "taf_trigger": false,
      "metar": "METAR LIMF 141350Z 06006KT 010V100 CAVOK 30/15 Q1011",
      "taf": "TAF LIMF 141100Z 1412/1512 VRB05KT CAVOK"
    },
    {
      "icao": "LIMJ",
      "alert": "OK",
      "vis_m": 9999,
      "fzfg": false,
      "metar_trigger": false,
      "taf_trigger": false,
      "metar": "METAR LIMJ 141350Z 18006KT 9999 SCT020 22/18 Q1014",
      "taf": "TAF LIMJ 141100Z 1412/1512 17011KT CAVOK"
    },
    {
      "icao": "LIPE",
      "alert": "OK",
      "vis_m": 9999,
      "fzfg": false,
      "metar_trigger": false,
      "taf_trigger": false,
      "metar": "METAR LIPE 141350Z 28007KT 250V310 CAVOK 33/08 Q1009",
      "taf": "TAF LIPE 141100Z 1412/1512 VRB05KT CAVOK"
    },
    {
      "icao": "LIPH",
      "alert": "OK",
      "vis_m": 9999,
      "fzfg": false,
      "metar_trigger": false,
      "taf_trigger": false,
      "metar": "METAR LIPH 141350Z 22006KT 130V270 CAVOK 29/16 Q1010",
      "taf": "TAF LIPH 141100Z 1412/1512 05005KT 9999 FEW030"
    },
    {
      "icao": "LIPQ",
      "alert": "OK",
      "vis_m": 9999,
      "fzfg": false,
      "metar_trigger": false,
      "taf_trigger": false,
      "metar": "METAR LIPQ 141350Z VRB05KT CAVOK 26/18 Q1010",
      "taf": "TAF LIPQ 141100Z 1412/1512 21010KT 9999 FEW060"
    },
    {
      "icao": "LIPR",
      "alert": "OK",
      "vis_m": 9999,
      "fzfg": false,
      "metar_trigger": false,
      "taf_trigger": false,
      "metar": "METAR LIPR 141350Z 24010KT CAVOK 32/12 Q1011",
      "taf": "TAF LIPR 141100Z 1412/1512 08010KT CAVOK"
    },
    {
      "icao": "LIPX",
      "alert": "OK",
      "vis_m": 9999,
      "fzfg": false,
      "metar_trigger": false,
      "taf_trigger": false,
      "metar": "METAR LIPX 141350Z 28009KT 240V310 CAVOK 31/14 Q1010",
      "taf": "TAF LIPX 141100Z 1412/1512 26012KT CAVOK"
    },
    {
      "icao": "LIPY",
      "alert": "OK",
      "vis_m": 9999,
      "fzfg": false,
      "metar_trigger": false,
      "taf_trigger": false,
      "metar": "METAR LIPY 141350Z AUTO 05009KT 030V100 9999 NCD 30/12 Q1011",
      "taf": ""
    },
    {
      "icao": "LIPZ",
      "alert": "OK",
      "vis_m": 9999,
      "fzfg": false,
      "metar_trigger": false,
      "taf_trigger": false,
      "metar": "METAR LIPZ 141350Z 13006KT CAVOK 26/18 Q1010 NOSIG",
      "taf": "TAF LIPZ 141100Z 1412/1518 15010KT 9999 FEW020"
    },
    {
      "icao": "LIRF",
      "alert": "OK",
      "vis_m": 9999,
      "fzfg": false,
      "metar_trigger": false,
      "taf_trigger": false,
      "metar": "METAR LIRF 141350Z 20009KT 170V230 CAVOK 28/14 Q1015 NOSIG",
      "taf": "TAF LIRF 141100Z 1412/1518 23012KT CAVOK"
    },
    {
      "icao": "LIRN",
      "alert": "OK",
      "vis_m": 9999,
      "fzfg": false,
      "metar_trigger": false,
      "taf_trigger": false,
      "metar": "METAR LIRN 141350Z 19009KT 160V230 9999 FEW040 25/20 Q1016 NOSIG",
      "taf": "TAF LIRN 141100Z 1412/1512 20010KT CAVOK"
    },
    {
      "icao": "LIRP",
      "alert": "OK",
      "vis_m": 9999,
      "fzfg": false,
      "metar_trigger": false,
      "taf_trigger": false,
      "metar": "METAR LIRP 141345Z 28008KT CAVOK 28/09 Q1014 NOSIG",
      "taf": "TAF LIRP 141100Z 1412/1512 29012KT CAVOK"
    },
    {
      "icao": "LIRZ",
      "alert": "OK",
      "vis_m": 9999,
      "fzfg": false,
      "metar_trigger": false,
      "taf_trigger": false,
      "metar": "METAR LIRZ 141350Z AUTO 23016G26KT 9999 NCD 31/07 Q1013",
      "taf": "TAF LIRZ 141100Z 1412/1512 22012KT CAVOK"
    },
    {
      "icao": "LJLJ",
      "alert": "OK",
      "vis_m": 9999,
      "fzfg": false,
      "metar_trigger": false,
      "taf_trigger": false,
      "metar": "METAR LJLJ 141400Z 28009KT 200V330 9999 FEW050 SCT250 27/14 Q1009 NOSIG",
      "taf": "TAF LJLJ 141100Z 1412/1512 25008KT 9999 FEW045"
    },
    {
      "icao": "LKMT",
      "alert": "OK",
      "vis_m": 9999,
      "fzfg": false,
      "metar_trigger": false,
      "taf_trigger": false,
      "metar": "METAR LKMT 141400Z 26016KT CAVOK 18/05 Q1010 NOSIG",
      "taf": "TAF LKMT 141100Z 1412/1512 24014KT 9999 SCT033"
    },
    {
      "icao": "LKPR",
      "alert": "OK",
      "vis_m": 9999,
      "fzfg": false,
      "metar_trigger": false,
      "taf_trigger": false,
      "metar": "METAR LKPR 141400Z 27020KT 9999 -SHRA FEW020 SCT048 16/07 Q1012 NOSIG",
      "taf": "TAF LKPR 141400Z 1415/1521 27010KT CAVOK"
    },
    {
      "icao": "LLBG",
      "alert": "OK",
      "vis_m": 9999,
      "fzfg": false,
      "metar_trigger": false,
      "taf_trigger": false,
      "metar": "METAR LLBG 141420Z 30009KT 270V330 9999 SCT028 27/19 Q1010 NOSIG",
      "taf": "TAF LLBG 141107Z 1412/1512 29010KT 9999 FEW030 TX30/1412Z TN21/1502Z"
    },
    {
      "icao": "LMML",
      "alert": "OK",
      "vis_m": 9999,
      "fzfg": false,
      "metar_trigger": false,
      "taf_trigger": false,
      "metar": "METAR LMML 141415Z 20009KT 150V220 9999 FEW025 27/20 Q1017 NOSIG",
      "taf": "TAF LMML 141100Z 1412/1512 22008KT 9999 FEW015"
    },
    {
      "icao": "LOWW",
      "alert": "OK",
      "vis_m": 9999,
      "fzfg": false,
      "metar_trigger": false,
      "taf_trigger": false,
      "metar": "METAR LOWW 141350Z 32008KT 250V360 9999 FEW048 BKN050 22/10 Q1012 NOSIG",
      "taf": "TAF LOWW 141415Z 1415/1521 29015KT 9999 FEW050 TX22/1514Z TN14/1503Z"
    },
    {
      "icao": "LPFR",
      "alert": "OK",
      "vis_m": 9999,
      "fzfg": false,
      "metar_trigger": false,
      "taf_trigger": false,
      "metar": "METAR LPFR 141400Z 16008KT 9999 FEW012 BKN035 22/19 Q1017",
      "taf": "TAF LPFR 141100Z 1412/1512 15005KT 9999 BKN025"
    },
    {
      "icao": "LPMA",
      "alert": "OK",
      "vis_m": 9999,
      "fzfg": false,
      "metar_trigger": false,
      "taf_trigger": false,
      "metar": "METAR LPMA 141400Z 36017KT 320V040 9999 SCT016 24/14 Q1021",
      "taf": "TAF LPMA 141100Z 1412/1512 35013KT 9999 FEW015"
    },
    {
      "icao": "LPPR",
      "alert": "OK",
      "vis_m": 9999,
      "fzfg": false,
      "metar_trigger": false,
      "taf_trigger": false,
      "metar": "METAR LPPR 141400Z 29003KT 220V360 9999 FEW005 24/19 Q1015",
      "taf": "TAF LPPR 141100Z 1412/1512 21005KT 9999 FEW035"
    },
    {
      "icao": "LPPS",
      "alert": "OK",
      "vis_m": 9999,
      "fzfg": false,
      "metar_trigger": false,
      "taf_trigger": false,
      "metar": "METAR LPPS 141400Z 34010G20KT 310V030 9999 FEW015 23/16 Q1022",
      "taf": "TAF LPPS 141100Z 1412/1518 36013KT 9999 FEW015 BKN030"
    },
    {
      "icao": "LPPT",
      "alert": "OK",
      "vis_m": 9999,
      "fzfg": false,
      "metar_trigger": false,
      "taf_trigger": false,
      "metar": "METAR LPPT 141400Z 23014KT 200V260 9999 FEW030 25/16 Q1016",
      "taf": "TAF LPPT 141100Z 1412/1518 25008KT CAVOK"
    },
    {
      "icao": "LQBK",
      "alert": "OK",
      "vis_m": 9999,
      "fzfg": false,
      "metar_trigger": false,
      "taf_trigger": false,
      "metar": "METAR LQBK 141400Z 27007KT 220V320 9999 FEW045 31/14 Q1009 NOSIG",
      "taf": "TAF LQBK 141100Z 1412/1512 28005KT 9999 FEW045 TX32/1414Z TN15/1503Z"
    },
    {
      "icao": "LQSA",
      "alert": "OK",
      "vis_m": 9999,
      "fzfg": false,
      "metar_trigger": false,
      "taf_trigger": false,
      "metar": "METAR LQSA 141400Z 27013KT 240V300 CAVOK 28/09 Q1013 NOSIG",
      "taf": "TAF LQSA 141100Z 1412/1512 VRB02KT CAVOK TX30/1414Z TN12/1503Z"
    },
    {
      "icao": "LQTZ",
      "alert": "OK",
      "vis_m": 9999,
      "fzfg": false,
      "metar_trigger": false,
      "taf_trigger": false,
      "metar": "METAR LQTZ 141400Z 30006KT 280V340 9999 FEW055 30/14 Q1009",
      "taf": "TAF LQTZ 141100Z 1412/1512 VRB02KT CAVOK TX30/1413Z TN14/1503Z"
    },
    {
      "icao": "LRBC",
      "alert": "OK",
      "vis_m": 9999,
      "fzfg": false,
      "metar_trigger": false,
      "taf_trigger": false,
      "metar": "METAR LRBC 141400Z 36003KT 280V090 9999 SCT054 26/11 Q1008",
      "taf": ""
    },
    {
      "icao": "LRBS",
      "alert": "OK",
      "vis_m": 9999,
      "fzfg": false,
      "metar_trigger": false,
      "taf_trigger": false,
      "metar": "METAR LRBS 141400Z 27007KT 210V340 CAVOK 29/12 Q1010 NOSIG",
      "taf": "TAF LRBS 141100Z 1412/1512 27006KT CAVOK"
    },
    {
      "icao": "LRBV",
      "alert": "OK",
      "vis_m": 9999,
      "fzfg": false,
      "metar_trigger": false,
      "taf_trigger": false,
      "metar": "METAR LRBV 141400Z 34008KT 310V030 9999 4000NE -SHRA SCT050CB SCT055 BKN078 18/15 Q1012",
      "taf": ""
    },
    {
      "icao": "LRCL",
      "alert": "OK",
      "vis_m": 9999,
      "fzfg": false,
      "metar_trigger": false,
      "taf_trigger": false,
      "metar": "METAR LRCL 141400Z 26003KT 210V330 9999 FEW030 FEW040CB 21/14 Q1010",
      "taf": ""
    },
    {
      "icao": "LRCV",
      "alert": "OK",
      "vis_m": 9999,
      "fzfg": false,
      "metar_trigger": false,
      "taf_trigger": false,
      "metar": "METAR LRCV 141400Z 32009KT CAVOK 28/12 Q1011",
      "taf": ""
    },
    {
      "icao": "LRIA",
      "alert": "OK",
      "vis_m": 9999,
      "fzfg": false,
      "metar_trigger": false,
      "taf_trigger": false,
      "metar": "METAR LRIA 141400Z 11008KT 080V150 CAVOK 23/13 Q1008",
      "taf": ""
    },
    {
      "icao": "LROP",
      "alert": "OK",
      "vis_m": 9999,
      "fzfg": false,
      "metar_trigger": false,
      "taf_trigger": false,
      "metar": "METAR LROP 141400Z 26011KT CAVOK 28/12 Q1010 NOSIG",
      "taf": "TAF LROP 141100Z 1412/1512 27006KT CAVOK"
    },
    {
      "icao": "LRSB",
      "alert": "OK",
      "vis_m": 9999,
      "fzfg": false,
      "metar_trigger": false,
      "taf_trigger": false,
      "metar": "METAR LRSB 141400Z 32014KT 9999 -SHRA FEW035 FEW055CB 22/14 Q1012",
      "taf": "TAF LRSB 141100Z 1412/1512 31012KT 9999 SCT080"
    },
    {
      "icao": "LRSM",
      "alert": "OK",
      "vis_m": 9999,
      "fzfg": false,
      "metar_trigger": false,
      "taf_trigger": false,
      "metar": "METAR LRSM 141400Z AUTO 27019G29KT 9999 SCT140/// BKN160/// 26/09 Q1008",
      "taf": ""
    },
    {
      "icao": "LRSV",
      "alert": "OK",
      "vis_m": 9999,
      "fzfg": false,
      "metar_trigger": false,
      "taf_trigger": false,
      "metar": "METAR LRSV 141400Z 26005KT 210V360 9999 FEW040CB 23/11 Q1008",
      "taf": ""
    },
    {
      "icao": "LRTM",
      "alert": "OK",
      "vis_m": 9999,
      "fzfg": false,
      "metar_trigger": false,
      "taf_trigger": false,
      "metar": "METAR LRTM 141400Z 31007KT 260V340 9999 FEW025 SCT035CB 19/15 Q1010",
      "taf": ""
    },
    {
      "icao": "LRTR",
      "alert": "OK",
      "vis_m": 9999,
      "fzfg": false,
      "metar_trigger": false,
      "taf_trigger": false,
      "metar": "METAR LRTR 141400Z 06009KT 030V110 9999 FEW060CB 25/15 Q1010",
      "taf": "TAF LRTR 141100Z 1412/1512 20010KT 9999 FEW040CB"
    },
    {
      "icao": "LTAC",
      "alert": "OK",
      "vis_m": 9999,
      "fzfg": false,
      "metar_trigger": false,
      "taf_trigger": false,
      "metar": "METAR LTAC 141350Z 04005KT 340V070 9999 SCT035 BKN100 21/11 Q1014 NOSIG RMK RWY21C VRB03KT RWY03L 05004KT 320V110 RWY21R 07004KT 350V130 RWY03R 03004KT 330V090 RWY21L 02004KT 300V050",
      "taf": "TAF LTAC 141040Z 1412/1512 VRB02KT 9999 SCT040 SCT100"
    },
    {
      "icao": "LTFM",
      "alert": "OK",
      "vis_m": 9999,
      "fzfg": false,
      "metar_trigger": false,
      "taf_trigger": false,
      "metar": "METAR LTFM 141350Z 07008KT 020V110 9999 FEW035 26/10 Q1013 NOSIG RMK RWY17L 07009KT RWY34L 06008KT 020V090 RWY16R 07010KT RWY36 06010KT RWY18 09009KT",
      "taf": "TAF LTFM 141040Z 1412/1518 03010KT 9999 SCT035"
    },
    {
      "icao": "LUKK",
      "alert": "OK",
      "vis_m": 9999,
      "fzfg": false,
      "metar_trigger": false,
      "taf_trigger": false,
      "metar": "METAR LUKK 141400Z 29009KT 9999 SCT047 22/12 Q1009 TEMPO 34018G28KT",
      "taf": ""
    },
    {
      "icao": "LWOH",
      "alert": "OK",
      "vis_m": 9999,
      "fzfg": false,
      "metar_trigger": false,
      "taf_trigger": false,
      "metar": "METAR LWOH 141420Z 14008KT 110V170 9999 FEW040 25/14 Q1016",
      "taf": ""
    },
    {
      "icao": "LWSK",
      "alert": "OK",
      "vis_m": 9999,
      "fzfg": false,
      "metar_trigger": false,
      "taf_trigger": false,
      "metar": "METAR LWSK 141420Z VRB02KT CAVOK 31/12 Q1013 NOSIG",
      "taf": ""
    },
    {
      "icao": "LYBE",
      "alert": "OK",
      "vis_m": 9999,
      "fzfg": false,
      "metar_trigger": false,
      "taf_trigger": false,
      "metar": "METAR LYBE 141400Z 23008KT 200V270 CAVOK 31/13 Q1009 NOSIG",
      "taf": "TAF LYBE 141100Z 1412/1512 26010KT 9999 SCT045 TX32/1414Z TN16/1503Z"
    },
    {
      "icao": "LYNI",
      "alert": "OK",
      "vis_m": 9999,
      "fzfg": false,
      "metar_trigger": false,
      "taf_trigger": false,
      "metar": "METAR LYNI 141400Z 16005KT 110V250 CAVOK 30/10 Q1012 NOSIG",
      "taf": "TAF LYNI 141100Z 1412/1512 20006KT CAVOK TX31/1414Z TN15/1504Z"
    },
    {
      "icao": "LYPG",
      "alert": "OK",
      "vis_m": 9999,
      "fzfg": false,
      "metar_trigger": false,
      "taf_trigger": false,
      "metar": "METAR LYPG 141400Z 18008KT 150V220 CAVOK 30/13 Q1013 NOSIG",
      "taf": "TAF LYPG 141100Z 1412/1512 18008KT CAVOK TX31/1414Z TN19/1503Z"
    },
    {
      "icao": "LZIB",
      "alert": "OK",
      "vis_m": 9999,
      "fzfg": false,
      "metar_trigger": false,
      "taf_trigger": false,
      "metar": "METAR LZIB 141400Z 30016KT CAVOK 23/06 Q1011 NOSIG",
      "taf": "TAF LZIB 141115Z 1412/1512 29012KT CAVOK"
    },
    {
      "icao": "LZKZ",
      "alert": "OK",
      "vis_m": 9999,
      "fzfg": false,
      "metar_trigger": false,
      "taf_trigger": false,
      "metar": "METAR LZKZ 141400Z 25015KT CAVOK 22/12 Q1007 BECMG 35009KT",
      "taf": ""
    },
    {
      "icao": "LZTT",
      "alert": "OK",
      "vis_m": 9999,
      "fzfg": false,
      "metar_trigger": false,
      "taf_trigger": false,
      "metar": "METAR LZTT 141400Z 26023KT 9999 FEW066 17/07 Q1009 NOSIG",
      "taf": "TAF LZTT 141115Z 1412/1512 27015KT 9999 SCT060"
    },
    {
      "icao": "OEJN",
      "alert": "OK",
      "vis_m": 9999,
      "fzfg": false,
      "metar_trigger": false,
      "taf_trigger": false,
      "metar": "METAR OEJN 141400Z 32015KT CAVOK 36/19 Q1004 NOSIG",
      "taf": "TAF OEJN 141100Z 1412/1518 30012KT CAVOK"
    },
    {
      "icao": "OEMA",
      "alert": "OK",
      "vis_m": 9999,
      "fzfg": false,
      "metar_trigger": false,
      "taf_trigger": false,
      "metar": "METAR OEMA 141400Z 28011KT CAVOK 43/M04 Q1008 NOSIG",
      "taf": "TAF OEMA 141100Z 1412/1518 28008KT CAVOK"
    },
    {
      "icao": "OJAI",
      "alert": "OK",
      "vis_m": 4000,
      "fzfg": false,
      "metar_trigger": false,
      "taf_trigger": false,
      "metar": "METAR OJAI 141400Z 27016KT 4000 BLDU NSC 29/07 Q1013 NOSIG",
      "taf": "TAF OJAI 141100Z 1412/1518 31010KT 5000 HZ NSC"
    },
    {
      "icao": "OMAA",
      "alert": "OK",
      "vis_m": 8000,
      "fzfg": false,
      "metar_trigger": false,
      "taf_trigger": false,
      "metar": "METAR OMAA 141400Z 32013KT 8000 NSC 35/25 Q1000 NOSIG",
      "taf": "TAF OMAA 141100Z 1412/1518 34012KT 8000 NSC"
    },
    {
      "icao": "OMDB",
      "alert": "OK",
      "vis_m": 9999,
      "fzfg": false,
      "metar_trigger": false,
      "taf_trigger": false,
      "metar": "METAR OMDB 141400Z 33012KT CAVOK 37/23 Q1000 NOSIG",
      "taf": "TAF OMDB 141100Z 1412/1518 32010KT 8000 NSC"
    },
    {
      "icao": "UAAA",
      "alert": "OK",
      "vis_m": 9999,
      "fzfg": false,
      "metar_trigger": false,
      "taf_trigger": false,
      "metar": "METAR UAAA 141400Z 06002MPS 9999 SCT050CB 30/14 Q1006 NOSIG",
      "taf": "TAF UAAA 141110Z 1412/1512 16003MPS 9999 SCT050CB BKN100 TX35/1509Z TN19/1500Z"
    },
    {
      "icao": "UBBB",
      "alert": "OK",
      "vis_m": 9999,
      "fzfg": false,
      "metar_trigger": false,
      "taf_trigger": false,
      "metar": "METAR UBBB 141400Z 17012KT CAVOK 28/16 Q1004 NOSIG",
      "taf": "TAF UBBB 141054Z 1412/1512 17010KT 9999 SCT040 TX30/1412Z TN19/1500Z"
    },
    {
      "icao": "UDSG",
      "alert": "OK",
      "vis_m": 9999,
      "fzfg": false,
      "metar_trigger": false,
      "taf_trigger": false,
      "metar": "METAR UDSG 141400Z 03009KT 9999 BKN043CB 13/10 Q1015 NOSIG",
      "taf": "TAF UDSG 141100Z 1412/1512 03006KT 9999 SCT040"
    },
    {
      "icao": "UDYZ",
      "alert": "OK",
      "vis_m": 9999,
      "fzfg": false,
      "metar_trigger": false,
      "taf_trigger": false,
      "metar": "METAR UDYZ 141400Z 22005KT 9999 VCTS SCT043CB 25/10 Q1008 NOSIG",
      "taf": "TAF UDYZ 141100Z 1412/1512 04006KT 9999 SCT040"
    },
    {
      "icao": "UGKO",
      "alert": "OK",
      "vis_m": 9999,
      "fzfg": false,
      "metar_trigger": false,
      "taf_trigger": false,
      "metar": "METAR UGKO 141400Z 29007KT 9999 SCT031CB BKN050 23/17 Q1008 NOSIG",
      "taf": "TAF UGKO 141100Z 1412/1512 26010KT 9999 BKN080 TX24/1412Z TN17/1501Z"
    }
  ]
}