{
  "ts_utc": "2026-02-22T02:22:04Z",
  "threshold_m": 150,
  "source": "stations_override.txt (ICAO list) + aviationweather.gov (METAR/TAF raw)",
  "station_count": 159,
  "stations": [
    {
      "icao": "BIKF",
      "alert": "OK",
      "vis_m": 9999,
      "fzfg": false,
      "metar_trigger": false,
      "taf_trigger": false,
      "metar": "METAR BIKF 220200Z 07022KT 9999 BKN037 02/M04 Q0994",
      "taf": "TAF BIKF 220104Z 2203/2303 07022G32KT 9999 BKN035 TX03/2215Z TN01/2203Z"
    },
    {
      "icao": "BKPR",
      "alert": "OK",
      "vis_m": 9999,
      "fzfg": false,
      "metar_trigger": false,
      "taf_trigger": false,
      "metar": "METAR BKPR 220200Z 01005KT 9999 -SN SCT012 BKN020 M01/M01 Q1022 NOSIG",
      "taf": "TAF BKPR 212330Z 2200/2224 01008KT 9999 SCT012 BKN030"
    },
    {
      "icao": "EBCI",
      "alert": "OK",
      "vis_m": 9999,
      "fzfg": false,
      "metar_trigger": false,
      "taf_trigger": false,
      "metar": "METAR EBCI 220150Z 24017KT 9999 SCT006 OVC007 11/10 Q1021 NOSIG",
      "taf": "TAF EBCI 212310Z 2200/2306 23014KT 6000 -RA SCT003 BKN006"
    },
    {
      "icao": "EDDB",
      "alert": "OK",
      "vis_m": 3400,
      "fzfg": false,
      "metar_trigger": false,
      "taf_trigger": false,
      "metar": "METAR EDDB 220150Z AUTO 22007KT 3400 DZ BR FEW004 BKN019 BKN025 06/06 Q1016 TEMPO 2500 DZ BKN004",
      "taf": ""
    },
    {
      "icao": "EDDH",
      "alert": "OK",
      "vis_m": 6000,
      "fzfg": false,
      "metar_trigger": false,
      "taf_trigger": false,
      "metar": "METAR EDDH 220150Z AUTO 23007KT 6000 OVC003 08/07 Q1013 TEMPO 2500 DZ",
      "taf": "TAF EDDH 212300Z 2200/2306 22005KT 9999 OVC007"
    },
    {
      "icao": "EDDK",
      "alert": "OK",
      "vis_m": 9999,
      "fzfg": false,
      "metar_trigger": false,
      "taf_trigger": false,
      "metar": "METAR EDDK 220150Z AUTO 17007KT 9999 -SHRA BKN017 FEW///TCU 10/10 Q1019 RESHRA TEMPO BKN012",
      "taf": "TAF EDDK 212300Z 2200/2306 18007KT 9999 SCT015 BKN025"
    },
    {
      "icao": "EDDN",
      "alert": "OK",
      "vis_m": 6000,
      "fzfg": false,
      "metar_trigger": false,
      "taf_trigger": false,
      "metar": "METAR EDDN 220150Z AUTO 23008KT 6000 -DZ BKN009 BKN013 08/07 Q1022",
      "taf": "TAF EDDN 212300Z 2200/2224 24009KT 9999 SCT010 BKN020"
    },
    {
      "icao": "EDDS",
      "alert": "OK",
      "vis_m": 9999,
      "fzfg": false,
      "metar_trigger": false,
      "taf_trigger": false,
      "metar": "METAR EDDS 220150Z AUTO 23005KT 140V290 CAVOK 08/05 Q1023",
      "taf": "TAF EDDS 212300Z 2200/2224 21007KT 9999 BKN045"
    },
    {
      "icao": "EDFH",
      "alert": "OK",
      "vis_m": 9999,
      "fzfg": false,
      "metar_trigger": false,
      "taf_trigger": false,
      "metar": "METAR EDFH 220150Z 25014KT 9999 -RA OVC004 09/08 Q1021",
      "taf": "TAF EDFH 212300Z 2200/2224 25015G25KT 9999 OVC005"
    },
    {
      "icao": "EDJA",
      "alert": "OK",
      "vis_m": 9999,
      "fzfg": false,
      "metar_trigger": false,
      "taf_trigger": false,
      "metar": "METAR EDJA 220150Z AUTO 22012KT 9999 // FEW170/// BKN230/// 05/03 Q1025",
      "taf": "TAF EDJA 211700Z 2118/2203 24010KT 9999 SCT009 BKN025"
    },
    {
      "icao": "EDLW",
      "alert": "OK",
      "vis_m": 9999,
      "fzfg": false,
      "metar_trigger": false,
      "taf_trigger": false,
      "metar": "METAR EDLW 220150Z AUTO 23012KT 9999 // SCT009/// OVC011/// 11/10 Q1017",
      "taf": ""
    },
    {
      "icao": "EDNY",
      "alert": "OK",
      "vis_m": 9999,
      "fzfg": false,
      "metar_trigger": false,
      "taf_trigger": false,
      "metar": "METAR EDNY 220150Z AUTO VRB01KT 9999 // SCT210/// BKN250/// 04/03 Q1027",
      "taf": "TAF EDNY 211700Z 2118/2203 24011KT 7000 OVC020"
    },
    {
      "icao": "EDSB",
      "alert": "OK",
      "vis_m": 9999,
      "fzfg": false,
      "metar_trigger": false,
      "taf_trigger": false,
      "metar": "METAR EDSB 220150Z AUTO 20014KT 9999 OVC029/// 10/07 Q1025",
      "taf": "TAF EDSB 212300Z 2200/2224 21013KT 9999 OVC030"
    },
    {
      "icao": "EETN",
      "alert": "OK",
      "vis_m": 600,
      "fzfg": false,
      "metar_trigger": false,
      "taf_trigger": false,
      "metar": "METAR EETN 220150Z 20010KT 0600 R26/1600 +SN VV008 M04/M05 Q0997",
      "taf": "TAF EETN 212330Z 2200/2224 19012KT 5000 SN SCT010 BKN020"
    },
    {
      "icao": "EFTU",
      "alert": "OK",
      "vis_m": 9999,
      "fzfg": false,
      "metar_trigger": false,
      "taf_trigger": false,
      "metar": "METAR EFTU 220150Z AUTO 31010KT 280V350 9999 -SHSN OVC007 M02/M03 Q0997",
      "taf": "TAF EFTU 212325Z 2200/2224 32010KT 4500 -SN BKN004"
    },
    {
      "icao": "EGBB",
      "alert": "OK",
      "vis_m": 9999,
      "fzfg": false,
      "metar_trigger": false,
      "taf_trigger": false,
      "metar": "METAR EGBB 220150Z 21006KT 160V240 9999 BKN011 BKN021 11/10 Q1014",
      "taf": "TAF EGBB 212255Z 2200/2224 22010KT 9999 SCT020"
    },
    {
      "icao": "EGGP",
      "alert": "OK",
      "vis_m": 9999,
      "fzfg": false,
      "metar_trigger": false,
      "taf_trigger": false,
      "metar": "METAR EGGP 220150Z AUTO 21008KT 180V240 9999 BKN018/// BKN027/// 11/09 Q1011",
      "taf": "TAF EGGP 212255Z 2200/2224 23010KT 9999 FEW020 SCT030"
    },
    {
      "icao": "EGGW",
      "alert": "OK",
      "vis_m": 9999,
      "fzfg": false,
      "metar_trigger": false,
      "taf_trigger": false,
      "metar": "METAR EGGW 220150Z AUTO 21009KT 160V230 9999 BKN014 BKN019 11/10 Q1016",
      "taf": "TAF EGGW 212253Z 2200/2224 24014KT 9999 SCT008 BKN016"
    },
    {
      "icao": "EGKK",
      "alert": "OK",
      "vis_m": 9999,
      "fzfg": false,
      "metar_trigger": false,
      "taf_trigger": false,
      "metar": "METAR EGKK 220150Z 23012KT 9999 BKN008 12/10 Q1019",
      "taf": "TAF EGKK 212257Z 2200/2306 23010KT 9999 BKN007"
    },
    {
      "icao": "EGNM",
      "alert": "OK",
      "vis_m": null,
      "fzfg": false,
      "metar_trigger": false,
      "taf_trigger": false,
      "metar": "",
      "taf": "TAF EGNM 212300Z 2200/2224 23010KT 9999 BKN010"
    },
    {
      "icao": "EGPD",
      "alert": "OK",
      "vis_m": 9999,
      "fzfg": false,
      "metar_trigger": false,
      "taf_trigger": false,
      "metar": "METAR EGPD 220150Z COR AUTO VRB04KT 9999 SCT031 03/02 Q1003 NOSIG",
      "taf": ""
    },
    {
      "icao": "EGPF",
      "alert": "OK",
      "vis_m": 9000,
      "fzfg": false,
      "metar_trigger": false,
      "taf_trigger": false,
      "metar": "METAR EGPF 220150Z AUTO 25014KT 9000 NCD 09/07 Q1006",
      "taf": ""
    },
    {
      "icao": "EHBK",
      "alert": "OK",
      "vis_m": 6000,
      "fzfg": false,
      "metar_trigger": false,
      "taf_trigger": false,
      "metar": "METAR EHBK 220155Z AUTO 23012KT 180V260 6000 +DZ BKN003/// OVC004/// 11/11 Q1019",
      "taf": "TAF EHBK 212310Z 2200/2306 24012KT 7000 -RADZ BKN006"
    },
    {
      "icao": "EHEH",
      "alert": "OK",
      "vis_m": 9999,
      "fzfg": false,
      "metar_trigger": false,
      "taf_trigger": false,
      "metar": "SPECI EHEH 220209Z AUTO 24012KT 210V280 9999 -RA SCT006 BKN007 OVC008 12/11 Q1018 GRN",
      "taf": "TAF EHEH 220005Z 2200/2306 23012G22KT 8000 -RADZ BKN006 BKN008 OVC012"
    },
    {
      "icao": "EKBI",
      "alert": "OK",
      "vis_m": 5000,
      "fzfg": false,
      "metar_trigger": false,
      "taf_trigger": false,
      "metar": "METAR EKBI 220150Z AUTO 10004KT 5000 -RA OVC015/// 01/01 Q1011",
      "taf": "TAF EKBI 212327Z 2200/2224 16002KT 9999 OVC030"
    },
    {
      "icao": "EKCH",
      "alert": "OK",
      "vis_m": 9999,
      "fzfg": false,
      "metar_trigger": false,
      "taf_trigger": false,
      "metar": "METAR EKCH 220150Z AUTO 26003KT 9999 NCD M00/M01 Q1013 NOSIG",
      "taf": "TAF EKCH 212327Z 2200/2224 27010KT CAVOK"
    },
    {
      "icao": "ENAL",
      "alert": "OK",
      "vis_m": 9999,
      "fzfg": false,
      "metar_trigger": false,
      "taf_trigger": false,
      "metar": "METAR ENAL 220150Z AUTO 14009KT 9999 NCD M00/M01 Q1009",
      "taf": "TAF ENAL 212300Z 2200/2209 13008KT 9999 FEW010 BKN020"
    },
    {
      "icao": "ENBR",
      "alert": "OK",
      "vis_m": 9999,
      "fzfg": false,
      "metar_trigger": false,
      "taf_trigger": false,
      "metar": "METAR ENBR 220150Z AUTO VRB02KT 9999 NCD M01/M03 Q1007 RMK WIND 1200FT 12014KT",
      "taf": "TAF ENBR 212300Z 2200/2224 VRB03KT 9999 FEW025 BKN060"
    },
    {
      "icao": "ENGM",
      "alert": "OK",
      "vis_m": 9999,
      "fzfg": false,
      "metar_trigger": false,
      "taf_trigger": false,
      "metar": "METAR ENGM 220150Z VRB02KT CAVOK M08/M10 Q1009",
      "taf": "TAF ENGM 212300Z 2200/2224 VRB03KT CAVOK"
    },
    {
      "icao": "ENHD",
      "alert": "OK",
      "vis_m": 9999,
      "fzfg": false,
      "metar_trigger": false,
      "taf_trigger": false,
      "metar": "METAR ENHD 220150Z AUTO 11008KT 9999 NCD 01/M01 Q1008",
      "taf": ""
    },
    {
      "icao": "ENTC",
      "alert": "OK",
      "vis_m": 9999,
      "fzfg": false,
      "metar_trigger": false,
      "taf_trigger": false,
      "metar": "METAR ENTC 220150Z 19009KT 9999 FEW009 SCT011 BKN037 M03/M05 Q0999 RMK WIND 2600FT 33019KT",
      "taf": ""
    },
    {
      "icao": "ENTO",
      "alert": "OK",
      "vis_m": 9999,
      "fzfg": false,
      "metar_trigger": false,
      "taf_trigger": false,
      "metar": "METAR ENTO 220150Z AUTO 28002KT 9999 NCD M03/M05 Q1010",
      "taf": "TAF ENTO 212300Z 2200/2224 VRB03KT CAVOK"
    },
    {
      "icao": "ENVA",
      "alert": "OK",
      "vis_m": 9999,
      "fzfg": false,
      "metar_trigger": false,
      "taf_trigger": false,
      "metar": "METAR ENVA 220150Z 24010KT 9999 BKN010 BKN012 BKN015 00/M01 Q1008 RMK WIND 670FT 27016KT",
      "taf": "TAF ENVA 212300Z 2200/2224 26008KT 9999 FEW010 BKN020"
    },
    {
      "icao": "ENZV",
      "alert": "OK",
      "vis_m": 9999,
      "fzfg": false,
      "metar_trigger": false,
      "taf_trigger": false,
      "metar": "METAR ENZV 220150Z AUTO 12006KT 9999 NCD 02/M01 Q1008",
      "taf": "TAF ENZV 212300Z 2200/2224 15008KT 9999 SCT040"
    },
    {
      "icao": "EPGD",
      "alert": "OK",
      "vis_m": 9999,
      "fzfg": false,
      "metar_trigger": false,
      "taf_trigger": false,
      "metar": "METAR EPGD 220200Z 27019KT 9999 BKN010 01/M00 Q1010",
      "taf": "TAF EPGD 212330Z 2200/2224 25014KT 9999 OVC006"
    },
    {
      "icao": "EPKK",
      "alert": "OK",
      "vis_m": 9999,
      "fzfg": false,
      "metar_trigger": false,
      "taf_trigger": false,
      "metar": "METAR EPKK 220200Z 23004KT 9999 BKN032 OVC065 03/01 Q1020",
      "taf": "TAF EPKK 212330Z 2200/2224 24005KT 9999 SCT025 BKN050"
    },
    {
      "icao": "EPKT",
      "alert": "OK",
      "vis_m": 6000,
      "fzfg": false,
      "metar_trigger": false,
      "taf_trigger": false,
      "metar": "METAR EPKT 220200Z 23010KT 6000 FEW007 BKN026 02/01 Q1019",
      "taf": "TAF EPKT 212330Z 2200/2224 23008KT 9000 BKN020"
    },
    {
      "icao": "EPLB",
      "alert": "OK",
      "vis_m": 8000,
      "fzfg": false,
      "metar_trigger": false,
      "taf_trigger": false,
      "metar": "METAR EPLB 220200Z 24003KT 8000 BKN016 OVC021 02/01 Q1017",
      "taf": "TAF EPLB 212330Z 2200/2224 22010KT 7000 -RA BKN020"
    },
    {
      "icao": "EPMO",
      "alert": "OK",
      "vis_m": 5000,
      "fzfg": false,
      "metar_trigger": false,
      "taf_trigger": false,
      "metar": "METAR EPMO 220200Z 22008KT 5000 BR BKN007 03/03 Q1015",
      "taf": "TAF EPMO 212330Z 2200/2224 22006KT 5000 -RA BR OVC010"
    },
    {
      "icao": "EPPO",
      "alert": "OK",
      "vis_m": 9999,
      "fzfg": false,
      "metar_trigger": false,
      "taf_trigger": false,
      "metar": "METAR EPPO 220200Z 24007KT 9999 BKN008 BKN029 05/04 Q1016",
      "taf": "TAF EPPO 212330Z 2200/2224 26009KT 9999 BKN017"
    },
    {
      "icao": "EPRA",
      "alert": "OK",
      "vis_m": 9999,
      "fzfg": false,
      "metar_trigger": false,
      "taf_trigger": false,
      "metar": "METAR EPRA 220200Z 22009KT 9999 SCT012 BKN021 04/02 Q1017",
      "taf": "TAF EPRA 212330Z 2200/2209 23010KT 9999 BKN025"
    },
    {
      "icao": "EPRZ",
      "alert": "OK",
      "vis_m": 9999,
      "fzfg": false,
      "metar_trigger": false,
      "taf_trigger": false,
      "metar": "METAR EPRZ 220200Z 21005KT 9999 OVC025 02/01 Q1020",
      "taf": "TAF EPRZ 212330Z 2200/2224 22006KT 9999 OVC020"
    },
    {
      "icao": "EPSC",
      "alert": "OK",
      "vis_m": 7000,
      "fzfg": false,
      "metar_trigger": false,
      "taf_trigger": false,
      "metar": "METAR EPSC 220200Z 26003KT 7000 BKN003 05/05 Q1015",
      "taf": ""
    },
    {
      "icao": "EPSY",
      "alert": "OK",
      "vis_m": 5000,
      "fzfg": false,
      "metar_trigger": false,
      "taf_trigger": false,
      "metar": "METAR EPSY 220200Z 23007KT 190V260 5000 BR BKN006 03/02 Q1012",
      "taf": "TAF EPSY 212330Z 2200/2209 21008KT 2000 BR OVC002"
    },
    {
      "icao": "EPWA",
      "alert": "OK",
      "vis_m": 9999,
      "fzfg": false,
      "metar_trigger": false,
      "taf_trigger": false,
      "metar": "METAR EPWA 220200Z 23009KT 210V270 9999 BKN009 BKN014 04/03 Q1015 NOSIG",
      "taf": "TAF EPWA 212330Z 2200/2224 22006KT 7000 -RA OVC010"
    },
    {
      "icao": "EPWR",
      "alert": "OK",
      "vis_m": 9999,
      "fzfg": false,
      "metar_trigger": false,
      "taf_trigger": false,
      "metar": "METAR EPWR 220200Z 22007KT 9999 FEW037 05/02 Q1018",
      "taf": "TAF EPWR 212330Z 2200/2224 25010KT 9999 SCT040"
    },
    {
      "icao": "ESGG",
      "alert": "OK",
      "vis_m": 4200,
      "fzfg": true,
      "metar_trigger": false,
      "taf_trigger": false,
      "metar": "METAR ESGG 220120Z VRB02KT 4200 R03/1700N R21/1400U FZFG NSC M05/M05 Q1010",
      "taf": "TAF ESGG 212330Z 2200/2224 33005KT CAVOK"
    },
    {
      "icao": "ESKN",
      "alert": "OK",
      "vis_m": 9999,
      "fzfg": false,
      "metar_trigger": false,
      "taf_trigger": false,
      "metar": "METAR ESKN 220150Z 29009KT CAVOK M03/M05 Q1007",
      "taf": "TAF ESKN 212330Z 2200/2224 30010KT CAVOK"
    },
    {
      "icao": "ESMS",
      "alert": "OK",
      "vis_m": 9999,
      "fzfg": false,
      "metar_trigger": false,
      "taf_trigger": false,
      "metar": "METAR ESMS 220150Z 30004KT 9999 SCT012 01/00 Q1012",
      "taf": "TAF ESMS 212327Z 2200/2224 28012KT CAVOK"
    },
    {
      "icao": "ESSA",
      "alert": "OK",
      "vis_m": 9999,
      "fzfg": false,
      "metar_trigger": false,
      "taf_trigger": false,
      "metar": "METAR ESSA 220150Z 28008KT CAVOK M05/M06 Q1004 NOSIG",
      "taf": "TAF ESSA 212330Z 2200/2224 30007KT CAVOK"
    },
    {
      "icao": "EYKA",
      "alert": "OK",
      "vis_m": 4300,
      "fzfg": false,
      "metar_trigger": false,
      "taf_trigger": false,
      "metar": "METAR EYKA 220150Z 21008KT 170V250 4300 BR OVC005 01/00 Q1008",
      "taf": "TAF EYKA 212307Z 2200/2224 21010KT 3000 BR OVC005"
    },
    {
      "icao": "EYPA",
      "alert": "OK",
      "vis_m": 9000,
      "fzfg": false,
      "metar_trigger": false,
      "taf_trigger": false,
      "metar": "METAR EYPA 220150Z 27009KT 210V020 9000 -RASN OVC003 02/01 Q1005",
      "taf": "TAF EYPA 212324Z 2200/2224 25010KT 5000 DZ BR OVC002"
    },
    {
      "icao": "EYVI",
      "alert": "OK",
      "vis_m": 2100,
      "fzfg": false,
      "metar_trigger": false,
      "taf_trigger": false,
      "metar": "METAR EYVI 220150Z 20015KT 2100 -SN BR OVC003 M02/M03 Q1009 TEMPO 1500 SN -FZDZ BR OVC002",
      "taf": ""
    },
    {
      "icao": "GCFV",
      "alert": "OK",
      "vis_m": 8000,
      "fzfg": false,
      "metar_trigger": false,
      "taf_trigger": false,
      "metar": "METAR GCFV 220200Z AUTO 35007KT 8000 OVC007 17/15 Q1022",
      "taf": ""
    },
    {
      "icao": "GCLP",
      "alert": "OK",
      "vis_m": 9999,
      "fzfg": false,
      "metar_trigger": false,
      "taf_trigger": false,
      "metar": "METAR GCLP 220200Z 36014KT 9999 FEW020 17/14 Q1022 NOSIG",
      "taf": "TAF GCLP 212000Z 2121/2221 02015KT 9999 FEW020 TX26/2214Z TN18/2206Z"
    },
    {
      "icao": "GCTS",
      "alert": "OK",
      "vis_m": 9999,
      "fzfg": false,
      "metar_trigger": false,
      "taf_trigger": false,
      "metar": "METAR GCTS 220200Z 02003KT CAVOK 15/11 Q1021 NOSIG",
      "taf": "TAF GCTS 212000Z 2121/2221 04010KT CAVOK TX28/2214Z TN18/2206Z"
    },
    {
      "icao": "GMAD",
      "alert": "OK",
      "vis_m": 9999,
      "fzfg": false,
      "metar_trigger": false,
      "taf_trigger": false,
      "metar": "METAR GMAD 220200Z 06007KT CAVOK 12/06 Q1023 NOSIG",
      "taf": "TAF GMAD 212300Z 2200/2306 12004KT CAVOK"
    },
    {
      "icao": "GMMN",
      "alert": "OK",
      "vis_m": 8000,
      "fzfg": false,
      "metar_trigger": false,
      "taf_trigger": false,
      "metar": "METAR GMMN 220200Z 19006KT 8000 NSC 08/07 Q1024 NOSIG",
      "taf": "TAF GMMN 212300Z 2200/2306 17004KT 4000 BR NSC"
    },
    {
      "icao": "GMMX",
      "alert": "OK",
      "vis_m": 9999,
      "fzfg": false,
      "metar_trigger": false,
      "taf_trigger": false,
      "metar": "METAR GMMX 220200Z 09003KT CAVOK 11/05 Q1025 NOSIG",
      "taf": "TAF GMMX 212300Z 2200/2306 06006KT 8000 NSC"
    },
    {
      "icao": "HEGN",
      "alert": "OK",
      "vis_m": 9999,
      "fzfg": false,
      "metar_trigger": false,
      "taf_trigger": false,
      "metar": "METAR HEGN 220200Z 30011KT CAVOK 15/08 Q1013 NOSIG",
      "taf": "TAF HEGN 212300Z 2200/2306 29014KT CAVOK"
    },
    {
      "icao": "HEMA",
      "alert": "OK",
      "vis_m": 9999,
      "fzfg": false,
      "metar_trigger": false,
      "taf_trigger": false,
      "metar": "METAR HEMA 220200Z 30010KT CAVOK 19/08 Q1011 NOSIG",
      "taf": "TAF HEMA 212300Z 2200/2306 30014KT CAVOK"
    },
    {
      "icao": "HESH",
      "alert": "OK",
      "vis_m": 9999,
      "fzfg": false,
      "metar_trigger": false,
      "taf_trigger": false,
      "metar": "METAR HESH 220200Z 35009KT CAVOK 20/11 Q1012 NOSIG",
      "taf": "TAF HESH 212300Z 2200/2306 35010KT CAVOK"
    },
    {
      "icao": "HESX",
      "alert": "OK",
      "vis_m": 9999,
      "fzfg": false,
      "metar_trigger": false,
      "taf_trigger": false,
      "metar": "METAR HESX 220200Z 13005KT CAVOK 11/05 Q1015 NOSIG",
      "taf": "TAF HESX 212300Z 2200/2306 14006KT CAVOK"
    },
    {
      "icao": "LATI",
      "alert": "OK",
      "vis_m": 9999,
      "fzfg": false,
      "metar_trigger": false,
      "taf_trigger": false,
      "metar": "METAR LATI 220220Z 00000KT 9999 SCT110 05/01 Q1019 NOSIG",
      "taf": "TAF LATI 212300Z 2200/2224 VRB03KT CAVOK TX16/2212Z TN02/2205Z"
    },
    {
      "icao": "LBPD",
      "alert": "OK",
      "vis_m": 9999,
      "fzfg": false,
      "metar_trigger": false,
      "taf_trigger": false,
      "metar": "METAR LBPD 220200Z AUTO 30013KT 9999 -SN OVC030/// 01/01 Q1020",
      "taf": "TAF LBPD 212300Z 2200/2224 27016KT 9999 SCT020 OVC030"
    },
    {
      "icao": "LBSF",
      "alert": "OK",
      "vis_m": 9999,
      "fzfg": false,
      "metar_trigger": false,
      "taf_trigger": false,
      "metar": "METAR LBSF 220200Z AUTO 30005KT 9999 OVC040/// M03/M05 Q1021 NOSIG",
      "taf": "TAF LBSF 212300Z 2200/2224 30010KT 9999 SCT020 BKN035"
    },
    {
      "icao": "LBWN",
      "alert": "OK",
      "vis_m": 9999,
      "fzfg": false,
      "metar_trigger": false,
      "taf_trigger": false,
      "metar": "METAR LBWN 220200Z AUTO 29014KT 9999 OVC009/// M01/M01 Q1020 TEMPO 29016G26KT",
      "taf": "TAF LBWN 212300Z 2200/2224 32012KT 9999 OVC008"
    },
    {
      "icao": "LCLK",
      "alert": "OK",
      "vis_m": 9999,
      "fzfg": false,
      "metar_trigger": false,
      "taf_trigger": false,
      "metar": "METAR LCLK 220200Z VRB02KT CAVOK 10/09 Q1013 NOSIG",
      "taf": "TAF LCLK 212330Z 2200/2300 29007KT 9999 FEW025"
    },
    {
      "icao": "LCPH",
      "alert": "OK",
      "vis_m": 9999,
      "fzfg": false,
      "metar_trigger": false,
      "taf_trigger": false,
      "metar": "METAR LCPH 220200Z AUTO 07007KT 010V080 9999 NCD 10/09 Q1013 NOSIG",
      "taf": "TAF LCPH 212330Z 2200/2300 01007KT 9999 SCT025"
    },
    {
      "icao": "LEAL",
      "alert": "OK",
      "vis_m": 9999,
      "fzfg": false,
      "metar_trigger": false,
      "taf_trigger": false,
      "metar": "METAR LEAL 220200Z 28003KT CAVOK 09/06 Q1030 NOSIG",
      "taf": "TAF LEAL 212300Z 2200/2224 30004KT CAVOK TX20/2213Z TN07/2206Z"
    },
    {
      "icao": "LEBB",
      "alert": "OK",
      "vis_m": 9999,
      "fzfg": false,
      "metar_trigger": false,
      "taf_trigger": false,
      "metar": "METAR LEBB 220200Z AUTO VRB02KT CAVOK 06/06 Q1029",
      "taf": "TAF LEBB 212300Z 2200/2224 10005KT CAVOK TX17/2212Z TN05/2207Z"
    },
    {
      "icao": "LEBL",
      "alert": "OK",
      "vis_m": 9999,
      "fzfg": false,
      "metar_trigger": false,
      "taf_trigger": false,
      "metar": "METAR LEBL 220200Z 32013KT CAVOK 09/04 Q1028 NOSIG",
      "taf": "TAF LEBL 212300Z 2200/2224 33007KT CAVOK TX19/2213Z TN06/2207Z"
    },
    {
      "icao": "LECH",
      "alert": "OK",
      "vis_m": 9000,
      "fzfg": false,
      "metar_trigger": false,
      "taf_trigger": false,
      "metar": "METAR LECH 220200Z AUTO VRB02KT 9000 NCD 07/05 Q1029",
      "taf": ""
    },
    {
      "icao": "LEMD",
      "alert": "OK",
      "vis_m": 9999,
      "fzfg": false,
      "metar_trigger": false,
      "taf_trigger": false,
      "metar": "METAR LEMD 220200Z VRB02KT CAVOK 04/03 Q1030 NOSIG",
      "taf": "TAF LEMD 212300Z 2200/2306 VRB04KT CAVOK TX20/2216Z TN01/2207Z"
    },
    {
      "icao": "LEMG",
      "alert": "OK",
      "vis_m": 9999,
      "fzfg": false,
      "metar_trigger": false,
      "taf_trigger": false,
      "metar": "METAR LEMG 220200Z 29008KT CAVOK 06/05 Q1030 NOSIG",
      "taf": "TAF LEMG 212300Z 2200/2224 29006KT CAVOK TX19/2214Z TN10/2207Z"
    },
    {
      "icao": "LEVC",
      "alert": "OK",
      "vis_m": 9999,
      "fzfg": false,
      "metar_trigger": false,
      "taf_trigger": false,
      "metar": "METAR LEVC 220200Z 28005KT CAVOK 06/04 Q1029 NOSIG",
      "taf": "TAF LEVC 212300Z 2200/2224 30004KT CAVOK TX21/2214Z TN06/2206Z"
    },
    {
      "icao": "LEXJ",
      "alert": "OK",
      "vis_m": 9000,
      "fzfg": false,
      "metar_trigger": false,
      "taf_trigger": false,
      "metar": "METAR LEXJ 220200Z AUTO 19002KT 9000 3500E NCD 06/05 Q1029",
      "taf": ""
    },
    {
      "icao": "LEZG",
      "alert": "OK",
      "vis_m": 9999,
      "fzfg": false,
      "metar_trigger": false,
      "taf_trigger": false,
      "metar": "METAR LEZG 220200Z 27001KT CAVOK 05/04 Q1030 NOSIG",
      "taf": "TAF LEZG 212300Z 2200/2224 32006KT CAVOK TX19/2214Z TN03/2206Z"
    },
    {
      "icao": "LEZL",
      "alert": "OK",
      "vis_m": 9000,
      "fzfg": false,
      "metar_trigger": false,
      "taf_trigger": false,
      "metar": "METAR LEZL 220200Z AUTO 06003KT 360V150 9000 NCD 09/05 Q1028",
      "taf": "TAF LEZL 212000Z 2121/2221 05007KT CAVOK TX22/2215Z TN08/2207Z"
    },
    {
      "icao": "LFBD",
      "alert": "OK",
      "vis_m": 5000,
      "fzfg": false,
      "metar_trigger": false,
      "taf_trigger": false,
      "metar": "METAR LFBD 220200Z AUTO 00000KT 5000 0500 R23/0600D R05/1200D R29/P2300 BCFG NSC 05/04 Q1030 TEMPO 0400 FG VV///",
      "taf": "TAF LFBD 212300Z 2200/2306 VRB03KT 6000 NSC TX16/2214Z TN04/2207Z"
    },
    {
      "icao": "LFLL",
      "alert": "OK",
      "vis_m": 9999,
      "fzfg": false,
      "metar_trigger": false,
      "taf_trigger": false,
      "metar": "METAR LFLL 220200Z VRB02KT 9999 BKN036 SCT260 07/05 Q1030 NOSIG",
      "taf": "TAF LFLL 212300Z 2200/2306 VRB03KT 9999 BKN036"
    },
    {
      "icao": "LFLS",
      "alert": "OK",
      "vis_m": 9999,
      "fzfg": false,
      "metar_trigger": false,
      "taf_trigger": false,
      "metar": "METAR LFLS 220200Z AUTO 09006KT CAVOK 01/01 Q1029",
      "taf": "TAF LFLS 220200Z 2203/2303 09005KT CAVOK"
    },
    {
      "icao": "LFMN",
      "alert": "OK",
      "vis_m": 9999,
      "fzfg": false,
      "metar_trigger": false,
      "taf_trigger": false,
      "metar": "METAR LFMN 220200Z 01004KT 340V040 CAVOK 09/04 Q1025 NOSIG",
      "taf": "TAF LFMN 212000Z 2121/2303 34010KT CAVOK"
    },
    {
      "icao": "LFOB",
      "alert": "OK",
      "vis_m": 6000,
      "fzfg": false,
      "metar_trigger": false,
      "taf_trigger": false,
      "metar": "METAR LFOB 220200Z AUTO 22010KT 6000 -RADZ BKN007 OVC011 12/12 Q1023 TEMPO 3000 DZRA OVC004",
      "taf": "TAF LFOB 212300Z 2200/2224 24012KT 9999 OVC010"
    },
    {
      "icao": "LFPO",
      "alert": "OK",
      "vis_m": 9999,
      "fzfg": false,
      "metar_trigger": false,
      "taf_trigger": false,
      "metar": "METAR LFPO 220200Z AUTO 24010KT 9999 OVC011 12/10 Q1025 TEMPO 4000 -RADZ BKN007",
      "taf": "TAF LFPO 212300Z 2200/2306 23012KT 9999 BKN013"
    },
    {
      "icao": "LFSB",
      "alert": "OK",
      "vis_m": 9999,
      "fzfg": false,
      "metar_trigger": false,
      "taf_trigger": false,
      "metar": "METAR LFSB 220200Z AUTO 13004KT 110V190 CAVOK 07/05 Q1027 NOSIG",
      "taf": "TAF LFSB 212300Z 2200/2224 23008KT 9999 FEW040 BKN060"
    },
    {
      "icao": "LGAV",
      "alert": "OK",
      "vis_m": 9999,
      "fzfg": false,
      "metar_trigger": false,
      "taf_trigger": false,
      "metar": "METAR LGAV 220150Z 00000KT 9999 FEW020 SCT040 09/07 Q1015 NOSIG",
      "taf": "TAF LGAV 212300Z 2200/2224 01010KT 9999 FEW025 SCT070"
    },
    {
      "icao": "LGTS",
      "alert": "OK",
      "vis_m": 9999,
      "fzfg": false,
      "metar_trigger": false,
      "taf_trigger": false,
      "metar": "METAR LGTS 220150Z 34013KT 9999 FEW025 06/M01 Q1019 NOSIG",
      "taf": "TAF LGTS 212300Z 2200/2224 34013KT 9999 FEW030"
    },
    {
      "icao": "LHBP",
      "alert": "OK",
      "vis_m": 4800,
      "fzfg": false,
      "metar_trigger": false,
      "taf_trigger": false,
      "metar": "METAR LHBP 220200Z VRB01KT 4800 BCFG BR FEW005 M03/M04 Q1023 NOSIG",
      "taf": "TAF LHBP 212315Z 2200/2224 VRB03KT 5000 BR NSC"
    },
    {
      "icao": "LHDC",
      "alert": "OK",
      "vis_m": 4100,
      "fzfg": false,
      "metar_trigger": false,
      "taf_trigger": false,
      "metar": "METAR LHDC 220145Z AUTO 19004KT 4100 BR OVC019 02/02 Q1024",
      "taf": ""
    },
    {
      "icao": "LIBD",
      "alert": "OK",
      "vis_m": 9999,
      "fzfg": false,
      "metar_trigger": false,
      "taf_trigger": false,
      "metar": "METAR LIBD 220150Z 31007KT 280V340 9999 BKN030 11/07 Q1021",
      "taf": "TAF LIBD 212300Z 2200/2224 28013KT 9999 SCT030"
    },
    {
      "icao": "LIBG",
      "alert": "OK",
      "vis_m": null,
      "fzfg": false,
      "metar_trigger": false,
      "taf_trigger": false,
      "metar": "",
      "taf": "TAF LIBG 211700Z 2118/2203 34015KT 9999 SCT040"
    },
    {
      "icao": "LIBP",
      "alert": "OK",
      "vis_m": 9999,
      "fzfg": false,
      "metar_trigger": false,
      "taf_trigger": false,
      "metar": "METAR LIBP 220150Z AUTO 21005KT 9999 NCD 01/01 Q1025",
      "taf": "TAF LIBP 212300Z 2200/2224 24006KT 9999 SCT030"
    },
    {
      "icao": "LIBR",
      "alert": "OK",
      "vis_m": 9999,
      "fzfg": false,
      "metar_trigger": false,
      "taf_trigger": false,
      "metar": "METAR LIBR 220150Z 35017KT CAVOK 12/07 Q1019",
      "taf": "TAF LIBR 212300Z 2200/2224 34016KT 9999 SCT020"
    },
    {
      "icao": "LICA",
      "alert": "OK",
      "vis_m": 9999,
      "fzfg": false,
      "metar_trigger": false,
      "taf_trigger": false,
      "metar": "METAR LICA 220150Z AUTO 16005KT 9999 NCD 10/07 Q1021",
      "taf": "TAF LICA 212300Z 2200/2224 28010KT 9999 FEW020"
    },
    {
      "icao": "LICC",
      "alert": "OK",
      "vis_m": 9999,
      "fzfg": false,
      "metar_trigger": false,
      "taf_trigger": false,
      "metar": "METAR LICC 220150Z VRB01KT CAVOK 07/03 Q1021",
      "taf": "TAF LICC 212300Z 2200/2224 24006KT 9999 BKN050"
    },
    {
      "icao": "LICJ",
      "alert": "OK",
      "vis_m": 9999,
      "fzfg": false,
      "metar_trigger": false,
      "taf_trigger": false,
      "metar": "METAR LICJ 220150Z AUTO 01010KT 9999 BKN028/// 14/08 Q1024",
      "taf": "TAF LICJ 212300Z 2200/2224 33014KT 9999 FEW030"
    },
    {
      "icao": "LIMC",
      "alert": "OK",
      "vis_m": 9999,
      "fzfg": false,
      "metar_trigger": false,
      "taf_trigger": false,
      "metar": "METAR LIMC 220150Z 05003KT CAVOK 06/04 Q1025 NOSIG",
      "taf": "TAF LIMC 212300Z 2200/2306 VRB05KT CAVOK"
    },
    {
      "icao": "LIME",
      "alert": "OK",
      "vis_m": 9999,
      "fzfg": false,
      "metar_trigger": false,
      "taf_trigger": false,
      "metar": "METAR LIME 220150Z 01005KT CAVOK 05/03 Q1025 NOSIG",
      "taf": "TAF LIME 212300Z 2200/2224 VRB05KT CAVOK"
    },
    {
      "icao": "LIMF",
      "alert": "OK",
      "vis_m": 9999,
      "fzfg": false,
      "metar_trigger": false,
      "taf_trigger": false,
      "metar": "METAR LIMF 220150Z 26004KT CAVOK 05/M00 Q1024",
      "taf": "TAF LIMF 212300Z 2200/2224 VRB05KT CAVOK"
    },
    {
      "icao": "LIMJ",
      "alert": "OK",
      "vis_m": 9999,
      "fzfg": false,
      "metar_trigger": false,
      "taf_trigger": false,
      "metar": "METAR LIMJ 220150Z 03002KT CAVOK 08/05 Q1025",
      "taf": "TAF LIMJ 212300Z 2200/2224 02006KT CAVOK"
    },
    {
      "icao": "LIPE",
      "alert": "OK",
      "vis_m": 9999,
      "fzfg": false,
      "metar_trigger": false,
      "taf_trigger": false,
      "metar": "METAR LIPE 220150Z 21004KT CAVOK 04/02 Q1025",
      "taf": "TAF LIPE 212300Z 2200/2224 VRB05KT CAVOK"
    },
    {
      "icao": "LIPH",
      "alert": "OK",
      "vis_m": 150,
      "fzfg": false,
      "metar_trigger": false,
      "taf_trigger": false,
      "metar": "METAR LIPH 220150Z AUTO VRB01KT 0150 0100W R07/0450N FG VV004 02/02 Q1025",
      "taf": "TAF LIPH 212300Z 2200/2224 VRB05KT 3000 BR FEW040"
    },
    {
      "icao": "LIPQ",
      "alert": "OK",
      "vis_m": 8000,
      "fzfg": false,
      "metar_trigger": false,
      "taf_trigger": false,
      "metar": "METAR LIPQ 220150Z AUTO 08003KT 8000 NCD 02/02 Q1025",
      "taf": "TAF LIPQ 212300Z 2200/2224 VRB06KT 9999 FEW030"
    },
    {
      "icao": "LIPR",
      "alert": "OK",
      "vis_m": 9999,
      "fzfg": false,
      "metar_trigger": false,
      "taf_trigger": false,
      "metar": "METAR LIPR 220150Z AUTO 20004KT 9999 NCD 02/01 Q1025",
      "taf": "TAF LIPR 212300Z 2200/2224 VRB06KT CAVOK"
    },
    {
      "icao": "LIPX",
      "alert": "OK",
      "vis_m": 9999,
      "fzfg": false,
      "metar_trigger": false,
      "taf_trigger": false,
      "metar": "METAR LIPX 220150Z 35004KT CAVOK 03/02 Q1025",
      "taf": "TAF LIPX 212300Z 2200/2224 VRB05KT CAVOK"
    },
    {
      "icao": "LIPY",
      "alert": "OK",
      "vis_m": 9999,
      "fzfg": false,
      "metar_trigger": false,
      "taf_trigger": false,
      "metar": "METAR LIPY 220150Z AUTO 19004KT 9999 NCD 03/02 Q1025",
      "taf": "TAF LIPY 212300Z 2200/2224 VRB05KT CAVOK"
    },
    {
      "icao": "LIPZ",
      "alert": "OK",
      "vis_m": 9000,
      "fzfg": false,
      "metar_trigger": false,
      "taf_trigger": false,
      "metar": "METAR LIPZ 220150Z VRB01KT 9000 BCFG NSC 04/04 Q1025 BECMG 4000 BCFG",
      "taf": "TAF LIPZ 212300Z 2200/2306 VRB05KT CAVOK"
    },
    {
      "icao": "LIRF",
      "alert": "OK",
      "vis_m": 9999,
      "fzfg": false,
      "metar_trigger": false,
      "taf_trigger": false,
      "metar": "METAR LIRF 220150Z 08004KT CAVOK 06/04 Q1024 NOSIG",
      "taf": "TAF LIRF 212300Z 2200/2306 01006KT CAVOK"
    },
    {
      "icao": "LIRN",
      "alert": "OK",
      "vis_m": 9999,
      "fzfg": false,
      "metar_trigger": false,
      "taf_trigger": false,
      "metar": "METAR LIRN 220150Z 35003KT 270V020 CAVOK 07/02 Q1024 NOSIG",
      "taf": "TAF LIRN 212300Z 2200/2224 VRB05KT 9999 FEW040"
    },
    {
      "icao": "LIRP",
      "alert": "OK",
      "vis_m": 9999,
      "fzfg": false,
      "metar_trigger": false,
      "taf_trigger": false,
      "metar": "METAR LIRP 220115Z 10005KT 9999 FEW020 06/06 Q1025 NOSIG",
      "taf": "TAF LIRP 212300Z 2200/2224 VRB03KT CAVOK"
    },
    {
      "icao": "LIRZ",
      "alert": "OK",
      "vis_m": 9999,
      "fzfg": false,
      "metar_trigger": false,
      "taf_trigger": false,
      "metar": "METAR LIRZ 220150Z AUTO 01006KT 9999 NCD 03/02 Q1025",
      "taf": "TAF LIRZ 212300Z 2200/2224 VRB05KT 9999 FEW030"
    },
    {
      "icao": "LJLJ",
      "alert": "OK",
      "vis_m": 9999,
      "fzfg": false,
      "metar_trigger": false,
      "taf_trigger": false,
      "metar": "METAR LJLJ 220200Z 22001KT 9999 MIFG FEW003 SCT090 M02/M02 Q1025 NOSIG",
      "taf": "TAF LJLJ 212300Z 2200/2300 VRB02KT 9999 FEW065"
    },
    {
      "icao": "LKMT",
      "alert": "OK",
      "vis_m": 8000,
      "fzfg": false,
      "metar_trigger": false,
      "taf_trigger": false,
      "metar": "METAR LKMT 220200Z 22016KT 8000 NSC 02/01 Q1021 NOSIG",
      "taf": "TAF LKMT 212300Z 2200/2224 23012KT 8000 BKN040"
    },
    {
      "icao": "LKPR",
      "alert": "OK",
      "vis_m": 9999,
      "fzfg": false,
      "metar_trigger": false,
      "taf_trigger": false,
      "metar": "METAR LKPR 220200Z 20012KT 9999 FEW010 BKN025 BKN045 05/04 Q1020 NOSIG",
      "taf": "TAF LKPR 220200Z 2203/2309 23011KT 9999 SCT030"
    },
    {
      "icao": "LLBG",
      "alert": "OK",
      "vis_m": 9999,
      "fzfg": false,
      "metar_trigger": false,
      "taf_trigger": false,
      "metar": "METAR LLBG 220150Z 15006KT 9999 FEW024 13/10 Q1015 NOSIG",
      "taf": "TAF LLBG 212304Z 2200/2224 15005KT 9999 SCT030"
    },
    {
      "icao": "LMML",
      "alert": "OK",
      "vis_m": 9999,
      "fzfg": false,
      "metar_trigger": false,
      "taf_trigger": false,
      "metar": "METAR LMML 220215Z 30012KT 9999 FEW025 11/08 Q1022 NOSIG",
      "taf": "TAF LMML 212300Z 2200/2224 33015KT 9999 FEW018"
    },
    {
      "icao": "LOWW",
      "alert": "OK",
      "vis_m": 9999,
      "fzfg": false,
      "metar_trigger": false,
      "taf_trigger": false,
      "metar": "METAR LOWW 220150Z 25006KT CAVOK 04/02 Q1023 NOSIG",
      "taf": "TAF LOWW 220215Z 2203/2309 19005KT 9999 BKN040 TX11/2309Z TN04/2203Z"
    },
    {
      "icao": "LPFR",
      "alert": "OK",
      "vis_m": 9999,
      "fzfg": false,
      "metar_trigger": false,
      "taf_trigger": false,
      "metar": "METAR LPFR 220200Z 02005KT CAVOK 11/06 Q1027",
      "taf": "TAF LPFR 212300Z 2200/2224 05005KT CAVOK"
    },
    {
      "icao": "LPMA",
      "alert": "OK",
      "vis_m": 9999,
      "fzfg": false,
      "metar_trigger": false,
      "taf_trigger": false,
      "metar": "METAR LPMA 220200Z 36009KT 9999 FEW016 15/10 Q1025",
      "taf": "TAF LPMA 212300Z 2200/2224 02010KT 9999 SCT015"
    },
    {
      "icao": "LPPR",
      "alert": "OK",
      "vis_m": 9999,
      "fzfg": false,
      "metar_trigger": false,
      "taf_trigger": false,
      "metar": "METAR LPPR 220200Z 00000KT CAVOK 06/05 Q1029",
      "taf": "TAF LPPR 212300Z 2200/2224 VRB02KT CAVOK"
    },
    {
      "icao": "LPPS",
      "alert": "OK",
      "vis_m": 9999,
      "fzfg": false,
      "metar_trigger": false,
      "taf_trigger": false,
      "metar": "METAR LPPS 220200Z 07008KT 040V110 9999 SCT015 15/11 Q1025",
      "taf": "TAF LPPS 212300Z 2200/2306 06008KT 9999 SCT015 SCT030"
    },
    {
      "icao": "LPPT",
      "alert": "OK",
      "vis_m": 9999,
      "fzfg": false,
      "metar_trigger": false,
      "taf_trigger": false,
      "metar": "METAR LPPT 220200Z 36003KT CAVOK 11/07 Q1028",
      "taf": "TAF LPPT 212300Z 2200/2306 01007KT CAVOK"
    },
    {
      "icao": "LQBK",
      "alert": "OK",
      "vis_m": 9999,
      "fzfg": false,
      "metar_trigger": false,
      "taf_trigger": false,
      "metar": "METAR LQBK 220200Z VRB03KT CAVOK M01/M01 Q1026 NOSIG",
      "taf": "TAF LQBK 212300Z 2200/2224 VRB03KT CAVOK TX12/2213Z TNM03/2206Z"
    },
    {
      "icao": "LQSA",
      "alert": "OK",
      "vis_m": 8000,
      "fzfg": false,
      "metar_trigger": false,
      "taf_trigger": false,
      "metar": "METAR LQSA 220200Z VRB01KT 8000 -SN FEW007 BKN020 01/01 Q1025",
      "taf": "TAF LQSA 212300Z 2200/2224 33005KT 9999 BKN030 TX09/2214Z TNM01/2204Z"
    },
    {
      "icao": "LQTZ",
      "alert": "OK",
      "vis_m": 2500,
      "fzfg": false,
      "metar_trigger": false,
      "taf_trigger": false,
      "metar": "METAR LQTZ 220200Z VRB01KT 2500 BR BKN022 01/01 Q1026",
      "taf": "TAF LQTZ 212300Z 2200/2224 VRB02KT 9999 BKN030 TX11/2213Z TNM01/2206Z"
    },
    {
      "icao": "LRBC",
      "alert": "OK",
      "vis_m": 8000,
      "fzfg": false,
      "metar_trigger": false,
      "taf_trigger": false,
      "metar": "METAR LRBC 220200Z 27003KT 8000 BKN046 M05/M06 Q1021",
      "taf": "TAF LRBC 212300Z 2200/2209 VRB04KT 9999 BKN025"
    },
    {
      "icao": "LRBS",
      "alert": "OK",
      "vis_m": 3600,
      "fzfg": false,
      "metar_trigger": false,
      "taf_trigger": false,
      "metar": "METAR LRBS 220200Z 24007KT 3600 -SN BR FEW007 SCT049 M02/M03 Q1023 BECMG 5000",
      "taf": "TAF LRBS 212300Z 2200/2224 06010KT 3000 -SN BR BKN015 OVC030"
    },
    {
      "icao": "LRBV",
      "alert": "OK",
      "vis_m": 9999,
      "fzfg": false,
      "metar_trigger": false,
      "taf_trigger": false,
      "metar": "METAR LRBV 220200Z AUTO 31003KT 9999 SG FEW004/// SCT007/// BKN010/// M02/M03 Q1022 REDZ",
      "taf": "TAF LRBV 212000Z 2121/2206 VRB04KT 9999 BKN030"
    },
    {
      "icao": "LRCL",
      "alert": "OK",
      "vis_m": 9999,
      "fzfg": false,
      "metar_trigger": false,
      "taf_trigger": false,
      "metar": "METAR LRCL 220200Z 00000KT 9999 BKN014 BKN020 01/M01 Q1023",
      "taf": "TAF LRCL 212300Z 2200/2209 VRB04KT 9999 OVC025"
    },
    {
      "icao": "LRCV",
      "alert": "OK",
      "vis_m": 5000,
      "fzfg": false,
      "metar_trigger": false,
      "taf_trigger": false,
      "metar": "METAR LRCV 220200Z 26005KT 5000 -SN FEW008 BKN045 M02/M03 Q1023",
      "taf": "TAF LRCV 212300Z 2200/2209 VRB04KT 9999 OVC025"
    },
    {
      "icao": "LRIA",
      "alert": "OK",
      "vis_m": 9999,
      "fzfg": false,
      "metar_trigger": false,
      "taf_trigger": false,
      "metar": "METAR LRIA 220200Z 09004KT CAVOK M02/M04 Q1022",
      "taf": "TAF LRIA 212300Z 2200/2209 11005KT 9999 BKN040"
    },
    {
      "icao": "LROP",
      "alert": "OK",
      "vis_m": 4000,
      "fzfg": false,
      "metar_trigger": false,
      "taf_trigger": false,
      "metar": "METAR LROP 220200Z 26006KT 4000 -SN BR FEW007 BKN022 M02/M02 Q1022 NOSIG",
      "taf": "TAF LROP 212300Z 2200/2224 06010KT 3000 -SN BR BKN015 OVC030"
    },
    {
      "icao": "LRSB",
      "alert": "OK",
      "vis_m": 1500,
      "fzfg": false,
      "metar_trigger": false,
      "taf_trigger": false,
      "metar": "METAR LRSB 220200Z 00000KT 1500 -SN BR SCT017 BKN026 OVC030 M00/M00 Q1022",
      "taf": "TAF LRSB 212300Z 2200/2224 VRB04KT 3000 -SN BR BKN010 OVC030"
    },
    {
      "icao": "LRSM",
      "alert": "OK",
      "vis_m": 6000,
      "fzfg": false,
      "metar_trigger": false,
      "taf_trigger": false,
      "metar": "METAR LRSM 220200Z AUTO 18003KT 6000 FEW010/// SCT025/// BKN055/// 02/01 Q1024",
      "taf": ""
    },
    {
      "icao": "LRSV",
      "alert": "OK",
      "vis_m": 5000,
      "fzfg": false,
      "metar_trigger": false,
      "taf_trigger": false,
      "metar": "METAR LRSV 220200Z VRB02KT 5000 -SN BKN010 OVC022 M03/M04 Q1020",
      "taf": "TAF LRSV 212300Z 2200/2209 VRB04KT 9999 BKN040"
    },
    {
      "icao": "LRTM",
      "alert": "OK",
      "vis_m": 3200,
      "fzfg": false,
      "metar_trigger": false,
      "taf_trigger": false,
      "metar": "METAR LRTM 220200Z AUTO 23002KT 3200 -SN BR FEW012/// BKN020/// M00/M01 Q1023",
      "taf": ""
    },
    {
      "icao": "LRTR",
      "alert": "OK",
      "vis_m": 3800,
      "fzfg": false,
      "metar_trigger": false,
      "taf_trigger": false,
      "metar": "METAR LRTR 220200Z 20002KT 3800 BR BKN022 OVC030 02/02 Q1024",
      "taf": "TAF LRTR 212300Z 2200/2224 VRB04KT 3000 BR BKN005 OVC010"
    },
    {
      "icao": "LTAC",
      "alert": "OK",
      "vis_m": 9999,
      "fzfg": false,
      "metar_trigger": false,
      "taf_trigger": false,
      "metar": "METAR LTAC 220150Z 09004KT 9999 -SHRA FEW013 BKN025 BKN080 04/03 Q1010 NOSIG RMK RWY21C 13002KT RWY03L 10004KT RWY21R 12003KT RWY03R 07003KT RWY21L 12003KT 090V150",
      "taf": "TAF LTAC 212240Z 2200/2224 VRB02KT 9999 SCT040 BKN100"
    },
    {
      "icao": "LTFM",
      "alert": "OK",
      "vis_m": 2300,
      "fzfg": false,
      "metar_trigger": false,
      "taf_trigger": false,
      "metar": "METAR LTFM 220150Z 35028KT 2300 1100NE R35R/P1500N R17L/P1500N R34L/P1500N R36/1200U -SHRA BR BKN003 BKN018 04/04 Q1016 NOSIG RMK RWY17L 35028KT RWY34L 34027KT RWY16R 34022KT RWY36 35028KT RWY18 35029KT",
      "taf": "TAF LTFM 212240Z 2200/2306 01018KT 7000 -SHRA BKN006 BKN020"
    },
    {
      "icao": "LUKK",
      "alert": "OK",
      "vis_m": 9999,
      "fzfg": false,
      "metar_trigger": false,
      "taf_trigger": false,
      "metar": "METAR LUKK 220200Z 36005KT CAVOK M04/M06 Q1022 NOSIG",
      "taf": "TAF LUKK 212319Z 2200/2224 35008KT CAVOK"
    },
    {
      "icao": "LWOH",
      "alert": "OK",
      "vis_m": null,
      "fzfg": false,
      "metar_trigger": false,
      "taf_trigger": false,
      "metar": "",
      "taf": "TAF LWOH 220210Z 2203/2303 36012KT 9999 BKN050"
    },
    {
      "icao": "LWSK",
      "alert": "OK",
      "vis_m": 9999,
      "fzfg": false,
      "metar_trigger": false,
      "taf_trigger": false,
      "metar": "METAR LWSK 220220Z 02008KT 9999 BKN031 02/M02 Q1023 NOSIG",
      "taf": "TAF LWSK 220210Z 2203/2303 01010KT 9999 BKN030"
    },
    {
      "icao": "LYBE",
      "alert": "OK",
      "vis_m": 7000,
      "fzfg": false,
      "metar_trigger": false,
      "taf_trigger": false,
      "metar": "METAR LYBE 220200Z 26007KT 7000 BKN004 BKN023 02/01 Q1026 NOSIG",
      "taf": "TAF LYBE 212300Z 2200/2224 28008KT 9999 BKN014 BKN027 TX09/2213Z TN00/2204Z"
    },
    {
      "icao": "LYNI",
      "alert": "OK",
      "vis_m": 7000,
      "fzfg": false,
      "metar_trigger": false,
      "taf_trigger": false,
      "metar": "METAR LYNI 220200Z 30004KT 250V330 7000 -SN BKN005 OVC070 00/00 Q1024 RESN NOSIG",
      "taf": "TAF LYNI 212300Z 2200/2224 35006KT 8000 SCT014 BKN040 TX05/2212Z TN00/2205Z"
    },
    {
      "icao": "LYPG",
      "alert": "OK",
      "vis_m": 9999,
      "fzfg": false,
      "metar_trigger": false,
      "taf_trigger": false,
      "metar": "METAR LYPG 220200Z 34009KT 320V020 9999 SCT080 09/M01 Q1020 NOSIG",
      "taf": "TAF LYPG 212300Z 2200/2224 34012KT CAVOK TX16/2213Z TN07/2205Z"
    },
    {
      "icao": "LZIB",
      "alert": "OK",
      "vis_m": 200,
      "fzfg": true,
      "metar_trigger": false,
      "taf_trigger": false,
      "metar": "METAR LZIB 220200Z 35003KT 0200 R31/0250N R22/0275N FZFG VV002 M03/M03 Q1024 TEMPO 0700 FZFG BKN002",
      "taf": ""
    },
    {
      "icao": "LZKZ",
      "alert": "OK",
      "vis_m": 9999,
      "fzfg": false,
      "metar_trigger": false,
      "taf_trigger": false,
      "metar": "METAR LZKZ 220200Z 21001KT 9999 BCFG NSC M02/M03 Q1022 NOSIG",
      "taf": "TAF LZKZ 212315Z 2200/2300 VRB02KT 9999 BKN035"
    },
    {
      "icao": "LZTT",
      "alert": "OK",
      "vis_m": 9999,
      "fzfg": false,
      "metar_trigger": false,
      "taf_trigger": false,
      "metar": "METAR LZTT 220200Z 26005KT 220V310 9999 FEW010 00/M01 Q1019",
      "taf": ""
    },
    {
      "icao": "OEJN",
      "alert": "OK",
      "vis_m": 9999,
      "fzfg": false,
      "metar_trigger": false,
      "taf_trigger": false,
      "metar": "METAR OEJN 220200Z 00000KT CAVOK 24/18 Q1009 NOSIG",
      "taf": "TAF OEJN 212300Z 2200/2306 VRB03KT 7000 NSC"
    },
    {
      "icao": "OEMA",
      "alert": "OK",
      "vis_m": 9999,
      "fzfg": false,
      "metar_trigger": false,
      "taf_trigger": false,
      "metar": "METAR OEMA 220200Z VRB01KT CAVOK 19/M09 Q1015 NOSIG",
      "taf": "TAF OEMA 212300Z 2200/2306 11005KT 7000 NSC"
    },
    {
      "icao": "OJAI",
      "alert": "OK",
      "vis_m": 5000,
      "fzfg": false,
      "metar_trigger": false,
      "taf_trigger": false,
      "metar": "METAR OJAI 220200Z 20004KT 5000 BR NSC 08/06 Q1016 NOSIG",
      "taf": "TAF OJAI 212219Z 2200/2306 29012KT 5000 HZ FEW030"
    },
    {
      "icao": "OMAA",
      "alert": "OK",
      "vis_m": 7000,
      "fzfg": false,
      "metar_trigger": false,
      "taf_trigger": false,
      "metar": "METAR OMAA 220200Z 12002KT 7000 NSC 19/16 Q1012 NOSIG",
      "taf": "TAF OMAA 212300Z 2200/2306 VRB02KT 8000 NSC"
    },
    {
      "icao": "OMDB",
      "alert": "OK",
      "vis_m": 7000,
      "fzfg": false,
      "metar_trigger": false,
      "taf_trigger": false,
      "metar": "METAR OMDB 220200Z 21005KT 7000 NSC 20/15 Q1011 NOSIG",
      "taf": "TAF OMDB 212300Z 2200/2306 18005KT 8000 NSC"
    },
    {
      "icao": "UAAA",
      "alert": "OK",
      "vis_m": 250,
      "fzfg": true,
      "metar_trigger": false,
      "taf_trigger": false,
      "metar": "METAR UAAA 220200Z 00000MPS 0250 R23L/0350N FZFG VV001 M03/M04 Q1022 NOSIG RMK QBB040",
      "taf": ""
    },
    {
      "icao": "UBBB",
      "alert": "OK",
      "vis_m": 9999,
      "fzfg": false,
      "metar_trigger": false,
      "taf_trigger": false,
      "metar": "METAR UBBB 220200Z 33018KT 9999 BKN007 07/06 Q1019 NOSIG",
      "taf": "TAF UBBB 212302Z 2200/2224 32018G28KT 9999 SCT012 BKN025 TX08/2210Z TN04/2201Z"
    },
    {
      "icao": "UDSG",
      "alert": "OK",
      "vis_m": 8000,
      "fzfg": false,
      "metar_trigger": false,
      "taf_trigger": false,
      "metar": "METAR UDSG 220200Z 13002KT 8000 NSC M05/M06 Q1019 NOSIG",
      "taf": "TAF UDSG 212300Z 2200/2224 VRB06KT 9999 FEW040"
    },
    {
      "icao": "UDYZ",
      "alert": "OK",
      "vis_m": 4200,
      "fzfg": false,
      "metar_trigger": false,
      "taf_trigger": false,
      "metar": "METAR UDYZ 220200Z 01002KT 4200 BR NSC M01/M03 Q1018 NOSIG",
      "taf": "TAF UDYZ 212300Z 2200/2224 VRB04KT 6000 FEW040"
    },
    {
      "icao": "UGKO",
      "alert": "OK",
      "vis_m": 9999,
      "fzfg": false,
      "metar_trigger": false,
      "taf_trigger": false,
      "metar": "METAR UGKO 220200Z 11004KT 080V140 CAVOK 06/03 Q1012 NOSIG",
      "taf": "TAF UGKO 212300Z 2200/2224 08017KT CAVOK TX18/2212Z TN07/2200Z"
    }
  ]
}