{
  "ts_utc": "2026-06-24T04:21:35Z",
  "threshold_m": 150,
  "source": "stations_override.txt (ICAO list) + aviationweather.gov (METAR/TAF raw)",
  "station_count": 159,
  "stations": [
    {
      "icao": "BIKF",
      "alert": "OK",
      "vis_m": 9999,
      "fzfg": false,
      "metar_trigger": false,
      "taf_trigger": false,
      "metar": "METAR BIKF 240400Z 02004KT 9999 SCT009 BKN028 BKN087 10/09 Q1001",
      "taf": "TAF BIKF 240111Z 2403/2503 01007KT 9999 -RA BKN020 TX13/2415Z TN09/2403Z"
    },
    {
      "icao": "BKPR",
      "alert": "OK",
      "vis_m": 9999,
      "fzfg": false,
      "metar_trigger": false,
      "taf_trigger": false,
      "metar": "METAR BKPR 240400Z VRB01KT 9999 SCT050 17/16 Q1019 NOSIG",
      "taf": "TAF BKPR 232330Z 2400/2424 34008KT 9999 FEW050"
    },
    {
      "icao": "EBCI",
      "alert": "OK",
      "vis_m": 9999,
      "fzfg": false,
      "metar_trigger": false,
      "taf_trigger": false,
      "metar": "METAR EBCI 240350Z 15003KT CAVOK 22/17 Q1018 NOSIG",
      "taf": "TAF EBCI 232314Z 2400/2506 VRB04KT CAVOK"
    },
    {
      "icao": "EDDB",
      "alert": "OK",
      "vis_m": 9999,
      "fzfg": false,
      "metar_trigger": false,
      "taf_trigger": false,
      "metar": "METAR EDDB 240350Z AUTO 06003KT CAVOK 16/12 Q1019 NOSIG",
      "taf": "TAF EDDB 232300Z 2400/2424 VRB03KT CAVOK"
    },
    {
      "icao": "EDDH",
      "alert": "OK",
      "vis_m": 9999,
      "fzfg": false,
      "metar_trigger": false,
      "taf_trigger": false,
      "metar": "METAR EDDH 240350Z AUTO 08004KT CAVOK 15/11 Q1019 NOSIG",
      "taf": "TAF EDDH 232300Z 2400/2506 VRB03KT CAVOK"
    },
    {
      "icao": "EDDK",
      "alert": "OK",
      "vis_m": 9999,
      "fzfg": false,
      "metar_trigger": false,
      "taf_trigger": false,
      "metar": "METAR EDDK 240350Z AUTO 12003KT 030V160 CAVOK 17/16 Q1019 NOSIG",
      "taf": "TAF EDDK 232300Z 2400/2506 11003KT CAVOK"
    },
    {
      "icao": "EDDN",
      "alert": "OK",
      "vis_m": 8000,
      "fzfg": false,
      "metar_trigger": false,
      "taf_trigger": false,
      "metar": "METAR EDDN 240350Z AUTO 35002KT 8000 NCD 17/16 Q1019",
      "taf": "TAF EDDN 232300Z 2400/2424 VRB02KT CAVOK"
    },
    {
      "icao": "EDDS",
      "alert": "OK",
      "vis_m": 9999,
      "fzfg": false,
      "metar_trigger": false,
      "taf_trigger": false,
      "metar": "METAR EDDS 240350Z AUTO 36001KT CAVOK 19/16 Q1020",
      "taf": "TAF EDDS 232300Z 2400/2424 VRB03KT CAVOK"
    },
    {
      "icao": "EDFH",
      "alert": "OK",
      "vis_m": 9999,
      "fzfg": false,
      "metar_trigger": false,
      "taf_trigger": false,
      "metar": "METAR EDFH 240350Z 11003KT CAVOK 20/15 Q1021",
      "taf": "TAF EDFH 232300Z 2400/2424 12004KT CAVOK"
    },
    {
      "icao": "EDJA",
      "alert": "OK",
      "vis_m": 9999,
      "fzfg": false,
      "metar_trigger": false,
      "taf_trigger": false,
      "metar": "METAR EDJA 240350Z 00000KT CAVOK 16/15 Q1021",
      "taf": "TAF EDJA 240200Z 2403/2412 VRB02KT CAVOK"
    },
    {
      "icao": "EDLW",
      "alert": "OK",
      "vis_m": 9999,
      "fzfg": false,
      "metar_trigger": false,
      "taf_trigger": false,
      "metar": "METAR EDLW 240350Z 15006KT CAVOK 19/17 Q1019",
      "taf": "TAF EDLW 240320Z 2404/2424 14006KT CAVOK"
    },
    {
      "icao": "EDNY",
      "alert": "OK",
      "vis_m": 9999,
      "fzfg": false,
      "metar_trigger": false,
      "taf_trigger": false,
      "metar": "METAR EDNY 240350Z 03004KT 350V070 CAVOK 19/17 Q1020",
      "taf": "TAF EDNY 240200Z 2403/2412 VRB02KT CAVOK"
    },
    {
      "icao": "EDSB",
      "alert": "OK",
      "vis_m": 9999,
      "fzfg": false,
      "metar_trigger": false,
      "taf_trigger": false,
      "metar": "METAR EDSB 240350Z 03007KT CAVOK 21/19 Q1018",
      "taf": "TAF EDSB 232300Z 2400/2424 VRB03KT CAVOK"
    },
    {
      "icao": "EETN",
      "alert": "OK",
      "vis_m": 9999,
      "fzfg": false,
      "metar_trigger": false,
      "taf_trigger": false,
      "metar": "METAR EETN 240420Z 18006KT 9999 -RA NSC 13/12 Q1014 TEMPO 5000 RA",
      "taf": "TAF EETN 232330Z 2400/2424 19007KT 9999 SCT045"
    },
    {
      "icao": "EFTU",
      "alert": "OK",
      "vis_m": 9999,
      "fzfg": false,
      "metar_trigger": false,
      "taf_trigger": false,
      "metar": "METAR EFTU 240350Z AUTO VRB01KT 9999 FEW006 14/14 Q1012",
      "taf": ""
    },
    {
      "icao": "EGBB",
      "alert": "OK",
      "vis_m": 9999,
      "fzfg": false,
      "metar_trigger": false,
      "taf_trigger": false,
      "metar": "METAR EGBB 240350Z 31005KT 9999 SCT034 21/18 Q1018",
      "taf": ""
    },
    {
      "icao": "EGGP",
      "alert": "OK",
      "vis_m": 7000,
      "fzfg": false,
      "metar_trigger": false,
      "taf_trigger": false,
      "metar": "METAR EGGP 240350Z AUTO VRB01KT 7000 NCD 17/16 Q1019",
      "taf": ""
    },
    {
      "icao": "EGGW",
      "alert": "OK",
      "vis_m": 9999,
      "fzfg": false,
      "metar_trigger": false,
      "taf_trigger": false,
      "metar": "METAR EGGW 240350Z AUTO 31004KT 9999 NCD 21/19 Q1017",
      "taf": "TAF EGGW 232253Z 2400/2424 13002KT CAVOK"
    },
    {
      "icao": "EGKK",
      "alert": "OK",
      "vis_m": 9999,
      "fzfg": false,
      "metar_trigger": false,
      "taf_trigger": false,
      "metar": "METAR EGKK 240350Z 22001KT CAVOK 21/20 Q1016",
      "taf": "TAF EGKK 232300Z 2400/2506 02003KT CAVOK"
    },
    {
      "icao": "EGNM",
      "alert": "OK",
      "vis_m": 9999,
      "fzfg": false,
      "metar_trigger": false,
      "taf_trigger": false,
      "metar": "METAR EGNM 240350Z 29007KT CAVOK 18/17 Q1019",
      "taf": "TAF EGNM 232254Z 2400/2424 31005KT 9999 FEW040"
    },
    {
      "icao": "EGPD",
      "alert": "OK",
      "vis_m": 9999,
      "fzfg": false,
      "metar_trigger": false,
      "taf_trigger": false,
      "metar": "METAR EGPD 240350Z AUTO VRB02KT 9999 BKN031 13/12 Q1017",
      "taf": "TAF EGPD 232255Z 2400/2424 VRB03KT 9999 FEW030"
    },
    {
      "icao": "EGPF",
      "alert": "OK",
      "vis_m": 9999,
      "fzfg": false,
      "metar_trigger": false,
      "taf_trigger": false,
      "metar": "METAR EGPF 240350Z AUTO 27004KT 9999 OVC017 15/14 Q1019",
      "taf": "TAF EGPF 232258Z 2400/2424 31005KT 9999 BKN020"
    },
    {
      "icao": "EHBK",
      "alert": "OK",
      "vis_m": 9999,
      "fzfg": false,
      "metar_trigger": false,
      "taf_trigger": false,
      "metar": "METAR EHBK 240355Z AUTO 16002KT 9999 NCD 20/16 Q1018 NOSIG",
      "taf": "TAF EHBK 232314Z 2400/2506 09003KT CAVOK"
    },
    {
      "icao": "EHEH",
      "alert": "OK",
      "vis_m": 9999,
      "fzfg": false,
      "metar_trigger": false,
      "taf_trigger": false,
      "metar": "METAR EHEH 240355Z AUTO VRB01KT 9999 NCD 19/17 Q1018 BLU",
      "taf": "TAF EHEH 232309Z 2400/2506 09003KT CAVOK"
    },
    {
      "icao": "EKBI",
      "alert": "OK",
      "vis_m": 9999,
      "fzfg": false,
      "metar_trigger": false,
      "taf_trigger": false,
      "metar": "METAR EKBI 240350Z AUTO 13001KT 9999 FEW092/// SCT210/// 13/13 Q1019",
      "taf": "TAF EKBI 240227Z 2403/2503 VRB03KT CAVOK"
    },
    {
      "icao": "EKCH",
      "alert": "OK",
      "vis_m": 9999,
      "fzfg": false,
      "metar_trigger": false,
      "taf_trigger": false,
      "metar": "METAR EKCH 240350Z AUTO 25003KT 9999 OVC120/// 16/13 Q1020 NOSIG",
      "taf": "TAF EKCH 240227Z 2403/2503 VRB02KT CAVOK"
    },
    {
      "icao": "ENAL",
      "alert": "OK",
      "vis_m": 9999,
      "fzfg": false,
      "metar_trigger": false,
      "taf_trigger": false,
      "metar": "METAR ENAL 240350Z 16005KT 9999 -RA FEW007 BKN026 12/12 Q1012",
      "taf": "TAF ENAL 240200Z 2403/2412 14005KT 9999 -RA FEW015 BKN025"
    },
    {
      "icao": "ENBR",
      "alert": "OK",
      "vis_m": 9999,
      "fzfg": false,
      "metar_trigger": false,
      "taf_trigger": false,
      "metar": "METAR ENBR 240350Z 15010KT 9999 BKN013 13/10 Q1015 RMK WIND 1200FT 16020KT",
      "taf": "TAF ENBR 232300Z 2400/2424 15012KT 9999 FEW008 BKN014"
    },
    {
      "icao": "ENGM",
      "alert": "OK",
      "vis_m": 9999,
      "fzfg": false,
      "metar_trigger": false,
      "taf_trigger": false,
      "metar": "METAR ENGM 240350Z VRB01KT 9999 VCFG FEW004 13/12 Q1013 NOSIG",
      "taf": "TAF ENGM 232300Z 2400/2424 VRB03KT CAVOK"
    },
    {
      "icao": "ENHD",
      "alert": "OK",
      "vis_m": 9999,
      "fzfg": false,
      "metar_trigger": false,
      "taf_trigger": false,
      "metar": "METAR ENHD 240350Z 16005KT 9999 BKN010 14/12 Q1016",
      "taf": "TAF ENHD 240200Z 2403/2412 16010KT 9999 BKN012"
    },
    {
      "icao": "ENTC",
      "alert": "OK",
      "vis_m": 9999,
      "fzfg": false,
      "metar_trigger": false,
      "taf_trigger": false,
      "metar": "METAR ENTC 240350Z 02003KT 9999 FEW025 BKN053 09/06 Q1014 RMK WIND 2600FT VRB02KT",
      "taf": ""
    },
    {
      "icao": "ENTO",
      "alert": "OK",
      "vis_m": 9999,
      "fzfg": false,
      "metar_trigger": false,
      "taf_trigger": false,
      "metar": "METAR ENTO 240350Z 19005KT CAVOK 15/09 Q1014",
      "taf": "TAF ENTO 232300Z 2400/2424 23008KT CAVOK"
    },
    {
      "icao": "ENVA",
      "alert": "OK",
      "vis_m": 9999,
      "fzfg": false,
      "metar_trigger": false,
      "taf_trigger": false,
      "metar": "METAR ENVA 240350Z 12003KT 9999 -DZ FEW003 BKN035 11/11 Q1013 RMK WIND 670FT 12003KT",
      "taf": "TAF ENVA 232300Z 2400/2424 VRB05KT 9999 -RA FEW020 BKN040"
    },
    {
      "icao": "ENZV",
      "alert": "OK",
      "vis_m": 9999,
      "fzfg": false,
      "metar_trigger": false,
      "taf_trigger": false,
      "metar": "METAR ENZV 240350Z 16005KT 9999 OVC014 15/12 Q1016",
      "taf": "TAF ENZV 232300Z 2400/2424 17010KT 9999 BKN045"
    },
    {
      "icao": "EPGD",
      "alert": "OK",
      "vis_m": 9999,
      "fzfg": false,
      "metar_trigger": false,
      "taf_trigger": false,
      "metar": "METAR EPGD 240400Z 24005KT 220V280 CAVOK 13/12 Q1019",
      "taf": ""
    },
    {
      "icao": "EPKK",
      "alert": "OK",
      "vis_m": 9999,
      "fzfg": false,
      "metar_trigger": false,
      "taf_trigger": false,
      "metar": "METAR EPKK 240400Z 24002KT CAVOK 15/13 Q1020",
      "taf": "TAF EPKK 240230Z 2403/2503 VRB02KT CAVOK"
    },
    {
      "icao": "EPKT",
      "alert": "OK",
      "vis_m": 9999,
      "fzfg": false,
      "metar_trigger": false,
      "taf_trigger": false,
      "metar": "METAR EPKT 240400Z 34001KT CAVOK 13/11 Q1020",
      "taf": "TAF EPKT 232330Z 2400/2424 VRB02KT CAVOK"
    },
    {
      "icao": "EPLB",
      "alert": "OK",
      "vis_m": 9999,
      "fzfg": false,
      "metar_trigger": false,
      "taf_trigger": false,
      "metar": "METAR EPLB 240400Z 28003KT CAVOK 16/12 Q1019",
      "taf": "TAF EPLB 232330Z 2400/2424 31005KT CAVOK"
    },
    {
      "icao": "EPMO",
      "alert": "OK",
      "vis_m": 9999,
      "fzfg": false,
      "metar_trigger": false,
      "taf_trigger": false,
      "metar": "METAR EPMO 240400Z VRB02KT CAVOK 16/13 Q1019",
      "taf": "TAF EPMO 232330Z 2400/2424 VRB02KT CAVOK"
    },
    {
      "icao": "EPPO",
      "alert": "OK",
      "vis_m": 9999,
      "fzfg": false,
      "metar_trigger": false,
      "taf_trigger": false,
      "metar": "METAR EPPO 240400Z VRB01KT CAVOK 14/11 Q1020",
      "taf": "TAF EPPO 232330Z 2400/2424 VRB02KT CAVOK"
    },
    {
      "icao": "EPRA",
      "alert": "OK",
      "vis_m": 9999,
      "fzfg": false,
      "metar_trigger": false,
      "taf_trigger": false,
      "metar": "METAR EPRA 240400Z 27004KT CAVOK 16/09 Q1020",
      "taf": "TAF EPRA 240230Z 2403/2412 27008KT CAVOK"
    },
    {
      "icao": "EPRZ",
      "alert": "OK",
      "vis_m": 9999,
      "fzfg": false,
      "metar_trigger": false,
      "taf_trigger": false,
      "metar": "METAR EPRZ 240400Z 26005KT CAVOK 15/12 Q1019",
      "taf": "TAF EPRZ 232330Z 2400/2424 VRB02KT CAVOK"
    },
    {
      "icao": "EPSC",
      "alert": "OK",
      "vis_m": 9999,
      "fzfg": false,
      "metar_trigger": false,
      "taf_trigger": false,
      "metar": "METAR EPSC 240400Z 03002KT CAVOK 13/11 Q1020",
      "taf": "TAF EPSC 232330Z 2400/2424 VRB02KT CAVOK"
    },
    {
      "icao": "EPSY",
      "alert": "OK",
      "vis_m": 9999,
      "fzfg": false,
      "metar_trigger": false,
      "taf_trigger": false,
      "metar": "METAR EPSY 240400Z 00000KT CAVOK 12/11 Q1019",
      "taf": "TAF EPSY 240230Z 2403/2412 VRB02KT CAVOK"
    },
    {
      "icao": "EPWA",
      "alert": "OK",
      "vis_m": 9999,
      "fzfg": false,
      "metar_trigger": false,
      "taf_trigger": false,
      "metar": "METAR EPWA 240400Z 28003KT 260V320 CAVOK 15/12 Q1019 NOSIG",
      "taf": "TAF EPWA 240230Z 2403/2503 VRB03KT CAVOK"
    },
    {
      "icao": "EPWR",
      "alert": "OK",
      "vis_m": 9999,
      "fzfg": false,
      "metar_trigger": false,
      "taf_trigger": false,
      "metar": "METAR EPWR 240400Z VRB01KT CAVOK 13/12 Q1020",
      "taf": "TAF EPWR 240230Z 2403/2503 VRB02KT CAVOK"
    },
    {
      "icao": "ESGG",
      "alert": "OK",
      "vis_m": 9999,
      "fzfg": false,
      "metar_trigger": false,
      "taf_trigger": false,
      "metar": "METAR ESGG 240350Z 24004KT CAVOK 14/10 Q1017",
      "taf": "TAF ESGG 240230Z 2403/2503 25006KT CAVOK"
    },
    {
      "icao": "ESKN",
      "alert": "OK",
      "vis_m": 9999,
      "fzfg": false,
      "metar_trigger": false,
      "taf_trigger": false,
      "metar": "METAR ESKN 240350Z 24007KT CAVOK 16/12 Q1014",
      "taf": "TAF ESKN 240230Z 2403/2503 25007KT CAVOK"
    },
    {
      "icao": "ESMS",
      "alert": "OK",
      "vis_m": 9999,
      "fzfg": false,
      "metar_trigger": false,
      "taf_trigger": false,
      "metar": "METAR ESMS 240350Z 00000KT CAVOK 11/11 Q1019",
      "taf": "TAF ESMS 240227Z 2403/2503 VRB02KT CAVOK"
    },
    {
      "icao": "ESSA",
      "alert": "OK",
      "vis_m": 9999,
      "fzfg": false,
      "metar_trigger": false,
      "taf_trigger": false,
      "metar": "METAR ESSA 240350Z 25003KT CAVOK 13/12 Q1013 NOSIG",
      "taf": "TAF ESSA 240230Z 2403/2503 VRB03KT CAVOK"
    },
    {
      "icao": "EYKA",
      "alert": "OK",
      "vis_m": 9999,
      "fzfg": false,
      "metar_trigger": false,
      "taf_trigger": false,
      "metar": "METAR EYKA 240420Z VRB01KT CAVOK 14/09 Q1019",
      "taf": "TAF EYKA 232300Z 2400/2424 VRB03KT CAVOK"
    },
    {
      "icao": "EYPA",
      "alert": "OK",
      "vis_m": 9999,
      "fzfg": false,
      "metar_trigger": false,
      "taf_trigger": false,
      "metar": "METAR EYPA 240420Z 17004KT CAVOK 16/14 Q1018",
      "taf": "TAF EYPA 232300Z 2400/2424 VRB03KT 9000 NSC"
    },
    {
      "icao": "EYVI",
      "alert": "OK",
      "vis_m": 9999,
      "fzfg": false,
      "metar_trigger": false,
      "taf_trigger": false,
      "metar": "METAR EYVI 240420Z 04003KT 360V090 CAVOK 16/10 Q1019 NOSIG",
      "taf": "TAF EYVI 232300Z 2400/2424 VRB03KT CAVOK"
    },
    {
      "icao": "GCFV",
      "alert": "OK",
      "vis_m": 9999,
      "fzfg": false,
      "metar_trigger": false,
      "taf_trigger": false,
      "metar": "METAR GCFV 240400Z AUTO 35004KT 9999 FEW028 20/16 Q1016",
      "taf": "TAF GCFV 240200Z 2403/2503 36008KT 9999 BKN018 TX25/2414Z TN20/2406Z"
    },
    {
      "icao": "GCLP",
      "alert": "OK",
      "vis_m": 9999,
      "fzfg": false,
      "metar_trigger": false,
      "taf_trigger": false,
      "metar": "METAR GCLP 240400Z 01013KT 9999 FEW020 21/17 Q1016 NOSIG",
      "taf": "TAF GCLP 240200Z 2403/2503 01012KT 9999 BKN025 TX25/2414Z TN20/2406Z"
    },
    {
      "icao": "GCTS",
      "alert": "OK",
      "vis_m": 9999,
      "fzfg": false,
      "metar_trigger": false,
      "taf_trigger": false,
      "metar": "METAR GCTS 240400Z 09007KT 9999 SCT030 22/17 Q1016 NOSIG",
      "taf": "TAF GCTS 240200Z 2403/2503 03008KT 9999 BKN025 TX26/2414Z TN19/2406Z"
    },
    {
      "icao": "GMAD",
      "alert": "OK",
      "vis_m": 8000,
      "fzfg": false,
      "metar_trigger": false,
      "taf_trigger": false,
      "metar": "METAR GMAD 240400Z 10003KT 8000 FEW020 17/16 Q1014 NOSIG",
      "taf": "TAF GMAD 232300Z 2400/2506 06008KT 8000 SCT010"
    },
    {
      "icao": "GMMN",
      "alert": "OK",
      "vis_m": 9999,
      "fzfg": false,
      "metar_trigger": false,
      "taf_trigger": false,
      "metar": "METAR GMMN 240400Z 06004KT 9999 BKN013 20/17 Q1014 NOSIG",
      "taf": "TAF GMMN 232300Z 2400/2506 36003KT 9999 BKN013"
    },
    {
      "icao": "GMMX",
      "alert": "OK",
      "vis_m": 9999,
      "fzfg": false,
      "metar_trigger": false,
      "taf_trigger": false,
      "metar": "METAR GMMX 240400Z 25004KT CAVOK 18/15 Q1015 NOSIG",
      "taf": "TAF GMMX 232300Z 2400/2506 24006KT 8000 NSC"
    },
    {
      "icao": "HEGN",
      "alert": "OK",
      "vis_m": 9999,
      "fzfg": false,
      "metar_trigger": false,
      "taf_trigger": false,
      "metar": "METAR HEGN 240400Z 31010KT CAVOK 26/12 Q1009 NOSIG",
      "taf": "TAF HEGN 232300Z 2400/2506 29008G20KT CAVOK"
    },
    {
      "icao": "HEMA",
      "alert": "OK",
      "vis_m": 9999,
      "fzfg": false,
      "metar_trigger": false,
      "taf_trigger": false,
      "metar": "METAR HEMA 240400Z 32016KT CAVOK 30/06 Q1008 NOSIG",
      "taf": "TAF HEMA 232300Z 2400/2506 30008G20KT CAVOK"
    },
    {
      "icao": "HESH",
      "alert": "OK",
      "vis_m": 9999,
      "fzfg": false,
      "metar_trigger": false,
      "taf_trigger": false,
      "metar": "METAR HESH 240400Z 36011KT CAVOK 29/15 Q1008 NOSIG",
      "taf": "TAF HESH 232300Z 2400/2506 32012KT CAVOK"
    },
    {
      "icao": "HESX",
      "alert": "OK",
      "vis_m": 9999,
      "fzfg": false,
      "metar_trigger": false,
      "taf_trigger": false,
      "metar": "METAR HESX 240400Z 26003KT CAVOK 21/16 Q1011 NOSIG",
      "taf": "TAF HESX 232300Z 2400/2506 32009KT CAVOK"
    },
    {
      "icao": "LATI",
      "alert": "OK",
      "vis_m": 9999,
      "fzfg": false,
      "metar_trigger": false,
      "taf_trigger": false,
      "metar": "METAR LATI 240420Z 15003KT 100V200 CAVOK 22/17 Q1014 NOSIG",
      "taf": "TAF LATI 232300Z 2400/2424 VRB03KT CAVOK TX34/2412Z TN20/2404Z"
    },
    {
      "icao": "LBPD",
      "alert": "OK",
      "vis_m": 9999,
      "fzfg": false,
      "metar_trigger": false,
      "taf_trigger": false,
      "metar": "METAR LBPD 240400Z AUTO 32009KT 9999 SCT074/// SCT087/// OVC110/// 21/17 Q1016 NOSIG",
      "taf": "TAF LBPD 232300Z 2400/2424 VRB04KT 9999 SCT070"
    },
    {
      "icao": "LBSF",
      "alert": "OK",
      "vis_m": 7000,
      "fzfg": false,
      "metar_trigger": false,
      "taf_trigger": false,
      "metar": "METAR LBSF 240400Z 28004KT 7000 FEW007 SCT013 BKN066 16/15 Q1018 TEMPO 5000 BR BKN002",
      "taf": "TAF LBSF 232300Z 2400/2424 VRB04KT 9999 SCT060"
    },
    {
      "icao": "LBWN",
      "alert": "OK",
      "vis_m": 6000,
      "fzfg": false,
      "metar_trigger": false,
      "taf_trigger": false,
      "metar": "METAR LBWN 240400Z AUTO VRB02KT 6000 NSC 16/13 Q1015 TEMPO 3000 BR",
      "taf": "TAF LBWN 232300Z 2400/2424 VRB03KT CAVOK"
    },
    {
      "icao": "LCLK",
      "alert": "OK",
      "vis_m": 9999,
      "fzfg": false,
      "metar_trigger": false,
      "taf_trigger": false,
      "metar": "METAR LCLK 240400Z 24004KT CAVOK 28/21 Q1007 NOSIG",
      "taf": "TAF LCLK 232330Z 2400/2500 28007KT 9999 FEW025"
    },
    {
      "icao": "LCPH",
      "alert": "OK",
      "vis_m": 9999,
      "fzfg": false,
      "metar_trigger": false,
      "taf_trigger": false,
      "metar": "METAR LCPH 240400Z AUTO 02002KT 9999 FEW006 25/17 Q1008 NOSIG",
      "taf": "TAF LCPH 232330Z 2400/2500 35009KT 9999 FEW020"
    },
    {
      "icao": "LEAL",
      "alert": "OK",
      "vis_m": 9999,
      "fzfg": false,
      "metar_trigger": false,
      "taf_trigger": false,
      "metar": "METAR LEAL 240400Z 29003KT CAVOK 23/11 Q1015 NOSIG",
      "taf": "TAF LEAL 232300Z 2400/2424 34004KT CAVOK TX33/2412Z TN22/2406Z"
    },
    {
      "icao": "LEBB",
      "alert": "OK",
      "vis_m": 9999,
      "fzfg": false,
      "metar_trigger": false,
      "taf_trigger": false,
      "metar": "METAR LEBB 240400Z 08004KT 050V130 CAVOK 22/18 Q1013 NOSIG",
      "taf": "TAF LEBB 232300Z 2400/2424 12005KT CAVOK TX38/2412Z TN24/2406Z"
    },
    {
      "icao": "LEBL",
      "alert": "OK",
      "vis_m": 5000,
      "fzfg": false,
      "metar_trigger": false,
      "taf_trigger": false,
      "metar": "METAR LEBL 240400Z 32005KT 5000 BR NSC 23/18 Q1016 NOSIG",
      "taf": "TAF LEBL 232300Z 2400/2424 VRB04KT CAVOK TX31/2412Z TN23/2405Z"
    },
    {
      "icao": "LECH",
      "alert": "OK",
      "vis_m": 8000,
      "fzfg": false,
      "metar_trigger": false,
      "taf_trigger": false,
      "metar": "METAR LECH 240400Z AUTO 19006KT 8000 NCD 20/11 Q1017",
      "taf": "TAF LECH 232300Z 2400/2424 VRB03KT CAVOK TX35/2412Z TN20/2406Z"
    },
    {
      "icao": "LEMD",
      "alert": "OK",
      "vis_m": 9999,
      "fzfg": false,
      "metar_trigger": false,
      "taf_trigger": false,
      "metar": "METAR LEMD 240400Z VRB02KT CAVOK 24/08 Q1018 NOSIG",
      "taf": "TAF LEMD 232300Z 2400/2506 VRB04KT CAVOK TX40/2416Z TN23/2405Z"
    },
    {
      "icao": "LEMG",
      "alert": "OK",
      "vis_m": 9999,
      "fzfg": false,
      "metar_trigger": false,
      "taf_trigger": false,
      "metar": "METAR LEMG 240400Z 28005KT CAVOK 23/14 Q1014 NOSIG",
      "taf": "TAF LEMG 232300Z 2400/2424 29006KT CAVOK TX30/2414Z TN22/2406Z"
    },
    {
      "icao": "LEVC",
      "alert": "OK",
      "vis_m": 9999,
      "fzfg": false,
      "metar_trigger": false,
      "taf_trigger": false,
      "metar": "METAR LEVC 240400Z 28003KT CAVOK 21/13 Q1015 NOSIG",
      "taf": "TAF LEVC 232300Z 2400/2424 31004KT CAVOK TX35/2412Z TN22/2406Z"
    },
    {
      "icao": "LEXJ",
      "alert": "OK",
      "vis_m": 9999,
      "fzfg": false,
      "metar_trigger": false,
      "taf_trigger": false,
      "metar": "METAR LEXJ 240400Z 00000KT CAVOK 20/19 Q1012",
      "taf": "TAF LEXJ 240200Z 2403/2503 18005KT 9999 FEW010 TX38/2412Z TN20/2405Z"
    },
    {
      "icao": "LEZG",
      "alert": "OK",
      "vis_m": 9999,
      "fzfg": false,
      "metar_trigger": false,
      "taf_trigger": false,
      "metar": "METAR LEZG 240400Z 11002KT CAVOK 25/12 Q1016 NOSIG",
      "taf": "TAF LEZG 232300Z 2400/2424 11007KT CAVOK TX40/2415Z TN25/2406Z"
    },
    {
      "icao": "LEZL",
      "alert": "OK",
      "vis_m": 9999,
      "fzfg": false,
      "metar_trigger": false,
      "taf_trigger": false,
      "metar": "METAR LEZL 240400Z 13003KT CAVOK 23/20 Q1014 NOSIG",
      "taf": "TAF LEZL 240200Z 2403/2503 VRB03KT CAVOK TX35/2415Z TN21/2406Z"
    },
    {
      "icao": "LFBD",
      "alert": "OK",
      "vis_m": 9999,
      "fzfg": false,
      "metar_trigger": false,
      "taf_trigger": false,
      "metar": "METAR LFBD 240400Z AUTO 11002KT CAVOK 25/17 Q1014 NOSIG",
      "taf": "TAF LFBD 232300Z 2400/2506 06008KT CAVOK TX42/2415Z TN27/2404Z"
    },
    {
      "icao": "LFLL",
      "alert": "OK",
      "vis_m": 9999,
      "fzfg": false,
      "metar_trigger": false,
      "taf_trigger": false,
      "metar": "METAR LFLL 240400Z VRB03KT CAVOK 23/16 Q1017 NOSIG",
      "taf": "TAF LFLL 232300Z 2400/2506 VRB02KT CAVOK"
    },
    {
      "icao": "LFLS",
      "alert": "OK",
      "vis_m": 9999,
      "fzfg": false,
      "metar_trigger": false,
      "taf_trigger": false,
      "metar": "METAR LFLS 240400Z AUTO 08005KT CAVOK 19/16 Q1018 NOSIG",
      "taf": "TAF LFLS 240200Z 2403/2503 09007KT CAVOK"
    },
    {
      "icao": "LFMN",
      "alert": "OK",
      "vis_m": 9999,
      "fzfg": false,
      "metar_trigger": false,
      "taf_trigger": false,
      "metar": "METAR LFMN 240400Z 33008KT CAVOK 26/17 Q1015 NOSIG",
      "taf": "TAF LFMN 240200Z 2403/2509 33010KT CAVOK"
    },
    {
      "icao": "LFOB",
      "alert": "OK",
      "vis_m": 9999,
      "fzfg": false,
      "metar_trigger": false,
      "taf_trigger": false,
      "metar": "METAR LFOB 240400Z AUTO 00000KT CAVOK 20/18 Q1017 NOSIG",
      "taf": "TAF LFOB 232300Z 2400/2424 12006KT CAVOK"
    },
    {
      "icao": "LFPO",
      "alert": "OK",
      "vis_m": 9999,
      "fzfg": false,
      "metar_trigger": false,
      "taf_trigger": false,
      "metar": "METAR LFPO 240400Z AUTO VRB01KT CAVOK 25/16 Q1017 NOSIG",
      "taf": "TAF LFPO 232300Z 2400/2506 12008KT CAVOK"
    },
    {
      "icao": "LFSB",
      "alert": "OK",
      "vis_m": 9999,
      "fzfg": false,
      "metar_trigger": false,
      "taf_trigger": false,
      "metar": "METAR LFSB 240400Z AUTO VRB02KT CAVOK 19/18 Q1019 NOSIG",
      "taf": "TAF LFSB 232300Z 2400/2424 VRB03KT CAVOK"
    },
    {
      "icao": "LGAV",
      "alert": "OK",
      "vis_m": 9999,
      "fzfg": false,
      "metar_trigger": false,
      "taf_trigger": false,
      "metar": "METAR LGAV 240350Z 07003KT CAVOK 24/11 Q1014 NOSIG",
      "taf": "TAF LGAV 232300Z 2400/2424 02012KT 9999 FEW025"
    },
    {
      "icao": "LGTS",
      "alert": "OK",
      "vis_m": 9999,
      "fzfg": false,
      "metar_trigger": false,
      "taf_trigger": false,
      "metar": "METAR LGTS 240350Z VRB02KT 9999 FEW025 22/19 Q1014 NOSIG",
      "taf": "TAF LGTS 232300Z 2400/2424 VRB03KT 9999 SCT025"
    },
    {
      "icao": "LHBP",
      "alert": "OK",
      "vis_m": 9999,
      "fzfg": false,
      "metar_trigger": false,
      "taf_trigger": false,
      "metar": "METAR LHBP 240400Z 36005KT CAVOK 20/15 Q1017 NOSIG",
      "taf": "TAF LHBP 232315Z 2400/2424 09009KT CAVOK"
    },
    {
      "icao": "LHDC",
      "alert": "OK",
      "vis_m": 9999,
      "fzfg": false,
      "metar_trigger": false,
      "taf_trigger": false,
      "metar": "METAR LHDC 240345Z AUTO 02008KT 350V060 CAVOK 21/13 Q1017 NOSIG",
      "taf": "TAF LHDC 240215Z 2403/2412 03009KT CAVOK"
    },
    {
      "icao": "LIBD",
      "alert": "OK",
      "vis_m": 9999,
      "fzfg": false,
      "metar_trigger": false,
      "taf_trigger": false,
      "metar": "METAR LIBD 240350Z 26005KT CAVOK 25/16 Q1013",
      "taf": "TAF LIBD 232300Z 2400/2424 27006KT CAVOK"
    },
    {
      "icao": "LIBG",
      "alert": "OK",
      "vis_m": 9999,
      "fzfg": false,
      "metar_trigger": false,
      "taf_trigger": false,
      "metar": "METAR LIBG 240350Z AUTO VRB02KT 9999 NCD 20/16 Q1014",
      "taf": "TAF LIBG 232300Z 2400/2424 VRB04KT 9999 FEW050"
    },
    {
      "icao": "LIBP",
      "alert": "OK",
      "vis_m": 9999,
      "fzfg": false,
      "metar_trigger": false,
      "taf_trigger": false,
      "metar": "METAR LIBP 240350Z AUTO 22003KT 9999 NCD 20/16 Q1016",
      "taf": "TAF LIBP 232300Z 2400/2424 VRB04KT CAVOK"
    },
    {
      "icao": "LIBR",
      "alert": "OK",
      "vis_m": 9999,
      "fzfg": false,
      "metar_trigger": false,
      "taf_trigger": false,
      "metar": "METAR LIBR 240350Z 29005KT CAVOK 24/18 Q1013",
      "taf": "TAF LIBR 232300Z 2400/2424 28006KT CAVOK"
    },
    {
      "icao": "LICA",
      "alert": "OK",
      "vis_m": 9999,
      "fzfg": false,
      "metar_trigger": false,
      "taf_trigger": false,
      "metar": "METAR LICA 240350Z AUTO 08003KT 9999 BKN016/// 23/22 Q1015",
      "taf": "TAF LICA 232300Z 2400/2424 VRB05KT 9999 FEW020"
    },
    {
      "icao": "LICC",
      "alert": "OK",
      "vis_m": 9999,
      "fzfg": false,
      "metar_trigger": false,
      "taf_trigger": false,
      "metar": "METAR LICC 240350Z 24005KT CAVOK 21/15 Q1014",
      "taf": "TAF LICC 232300Z 2400/2424 26006KT CAVOK"
    },
    {
      "icao": "LICJ",
      "alert": "OK",
      "vis_m": 9999,
      "fzfg": false,
      "metar_trigger": false,
      "taf_trigger": false,
      "metar": "METAR LICJ 240350Z 18003KT CAVOK 23/20 Q1015",
      "taf": "TAF LICJ 232300Z 2400/2424 VRB05KT CAVOK"
    },
    {
      "icao": "LIMC",
      "alert": "OK",
      "vis_m": 9999,
      "fzfg": false,
      "metar_trigger": false,
      "taf_trigger": false,
      "metar": "METAR LIMC 240350Z 01003KT CAVOK 24/20 Q1017 NOSIG",
      "taf": "TAF LIMC 232300Z 2400/2506 VRB06KT CAVOK"
    },
    {
      "icao": "LIME",
      "alert": "OK",
      "vis_m": 9999,
      "fzfg": false,
      "metar_trigger": false,
      "taf_trigger": false,
      "metar": "METAR LIME 240350Z AUTO 36004KT 9999 FEW190/// 23/20 Q1017",
      "taf": "TAF LIME 232300Z 2400/2424 VRB05KT 9999 FEW060"
    },
    {
      "icao": "LIMF",
      "alert": "OK",
      "vis_m": 9999,
      "fzfg": false,
      "metar_trigger": false,
      "taf_trigger": false,
      "metar": "METAR LIMF 240350Z 34006KT CAVOK 26/19 Q1018",
      "taf": "TAF LIMF 232300Z 2400/2424 VRB06KT CAVOK"
    },
    {
      "icao": "LIMJ",
      "alert": "OK",
      "vis_m": 9999,
      "fzfg": false,
      "metar_trigger": false,
      "taf_trigger": false,
      "metar": "METAR LIMJ 240350Z 01002KT CAVOK 26/16 Q1015",
      "taf": "TAF LIMJ 232300Z 2400/2424 VRB06KT CAVOK"
    },
    {
      "icao": "LIPE",
      "alert": "OK",
      "vis_m": 9999,
      "fzfg": false,
      "metar_trigger": false,
      "taf_trigger": false,
      "metar": "METAR LIPE 240350Z AUTO 19003KT 9999 SCT170/// 25/18 Q1016",
      "taf": "TAF LIPE 232300Z 2400/2424 10010KT CAVOK"
    },
    {
      "icao": "LIPH",
      "alert": "OK",
      "vis_m": 9999,
      "fzfg": false,
      "metar_trigger": false,
      "taf_trigger": false,
      "metar": "METAR LIPH 240350Z AUTO VRB02KT 9999 FEW200/// 24/20 Q1016",
      "taf": "TAF LIPH 232300Z 2400/2424 VRB05KT 9999 FEW040"
    },
    {
      "icao": "LIPQ",
      "alert": "OK",
      "vis_m": 9999,
      "fzfg": false,
      "metar_trigger": false,
      "taf_trigger": false,
      "metar": "METAR LIPQ 240350Z AUTO 36003KT 9999 NCD 21/19 Q1016",
      "taf": "TAF LIPQ 232300Z 2400/2424 08007KT 9999 FEW040"
    },
    {
      "icao": "LIPR",
      "alert": "OK",
      "vis_m": 9999,
      "fzfg": false,
      "metar_trigger": false,
      "taf_trigger": false,
      "metar": "METAR LIPR 240350Z AUTO 36002KT 9999 FEW150/// 23/17 Q1016",
      "taf": "TAF LIPR 232300Z 2400/2424 VRB05KT CAVOK"
    },
    {
      "icao": "LIPX",
      "alert": "OK",
      "vis_m": 9999,
      "fzfg": false,
      "metar_trigger": false,
      "taf_trigger": false,
      "metar": "METAR LIPX 240350Z VRB02KT CAVOK 24/21 Q1016",
      "taf": "TAF LIPX 232300Z 2400/2424 VRB05KT 9999 FEW060"
    },
    {
      "icao": "LIPY",
      "alert": "OK",
      "vis_m": 9999,
      "fzfg": false,
      "metar_trigger": false,
      "taf_trigger": false,
      "metar": "METAR LIPY 240350Z AUTO 18003KT 140V200 9999 BKN140/// 22/19 Q1016",
      "taf": "TAF LIPY 232300Z 2400/2424 VRB05KT CAVOK"
    },
    {
      "icao": "LIPZ",
      "alert": "OK",
      "vis_m": 9999,
      "fzfg": false,
      "metar_trigger": false,
      "taf_trigger": false,
      "metar": "METAR LIPZ 240350Z 03006KT CAVOK 23/19 Q1016 NOSIG",
      "taf": "TAF LIPZ 232300Z 2400/2506 VRB05KT CAVOK"
    },
    {
      "icao": "LIRF",
      "alert": "OK",
      "vis_m": 9999,
      "fzfg": false,
      "metar_trigger": false,
      "taf_trigger": false,
      "metar": "METAR LIRF 240350Z 35003KT CAVOK 20/19 Q1015 NOSIG",
      "taf": "TAF LIRF 232300Z 2400/2506 VRB05KT CAVOK"
    },
    {
      "icao": "LIRN",
      "alert": "OK",
      "vis_m": 9999,
      "fzfg": false,
      "metar_trigger": false,
      "taf_trigger": false,
      "metar": "METAR LIRN 240350Z 34001KT CAVOK 22/18 Q1015 NOSIG",
      "taf": "TAF LIRN 232300Z 2400/2424 VRB05KT CAVOK"
    },
    {
      "icao": "LIRP",
      "alert": "OK",
      "vis_m": 9999,
      "fzfg": false,
      "metar_trigger": false,
      "taf_trigger": false,
      "metar": "METAR LIRP 240345Z 14002KT CAVOK 22/18 Q1015 NOSIG",
      "taf": "TAF LIRP 232300Z 2400/2424 12005KT CAVOK"
    },
    {
      "icao": "LIRZ",
      "alert": "OK",
      "vis_m": 9999,
      "fzfg": false,
      "metar_trigger": false,
      "taf_trigger": false,
      "metar": "METAR LIRZ 240350Z AUTO 03004KT 360V060 9999 NCD 20/15 Q1017",
      "taf": "TAF LIRZ 232300Z 2400/2424 VRB05KT CAVOK"
    },
    {
      "icao": "LJLJ",
      "alert": "OK",
      "vis_m": 9999,
      "fzfg": false,
      "metar_trigger": false,
      "taf_trigger": false,
      "metar": "METAR LJLJ 240400Z 33005KT 9999 FEW050 17/17 Q1020 NOSIG",
      "taf": "TAF LJLJ 232300Z 2400/2500 09006KT 9999 SCT055"
    },
    {
      "icao": "LKMT",
      "alert": "OK",
      "vis_m": 9999,
      "fzfg": false,
      "metar_trigger": false,
      "taf_trigger": false,
      "metar": "METAR LKMT 240400Z 20002KT CAVOK 13/12 Q1021 NOSIG",
      "taf": "TAF LKMT 232300Z 2400/2424 VRB02KT CAVOK"
    },
    {
      "icao": "LKPR",
      "alert": "OK",
      "vis_m": 9999,
      "fzfg": false,
      "metar_trigger": false,
      "taf_trigger": false,
      "metar": "METAR LKPR 240400Z VRB02KT CAVOK 16/13 Q1021 NOSIG",
      "taf": "TAF LKPR 240200Z 2403/2509 06004KT CAVOK"
    },
    {
      "icao": "LLBG",
      "alert": "OK",
      "vis_m": 9999,
      "fzfg": false,
      "metar_trigger": false,
      "taf_trigger": false,
      "metar": "METAR LLBG 240350Z 15005KT 9999 FEW020 23/12 Q1010 NOSIG",
      "taf": "TAF LLBG 232306Z 2400/2424 VRB04KT 9999 FEW020 TX31/2411Z TN22/2403Z"
    },
    {
      "icao": "LMML",
      "alert": "OK",
      "vis_m": 9999,
      "fzfg": false,
      "metar_trigger": false,
      "taf_trigger": false,
      "metar": "METAR LMML 240415Z 29004KT CAVOK 24/21 Q1015 NOSIG",
      "taf": "TAF LMML 232300Z 2400/2424 27008KT 9999 FEW018"
    },
    {
      "icao": "LOWW",
      "alert": "OK",
      "vis_m": 9999,
      "fzfg": false,
      "metar_trigger": false,
      "taf_trigger": false,
      "metar": "METAR LOWW 240350Z 34005KT CAVOK 18/13 Q1020 NOSIG",
      "taf": "TAF LOWW 240215Z 2403/2509 34004KT CAVOK TX32/2414Z TN18/2503Z"
    },
    {
      "icao": "LPFR",
      "alert": "OK",
      "vis_m": 9999,
      "fzfg": false,
      "metar_trigger": false,
      "taf_trigger": false,
      "metar": "METAR LPFR 240400Z 31003KT 9999 SCT009 20/17 Q1014",
      "taf": "TAF LPFR 232300Z 2400/2424 27008KT 9999 SCT008"
    },
    {
      "icao": "LPMA",
      "alert": "OK",
      "vis_m": 9999,
      "fzfg": false,
      "metar_trigger": false,
      "taf_trigger": false,
      "metar": "METAR LPMA 240400Z VRB02KT 9999 FEW015 19/16 Q1015",
      "taf": "TAF LPMA 232300Z 2400/2424 VRB05KT 9999 SCT015"
    },
    {
      "icao": "LPPR",
      "alert": "OK",
      "vis_m": 8000,
      "fzfg": false,
      "metar_trigger": false,
      "taf_trigger": false,
      "metar": "METAR LPPR 240400Z 35003KT 8000 3500W BCFG FEW001 18/17 Q1012",
      "taf": ""
    },
    {
      "icao": "LPPS",
      "alert": "OK",
      "vis_m": 9999,
      "fzfg": false,
      "metar_trigger": false,
      "taf_trigger": false,
      "metar": "METAR LPPS 240400Z 29011KT 9999 SCT015 20/17 Q1015",
      "taf": "TAF LPPS 232300Z 2400/2506 30010KT 9999 FEW015"
    },
    {
      "icao": "LPPT",
      "alert": "OK",
      "vis_m": 9999,
      "fzfg": false,
      "metar_trigger": false,
      "taf_trigger": false,
      "metar": "METAR LPPT 240400Z 25005KT 230V290 9999 BKN009 19/17 Q1014",
      "taf": "TAF LPPT 232300Z 2400/2506 29007KT 9999 SCT015"
    },
    {
      "icao": "LQBK",
      "alert": "OK",
      "vis_m": 9999,
      "fzfg": false,
      "metar_trigger": false,
      "taf_trigger": false,
      "metar": "METAR LQBK 240400Z 15003KT CAVOK 18/16 Q1017 NOSIG",
      "taf": "TAF LQBK 232300Z 2400/2424 15005KT CAVOK TX33/2414Z TN18/2403Z"
    },
    {
      "icao": "LQSA",
      "alert": "OK",
      "vis_m": 9999,
      "fzfg": false,
      "metar_trigger": false,
      "taf_trigger": false,
      "metar": "METAR LQSA 240400Z VRB02KT 9999 SCT065 17/15 Q1019 NOSIG",
      "taf": ""
    },
    {
      "icao": "LQTZ",
      "alert": "OK",
      "vis_m": 9999,
      "fzfg": false,
      "metar_trigger": false,
      "taf_trigger": false,
      "metar": "METAR LQTZ 240400Z VRB02KT 9999 SCT072 16/16 Q1018",
      "taf": "TAF LQTZ 232300Z 2400/2424 30005KT CAVOK TX30/2414Z TN17/2403Z"
    },
    {
      "icao": "LRBC",
      "alert": "OK",
      "vis_m": 9999,
      "fzfg": false,
      "metar_trigger": false,
      "taf_trigger": false,
      "metar": "METAR LRBC 240400Z AUTO 36005KT 9999 NCD 20/18 Q1017",
      "taf": "TAF LRBC 240200Z 2403/2412 VRB04KT CAVOK"
    },
    {
      "icao": "LRBS",
      "alert": "OK",
      "vis_m": 9999,
      "fzfg": false,
      "metar_trigger": false,
      "taf_trigger": false,
      "metar": "METAR LRBS 240400Z 30004KT 250V340 9999 -SHRA FEW040CB 21/20 Q1016 NOSIG",
      "taf": "TAF LRBS 232300Z 2400/2424 VRB04KT CAVOK"
    },
    {
      "icao": "LRBV",
      "alert": "OK",
      "vis_m": 9999,
      "fzfg": false,
      "metar_trigger": false,
      "taf_trigger": false,
      "metar": "METAR LRBV 240400Z VRB03KT 9999 VCFG NSC 16/15 Q1019",
      "taf": "TAF LRBV 240200Z 2403/2412 VRB04KT CAVOK"
    },
    {
      "icao": "LRCL",
      "alert": "OK",
      "vis_m": 9999,
      "fzfg": false,
      "metar_trigger": false,
      "taf_trigger": false,
      "metar": "METAR LRCL 240400Z 00000KT CAVOK 18/16 Q1018",
      "taf": "TAF LRCL 240200Z 2403/2412 VRB04KT CAVOK"
    },
    {
      "icao": "LRCV",
      "alert": "OK",
      "vis_m": 150,
      "fzfg": false,
      "metar_trigger": false,
      "taf_trigger": false,
      "metar": "METAR LRCV 240400Z 32003KT 0150 R26/0250N FG OVC001 17/17 Q1017",
      "taf": "TAF LRCV 240200Z 2403/2412 VRB04KT 0600 FG BKN002"
    },
    {
      "icao": "LRIA",
      "alert": "OK",
      "vis_m": 9999,
      "fzfg": false,
      "metar_trigger": false,
      "taf_trigger": false,
      "metar": "METAR LRIA 240400Z 23005KT CAVOK 19/18 Q1017",
      "taf": ""
    },
    {
      "icao": "LROP",
      "alert": "OK",
      "vis_m": 9999,
      "fzfg": false,
      "metar_trigger": false,
      "taf_trigger": false,
      "metar": "METAR LROP 240400Z 31005KT 280V340 CAVOK 21/20 Q1016 NOSIG",
      "taf": "TAF LROP 232300Z 2400/2424 VRB04KT CAVOK"
    },
    {
      "icao": "LRSB",
      "alert": "OK",
      "vis_m": 9999,
      "fzfg": false,
      "metar_trigger": false,
      "taf_trigger": false,
      "metar": "METAR LRSB 240400Z 10003KT 9999 MIFG NSC 18/17 Q1018",
      "taf": "TAF LRSB 232300Z 2400/2424 VRB04KT CAVOK"
    },
    {
      "icao": "LRSM",
      "alert": "OK",
      "vis_m": 9999,
      "fzfg": false,
      "metar_trigger": false,
      "taf_trigger": false,
      "metar": "METAR LRSM 240400Z VRB02KT CAVOK 18/16 Q1017",
      "taf": "TAF LRSM 240200Z 2403/2412 VRB04KT CAVOK"
    },
    {
      "icao": "LRSV",
      "alert": "OK",
      "vis_m": 9999,
      "fzfg": false,
      "metar_trigger": false,
      "taf_trigger": false,
      "metar": "METAR LRSV 240400Z 31006KT CAVOK 20/17 Q1018",
      "taf": "TAF LRSV 240200Z 2403/2412 31008KT CAVOK"
    },
    {
      "icao": "LRTM",
      "alert": "OK",
      "vis_m": 9999,
      "fzfg": false,
      "metar_trigger": false,
      "taf_trigger": false,
      "metar": "METAR LRTM 240400Z 08005KT 9999 FEW043 FEW046TCU 18/17 Q1018",
      "taf": "TAF LRTM 240200Z 2403/2412 VRB04KT 5000 BR SCT010"
    },
    {
      "icao": "LRTR",
      "alert": "OK",
      "vis_m": 9999,
      "fzfg": false,
      "metar_trigger": false,
      "taf_trigger": false,
      "metar": "METAR LRTR 240400Z 08005KT CAVOK 19/19 Q1016",
      "taf": "TAF LRTR 232300Z 2400/2424 VRB04KT 3000 BR NSC"
    },
    {
      "icao": "LTAC",
      "alert": "OK",
      "vis_m": 9999,
      "fzfg": false,
      "metar_trigger": false,
      "taf_trigger": false,
      "metar": "METAR LTAC 240350Z 00000KT CAVOK 15/11 Q1016 NOSIG RMK RWY21C VRB02KT RWY03L VRB02KT RWY21R 34003KT 300V030 RWY03R VRB01KT RWY21L 00000KT",
      "taf": "TAF LTAC 232240Z 2400/2424 04009KT CAVOK"
    },
    {
      "icao": "LTFM",
      "alert": "OK",
      "vis_m": 9999,
      "fzfg": false,
      "metar_trigger": false,
      "taf_trigger": false,
      "metar": "METAR LTFM 240350Z 05010KT 9999 SCT014 22/18 Q1015 NOSIG RMK RWY17L 05008KT RWY34L 04009KT RWY16R 05009KT RWY36 05011KT RWY18 06009KT",
      "taf": "TAF LTFM 232240Z 2400/2506 04007KT CAVOK"
    },
    {
      "icao": "LUKK",
      "alert": "OK",
      "vis_m": 9999,
      "fzfg": false,
      "metar_trigger": false,
      "taf_trigger": false,
      "metar": "METAR LUKK 240400Z 35004KT 320V030 CAVOK 21/18 Q1016 NOSIG",
      "taf": "TAF LUKK 232323Z 2400/2424 34006KT CAVOK"
    },
    {
      "icao": "LWOH",
      "alert": "OK",
      "vis_m": 9999,
      "fzfg": false,
      "metar_trigger": false,
      "taf_trigger": false,
      "metar": "METAR LWOH 240420Z VRB02KT 9999 FEW025 16/15 Q1018",
      "taf": "TAF LWOH 240230Z 2403/2503 34005KT 9999 FEW050"
    },
    {
      "icao": "LWSK",
      "alert": "OK",
      "vis_m": 9999,
      "fzfg": false,
      "metar_trigger": false,
      "taf_trigger": false,
      "metar": "METAR LWSK 240420Z 03005KT 9999 FEW050 21/17 Q1017 NOSIG",
      "taf": "TAF LWSK 240230Z 2403/2503 VRB02KT CAVOK"
    },
    {
      "icao": "LYBE",
      "alert": "OK",
      "vis_m": 9999,
      "fzfg": false,
      "metar_trigger": false,
      "taf_trigger": false,
      "metar": "METAR LYBE 240400Z 22004KT 160V250 CAVOK 21/18 Q1016 NOSIG",
      "taf": "TAF LYBE 232300Z 2400/2424 23005KT CAVOK TX33/2414Z TN19/2403Z"
    },
    {
      "icao": "LYNI",
      "alert": "OK",
      "vis_m": 9999,
      "fzfg": false,
      "metar_trigger": false,
      "taf_trigger": false,
      "metar": "METAR LYNI 240400Z 14001KT CAVOK 19/17 Q1017 NOSIG",
      "taf": "TAF LYNI 232300Z 2400/2424 08005KT 9999 SCT050 TX30/2414Z TN18/2403Z"
    },
    {
      "icao": "LYPG",
      "alert": "OK",
      "vis_m": 9999,
      "fzfg": false,
      "metar_trigger": false,
      "taf_trigger": false,
      "metar": "METAR LYPG 240400Z 28002KT CAVOK 21/21 Q1014 NOSIG",
      "taf": "TAF LYPG 232300Z 2400/2424 34005KT CAVOK TX35/2412Z TN22/2401Z"
    },
    {
      "icao": "LZIB",
      "alert": "OK",
      "vis_m": 9999,
      "fzfg": false,
      "metar_trigger": false,
      "taf_trigger": false,
      "metar": "METAR LZIB 240400Z 00000KT CAVOK 20/12 Q1018 NOSIG",
      "taf": "TAF LZIB 232315Z 2400/2500 03005KT CAVOK"
    },
    {
      "icao": "LZKZ",
      "alert": "OK",
      "vis_m": 9999,
      "fzfg": false,
      "metar_trigger": false,
      "taf_trigger": false,
      "metar": "METAR LZKZ 240400Z 03006KT CAVOK 20/13 Q1018 NOSIG",
      "taf": "TAF LZKZ 232315Z 2400/2500 35010KT CAVOK"
    },
    {
      "icao": "LZTT",
      "alert": "OK",
      "vis_m": 9999,
      "fzfg": false,
      "metar_trigger": false,
      "taf_trigger": false,
      "metar": "METAR LZTT 240400Z 28004KT 9999 FEW050 13/12 Q1021",
      "taf": "TAF LZTT 232315Z 2400/2500 31003KT CAVOK"
    },
    {
      "icao": "OEJN",
      "alert": "OK",
      "vis_m": 9999,
      "fzfg": false,
      "metar_trigger": false,
      "taf_trigger": false,
      "metar": "METAR OEJN 240400Z 26005KT 9999 SCT040 30/24 Q1006 NOSIG",
      "taf": "TAF OEJN 232300Z 2400/2506 VRB03KT CAVOK"
    },
    {
      "icao": "OEMA",
      "alert": "OK",
      "vis_m": 9999,
      "fzfg": false,
      "metar_trigger": false,
      "taf_trigger": false,
      "metar": "METAR OEMA 240400Z VRB02KT CAVOK 34/00 Q1011 NOSIG",
      "taf": "TAF OEMA 232300Z 2400/2506 26005KT CAVOK"
    },
    {
      "icao": "OJAI",
      "alert": "OK",
      "vis_m": 5000,
      "fzfg": false,
      "metar_trigger": false,
      "taf_trigger": false,
      "metar": "METAR OJAI 240400Z 19002KT 5000 HZ NSC 18/11 Q1014 NOSIG",
      "taf": "TAF OJAI 232228Z 2400/2506 29004KT 5000 HZ NSC"
    },
    {
      "icao": "OMAA",
      "alert": "OK",
      "vis_m": 7000,
      "fzfg": false,
      "metar_trigger": false,
      "taf_trigger": false,
      "metar": "METAR OMAA 240400Z 15013KT 7000 NSC 35/22 Q0999 NOSIG",
      "taf": "TAF OMAA 232300Z 2400/2506 11005KT 8000 NSC"
    },
    {
      "icao": "OMDB",
      "alert": "OK",
      "vis_m": 6000,
      "fzfg": false,
      "metar_trigger": false,
      "taf_trigger": false,
      "metar": "METAR OMDB 240400Z 17011KT 6000 NSC 37/21 Q0999 NOSIG",
      "taf": "TAF OMDB 232300Z 2400/2506 10005KT 8000 NSC"
    },
    {
      "icao": "UAAA",
      "alert": "OK",
      "vis_m": 9999,
      "fzfg": false,
      "metar_trigger": false,
      "taf_trigger": false,
      "metar": "METAR UAAA 240400Z 26007MPS 220V280 9999 FEW050 SCT100 BKN200 27/12 Q1012 NOSIG",
      "taf": "TAF UAAA 232303Z 2400/2424 32003G08MPS 9999 SCT050CB BKN100 TX35/2410Z TN18/2401Z"
    },
    {
      "icao": "UBBB",
      "alert": "OK",
      "vis_m": 9999,
      "fzfg": false,
      "metar_trigger": false,
      "taf_trigger": false,
      "metar": "METAR UBBB 240400Z VRB02KT CAVOK 25/13 Q1012 NOSIG",
      "taf": "TAF UBBB 232302Z 2400/2424 VRB04KT CAVOK TX29/2410Z TN21/2401Z"
    },
    {
      "icao": "UDSG",
      "alert": "OK",
      "vis_m": 9999,
      "fzfg": false,
      "metar_trigger": false,
      "taf_trigger": false,
      "metar": "METAR UDSG 240400Z 06013KT 9999 BKN043CB 17/11 Q1016 NOSIG",
      "taf": "TAF UDSG 232258Z 2400/2424 06006KT 9999 SCT040"
    },
    {
      "icao": "UDYZ",
      "alert": "OK",
      "vis_m": 9999,
      "fzfg": false,
      "metar_trigger": false,
      "taf_trigger": false,
      "metar": "METAR UDYZ 240400Z 25013KT 220V290 9999 -TSRA OVC043CB 20/13 Q1011 NOSIG",
      "taf": "TAF UDYZ 232300Z 2400/2424 04006KT 9999 SCT040"
    },
    {
      "icao": "UGKO",
      "alert": "OK",
      "vis_m": 9999,
      "fzfg": false,
      "metar_trigger": false,
      "taf_trigger": false,
      "metar": "METAR UGKO 240400Z 23009KT 9999 SCT010 BKN029 20/18 Q1011 NOSIG",
      "taf": "TAF UGKO 232300Z 2400/2424 25006KT 9999 SCT023 OVC030 TX23/2411Z TN18/2402Z"
    }
  ]
}