{
  "ts_utc": "2026-02-06T04:21:21Z",
  "threshold_m": 150,
  "source": "stations_override.txt (ICAO list) + aviationweather.gov (METAR/TAF raw)",
  "station_count": 159,
  "stations": [
    {
      "icao": "BIKF",
      "alert": "OK",
      "vis_m": 9999,
      "fzfg": false,
      "metar_trigger": false,
      "taf_trigger": false,
      "metar": "METAR BIKF 060400Z 01015KT CAVOK 01/M03 Q1004",
      "taf": "TAF BIKF 060136Z 0603/0703 01012KT CAVOK TX04/0617Z TNM01/0603Z"
    },
    {
      "icao": "BKPR",
      "alert": "OK",
      "vis_m": 9999,
      "fzfg": false,
      "metar_trigger": false,
      "taf_trigger": false,
      "metar": "METAR BKPR 060400Z 02003KT CAVOK 00/00 Q0999 NOSIG",
      "taf": "TAF BKPR 052330Z 0600/0624 24005KT 9999 SCT040"
    },
    {
      "icao": "EBCI",
      "alert": "OK",
      "vis_m": 9999,
      "fzfg": false,
      "metar_trigger": false,
      "taf_trigger": false,
      "metar": "METAR EBCI 060350Z 16008KT 9999 -RA SCT033 BKN045 07/04 Q0986 NOSIG",
      "taf": "TAF EBCI 052305Z 0600/0706 14006KT 9999 -RA FEW025 BKN040"
    },
    {
      "icao": "EDDB",
      "alert": "OK",
      "vis_m": 2400,
      "fzfg": false,
      "metar_trigger": false,
      "taf_trigger": false,
      "metar": "METAR EDDB 060350Z AUTO 07005KT 2400 -FZRA BR OVC003 M01/M01 Q0994 NOSIG",
      "taf": "TAF EDDB 052300Z 0600/0624 09008KT 4000 BR BKN004"
    },
    {
      "icao": "EDDH",
      "alert": "OK",
      "vis_m": 8000,
      "fzfg": false,
      "metar_trigger": false,
      "taf_trigger": false,
      "metar": "METAR EDDH 060350Z AUTO 07007KT 8000 OVC005 M01/M02 Q0994 TEMPO 4000 BR OVC004",
      "taf": "TAF EDDH 052300Z 0600/0706 09007KT 8000 OVC008"
    },
    {
      "icao": "EDDK",
      "alert": "OK",
      "vis_m": 9999,
      "fzfg": false,
      "metar_trigger": false,
      "taf_trigger": false,
      "metar": "METAR EDDK 060350Z AUTO 12008KT 100V160 9999 -SHRA FEW010 SCT///TCU 02/01 Q0989 NOSIG",
      "taf": ""
    },
    {
      "icao": "EDDN",
      "alert": "OK",
      "vis_m": 9999,
      "fzfg": false,
      "metar_trigger": false,
      "taf_trigger": false,
      "metar": "METAR EDDN 060350Z AUTO 07004KT 9999 OVC007 01/M00 Q0990",
      "taf": "TAF EDDN 052300Z 0600/0624 11007KT 9999 OVC007"
    },
    {
      "icao": "EDDS",
      "alert": "OK",
      "vis_m": 8000,
      "fzfg": false,
      "metar_trigger": false,
      "taf_trigger": false,
      "metar": "METAR EDDS 060350Z AUTO 29006KT 8000 NSC M01/M02 Q0988",
      "taf": "TAF EDDS 052300Z 0600/0624 VRB02KT CAVOK"
    },
    {
      "icao": "EDFH",
      "alert": "OK",
      "vis_m": 300,
      "fzfg": true,
      "metar_trigger": false,
      "taf_trigger": false,
      "metar": "METAR EDFH 060350Z 14013KT 0300 R21/0350N -FZRA FZFG VV/// M01/M01 Q0988",
      "taf": "TAF EDFH 052300Z 0600/0624 14013KT 0400 FG OVC002"
    },
    {
      "icao": "EDJA",
      "alert": "OK",
      "vis_m": 1300,
      "fzfg": true,
      "metar_trigger": false,
      "taf_trigger": false,
      "metar": "METAR EDJA 060350Z AUTO VRB02KT 1300 0900 R06/1100U // VV/// M01/M02 Q0988",
      "taf": "TAF EDJA 060200Z 0603/0612 VRB03KT 0800 FZFG VV001"
    },
    {
      "icao": "EDLW",
      "alert": "OK",
      "vis_m": 7000,
      "fzfg": false,
      "metar_trigger": false,
      "taf_trigger": false,
      "metar": "METAR EDLW 060350Z AUTO 02003KT 7000 // FEW230/// M01/M01 Q0988",
      "taf": "TAF EDLW 051700Z 0518/0618 09007KT CAVOK"
    },
    {
      "icao": "EDNY",
      "alert": "OK",
      "vis_m": 7000,
      "fzfg": false,
      "metar_trigger": false,
      "taf_trigger": false,
      "metar": "METAR EDNY 060350Z AUTO VRB02KT 7000 // FEW014/// SCT061/// OVC079/// 00/M01 Q0989",
      "taf": "TAF EDNY 060200Z 0603/0612 VRB02KT 7000 BKN045"
    },
    {
      "icao": "EDSB",
      "alert": "OK",
      "vis_m": 6000,
      "fzfg": false,
      "metar_trigger": false,
      "taf_trigger": false,
      "metar": "METAR EDSB 060350Z 25001KT 6000 SCT008 OVC010 01/M01 Q0990",
      "taf": ""
    },
    {
      "icao": "EETN",
      "alert": "OK",
      "vis_m": 9999,
      "fzfg": false,
      "metar_trigger": false,
      "taf_trigger": false,
      "metar": "METAR EETN 060420Z 08011KT 9999 OVC030 M12/M14 Q1013 NOSIG",
      "taf": "TAF EETN 052330Z 0600/0624 08010KT 9999 BKN020"
    },
    {
      "icao": "EFTU",
      "alert": "OK",
      "vis_m": 9999,
      "fzfg": false,
      "metar_trigger": false,
      "taf_trigger": false,
      "metar": "METAR EFTU 060350Z AUTO 07006KT CAVOK M19/M21 Q1015",
      "taf": "TAF EFTU 060226Z 0603/0703 06008KT CAVOK"
    },
    {
      "icao": "EGBB",
      "alert": "OK",
      "vis_m": 6000,
      "fzfg": false,
      "metar_trigger": false,
      "taf_trigger": false,
      "metar": "METAR EGBB 060350Z 07010KT 6000 -RADZ OVC004 05/04 Q0983 RERA REDZ",
      "taf": "TAF EGBB 052259Z 0600/0624 08009KT 9999 SCT006 BKN012"
    },
    {
      "icao": "EGGP",
      "alert": "OK",
      "vis_m": 9999,
      "fzfg": false,
      "metar_trigger": false,
      "taf_trigger": false,
      "metar": "METAR EGGP 060350Z AUTO 07014KT 9999 -RA BKN028/// OVC048/// 03/01 Q0984",
      "taf": "TAF EGGP 052259Z 0600/0624 08014KT 9999 BKN016"
    },
    {
      "icao": "EGGW",
      "alert": "OK",
      "vis_m": 3500,
      "fzfg": false,
      "metar_trigger": false,
      "taf_trigger": false,
      "metar": "METAR EGGW 060350Z AUTO 09008KT 3500 -DZ OVC002 07/07 Q0982",
      "taf": "TAF EGGW 052256Z 0600/0624 11010KT 6000 -RA SCT003 BKN006"
    },
    {
      "icao": "EGKK",
      "alert": "OK",
      "vis_m": 5000,
      "fzfg": false,
      "metar_trigger": false,
      "taf_trigger": false,
      "metar": "METAR EGKK 060350Z AUTO 09008KT 5000 -RADZ BKN008/// OVC022/// 09/09 Q0981",
      "taf": "TAF EGKK 052253Z 0600/0706 09006KT 9999 SCT007 BKN030"
    },
    {
      "icao": "EGNM",
      "alert": "OK",
      "vis_m": null,
      "fzfg": false,
      "metar_trigger": false,
      "taf_trigger": false,
      "metar": "",
      "taf": ""
    },
    {
      "icao": "EGPD",
      "alert": "OK",
      "vis_m": 9000,
      "fzfg": false,
      "metar_trigger": false,
      "taf_trigger": false,
      "metar": "METAR EGPD 060350Z AUTO 09012KT 9000 -RA BKN016/// BKN022/// OVC042/// //////TCU 04/01 Q0996 TEMPO SHRA BKN012",
      "taf": "TAF EGPD 052255Z 0600/0624 09013KT 9999 BKN016"
    },
    {
      "icao": "EGPF",
      "alert": "OK",
      "vis_m": 9999,
      "fzfg": false,
      "metar_trigger": false,
      "taf_trigger": false,
      "metar": "METAR EGPF 060350Z AUTO 07016G26KT 9999 BKN017 OVC046 04/01 Q0991",
      "taf": "TAF EGPF 052258Z 0600/0624 08018G28KT 9999 SCT020 BKN025"
    },
    {
      "icao": "EHBK",
      "alert": "OK",
      "vis_m": 9000,
      "fzfg": false,
      "metar_trigger": false,
      "taf_trigger": false,
      "metar": "METAR EHBK 060355Z AUTO 09007KT 9000 DZ FEW036/// SCT048/// 04/03 Q0987",
      "taf": "TAF EHBK 052322Z 0600/0706 10006KT 9999 OVC040"
    },
    {
      "icao": "EHEH",
      "alert": "OK",
      "vis_m": null,
      "fzfg": false,
      "metar_trigger": false,
      "taf_trigger": false,
      "metar": "",
      "taf": "TAF EHEH 051748Z 0518/0624 09007KT 9999 BKN025"
    },
    {
      "icao": "EKBI",
      "alert": "OK",
      "vis_m": 9999,
      "fzfg": false,
      "metar_trigger": false,
      "taf_trigger": false,
      "metar": "METAR EKBI 060350Z AUTO 07013KT 9999 -SN OVC010/// M01/M03 Q0997",
      "taf": "TAF EKBI 060227Z 0603/0703 07015KT 9999 BKN008"
    },
    {
      "icao": "EKCH",
      "alert": "OK",
      "vis_m": 2000,
      "fzfg": false,
      "metar_trigger": false,
      "taf_trigger": false,
      "metar": "METAR EKCH 060350Z 08012KT 2000 -SN DRSN FEW010 BKN012 M00/M01 Q0999 TEMPO 6000 BKN008",
      "taf": "TAF EKCH 060227Z 0603/0703 07015KT 7000 BKN010"
    },
    {
      "icao": "ENAL",
      "alert": "OK",
      "vis_m": 9999,
      "fzfg": false,
      "metar_trigger": false,
      "taf_trigger": false,
      "metar": "METAR ENAL 060350Z AUTO 08005KT 9999 NCD M08/M12 Q1006",
      "taf": "TAF ENAL 060200Z 0603/0612 09008KT CAVOK"
    },
    {
      "icao": "ENBR",
      "alert": "OK",
      "vis_m": 9999,
      "fzfg": false,
      "metar_trigger": false,
      "taf_trigger": false,
      "metar": "METAR ENBR 060350Z 07003KT CAVOK M04/M14 Q1004 RMK WIND 1200FT 11013KT",
      "taf": "TAF ENBR 052300Z 0600/0624 04005KT CAVOK"
    },
    {
      "icao": "ENGM",
      "alert": "OK",
      "vis_m": 9999,
      "fzfg": false,
      "metar_trigger": false,
      "taf_trigger": false,
      "metar": "METAR ENGM 060350Z 01010KT 9999 -SN OVC019 M11/M14 Q1012",
      "taf": "TAF ENGM 052300Z 0600/0624 02010KT 9999 -SN BKN020"
    },
    {
      "icao": "ENHD",
      "alert": "OK",
      "vis_m": 9999,
      "fzfg": false,
      "metar_trigger": false,
      "taf_trigger": false,
      "metar": "METAR ENHD 060350Z AUTO 03005KT 9999 NCD 01/M11 Q1003",
      "taf": "TAF ENHD 060200Z 0603/0612 06008KT CAVOK"
    },
    {
      "icao": "ENTC",
      "alert": "OK",
      "vis_m": 9999,
      "fzfg": false,
      "metar_trigger": false,
      "taf_trigger": false,
      "metar": "METAR ENTC 060350Z 19004KT 130V250 9999 VCSH FEW008 SCT013 BKN020 01/M00 Q1011 RMK WIND 2600FT 31029KT",
      "taf": ""
    },
    {
      "icao": "ENTO",
      "alert": "OK",
      "vis_m": 9999,
      "fzfg": false,
      "metar_trigger": false,
      "taf_trigger": false,
      "metar": "METAR ENTO 060350Z AUTO 02016KT 9999 -SN FEW015/// OVC020/// M08/M10 Q1010",
      "taf": "TAF ENTO 052300Z 0600/0624 02015KT 9999 -SN BKN018"
    },
    {
      "icao": "ENVA",
      "alert": "OK",
      "vis_m": 9999,
      "fzfg": false,
      "metar_trigger": false,
      "taf_trigger": false,
      "metar": "METAR ENVA 060350Z 13009KT CAVOK M13/M20 Q1014 RMK WIND 670FT 12006KT",
      "taf": "TAF ENVA 052300Z 0600/0624 11008KT CAVOK"
    },
    {
      "icao": "ENZV",
      "alert": "OK",
      "vis_m": 9999,
      "fzfg": false,
      "metar_trigger": false,
      "taf_trigger": false,
      "metar": "METAR ENZV 060350Z AUTO 18005KT 9999 NCD M02/M09 Q1003",
      "taf": "TAF ENZV 052300Z 0600/0624 08008KT CAVOK"
    },
    {
      "icao": "EPGD",
      "alert": "OK",
      "vis_m": 4200,
      "fzfg": false,
      "metar_trigger": false,
      "taf_trigger": false,
      "metar": "METAR EPGD 060400Z 10009KT 4200 BR OVC002 M03/M04 Q0999",
      "taf": "TAF EPGD 052330Z 0600/0624 09008KT 6000 BKN009"
    },
    {
      "icao": "EPKK",
      "alert": "OK",
      "vis_m": 450,
      "fzfg": true,
      "metar_trigger": false,
      "taf_trigger": false,
      "metar": "METAR EPKK 060400Z 07009KT 0450 R25/1300U FZFG OVC001 M00/M01 Q0995",
      "taf": "TAF EPKK 060230Z 0603/0703 06008KT 0200 FG OVC001"
    },
    {
      "icao": "EPKT",
      "alert": "OK",
      "vis_m": 6000,
      "fzfg": false,
      "metar_trigger": false,
      "taf_trigger": false,
      "metar": "METAR EPKT 060400Z 09005KT 6000 OVC003 M00/M00 Q0994",
      "taf": ""
    },
    {
      "icao": "EPLB",
      "alert": "OK",
      "vis_m": 3600,
      "fzfg": false,
      "metar_trigger": false,
      "taf_trigger": false,
      "metar": "METAR EPLB 060400Z 11009KT 3600 BR OVC002 00/00 Q0998",
      "taf": ""
    },
    {
      "icao": "EPMO",
      "alert": "OK",
      "vis_m": 7000,
      "fzfg": false,
      "metar_trigger": false,
      "taf_trigger": false,
      "metar": "METAR EPMO 060400Z 09011KT 7000 OVC005 M01/M01 Q0998",
      "taf": "TAF EPMO 052330Z 0600/0624 09012KT 7000 OVC005"
    },
    {
      "icao": "EPPO",
      "alert": "OK",
      "vis_m": 1900,
      "fzfg": false,
      "metar_trigger": false,
      "taf_trigger": false,
      "metar": "METAR EPPO 060400Z 09009KT 1900 BR OVC002 00/M00 Q0995",
      "taf": "TAF EPPO 052330Z 0600/0624 09008KT 2500 BR OVC006"
    },
    {
      "icao": "EPRA",
      "alert": "OK",
      "vis_m": 1500,
      "fzfg": false,
      "metar_trigger": false,
      "taf_trigger": false,
      "metar": "METAR EPRA 060400Z 10008KT 1500 1400N BR OVC002 00/M00 Q0997",
      "taf": "TAF EPRA 060230Z 0603/0612 11008KT 1500 BR OVC003"
    },
    {
      "icao": "EPRZ",
      "alert": "OK",
      "vis_m": 4600,
      "fzfg": false,
      "metar_trigger": false,
      "taf_trigger": false,
      "metar": "METAR EPRZ 060400Z 08011KT 4600 -RA BR BKN002 01/01 Q0997",
      "taf": ""
    },
    {
      "icao": "EPSC",
      "alert": "OK",
      "vis_m": 4500,
      "fzfg": false,
      "metar_trigger": false,
      "taf_trigger": false,
      "metar": "METAR EPSC 060400Z 07005KT 4500 BR OVC006 M01/M02 Q0996",
      "taf": "TAF EPSC 052330Z 0600/0624 10006KT 4000 BR BKN007"
    },
    {
      "icao": "EPSY",
      "alert": "OK",
      "vis_m": 4000,
      "fzfg": false,
      "metar_trigger": false,
      "taf_trigger": false,
      "metar": "METAR EPSY 060400Z 10006KT 060V160 4000 -FZRA BR OVC003 M02/M03 Q0999",
      "taf": "TAF EPSY 060230Z 0603/0612 10008KT 5000 BR OVC003"
    },
    {
      "icao": "EPWA",
      "alert": "OK",
      "vis_m": 4700,
      "fzfg": false,
      "metar_trigger": false,
      "taf_trigger": false,
      "metar": "METAR EPWA 060400Z 10010KT 4700 BR OVC002 M01/M01 Q0998 TEMPO 2500 BR",
      "taf": "TAF EPWA 060230Z 0603/0703 10009KT 6000 OVC004"
    },
    {
      "icao": "EPWR",
      "alert": "OK",
      "vis_m": 3000,
      "fzfg": false,
      "metar_trigger": false,
      "taf_trigger": false,
      "metar": "METAR EPWR 060400Z 11004KT 3000 BR SCT005 BKN007 01/01 Q0994",
      "taf": "TAF EPWR 060230Z 0603/0703 10010KT 2000 BR BKN004 BKN012"
    },
    {
      "icao": "ESGG",
      "alert": "OK",
      "vis_m": 9999,
      "fzfg": false,
      "metar_trigger": false,
      "taf_trigger": false,
      "metar": "METAR ESGG 060350Z 05018KT 9999 SG BKN013 OVC022 M03/M05 Q1002",
      "taf": "TAF ESGG 060230Z 0603/0703 06017KT 9999 -SN OVC008"
    },
    {
      "icao": "ESKN",
      "alert": "OK",
      "vis_m": 9999,
      "fzfg": false,
      "metar_trigger": false,
      "taf_trigger": false,
      "metar": "METAR ESKN 060350Z AUTO 03010KT 350V050 9999 OVC008/// M06/M08 Q1010",
      "taf": "TAF ESKN 060230Z 0603/0703 02010KT 9999 OVC009"
    },
    {
      "icao": "ESMS",
      "alert": "OK",
      "vis_m": 4500,
      "fzfg": false,
      "metar_trigger": false,
      "taf_trigger": false,
      "metar": "METAR ESMS 060350Z 09019KT 4500 DZ BR BKN009 00/M01 Q0998",
      "taf": "TAF ESMS 060227Z 0603/0703 08018KT 6000 -SNRA BKN010"
    },
    {
      "icao": "ESSA",
      "alert": "OK",
      "vis_m": 4100,
      "fzfg": false,
      "metar_trigger": false,
      "taf_trigger": false,
      "metar": "METAR ESSA 060350Z 03011KT 4100 -SN BKN005 M11/M13 Q1013 TEMPO BKN012",
      "taf": ""
    },
    {
      "icao": "EYKA",
      "alert": "OK",
      "vis_m": 9000,
      "fzfg": false,
      "metar_trigger": false,
      "taf_trigger": false,
      "metar": "METAR EYKA 060420Z 09008KT 9000 OVC007 M05/M06 Q1005",
      "taf": "TAF EYKA 052301Z 0600/0624 09009KT 6000 OVC010"
    },
    {
      "icao": "EYPA",
      "alert": "OK",
      "vis_m": 9999,
      "fzfg": false,
      "metar_trigger": false,
      "taf_trigger": false,
      "metar": "METAR EYPA 060420Z 10008KT 060V120 9999 OVC032 M05/M08 Q1004",
      "taf": "TAF EYPA 052301Z 0600/0624 10010KT 6000 OVC020"
    },
    {
      "icao": "EYVI",
      "alert": "OK",
      "vis_m": 9999,
      "fzfg": false,
      "metar_trigger": false,
      "taf_trigger": false,
      "metar": "METAR EYVI 060350Z 12008KT 9999 BKN006 M06/M08 Q1005 NOSIG",
      "taf": "TAF EYVI 052301Z 0600/0624 12010KT 8000 OVC005"
    },
    {
      "icao": "GCFV",
      "alert": "OK",
      "vis_m": 9999,
      "fzfg": false,
      "metar_trigger": false,
      "taf_trigger": false,
      "metar": "METAR GCFV 060400Z AUTO 30006KT 260V330 9999 FEW021 SCT034 18/14 Q1017",
      "taf": "TAF GCFV 060200Z 0603/0703 33015KT 9999 BKN025 TX21/0614Z TN15/0606Z"
    },
    {
      "icao": "GCLP",
      "alert": "OK",
      "vis_m": 9999,
      "fzfg": false,
      "metar_trigger": false,
      "taf_trigger": false,
      "metar": "METAR GCLP 060400Z 36014KT 9999 FEW030 BKN050 19/11 Q1017 NOSIG",
      "taf": "TAF GCLP 060200Z 0603/0703 35016KT 9999 BKN025 TX22/0614Z TN15/0606Z"
    },
    {
      "icao": "GCTS",
      "alert": "OK",
      "vis_m": 9999,
      "fzfg": false,
      "metar_trigger": false,
      "taf_trigger": false,
      "metar": "METAR GCTS 060400Z 36004KT 340V050 9999 FEW030 18/13 Q1017 NOSIG",
      "taf": "TAF GCTS 060200Z 0603/0703 VRB05KT 9999 BKN025 TX24/0614Z TN16/0606Z"
    },
    {
      "icao": "GMAD",
      "alert": "OK",
      "vis_m": 5000,
      "fzfg": false,
      "metar_trigger": false,
      "taf_trigger": false,
      "metar": "METAR GMAD 060400Z 19003KT 5000 -RA BKN020 BKN026 15/13 Q1015 TEMPO 3000 RA",
      "taf": "TAF GMAD 052300Z 0600/0706 22006KT 8000 BKN016"
    },
    {
      "icao": "GMMN",
      "alert": "OK",
      "vis_m": 9999,
      "fzfg": false,
      "metar_trigger": false,
      "taf_trigger": false,
      "metar": "METAR GMMN 060400Z 24012KT 9999 OVC010 14/12 Q1013 NOSIG",
      "taf": ""
    },
    {
      "icao": "GMMX",
      "alert": "OK",
      "vis_m": 6000,
      "fzfg": false,
      "metar_trigger": false,
      "taf_trigger": false,
      "metar": "METAR GMMX 060400Z 28005KT 250V310 6000 SCT016 BKN026 14/13 Q1014 TEMPO 3000 RA BKN013",
      "taf": "TAF GMMX 052300Z 0600/0706 26006KT 8000 BKN023"
    },
    {
      "icao": "HEGN",
      "alert": "OK",
      "vis_m": 9999,
      "fzfg": false,
      "metar_trigger": false,
      "taf_trigger": false,
      "metar": "METAR HEGN 060300Z 28003KT CAVOK 17/00 Q1012 NOSIG",
      "taf": "TAF HEGN 052300Z 0600/0706 28007KT CAVOK"
    },
    {
      "icao": "HEMA",
      "alert": "OK",
      "vis_m": 9999,
      "fzfg": false,
      "metar_trigger": false,
      "taf_trigger": false,
      "metar": "METAR HEMA 060300Z 34004KT CAVOK 18/M03 Q1012 NOSIG",
      "taf": "TAF HEMA 052300Z 0600/0706 23007KT CAVOK"
    },
    {
      "icao": "HESH",
      "alert": "OK",
      "vis_m": 9999,
      "fzfg": false,
      "metar_trigger": false,
      "taf_trigger": false,
      "metar": "METAR HESH 060300Z 34005KT CAVOK 19/07 Q1012 NOSIG",
      "taf": "TAF HESH 052300Z 0600/0706 29007KT CAVOK"
    },
    {
      "icao": "HESX",
      "alert": "OK",
      "vis_m": 9999,
      "fzfg": false,
      "metar_trigger": false,
      "taf_trigger": false,
      "metar": "METAR HESX 060300Z 23008KT CAVOK 17/01 Q1010 NOSIG",
      "taf": "TAF HESX 052300Z 0600/0706 19009KT 9999 SCT025 BKN090"
    },
    {
      "icao": "LATI",
      "alert": "OK",
      "vis_m": 9999,
      "fzfg": false,
      "metar_trigger": false,
      "taf_trigger": false,
      "metar": "METAR LATI 060420Z 13004KT 9999 SCT062 08/06 Q0999 NOSIG",
      "taf": "TAF LATI 052300Z 0600/0624 VRB05KT 9999 SCT040 BKN080 TX15/0613Z TN06/0605Z"
    },
    {
      "icao": "LBPD",
      "alert": "OK",
      "vis_m": 9999,
      "fzfg": false,
      "metar_trigger": false,
      "taf_trigger": false,
      "metar": "METAR LBPD 060400Z AUTO 23003KT 9999 NCD 01/01 Q1000 NOSIG",
      "taf": "TAF LBPD 052300Z 0600/0624 VRB04KT 5000 BR SCT005 BKN015"
    },
    {
      "icao": "LBSF",
      "alert": "OK",
      "vis_m": 8000,
      "fzfg": false,
      "metar_trigger": false,
      "taf_trigger": false,
      "metar": "METAR LBSF 060400Z AUTO VRB01KT 8000 OVC011/// 03/02 Q1000 TEMPO 1500 BR SCT003",
      "taf": "TAF LBSF 052300Z 0600/0624 VRB04KT 5000 BR SCT005 BKN010"
    },
    {
      "icao": "LBWN",
      "alert": "OK",
      "vis_m": 4800,
      "fzfg": false,
      "metar_trigger": false,
      "taf_trigger": false,
      "metar": "METAR LBWN 060400Z AUTO 00000KT 4800 BR BKN017/// OVC025/// 08/08 Q0998 TEMPO 3000 BR",
      "taf": "TAF LBWN 052300Z 0600/0624 10010KT 6000 RA BKN020 OVC040"
    },
    {
      "icao": "LCLK",
      "alert": "OK",
      "vis_m": 9999,
      "fzfg": false,
      "metar_trigger": false,
      "taf_trigger": false,
      "metar": "METAR LCLK 060400Z 33006KT 300V020 CAVOK 14/13 Q1009 NOSIG",
      "taf": "TAF LCLK 052330Z 0600/0700 06008KT CAVOK"
    },
    {
      "icao": "LCPH",
      "alert": "OK",
      "vis_m": 9999,
      "fzfg": false,
      "metar_trigger": false,
      "taf_trigger": false,
      "metar": "METAR LCPH 060400Z 10016KT 090V160 9999 SCT080 17/13 Q1008 BECMG 8000 RA",
      "taf": "TAF LCPH 052330Z 0600/0700 12012KT 9999 FEW025"
    },
    {
      "icao": "LEAL",
      "alert": "OK",
      "vis_m": 9999,
      "fzfg": false,
      "metar_trigger": false,
      "taf_trigger": false,
      "metar": "METAR LEAL 060400Z 25005KT 210V280 CAVOK 13/07 Q1003 NOSIG",
      "taf": "TAF LEAL 052300Z 0600/0624 25010KT CAVOK TX18/0615Z TN08/0606Z"
    },
    {
      "icao": "LEBB",
      "alert": "OK",
      "vis_m": 9999,
      "fzfg": false,
      "metar_trigger": false,
      "taf_trigger": false,
      "metar": "METAR LEBB 060400Z COR 24008KT 160V290 CAVOK 14/05 Q0994 NOSIG",
      "taf": "TAF LEBB 052300Z 0600/0624 22009KT 9999 FEW040 TX17/0613Z TN11/0606Z"
    },
    {
      "icao": "LEBL",
      "alert": "OK",
      "vis_m": 9999,
      "fzfg": false,
      "metar_trigger": false,
      "taf_trigger": false,
      "metar": "METAR LEBL 060400Z 28011G21KT 230V310 CAVOK 15/05 Q0995 NOSIG",
      "taf": ""
    },
    {
      "icao": "LECH",
      "alert": "OK",
      "vis_m": 9999,
      "fzfg": false,
      "metar_trigger": false,
      "taf_trigger": false,
      "metar": "METAR LECH 060400Z AUTO 27013KT 240V310 CAVOK 14/00 Q0997",
      "taf": ""
    },
    {
      "icao": "LEMD",
      "alert": "OK",
      "vis_m": 9999,
      "fzfg": false,
      "metar_trigger": false,
      "taf_trigger": false,
      "metar": "METAR LEMD 060400Z 22013KT 9999 SCT020 08/06 Q1001 NOSIG",
      "taf": "TAF LEMD 052300Z 0600/0706 22010KT 9999 SCT020 TX10/0615Z TN06/0607Z"
    },
    {
      "icao": "LEMG",
      "alert": "OK",
      "vis_m": 9999,
      "fzfg": false,
      "metar_trigger": false,
      "taf_trigger": false,
      "metar": "METAR LEMG 060400Z VRB02KT 9999 FEW060 BKN080 11/09 Q1007 NOSIG",
      "taf": "TAF LEMG 052300Z 0600/0624 VRB03KT 9999 FEW030 TX20/0614Z TN13/0607Z"
    },
    {
      "icao": "LEVC",
      "alert": "OK",
      "vis_m": 9999,
      "fzfg": false,
      "metar_trigger": false,
      "taf_trigger": false,
      "metar": "METAR LEVC 060400Z 28018KT CAVOK 14/06 Q1000 NOSIG",
      "taf": "TAF LEVC 052300Z 0600/0624 27015KT 9999 FEW020 TX20/0614Z TN11/0606Z"
    },
    {
      "icao": "LEXJ",
      "alert": "OK",
      "vis_m": 9999,
      "fzfg": false,
      "metar_trigger": false,
      "taf_trigger": false,
      "metar": "METAR LEXJ 060400Z AUTO 23007KT 170V270 CAVOK 13/04 Q0993",
      "taf": "TAF LEXJ 060200Z 0603/0703 20009KT 9999 SCT070 TX15/0611Z TN09/0607Z"
    },
    {
      "icao": "LEZG",
      "alert": "OK",
      "vis_m": 9999,
      "fzfg": false,
      "metar_trigger": false,
      "taf_trigger": false,
      "metar": "METAR LEZG 060400Z 24016KT 9999 FEW050 12/05 Q0997 NOSIG",
      "taf": "TAF LEZG 052300Z 0600/0624 25010KT 9999 FEW050 TX16/0615Z TN08/0606Z"
    },
    {
      "icao": "LEZL",
      "alert": "OK",
      "vis_m": 7000,
      "fzfg": false,
      "metar_trigger": false,
      "taf_trigger": false,
      "metar": "METAR LEZL 060400Z AUTO 22006KT 7000 NSC 13/13 Q1006",
      "taf": "TAF LEZL 060200Z 0603/0703 22009KT 9999 FEW030 TX18/0615Z TN12/0607Z"
    },
    {
      "icao": "LFBD",
      "alert": "OK",
      "vis_m": 9999,
      "fzfg": false,
      "metar_trigger": false,
      "taf_trigger": false,
      "metar": "METAR LFBD 060400Z AUTO 24008KT 9999 BKN031 BKN220 10/08 Q0992 TEMPO 24015G25KT 3000 SHRA BKN010 SCT030CB",
      "taf": "TAF LFBD 052300Z 0600/0706 22010KT 9999 BKN040 TX15/0614Z TN08/0624Z"
    },
    {
      "icao": "LFLL",
      "alert": "OK",
      "vis_m": 9999,
      "fzfg": false,
      "metar_trigger": false,
      "taf_trigger": false,
      "metar": "METAR LFLL 060400Z 17008KT 9999 -RA NSC 09/07 Q0990 NOSIG",
      "taf": "TAF LFLL 052300Z 0600/0706 19008KT 9999 BKN045"
    },
    {
      "icao": "LFLS",
      "alert": "OK",
      "vis_m": 9999,
      "fzfg": false,
      "metar_trigger": false,
      "taf_trigger": false,
      "metar": "METAR LFLS 060400Z AUTO 08006KT 9999 -RA BKN041/// OVC052/// ///TCU 07/06 Q0991 BECMG BKN055",
      "taf": "TAF LFLS 060200Z 0603/0703 07007KT 9999 BKN055"
    },
    {
      "icao": "LFMN",
      "alert": "OK",
      "vis_m": 9999,
      "fzfg": false,
      "metar_trigger": false,
      "taf_trigger": false,
      "metar": "METAR LFMN 060400Z 35006KT 320V030 9999 FEW070 SCT130 09/05 Q0988 NOSIG",
      "taf": "TAF LFMN 060200Z 0603/0709 33010KT 9999 BKN070"
    },
    {
      "icao": "LFOB",
      "alert": "OK",
      "vis_m": 5000,
      "fzfg": false,
      "metar_trigger": false,
      "taf_trigger": false,
      "metar": "METAR LFOB 060400Z AUTO 15006KT 5000 -DZ BR BKN003 BKN008 BKN014 08/08 Q0983 TEMPO RADZ BECMG 22010KT",
      "taf": "TAF LFOB 052300Z 0600/0624 12010KT 9999 FEW010 BKN045"
    },
    {
      "icao": "LFPO",
      "alert": "OK",
      "vis_m": 9999,
      "fzfg": false,
      "metar_trigger": false,
      "taf_trigger": false,
      "metar": "METAR LFPO 060400Z AUTO 19006KT 160V220 9999 BKN006 OVC010 09/09 Q0984 TEMPO 4000 -RA BKN004",
      "taf": "TAF LFPO 052300Z 0600/0706 16005KT 9999 SCT012 BKN020"
    },
    {
      "icao": "LFSB",
      "alert": "OK",
      "vis_m": 3900,
      "fzfg": false,
      "metar_trigger": false,
      "taf_trigger": false,
      "metar": "METAR LFSB 060400Z AUTO 15003KT 3900 -RA BR SCT002 SCT024 BKN042 03/03 Q0989 NOSIG",
      "taf": ""
    },
    {
      "icao": "LGAV",
      "alert": "OK",
      "vis_m": 9999,
      "fzfg": false,
      "metar_trigger": false,
      "taf_trigger": false,
      "metar": "METAR LGAV 060350Z VRB02KT 9999 FEW025 11/07 Q1002 NOSIG",
      "taf": "TAF LGAV 052300Z 0600/0624 22005KT 9999 FEW025"
    },
    {
      "icao": "LGTS",
      "alert": "OK",
      "vis_m": 9999,
      "fzfg": false,
      "metar_trigger": false,
      "taf_trigger": false,
      "metar": "METAR LGTS 060350Z 12005KT 9999 SCT008 06/05 Q1000 NOSIG",
      "taf": "TAF LGTS 052300Z 0600/0624 VRB03KT 9999 FEW025"
    },
    {
      "icao": "LHBP",
      "alert": "OK",
      "vis_m": 5000,
      "fzfg": false,
      "metar_trigger": false,
      "taf_trigger": false,
      "metar": "METAR LHBP 060400Z 10007KT 5000 -RA BR BKN007 BKN043 05/04 Q0995 NOSIG",
      "taf": "TAF LHBP 052315Z 0600/0624 09007KT 9999 SCT020 BKN060"
    },
    {
      "icao": "LHDC",
      "alert": "OK",
      "vis_m": 3100,
      "fzfg": false,
      "metar_trigger": false,
      "taf_trigger": false,
      "metar": "METAR LHDC 060345Z AUTO 08003KT 3100 BR NSC 02/02 Q0997",
      "taf": ""
    },
    {
      "icao": "LIBD",
      "alert": "OK",
      "vis_m": 9999,
      "fzfg": false,
      "metar_trigger": false,
      "taf_trigger": false,
      "metar": "METAR LIBD 060350Z 17005KT CAVOK 11/09 Q0995",
      "taf": "TAF LIBD 052300Z 0600/0624 VRB05KT CAVOK"
    },
    {
      "icao": "LIBG",
      "alert": "OK",
      "vis_m": null,
      "fzfg": false,
      "metar_trigger": false,
      "taf_trigger": false,
      "metar": "",
      "taf": "TAF LIBG 051700Z 0518/0603 VRB05KT 9999 SCT030"
    },
    {
      "icao": "LIBP",
      "alert": "OK",
      "vis_m": 9999,
      "fzfg": false,
      "metar_trigger": false,
      "taf_trigger": false,
      "metar": "METAR LIBP 060350Z AUTO 26006KT 9999 -RA FEW039/// OVC065/// 10/10 Q0992",
      "taf": "TAF LIBP 052300Z 0600/0624 VRB05KT 9999 BKN030"
    },
    {
      "icao": "LIBR",
      "alert": "OK",
      "vis_m": 9999,
      "fzfg": false,
      "metar_trigger": false,
      "taf_trigger": false,
      "metar": "METAR LIBR 060350Z 19007KT 9999 -RA NSC 11/09 Q0998",
      "taf": "TAF LIBR 052300Z 0600/0624 20014KT CAVOK"
    },
    {
      "icao": "LICA",
      "alert": "OK",
      "vis_m": 9999,
      "fzfg": false,
      "metar_trigger": false,
      "taf_trigger": false,
      "metar": "METAR LICA 060350Z AUTO 07004KT 9999 -RA OVC021/// 11/11 Q0999 RERA",
      "taf": "TAF LICA 052300Z 0600/0624 VRB05KT 9999 SCT040"
    },
    {
      "icao": "LICC",
      "alert": "OK",
      "vis_m": 9999,
      "fzfg": false,
      "metar_trigger": false,
      "taf_trigger": false,
      "metar": "METAR LICC 060350Z 25008KT 9999 SCT070 14/11 Q1002",
      "taf": "TAF LICC 052300Z 0600/0624 25012KT 9999 FEW050"
    },
    {
      "icao": "LICJ",
      "alert": "OK",
      "vis_m": 9999,
      "fzfg": false,
      "metar_trigger": false,
      "taf_trigger": false,
      "metar": "METAR LICJ 060350Z 19023G35KT 9999 SCT050 18/12 Q0998",
      "taf": "TAF LICJ 052300Z 0600/0624 19018G35KT 9999 FEW030"
    },
    {
      "icao": "LIMC",
      "alert": "OK",
      "vis_m": 9999,
      "fzfg": false,
      "metar_trigger": false,
      "taf_trigger": false,
      "metar": "METAR LIMC 060350Z 36010KT 9999 -RA BKN042 06/06 Q0991 NOSIG",
      "taf": "TAF LIMC 052300Z 0600/0706 35010KT 6000 RA BKN030"
    },
    {
      "icao": "LIME",
      "alert": "OK",
      "vis_m": 9999,
      "fzfg": false,
      "metar_trigger": false,
      "taf_trigger": false,
      "metar": "METAR LIME 060350Z AUTO 26002KT 9999 -RA OVC033/// 07/07 Q0990",
      "taf": "TAF LIME 052300Z 0600/0624 VRB05KT 6000 RA BKN030"
    },
    {
      "icao": "LIMF",
      "alert": "OK",
      "vis_m": 4000,
      "fzfg": false,
      "metar_trigger": false,
      "taf_trigger": false,
      "metar": "METAR LIMF 060350Z 29007KT 4000 -RA BKN040 05/03 Q0992",
      "taf": "TAF LIMF 052300Z 0600/0624 VRB05KT 3000 RA BKN010"
    },
    {
      "icao": "LIMJ",
      "alert": "OK",
      "vis_m": 9999,
      "fzfg": false,
      "metar_trigger": false,
      "taf_trigger": false,
      "metar": "METAR LIMJ 060350Z AUTO 02014G25KT 350V050 9999 -RA OVC063/// 10/05 Q0987 RERA",
      "taf": "TAF LIMJ 052300Z 0600/0624 02016KT 4000 RA SCT020"
    },
    {
      "icao": "LIPE",
      "alert": "OK",
      "vis_m": 9999,
      "fzfg": false,
      "metar_trigger": false,
      "taf_trigger": false,
      "metar": "METAR LIPE 060350Z 08006KT 9999 -DZ BKN050 08/07 Q0988",
      "taf": "TAF LIPE 052300Z 0600/0624 27007KT 8000 BKN020"
    },
    {
      "icao": "LIPH",
      "alert": "OK",
      "vis_m": 9999,
      "fzfg": false,
      "metar_trigger": false,
      "taf_trigger": false,
      "metar": "METAR LIPH 060350Z AUTO 05007KT 9999 -RA BKN018/// OVC075/// 07/07 Q0992 REDZ",
      "taf": "TAF LIPH 052300Z 0600/0624 04009KT 8000 BKN040"
    },
    {
      "icao": "LIPQ",
      "alert": "OK",
      "vis_m": 9999,
      "fzfg": false,
      "metar_trigger": false,
      "taf_trigger": false,
      "metar": "METAR LIPQ 060350Z AUTO VRB02KT 9999 RA OVC018/// 08/07 Q0992",
      "taf": "TAF LIPQ 052300Z 0600/0624 03005KT 9999 BKN040"
    },
    {
      "icao": "LIPR",
      "alert": "OK",
      "vis_m": 9999,
      "fzfg": false,
      "metar_trigger": false,
      "taf_trigger": false,
      "metar": "METAR LIPR 060350Z AUTO 12006KT 9999 -RA BKN050/// 09/07 Q0989",
      "taf": "TAF LIPR 052300Z 0600/0624 15010KT 9999 BKN040"
    },
    {
      "icao": "LIPX",
      "alert": "OK",
      "vis_m": 9999,
      "fzfg": false,
      "metar_trigger": false,
      "taf_trigger": false,
      "metar": "METAR LIPX 060350Z 08010KT 9999 -RA BKN050 09/06 Q0990",
      "taf": "TAF LIPX 052300Z 0600/0624 08012KT 6000 RA BKN030"
    },
    {
      "icao": "LIPY",
      "alert": "OK",
      "vis_m": 9999,
      "fzfg": false,
      "metar_trigger": false,
      "taf_trigger": false,
      "metar": "METAR LIPY 060350Z AUTO 17003KT 120V200 9999 -RA OVC054/// 11/09 Q0990",
      "taf": "TAF LIPY 052300Z 0600/0624 15010KT 9999 BKN020"
    },
    {
      "icao": "LIPZ",
      "alert": "OK",
      "vis_m": 9999,
      "fzfg": false,
      "metar_trigger": false,
      "taf_trigger": false,
      "metar": "METAR LIPZ 060350Z 05011KT 9999 -RA BKN010 08/07 Q0991 NOSIG",
      "taf": "TAF LIPZ 052300Z 0600/0706 05012KT 9999 BKN030 BKN050"
    },
    {
      "icao": "LIRF",
      "alert": "OK",
      "vis_m": 9000,
      "fzfg": false,
      "metar_trigger": false,
      "taf_trigger": false,
      "metar": "METAR LIRF 060350Z 22014KT 9000 NSC 15/13 Q0990 NOSIG",
      "taf": ""
    },
    {
      "icao": "LIRN",
      "alert": "OK",
      "vis_m": 7000,
      "fzfg": false,
      "metar_trigger": false,
      "taf_trigger": false,
      "metar": "METAR LIRN 060350Z 19014KT 140V210 7000 -DZ BKN010 15/14 Q0992 NOSIG",
      "taf": "TAF LIRN 052300Z 0600/0624 VRB05KT 9999 SCT040"
    },
    {
      "icao": "LIRP",
      "alert": "OK",
      "vis_m": 8000,
      "fzfg": false,
      "metar_trigger": false,
      "taf_trigger": false,
      "metar": "METAR LIRP 060345Z 10015KT 8000 -RA SCT015 SCT025 11/10 Q0985 NOSIG",
      "taf": "TAF LIRP 052300Z 0600/0624 12010KT 8000 RA SCT025 BKN040"
    },
    {
      "icao": "LIRZ",
      "alert": "OK",
      "vis_m": 9999,
      "fzfg": false,
      "metar_trigger": false,
      "taf_trigger": false,
      "metar": "METAR LIRZ 060350Z AUTO 09005KT 060V130 9999 BKN062/// 09/07 Q0989",
      "taf": ""
    },
    {
      "icao": "LJLJ",
      "alert": "OK",
      "vis_m": 6000,
      "fzfg": false,
      "metar_trigger": false,
      "taf_trigger": false,
      "metar": "METAR LJLJ 060400Z 34003KT 6000 -RA FEW002 BKN030 03/03 Q0992 NOSIG",
      "taf": "TAF LJLJ 052300Z 0600/0700 VRB02KT 6000 FEW002 BKN025"
    },
    {
      "icao": "LKMT",
      "alert": "OK",
      "vis_m": 1400,
      "fzfg": false,
      "metar_trigger": false,
      "taf_trigger": false,
      "metar": "METAR LKMT 060400Z 00000KT 1400 R22/P2000N R04/P2000N BR OVC027 01/01 Q0993 NOSIG",
      "taf": "TAF LKMT 052300Z 0600/0624 VRB02KT 1600 BR OVC035"
    },
    {
      "icao": "LKPR",
      "alert": "OK",
      "vis_m": 5000,
      "fzfg": false,
      "metar_trigger": false,
      "taf_trigger": false,
      "metar": "METAR LKPR 060400Z 04004KT 5000 -DZ BR OVC005 02/02 Q0991 BECMG 4000 BR OVC004",
      "taf": "TAF LKPR 060200Z 0603/0709 16004KT 6000 SCT003 OVC008"
    },
    {
      "icao": "LLBG",
      "alert": "OK",
      "vis_m": 9999,
      "fzfg": false,
      "metar_trigger": false,
      "taf_trigger": false,
      "metar": "METAR LLBG 060420Z VRB02KT CAVOK 14/07 Q1011 NOSIG RMK BKN130",
      "taf": "TAF LLBG 052304Z 0600/0624 VRB03KT CAVOK"
    },
    {
      "icao": "LMML",
      "alert": "OK",
      "vis_m": 9000,
      "fzfg": false,
      "metar_trigger": false,
      "taf_trigger": false,
      "metar": "METAR LMML 060415Z 20014KT 170V230 9000 NSC 16/14 Q1003 NOSIG",
      "taf": "TAF LMML 052300Z 0600/0624 20009KT 9999 FEW013"
    },
    {
      "icao": "LOWW",
      "alert": "OK",
      "vis_m": 7000,
      "fzfg": false,
      "metar_trigger": false,
      "taf_trigger": false,
      "metar": "METAR LOWW 060350Z 15013KT 7000 FEW005 BKN006 04/03 Q0991 NOSIG",
      "taf": "TAF LOWW 060215Z 0603/0709 14010KT 5000 BR BKN012 TX05/0709Z TN03/0620Z"
    },
    {
      "icao": "LPFR",
      "alert": "OK",
      "vis_m": 9999,
      "fzfg": false,
      "metar_trigger": false,
      "taf_trigger": false,
      "metar": "METAR LPFR 060400Z 24011KT 9999 FEW020 FEW022CB 15/12 Q1005",
      "taf": "TAF LPFR 052300Z 0600/0624 26015KT 9999 SCT035"
    },
    {
      "icao": "LPMA",
      "alert": "OK",
      "vis_m": 9999,
      "fzfg": false,
      "metar_trigger": false,
      "taf_trigger": false,
      "metar": "METAR LPMA 060400Z 36004KT 9999 FEW015 15/08 Q1014",
      "taf": "TAF LPMA 052300Z 0600/0624 VRB05KT 9999 SCT016"
    },
    {
      "icao": "LPPR",
      "alert": "OK",
      "vis_m": 9999,
      "fzfg": false,
      "metar_trigger": false,
      "taf_trigger": false,
      "metar": "METAR LPPR 060400Z 22011KT 200V260 9999 -SHRA FEW018 FEW025CB BKN035 12/07 Q0998",
      "taf": "TAF LPPR 052300Z 0600/0624 24015KT 9999 SCT025"
    },
    {
      "icao": "LPPS",
      "alert": "OK",
      "vis_m": 9999,
      "fzfg": false,
      "metar_trigger": false,
      "taf_trigger": false,
      "metar": "METAR LPPS 060400Z 29020KT 9999 SCT014 SCT030 16/09 Q1014",
      "taf": "TAF LPPS 052300Z 0600/0706 27015KT 9999 SCT015 SCT030"
    },
    {
      "icao": "LPPT",
      "alert": "OK",
      "vis_m": 9999,
      "fzfg": false,
      "metar_trigger": false,
      "taf_trigger": false,
      "metar": "METAR LPPT 060400Z 23011KT 9999 FEW018 FEW025CB 11/09 Q1001 RESHRA RETS",
      "taf": "TAF LPPT 052300Z 0600/0706 25012KT 9999 SCT025"
    },
    {
      "icao": "LQBK",
      "alert": "OK",
      "vis_m": 450,
      "fzfg": false,
      "metar_trigger": false,
      "taf_trigger": false,
      "metar": "METAR LQBK 060400Z VRB02KT 0450 R16/0500N FG BKN003 03/03 Q0995 NOSIG",
      "taf": "TAF LQBK 052300Z 0600/0624 16005KT 7000 SCT007 TX08/0613Z TN02/0605Z"
    },
    {
      "icao": "LQSA",
      "alert": "OK",
      "vis_m": 6000,
      "fzfg": false,
      "metar_trigger": false,
      "taf_trigger": false,
      "metar": "METAR LQSA 060400Z 00000KT 6000 NSC 00/00 Q0995",
      "taf": "TAF LQSA 052300Z 0600/0624 VRB02KT 9999 BKN055 TX10/0613Z TN05/0605Z"
    },
    {
      "icao": "LQTZ",
      "alert": "OK",
      "vis_m": 100,
      "fzfg": false,
      "metar_trigger": false,
      "taf_trigger": false,
      "metar": "METAR LQTZ 060400Z VRB02KT 0100 R09/0450N FG VV003 00/00 Q0996",
      "taf": "TAF LQTZ 052300Z 0600/0624 VRB02KT 9999 SCT050 TX10/0613Z TN01/0605Z"
    },
    {
      "icao": "LRBC",
      "alert": "OK",
      "vis_m": 6000,
      "fzfg": false,
      "metar_trigger": false,
      "taf_trigger": false,
      "metar": "METAR LRBC 060400Z 17005KT 6000 -RA OVC004 03/02 Q1002",
      "taf": ""
    },
    {
      "icao": "LRBS",
      "alert": "OK",
      "vis_m": 1200,
      "fzfg": false,
      "metar_trigger": false,
      "taf_trigger": false,
      "metar": "METAR LRBS 060400Z 24006KT 1200 R07/2000N -DZ BR OVC002 02/02 Q1000 BECMG 3000 BR",
      "taf": ""
    },
    {
      "icao": "LRBV",
      "alert": "OK",
      "vis_m": 9999,
      "fzfg": false,
      "metar_trigger": false,
      "taf_trigger": false,
      "metar": "METAR LRBV 060400Z AUTO 11005KT 080V170 9999 -RA SCT050/// 03/02 Q0998",
      "taf": "TAF LRBV 060200Z 0603/0612 VRB04KT 9999 BKN045"
    },
    {
      "icao": "LRCL",
      "alert": "OK",
      "vis_m": 9999,
      "fzfg": false,
      "metar_trigger": false,
      "taf_trigger": false,
      "metar": "METAR LRCL 060400Z 06004KT 9999 BKN056 05/03 Q0997",
      "taf": "TAF LRCL 060200Z 0603/0612 VRB04KT 9999 BKN045"
    },
    {
      "icao": "LRCV",
      "alert": "OK",
      "vis_m": 550,
      "fzfg": false,
      "metar_trigger": false,
      "taf_trigger": false,
      "metar": "METAR LRCV 060400Z 25003KT 0550 R26/0650N FG VV002 02/01 Q1000",
      "taf": "TAF LRCV 060200Z 0603/0612 VRB04KT 0350 FG VV001"
    },
    {
      "icao": "LRIA",
      "alert": "OK",
      "vis_m": 3500,
      "fzfg": false,
      "metar_trigger": false,
      "taf_trigger": false,
      "metar": "METAR LRIA 060400Z 10012KT 3500 BR OVC002 00/M01 Q1003",
      "taf": "TAF LRIA 060200Z 0603/0612 11016KT 5000 -RADZ BR OVC005"
    },
    {
      "icao": "LROP",
      "alert": "OK",
      "vis_m": 3500,
      "fzfg": false,
      "metar_trigger": false,
      "taf_trigger": false,
      "metar": "METAR LROP 060400Z VRB03KT 3500 -RA BR OVC002 04/04 Q0999 TEMPO 3000 -RA BR OVC001",
      "taf": "TAF LROP 052300Z 0600/0624 08010KT 5000 -RA BR OVC002"
    },
    {
      "icao": "LRSB",
      "alert": "OK",
      "vis_m": 300,
      "fzfg": false,
      "metar_trigger": false,
      "taf_trigger": false,
      "metar": "METAR LRSB 060400Z 22003KT 0300 R27/0550N FG FEW001 BKN003 01/01 Q0997",
      "taf": ""
    },
    {
      "icao": "LRSM",
      "alert": "OK",
      "vis_m": 9999,
      "fzfg": false,
      "metar_trigger": false,
      "taf_trigger": false,
      "metar": "METAR LRSM 060400Z AUTO 15003KT 9999 -SHRA SCT034/// BKN046/// 08/05 Q0997",
      "taf": ""
    },
    {
      "icao": "LRSV",
      "alert": "OK",
      "vis_m": 400,
      "fzfg": false,
      "metar_trigger": false,
      "taf_trigger": false,
      "metar": "METAR LRSV 060400Z 15009KT 0400 R34/0750N -RA FG VV002 01/00 Q1000",
      "taf": "TAF LRSV 060200Z 0603/0612 12012KT 0800 -DZ FG OVC002"
    },
    {
      "icao": "LRTM",
      "alert": "OK",
      "vis_m": 9999,
      "fzfg": false,
      "metar_trigger": false,
      "taf_trigger": false,
      "metar": "METAR LRTM 060400Z AUTO 06002KT 9999 FEW036/// 03/02 Q0998",
      "taf": "TAF LRTM 060200Z 0603/0612 07006KT 9999 BKN040"
    },
    {
      "icao": "LRTR",
      "alert": "OK",
      "vis_m": 9999,
      "fzfg": false,
      "metar_trigger": false,
      "taf_trigger": false,
      "metar": "METAR LRTR 060400Z 11006KT CAVOK 04/04 Q0997",
      "taf": "TAF LRTR 052300Z 0600/0624 11006KT CAVOK"
    },
    {
      "icao": "LTAC",
      "alert": "OK",
      "vis_m": 9999,
      "fzfg": false,
      "metar_trigger": false,
      "taf_trigger": false,
      "metar": "METAR LTAC 060350Z 21012KT 9999 -SHRA FEW023 BKN035 BKN080 05/02 Q1008 NOSIG",
      "taf": "TAF LTAC 052240Z 0600/0624 17008KT 9999 -SHRA BKN030 BKN080"
    },
    {
      "icao": "LTFM",
      "alert": "OK",
      "vis_m": 9999,
      "fzfg": false,
      "metar_trigger": false,
      "taf_trigger": false,
      "metar": "METAR LTFM 060350Z 20011KT 9999 SCT035 BKN080 11/07 Q1000 RESHRA NOSIG",
      "taf": "TAF LTFM 052240Z 0600/0706 20008KT 9999 SCT035 BKN080"
    },
    {
      "icao": "LUKK",
      "alert": "OK",
      "vis_m": 9000,
      "fzfg": false,
      "metar_trigger": false,
      "taf_trigger": false,
      "metar": "METAR LUKK 060400Z 09016KT 9000 -FZRA OVC007 M04/M05 Q1005 NOSIG",
      "taf": "TAF LUKK 052317Z 0600/0624 09012KT 8000 -FZRA OVC006"
    },
    {
      "icao": "LWOH",
      "alert": "OK",
      "vis_m": null,
      "fzfg": false,
      "metar_trigger": false,
      "taf_trigger": false,
      "metar": "",
      "taf": "TAF LWOH 060240Z 0603/0703 14005KT 9999 BKN040"
    },
    {
      "icao": "LWSK",
      "alert": "OK",
      "vis_m": 9000,
      "fzfg": false,
      "metar_trigger": false,
      "taf_trigger": false,
      "metar": "METAR LWSK 060420Z 36003KT 300V020 9000 BKN020 04/03 Q1000 NOSIG",
      "taf": ""
    },
    {
      "icao": "LYBE",
      "alert": "OK",
      "vis_m": 9999,
      "fzfg": false,
      "metar_trigger": false,
      "taf_trigger": false,
      "metar": "METAR LYBE 060400Z 10004KT CAVOK 02/01 Q0996 NOSIG",
      "taf": "TAF LYBE 052300Z 0600/0624 09004KT CAVOK TX14/0613Z TN04/0606Z"
    },
    {
      "icao": "LYNI",
      "alert": "OK",
      "vis_m": 4000,
      "fzfg": false,
      "metar_trigger": false,
      "taf_trigger": false,
      "metar": "METAR LYNI 060400Z VRB02KT 4000 BR NSC M00/M00 Q0999 NOSIG",
      "taf": "TAF LYNI 052300Z 0600/0624 10004KT 8000 NSC TX12/0613Z TN01/0606Z"
    },
    {
      "icao": "LYPG",
      "alert": "OK",
      "vis_m": 2500,
      "fzfg": false,
      "metar_trigger": false,
      "taf_trigger": false,
      "metar": "METAR LYPG 060400Z 08003KT 2500 BR FEW010 SCT033 BKN060 08/08 Q0999 NOSIG",
      "taf": "TAF LYPG 052300Z 0600/0624 VRB02KT 6000 FEW013 BKN040 OVC070 TX14/0615Z TN07/0605Z"
    },
    {
      "icao": "LZIB",
      "alert": "OK",
      "vis_m": 6000,
      "fzfg": false,
      "metar_trigger": false,
      "taf_trigger": false,
      "metar": "METAR LZIB 060400Z 11006KT 6000 OVC007 04/04 Q0992 NOSIG",
      "taf": ""
    },
    {
      "icao": "LZKZ",
      "alert": "OK",
      "vis_m": 9999,
      "fzfg": false,
      "metar_trigger": false,
      "taf_trigger": false,
      "metar": "METAR LZKZ 060400Z 35005KT CAVOK 05/04 Q0996 NOSIG",
      "taf": "TAF LZKZ 052315Z 0600/0700 01006KT 9999 OVC040"
    },
    {
      "icao": "LZTT",
      "alert": "OK",
      "vis_m": 5000,
      "fzfg": false,
      "metar_trigger": false,
      "taf_trigger": false,
      "metar": "METAR LZTT 060400Z 00000KT 5000 BR SCT005 OVC020 01/01 Q0995",
      "taf": ""
    },
    {
      "icao": "OEJN",
      "alert": "OK",
      "vis_m": 9999,
      "fzfg": false,
      "metar_trigger": false,
      "taf_trigger": false,
      "metar": "METAR OEJN 060400Z 00000KT 9999 FEW040 24/16 Q1012 NOSIG",
      "taf": "TAF OEJN 052300Z 0600/0706 36006KT 9999 SCT040"
    },
    {
      "icao": "OEMA",
      "alert": "OK",
      "vis_m": 8000,
      "fzfg": false,
      "metar_trigger": false,
      "taf_trigger": false,
      "metar": "METAR OEMA 060400Z 06004KT 8000 BKN040 20/00 Q1016 NOSIG",
      "taf": "TAF OEMA 052300Z 0600/0706 12006KT 7000 SCT040"
    },
    {
      "icao": "OJAI",
      "alert": "OK",
      "vis_m": 4000,
      "fzfg": false,
      "metar_trigger": false,
      "taf_trigger": false,
      "metar": "METAR OJAI 060300Z 05005KT 4000 HZ NSC 10/03 Q1013 NOSIG",
      "taf": ""
    },
    {
      "icao": "OMAA",
      "alert": "OK",
      "vis_m": 9999,
      "fzfg": false,
      "metar_trigger": false,
      "taf_trigger": false,
      "metar": "METAR OMAA 060400Z 08004KT CAVOK 18/14 Q1020 NOSIG",
      "taf": "TAF OMAA 052300Z 0600/0706 05005KT 8000 NSC"
    },
    {
      "icao": "OMDB",
      "alert": "OK",
      "vis_m": 8000,
      "fzfg": false,
      "metar_trigger": false,
      "taf_trigger": false,
      "metar": "METAR OMDB 060400Z 10005KT 8000 NSC 20/15 Q1020 NOSIG",
      "taf": "TAF OMDB 052300Z 0600/0706 11005KT 8000 NSC"
    },
    {
      "icao": "UAAA",
      "alert": "OK",
      "vis_m": 9999,
      "fzfg": false,
      "metar_trigger": false,
      "taf_trigger": false,
      "metar": "METAR UAAA 060400Z VRB01MPS 9999 BKN033CB OVC100 08/M03 Q1019 NOSIG",
      "taf": "TAF UAAA 052305Z 0600/0624 20003MPS 3100 BR FU SCT050CB BKN100 TX03/0607Z TNM03/0602Z"
    },
    {
      "icao": "UBBB",
      "alert": "OK",
      "vis_m": 6000,
      "fzfg": false,
      "metar_trigger": false,
      "taf_trigger": false,
      "metar": "METAR UBBB 060400Z 15006KT 6000 OVC024 04/03 Q1022 NOSIG",
      "taf": "TAF UBBB 052226Z 0523/0624 VRB04KT 3000 BR BKN006 OVC020 TX08/0611Z TN02/0600Z"
    },
    {
      "icao": "UDSG",
      "alert": "OK",
      "vis_m": 9999,
      "fzfg": false,
      "metar_trigger": false,
      "taf_trigger": false,
      "metar": "METAR UDSG 060400Z 08002KT 9999 NSC M14/M17 Q1021 NOSIG",
      "taf": "TAF UDSG 052300Z 0600/0624 VRB06KT 9999 FEW040"
    },
    {
      "icao": "UDYZ",
      "alert": "OK",
      "vis_m": 9999,
      "fzfg": false,
      "metar_trigger": false,
      "taf_trigger": false,
      "metar": "METAR UDYZ 060400Z 08002KT 9999 NSC M04/M05 Q1022 NOSIG",
      "taf": "TAF UDYZ 052300Z 0600/0624 VRB04KT 2000 BR NSC"
    },
    {
      "icao": "UGKO",
      "alert": "OK",
      "vis_m": 9999,
      "fzfg": false,
      "metar_trigger": false,
      "taf_trigger": false,
      "metar": "METAR UGKO 060400Z 09023KT CAVOK 07/M03 Q1012 NOSIG",
      "taf": "TAF UGKO 052300Z 0600/0624 08029G45KT CAVOK TX15/0611Z TN05/0604Z"
    }
  ]
}