{
  "ts_utc": "2026-06-21T16:16:48Z",
  "threshold_m": 150,
  "source": "stations_override.txt (ICAO list) + aviationweather.gov (METAR/TAF raw)",
  "station_count": 159,
  "stations": [
    {
      "icao": "BIKF",
      "alert": "OK",
      "vis_m": 9999,
      "fzfg": false,
      "metar_trigger": false,
      "taf_trigger": false,
      "metar": "METAR BIKF 211600Z 22010KT 9999 SCT023 BKN070 BKN200 11/05 Q1018",
      "taf": "TAF BIKF 211359Z 2115/2215 23012KT 9999 FEW020 BKN030 TX11/2115Z TN08/2204Z"
    },
    {
      "icao": "BKPR",
      "alert": "OK",
      "vis_m": 9999,
      "fzfg": false,
      "metar_trigger": false,
      "taf_trigger": false,
      "metar": "METAR BKPR 211600Z 28003KT 250V310 9999 FEW065 28/15 Q1023 NOSIG",
      "taf": "TAF BKPR 211130Z 2112/2212 34008KT 9999 FEW050"
    },
    {
      "icao": "EBCI",
      "alert": "OK",
      "vis_m": 9999,
      "fzfg": false,
      "metar_trigger": false,
      "taf_trigger": false,
      "metar": "METAR EBCI 211550Z 36004KT 310V040 9999 FEW045 30/20 Q1024 NOSIG",
      "taf": "TAF EBCI 211118Z 2112/2218 VRB04KT CAVOK"
    },
    {
      "icao": "EDDB",
      "alert": "OK",
      "vis_m": 9999,
      "fzfg": false,
      "metar_trigger": false,
      "taf_trigger": false,
      "metar": "METAR EDDB 211550Z AUTO 15005KT 120V180 CAVOK 22/20 Q1025 NOSIG",
      "taf": "TAF EDDB 211100Z 2112/2212 32007KT 9999 FEW035"
    },
    {
      "icao": "EDDH",
      "alert": "OK",
      "vis_m": 9999,
      "fzfg": false,
      "metar_trigger": false,
      "taf_trigger": false,
      "metar": "METAR EDDH 211550Z AUTO 05010KT 9999 FEW030 24/17 Q1026 NOSIG",
      "taf": "TAF EDDH 211100Z 2112/2218 02005KT CAVOK"
    },
    {
      "icao": "EDDK",
      "alert": "OK",
      "vis_m": 9999,
      "fzfg": false,
      "metar_trigger": false,
      "taf_trigger": false,
      "metar": "METAR EDDK 211550Z AUTO 01006KT 330V070 CAVOK 32/19 Q1023 NOSIG",
      "taf": "TAF EDDK 211100Z 2112/2218 01006KT CAVOK"
    },
    {
      "icao": "EDDN",
      "alert": "OK",
      "vis_m": 9999,
      "fzfg": false,
      "metar_trigger": false,
      "taf_trigger": false,
      "metar": "METAR EDDN 211550Z AUTO 05004KT 010V110 CAVOK 26/19 Q1025 TEMPO SHRA SCT045CB",
      "taf": ""
    },
    {
      "icao": "EDDS",
      "alert": "OK",
      "vis_m": 9999,
      "fzfg": false,
      "metar_trigger": false,
      "taf_trigger": false,
      "metar": "METAR EDDS 211550Z AUTO 06004KT CAVOK 33/13 Q1024 TEMPO 27020G35KT TSRAGR",
      "taf": "TAF EDDS 211100Z 2112/2212 VRB03KT CAVOK"
    },
    {
      "icao": "EDFH",
      "alert": "OK",
      "vis_m": 9999,
      "fzfg": false,
      "metar_trigger": false,
      "taf_trigger": false,
      "metar": "METAR EDFH 211550Z 27005KT 170V320 9999 VCTS SCT070CB 31/16 Q1025",
      "taf": "TAF EDFH 211100Z 2112/2212 15004KT CAVOK"
    },
    {
      "icao": "EDJA",
      "alert": "OK",
      "vis_m": 9999,
      "fzfg": false,
      "metar_trigger": false,
      "taf_trigger": false,
      "metar": "METAR EDJA 211550Z 33004KT CAVOK 29/14 Q1026",
      "taf": "TAF EDJA 211400Z 2115/2124 33006KT CAVOK"
    },
    {
      "icao": "EDLW",
      "alert": "OK",
      "vis_m": 9999,
      "fzfg": false,
      "metar_trigger": false,
      "taf_trigger": false,
      "metar": "METAR EDLW 211550Z 03006KT 350V100 CAVOK 28/18 Q1024",
      "taf": "TAF EDLW 211100Z 2112/2212 03005KT CAVOK"
    },
    {
      "icao": "EDNY",
      "alert": "OK",
      "vis_m": 9999,
      "fzfg": false,
      "metar_trigger": false,
      "taf_trigger": false,
      "metar": "METAR EDNY 211550Z 24004KT CAVOK 32/19 Q1024",
      "taf": "TAF EDNY 211400Z 2115/2124 04004KT CAVOK"
    },
    {
      "icao": "EDSB",
      "alert": "OK",
      "vis_m": 9999,
      "fzfg": false,
      "metar_trigger": false,
      "taf_trigger": false,
      "metar": "METAR EDSB 211550Z 01004KT 320V050 CAVOK 35/16 Q1022",
      "taf": "TAF EDSB 211100Z 2112/2212 35007KT CAVOK"
    },
    {
      "icao": "EETN",
      "alert": "OK",
      "vis_m": 9999,
      "fzfg": false,
      "metar_trigger": false,
      "taf_trigger": false,
      "metar": "METAR EETN 211550Z 28012KT 9999 FEW035TCU 22/16 Q1018 NOSIG",
      "taf": "TAF EETN 211130Z 2112/2212 26012KT 9999 SCT030"
    },
    {
      "icao": "EFTU",
      "alert": "OK",
      "vis_m": 9999,
      "fzfg": false,
      "metar_trigger": false,
      "taf_trigger": false,
      "metar": "METAR EFTU 211550Z AUTO 32007KT 280V010 CAVOK 22/10 Q1018",
      "taf": "TAF EFTU 211427Z 2115/2215 30009KT CAVOK"
    },
    {
      "icao": "EGBB",
      "alert": "OK",
      "vis_m": 9999,
      "fzfg": false,
      "metar_trigger": false,
      "taf_trigger": false,
      "metar": "METAR EGBB 211550Z VRB04KT 9999 BKN037 25/17 Q1026",
      "taf": "TAF EGBB 211058Z 2112/2212 05004KT 9999 FEW040"
    },
    {
      "icao": "EGGP",
      "alert": "OK",
      "vis_m": 9999,
      "fzfg": false,
      "metar_trigger": false,
      "taf_trigger": false,
      "metar": "METAR EGGP 211550Z VRB02KT CAVOK 25/14 Q1026",
      "taf": "TAF EGGP 211058Z 2112/2212 08008KT 9999 SCT045"
    },
    {
      "icao": "EGGW",
      "alert": "OK",
      "vis_m": 9999,
      "fzfg": false,
      "metar_trigger": false,
      "taf_trigger": false,
      "metar": "METAR EGGW 211550Z AUTO 08009KT 050V120 9999 SCT036 BKN047 25/18 Q1026",
      "taf": "TAF EGGW 211059Z 2112/2212 08008KT 9999 FEW030"
    },
    {
      "icao": "EGKK",
      "alert": "OK",
      "vis_m": 9999,
      "fzfg": false,
      "metar_trigger": false,
      "taf_trigger": false,
      "metar": "METAR EGKK 211550Z 08007KT 040V130 9999 FEW049 28/19 Q1024",
      "taf": "TAF EGKK 211057Z 2112/2218 13004KT 9999 FEW040"
    },
    {
      "icao": "EGNM",
      "alert": "OK",
      "vis_m": 9999,
      "fzfg": false,
      "metar_trigger": false,
      "taf_trigger": false,
      "metar": "METAR EGNM 211550Z 10008KT 060V130 9999 FEW029 21/15 Q1027",
      "taf": "TAF EGNM 211057Z 2112/2212 08006KT 9999 FEW025"
    },
    {
      "icao": "EGPD",
      "alert": "OK",
      "vis_m": 9999,
      "fzfg": false,
      "metar_trigger": false,
      "taf_trigger": false,
      "metar": "METAR EGPD 211550Z AUTO 09010KT 9999 NCD 16/08 Q1030",
      "taf": "TAF EGPD 211055Z 2112/2212 29006KT 9999 FEW045"
    },
    {
      "icao": "EGPF",
      "alert": "OK",
      "vis_m": 9999,
      "fzfg": false,
      "metar_trigger": false,
      "taf_trigger": false,
      "metar": "METAR EGPF 211550Z AUTO 25003KT 200V320 9999 NCD 21/10 Q1028",
      "taf": "TAF EGPF 211054Z 2112/2212 VRB03KT 9999 SCT040"
    },
    {
      "icao": "EHBK",
      "alert": "OK",
      "vis_m": 9999,
      "fzfg": false,
      "metar_trigger": false,
      "taf_trigger": false,
      "metar": "METAR EHBK 211555Z AUTO 33005KT 270V360 9999 NSC 30/20 Q1024 NOSIG",
      "taf": "TAF EHBK 211101Z 2112/2218 35005KT CAVOK"
    },
    {
      "icao": "EHEH",
      "alert": "OK",
      "vis_m": 9999,
      "fzfg": false,
      "metar_trigger": false,
      "taf_trigger": false,
      "metar": "METAR EHEH 211555Z AUTO 04005KT 340V080 9999 OVC290 29/19 Q1024 BLU NOSIG",
      "taf": "TAF EHEH 211150Z 2112/2218 04006KT 9999 FEW035"
    },
    {
      "icao": "EKBI",
      "alert": "OK",
      "vis_m": 9999,
      "fzfg": false,
      "metar_trigger": false,
      "taf_trigger": false,
      "metar": "METAR EKBI 211550Z 29009KT 260V340 9999 FEW046 22/09 Q1027",
      "taf": "TAF EKBI 211427Z 2115/2215 30005KT 9999 FEW040"
    },
    {
      "icao": "EKCH",
      "alert": "OK",
      "vis_m": 9999,
      "fzfg": false,
      "metar_trigger": false,
      "taf_trigger": false,
      "metar": "METAR EKCH 211550Z AUTO 02013KT 9999 NCD 20/09 Q1026 NOSIG",
      "taf": "TAF EKCH 211427Z 2115/2215 01012KT CAVOK"
    },
    {
      "icao": "ENAL",
      "alert": "OK",
      "vis_m": 9999,
      "fzfg": false,
      "metar_trigger": false,
      "taf_trigger": false,
      "metar": "METAR ENAL 211550Z 24024KT 9999 SCT035TCU 14/09 Q1024",
      "taf": "TAF ENAL 211400Z 2115/2124 24022KT 9999 FEW025TCU SCT040"
    },
    {
      "icao": "ENBR",
      "alert": "OK",
      "vis_m": 9999,
      "fzfg": false,
      "metar_trigger": false,
      "taf_trigger": false,
      "metar": "METAR ENBR 211550Z VRB07KT 9999 SCT026 14/07 Q1028 NOSIG RMK WIND 1200FT 27012KT",
      "taf": "TAF ENBR 211100Z 2112/2212 27008KT 9999 SCT025"
    },
    {
      "icao": "ENGM",
      "alert": "OK",
      "vis_m": 9999,
      "fzfg": false,
      "metar_trigger": false,
      "taf_trigger": false,
      "metar": "METAR ENGM 211550Z 29007KT 220V360 CAVOK 21/05 Q1022 NOSIG",
      "taf": "TAF ENGM 211100Z 2112/2212 26007KT CAVOK"
    },
    {
      "icao": "ENHD",
      "alert": "OK",
      "vis_m": 9999,
      "fzfg": false,
      "metar_trigger": false,
      "taf_trigger": false,
      "metar": "METAR ENHD 211550Z 29010KT 9999 FEW014 15/10 Q1029",
      "taf": "TAF ENHD 211400Z 2115/2122 30008KT 9999 FEW015"
    },
    {
      "icao": "ENTC",
      "alert": "OK",
      "vis_m": 9999,
      "fzfg": false,
      "metar_trigger": false,
      "taf_trigger": false,
      "metar": "METAR ENTC 211550Z 22023KT 9999 VCSH FEW037 BKN046 12/06 Q1009 TEMPO SHRA BKN012CB RMK WIND 2600FT 20025G35KT",
      "taf": ""
    },
    {
      "icao": "ENTO",
      "alert": "OK",
      "vis_m": 9999,
      "fzfg": false,
      "metar_trigger": false,
      "taf_trigger": false,
      "metar": "METAR ENTO 211550Z 27009KT 240V300 CAVOK 22/06 Q1023 NOSIG",
      "taf": ""
    },
    {
      "icao": "ENVA",
      "alert": "OK",
      "vis_m": 9999,
      "fzfg": false,
      "metar_trigger": false,
      "taf_trigger": false,
      "metar": "METAR ENVA 211550Z 27015KT 9999 -RA FEW056CB 15/09 Q1022 RMK WIND 670FT 27011KT",
      "taf": ""
    },
    {
      "icao": "ENZV",
      "alert": "OK",
      "vis_m": 9999,
      "fzfg": false,
      "metar_trigger": false,
      "taf_trigger": false,
      "metar": "METAR ENZV 211550Z 31013KT CAVOK 16/08 Q1029 NOSIG",
      "taf": "TAF ENZV 211100Z 2112/2212 25008KT 9999 SCT015"
    },
    {
      "icao": "EPGD",
      "alert": "OK",
      "vis_m": 6000,
      "fzfg": false,
      "metar_trigger": false,
      "taf_trigger": false,
      "metar": "METAR EPGD 211600Z 21009KT 6000 -TSRA SCT018CB 19/19 Q1024 RETSRA",
      "taf": "TAF EPGD 211130Z 2112/2212 VRB02KT 9999 SCT040"
    },
    {
      "icao": "EPKK",
      "alert": "OK",
      "vis_m": 9999,
      "fzfg": false,
      "metar_trigger": false,
      "taf_trigger": false,
      "metar": "METAR EPKK 211600Z 17003KT 150V210 CAVOK 24/19 Q1024",
      "taf": "TAF EPKK 211430Z 2115/2215 30010KT 9999 SCT040"
    },
    {
      "icao": "EPKT",
      "alert": "OK",
      "vis_m": 9999,
      "fzfg": false,
      "metar_trigger": false,
      "taf_trigger": false,
      "metar": "METAR EPKT 211600Z 01005KT CAVOK 26/19 Q1024",
      "taf": "TAF EPKT 211130Z 2112/2212 27010KT CAVOK"
    },
    {
      "icao": "EPLB",
      "alert": "OK",
      "vis_m": 9999,
      "fzfg": false,
      "metar_trigger": false,
      "taf_trigger": false,
      "metar": "METAR EPLB 211600Z 11005KT CAVOK 32/14 Q1022",
      "taf": "TAF EPLB 211130Z 2112/2212 12005KT CAVOK"
    },
    {
      "icao": "EPMO",
      "alert": "OK",
      "vis_m": 9999,
      "fzfg": false,
      "metar_trigger": false,
      "taf_trigger": false,
      "metar": "METAR EPMO 211600Z 35005KT 320V020 9999 FEW035TCU 28/21 Q1023",
      "taf": "TAF EPMO 211130Z 2112/2212 34008KT CAVOK"
    },
    {
      "icao": "EPPO",
      "alert": "OK",
      "vis_m": 9999,
      "fzfg": false,
      "metar_trigger": false,
      "taf_trigger": false,
      "metar": "METAR EPPO 211600Z 33008KT CAVOK 25/17 Q1024",
      "taf": ""
    },
    {
      "icao": "EPRA",
      "alert": "OK",
      "vis_m": 8000,
      "fzfg": false,
      "metar_trigger": false,
      "taf_trigger": false,
      "metar": "METAR EPRA 211600Z VRB02KT 8000 -SHRA BKN055CB 23/19 Q1022",
      "taf": "TAF EPRA 211430Z 2115/2124 28010KT CAVOK"
    },
    {
      "icao": "EPRZ",
      "alert": "OK",
      "vis_m": 9999,
      "fzfg": false,
      "metar_trigger": false,
      "taf_trigger": false,
      "metar": "METAR EPRZ 211600Z 26006KT 9999 SCT050CB 25/18 Q1022",
      "taf": "TAF EPRZ 211130Z 2112/2212 13004KT CAVOK"
    },
    {
      "icao": "EPSC",
      "alert": "OK",
      "vis_m": 9999,
      "fzfg": false,
      "metar_trigger": false,
      "taf_trigger": false,
      "metar": "METAR EPSC 211600Z 35008KT CAVOK 25/18 Q1024",
      "taf": "TAF EPSC 211130Z 2112/2212 34016KT CAVOK"
    },
    {
      "icao": "EPSY",
      "alert": "OK",
      "vis_m": 9999,
      "fzfg": false,
      "metar_trigger": false,
      "taf_trigger": false,
      "metar": "METAR EPSY 211600Z 31004KT 280V340 9999 SCT055TCU 26/18 Q1023",
      "taf": "TAF EPSY 211430Z 2115/2124 VRB02KT CAVOK"
    },
    {
      "icao": "EPWA",
      "alert": "OK",
      "vis_m": 9999,
      "fzfg": false,
      "metar_trigger": false,
      "taf_trigger": false,
      "metar": "METAR EPWA 211600Z 34007KT 310V020 CAVOK 29/18 Q1022 NOSIG",
      "taf": "TAF EPWA 211430Z 2115/2215 36005KT CAVOK"
    },
    {
      "icao": "EPWR",
      "alert": "OK",
      "vis_m": 9999,
      "fzfg": false,
      "metar_trigger": false,
      "taf_trigger": false,
      "metar": "METAR EPWR 211600Z 36006KT 320V030 9999 FEW046 30/18 Q1023",
      "taf": "TAF EPWR 211430Z 2115/2215 32006KT CAVOK"
    },
    {
      "icao": "ESGG",
      "alert": "OK",
      "vis_m": 9999,
      "fzfg": false,
      "metar_trigger": false,
      "taf_trigger": false,
      "metar": "METAR ESGG 211550Z 30011KT 270V340 CAVOK 18/07 Q1025",
      "taf": "TAF ESGG 211430Z 2115/2215 28010KT CAVOK"
    },
    {
      "icao": "ESKN",
      "alert": "OK",
      "vis_m": 9999,
      "fzfg": false,
      "metar_trigger": false,
      "taf_trigger": false,
      "metar": "METAR ESKN 211550Z 26014KT CAVOK 24/07 Q1020",
      "taf": "TAF ESKN 211430Z 2115/2215 27011KT CAVOK"
    },
    {
      "icao": "ESMS",
      "alert": "OK",
      "vis_m": 9999,
      "fzfg": false,
      "metar_trigger": false,
      "taf_trigger": false,
      "metar": "METAR ESMS 211550Z 30016KT CAVOK 21/06 Q1025",
      "taf": "TAF ESMS 211427Z 2115/2215 32012KT 9999 FEW040"
    },
    {
      "icao": "ESSA",
      "alert": "OK",
      "vis_m": 9999,
      "fzfg": false,
      "metar_trigger": false,
      "taf_trigger": false,
      "metar": "METAR ESSA 211550Z 25010KT CAVOK 23/08 Q1019 NOSIG",
      "taf": "TAF ESSA 211430Z 2115/2215 26010KT CAVOK"
    },
    {
      "icao": "EYKA",
      "alert": "OK",
      "vis_m": 9999,
      "fzfg": false,
      "metar_trigger": false,
      "taf_trigger": false,
      "metar": "METAR EYKA 211550Z 25005KT CAVOK 25/20 Q1021",
      "taf": "TAF EYKA 211129Z 2112/2212 VRB03KT 8000 NSC"
    },
    {
      "icao": "EYPA",
      "alert": "OK",
      "vis_m": 9999,
      "fzfg": false,
      "metar_trigger": false,
      "taf_trigger": false,
      "metar": "METAR EYPA 211550Z VRB02KT CAVOK 24/18 Q1022",
      "taf": "TAF EYPA 211100Z 2112/2212 VRB03KT 6000 NSC"
    },
    {
      "icao": "EYVI",
      "alert": "OK",
      "vis_m": 9999,
      "fzfg": false,
      "metar_trigger": false,
      "taf_trigger": false,
      "metar": "METAR EYVI 211550Z 30006KT 260V330 CAVOK 26/16 Q1022 NOSIG",
      "taf": "TAF EYVI 211123Z 2112/2212 VRB03KT 9000 NSC"
    },
    {
      "icao": "GCFV",
      "alert": "OK",
      "vis_m": 9999,
      "fzfg": false,
      "metar_trigger": false,
      "taf_trigger": false,
      "metar": "METAR GCFV 211600Z 05015KT 9999 FEW025 23/18 Q1019",
      "taf": "TAF GCFV 211400Z 2115/2215 06012KT 9999 FEW025 TX26/2214Z TN20/2206Z"
    },
    {
      "icao": "GCLP",
      "alert": "OK",
      "vis_m": 9999,
      "fzfg": false,
      "metar_trigger": false,
      "taf_trigger": false,
      "metar": "METAR GCLP 211600Z 03022KT CAVOK 25/18 Q1019 NOSIG",
      "taf": "TAF GCLP 211400Z 2115/2215 03017KT 9999 FEW020 TX27/2214Z TN20/2206Z"
    },
    {
      "icao": "GCTS",
      "alert": "OK",
      "vis_m": 9999,
      "fzfg": false,
      "metar_trigger": false,
      "taf_trigger": false,
      "metar": "METAR GCTS 211600Z 11014KT 080V140 CAVOK 25/18 Q1019 NOSIG",
      "taf": "TAF GCTS 211400Z 2115/2215 10014KT 9999 FEW025 TX27/2214Z TN19/2206Z"
    },
    {
      "icao": "GMAD",
      "alert": "OK",
      "vis_m": 9999,
      "fzfg": false,
      "metar_trigger": false,
      "taf_trigger": false,
      "metar": "METAR GMAD 211600Z 26013KT 220V280 CAVOK 26/17 Q1017 NOSIG",
      "taf": "TAF GMAD 211100Z 2112/2218 200004KT 8000 BKN020"
    },
    {
      "icao": "GMMN",
      "alert": "OK",
      "vis_m": 9999,
      "fzfg": false,
      "metar_trigger": false,
      "taf_trigger": false,
      "metar": "METAR GMMN 211600Z 32013KT CAVOK 27/20 Q1017 NOSIG",
      "taf": "TAF GMMN 211100Z 2112/2218 32014KT CAVOK"
    },
    {
      "icao": "GMMX",
      "alert": "OK",
      "vis_m": 9999,
      "fzfg": false,
      "metar_trigger": false,
      "taf_trigger": false,
      "metar": "METAR GMMX 211600Z VRB03KT CAVOK 36/19 Q1016 NOSIG",
      "taf": "TAF GMMX 211100Z 2112/2218 28006KT 8000 NSC"
    },
    {
      "icao": "HEGN",
      "alert": "OK",
      "vis_m": 9999,
      "fzfg": false,
      "metar_trigger": false,
      "taf_trigger": false,
      "metar": "METAR HEGN 211600Z 35018KT CAVOK 32/16 Q1007 NOSIG",
      "taf": ""
    },
    {
      "icao": "HEMA",
      "alert": "OK",
      "vis_m": 9999,
      "fzfg": false,
      "metar_trigger": false,
      "taf_trigger": false,
      "metar": "METAR HEMA 211600Z 36010KT CAVOK 33/15 Q1007 NOSIG",
      "taf": ""
    },
    {
      "icao": "HESH",
      "alert": "OK",
      "vis_m": 9999,
      "fzfg": false,
      "metar_trigger": false,
      "taf_trigger": false,
      "metar": "METAR HESH 211600Z 01008KT CAVOK 36/14 Q1006 NOSIG",
      "taf": ""
    },
    {
      "icao": "HESX",
      "alert": "OK",
      "vis_m": 9999,
      "fzfg": false,
      "metar_trigger": false,
      "taf_trigger": false,
      "metar": "METAR HESX 211600Z 36010KT CAVOK 29/15 Q1012 NOSIG",
      "taf": ""
    },
    {
      "icao": "LATI",
      "alert": "OK",
      "vis_m": 9999,
      "fzfg": false,
      "metar_trigger": false,
      "taf_trigger": false,
      "metar": "METAR LATI 211550Z 33009KT 300V010 9999 FEW030CB 30/17 Q1020 NOSIG",
      "taf": "TAF LATI 211100Z 2112/2212 32012KT CAVOK TX36/2211Z TN18/2203Z"
    },
    {
      "icao": "LBPD",
      "alert": "OK",
      "vis_m": 9999,
      "fzfg": false,
      "metar_trigger": false,
      "taf_trigger": false,
      "metar": "METAR LBPD 211600Z AUTO 10005KT 010V140 9999 NCD 31/14 Q1020 NOSIG",
      "taf": "TAF LBPD 211100Z 2112/2212 09006KT 9999 SCT080"
    },
    {
      "icao": "LBSF",
      "alert": "OK",
      "vis_m": 9999,
      "fzfg": false,
      "metar_trigger": false,
      "taf_trigger": false,
      "metar": "METAR LBSF 211600Z AUTO 31009KT 280V350 9999 NCD 29/15 Q1023 NOSIG",
      "taf": "TAF LBSF 211100Z 2112/2212 06010KT 9999 SCT070"
    },
    {
      "icao": "LBWN",
      "alert": "OK",
      "vis_m": 9999,
      "fzfg": false,
      "metar_trigger": false,
      "taf_trigger": false,
      "metar": "METAR LBWN 211600Z AUTO 14004KT 110V170 9999 NCD 27/14 Q1021 NOSIG",
      "taf": "TAF LBWN 211100Z 2112/2212 12014KT 9999 SCT040"
    },
    {
      "icao": "LCLK",
      "alert": "OK",
      "vis_m": 9999,
      "fzfg": false,
      "metar_trigger": false,
      "taf_trigger": false,
      "metar": "METAR LCLK 211600Z 21009KT 9999 FEW030 29/22 Q1010 NOSIG",
      "taf": "TAF LCLK 211130Z 2112/2212 21017KT 9999 FEW025"
    },
    {
      "icao": "LCPH",
      "alert": "OK",
      "vis_m": 9999,
      "fzfg": false,
      "metar_trigger": false,
      "taf_trigger": false,
      "metar": "METAR LCPH 211600Z 32014KT CAVOK 27/21 Q1011 NOSIG",
      "taf": "TAF LCPH 211130Z 2112/2212 28014KT 9999 FEW020"
    },
    {
      "icao": "LEAL",
      "alert": "OK",
      "vis_m": 9999,
      "fzfg": false,
      "metar_trigger": false,
      "taf_trigger": false,
      "metar": "METAR LEAL 211600Z 07014KT CAVOK 33/18 Q1021 NOSIG",
      "taf": "TAF LEAL 211100Z 2112/2212 07016KT CAVOK TX33/2112Z TN24/2206Z"
    },
    {
      "icao": "LEBB",
      "alert": "OK",
      "vis_m": 9999,
      "fzfg": false,
      "metar_trigger": false,
      "taf_trigger": false,
      "metar": "METAR LEBB 211600Z 10008KT 070V140 CAVOK 43/15 Q1016 NOSIG",
      "taf": "TAF LEBB 211100Z 2112/2212 10009KT CAVOK TX42/2115Z TN22/2206Z"
    },
    {
      "icao": "LEBL",
      "alert": "OK",
      "vis_m": 9999,
      "fzfg": false,
      "metar_trigger": false,
      "taf_trigger": false,
      "metar": "METAR LEBL 211600Z 12006KT 090V160 CAVOK 29/21 Q1023 NOSIG",
      "taf": "TAF LEBL 211100Z 2112/2212 13009KT CAVOK TX32/2112Z TN23/2205Z"
    },
    {
      "icao": "LECH",
      "alert": "OK",
      "vis_m": 9999,
      "fzfg": false,
      "metar_trigger": false,
      "taf_trigger": false,
      "metar": "METAR LECH 211600Z AUTO 15006KT 100V200 CAVOK 32/07 Q1024",
      "taf": "TAF LECH 211100Z 2112/2212 13007KT CAVOK TX36/2112Z TN20/2206Z"
    },
    {
      "icao": "LEMD",
      "alert": "OK",
      "vis_m": 9999,
      "fzfg": false,
      "metar_trigger": false,
      "taf_trigger": false,
      "metar": "METAR LEMD 211600Z 13010KT 080V180 CAVOK 39/09 Q1020 NOSIG",
      "taf": "TAF LEMD 211100Z 2112/2218 14010KT CAVOK TX39/2115Z TN22/2205Z"
    },
    {
      "icao": "LEMG",
      "alert": "OK",
      "vis_m": 9999,
      "fzfg": false,
      "metar_trigger": false,
      "taf_trigger": false,
      "metar": "METAR LEMG 211600Z 15004KT CAVOK 31/18 Q1017 NOSIG",
      "taf": "TAF LEMG 211100Z 2112/2212 13010KT CAVOK TX34/2114Z TN24/2206Z"
    },
    {
      "icao": "LEVC",
      "alert": "OK",
      "vis_m": 9999,
      "fzfg": false,
      "metar_trigger": false,
      "taf_trigger": false,
      "metar": "METAR LEVC 211600Z 07007KT 010V120 CAVOK 32/14 Q1022 NOSIG",
      "taf": "TAF LEVC 211100Z 2112/2212 09010KT CAVOK TX34/2112Z TN22/2206Z"
    },
    {
      "icao": "LEXJ",
      "alert": "OK",
      "vis_m": 9999,
      "fzfg": false,
      "metar_trigger": false,
      "taf_trigger": false,
      "metar": "METAR LEXJ 211600Z 06005KT 360V120 CAVOK 25/22 Q1017",
      "taf": "TAF LEXJ 211400Z 2115/2215 28009KT 9999 FEW010 TX36/2212Z TN22/2120Z"
    },
    {
      "icao": "LEZG",
      "alert": "OK",
      "vis_m": 9999,
      "fzfg": false,
      "metar_trigger": false,
      "taf_trigger": false,
      "metar": "METAR LEZG 211600Z 09014KT 050V120 CAVOK 40/08 Q1019 NOSIG",
      "taf": "TAF LEZG 211100Z 2112/2212 12012KT CAVOK TX42/2115Z TN23/2206Z"
    },
    {
      "icao": "LEZL",
      "alert": "OK",
      "vis_m": 9999,
      "fzfg": false,
      "metar_trigger": false,
      "taf_trigger": false,
      "metar": "METAR LEZL 211600Z 25006KT 190V360 CAVOK 38/17 Q1015 NOSIG",
      "taf": "TAF LEZL 211400Z 2115/2215 22006KT CAVOK TX40/2115Z TN23/2206Z"
    },
    {
      "icao": "LFBD",
      "alert": "OK",
      "vis_m": 9999,
      "fzfg": false,
      "metar_trigger": false,
      "taf_trigger": false,
      "metar": "METAR LFBD 211600Z AUTO 11010KT 070V150 CAVOK 40/13 Q1018 NOSIG",
      "taf": "TAF LFBD 211100Z 2112/2218 12010KT CAVOK TX43/2215Z TN26/2205Z"
    },
    {
      "icao": "LFLL",
      "alert": "OK",
      "vis_m": 9999,
      "fzfg": false,
      "metar_trigger": false,
      "taf_trigger": false,
      "metar": "METAR LFLL 211600Z 19006KT 150V230 CAVOK 37/09 Q1022 NOSIG",
      "taf": "TAF LFLL 211100Z 2112/2218 17008KT CAVOK"
    },
    {
      "icao": "LFLS",
      "alert": "OK",
      "vis_m": 9999,
      "fzfg": false,
      "metar_trigger": false,
      "taf_trigger": false,
      "metar": "METAR LFLS 211600Z AUTO 20007KT 150V250 CAVOK 35/13 Q1024 NOSIG",
      "taf": "TAF LFLS 211400Z 2115/2215 21010KT CAVOK"
    },
    {
      "icao": "LFMN",
      "alert": "OK",
      "vis_m": 9999,
      "fzfg": false,
      "metar_trigger": false,
      "taf_trigger": false,
      "metar": "METAR LFMN 211600Z 26006KT 9999 -RA FEW066CB BKN200 29/18 Q1022 RETS NOSIG",
      "taf": ""
    },
    {
      "icao": "LFOB",
      "alert": "OK",
      "vis_m": 9999,
      "fzfg": false,
      "metar_trigger": false,
      "taf_trigger": false,
      "metar": "METAR LFOB 211600Z AUTO 04008KT 010V090 CAVOK 33/22 Q1023 TEMPO 4000 -SHRA FEW050CB",
      "taf": "TAF LFOB 211100Z 2112/2212 VRB03KT CAVOK"
    },
    {
      "icao": "LFPO",
      "alert": "OK",
      "vis_m": 9999,
      "fzfg": false,
      "metar_trigger": false,
      "taf_trigger": false,
      "metar": "METAR LFPO 211600Z VRB02KT CAVOK 37/15 Q1022 NOSIG",
      "taf": "TAF LFPO 211100Z 2112/2218 VRB02KT CAVOK"
    },
    {
      "icao": "LFSB",
      "alert": "OK",
      "vis_m": 9999,
      "fzfg": false,
      "metar_trigger": false,
      "taf_trigger": false,
      "metar": "METAR LFSB 211600Z AUTO 35013KT CAVOK 29/14 Q1024 TEMPO SCT080CB",
      "taf": "TAF LFSB 211100Z 2112/2212 01005KT CAVOK"
    },
    {
      "icao": "LGAV",
      "alert": "OK",
      "vis_m": 9999,
      "fzfg": false,
      "metar_trigger": false,
      "taf_trigger": false,
      "metar": "METAR LGAV 211550Z 03017KT 9999 FEW025 29/09 Q1019 NOSIG",
      "taf": "TAF LGAV 211100Z 2112/2212 02014KT 9999 FEW025"
    },
    {
      "icao": "LGTS",
      "alert": "OK",
      "vis_m": 9999,
      "fzfg": false,
      "metar_trigger": false,
      "taf_trigger": false,
      "metar": "METAR LGTS 211550Z 28007KT 9999 FEW025 32/16 Q1019 NOSIG",
      "taf": "TAF LGTS 211100Z 2112/2212 VRB03KT 9999 FEW030"
    },
    {
      "icao": "LHBP",
      "alert": "OK",
      "vis_m": 9999,
      "fzfg": false,
      "metar_trigger": false,
      "taf_trigger": false,
      "metar": "METAR LHBP 211600Z 35009KT 330V030 9999 VCTS FEW051CB SCT059 28/16 Q1022 RETSRA NOSIG",
      "taf": "TAF LHBP 211115Z 2112/2212 VRB04KT CAVOK"
    },
    {
      "icao": "LHDC",
      "alert": "OK",
      "vis_m": 9999,
      "fzfg": false,
      "metar_trigger": false,
      "taf_trigger": false,
      "metar": "METAR LHDC 211545Z AUTO 08005KT 050V110 9999 //////TCU 29/18 Q1021 NOSIG",
      "taf": "TAF LHDC 211415Z 2115/2124 VRB04KT CAVOK"
    },
    {
      "icao": "LIBD",
      "alert": "OK",
      "vis_m": 9999,
      "fzfg": false,
      "metar_trigger": false,
      "taf_trigger": false,
      "metar": "METAR LIBD 211550Z 06005KT 010V100 CAVOK 28/20 Q1021",
      "taf": "TAF LIBD 211100Z 2112/2212 05010KT CAVOK"
    },
    {
      "icao": "LIBG",
      "alert": "OK",
      "vis_m": 9999,
      "fzfg": false,
      "metar_trigger": false,
      "taf_trigger": false,
      "metar": "METAR LIBG 211550Z AUTO 25004KT 190V310 9999 NCD 35/12 Q1020",
      "taf": "TAF LIBG 211100Z 2112/2212 20010KT 9999 SCT030"
    },
    {
      "icao": "LIBP",
      "alert": "OK",
      "vis_m": 9999,
      "fzfg": false,
      "metar_trigger": false,
      "taf_trigger": false,
      "metar": "METAR LIBP 211550Z AUTO 05004KT 9999 FEW240/// 29/19 Q1022",
      "taf": "TAF LIBP 211100Z 2112/2212 06010KT CAVOK"
    },
    {
      "icao": "LIBR",
      "alert": "OK",
      "vis_m": 9999,
      "fzfg": false,
      "metar_trigger": false,
      "taf_trigger": false,
      "metar": "METAR LIBR 211550Z 35007KT CAVOK 28/20 Q1020",
      "taf": "TAF LIBR 211100Z 2112/2212 36010KT CAVOK"
    },
    {
      "icao": "LICA",
      "alert": "OK",
      "vis_m": 9999,
      "fzfg": false,
      "metar_trigger": false,
      "taf_trigger": false,
      "metar": "METAR LICA 211550Z AUTO 26006KT 220V290 9999 FEW081/// 28/22 Q1022",
      "taf": "TAF LICA 211100Z 2112/2212 27010KT CAVOK"
    },
    {
      "icao": "LICC",
      "alert": "OK",
      "vis_m": 9999,
      "fzfg": false,
      "metar_trigger": false,
      "taf_trigger": false,
      "metar": "METAR LICC 211520Z 07011KT 9999 FEW120 28/18 Q1021",
      "taf": "TAF LICC 211100Z 2112/2212 08012KT CAVOK"
    },
    {
      "icao": "LICJ",
      "alert": "OK",
      "vis_m": 9999,
      "fzfg": false,
      "metar_trigger": false,
      "taf_trigger": false,
      "metar": "METAR LICJ 211550Z 04014KT CAVOK 29/22 Q1021",
      "taf": "TAF LICJ 211100Z 2112/2212 02012KT CAVOK"
    },
    {
      "icao": "LIMC",
      "alert": "OK",
      "vis_m": 9999,
      "fzfg": false,
      "metar_trigger": false,
      "taf_trigger": false,
      "metar": "METAR LIMC 211550Z 27008KT CAVOK 33/19 Q1022 NOSIG",
      "taf": "TAF LIMC 211100Z 2112/2218 VRB05KT 9999 FEW050"
    },
    {
      "icao": "LIME",
      "alert": "OK",
      "vis_m": 9999,
      "fzfg": false,
      "metar_trigger": false,
      "taf_trigger": false,
      "metar": "METAR LIME 211550Z 14003KT 090V220 CAVOK 32/19 Q1023 NOSIG",
      "taf": "TAF LIME 211100Z 2112/2212 VRB05KT 9999 FEW060"
    },
    {
      "icao": "LIMF",
      "alert": "OK",
      "vis_m": 9999,
      "fzfg": false,
      "metar_trigger": false,
      "taf_trigger": false,
      "metar": "METAR LIMF 211550Z VRB04KT CAVOK 34/18 Q1023",
      "taf": "TAF LIMF 211100Z 2112/2212 VRB05KT 9999 FEW060"
    },
    {
      "icao": "LIMJ",
      "alert": "OK",
      "vis_m": 9999,
      "fzfg": false,
      "metar_trigger": false,
      "taf_trigger": false,
      "metar": "METAR LIMJ 211550Z 25004KT 9999 FEW080 28/22 Q1022",
      "taf": "TAF LIMJ 211100Z 2112/2212 VRB05KT 9999 FEW040"
    },
    {
      "icao": "LIPE",
      "alert": "OK",
      "vis_m": 9999,
      "fzfg": false,
      "metar_trigger": false,
      "taf_trigger": false,
      "metar": "METAR LIPE 211550Z VRB02KT CAVOK 34/18 Q1021",
      "taf": "TAF LIPE 211100Z 2112/2212 VRB05KT CAVOK"
    },
    {
      "icao": "LIPH",
      "alert": "OK",
      "vis_m": 9999,
      "fzfg": false,
      "metar_trigger": false,
      "taf_trigger": false,
      "metar": "METAR LIPH 211550Z VRB04KT CAVOK 36/15 Q1020",
      "taf": "TAF LIPH 211100Z 2112/2212 VRB05KT 9999 SCT030"
    },
    {
      "icao": "LIPQ",
      "alert": "OK",
      "vis_m": 9999,
      "fzfg": false,
      "metar_trigger": false,
      "taf_trigger": false,
      "metar": "METAR LIPQ 211550Z AUTO 23007KT 9999 NCD 35/20 Q1020",
      "taf": "TAF LIPQ 211100Z 2112/2212 20010KT 9999 SCT030"
    },
    {
      "icao": "LIPR",
      "alert": "OK",
      "vis_m": 9999,
      "fzfg": false,
      "metar_trigger": false,
      "taf_trigger": false,
      "metar": "METAR LIPR 211550Z 08004KT 050V110 CAVOK 31/17 Q1021",
      "taf": "TAF LIPR 211100Z 2112/2212 05010KT 9999 FEW030"
    },
    {
      "icao": "LIPX",
      "alert": "OK",
      "vis_m": 9999,
      "fzfg": false,
      "metar_trigger": false,
      "taf_trigger": false,
      "metar": "METAR LIPX 211550Z VRB04KT CAVOK 35/18 Q1021",
      "taf": "TAF LIPX 211100Z 2112/2212 VRB05KT 9999 FEW060"
    },
    {
      "icao": "LIPY",
      "alert": "OK",
      "vis_m": 9999,
      "fzfg": false,
      "metar_trigger": false,
      "taf_trigger": false,
      "metar": "METAR LIPY 211550Z AUTO 35004KT 320V020 9999 FEW210/// 31/17 Q1021",
      "taf": "TAF LIPY 211100Z 2112/2212 03010KT CAVOK"
    },
    {
      "icao": "LIPZ",
      "alert": "OK",
      "vis_m": 9999,
      "fzfg": false,
      "metar_trigger": false,
      "taf_trigger": false,
      "metar": "METAR LIPZ 211550Z 19005KT CAVOK 34/21 Q1021 NOSIG",
      "taf": "TAF LIPZ 211100Z 2112/2218 VRB05KT 9999 FEW030"
    },
    {
      "icao": "LIRF",
      "alert": "OK",
      "vis_m": 9999,
      "fzfg": false,
      "metar_trigger": false,
      "taf_trigger": false,
      "metar": "METAR LIRF 211550Z 28010KT CAVOK 30/21 Q1021 NOSIG",
      "taf": "TAF LIRF 211100Z 2112/2218 25012KT CAVOK"
    },
    {
      "icao": "LIRN",
      "alert": "OK",
      "vis_m": 9999,
      "fzfg": false,
      "metar_trigger": false,
      "taf_trigger": false,
      "metar": "METAR LIRN 211550Z 18007KT 110V270 CAVOK 31/19 Q1021 NOSIG",
      "taf": "TAF LIRN 211100Z 2112/2212 21012KT CAVOK"
    },
    {
      "icao": "LIRP",
      "alert": "OK",
      "vis_m": 9999,
      "fzfg": false,
      "metar_trigger": false,
      "taf_trigger": false,
      "metar": "METAR LIRP 211545Z 28009KT CAVOK 32/14 Q1022 NOSIG",
      "taf": "TAF LIRP 211100Z 2112/2212 30010KT CAVOK"
    },
    {
      "icao": "LIRZ",
      "alert": "OK",
      "vis_m": 9999,
      "fzfg": false,
      "metar_trigger": false,
      "taf_trigger": false,
      "metar": "METAR LIRZ 211550Z AUTO 34011KT 9999 NCD 30/19 Q1022",
      "taf": "TAF LIRZ 211100Z 2112/2212 VRB05KT CAVOK"
    },
    {
      "icao": "LJLJ",
      "alert": "OK",
      "vis_m": 9999,
      "fzfg": false,
      "metar_trigger": false,
      "taf_trigger": false,
      "metar": "METAR LJLJ 211600Z 06010KT 020V080 9999 VCTS FEW036CB SCT065 30/16 Q1023 BECMG 09015G25KT TSRA",
      "taf": "TAF LJLJ 211100Z 2112/2212 10004KT 9999 FEW060"
    },
    {
      "icao": "LKMT",
      "alert": "OK",
      "vis_m": 9999,
      "fzfg": false,
      "metar_trigger": false,
      "taf_trigger": false,
      "metar": "METAR LKMT 211600Z 35009KT 9999 VCSH BKN048TCU 28/19 Q1023 TEMPO 4500 TSRA BKN045CB",
      "taf": "TAF LKMT 211100Z 2112/2212 02007KT CAVOK"
    },
    {
      "icao": "LKPR",
      "alert": "OK",
      "vis_m": 9999,
      "fzfg": false,
      "metar_trigger": false,
      "taf_trigger": false,
      "metar": "METAR LKPR 211600Z 20005KT CAVOK 23/19 Q1025 NOSIG",
      "taf": "TAF LKPR 211400Z 2115/2221 33004KT CAVOK"
    },
    {
      "icao": "LLBG",
      "alert": "OK",
      "vis_m": 9999,
      "fzfg": false,
      "metar_trigger": false,
      "taf_trigger": false,
      "metar": "METAR LLBG 211550Z 34012KT 9999 FEW025 27/20 Q1011 NOSIG",
      "taf": "TAF LLBG 211107Z 2112/2212 32010KT 9999 FEW030 TX30/2112Z TN22/2202Z"
    },
    {
      "icao": "LMML",
      "alert": "OK",
      "vis_m": 9999,
      "fzfg": false,
      "metar_trigger": false,
      "taf_trigger": false,
      "metar": "METAR LMML 211615Z 23007KT 190V260 CAVOK 30/19 Q1021 NOSIG",
      "taf": "TAF LMML 211100Z 2112/2212 VRB06KT CAVOK"
    },
    {
      "icao": "LOWW",
      "alert": "OK",
      "vis_m": 9999,
      "fzfg": false,
      "metar_trigger": false,
      "taf_trigger": false,
      "metar": "METAR LOWW 211550Z 33009KT CAVOK 34/14 Q1022 NOSIG",
      "taf": "TAF LOWW 211420Z 2115/2221 35009KT CAVOK TX34/2115Z TN22/2203Z"
    },
    {
      "icao": "LPFR",
      "alert": "OK",
      "vis_m": 9999,
      "fzfg": false,
      "metar_trigger": false,
      "taf_trigger": false,
      "metar": "METAR LPFR 211600Z 11008KT 090V150 9999 FEW009 26/21 Q1017",
      "taf": "TAF LPFR 211100Z 2112/2212 12013KT 9999 SCT008"
    },
    {
      "icao": "LPMA",
      "alert": "OK",
      "vis_m": 9999,
      "fzfg": false,
      "metar_trigger": false,
      "taf_trigger": false,
      "metar": "METAR LPMA 211600Z VRB06KT 9999 FEW015 SCT030 25/19 Q1020",
      "taf": "TAF LPMA 211100Z 2112/2212 20010KT 9999 FEW012"
    },
    {
      "icao": "LPPR",
      "alert": "OK",
      "vis_m": 9999,
      "fzfg": false,
      "metar_trigger": false,
      "taf_trigger": false,
      "metar": "METAR LPPR 211600Z 33009KT 300V360 CAVOK 23/17 Q1017",
      "taf": "TAF LPPR 211100Z 2112/2212 26005KT 9999 FEW008"
    },
    {
      "icao": "LPPS",
      "alert": "OK",
      "vis_m": 9999,
      "fzfg": false,
      "metar_trigger": false,
      "taf_trigger": false,
      "metar": "METAR LPPS 211600Z 17009KT 140V200 9999 SCT011 23/20 Q1020",
      "taf": "TAF LPPS 211100Z 2112/2218 18008KT 9999 SCT015"
    },
    {
      "icao": "LPPT",
      "alert": "OK",
      "vis_m": 9999,
      "fzfg": false,
      "metar_trigger": false,
      "taf_trigger": false,
      "metar": "METAR LPPT 211600Z 29010KT 260V320 CAVOK 33/12 Q1016",
      "taf": "TAF LPPT 211100Z 2112/2218 29005KT CAVOK"
    },
    {
      "icao": "LQBK",
      "alert": "OK",
      "vis_m": 9999,
      "fzfg": false,
      "metar_trigger": false,
      "taf_trigger": false,
      "metar": "METAR LQBK 211600Z 30008KT 9999 FEW047 32/16 Q1021 NOSIG",
      "taf": "TAF LQBK 211100Z 2112/2212 VRB03KT CAVOK TX33/2114Z TN18/2203Z"
    },
    {
      "icao": "LQSA",
      "alert": "OK",
      "vis_m": 9999,
      "fzfg": false,
      "metar_trigger": false,
      "taf_trigger": false,
      "metar": "METAR LQSA 211600Z VRB02KT 9999 SCT055 24/17 Q1023 RESHRA TEMPO 29010KT",
      "taf": "TAF LQSA 211100Z 2112/2212 VRB02KT CAVOK TX32/2113Z TN17/2203Z"
    },
    {
      "icao": "LQTZ",
      "alert": "OK",
      "vis_m": 9999,
      "fzfg": false,
      "metar_trigger": false,
      "taf_trigger": false,
      "metar": "METAR LQTZ 211600Z 07005KT 050V130 9999 FEW070 32/17 Q1022",
      "taf": "TAF LQTZ 211100Z 2112/2212 05005KT CAVOK TX33/2114Z TN16/2203Z"
    },
    {
      "icao": "LRBC",
      "alert": "OK",
      "vis_m": 9999,
      "fzfg": false,
      "metar_trigger": false,
      "taf_trigger": false,
      "metar": "METAR LRBC 211600Z AUTO 04003KT 340V110 9999 NCD 28/16 Q1023",
      "taf": "TAF LRBC 211400Z 2115/2124 36006KT CAVOK"
    },
    {
      "icao": "LRBS",
      "alert": "OK",
      "vis_m": 9999,
      "fzfg": false,
      "metar_trigger": false,
      "taf_trigger": false,
      "metar": "METAR LRBS 211600Z 04006KT 340V070 CAVOK 30/17 Q1021 NOSIG",
      "taf": "TAF LRBS 211100Z 2112/2212 07007KT 9999 FEW045"
    },
    {
      "icao": "LRBV",
      "alert": "OK",
      "vis_m": 9999,
      "fzfg": false,
      "metar_trigger": false,
      "taf_trigger": false,
      "metar": "METAR LRBV 211600Z 19005KT 160V220 9999 FEW060 24/16 Q1023",
      "taf": "TAF LRBV 211400Z 2115/2124 02008KT 9999 SCT060"
    },
    {
      "icao": "LRCL",
      "alert": "OK",
      "vis_m": 9999,
      "fzfg": false,
      "metar_trigger": false,
      "taf_trigger": false,
      "metar": "METAR LRCL 211600Z 23003KT 190V310 9999 FEW055 31/16 Q1021",
      "taf": "TAF LRCL 211400Z 2115/2124 VRB04KT 9999 FEW050"
    },
    {
      "icao": "LRCV",
      "alert": "OK",
      "vis_m": 9999,
      "fzfg": false,
      "metar_trigger": false,
      "taf_trigger": false,
      "metar": "METAR LRCV 211600Z 10005KT 040V130 CAVOK 32/16 Q1021",
      "taf": "TAF LRCV 211400Z 2115/2124 VRB04KT CAVOK"
    },
    {
      "icao": "LRIA",
      "alert": "OK",
      "vis_m": 9999,
      "fzfg": false,
      "metar_trigger": false,
      "taf_trigger": false,
      "metar": "METAR LRIA 211600Z 07004KT 040V110 CAVOK 28/13 Q1022",
      "taf": "TAF LRIA 211400Z 2115/2124 VRB04KT CAVOK"
    },
    {
      "icao": "LROP",
      "alert": "OK",
      "vis_m": 9999,
      "fzfg": false,
      "metar_trigger": false,
      "taf_trigger": false,
      "metar": "METAR LROP 211600Z 08008KT CAVOK 30/17 Q1021 NOSIG",
      "taf": "TAF LROP 211100Z 2112/2212 07007KT 9999 FEW045"
    },
    {
      "icao": "LRSB",
      "alert": "OK",
      "vis_m": 9999,
      "fzfg": false,
      "metar_trigger": false,
      "taf_trigger": false,
      "metar": "METAR LRSB 211600Z 31009KT 9999 FEW058TCU 29/16 Q1022",
      "taf": "TAF LRSB 211100Z 2112/2212 01006KT 9999 FEW050"
    },
    {
      "icao": "LRSM",
      "alert": "OK",
      "vis_m": 9999,
      "fzfg": false,
      "metar_trigger": false,
      "taf_trigger": false,
      "metar": "METAR LRSM 211600Z AUTO 01006KT 9999 FEW048/// SCT130/// BKN150/// 29/19 Q1021",
      "taf": ""
    },
    {
      "icao": "LRSV",
      "alert": "OK",
      "vis_m": 9999,
      "fzfg": false,
      "metar_trigger": false,
      "taf_trigger": false,
      "metar": "METAR LRSV 211600Z 04006KT CAVOK 25/13 Q1024",
      "taf": "TAF LRSV 211400Z 2115/2124 08006KT CAVOK"
    },
    {
      "icao": "LRTM",
      "alert": "OK",
      "vis_m": 9999,
      "fzfg": false,
      "metar_trigger": false,
      "taf_trigger": false,
      "metar": "METAR LRTM 211600Z 25009KT 9999 FEW045 FEW048CB 30/21 Q1021",
      "taf": "TAF LRTM 211400Z 2115/2124 VRB04KT 9999 FEW045CB"
    },
    {
      "icao": "LRTR",
      "alert": "OK",
      "vis_m": 9999,
      "fzfg": false,
      "metar_trigger": false,
      "taf_trigger": false,
      "metar": "METAR LRTR 211600Z 25007KT 220V280 9999 TS VCSH FEW020 SCT040CB 25/18 Q1021",
      "taf": ""
    },
    {
      "icao": "LTAC",
      "alert": "OK",
      "vis_m": 9999,
      "fzfg": false,
      "metar_trigger": false,
      "taf_trigger": false,
      "metar": "METAR LTAC 211550Z 07011KT 9999 FEW040 25/08 Q1020 NOSIG RMK RWY21C 07011KT RWY03L 07011KT RWY21R 06013KT RWY03R 05012KT RWY21L 07011KT",
      "taf": "TAF LTAC 211040Z 2112/2212 05009KT 9999 FEW040"
    },
    {
      "icao": "LTFM",
      "alert": "OK",
      "vis_m": 9999,
      "fzfg": false,
      "metar_trigger": false,
      "taf_trigger": false,
      "metar": "METAR LTFM 211550Z 04014KT CAVOK 24/16 Q1021 NOSIG RMK RWY17L 05009KT RWY34L 04012KT RWY16R 04010KT RWY36 05012KT RWY18 05008KT",
      "taf": "TAF LTFM 211040Z 2112/2218 03012KT CAVOK"
    },
    {
      "icao": "LUKK",
      "alert": "OK",
      "vis_m": 9999,
      "fzfg": false,
      "metar_trigger": false,
      "taf_trigger": false,
      "metar": "METAR LUKK 211600Z 02004KT 350V050 CAVOK 28/13 Q1022 NOSIG",
      "taf": "TAF LUKK 211101Z 2112/2212 03008KT CAVOK"
    },
    {
      "icao": "LWOH",
      "alert": "OK",
      "vis_m": null,
      "fzfg": false,
      "metar_trigger": false,
      "taf_trigger": false,
      "metar": "",
      "taf": "TAF LWOH 211410Z 2115/2215 15008KT 9999 SCT040"
    },
    {
      "icao": "LWSK",
      "alert": "OK",
      "vis_m": null,
      "fzfg": false,
      "metar_trigger": false,
      "taf_trigger": false,
      "metar": "",
      "taf": "TAF LWSK 211410Z 2115/2215 VRB02KT 9999 FEW080"
    },
    {
      "icao": "LYBE",
      "alert": "OK",
      "vis_m": 9999,
      "fzfg": false,
      "metar_trigger": false,
      "taf_trigger": false,
      "metar": "METAR LYBE 211600Z 01006KT CAVOK 32/17 Q1021 NOSIG",
      "taf": "TAF LYBE 211100Z 2112/2212 01005KT CAVOK TX33/2113Z TN20/2203Z"
    },
    {
      "icao": "LYNI",
      "alert": "OK",
      "vis_m": 9999,
      "fzfg": false,
      "metar_trigger": false,
      "taf_trigger": false,
      "metar": "METAR LYNI 211600Z 02005KT 340V050 9999 FEW050 29/16 Q1021 NOSIG",
      "taf": "TAF LYNI 211100Z 2112/2212 32007KT CAVOK TX33/2113Z TN17/2203Z"
    },
    {
      "icao": "LYPG",
      "alert": "OK",
      "vis_m": 9999,
      "fzfg": false,
      "metar_trigger": false,
      "taf_trigger": false,
      "metar": "METAR LYPG 211600Z 20005KT 9999 SCT045 34/15 Q1019 TEMPO FEW040TCU SCT050",
      "taf": "TAF LYPG 211100Z 2112/2212 18008KT 9999 FEW050 TX36/2114Z TN23/2203Z"
    },
    {
      "icao": "LZIB",
      "alert": "OK",
      "vis_m": 9999,
      "fzfg": false,
      "metar_trigger": false,
      "taf_trigger": false,
      "metar": "METAR LZIB 211600Z 32010KT CAVOK 35/14 Q1021 NOSIG",
      "taf": "TAF LZIB 211115Z 2112/2212 30008KT CAVOK"
    },
    {
      "icao": "LZKZ",
      "alert": "OK",
      "vis_m": 9999,
      "fzfg": false,
      "metar_trigger": false,
      "taf_trigger": false,
      "metar": "METAR LZKZ 211600Z 05006KT CAVOK 25/20 Q1022 NOSIG",
      "taf": "TAF LZKZ 211115Z 2112/2212 31009KT CAVOK"
    },
    {
      "icao": "LZTT",
      "alert": "OK",
      "vis_m": 9999,
      "fzfg": false,
      "metar_trigger": false,
      "taf_trigger": false,
      "metar": "METAR LZTT 211600Z VRB03KT 9999 SCT053CB 20/18 Q1025 TEMPO SHRA SCT030CB",
      "taf": "TAF LZTT 211115Z 2112/2212 03010KT 9999 FEW020 SCT030 BKN040"
    },
    {
      "icao": "OEJN",
      "alert": "OK",
      "vis_m": 9999,
      "fzfg": false,
      "metar_trigger": false,
      "taf_trigger": false,
      "metar": "METAR OEJN 211600Z 29006KT CAVOK 32/23 Q1005 NOSIG",
      "taf": "TAF OEJN 211100Z 2112/2218 32012KT CAVOK"
    },
    {
      "icao": "OEMA",
      "alert": "OK",
      "vis_m": 9999,
      "fzfg": false,
      "metar_trigger": false,
      "taf_trigger": false,
      "metar": "METAR OEMA 211600Z 28010KT CAVOK 45/M07 Q1007 NOSIG",
      "taf": "TAF OEMA 211100Z 2112/2218 30012KT CAVOK"
    },
    {
      "icao": "OJAI",
      "alert": "OK",
      "vis_m": 5000,
      "fzfg": false,
      "metar_trigger": false,
      "taf_trigger": false,
      "metar": "METAR OJAI 211600Z 28011KT 5000 HZ NSC 30/13 Q1013 NOSIG",
      "taf": "TAF OJAI 211100Z 2112/2218 29010KT 5000 HZ NSC"
    },
    {
      "icao": "OMAA",
      "alert": "OK",
      "vis_m": 9999,
      "fzfg": false,
      "metar_trigger": false,
      "taf_trigger": false,
      "metar": "METAR OMAA 211600Z 30006KT CAVOK 34/19 Q1000 NOSIG",
      "taf": "TAF OMAA 211100Z 2112/2218 32012KT CAVOK"
    },
    {
      "icao": "OMDB",
      "alert": "OK",
      "vis_m": 9999,
      "fzfg": false,
      "metar_trigger": false,
      "taf_trigger": false,
      "metar": "METAR OMDB 211600Z 26006KT CAVOK 34/23 Q1000 NOSIG",
      "taf": "TAF OMDB 211100Z 2112/2218 27010KT CAVOK"
    },
    {
      "icao": "UAAA",
      "alert": "OK",
      "vis_m": 9999,
      "fzfg": false,
      "metar_trigger": false,
      "taf_trigger": false,
      "metar": "METAR UAAA 211600Z 27003MPS 9999 SCT050CB BKN100 26/10 Q1011 NOSIG",
      "taf": "TAF UAAA 211105Z 2112/2212 20003MPS 9999 SCT050CB BKN100 TX33/2210Z TN21/2201Z"
    },
    {
      "icao": "UBBB",
      "alert": "OK",
      "vis_m": 9999,
      "fzfg": false,
      "metar_trigger": false,
      "taf_trigger": false,
      "metar": "METAR UBBB 211600Z 33016KT CAVOK 24/18 Q1013 NOSIG",
      "taf": "TAF UBBB 211058Z 2112/2212 32022G32KT CAVOK TX26/2112Z TN20/2201Z"
    },
    {
      "icao": "UDSG",
      "alert": "OK",
      "vis_m": 9999,
      "fzfg": false,
      "metar_trigger": false,
      "taf_trigger": false,
      "metar": "METAR UDSG 211600Z 36006KT 9999 FEW049 21/13 Q1020 NOSIG",
      "taf": "TAF UDSG 211100Z 2112/2212 36006KT 9999 FEW050"
    },
    {
      "icao": "UDYZ",
      "alert": "OK",
      "vis_m": 9999,
      "fzfg": false,
      "metar_trigger": false,
      "taf_trigger": false,
      "metar": "METAR UDYZ 211600Z 03019KT 9999 NSC 29/13 Q1011 NOSIG",
      "taf": "TAF UDYZ 211100Z 2112/2212 04006KT 9999 FEW040"
    },
    {
      "icao": "UGKO",
      "alert": "OK",
      "vis_m": 9999,
      "fzfg": false,
      "metar_trigger": false,
      "taf_trigger": false,
      "metar": "METAR UGKO 211600Z 28011KT 240V300 9999 SCT023 23/17 Q1017 NOSIG",
      "taf": "TAF UGKO 211100Z 2112/2212 27008KT 9999 -RA SCT020 BKN040 TX26/2212Z TN18/2202Z"
    }
  ]
}