{
  "ts_utc": "2026-04-15T17:18:35Z",
  "threshold_m": 150,
  "source": "stations_override.txt (ICAO list) + aviationweather.gov (METAR/TAF raw)",
  "station_count": 159,
  "stations": [
    {
      "icao": "BIKF",
      "alert": "OK",
      "vis_m": 9999,
      "fzfg": false,
      "metar_trigger": false,
      "taf_trigger": false,
      "metar": "METAR BIKF 151700Z 14016KT 9999 FEW018 BKN039 09/04 Q0993",
      "taf": "TAF BIKF 151637Z 1518/1618 14017KT 9999 SCT018 BKN028 TX09/1614Z TN03/1606Z"
    },
    {
      "icao": "BKPR",
      "alert": "OK",
      "vis_m": 9999,
      "fzfg": false,
      "metar_trigger": false,
      "taf_trigger": false,
      "metar": "METAR BKPR 151700Z 15012KT 9999 BKN070 16/10 Q1018 NOSIG",
      "taf": "TAF BKPR 151130Z 1512/1612 13009KT 9999 FEW050 BKN080"
    },
    {
      "icao": "EBCI",
      "alert": "OK",
      "vis_m": 9999,
      "fzfg": false,
      "metar_trigger": false,
      "taf_trigger": false,
      "metar": "METAR EBCI 151650Z 21011KT CAVOK 17/04 Q1019 NOSIG",
      "taf": "TAF EBCI 151100Z 1512/1618 22010KT CAVOK"
    },
    {
      "icao": "EDDB",
      "alert": "OK",
      "vis_m": 9999,
      "fzfg": false,
      "metar_trigger": false,
      "taf_trigger": false,
      "metar": "METAR EDDB 151650Z AUTO VRB01KT CAVOK 16/01 Q1021 NOSIG",
      "taf": "TAF EDDB 151100Z 1512/1612 VRB03KT CAVOK"
    },
    {
      "icao": "EDDH",
      "alert": "OK",
      "vis_m": 9999,
      "fzfg": false,
      "metar_trigger": false,
      "taf_trigger": false,
      "metar": "METAR EDDH 151650Z AUTO VRB01KT CAVOK 16/05 Q1020 NOSIG",
      "taf": "TAF EDDH 151100Z 1512/1618 21008KT CAVOK"
    },
    {
      "icao": "EDDK",
      "alert": "OK",
      "vis_m": 9999,
      "fzfg": false,
      "metar_trigger": false,
      "taf_trigger": false,
      "metar": "METAR EDDK 151650Z AUTO 16006KT 130V190 CAVOK 18/05 Q1019 NOSIG",
      "taf": "TAF EDDK 151100Z 1512/1618 15009KT CAVOK"
    },
    {
      "icao": "EDDN",
      "alert": "OK",
      "vis_m": 9999,
      "fzfg": false,
      "metar_trigger": false,
      "taf_trigger": false,
      "metar": "METAR EDDN 151650Z AUTO 26003KT 9999 OVC042 14/09 Q1021 NOSIG",
      "taf": "TAF EDDN 151100Z 1512/1612 14006KT 9999 FEW020 OVC030"
    },
    {
      "icao": "EDDS",
      "alert": "OK",
      "vis_m": 9999,
      "fzfg": false,
      "metar_trigger": false,
      "taf_trigger": false,
      "metar": "METAR EDDS 151650Z AUTO VRB02KT 9999 OVC033 13/08 Q1020 NOSIG",
      "taf": "TAF EDDS 151100Z 1512/1612 07004KT 9999 BKN040"
    },
    {
      "icao": "EDFH",
      "alert": "OK",
      "vis_m": 9999,
      "fzfg": false,
      "metar_trigger": false,
      "taf_trigger": false,
      "metar": "METAR EDFH 151650Z 14006KT 110V170 CAVOK 14/04 Q1020",
      "taf": "TAF EDFH 151100Z 1512/1612 14007KT 9999 FEW040"
    },
    {
      "icao": "EDJA",
      "alert": "OK",
      "vis_m": 9999,
      "fzfg": false,
      "metar_trigger": false,
      "taf_trigger": false,
      "metar": "METAR EDJA 151650Z 01004KT 9999 OVC029 10/08 Q1021",
      "taf": "TAF EDJA 151400Z 1515/1524 05006KT 9999 FEW015 BKN020"
    },
    {
      "icao": "EDLW",
      "alert": "OK",
      "vis_m": 9999,
      "fzfg": false,
      "metar_trigger": false,
      "taf_trigger": false,
      "metar": "METAR EDLW 151650Z 20007KT CAVOK 17/02 Q1019",
      "taf": "TAF EDLW 151100Z 1512/1612 19006KT CAVOK"
    },
    {
      "icao": "EDNY",
      "alert": "OK",
      "vis_m": 9999,
      "fzfg": false,
      "metar_trigger": false,
      "taf_trigger": false,
      "metar": "METAR EDNY 151650Z 25005KT 9999 OVC036 12/08 Q1021",
      "taf": "TAF EDNY 151400Z 1515/1524 22005KT 9999 BKN030"
    },
    {
      "icao": "EDSB",
      "alert": "OK",
      "vis_m": 9999,
      "fzfg": false,
      "metar_trigger": false,
      "taf_trigger": false,
      "metar": "METAR EDSB 151650Z 20007KT CAVOK 17/09 Q1020",
      "taf": ""
    },
    {
      "icao": "EETN",
      "alert": "OK",
      "vis_m": 9999,
      "fzfg": false,
      "metar_trigger": false,
      "taf_trigger": false,
      "metar": "METAR EETN 151650Z 05007KT CAVOK 09/01 Q1023 NOSIG",
      "taf": "TAF EETN 151130Z 1512/1612 03007KT CAVOK"
    },
    {
      "icao": "EFTU",
      "alert": "OK",
      "vis_m": 9999,
      "fzfg": false,
      "metar_trigger": false,
      "taf_trigger": false,
      "metar": "METAR EFTU 151650Z AUTO 29007KT CAVOK 13/M02 Q1023",
      "taf": "TAF EFTU 151422Z 1515/1615 17006KT CAVOK"
    },
    {
      "icao": "EGBB",
      "alert": "OK",
      "vis_m": 9999,
      "fzfg": false,
      "metar_trigger": false,
      "taf_trigger": false,
      "metar": "METAR EGBB 151650Z 17009KT 9999 SCT017CB 11/08 Q1011 RETSRA",
      "taf": "TAF EGBB 151655Z 1518/1618 19010KT 9999 SCT030"
    },
    {
      "icao": "EGGP",
      "alert": "OK",
      "vis_m": 9999,
      "fzfg": false,
      "metar_trigger": false,
      "taf_trigger": false,
      "metar": "METAR EGGP 151650Z 22012KT 9999 FEW031CB 11/06 Q1007 RETSRA",
      "taf": "TAF EGGP 151701Z 1518/1618 21010KT 9999 SCT020"
    },
    {
      "icao": "EGGW",
      "alert": "OK",
      "vis_m": 9999,
      "fzfg": false,
      "metar_trigger": false,
      "taf_trigger": false,
      "metar": "METAR EGGW 151650Z AUTO 20013KT 170V240 9999 BKN013 13/11 Q1013",
      "taf": "TAF EGGW 151659Z 1518/1618 21016G26KT 9999 SCT035"
    },
    {
      "icao": "EGKK",
      "alert": "OK",
      "vis_m": 9999,
      "fzfg": false,
      "metar_trigger": false,
      "taf_trigger": false,
      "metar": "METAR EGKK 151650Z 22014KT 9999 SCT012 13/11 Q1015",
      "taf": "TAF EGKK 151657Z 1518/1624 21012KT 9999 SCT020"
    },
    {
      "icao": "EGNM",
      "alert": "OK",
      "vis_m": 9999,
      "fzfg": false,
      "metar_trigger": false,
      "taf_trigger": false,
      "metar": "METAR EGNM 151650Z 23013KT 190V260 9999 2000SE -SHRA SCT015CB BKN030 09/07 Q1008",
      "taf": "TAF EGNM 151701Z 1518/1618 22010KT 9999 SCT020"
    },
    {
      "icao": "EGPD",
      "alert": "OK",
      "vis_m": 9999,
      "fzfg": false,
      "metar_trigger": false,
      "taf_trigger": false,
      "metar": "METAR EGPD 151650Z COR AUTO 17017KT 9999 SCT035 13/09 Q1004 NOSIG",
      "taf": "TAF EGPD 151701Z 1518/1618 16012KT 9999 FEW006 SCT030"
    },
    {
      "icao": "EGPF",
      "alert": "OK",
      "vis_m": 9999,
      "fzfg": false,
      "metar_trigger": false,
      "taf_trigger": false,
      "metar": "METAR EGPF 151650Z AUTO 19016KT 9999 FEW030 SCT038 BKN049 14/08 Q1003",
      "taf": "TAF EGPF 151655Z 1518/1618 20015KT 9999 FEW012 SCT025"
    },
    {
      "icao": "EHBK",
      "alert": "OK",
      "vis_m": 9999,
      "fzfg": false,
      "metar_trigger": false,
      "taf_trigger": false,
      "metar": "METAR EHBK 151655Z AUTO 21007KT 170V230 9999 NSC 18/05 Q1018 NOSIG",
      "taf": "TAF EHBK 151114Z 1512/1618 19010KT CAVOK"
    },
    {
      "icao": "EHEH",
      "alert": "OK",
      "vis_m": 9999,
      "fzfg": false,
      "metar_trigger": false,
      "taf_trigger": false,
      "metar": "METAR EHEH 151655Z AUTO 21008KT 170V240 9999 OVC120 18/04 Q1018 BLU NOSIG",
      "taf": "TAF EHEH 151102Z 1512/1618 19015KT CAVOK"
    },
    {
      "icao": "EKBI",
      "alert": "OK",
      "vis_m": 9999,
      "fzfg": false,
      "metar_trigger": false,
      "taf_trigger": false,
      "metar": "METAR EKBI 151650Z AUTO 11007KT 9999 SCT069/// OVC095/// 10/06 Q1021",
      "taf": "TAF EKBI 151427Z 1515/1615 12005KT 9999 FEW030"
    },
    {
      "icao": "EKCH",
      "alert": "OK",
      "vis_m": 9999,
      "fzfg": false,
      "metar_trigger": false,
      "taf_trigger": false,
      "metar": "METAR EKCH 151650Z AUTO 03005KT 9999 NCD 08/03 Q1022 NOSIG",
      "taf": "TAF EKCH 151427Z 1515/1615 09008KT 9999 SCT020"
    },
    {
      "icao": "ENAL",
      "alert": "OK",
      "vis_m": 9999,
      "fzfg": false,
      "metar_trigger": false,
      "taf_trigger": false,
      "metar": "METAR ENAL 151650Z 06008KT CAVOK 12/00 Q1019",
      "taf": "TAF ENAL 151400Z 1515/1524 10008KT CAVOK"
    },
    {
      "icao": "ENBR",
      "alert": "OK",
      "vis_m": 9999,
      "fzfg": false,
      "metar_trigger": false,
      "taf_trigger": false,
      "metar": "METAR ENBR 151650Z 15012KT CAVOK 11/M00 Q1018 NOSIG RMK WIND 1200FT 14018KT",
      "taf": "TAF ENBR 151100Z 1512/1612 14010KT CAVOK"
    },
    {
      "icao": "ENGM",
      "alert": "OK",
      "vis_m": 9999,
      "fzfg": false,
      "metar_trigger": false,
      "taf_trigger": false,
      "metar": "METAR ENGM 151650Z 03007KT 9999 BKN042 10/02 Q1022 NOSIG",
      "taf": "TAF ENGM 151100Z 1512/1612 04008KT 9999 BKN030"
    },
    {
      "icao": "ENHD",
      "alert": "OK",
      "vis_m": 9999,
      "fzfg": false,
      "metar_trigger": false,
      "taf_trigger": false,
      "metar": "METAR ENHD 151650Z 11013KT 9999 FEW033 BKN042 10/02 Q1018",
      "taf": "TAF ENHD 151400Z 1515/1522 14015KT CAVOK"
    },
    {
      "icao": "ENTC",
      "alert": "OK",
      "vis_m": 9999,
      "fzfg": false,
      "metar_trigger": false,
      "taf_trigger": false,
      "metar": "METAR ENTC 151650Z 29016KT 9999 SCT066 08/00 Q1024 TEMPO BKN014 FEW020CB RMK WIND 2600FT 25008KT",
      "taf": "TAF ENTC 151100Z 1512/1612 22008KT CAVOK"
    },
    {
      "icao": "ENTO",
      "alert": "OK",
      "vis_m": 9999,
      "fzfg": false,
      "metar_trigger": false,
      "taf_trigger": false,
      "metar": "METAR ENTO 151650Z 13004KT 9999 SCT035 10/03 Q1023 NOSIG",
      "taf": "TAF ENTO 151100Z 1512/1612 03008KT 9999 BKN020"
    },
    {
      "icao": "ENVA",
      "alert": "OK",
      "vis_m": 9999,
      "fzfg": false,
      "metar_trigger": false,
      "taf_trigger": false,
      "metar": "METAR ENVA 151650Z 15012KT 110V180 CAVOK 13/M00 Q1023 NOSIG RMK WIND 670FT 16021KT",
      "taf": "TAF ENVA 151100Z 1512/1612 14012KT CAVOK"
    },
    {
      "icao": "ENZV",
      "alert": "OK",
      "vis_m": 9999,
      "fzfg": false,
      "metar_trigger": false,
      "taf_trigger": false,
      "metar": "METAR ENZV 151650Z 12010KT 9999 OVC046 09/02 Q1019 NOSIG",
      "taf": "TAF ENZV 151100Z 1512/1612 13015KT CAVOK"
    },
    {
      "icao": "EPGD",
      "alert": "OK",
      "vis_m": 9999,
      "fzfg": false,
      "metar_trigger": false,
      "taf_trigger": false,
      "metar": "METAR EPGD 151700Z 31009KT CAVOK 10/01 Q1022",
      "taf": "TAF EPGD 151130Z 1512/1612 29010KT 9999 BKN030"
    },
    {
      "icao": "EPKK",
      "alert": "OK",
      "vis_m": 9999,
      "fzfg": false,
      "metar_trigger": false,
      "taf_trigger": false,
      "metar": "METAR EPKK 151700Z 22004KT 9999 FEW023 BKN058 13/09 Q1021",
      "taf": "TAF EPKK 151430Z 1515/1615 26005KT 9999 BKN040"
    },
    {
      "icao": "EPKT",
      "alert": "OK",
      "vis_m": 9999,
      "fzfg": false,
      "metar_trigger": false,
      "taf_trigger": false,
      "metar": "METAR EPKT 151700Z 31004KT 9999 FEW027 OVC033 12/07 Q1021",
      "taf": "TAF EPKT 151130Z 1512/1612 29003KT 9999 BKN025"
    },
    {
      "icao": "EPLB",
      "alert": "OK",
      "vis_m": 9999,
      "fzfg": false,
      "metar_trigger": false,
      "taf_trigger": false,
      "metar": "METAR EPLB 151700Z 32003KT CAVOK 14/05 Q1020",
      "taf": "TAF EPLB 151130Z 1512/1612 VRB03KT CAVOK"
    },
    {
      "icao": "EPMO",
      "alert": "OK",
      "vis_m": 9999,
      "fzfg": false,
      "metar_trigger": false,
      "taf_trigger": false,
      "metar": "METAR EPMO 151700Z 31004KT 280V350 9999 FEW033 13/07 Q1021",
      "taf": "TAF EPMO 151130Z 1512/1612 27008KT CAVOK"
    },
    {
      "icao": "EPPO",
      "alert": "OK",
      "vis_m": 9999,
      "fzfg": false,
      "metar_trigger": false,
      "taf_trigger": false,
      "metar": "METAR EPPO 151700Z 31004KT CAVOK 15/01 Q1022",
      "taf": "TAF EPPO 151130Z 1512/1612 32008KT CAVOK"
    },
    {
      "icao": "EPRA",
      "alert": "OK",
      "vis_m": 9999,
      "fzfg": false,
      "metar_trigger": false,
      "taf_trigger": false,
      "metar": "METAR EPRA 151700Z 32005KT 9999 BKN038 14/07 Q1021",
      "taf": "TAF EPRA 151430Z 1515/1524 30006KT 9999 SCT040"
    },
    {
      "icao": "EPRZ",
      "alert": "OK",
      "vis_m": 9999,
      "fzfg": false,
      "metar_trigger": false,
      "taf_trigger": false,
      "metar": "METAR EPRZ 151700Z 30006KT CAVOK 15/07 Q1020",
      "taf": ""
    },
    {
      "icao": "EPSC",
      "alert": "OK",
      "vis_m": 9999,
      "fzfg": false,
      "metar_trigger": false,
      "taf_trigger": false,
      "metar": "METAR EPSC 151700Z 30005KT CAVOK 14/01 Q1022",
      "taf": "TAF EPSC 151130Z 1512/1612 VRB04KT 9999 SCT040"
    },
    {
      "icao": "EPSY",
      "alert": "OK",
      "vis_m": 9999,
      "fzfg": false,
      "metar_trigger": false,
      "taf_trigger": false,
      "metar": "METAR EPSY 151700Z VRB03KT 9999 SCT018 10/07 Q1021",
      "taf": "TAF EPSY 151430Z 1515/1524 31005KT 9999 BKN020"
    },
    {
      "icao": "EPWA",
      "alert": "OK",
      "vis_m": 9999,
      "fzfg": false,
      "metar_trigger": false,
      "taf_trigger": false,
      "metar": "METAR EPWA 151700Z 32007KT 9999 SCT036 14/07 Q1021 NOSIG",
      "taf": "TAF EPWA 151430Z 1515/1615 28010KT 9999 BKN040"
    },
    {
      "icao": "EPWR",
      "alert": "OK",
      "vis_m": 9999,
      "fzfg": false,
      "metar_trigger": false,
      "taf_trigger": false,
      "metar": "METAR EPWR 151700Z 24004KT 200V260 CAVOK 15/06 Q1021",
      "taf": "TAF EPWR 151430Z 1515/1615 VRB02KT CAVOK"
    },
    {
      "icao": "ESGG",
      "alert": "OK",
      "vis_m": 9999,
      "fzfg": false,
      "metar_trigger": false,
      "taf_trigger": false,
      "metar": "METAR ESGG 151650Z 03009KT 9999 SCT021 07/03 Q1021",
      "taf": "TAF ESGG 151430Z 1515/1615 02004KT 9999 BKN030"
    },
    {
      "icao": "ESKN",
      "alert": "OK",
      "vis_m": 9999,
      "fzfg": false,
      "metar_trigger": false,
      "taf_trigger": false,
      "metar": "METAR ESKN 151650Z 09008KT CAVOK 10/01 Q1022",
      "taf": "TAF ESKN 151430Z 1515/1615 09010KT CAVOK"
    },
    {
      "icao": "ESMS",
      "alert": "OK",
      "vis_m": 9999,
      "fzfg": false,
      "metar_trigger": false,
      "taf_trigger": false,
      "metar": "METAR ESMS 151650Z 31007KT 9999 FEW049 09/03 Q1021",
      "taf": "TAF ESMS 151427Z 1515/1615 27008KT 9999 SCT020"
    },
    {
      "icao": "ESSA",
      "alert": "OK",
      "vis_m": 9999,
      "fzfg": false,
      "metar_trigger": false,
      "taf_trigger": false,
      "metar": "METAR ESSA 151650Z 10009KT CAVOK 12/M02 Q1023 NOSIG",
      "taf": "TAF ESSA 151430Z 1515/1615 08011KT CAVOK"
    },
    {
      "icao": "EYKA",
      "alert": "OK",
      "vis_m": 9999,
      "fzfg": false,
      "metar_trigger": false,
      "taf_trigger": false,
      "metar": "METAR EYKA 151650Z 02001KT CAVOK 13/02 Q1019",
      "taf": "TAF EYKA 151700Z 1518/1618 VRB04KT 9000 NSC"
    },
    {
      "icao": "EYPA",
      "alert": "OK",
      "vis_m": 3600,
      "fzfg": false,
      "metar_trigger": false,
      "taf_trigger": false,
      "metar": "METAR EYPA 151650Z VRB02KT 3600 -SHRA BR SCT004 BKN053CB 07/06 Q1021",
      "taf": "TAF EYPA 151701Z 1518/1618 VRB03KT 3000 -SHRA BR BKN005 BKN045CB"
    },
    {
      "icao": "EYVI",
      "alert": "OK",
      "vis_m": 9999,
      "fzfg": false,
      "metar_trigger": false,
      "taf_trigger": false,
      "metar": "METAR EYVI 151650Z 36005KT 310V040 CAVOK 14/M03 Q1019 NOSIG",
      "taf": "TAF EYVI 151700Z 1518/1618 VRB04KT 9000 NSC"
    },
    {
      "icao": "GCFV",
      "alert": "OK",
      "vis_m": 9999,
      "fzfg": false,
      "metar_trigger": false,
      "taf_trigger": false,
      "metar": "METAR GCFV 151700Z 02012KT 9999 FEW020 SCT025 20/15 Q1017",
      "taf": "TAF GCFV 151400Z 1515/1615 04010KT 9999 SCT025 TX25/1614Z TN15/1606Z"
    },
    {
      "icao": "GCLP",
      "alert": "OK",
      "vis_m": 9999,
      "fzfg": false,
      "metar_trigger": false,
      "taf_trigger": false,
      "metar": "METAR GCLP 151700Z 01022KT 9999 FEW025 21/15 Q1017 NOSIG",
      "taf": "TAF GCLP 151400Z 1515/1615 01019KT 9999 SCT035 TX24/1614Z TN17/1606Z"
    },
    {
      "icao": "GCTS",
      "alert": "OK",
      "vis_m": 9999,
      "fzfg": false,
      "metar_trigger": false,
      "taf_trigger": false,
      "metar": "METAR GCTS 151700Z VRB07KT 9999 SCT030 20/13 Q1017 WS R07 NOSIG",
      "taf": "TAF GCTS 151400Z 1515/1615 06020KT 9999 FEW030 TX25/1614Z TN17/1606Z"
    },
    {
      "icao": "GMAD",
      "alert": "OK",
      "vis_m": 6000,
      "fzfg": false,
      "metar_trigger": false,
      "taf_trigger": false,
      "metar": "METAR GMAD 151700Z 29011KT 6000 NSC 33/01 Q1013 NOSIG",
      "taf": "TAF GMAD 151700Z 1518/1624 12006KT 8000 NSC"
    },
    {
      "icao": "GMMN",
      "alert": "OK",
      "vis_m": 9999,
      "fzfg": false,
      "metar_trigger": false,
      "taf_trigger": false,
      "metar": "METAR GMMN 151700Z 02014KT 340V040 CAVOK 21/15 Q1019 NOSIG",
      "taf": "TAF GMMN 151100Z 1512/1618 02012KT CAVOK"
    },
    {
      "icao": "GMMX",
      "alert": "OK",
      "vis_m": 9999,
      "fzfg": false,
      "metar_trigger": false,
      "taf_trigger": false,
      "metar": "METAR GMMX 151700Z 35006KT 290V040 CAVOK 28/08 Q1017 NOSIG",
      "taf": "TAF GMMX 151100Z 1512/1618 06006KT CAVOK"
    },
    {
      "icao": "HEGN",
      "alert": "OK",
      "vis_m": 9999,
      "fzfg": false,
      "metar_trigger": false,
      "taf_trigger": false,
      "metar": "METAR HEGN 151600Z 13004KT CAVOK 26/20 Q1008 NOSIG",
      "taf": ""
    },
    {
      "icao": "HEMA",
      "alert": "OK",
      "vis_m": 9999,
      "fzfg": false,
      "metar_trigger": false,
      "taf_trigger": false,
      "metar": "METAR HEMA 151600Z 01008KT CAVOK 25/18 Q1007 NOSIG",
      "taf": ""
    },
    {
      "icao": "HESH",
      "alert": "OK",
      "vis_m": 9999,
      "fzfg": false,
      "metar_trigger": false,
      "taf_trigger": false,
      "metar": "METAR HESH 151600Z 00000KT CAVOK 32/08 Q1008 NOSIG",
      "taf": ""
    },
    {
      "icao": "HESX",
      "alert": "OK",
      "vis_m": 9999,
      "fzfg": false,
      "metar_trigger": false,
      "taf_trigger": false,
      "metar": "METAR HESX 151600Z 03010KT CAVOK 27/10 Q1008 NOSIG",
      "taf": ""
    },
    {
      "icao": "LATI",
      "alert": "OK",
      "vis_m": null,
      "fzfg": false,
      "metar_trigger": false,
      "taf_trigger": false,
      "metar": "",
      "taf": "TAF LATI 151700Z 1518/1618 VRB05KT 9999 SCT040 BKN080 TX25/1612Z TN11/1604Z"
    },
    {
      "icao": "LBPD",
      "alert": "OK",
      "vis_m": 9999,
      "fzfg": false,
      "metar_trigger": false,
      "taf_trigger": false,
      "metar": "METAR LBPD 151700Z AUTO 25002KT 9999 FEW078/// BKN110/// BKN130/// 12/09 Q1021 NOSIG",
      "taf": "TAF LBPD 151700Z 1518/1618 VRB03KT 9999 SCT070"
    },
    {
      "icao": "LBSF",
      "alert": "OK",
      "vis_m": 9999,
      "fzfg": false,
      "metar_trigger": false,
      "taf_trigger": false,
      "metar": "METAR LBSF 151700Z AUTO 10010KT 9999 BKN053/// OVC063/// 13/05 Q1020 NOSIG",
      "taf": "TAF LBSF 151700Z 1518/1618 11010KT 9999 SCT050 BKN070"
    },
    {
      "icao": "LBWN",
      "alert": "OK",
      "vis_m": 9999,
      "fzfg": false,
      "metar_trigger": false,
      "taf_trigger": false,
      "metar": "METAR LBWN 151700Z AUTO 11007KT 9999 FEW012/// 10/08 Q1022 NOSIG",
      "taf": "TAF LBWN 151700Z 1518/1618 10010KT 9999 SCT015"
    },
    {
      "icao": "LCLK",
      "alert": "OK",
      "vis_m": 9999,
      "fzfg": false,
      "metar_trigger": false,
      "taf_trigger": false,
      "metar": "METAR LCLK 151700Z 01009KT CAVOK 22/13 Q1013 NOSIG",
      "taf": "TAF LCLK 151130Z 1512/1612 05014KT CAVOK"
    },
    {
      "icao": "LCPH",
      "alert": "OK",
      "vis_m": 9999,
      "fzfg": false,
      "metar_trigger": false,
      "taf_trigger": false,
      "metar": "METAR LCPH 151700Z VRB03KT CAVOK 20/16 Q1012 NOSIG",
      "taf": "TAF LCPH 151130Z 1512/1612 30010KT CAVOK"
    },
    {
      "icao": "LEAL",
      "alert": "OK",
      "vis_m": 9999,
      "fzfg": false,
      "metar_trigger": false,
      "taf_trigger": false,
      "metar": "METAR LEAL 151700Z 09005KT 060V120 CAVOK 19/13 Q1019 NOSIG",
      "taf": "TAF LEAL 151100Z 1512/1612 11010KT 9999 FEW030 TX21/1513Z TN12/1606Z"
    },
    {
      "icao": "LEBB",
      "alert": "OK",
      "vis_m": 9999,
      "fzfg": false,
      "metar_trigger": false,
      "taf_trigger": false,
      "metar": "METAR LEBB 151700Z 29009KT 250V330 9999 BKN014 16/13 Q1023 NOSIG",
      "taf": ""
    },
    {
      "icao": "LEBL",
      "alert": "OK",
      "vis_m": 9999,
      "fzfg": false,
      "metar_trigger": false,
      "taf_trigger": false,
      "metar": "METAR LEBL 151700Z 22012KT 9999 FEW018 17/13 Q1019 NOSIG",
      "taf": "TAF LEBL 151100Z 1512/1612 20008KT CAVOK TX18/1513Z TN11/1606Z"
    },
    {
      "icao": "LECH",
      "alert": "OK",
      "vis_m": 9999,
      "fzfg": false,
      "metar_trigger": false,
      "taf_trigger": false,
      "metar": "METAR LECH 151700Z AUTO 12007KT CAVOK 18/08 Q1020",
      "taf": "TAF LECH 151100Z 1512/1612 VRB03KT 9999 FEW030 TX23/1513Z TN08/1606Z"
    },
    {
      "icao": "LEMD",
      "alert": "OK",
      "vis_m": 9999,
      "fzfg": false,
      "metar_trigger": false,
      "taf_trigger": false,
      "metar": "METAR LEMD 151700Z 23006KT 160V280 CAVOK 24/07 Q1019 NOSIG",
      "taf": "TAF LEMD 151100Z 1512/1618 VRB04KT CAVOK TX24/1516Z TN08/1606Z"
    },
    {
      "icao": "LEMG",
      "alert": "OK",
      "vis_m": 9999,
      "fzfg": false,
      "metar_trigger": false,
      "taf_trigger": false,
      "metar": "METAR LEMG 151700Z 11008KT 080V140 CAVOK 19/13 Q1020 NOSIG",
      "taf": "TAF LEMG 151100Z 1512/1612 13010KT CAVOK TX26/1514Z TN15/1607Z"
    },
    {
      "icao": "LEVC",
      "alert": "OK",
      "vis_m": 9999,
      "fzfg": false,
      "metar_trigger": false,
      "taf_trigger": false,
      "metar": "METAR LEVC 151700Z 12008KT 9999 FEW050 22/09 Q1018 NOSIG",
      "taf": "TAF LEVC 151100Z 1512/1612 VRB04KT 9999 FEW030 TX24/1513Z TN10/1606Z"
    },
    {
      "icao": "LEXJ",
      "alert": "OK",
      "vis_m": 9999,
      "fzfg": false,
      "metar_trigger": false,
      "taf_trigger": false,
      "metar": "METAR LEXJ 151700Z 05004KT 360V110 CAVOK 16/13 Q1023",
      "taf": "TAF LEXJ 151400Z 1515/1615 VRB03KT 9999 FEW030 TX20/1611Z TN10/1606Z"
    },
    {
      "icao": "LEZG",
      "alert": "OK",
      "vis_m": 9999,
      "fzfg": false,
      "metar_trigger": false,
      "taf_trigger": false,
      "metar": "METAR LEZG 151700Z 30012KT 9999 FEW080 25/09 Q1018 NOSIG",
      "taf": "TAF LEZG 151100Z 1512/1612 31015KT 9999 FEW040 TX25/1513Z TN11/1606Z"
    },
    {
      "icao": "LEZL",
      "alert": "OK",
      "vis_m": 9999,
      "fzfg": false,
      "metar_trigger": false,
      "taf_trigger": false,
      "metar": "METAR LEZL 151700Z 30002KT CAVOK 28/09 Q1019 NOSIG",
      "taf": "TAF LEZL 151400Z 1515/1615 VRB03KT CAVOK TX28/1515Z TN13/1607Z"
    },
    {
      "icao": "LFBD",
      "alert": "OK",
      "vis_m": 9999,
      "fzfg": false,
      "metar_trigger": false,
      "taf_trigger": false,
      "metar": "METAR LFBD 151700Z AUTO 02011KT 310V040 9999 FEW027/// BKN033/// BKN039/// ///TCU 18/14 Q1022 BECMG NSC",
      "taf": "TAF LFBD 151100Z 1512/1618 VRB03KT 9999 BKN015 TX23/1615Z TN08/1605Z"
    },
    {
      "icao": "LFLL",
      "alert": "OK",
      "vis_m": 9999,
      "fzfg": false,
      "metar_trigger": false,
      "taf_trigger": false,
      "metar": "METAR LFLL 151700Z 01007KT CAVOK 17/07 Q1020 NOSIG",
      "taf": "TAF LFLL 151100Z 1512/1618 36010KT 9999 FEW030"
    },
    {
      "icao": "LFLS",
      "alert": "OK",
      "vis_m": 9999,
      "fzfg": false,
      "metar_trigger": false,
      "taf_trigger": false,
      "metar": "METAR LFLS 151700Z AUTO 36004KT 320V020 CAVOK 16/08 Q1020 NOSIG",
      "taf": "TAF LFLS 151400Z 1515/1615 35006KT 9999 BKN030"
    },
    {
      "icao": "LFMN",
      "alert": "OK",
      "vis_m": 9999,
      "fzfg": false,
      "metar_trigger": false,
      "taf_trigger": false,
      "metar": "METAR LFMN 151700Z 24006KT 9999 SCT083 19/13 Q1017 NOSIG",
      "taf": "TAF LFMN 151400Z 1515/1621 21010KT CAVOK"
    },
    {
      "icao": "LFOB",
      "alert": "OK",
      "vis_m": 9999,
      "fzfg": false,
      "metar_trigger": false,
      "taf_trigger": false,
      "metar": "METAR LFOB 151700Z AUTO 20010KT 170V230 9999 FEW030 BKN072 17/12 Q1019 TEMPO 4000 SHRA BKN014 SCT025TCU",
      "taf": "TAF LFOB 151100Z 1512/1612 19012KT CAVOK"
    },
    {
      "icao": "LFPO",
      "alert": "OK",
      "vis_m": 9999,
      "fzfg": false,
      "metar_trigger": false,
      "taf_trigger": false,
      "metar": "METAR LFPO 151700Z 22008KT 180V260 9999 SCT030 BKN080 17/10 Q1020 NOSIG",
      "taf": "TAF LFPO 151100Z 1512/1618 21010KT 9999 BKN030"
    },
    {
      "icao": "LFSB",
      "alert": "OK",
      "vis_m": 9999,
      "fzfg": false,
      "metar_trigger": false,
      "taf_trigger": false,
      "metar": "METAR LFSB 151700Z AUTO 13004KT 090V170 9999 FEW040 14/07 Q1021 NOSIG",
      "taf": "TAF LFSB 151100Z 1512/1612 01005KT 9999 BKN040"
    },
    {
      "icao": "LGAV",
      "alert": "OK",
      "vis_m": 9999,
      "fzfg": false,
      "metar_trigger": false,
      "taf_trigger": false,
      "metar": "METAR LGAV 151650Z 06013KT 9999 FEW018 16/10 Q1017 NOSIG",
      "taf": "TAF LGAV 151700Z 1518/1618 04013KT 9999 FEW020 SCT070"
    },
    {
      "icao": "LGTS",
      "alert": "OK",
      "vis_m": 9999,
      "fzfg": false,
      "metar_trigger": false,
      "taf_trigger": false,
      "metar": "METAR LGTS 151650Z 32004KT 9999 FEW025 17/12 Q1019 NOSIG",
      "taf": "TAF LGTS 151700Z 1518/1618 VRB03KT 9999 SCT025"
    },
    {
      "icao": "LHBP",
      "alert": "OK",
      "vis_m": 9999,
      "fzfg": false,
      "metar_trigger": false,
      "taf_trigger": false,
      "metar": "METAR LHBP 151700Z 09003KT 050V140 CAVOK 19/08 Q1019 NOSIG",
      "taf": "TAF LHBP 151115Z 1512/1612 VRB03KT CAVOK"
    },
    {
      "icao": "LHDC",
      "alert": "OK",
      "vis_m": 9999,
      "fzfg": false,
      "metar_trigger": false,
      "taf_trigger": false,
      "metar": "METAR LHDC 151645Z AUTO 03009KT CAVOK 19/06 Q1019 NOSIG",
      "taf": "TAF LHDC 151415Z 1515/1524 03005KT CAVOK"
    },
    {
      "icao": "LIBD",
      "alert": "OK",
      "vis_m": 8000,
      "fzfg": false,
      "metar_trigger": false,
      "taf_trigger": false,
      "metar": "METAR LIBD 151650Z 13004KT 8000 FEW010 16/15 Q1015",
      "taf": "TAF LIBD 151100Z 1512/1612 10012KT 7000 SCT020"
    },
    {
      "icao": "LIBG",
      "alert": "OK",
      "vis_m": 9999,
      "fzfg": false,
      "metar_trigger": false,
      "taf_trigger": false,
      "metar": "METAR LIBG 151650Z 07004KT 040V100 9999 FEW040 17/15 Q1015",
      "taf": "TAF LIBG 151400Z 1515/1524 VRB05KT 9999 SCT040"
    },
    {
      "icao": "LIBP",
      "alert": "OK",
      "vis_m": 7000,
      "fzfg": false,
      "metar_trigger": false,
      "taf_trigger": false,
      "metar": "METAR LIBP 151650Z AUTO 05005KT 7000 -RA OVC006/// 16/16 Q1016",
      "taf": "TAF LIBP 151100Z 1512/1612 08010KT 9999 BKN015"
    },
    {
      "icao": "LIBR",
      "alert": "OK",
      "vis_m": 9999,
      "fzfg": false,
      "metar_trigger": false,
      "taf_trigger": false,
      "metar": "METAR LIBR 151650Z 09003KT 060V120 CAVOK 16/15 Q1015",
      "taf": "TAF LIBR 151100Z 1512/1612 09011KT 9999 SCT030"
    },
    {
      "icao": "LICA",
      "alert": "OK",
      "vis_m": 9999,
      "fzfg": false,
      "metar_trigger": false,
      "taf_trigger": false,
      "metar": "METAR LICA 151650Z AUTO 07022KT 9999 BKN026/// 17/12 Q1011",
      "taf": "TAF LICA 151100Z 1512/1612 08022G32KT 9999 SCT030"
    },
    {
      "icao": "LICC",
      "alert": "OK",
      "vis_m": 5000,
      "fzfg": false,
      "metar_trigger": false,
      "taf_trigger": false,
      "metar": "METAR LICC 151650Z 08010KT 5000 BR BKN005 18/15 Q1010",
      "taf": "TAF LICC 151100Z 1512/1612 07013KT 7000 SCT015 BKN030"
    },
    {
      "icao": "LICJ",
      "alert": "OK",
      "vis_m": 9999,
      "fzfg": false,
      "metar_trigger": false,
      "taf_trigger": false,
      "metar": "METAR LICJ 151650Z COR 36005KT 9999 FEW020 16/13 Q1010",
      "taf": "TAF LICJ 151100Z 1512/1612 23010KT 9999 BKN020"
    },
    {
      "icao": "LIMC",
      "alert": "OK",
      "vis_m": 9999,
      "fzfg": false,
      "metar_trigger": false,
      "taf_trigger": false,
      "metar": "METAR LIMC 151650Z 19005KT 150V220 9999 FEW040 21/11 Q1018 NOSIG",
      "taf": "TAF LIMC 151100Z 1512/1618 VRB05KT 9999 SCT030"
    },
    {
      "icao": "LIME",
      "alert": "OK",
      "vis_m": 9999,
      "fzfg": false,
      "metar_trigger": false,
      "taf_trigger": false,
      "metar": "METAR LIME 151650Z 08007KT 9999 SCT050 SCT100 16/13 Q1019 NOSIG",
      "taf": "TAF LIME 151100Z 1512/1612 VRB05KT 7000 BKN030"
    },
    {
      "icao": "LIMF",
      "alert": "OK",
      "vis_m": 9999,
      "fzfg": false,
      "metar_trigger": false,
      "taf_trigger": false,
      "metar": "METAR LIMF 151650Z 09003KT 9999 FEW035 SCT090 20/11 Q1018",
      "taf": "TAF LIMF 151100Z 1512/1612 VRB05KT 8000 SCT040"
    },
    {
      "icao": "LIMJ",
      "alert": "OK",
      "vis_m": 9999,
      "fzfg": false,
      "metar_trigger": false,
      "taf_trigger": false,
      "metar": "METAR LIMJ 151650Z 35009KT 320V020 CAVOK 24/10 Q1016",
      "taf": "TAF LIMJ 151100Z 1512/1612 02014KT 9999 SCT060"
    },
    {
      "icao": "LIPE",
      "alert": "OK",
      "vis_m": 9999,
      "fzfg": false,
      "metar_trigger": false,
      "taf_trigger": false,
      "metar": "METAR LIPE 151650Z 25005KT 9999 BKN040 17/14 Q1018",
      "taf": "TAF LIPE 151100Z 1512/1612 VRB05KT 7000 BKN015"
    },
    {
      "icao": "LIPH",
      "alert": "OK",
      "vis_m": 9999,
      "fzfg": false,
      "metar_trigger": false,
      "taf_trigger": false,
      "metar": "METAR LIPH 151650Z 09006KT CAVOK 20/13 Q1018",
      "taf": "TAF LIPH 151100Z 1512/1612 VRB05KT 9999 SCT050"
    },
    {
      "icao": "LIPQ",
      "alert": "OK",
      "vis_m": 9999,
      "fzfg": false,
      "metar_trigger": false,
      "taf_trigger": false,
      "metar": "METAR LIPQ 151650Z AUTO 10006KT 9999 SCT096/// 19/11 Q1018",
      "taf": "TAF LIPQ 151100Z 1512/1612 10012KT 9999 SCT070"
    },
    {
      "icao": "LIPR",
      "alert": "OK",
      "vis_m": 9999,
      "fzfg": false,
      "metar_trigger": false,
      "taf_trigger": false,
      "metar": "METAR LIPR 151650Z 30007KT 9999 BKN040 15/14 Q1018",
      "taf": "TAF LIPR 151100Z 1512/1612 05010KT 6000 BKN030"
    },
    {
      "icao": "LIPX",
      "alert": "OK",
      "vis_m": 9999,
      "fzfg": false,
      "metar_trigger": false,
      "taf_trigger": false,
      "metar": "METAR LIPX 151650Z 09005KT 060V130 9999 FEW050 20/11 Q1018",
      "taf": "TAF LIPX 151100Z 1512/1612 VRB05KT 7000 BKN050"
    },
    {
      "icao": "LIPY",
      "alert": "OK",
      "vis_m": 3700,
      "fzfg": false,
      "metar_trigger": false,
      "taf_trigger": false,
      "metar": "METAR LIPY 151650Z AUTO 32004KT 3700 -RA BR OVC003/// 15/15 Q1017 REDZ",
      "taf": "TAF LIPY 151100Z 1512/1612 06010KT 9999 BKN020"
    },
    {
      "icao": "LIPZ",
      "alert": "OK",
      "vis_m": 9999,
      "fzfg": false,
      "metar_trigger": false,
      "taf_trigger": false,
      "metar": "METAR LIPZ 151650Z 15004KT CAVOK 18/14 Q1018 NOSIG",
      "taf": "TAF LIPZ 151100Z 1512/1618 12007KT 9999 SCT040"
    },
    {
      "icao": "LIRF",
      "alert": "OK",
      "vis_m": 9999,
      "fzfg": false,
      "metar_trigger": false,
      "taf_trigger": false,
      "metar": "METAR LIRF 151650Z 36004KT 9999 -DZ NSC 16/14 Q1014 NOSIG",
      "taf": "TAF LIRF 151100Z 1512/1618 27012KT 9999 SCT030"
    },
    {
      "icao": "LIRN",
      "alert": "OK",
      "vis_m": 9999,
      "fzfg": false,
      "metar_trigger": false,
      "taf_trigger": false,
      "metar": "METAR LIRN 151650Z 06008KT 9999 FEW080 21/12 Q1012 NOSIG",
      "taf": "TAF LIRN 151100Z 1512/1612 04010KT 9999 SCT040"
    },
    {
      "icao": "LIRP",
      "alert": "OK",
      "vis_m": 9999,
      "fzfg": false,
      "metar_trigger": false,
      "taf_trigger": false,
      "metar": "METAR LIRP 151645Z 11009KT 9999 FEW050 21/12 Q1015 NOSIG",
      "taf": "TAF LIRP 151100Z 1512/1612 07012KT 9999 FEW030 SCT060"
    },
    {
      "icao": "LIRZ",
      "alert": "OK",
      "vis_m": 9999,
      "fzfg": false,
      "metar_trigger": false,
      "taf_trigger": false,
      "metar": "METAR LIRZ 151650Z AUTO 02013KT 9999 NCD 17/13 Q1015",
      "taf": "TAF LIRZ 151100Z 1512/1612 03014KT 9999 SCT040"
    },
    {
      "icao": "LJLJ",
      "alert": "OK",
      "vis_m": 9999,
      "fzfg": false,
      "metar_trigger": false,
      "taf_trigger": false,
      "metar": "METAR LJLJ 151700Z 36003KT 9999 FEW028 SCT045 BKN070 15/11 Q1020 NOSIG",
      "taf": "TAF LJLJ 151700Z 1518/1618 VRB02KT 9999 BKN045"
    },
    {
      "icao": "LKMT",
      "alert": "OK",
      "vis_m": 9999,
      "fzfg": false,
      "metar_trigger": false,
      "taf_trigger": false,
      "metar": "METAR LKMT 151700Z 02006KT 9999 BKN027 12/08 Q1021 NOSIG",
      "taf": "TAF LKMT 151100Z 1512/1612 03006KT 9999 BKN020"
    },
    {
      "icao": "LKPR",
      "alert": "OK",
      "vis_m": 9999,
      "fzfg": false,
      "metar_trigger": false,
      "taf_trigger": false,
      "metar": "METAR LKPR 151700Z 02003KT 9999 BKN046 13/07 Q1021 NOSIG",
      "taf": "TAF LKPR 151400Z 1515/1621 36004KT 9999 BKN040"
    },
    {
      "icao": "LLBG",
      "alert": "OK",
      "vis_m": 9999,
      "fzfg": false,
      "metar_trigger": false,
      "taf_trigger": false,
      "metar": "METAR LLBG 151650Z 04006KT CAVOK 29/08 Q1008 NOSIG",
      "taf": "TAF LLBG 151708Z 1518/1618 09005KT CAVOK TX35/1613Z TN25/1604Z"
    },
    {
      "icao": "LMML",
      "alert": "OK",
      "vis_m": 9999,
      "fzfg": false,
      "metar_trigger": false,
      "taf_trigger": false,
      "metar": "METAR LMML 151715Z 30008KT 9999 FEW016 16/12 Q1011 NOSIG",
      "taf": "TAF LMML 151700Z 1518/1618 33010KT 9999 SCT018"
    },
    {
      "icao": "LOWW",
      "alert": "OK",
      "vis_m": 9999,
      "fzfg": false,
      "metar_trigger": false,
      "taf_trigger": false,
      "metar": "METAR LOWW 151650Z 01008KT 9999 FEW040 SCT042 16/09 Q1020 NOSIG",
      "taf": "TAF LOWW 151715Z 1518/1624 34007KT 9999 BKN040 TX19/1614Z TN08/1604Z"
    },
    {
      "icao": "LPFR",
      "alert": "OK",
      "vis_m": 9999,
      "fzfg": false,
      "metar_trigger": false,
      "taf_trigger": false,
      "metar": "METAR LPFR 151700Z 25008KT CAVOK 20/13 Q1021",
      "taf": "TAF LPFR 151700Z 1518/1618 24008KT CAVOK"
    },
    {
      "icao": "LPMA",
      "alert": "OK",
      "vis_m": 9999,
      "fzfg": false,
      "metar_trigger": false,
      "taf_trigger": false,
      "metar": "METAR LPMA 151700Z 03013KT 350V050 9999 SCT015 17/11 Q1022",
      "taf": "TAF LPMA 151700Z 1518/1618 02015KT 9999 SCT015"
    },
    {
      "icao": "LPPR",
      "alert": "OK",
      "vis_m": 9999,
      "fzfg": false,
      "metar_trigger": false,
      "taf_trigger": false,
      "metar": "METAR LPPR 151700Z 30005KT 260V340 9999 FEW013 BKN038 16/12 Q1023",
      "taf": "TAF LPPR 151700Z 1518/1618 26008KT 9999 SCT020"
    },
    {
      "icao": "LPPS",
      "alert": "OK",
      "vis_m": 9999,
      "fzfg": false,
      "metar_trigger": false,
      "taf_trigger": false,
      "metar": "METAR LPPS 151700Z 03009KT 360V070 9999 FEW015 BKN030 16/12 Q1023",
      "taf": "TAF LPPS 151700Z 1518/1624 04012KT 9999 FEW015 BKN030"
    },
    {
      "icao": "LPPT",
      "alert": "OK",
      "vis_m": 9999,
      "fzfg": false,
      "metar_trigger": false,
      "taf_trigger": false,
      "metar": "METAR LPPT 151700Z 35011KT 9999 FEW032 19/11 Q1022",
      "taf": "TAF LPPT 151700Z 1518/1624 33008KT 9999 FEW025"
    },
    {
      "icao": "LQBK",
      "alert": "OK",
      "vis_m": 9999,
      "fzfg": false,
      "metar_trigger": false,
      "taf_trigger": false,
      "metar": "METAR LQBK 151700Z 22003KT 180V250 CAVOK 16/11 Q1020 NOSIG",
      "taf": "TAF LQBK 151700Z 1518/1618 VRB03KT 9999 FEW030 SCT045 TX21/1613Z TN10/1604Z"
    },
    {
      "icao": "LQSA",
      "alert": "OK",
      "vis_m": 9999,
      "fzfg": false,
      "metar_trigger": false,
      "taf_trigger": false,
      "metar": "METAR LQSA 151700Z 23004KT 9999 FEW030 SCT040 15/12 Q1018 NOSIG",
      "taf": ""
    },
    {
      "icao": "LQTZ",
      "alert": "OK",
      "vis_m": 9999,
      "fzfg": false,
      "metar_trigger": false,
      "taf_trigger": false,
      "metar": "METAR LQTZ 151700Z 03004KT 360V060 9999 BKN040 17/11 Q1019",
      "taf": "TAF LQTZ 151700Z 1518/1618 27005KT 9999 SCT040 TX21/1613Z TN08/1604Z"
    },
    {
      "icao": "LRBC",
      "alert": "OK",
      "vis_m": 9999,
      "fzfg": false,
      "metar_trigger": false,
      "taf_trigger": false,
      "metar": "METAR LRBC 151700Z 16008KT CAVOK 14/04 Q1020",
      "taf": "TAF LRBC 151400Z 1515/1524 16010KT CAVOK"
    },
    {
      "icao": "LRBS",
      "alert": "OK",
      "vis_m": 9999,
      "fzfg": false,
      "metar_trigger": false,
      "taf_trigger": false,
      "metar": "METAR LRBS 151700Z 07003KT CAVOK 16/08 Q1020 NOSIG",
      "taf": "TAF LRBS 151100Z 1512/1612 07006KT CAVOK"
    },
    {
      "icao": "LRBV",
      "alert": "OK",
      "vis_m": 9999,
      "fzfg": false,
      "metar_trigger": false,
      "taf_trigger": false,
      "metar": "METAR LRBV 151700Z 22014KT CAVOK 16/04 Q1018",
      "taf": "TAF LRBV 151400Z 1515/1524 VRB04KT CAVOK"
    },
    {
      "icao": "LRCL",
      "alert": "OK",
      "vis_m": 9999,
      "fzfg": false,
      "metar_trigger": false,
      "taf_trigger": false,
      "metar": "METAR LRCL 151700Z 33007KT 300V360 CAVOK 16/06 Q1018",
      "taf": "TAF LRCL 151400Z 1515/1524 VRB04KT CAVOK"
    },
    {
      "icao": "LRCV",
      "alert": "OK",
      "vis_m": 9999,
      "fzfg": false,
      "metar_trigger": false,
      "taf_trigger": false,
      "metar": "METAR LRCV 151700Z 16004KT CAVOK 16/09 Q1020",
      "taf": "TAF LRCV 151400Z 1515/1524 07006KT CAVOK"
    },
    {
      "icao": "LRIA",
      "alert": "OK",
      "vis_m": 9999,
      "fzfg": false,
      "metar_trigger": false,
      "taf_trigger": false,
      "metar": "METAR LRIA 151700Z 11008KT CAVOK 16/04 Q1020",
      "taf": "TAF LRIA 151400Z 1515/1524 10005KT CAVOK"
    },
    {
      "icao": "LROP",
      "alert": "OK",
      "vis_m": 9999,
      "fzfg": false,
      "metar_trigger": false,
      "taf_trigger": false,
      "metar": "METAR LROP 151700Z 06003KT 020V090 CAVOK 16/06 Q1020 NOSIG",
      "taf": "TAF LROP 151100Z 1512/1612 07006KT CAVOK"
    },
    {
      "icao": "LRSB",
      "alert": "OK",
      "vis_m": 9999,
      "fzfg": false,
      "metar_trigger": false,
      "taf_trigger": false,
      "metar": "METAR LRSB 151700Z 32004KT CAVOK 19/07 Q1018",
      "taf": "TAF LRSB 151100Z 1512/1612 VRB04KT CAVOK"
    },
    {
      "icao": "LRSM",
      "alert": "OK",
      "vis_m": 9999,
      "fzfg": false,
      "metar_trigger": false,
      "taf_trigger": false,
      "metar": "METAR LRSM 151700Z AUTO 31005KT 9999 BKN085/// 17/09 Q1019",
      "taf": "TAF LRSM 151400Z 1515/1524 VRB04KT CAVOK"
    },
    {
      "icao": "LRSV",
      "alert": "OK",
      "vis_m": 9999,
      "fzfg": false,
      "metar_trigger": false,
      "taf_trigger": false,
      "metar": "METAR LRSV 151700Z 04004KT CAVOK 14/06 Q1019",
      "taf": "TAF LRSV 151400Z 1515/1524 08005KT CAVOK"
    },
    {
      "icao": "LRTM",
      "alert": "OK",
      "vis_m": 9999,
      "fzfg": false,
      "metar_trigger": false,
      "taf_trigger": false,
      "metar": "METAR LRTM 151700Z 29004KT CAVOK 17/07 Q1018",
      "taf": "TAF LRTM 151400Z 1515/1524 VRB04KT CAVOK"
    },
    {
      "icao": "LRTR",
      "alert": "OK",
      "vis_m": 9999,
      "fzfg": false,
      "metar_trigger": false,
      "taf_trigger": false,
      "metar": "METAR LRTR 151700Z 35005KT CAVOK 18/09 Q1018",
      "taf": "TAF LRTR 151100Z 1512/1612 36006KT CAVOK"
    },
    {
      "icao": "LTAC",
      "alert": "OK",
      "vis_m": 9999,
      "fzfg": false,
      "metar_trigger": false,
      "taf_trigger": false,
      "metar": "METAR LTAC 151650Z 25004KT 9999 FEW040 SCT180 15/05 Q1018 NOSIG RMK RWY21C 24004KT RWY03L 25004KT RWY21R 22004KT RWY03R 25003KT RWY21L 24004KT",
      "taf": "TAF LTAC 151640Z 1518/1618 VRB02KT CAVOK"
    },
    {
      "icao": "LTFM",
      "alert": "OK",
      "vis_m": 9999,
      "fzfg": false,
      "metar_trigger": false,
      "taf_trigger": false,
      "metar": "METAR LTFM 151650Z 06014KT 9999 SCT011 BKN180 10/07 Q1021 NOSIG RMK RWY17L 07012KT RWY34L 05011KT RWY16R 06013KT RWY36 06011KT RWY18 06012KT",
      "taf": "TAF LTFM 151640Z 1518/1624 05012KT 9999 SCT010 BKN180"
    },
    {
      "icao": "LUKK",
      "alert": "OK",
      "vis_m": 9999,
      "fzfg": false,
      "metar_trigger": false,
      "taf_trigger": false,
      "metar": "METAR LUKK 151700Z 18005KT CAVOK 12/M00 Q1020 NOSIG",
      "taf": "TAF LUKK 151703Z 1518/1618 18006KT 9999 SCT040"
    },
    {
      "icao": "LWOH",
      "alert": "OK",
      "vis_m": null,
      "fzfg": false,
      "metar_trigger": false,
      "taf_trigger": false,
      "metar": "",
      "taf": "TAF LWOH 151715Z 1518/1618 VRB03KT 9999 BKN035"
    },
    {
      "icao": "LWSK",
      "alert": "OK",
      "vis_m": null,
      "fzfg": false,
      "metar_trigger": false,
      "taf_trigger": false,
      "metar": "",
      "taf": "TAF LWSK 151715Z 1518/1618 VRB02KT 9999 SCT025 BKN060"
    },
    {
      "icao": "LYBE",
      "alert": "OK",
      "vis_m": 9999,
      "fzfg": false,
      "metar_trigger": false,
      "taf_trigger": false,
      "metar": "METAR LYBE 151700Z 01004KT CAVOK 19/09 Q1018 NOSIG",
      "taf": "TAF LYBE 151100Z 1512/1612 07007KT CAVOK TX22/1612Z TN11/1604Z"
    },
    {
      "icao": "LYNI",
      "alert": "OK",
      "vis_m": 9999,
      "fzfg": false,
      "metar_trigger": false,
      "taf_trigger": false,
      "metar": "METAR LYNI 151700Z 09006KT 060V120 CAVOK 20/08 Q1017 NOSIG",
      "taf": "TAF LYNI 151100Z 1512/1612 07007KT CAVOK TX23/1612Z TN11/1604Z"
    },
    {
      "icao": "LYPG",
      "alert": "OK",
      "vis_m": 9999,
      "fzfg": false,
      "metar_trigger": false,
      "taf_trigger": false,
      "metar": "METAR LYPG 151700Z 12007KT 080V150 9999 BKN050 OVC080 20/12 Q1016 NOSIG",
      "taf": "TAF LYPG 151100Z 1512/1612 16005KT 9999 FEW040 BKN090 TX24/1512Z TN13/1604Z"
    },
    {
      "icao": "LZIB",
      "alert": "OK",
      "vis_m": 9999,
      "fzfg": false,
      "metar_trigger": false,
      "taf_trigger": false,
      "metar": "METAR LZIB 151700Z 30007KT 9999 BKN045 17/09 Q1020 NOSIG",
      "taf": "TAF LZIB 151715Z 1518/1618 33008KT CAVOK"
    },
    {
      "icao": "LZKZ",
      "alert": "OK",
      "vis_m": 9999,
      "fzfg": false,
      "metar_trigger": false,
      "taf_trigger": false,
      "metar": "METAR LZKZ 151700Z 01009KT CAVOK 17/06 Q1019 NOSIG",
      "taf": "TAF LZKZ 151715Z 1518/1618 01008KT CAVOK"
    },
    {
      "icao": "LZTT",
      "alert": "OK",
      "vis_m": 9999,
      "fzfg": false,
      "metar_trigger": false,
      "taf_trigger": false,
      "metar": "METAR LZTT 151700Z 09005KT 9999 FEW026 BKN046 12/07 Q1020 NOSIG",
      "taf": "TAF LZTT 151715Z 1518/1618 09008KT 9999 BKN040"
    },
    {
      "icao": "OEJN",
      "alert": "OK",
      "vis_m": 9999,
      "fzfg": false,
      "metar_trigger": false,
      "taf_trigger": false,
      "metar": "METAR OEJN 151700Z 19004KT CAVOK 31/18 Q1006 NOSIG",
      "taf": "TAF OEJN 151700Z 1518/1624 01006KT 7000 SCT040"
    },
    {
      "icao": "OEMA",
      "alert": "OK",
      "vis_m": 9999,
      "fzfg": false,
      "metar_trigger": false,
      "taf_trigger": false,
      "metar": "METAR OEMA 151700Z 34007KT 9999 TS FEW035CB SCT040 27/16 Q1013 NOSIG",
      "taf": "TAF OEMA 151700Z 1518/1624 11015KT 7000 SCT045"
    },
    {
      "icao": "OJAI",
      "alert": "OK",
      "vis_m": null,
      "fzfg": false,
      "metar_trigger": false,
      "taf_trigger": false,
      "metar": "",
      "taf": "TAF OJAI 151700Z 1518/1624 13010KT 4000 DU NSC"
    },
    {
      "icao": "OMAA",
      "alert": "OK",
      "vis_m": null,
      "fzfg": false,
      "metar_trigger": false,
      "taf_trigger": false,
      "metar": "",
      "taf": ""
    },
    {
      "icao": "OMDB",
      "alert": "OK",
      "vis_m": null,
      "fzfg": false,
      "metar_trigger": false,
      "taf_trigger": false,
      "metar": "",
      "taf": ""
    },
    {
      "icao": "UAAA",
      "alert": "OK",
      "vis_m": 9999,
      "fzfg": false,
      "metar_trigger": false,
      "taf_trigger": false,
      "metar": "METAR UAAA 151700Z 12002MPS 020V160 9999 SCT050CB OVC100 17/07 Q1013 NOSIG",
      "taf": "TAF UAAA 151105Z 1512/1612 20003G08MPS 9999 SCT050CB BKN100 TX18/1609Z TN08/1601Z"
    },
    {
      "icao": "UBBB",
      "alert": "OK",
      "vis_m": 9999,
      "fzfg": false,
      "metar_trigger": false,
      "taf_trigger": false,
      "metar": "METAR UBBB 151700Z 22004KT 9999 BKN049 12/08 Q1022 NOSIG",
      "taf": "TAF UBBB 151657Z 1518/1618 19006KT 9999 SCT030 TX15/1610Z TN07/1600Z"
    },
    {
      "icao": "UDSG",
      "alert": "OK",
      "vis_m": 9999,
      "fzfg": false,
      "metar_trigger": false,
      "taf_trigger": false,
      "metar": "METAR UDSG 151700Z 07003KT 9999 NSC 01/M11 Q1022 NOSIG",
      "taf": "TAF UDSG 151100Z 1512/1612 VRB06KT 9999 FEW050"
    },
    {
      "icao": "UDYZ",
      "alert": "OK",
      "vis_m": 9999,
      "fzfg": false,
      "metar_trigger": false,
      "taf_trigger": false,
      "metar": "METAR UDYZ 151700Z 01002KT 9999 NSC 08/M02 Q1021 NOSIG",
      "taf": "TAF UDYZ 151100Z 1512/1612 23006KT 9999 FEW040"
    },
    {
      "icao": "UGKO",
      "alert": "OK",
      "vis_m": 9999,
      "fzfg": false,
      "metar_trigger": false,
      "taf_trigger": false,
      "metar": "METAR UGKO 151700Z 27005KT CAVOK 10/04 Q1022 NOSIG",
      "taf": "TAF UGKO 151700Z 1518/1618 26007KT CAVOK TX19/1611Z TN01/1603Z"
    }
  ]
}