{
  "ts_utc": "2026-06-30T19:19:18Z",
  "threshold_m": 150,
  "source": "stations_override.txt (ICAO list) + aviationweather.gov (METAR/TAF raw)",
  "station_count": 159,
  "stations": [
    {
      "icao": "BIKF",
      "alert": "OK",
      "vis_m": 9999,
      "fzfg": false,
      "metar_trigger": false,
      "taf_trigger": false,
      "metar": "METAR BIKF 301900Z 18019KT 9999 BKN011 OVC023 10/09 Q1010",
      "taf": "TAF BIKF 301646Z 3018/0118 18020G30KT 9999 -RA BKN014 OVC024 TX11/0113Z TN09/0106Z"
    },
    {
      "icao": "BKPR",
      "alert": "OK",
      "vis_m": 9999,
      "fzfg": false,
      "metar_trigger": false,
      "taf_trigger": false,
      "metar": "METAR BKPR 301900Z 31003KT 240V030 9999 FEW080 25/13 Q1017 NOSIG",
      "taf": ""
    },
    {
      "icao": "EBCI",
      "alert": "OK",
      "vis_m": 9999,
      "fzfg": false,
      "metar_trigger": false,
      "taf_trigger": false,
      "metar": "METAR EBCI 301850Z 32003KT 280V360 CAVOK 20/11 Q1022 NOSIG",
      "taf": "TAF EBCI 301704Z 3018/0124 33006KT 9999 FEW045"
    },
    {
      "icao": "EDDB",
      "alert": "OK",
      "vis_m": 9999,
      "fzfg": false,
      "metar_trigger": false,
      "taf_trigger": false,
      "metar": "METAR EDDB 301850Z AUTO 11005KT 070V150 CAVOK 22/16 Q1020 NOSIG",
      "taf": "TAF EDDB 301700Z 3018/0118 13010KT CAVOK"
    },
    {
      "icao": "EDDH",
      "alert": "OK",
      "vis_m": 9999,
      "fzfg": false,
      "metar_trigger": false,
      "taf_trigger": false,
      "metar": "METAR EDDH 301850Z AUTO 10013KT 9999 SHRA FEW039 FEW///TCU 17/16 Q1020 BECMG NSW",
      "taf": ""
    },
    {
      "icao": "EDDK",
      "alert": "OK",
      "vis_m": 9999,
      "fzfg": false,
      "metar_trigger": false,
      "taf_trigger": false,
      "metar": "METAR EDDK 301850Z AUTO 34005KT 9999 SCT047 22/15 Q1020 NOSIG",
      "taf": "TAF EDDK 301700Z 3018/0124 34010KT CAVOK"
    },
    {
      "icao": "EDDN",
      "alert": "OK",
      "vis_m": 9999,
      "fzfg": false,
      "metar_trigger": false,
      "taf_trigger": false,
      "metar": "METAR EDDN 301850Z AUTO 10006KT CAVOK 24/21 Q1018 RESHRA TEMPO SHRA SCT040CB",
      "taf": "TAF EDDN 301700Z 3018/0118 04004KT 9999 BKN035"
    },
    {
      "icao": "EDDS",
      "alert": "OK",
      "vis_m": 9999,
      "fzfg": false,
      "metar_trigger": false,
      "taf_trigger": false,
      "metar": "METAR EDDS 301850Z AUTO VRB02KT CAVOK 22/18 Q1019 NOSIG",
      "taf": "TAF EDDS 301700Z 3018/0118 35006KT 9999 FEW040"
    },
    {
      "icao": "EDFH",
      "alert": "OK",
      "vis_m": 9999,
      "fzfg": false,
      "metar_trigger": false,
      "taf_trigger": false,
      "metar": "METAR EDFH 301850Z 34012KT CAVOK 22/15 Q1020",
      "taf": "TAF EDFH 301700Z 3018/0118 01005KT CAVOK"
    },
    {
      "icao": "EDJA",
      "alert": "OK",
      "vis_m": 9999,
      "fzfg": false,
      "metar_trigger": false,
      "taf_trigger": false,
      "metar": "METAR EDJA 301850Z 09003KT 030V140 CAVOK 21/14 Q1020",
      "taf": "TAF EDJA 301700Z 3018/0103 20006KT CAVOK"
    },
    {
      "icao": "EDLW",
      "alert": "OK",
      "vis_m": 9999,
      "fzfg": false,
      "metar_trigger": false,
      "taf_trigger": false,
      "metar": "METAR EDLW 301850Z 33003KT 250V050 9999 FEW042 21/16 Q1020",
      "taf": "TAF EDLW 301700Z 3018/0118 30004KT CAVOK"
    },
    {
      "icao": "EDNY",
      "alert": "OK",
      "vis_m": 9999,
      "fzfg": false,
      "metar_trigger": false,
      "taf_trigger": false,
      "metar": "METAR EDNY 301850Z 03006KT 350V050 CAVOK 23/16 Q1018",
      "taf": "TAF EDNY 301700Z 3018/0103 VRB03KT CAVOK"
    },
    {
      "icao": "EDSB",
      "alert": "OK",
      "vis_m": 9999,
      "fzfg": false,
      "metar_trigger": false,
      "taf_trigger": false,
      "metar": "METAR EDSB 301850Z VRB02KT CAVOK 27/19 Q1017",
      "taf": "TAF EDSB 301700Z 3018/0118 35007KT CAVOK"
    },
    {
      "icao": "EETN",
      "alert": "OK",
      "vis_m": 9999,
      "fzfg": false,
      "metar_trigger": false,
      "taf_trigger": false,
      "metar": "METAR EETN 301850Z 26009KT CAVOK 20/15 Q1018 NOSIG",
      "taf": "TAF EETN 301730Z 3018/0118 27012KT CAVOK"
    },
    {
      "icao": "EFTU",
      "alert": "OK",
      "vis_m": 9999,
      "fzfg": false,
      "metar_trigger": false,
      "taf_trigger": false,
      "metar": "METAR EFTU 301850Z AUTO 32004KT 290V350 CAVOK 17/08 Q1020",
      "taf": "TAF EFTU 301728Z 3018/0118 33006KT CAVOK"
    },
    {
      "icao": "EGBB",
      "alert": "OK",
      "vis_m": 9999,
      "fzfg": false,
      "metar_trigger": false,
      "taf_trigger": false,
      "metar": "METAR EGBB 301850Z 23005KT 190V270 9999 -RA FEW043 19/14 Q1020 RERA",
      "taf": "TAF EGBB 301659Z 3018/0118 28006KT 9999 SCT030"
    },
    {
      "icao": "EGGP",
      "alert": "OK",
      "vis_m": 9999,
      "fzfg": false,
      "metar_trigger": false,
      "taf_trigger": false,
      "metar": "METAR EGGP 301850Z VRB02KT 9999 VCSH FEW011CB SCT018 BKN031 17/15 Q1019",
      "taf": "TAF EGGP 301703Z 3018/0118 21010KT 9999 SCT025"
    },
    {
      "icao": "EGGW",
      "alert": "OK",
      "vis_m": 9999,
      "fzfg": false,
      "metar_trigger": false,
      "taf_trigger": false,
      "metar": "METAR EGGW 301850Z AUTO 24010KT 9999 NCD 21/11 Q1020",
      "taf": "TAF EGGW 301656Z 3018/0118 24008KT 9999 SCT038"
    },
    {
      "icao": "EGKK",
      "alert": "OK",
      "vis_m": 9999,
      "fzfg": false,
      "metar_trigger": false,
      "taf_trigger": false,
      "metar": "METAR EGKK 301850Z 24009KT 9999 FEW036 20/12 Q1020",
      "taf": "TAF EGKK 301658Z 3018/0124 24010KT 9999 SCT030"
    },
    {
      "icao": "EGNM",
      "alert": "OK",
      "vis_m": 4000,
      "fzfg": false,
      "metar_trigger": false,
      "taf_trigger": false,
      "metar": "METAR EGNM 301850Z 26013KT 4000 SHRA SCT045 15/14 Q1019",
      "taf": ""
    },
    {
      "icao": "EGPD",
      "alert": "OK",
      "vis_m": 9999,
      "fzfg": false,
      "metar_trigger": false,
      "taf_trigger": false,
      "metar": "METAR EGPD 301850Z AUTO 20008KT 9999 NCD 17/11 Q1019",
      "taf": "TAF EGPD 301658Z 3018/0118 17010KT 9999 FEW035"
    },
    {
      "icao": "EGPF",
      "alert": "OK",
      "vis_m": 9999,
      "fzfg": false,
      "metar_trigger": false,
      "taf_trigger": false,
      "metar": "METAR EGPF 301850Z AUTO 25006KT 9999 FEW023/// SCT028/// BKN039/// //////CB 17/14 Q1019",
      "taf": "TAF EGPF 301652Z 3018/0118 VRB04KT 9999 BKN024"
    },
    {
      "icao": "EHBK",
      "alert": "OK",
      "vis_m": 9999,
      "fzfg": false,
      "metar_trigger": false,
      "taf_trigger": false,
      "metar": "METAR EHBK 301855Z AUTO 35004KT 320V030 9999 NSC 22/14 Q1021 NOSIG",
      "taf": "TAF EHBK 301655Z 3018/0124 35006KT CAVOK"
    },
    {
      "icao": "EHEH",
      "alert": "OK",
      "vis_m": 9999,
      "fzfg": false,
      "metar_trigger": false,
      "taf_trigger": false,
      "metar": "METAR EHEH 301855Z AUTO VRB02KT 9999 FEW023CB BKN099 OVC100 21/15 Q1021 REDZ BLU BECMG VRB02KT",
      "taf": "TAF EHEH 301709Z 3018/0124 35004KT CAVOK"
    },
    {
      "icao": "EKBI",
      "alert": "OK",
      "vis_m": 9999,
      "fzfg": false,
      "metar_trigger": false,
      "taf_trigger": false,
      "metar": "METAR EKBI 301850Z AUTO 29007KT 270V330 9999 BKN120/// 18/13 Q1022",
      "taf": "TAF EKBI 301727Z 3018/0118 VRB03KT 9999 FEW030"
    },
    {
      "icao": "EKCH",
      "alert": "OK",
      "vis_m": 9999,
      "fzfg": false,
      "metar_trigger": false,
      "taf_trigger": false,
      "metar": "METAR EKCH 301850Z AUTO 02004KT 9999 NCD 20/13 Q1022 NOSIG",
      "taf": "TAF EKCH 301727Z 3018/0118 04008KT 9999 BKN040"
    },
    {
      "icao": "ENAL",
      "alert": "OK",
      "vis_m": 9999,
      "fzfg": false,
      "metar_trigger": false,
      "taf_trigger": false,
      "metar": "METAR ENAL 301850Z 27006KT 9999 BKN052 14/10 Q1022",
      "taf": "TAF ENAL 301700Z 3018/0103 25005KT 9999 BKN050"
    },
    {
      "icao": "ENBR",
      "alert": "OK",
      "vis_m": 9999,
      "fzfg": false,
      "metar_trigger": false,
      "taf_trigger": false,
      "metar": "METAR ENBR 301850Z 21004KT 180V250 9999 FEW030TCU 15/12 Q1022 BECMG 34010KT RMK WIND 1200FT 27003KT",
      "taf": "TAF ENBR 301700Z 3018/0118 30005KT 9999 FEW020 SCT045"
    },
    {
      "icao": "ENGM",
      "alert": "OK",
      "vis_m": 9999,
      "fzfg": false,
      "metar_trigger": false,
      "taf_trigger": false,
      "metar": "METAR ENGM 301850Z 23007KT 200V260 CAVOK 19/08 Q1019 NOSIG",
      "taf": "TAF ENGM 301700Z 3018/0118 19010KT CAVOK"
    },
    {
      "icao": "ENHD",
      "alert": "OK",
      "vis_m": 9999,
      "fzfg": false,
      "metar_trigger": false,
      "taf_trigger": false,
      "metar": "METAR ENHD 301850Z 24003KT CAVOK 16/12 Q1022",
      "taf": "TAF ENHD 301400Z 3015/3022 21010KT 9999 FEW030"
    },
    {
      "icao": "ENTC",
      "alert": "OK",
      "vis_m": 9999,
      "fzfg": false,
      "metar_trigger": false,
      "taf_trigger": false,
      "metar": "METAR ENTC 301850Z 22021KT 9999 -RA SCT019 BKN036 11/09 Q1011 NOSIG RMK WIND 2600FT 22022KT",
      "taf": "TAF ENTC 301700Z 3018/0118 21018KT 9999 -SHRA FEW015 BKN030"
    },
    {
      "icao": "ENTO",
      "alert": "OK",
      "vis_m": 9999,
      "fzfg": false,
      "metar_trigger": false,
      "taf_trigger": false,
      "metar": "METAR ENTO 301850Z 20008KT CAVOK 18/12 Q1020 NOSIG",
      "taf": "TAF ENTO 301700Z 3018/0118 19012KT CAVOK"
    },
    {
      "icao": "ENVA",
      "alert": "OK",
      "vis_m": 9999,
      "fzfg": false,
      "metar_trigger": false,
      "taf_trigger": false,
      "metar": "METAR ENVA 301850Z 32009KT 9999 FEW030 SCT038 15/09 Q1022 NOSIG RMK WIND 670FT 32012KT",
      "taf": "TAF ENVA 301700Z 3018/0118 26005KT 9999 FEW020 BKN040"
    },
    {
      "icao": "ENZV",
      "alert": "OK",
      "vis_m": 9999,
      "fzfg": false,
      "metar_trigger": false,
      "taf_trigger": false,
      "metar": "METAR ENZV 301850Z 27004KT CAVOK 16/13 Q1022 NOSIG",
      "taf": "TAF ENZV 301700Z 3018/0118 30008KT CAVOK"
    },
    {
      "icao": "EPGD",
      "alert": "OK",
      "vis_m": 9999,
      "fzfg": false,
      "metar_trigger": false,
      "taf_trigger": false,
      "metar": "METAR EPGD 301900Z 03006KT CAVOK 18/13 Q1022",
      "taf": "TAF EPGD 301730Z 3018/0118 06006KT CAVOK"
    },
    {
      "icao": "EPKK",
      "alert": "OK",
      "vis_m": 9999,
      "fzfg": false,
      "metar_trigger": false,
      "taf_trigger": false,
      "metar": "METAR EPKK 301900Z 06005KT CAVOK 28/20 Q1017",
      "taf": "TAF EPKK 301730Z 3018/0118 VRB02KT CAVOK"
    },
    {
      "icao": "EPKT",
      "alert": "OK",
      "vis_m": 9999,
      "fzfg": false,
      "metar_trigger": false,
      "taf_trigger": false,
      "metar": "METAR EPKT 301900Z 10005KT CAVOK 26/21 Q1018",
      "taf": "TAF EPKT 301730Z 3018/0118 10010KT CAVOK"
    },
    {
      "icao": "EPLB",
      "alert": "OK",
      "vis_m": 9999,
      "fzfg": false,
      "metar_trigger": false,
      "taf_trigger": false,
      "metar": "METAR EPLB 301900Z 04004KT CAVOK 28/16 Q1018",
      "taf": "TAF EPLB 301730Z 3018/0118 05010KT CAVOK"
    },
    {
      "icao": "EPMO",
      "alert": "OK",
      "vis_m": 9999,
      "fzfg": false,
      "metar_trigger": false,
      "taf_trigger": false,
      "metar": "METAR EPMO 301900Z 01006KT CAVOK 26/17 Q1019",
      "taf": "TAF EPMO 301730Z 3018/0118 05010KT CAVOK"
    },
    {
      "icao": "EPPO",
      "alert": "OK",
      "vis_m": 9999,
      "fzfg": false,
      "metar_trigger": false,
      "taf_trigger": false,
      "metar": "METAR EPPO 301900Z 35009KT 9999 -SHRA BKN056CB 22/18 Q1019",
      "taf": "TAF EPPO 301730Z 3018/0118 04007KT CAVOK"
    },
    {
      "icao": "EPRA",
      "alert": "OK",
      "vis_m": 9999,
      "fzfg": false,
      "metar_trigger": false,
      "taf_trigger": false,
      "metar": "METAR EPRA 301900Z 05004KT CAVOK 29/16 Q1018",
      "taf": "TAF EPRA 301730Z 3018/0103 07006KT CAVOK"
    },
    {
      "icao": "EPRZ",
      "alert": "OK",
      "vis_m": 9999,
      "fzfg": false,
      "metar_trigger": false,
      "taf_trigger": false,
      "metar": "METAR EPRZ 301900Z 06005KT CAVOK 29/18 Q1018",
      "taf": "TAF EPRZ 301730Z 3018/0118 06010KT CAVOK"
    },
    {
      "icao": "EPSC",
      "alert": "OK",
      "vis_m": 9999,
      "fzfg": false,
      "metar_trigger": false,
      "taf_trigger": false,
      "metar": "METAR EPSC 301900Z 02005KT 340V040 CAVOK 22/12 Q1020",
      "taf": ""
    },
    {
      "icao": "EPSY",
      "alert": "OK",
      "vis_m": 9999,
      "fzfg": false,
      "metar_trigger": false,
      "taf_trigger": false,
      "metar": "METAR EPSY 301900Z 01007KT CAVOK 21/15 Q1021",
      "taf": "TAF EPSY 301730Z 3018/0103 03008KT CAVOK"
    },
    {
      "icao": "EPWA",
      "alert": "OK",
      "vis_m": 9999,
      "fzfg": false,
      "metar_trigger": false,
      "taf_trigger": false,
      "metar": "METAR EPWA 301900Z 04008KT 010V090 CAVOK 29/15 Q1019 NOSIG",
      "taf": "TAF EPWA 301730Z 3018/0118 05010KT CAVOK"
    },
    {
      "icao": "EPWR",
      "alert": "OK",
      "vis_m": 9999,
      "fzfg": false,
      "metar_trigger": false,
      "taf_trigger": false,
      "metar": "METAR EPWR 301900Z 01006KT CAVOK 28/20 Q1017",
      "taf": "TAF EPWR 301730Z 3018/0118 02005KT 9999 SCT040"
    },
    {
      "icao": "ESGG",
      "alert": "OK",
      "vis_m": 9999,
      "fzfg": false,
      "metar_trigger": false,
      "taf_trigger": false,
      "metar": "METAR ESGG 301850Z 27003KT 9999 FEW026 OVC150 16/11 Q1022",
      "taf": "TAF ESGG 301730Z 3018/0118 23006KT CAVOK"
    },
    {
      "icao": "ESKN",
      "alert": "OK",
      "vis_m": 9999,
      "fzfg": false,
      "metar_trigger": false,
      "taf_trigger": false,
      "metar": "METAR ESKN 301850Z 15005KT CAVOK 21/16 Q1020",
      "taf": "TAF ESKN 301730Z 3018/0118 21007KT CAVOK"
    },
    {
      "icao": "ESMS",
      "alert": "OK",
      "vis_m": 9999,
      "fzfg": false,
      "metar_trigger": false,
      "taf_trigger": false,
      "metar": "METAR ESMS 301850Z 25004KT CAVOK 19/14 Q1021",
      "taf": "TAF ESMS 301727Z 3018/0118 30006KT 9999 FEW040"
    },
    {
      "icao": "ESSA",
      "alert": "OK",
      "vis_m": 9999,
      "fzfg": false,
      "metar_trigger": false,
      "taf_trigger": false,
      "metar": "METAR ESSA 301850Z 11007KT CAVOK 18/09 Q1020 NOSIG",
      "taf": "TAF ESSA 301730Z 3018/0118 12010KT CAVOK"
    },
    {
      "icao": "EYKA",
      "alert": "OK",
      "vis_m": 9999,
      "fzfg": false,
      "metar_trigger": false,
      "taf_trigger": false,
      "metar": "METAR EYKA 301850Z 30005KT CAVOK 24/16 Q1020",
      "taf": "TAF EYKA 301720Z 3018/0118 VRB03KT 9000 NSC"
    },
    {
      "icao": "EYPA",
      "alert": "OK",
      "vis_m": 9999,
      "fzfg": false,
      "metar_trigger": false,
      "taf_trigger": false,
      "metar": "METAR EYPA 301850Z VRB02KT CAVOK 19/14 Q1021",
      "taf": "TAF EYPA 301707Z 3018/0118 VRB03KT 9000 NSC"
    },
    {
      "icao": "EYVI",
      "alert": "OK",
      "vis_m": 9999,
      "fzfg": false,
      "metar_trigger": false,
      "taf_trigger": false,
      "metar": "METAR EYVI 301850Z 35003KT 320V030 CAVOK 23/14 Q1020 NOSIG",
      "taf": "TAF EYVI 301728Z 3018/0118 36010KT 9000 NSC"
    },
    {
      "icao": "GCFV",
      "alert": "OK",
      "vis_m": 9999,
      "fzfg": false,
      "metar_trigger": false,
      "taf_trigger": false,
      "metar": "METAR GCFV 301900Z 04008KT CAVOK 23/20 Q1016",
      "taf": "TAF GCFV 301400Z 3015/0115 04015KT 9999 FEW015 TX28/0114Z TN21/0106Z"
    },
    {
      "icao": "GCLP",
      "alert": "OK",
      "vis_m": 9999,
      "fzfg": false,
      "metar_trigger": false,
      "taf_trigger": false,
      "metar": "METAR GCLP 301900Z 01026KT 9999 FEW020 24/18 Q1016 NOSIG",
      "taf": "TAF GCLP 301400Z 3015/0115 01027KT 9999 FEW020 TX29/0114Z TN23/0106Z"
    },
    {
      "icao": "GCTS",
      "alert": "OK",
      "vis_m": 9999,
      "fzfg": false,
      "metar_trigger": false,
      "taf_trigger": false,
      "metar": "METAR GCTS 301900Z 08017KT 9999 FEW025 27/16 Q1016 WS R07 NOSIG",
      "taf": "TAF GCTS 301400Z 3015/0115 08022KT 9999 FEW025 TX29/0114Z TN21/0106Z"
    },
    {
      "icao": "GMAD",
      "alert": "OK",
      "vis_m": 8000,
      "fzfg": false,
      "metar_trigger": false,
      "taf_trigger": false,
      "metar": "METAR GMAD 301900Z 21014KT 8000 NSC 24/18 Q1011 NOSIG",
      "taf": "TAF GMAD 301700Z 3018/0124 24014KT CAVOK"
    },
    {
      "icao": "GMMN",
      "alert": "OK",
      "vis_m": 9999,
      "fzfg": false,
      "metar_trigger": false,
      "taf_trigger": false,
      "metar": "METAR GMMN 301900Z 35009KT CAVOK 26/20 Q1015 NOSIG",
      "taf": "TAF GMMN 301100Z 3012/0118 34012KT CAVOK"
    },
    {
      "icao": "GMMX",
      "alert": "OK",
      "vis_m": 9999,
      "fzfg": false,
      "metar_trigger": false,
      "taf_trigger": false,
      "metar": "METAR GMMX 301900Z 34007KT 300V040 CAVOK 37/13 Q1014 NOSIG",
      "taf": "TAF GMMX 301700Z 3018/0124 06006KT 8000 NSC"
    },
    {
      "icao": "HEGN",
      "alert": "OK",
      "vis_m": 9999,
      "fzfg": false,
      "metar_trigger": false,
      "taf_trigger": false,
      "metar": "METAR HEGN 301900Z 31013KT CAVOK 35/02 Q1005 NOSIG",
      "taf": "TAF HEGN 301700Z 3018/0124 33010G20KT CAVOK"
    },
    {
      "icao": "HEMA",
      "alert": "OK",
      "vis_m": 9999,
      "fzfg": false,
      "metar_trigger": false,
      "taf_trigger": false,
      "metar": "METAR HEMA 301900Z 32006KT CAVOK 31/11 Q1005 NOSIG",
      "taf": "TAF HEMA 301700Z 3018/0124 32012G22KT CAVOK"
    },
    {
      "icao": "HESH",
      "alert": "OK",
      "vis_m": 9999,
      "fzfg": false,
      "metar_trigger": false,
      "taf_trigger": false,
      "metar": "METAR HESH 301900Z 35014KT CAVOK 37/11 Q1004 NOSIG",
      "taf": "TAF HESH 301700Z 3018/0124 36012KT CAVOK"
    },
    {
      "icao": "HESX",
      "alert": "OK",
      "vis_m": 9999,
      "fzfg": false,
      "metar_trigger": false,
      "taf_trigger": false,
      "metar": "METAR HESX 301900Z 35010KT CAVOK 28/18 Q1011 NOSIG",
      "taf": "TAF HESX 301700Z 3018/0124 34012G22KT CAVOK"
    },
    {
      "icao": "LATI",
      "alert": "OK",
      "vis_m": null,
      "fzfg": false,
      "metar_trigger": false,
      "taf_trigger": false,
      "metar": "",
      "taf": "TAF LATI 301700Z 3018/0118 24010KT 9999 FEW040CB SCT100 TX35/0112Z TN21/0104Z"
    },
    {
      "icao": "LBPD",
      "alert": "OK",
      "vis_m": 9999,
      "fzfg": false,
      "metar_trigger": false,
      "taf_trigger": false,
      "metar": "METAR LBPD 301900Z AUTO 28006KT 9999 NCD 27/17 Q1014 NOSIG",
      "taf": "TAF LBPD 301700Z 3018/0118 11010KT 9999 SCT065"
    },
    {
      "icao": "LBSF",
      "alert": "OK",
      "vis_m": 9999,
      "fzfg": false,
      "metar_trigger": false,
      "taf_trigger": false,
      "metar": "METAR LBSF 301900Z AUTO VRB02KT 9999 NCD 21/18 Q1017 NOSIG",
      "taf": "TAF LBSF 301700Z 3018/0118 VRB04KT 9999 SCT060"
    },
    {
      "icao": "LBWN",
      "alert": "OK",
      "vis_m": 9999,
      "fzfg": false,
      "metar_trigger": false,
      "taf_trigger": false,
      "metar": "METAR LBWN 301900Z AUTO 35004KT 9999 0500W R09/0550D HZ NCD 24/16 Q1013 NOSIG",
      "taf": "TAF LBWN 301700Z 3018/0118 VRB03KT CAVOK"
    },
    {
      "icao": "LCLK",
      "alert": "OK",
      "vis_m": 9999,
      "fzfg": false,
      "metar_trigger": false,
      "taf_trigger": false,
      "metar": "METAR LCLK 301900Z 15004KT 100V200 CAVOK 29/21 Q1007 NOSIG",
      "taf": "TAF LCLK 301730Z 3018/0118 21012KT 9999 FEW025"
    },
    {
      "icao": "LCPH",
      "alert": "OK",
      "vis_m": 9999,
      "fzfg": false,
      "metar_trigger": false,
      "taf_trigger": false,
      "metar": "METAR LCPH 301900Z 32008KT 9999 FEW012 26/24 Q1008 TEMPO BKN012",
      "taf": "TAF LCPH 301730Z 3018/0118 29013KT 9999 FEW020"
    },
    {
      "icao": "LEAL",
      "alert": "OK",
      "vis_m": 9999,
      "fzfg": false,
      "metar_trigger": false,
      "taf_trigger": false,
      "metar": "METAR LEAL 301900Z 10005KT 070V130 CAVOK 28/23 Q1019 NOSIG",
      "taf": "TAF LEAL 301700Z 3018/0118 09007KT CAVOK TX32/0112Z TN23/0106Z"
    },
    {
      "icao": "LEBB",
      "alert": "OK",
      "vis_m": 9999,
      "fzfg": false,
      "metar_trigger": false,
      "taf_trigger": false,
      "metar": "METAR LEBB 301900Z 01005KT 310V050 9999 FEW025 SCT035 BKN054 23/18 Q1026 NOSIG",
      "taf": "TAF LEBB 301700Z 3018/0118 34009KT 9999 BKN020 TX22/3018Z TN19/0105Z"
    },
    {
      "icao": "LEBL",
      "alert": "OK",
      "vis_m": 9999,
      "fzfg": false,
      "metar_trigger": false,
      "taf_trigger": false,
      "metar": "METAR LEBL 301900Z 19005KT CAVOK 28/23 Q1018 NOSIG",
      "taf": "TAF LEBL 301700Z 3018/0118 18010KT CAVOK TX31/0113Z TN24/0106Z"
    },
    {
      "icao": "LECH",
      "alert": "OK",
      "vis_m": 9999,
      "fzfg": false,
      "metar_trigger": false,
      "taf_trigger": false,
      "metar": "METAR LECH 301900Z AUTO 21006KT 180V240 CAVOK 28/17 Q1020",
      "taf": "TAF LECH 301700Z 3018/0118 15009KT CAVOK TX33/0112Z TN19/0106Z"
    },
    {
      "icao": "LEMD",
      "alert": "OK",
      "vis_m": 9999,
      "fzfg": false,
      "metar_trigger": false,
      "taf_trigger": false,
      "metar": "METAR LEMD 301900Z VRB01KT CAVOK 35/11 Q1019 NOSIG",
      "taf": "TAF LEMD 301700Z 3018/0124 VRB04KT CAVOK TX38/0116Z TN20/0105Z"
    },
    {
      "icao": "LEMG",
      "alert": "OK",
      "vis_m": 9999,
      "fzfg": false,
      "metar_trigger": false,
      "taf_trigger": false,
      "metar": "METAR LEMG 301900Z 13006KT 9999 FEW060 28/16 Q1018 NOSIG",
      "taf": "TAF LEMG 301700Z 3018/0118 14007KT 9999 FEW060 TX31/0114Z TN24/0105Z"
    },
    {
      "icao": "LEVC",
      "alert": "OK",
      "vis_m": 9999,
      "fzfg": false,
      "metar_trigger": false,
      "taf_trigger": false,
      "metar": "METAR LEVC 301900Z 11007KT 080V140 CAVOK 30/18 Q1018 NOSIG",
      "taf": "TAF LEVC 301700Z 3018/0118 12010KT CAVOK TX33/0112Z TN24/0106Z"
    },
    {
      "icao": "LEXJ",
      "alert": "OK",
      "vis_m": 9999,
      "fzfg": false,
      "metar_trigger": false,
      "taf_trigger": false,
      "metar": "METAR LEXJ 301900Z VRB04KT 9999 SCT041 BKN053 21/16 Q1026",
      "taf": "TAF LEXJ 301400Z 3015/0115 04009KT 9999 FEW020 BKN030 TX22/3015Z TN18/0106Z"
    },
    {
      "icao": "LEZG",
      "alert": "OK",
      "vis_m": 9999,
      "fzfg": false,
      "metar_trigger": false,
      "taf_trigger": false,
      "metar": "METAR LEZG 301900Z 29017KT CAVOK 30/11 Q1019 NOSIG",
      "taf": "TAF LEZG 301700Z 3018/0118 31010KT CAVOK TX30/0113Z TN18/0106Z"
    },
    {
      "icao": "LEZL",
      "alert": "OK",
      "vis_m": 9999,
      "fzfg": false,
      "metar_trigger": false,
      "taf_trigger": false,
      "metar": "METAR LEZL 301900Z 22011KT 190V250 CAVOK 36/18 Q1015 NOSIG",
      "taf": "TAF LEZL 301400Z 3015/0115 VRB03KT CAVOK TX40/3015Z TN24/0105Z"
    },
    {
      "icao": "LFBD",
      "alert": "OK",
      "vis_m": 9999,
      "fzfg": false,
      "metar_trigger": false,
      "taf_trigger": false,
      "metar": "METAR LFBD 301900Z AUTO 31012KT 9999 FEW030 22/15 Q1024 NOSIG",
      "taf": "TAF LFBD 301700Z 3018/0124 30010KT CAVOK TX26/0114Z TN17/0102Z"
    },
    {
      "icao": "LFLL",
      "alert": "OK",
      "vis_m": 9999,
      "fzfg": false,
      "metar_trigger": false,
      "taf_trigger": false,
      "metar": "METAR LFLL 301900Z 36005KT CAVOK 30/15 Q1018 NOSIG",
      "taf": "TAF LFLL 301700Z 3018/0124 35010KT CAVOK"
    },
    {
      "icao": "LFLS",
      "alert": "OK",
      "vis_m": 9999,
      "fzfg": false,
      "metar_trigger": false,
      "taf_trigger": false,
      "metar": "METAR LFLS 301900Z AUTO 01004KT CAVOK 28/16 Q1019 NOSIG",
      "taf": "TAF LFLS 301400Z 3015/0115 34010KT 9999 SCT060"
    },
    {
      "icao": "LFMN",
      "alert": "OK",
      "vis_m": 9999,
      "fzfg": false,
      "metar_trigger": false,
      "taf_trigger": false,
      "metar": "METAR LFMN 301900Z 32008KT CAVOK 30/16 Q1016 NOSIG",
      "taf": "TAF LFMN 301400Z 3015/0121 17005KT CAVOK"
    },
    {
      "icao": "LFOB",
      "alert": "OK",
      "vis_m": 9999,
      "fzfg": false,
      "metar_trigger": false,
      "taf_trigger": false,
      "metar": "METAR LFOB 301900Z AUTO 36009KT CAVOK 22/12 Q1021 NOSIG",
      "taf": "TAF LFOB 301700Z 3018/0118 36007KT CAVOK"
    },
    {
      "icao": "LFPO",
      "alert": "OK",
      "vis_m": 9999,
      "fzfg": false,
      "metar_trigger": false,
      "taf_trigger": false,
      "metar": "METAR LFPO 301900Z AUTO 03009KT CAVOK 24/11 Q1020 NOSIG",
      "taf": "TAF LFPO 301700Z 3018/0124 03011KT CAVOK"
    },
    {
      "icao": "LFSB",
      "alert": "OK",
      "vis_m": 9999,
      "fzfg": false,
      "metar_trigger": false,
      "taf_trigger": false,
      "metar": "METAR LFSB 301900Z AUTO 24008KT 9999 ///CB 26/20 Q1018 TEMPO 35010G20KT 3000 TSRA BECMG NSC",
      "taf": "TAF LFSB 301700Z 3018/0118 36006KT CAVOK"
    },
    {
      "icao": "LGAV",
      "alert": "OK",
      "vis_m": 9999,
      "fzfg": false,
      "metar_trigger": false,
      "taf_trigger": false,
      "metar": "METAR LGAV 301850Z VRB03KT CAVOK 26/15 Q1011 NOSIG",
      "taf": "TAF LGAV 301700Z 3018/0118 04015KT 9999 FEW025"
    },
    {
      "icao": "LGTS",
      "alert": "OK",
      "vis_m": 9999,
      "fzfg": false,
      "metar_trigger": false,
      "taf_trigger": false,
      "metar": "METAR LGTS 301850Z VRB03KT 9999 FEW018TCU 31/17 Q1011 NOSIG",
      "taf": "TAF LGTS 301700Z 3018/0118 34013KT 9999 FEW030"
    },
    {
      "icao": "LHBP",
      "alert": "OK",
      "vis_m": 9999,
      "fzfg": false,
      "metar_trigger": false,
      "taf_trigger": false,
      "metar": "METAR LHBP 301900Z 05007KT 010V100 9999 VCSH FEW110CB SCT120 32/11 Q1015 NOSIG",
      "taf": "TAF LHBP 301715Z 3018/0118 VRB04KT CAVOK"
    },
    {
      "icao": "LHDC",
      "alert": "OK",
      "vis_m": 9999,
      "fzfg": false,
      "metar_trigger": false,
      "taf_trigger": false,
      "metar": "METAR LHDC 301845Z AUTO 04007KT CAVOK 26/18 Q1016 NOSIG",
      "taf": "TAF LHDC 301715Z 3018/0103 06007KT CAVOK"
    },
    {
      "icao": "LIBD",
      "alert": "OK",
      "vis_m": 9999,
      "fzfg": false,
      "metar_trigger": false,
      "taf_trigger": false,
      "metar": "METAR LIBD 301850Z 01007KT 330V050 9999 TS SCT015CB 29/23 Q1015",
      "taf": ""
    },
    {
      "icao": "LIBG",
      "alert": "OK",
      "vis_m": 9999,
      "fzfg": false,
      "metar_trigger": false,
      "taf_trigger": false,
      "metar": "METAR LIBG 301850Z AUTO 06010KT 9999 NCD 30/17 Q1014",
      "taf": "TAF LIBG 301700Z 3018/0118 08010KT CAVOK"
    },
    {
      "icao": "LIBP",
      "alert": "OK",
      "vis_m": 9999,
      "fzfg": false,
      "metar_trigger": false,
      "taf_trigger": false,
      "metar": "METAR LIBP 301850Z AUTO 22007KT 9999 NCD 26/17 Q1015",
      "taf": "TAF LIBP 301700Z 3018/0118 VRB05KT CAVOK"
    },
    {
      "icao": "LIBR",
      "alert": "OK",
      "vis_m": 8000,
      "fzfg": false,
      "metar_trigger": false,
      "taf_trigger": false,
      "metar": "METAR LIBR 301850Z 35004KT 8000 VCTS FEW015 28/26 Q1014",
      "taf": ""
    },
    {
      "icao": "LICA",
      "alert": "OK",
      "vis_m": 9999,
      "fzfg": false,
      "metar_trigger": false,
      "taf_trigger": false,
      "metar": "METAR LICA 301850Z AUTO 22006KT 9999 SCT017/// 27/25 Q1014",
      "taf": "TAF LICA 301700Z 3018/0118 28015KT 9999 FEW030"
    },
    {
      "icao": "LICC",
      "alert": "OK",
      "vis_m": 9999,
      "fzfg": false,
      "metar_trigger": false,
      "taf_trigger": false,
      "metar": "METAR LICC 301850Z 06006KT CAVOK 29/20 Q1014",
      "taf": "TAF LICC 301700Z 3018/0118 09012KT 9999 FEW020"
    },
    {
      "icao": "LICJ",
      "alert": "OK",
      "vis_m": 9999,
      "fzfg": false,
      "metar_trigger": false,
      "taf_trigger": false,
      "metar": "METAR LICJ 301850Z 01006KT 9999 FEW020 29/23 Q1015",
      "taf": "TAF LICJ 301700Z 3018/0118 36010KT 9999 FEW020"
    },
    {
      "icao": "LIMC",
      "alert": "OK",
      "vis_m": 9999,
      "fzfg": false,
      "metar_trigger": false,
      "taf_trigger": false,
      "metar": "METAR LIMC 301850Z 30005KT CAVOK 30/17 Q1016 NOSIG",
      "taf": "TAF LIMC 301700Z 3018/0124 VRB05KT 9999 SCT050"
    },
    {
      "icao": "LIME",
      "alert": "OK",
      "vis_m": 9999,
      "fzfg": false,
      "metar_trigger": false,
      "taf_trigger": false,
      "metar": "METAR LIME 301850Z 24005KT CAVOK 30/18 Q1016 NOSIG",
      "taf": "TAF LIME 301700Z 3018/0118 VRB05KT 9999 FEW050"
    },
    {
      "icao": "LIMF",
      "alert": "OK",
      "vis_m": 9999,
      "fzfg": false,
      "metar_trigger": false,
      "taf_trigger": false,
      "metar": "METAR LIMF 301850Z VRB02KT CAVOK 30/17 Q1017",
      "taf": "TAF LIMF 301700Z 3018/0118 VRB05KT 9999 FEW040"
    },
    {
      "icao": "LIMJ",
      "alert": "OK",
      "vis_m": 9999,
      "fzfg": false,
      "metar_trigger": false,
      "taf_trigger": false,
      "metar": "METAR LIMJ 301850Z 25004KT CAVOK 27/24 Q1015",
      "taf": "TAF LIMJ 301700Z 3018/0118 VRB05KT CAVOK"
    },
    {
      "icao": "LIPE",
      "alert": "OK",
      "vis_m": 9999,
      "fzfg": false,
      "metar_trigger": false,
      "taf_trigger": false,
      "metar": "METAR LIPE 301850Z 04003KT CAVOK 32/19 Q1014",
      "taf": "TAF LIPE 301700Z 3018/0118 VRB05KT 9999 SCT030"
    },
    {
      "icao": "LIPH",
      "alert": "OK",
      "vis_m": 9999,
      "fzfg": false,
      "metar_trigger": false,
      "taf_trigger": false,
      "metar": "METAR LIPH 301850Z 14004KT CAVOK 32/18 Q1014",
      "taf": "TAF LIPH 301700Z 3018/0118 VRB05KT 9999 FEW040"
    },
    {
      "icao": "LIPQ",
      "alert": "OK",
      "vis_m": 9999,
      "fzfg": false,
      "metar_trigger": false,
      "taf_trigger": false,
      "metar": "METAR LIPQ 301850Z 09003KT 060V120 CAVOK 29/20 Q1014",
      "taf": "TAF LIPQ 301700Z 3018/0118 VRB05KT 9999 FEW040"
    },
    {
      "icao": "LIPR",
      "alert": "OK",
      "vis_m": 9999,
      "fzfg": false,
      "metar_trigger": false,
      "taf_trigger": false,
      "metar": "METAR LIPR 301850Z 15003KT CAVOK 29/22 Q1015",
      "taf": "TAF LIPR 301700Z 3018/0118 VRB05KT CAVOK"
    },
    {
      "icao": "LIPX",
      "alert": "OK",
      "vis_m": 9999,
      "fzfg": false,
      "metar_trigger": false,
      "taf_trigger": false,
      "metar": "METAR LIPX 301850Z 23005KT CAVOK 32/21 Q1014",
      "taf": "TAF LIPX 301700Z 3018/0118 VRB05KT CAVOK"
    },
    {
      "icao": "LIPY",
      "alert": "OK",
      "vis_m": 9999,
      "fzfg": false,
      "metar_trigger": false,
      "taf_trigger": false,
      "metar": "METAR LIPY 301850Z AUTO 29005KT 9999 NCD 27/21 Q1015",
      "taf": "TAF LIPY 301700Z 3018/0118 VRB05KT CAVOK"
    },
    {
      "icao": "LIPZ",
      "alert": "OK",
      "vis_m": 9999,
      "fzfg": false,
      "metar_trigger": false,
      "taf_trigger": false,
      "metar": "METAR LIPZ 301850Z 14005KT CAVOK 30/23 Q1014 NOSIG",
      "taf": "TAF LIPZ 301700Z 3018/0124 VRB05KT 9999 FEW040"
    },
    {
      "icao": "LIRF",
      "alert": "OK",
      "vis_m": 9999,
      "fzfg": false,
      "metar_trigger": false,
      "taf_trigger": false,
      "metar": "METAR LIRF 301850Z 30006KT CAVOK 28/22 Q1014 NOSIG",
      "taf": "TAF LIRF 301700Z 3018/0124 30011KT CAVOK"
    },
    {
      "icao": "LIRN",
      "alert": "OK",
      "vis_m": 9999,
      "fzfg": false,
      "metar_trigger": false,
      "taf_trigger": false,
      "metar": "METAR LIRN 301850Z VRB02KT 9999 FEW060 29/22 Q1015 NOSIG",
      "taf": "TAF LIRN 301700Z 3018/0118 22010KT CAVOK"
    },
    {
      "icao": "LIRP",
      "alert": "OK",
      "vis_m": 9999,
      "fzfg": false,
      "metar_trigger": false,
      "taf_trigger": false,
      "metar": "METAR LIRP 301845Z 28004KT CAVOK 27/19 Q1015 NOSIG",
      "taf": "TAF LIRP 301700Z 3018/0118 29009KT CAVOK"
    },
    {
      "icao": "LIRZ",
      "alert": "OK",
      "vis_m": 9999,
      "fzfg": false,
      "metar_trigger": false,
      "taf_trigger": false,
      "metar": "METAR LIRZ 301850Z AUTO VRB01KT 9999 NCD 28/14 Q1016",
      "taf": "TAF LIRZ 301700Z 3018/0118 VRB05KT CAVOK"
    },
    {
      "icao": "LJLJ",
      "alert": "OK",
      "vis_m": 9999,
      "fzfg": false,
      "metar_trigger": false,
      "taf_trigger": false,
      "metar": "METAR LJLJ 301900Z 36004KT CAVOK 22/16 Q1018 NOSIG",
      "taf": "TAF LJLJ 301700Z 3018/0118 03004KT 9999 FEW060"
    },
    {
      "icao": "LKMT",
      "alert": "OK",
      "vis_m": 9999,
      "fzfg": false,
      "metar_trigger": false,
      "taf_trigger": false,
      "metar": "METAR LKMT 301900Z 05005KT CAVOK 28/20 Q1017 NOSIG",
      "taf": "TAF LKMT 301700Z 3018/0118 06005KT CAVOK"
    },
    {
      "icao": "LKPR",
      "alert": "OK",
      "vis_m": 9999,
      "fzfg": false,
      "metar_trigger": false,
      "taf_trigger": false,
      "metar": "METAR LKPR 301900Z 34008KT CAVOK 22/18 Q1019 NOSIG",
      "taf": "TAF LKPR 301700Z 3018/0124 34008KT CAVOK"
    },
    {
      "icao": "LLBG",
      "alert": "OK",
      "vis_m": 9999,
      "fzfg": false,
      "metar_trigger": false,
      "taf_trigger": false,
      "metar": "METAR LLBG 301850Z VRB03KT 9999 FEW020 27/22 Q1010 NOSIG",
      "taf": "TAF LLBG 301701Z 3018/0118 VRB04KT 9999 FEW020 TX31/0111Z TN22/0102Z"
    },
    {
      "icao": "LMML",
      "alert": "OK",
      "vis_m": 9999,
      "fzfg": false,
      "metar_trigger": false,
      "taf_trigger": false,
      "metar": "METAR LMML 301915Z VRB02KT CAVOK 28/19 Q1015 NOSIG",
      "taf": "TAF LMML 301700Z 3018/0118 30010KT 9999 FEW018"
    },
    {
      "icao": "LOWW",
      "alert": "OK",
      "vis_m": 9999,
      "fzfg": false,
      "metar_trigger": false,
      "taf_trigger": false,
      "metar": "METAR LOWW 301850Z 15003KT CAVOK 31/17 Q1015 NOSIG",
      "taf": "TAF LOWW 301715Z 3018/0124 35007KT CAVOK TX30/0111Z TN19/0123Z"
    },
    {
      "icao": "LPFR",
      "alert": "OK",
      "vis_m": 9999,
      "fzfg": false,
      "metar_trigger": false,
      "taf_trigger": false,
      "metar": "METAR LPFR 301900Z 28011KT CAVOK 29/16 Q1017",
      "taf": "TAF LPFR 301700Z 3018/0118 26012KT CAVOK"
    },
    {
      "icao": "LPMA",
      "alert": "OK",
      "vis_m": 9999,
      "fzfg": false,
      "metar_trigger": false,
      "taf_trigger": false,
      "metar": "METAR LPMA 301900Z 02026G37KT 9999 FEW014 22/15 Q1021",
      "taf": "TAF LPMA 301700Z 3018/0118 02018G30KT 9999 SCT015"
    },
    {
      "icao": "LPPR",
      "alert": "OK",
      "vis_m": 9999,
      "fzfg": false,
      "metar_trigger": false,
      "taf_trigger": false,
      "metar": "METAR LPPR 301900Z 34012KT 300V360 CAVOK 21/16 Q1020",
      "taf": "TAF LPPR 301700Z 3018/0118 33015KT CAVOK"
    },
    {
      "icao": "LPPS",
      "alert": "OK",
      "vis_m": 9999,
      "fzfg": false,
      "metar_trigger": false,
      "taf_trigger": false,
      "metar": "METAR LPPS 301900Z 03014KT 350V070 9999 SCT015 BKN030 22/16 Q1022",
      "taf": "TAF LPPS 301700Z 3018/0124 02015KT 9999 SCT015 SCT030"
    },
    {
      "icao": "LPPT",
      "alert": "OK",
      "vis_m": 9999,
      "fzfg": false,
      "metar_trigger": false,
      "taf_trigger": false,
      "metar": "METAR LPPT 301900Z 32015KT 9999 FEW015 24/16 Q1020 NOSIG",
      "taf": "TAF LPPT 301700Z 3018/0124 33015KT CAVOK"
    },
    {
      "icao": "LQBK",
      "alert": "OK",
      "vis_m": 9999,
      "fzfg": false,
      "metar_trigger": false,
      "taf_trigger": false,
      "metar": "METAR LQBK 301900Z 28005KT CAVOK 29/21 Q1014 NOSIG",
      "taf": "TAF LQBK 301700Z 3018/0118 15005KT CAVOK TX34/0113Z TN19/0103Z"
    },
    {
      "icao": "LQSA",
      "alert": "OK",
      "vis_m": 9999,
      "fzfg": false,
      "metar_trigger": false,
      "taf_trigger": false,
      "metar": "METAR LQSA 301900Z 27011KT 9999 TSRA SCT040CB BKN055 19/16 Q1019 TEMPO NSW NSC",
      "taf": "TAF LQSA 301700Z 3018/0118 VRB02KT CAVOK TX30/0112Z TN18/0103Z"
    },
    {
      "icao": "LQTZ",
      "alert": "OK",
      "vis_m": 9999,
      "fzfg": false,
      "metar_trigger": false,
      "taf_trigger": false,
      "metar": "METAR LQTZ 301900Z 14006KT 9999 VCTS FEW035CB BKN045 25/19 Q1015",
      "taf": "TAF LQTZ 301700Z 3018/0118 03005KT 9999 FEW050 TX30/0113Z TN19/0103Z"
    },
    {
      "icao": "LRBC",
      "alert": "OK",
      "vis_m": 9999,
      "fzfg": false,
      "metar_trigger": false,
      "taf_trigger": false,
      "metar": "METAR LRBC 301900Z 32007KT CAVOK 27/19 Q1017",
      "taf": "TAF LRBC 301700Z 3018/0103 34010KT CAVOK"
    },
    {
      "icao": "LRBS",
      "alert": "OK",
      "vis_m": 9999,
      "fzfg": false,
      "metar_trigger": false,
      "taf_trigger": false,
      "metar": "METAR LRBS 301900Z 36004KT 320V050 9999 -SHRA SCT055CB 24/20 Q1015 NOSIG",
      "taf": "TAF LRBS 301700Z 3018/0118 33010KT 9999 SCT045"
    },
    {
      "icao": "LRBV",
      "alert": "OK",
      "vis_m": 9999,
      "fzfg": false,
      "metar_trigger": false,
      "taf_trigger": false,
      "metar": "METAR LRBV 301900Z 24006KT 210V280 9999 FEW045CB BKN065 19/18 Q1021 RETS",
      "taf": "TAF LRBV 301700Z 3018/0103 01010KT 9999 SCT040CB"
    },
    {
      "icao": "LRCL",
      "alert": "OK",
      "vis_m": 9999,
      "fzfg": false,
      "metar_trigger": false,
      "taf_trigger": false,
      "metar": "METAR LRCL 301900Z 24008KT 9999 -RA FEW051 24/19 Q1019",
      "taf": "TAF LRCL 301700Z 3018/0103 25010KT 9999 SCT040CB"
    },
    {
      "icao": "LRCV",
      "alert": "OK",
      "vis_m": 9999,
      "fzfg": false,
      "metar_trigger": false,
      "taf_trigger": false,
      "metar": "METAR LRCV 301900Z 03010KT 9999 FEW036 28/19 Q1015",
      "taf": "TAF LRCV 301700Z 3018/0103 01008KT 9999 SCT045"
    },
    {
      "icao": "LRIA",
      "alert": "OK",
      "vis_m": 9999,
      "fzfg": false,
      "metar_trigger": false,
      "taf_trigger": false,
      "metar": "METAR LRIA 301900Z 35008KT CAVOK 29/17 Q1016",
      "taf": "TAF LRIA 301700Z 3018/0103 35010KT CAVOK"
    },
    {
      "icao": "LROP",
      "alert": "OK",
      "vis_m": 9999,
      "fzfg": false,
      "metar_trigger": false,
      "taf_trigger": false,
      "metar": "METAR LROP 301900Z 34004KT 9999 -SHRA FEW065CB 22/22 Q1016 NOSIG",
      "taf": "TAF LROP 301700Z 3018/0118 33010KT 9999 SCT045"
    },
    {
      "icao": "LRSB",
      "alert": "OK",
      "vis_m": 9999,
      "fzfg": false,
      "metar_trigger": false,
      "taf_trigger": false,
      "metar": "METAR LRSB 301900Z 26006KT 9999 SCT080 21/19 Q1021",
      "taf": "TAF LRSB 301700Z 3018/0118 28008KT 9999 SCT045"
    },
    {
      "icao": "LRSM",
      "alert": "OK",
      "vis_m": 9999,
      "fzfg": false,
      "metar_trigger": false,
      "taf_trigger": false,
      "metar": "METAR LRSM 301900Z 08009KT CAVOK 27/17 Q1017",
      "taf": "TAF LRSM 301700Z 3018/0103 19012KT CAVOK"
    },
    {
      "icao": "LRSV",
      "alert": "OK",
      "vis_m": 9999,
      "fzfg": false,
      "metar_trigger": false,
      "taf_trigger": false,
      "metar": "METAR LRSV 301900Z 33006KT CAVOK 26/19 Q1019",
      "taf": "TAF LRSV 301700Z 3018/0103 36006KT CAVOK"
    },
    {
      "icao": "LRTM",
      "alert": "OK",
      "vis_m": 9999,
      "fzfg": false,
      "metar_trigger": false,
      "taf_trigger": false,
      "metar": "METAR LRTM 301900Z 25012KT 9999 -SHRA FEW045CB 21/20 Q1019",
      "taf": "TAF LRTM 301700Z 3018/0103 VRB04KT 9999 SCT040CB"
    },
    {
      "icao": "LRTR",
      "alert": "OK",
      "vis_m": 9999,
      "fzfg": false,
      "metar_trigger": false,
      "taf_trigger": false,
      "metar": "METAR LRTR 301900Z 10015KT 9999 FEW030 FEW055CB 23/20 Q1015",
      "taf": "TAF LRTR 301700Z 3018/0118 09009KT 9999 SCT045"
    },
    {
      "icao": "LTAC",
      "alert": "OK",
      "vis_m": 9999,
      "fzfg": false,
      "metar_trigger": false,
      "taf_trigger": false,
      "metar": "METAR LTAC 301850Z 02008KT CAVOK 24/09 Q1016 NOSIG RMK RWY21C 01004KT RWY03L 02005KT RWY21R 01005KT RWY03R 36005KT RWY21L 34006KT",
      "taf": "TAF LTAC 301640Z 3018/0118 VRB02KT CAVOK"
    },
    {
      "icao": "LTFM",
      "alert": "OK",
      "vis_m": 9999,
      "fzfg": false,
      "metar_trigger": false,
      "taf_trigger": false,
      "metar": "METAR LTFM 301850Z 06010KT 020V080 9999 FEW011 24/21 Q1013 NOSIG RMK RWY17L 06008KT RWY34L 05007KT RWY16R 06009KT RWY36 07009KT RWY18 07008KT",
      "taf": "TAF LTFM 301640Z 3018/0124 05010KT 9999 SCT011"
    },
    {
      "icao": "LUKK",
      "alert": "OK",
      "vis_m": 9999,
      "fzfg": false,
      "metar_trigger": false,
      "taf_trigger": false,
      "metar": "METAR LUKK 301900Z 03009KT CAVOK 30/18 Q1015 NOSIG",
      "taf": ""
    },
    {
      "icao": "LWOH",
      "alert": "OK",
      "vis_m": null,
      "fzfg": false,
      "metar_trigger": false,
      "taf_trigger": false,
      "metar": "",
      "taf": "TAF LWOH 301710Z 3018/0118 VRB03KT 9999 SCT040 BKN060"
    },
    {
      "icao": "LWSK",
      "alert": "OK",
      "vis_m": null,
      "fzfg": false,
      "metar_trigger": false,
      "taf_trigger": false,
      "metar": "",
      "taf": ""
    },
    {
      "icao": "LYBE",
      "alert": "OK",
      "vis_m": 9999,
      "fzfg": false,
      "metar_trigger": false,
      "taf_trigger": false,
      "metar": "METAR LYBE 301900Z 06005KT 020V080 CAVOK 29/16 Q1013 NOSIG",
      "taf": "TAF LYBE 301700Z 3018/0118 06006KT CAVOK TX33/0113Z TN21/0103Z"
    },
    {
      "icao": "LYNI",
      "alert": "OK",
      "vis_m": 9999,
      "fzfg": false,
      "metar_trigger": false,
      "taf_trigger": false,
      "metar": "METAR LYNI 301900Z VRB02KT CAVOK 26/23 Q1014 NOSIG",
      "taf": "TAF LYNI 301700Z 3018/0118 35005KT CAVOK TX33/0114Z TN19/0103Z"
    },
    {
      "icao": "LYPG",
      "alert": "OK",
      "vis_m": 9999,
      "fzfg": false,
      "metar_trigger": false,
      "taf_trigger": false,
      "metar": "METAR LYPG 301900Z 35017KT 9999 -TSRA FEW034CB BKN090 24/18 Q1015 TEMPO VRB27KT 5000 TSRA",
      "taf": "TAF LYPG 301700Z 3018/0118 34008KT 9999 SCT040 BKN080 TX36/0113Z TN23/0103Z"
    },
    {
      "icao": "LZIB",
      "alert": "OK",
      "vis_m": 9999,
      "fzfg": false,
      "metar_trigger": false,
      "taf_trigger": false,
      "metar": "METAR LZIB 301900Z 19003KT CAVOK 32/16 Q1015 NOSIG",
      "taf": "TAF LZIB 301715Z 3018/0118 30005KT CAVOK"
    },
    {
      "icao": "LZKZ",
      "alert": "OK",
      "vis_m": 9999,
      "fzfg": false,
      "metar_trigger": false,
      "taf_trigger": false,
      "metar": "METAR LZKZ 301900Z 03005KT CAVOK 29/20 Q1017 NOSIG",
      "taf": "TAF LZKZ 301715Z 3018/0118 02010KT CAVOK"
    },
    {
      "icao": "LZTT",
      "alert": "OK",
      "vis_m": 9999,
      "fzfg": false,
      "metar_trigger": false,
      "taf_trigger": false,
      "metar": "METAR LZTT 301900Z 33002KT 9999 FEW050 23/21 Q1021 NOSIG",
      "taf": "TAF LZTT 301715Z 3018/0118 07008KT 9999 FEW050"
    },
    {
      "icao": "OEJN",
      "alert": "OK",
      "vis_m": 9999,
      "fzfg": false,
      "metar_trigger": false,
      "taf_trigger": false,
      "metar": "METAR OEJN 301900Z 01005KT CAVOK 33/16 Q1003 NOSIG",
      "taf": "TAF OEJN 301700Z 3018/0124 36008KT CAVOK"
    },
    {
      "icao": "OEMA",
      "alert": "OK",
      "vis_m": 9999,
      "fzfg": false,
      "metar_trigger": false,
      "taf_trigger": false,
      "metar": "METAR OEMA 301900Z 28010KT CAVOK 39/M01 Q1008 NOSIG",
      "taf": "TAF OEMA 301700Z 3018/0124 28008KT CAVOK"
    },
    {
      "icao": "OJAI",
      "alert": "OK",
      "vis_m": 5000,
      "fzfg": false,
      "metar_trigger": false,
      "taf_trigger": false,
      "metar": "METAR OJAI 301900Z 28006KT 5000 HZ NSC 23/11 Q1013 NOSIG",
      "taf": "TAF OJAI 301651Z 3018/0124 30010KT 5000 HZ NSC"
    },
    {
      "icao": "OMAA",
      "alert": "OK",
      "vis_m": 9999,
      "fzfg": false,
      "metar_trigger": false,
      "taf_trigger": false,
      "metar": "METAR OMAA 301900Z 28006KT CAVOK 34/24 Q0998 NOSIG",
      "taf": "TAF OMAA 301700Z 3018/0200 28010KT 8000 NSC"
    },
    {
      "icao": "OMDB",
      "alert": "OK",
      "vis_m": 9999,
      "fzfg": false,
      "metar_trigger": false,
      "taf_trigger": false,
      "metar": "METAR OMDB 301900Z 24006KT CAVOK 34/25 Q0997 NOSIG",
      "taf": "TAF OMDB 301700Z 3018/0200 19005KT 8000 NSC"
    },
    {
      "icao": "UAAA",
      "alert": "OK",
      "vis_m": 9999,
      "fzfg": false,
      "metar_trigger": false,
      "taf_trigger": false,
      "metar": "METAR UAAA 301900Z 19003MPS 9999 BKN050CB OVC100 27/12 Q1010 NOSIG",
      "taf": "TAF UAAA 301704Z 3018/0118 25003G08MPS 9999 BKN040CB OVC100 TX27/0110Z TN20/0101Z"
    },
    {
      "icao": "UBBB",
      "alert": "OK",
      "vis_m": 9999,
      "fzfg": false,
      "metar_trigger": false,
      "taf_trigger": false,
      "metar": "METAR UBBB 301900Z 36008KT 9999 FEW060CB 23/17 Q1012 NOSIG",
      "taf": "TAF UBBB 301716Z 3018/0118 33006KT 9999 FEW060CB TX29/0110Z TN19/0101Z"
    },
    {
      "icao": "UDSG",
      "alert": "OK",
      "vis_m": 9999,
      "fzfg": false,
      "metar_trigger": false,
      "taf_trigger": false,
      "metar": "METAR UDSG 301900Z 01005KT 9999 NSC 16/08 Q1019 NOSIG",
      "taf": "TAF UDSG 301700Z 3018/0118 36006KT 9999 FEW050"
    },
    {
      "icao": "UDYZ",
      "alert": "OK",
      "vis_m": 9999,
      "fzfg": false,
      "metar_trigger": false,
      "taf_trigger": false,
      "metar": "METAR UDYZ 301900Z 03013KT 9999 NSC 25/10 Q1012 TEMPO 04020G30KT",
      "taf": "TAF UDYZ 301700Z 3018/0118 02006KT 9999 FEW040"
    },
    {
      "icao": "UGKO",
      "alert": "OK",
      "vis_m": 9999,
      "fzfg": false,
      "metar_trigger": false,
      "taf_trigger": false,
      "metar": "METAR UGKO 301900Z COR 34003KT 310V010 9999 SCT023 BKN068 20/18 Q1014 NOSIG",
      "taf": "TAF UGKO 301700Z 3018/0118 26007KT 9999 SCT060 TX30/0111Z TN18/0102Z"
    }
  ]
}