{
  "ts_utc": "2026-04-03T05:26:31Z",
  "threshold_m": 150,
  "source": "stations_override.txt (ICAO list) + aviationweather.gov (METAR/TAF raw)",
  "station_count": 159,
  "stations": [
    {
      "icao": "BIKF",
      "alert": "OK",
      "vis_m": 9999,
      "fzfg": false,
      "metar_trigger": false,
      "taf_trigger": false,
      "metar": "METAR BIKF 030500Z 11008KT 9999 FEW016CB BKN034 M02/M04 Q0992",
      "taf": "TAF BIKF 030459Z 0306/0406 11012KT 9999 FEW015CB BKN030 TX02/0315Z TNM03/0306Z"
    },
    {
      "icao": "BKPR",
      "alert": "OK",
      "vis_m": 9999,
      "fzfg": false,
      "metar_trigger": false,
      "taf_trigger": false,
      "metar": "METAR BKPR 030500Z 33005KT 9999 BKN020 06/05 Q1003 NOSIG",
      "taf": ""
    },
    {
      "icao": "EBCI",
      "alert": "OK",
      "vis_m": 4500,
      "fzfg": false,
      "metar_trigger": false,
      "taf_trigger": false,
      "metar": "METAR EBCI 030520Z 20005KT 4500 BR NSC 03/02 Q1018 TEMPO 2500 BR",
      "taf": "TAF EBCI 030504Z 0306/0412 21012KT 9999 FEW020"
    },
    {
      "icao": "EDDB",
      "alert": "OK",
      "vis_m": 9999,
      "fzfg": false,
      "metar_trigger": false,
      "taf_trigger": false,
      "metar": "METAR EDDB 030520Z AUTO 31011KT 280V350 9999 BKN011 05/03 Q1015 NOSIG",
      "taf": "TAF EDDB 030500Z 0306/0406 30010KT CAVOK"
    },
    {
      "icao": "EDDH",
      "alert": "OK",
      "vis_m": 9999,
      "fzfg": false,
      "metar_trigger": false,
      "taf_trigger": false,
      "metar": "METAR EDDH 030520Z AUTO 23005KT 9999 -SHSNRA FEW026 BKN040 FEW///TCU 01/00 Q1015 NOSIG",
      "taf": "TAF EDDH 030500Z 0306/0412 26004KT 9999 BKN035"
    },
    {
      "icao": "EDDK",
      "alert": "OK",
      "vis_m": 9999,
      "fzfg": false,
      "metar_trigger": false,
      "taf_trigger": false,
      "metar": "METAR EDDK 030520Z AUTO 00000KT 9999 BKN023 BKN028 OVC037 05/04 Q1018 NOSIG",
      "taf": "TAF EDDK 030500Z 0306/0412 VRB02KT 9999 SCT030"
    },
    {
      "icao": "EDDN",
      "alert": "OK",
      "vis_m": 9999,
      "fzfg": false,
      "metar_trigger": false,
      "taf_trigger": false,
      "metar": "METAR EDDN 030520Z AUTO 11008KT 9999 FEW048 00/M02 Q1017 NOSIG",
      "taf": "TAF EDDN 030500Z 0306/0406 14004KT 9999 BKN030"
    },
    {
      "icao": "EDDS",
      "alert": "OK",
      "vis_m": 9999,
      "fzfg": false,
      "metar_trigger": false,
      "taf_trigger": false,
      "metar": "METAR EDDS 030520Z AUTO 07002KT CAVOK 01/M01 Q1017 NOSIG",
      "taf": "TAF EDDS 030500Z 0306/0406 VRB03KT CAVOK"
    },
    {
      "icao": "EDFH",
      "alert": "OK",
      "vis_m": 7000,
      "fzfg": false,
      "metar_trigger": false,
      "taf_trigger": false,
      "metar": "METAR EDFH 030520Z 24004KT 7000 OVC005 04/03 Q1016",
      "taf": "TAF EDFH 030500Z 0306/0406 27004KT 9999 BKN015"
    },
    {
      "icao": "EDJA",
      "alert": "OK",
      "vis_m": 9999,
      "fzfg": false,
      "metar_trigger": false,
      "taf_trigger": false,
      "metar": "METAR EDJA 030520Z 18003KT CAVOK M02/M03 Q1017",
      "taf": "TAF EDJA 030500Z 0306/0315 20005KT CAVOK"
    },
    {
      "icao": "EDLW",
      "alert": "OK",
      "vis_m": 9999,
      "fzfg": false,
      "metar_trigger": false,
      "taf_trigger": false,
      "metar": "METAR EDLW 030520Z 24002KT 9999 OVC035 04/02 Q1017",
      "taf": "TAF EDLW 030500Z 0306/0406 20005KT 9999 SCT030"
    },
    {
      "icao": "EDNY",
      "alert": "OK",
      "vis_m": 7000,
      "fzfg": false,
      "metar_trigger": false,
      "taf_trigger": false,
      "metar": "METAR EDNY 030520Z AUTO 07002KT 7000 2400 // NCD M02/M02 Q1019",
      "taf": "TAF EDNY 030500Z 0306/0315 VRB03KT CAVOK"
    },
    {
      "icao": "EDSB",
      "alert": "OK",
      "vis_m": 9999,
      "fzfg": false,
      "metar_trigger": false,
      "taf_trigger": false,
      "metar": "METAR EDSB 030520Z 22003KT 9999 BKN018 05/04 Q1018",
      "taf": "TAF EDSB 030500Z 0306/0406 21004KT CAVOK"
    },
    {
      "icao": "EETN",
      "alert": "OK",
      "vis_m": 9999,
      "fzfg": false,
      "metar_trigger": false,
      "taf_trigger": false,
      "metar": "METAR EETN 030520Z 23006KT 9999 -RA BKN004 OVC030 04/03 Q1007 TEMPO 5000 RA",
      "taf": "TAF EETN 022330Z 0300/0324 23008KT 9999 SCT008 BKN030"
    },
    {
      "icao": "EFTU",
      "alert": "OK",
      "vis_m": 9999,
      "fzfg": false,
      "metar_trigger": false,
      "taf_trigger": false,
      "metar": "METAR EFTU 030520Z AUTO 00000KT 9999 SCT039 01/01 Q1007",
      "taf": "TAF EFTU 030226Z 0303/0403 34002KT 9999 SCT005"
    },
    {
      "icao": "EGBB",
      "alert": "OK",
      "vis_m": 9999,
      "fzfg": false,
      "metar_trigger": false,
      "taf_trigger": false,
      "metar": "METAR EGBB 030520Z 20009KT 160V230 9999 BKN009 08/07 Q1009",
      "taf": "TAF EGBB 030458Z 0306/0406 19012KT 9999 BKN012"
    },
    {
      "icao": "EGGP",
      "alert": "OK",
      "vis_m": 9999,
      "fzfg": false,
      "metar_trigger": false,
      "taf_trigger": false,
      "metar": "METAR EGGP 030520Z 18006KT 150V210 9999 BKN022 BKN027 09/07 Q1005",
      "taf": "TAF EGGP 030455Z 0306/0406 18012KT 9999 FEW015 SCT030"
    },
    {
      "icao": "EGGW",
      "alert": "OK",
      "vis_m": 9999,
      "fzfg": false,
      "metar_trigger": false,
      "taf_trigger": false,
      "metar": "METAR EGGW 030520Z 20011KT 160V220 9999 OVC009 07/06 Q1011",
      "taf": "TAF EGGW 030457Z 0306/0406 20013KT 9999 BKN008"
    },
    {
      "icao": "EGKK",
      "alert": "OK",
      "vis_m": 9999,
      "fzfg": false,
      "metar_trigger": false,
      "taf_trigger": false,
      "metar": "METAR EGKK 030520Z 20009KT 9999 -RA BKN012 09/07 Q1014",
      "taf": "TAF EGKK 030453Z 0306/0412 20010KT 9999 FEW020 BKN030"
    },
    {
      "icao": "EGNM",
      "alert": "OK",
      "vis_m": 9999,
      "fzfg": false,
      "metar_trigger": false,
      "taf_trigger": false,
      "metar": "METAR EGNM 030520Z 20009KT 170V250 9999 BKN012 07/05 Q1005",
      "taf": "TAF EGNM 030456Z 0306/0406 20012KT 9999 FEW015 SCT030"
    },
    {
      "icao": "EGPD",
      "alert": "OK",
      "vis_m": 9999,
      "fzfg": false,
      "metar_trigger": false,
      "taf_trigger": false,
      "metar": "METAR EGPD 030520Z COR AUTO 19021KT 9999 BKN007 06/04 Q099 TEMPO SCT007",
      "taf": "TAF EGPD 030455Z 0306/0406 17015G26KT 9999 BKN030"
    },
    {
      "icao": "EGPF",
      "alert": "OK",
      "vis_m": 9999,
      "fzfg": false,
      "metar_trigger": false,
      "taf_trigger": false,
      "metar": "METAR EGPF 030520Z AUTO 25013KT 9999 SCT016 BKN032 08/06 Q1000",
      "taf": "TAF EGPF 030453Z 0306/0406 25012KT 9999 SCT020"
    },
    {
      "icao": "EHBK",
      "alert": "OK",
      "vis_m": 9999,
      "fzfg": false,
      "metar_trigger": false,
      "taf_trigger": false,
      "metar": "METAR EHBK 030455Z AUTO 24004KT 9999 NSC 04/03 Q1018 NOSIG",
      "taf": "TAF EHBK 030512Z 0306/0412 22007KT CAVOK"
    },
    {
      "icao": "EHEH",
      "alert": "OK",
      "vis_m": 9999,
      "fzfg": false,
      "metar_trigger": false,
      "taf_trigger": false,
      "metar": "METAR EHEH 030455Z AUTO 21005KT 9999 BKN081 OVC087 04/02 Q1017 BLU NOSIG RMK TREND REMOTE BY EHWX",
      "taf": "TAF EHEH 022312Z 0300/0406 24002KT 9999 OVC035"
    },
    {
      "icao": "EKBI",
      "alert": "OK",
      "vis_m": 9999,
      "fzfg": false,
      "metar_trigger": false,
      "taf_trigger": false,
      "metar": "METAR EKBI 030520Z AUTO 26012KT 9999 OVC031/// 03/M02 Q1012",
      "taf": "TAF EKBI 030227Z 0303/0403 27010KT 9999 BKN025"
    },
    {
      "icao": "EKCH",
      "alert": "OK",
      "vis_m": 9999,
      "fzfg": false,
      "metar_trigger": false,
      "taf_trigger": false,
      "metar": "METAR EKCH 030520Z AUTO 25012KT 9999 OVC029/// 05/M01 Q1011 NOSIG",
      "taf": "TAF EKCH 030227Z 0303/0403 27010KT 9999 BKN020"
    },
    {
      "icao": "ENAL",
      "alert": "OK",
      "vis_m": 9999,
      "fzfg": false,
      "metar_trigger": false,
      "taf_trigger": false,
      "metar": "METAR ENAL 030520Z 13011KT CAVOK 01/M05 Q1007",
      "taf": "TAF ENAL 030200Z 0303/0312 08012KT CAVOK"
    },
    {
      "icao": "ENBR",
      "alert": "OK",
      "vis_m": 9999,
      "fzfg": false,
      "metar_trigger": false,
      "taf_trigger": false,
      "metar": "METAR ENBR 030520Z 12006KT 9999 SCT040 00/M04 Q1006 BECMG 15016KT RMK WIND 1200FT 14017KT",
      "taf": "TAF ENBR 022300Z 0300/0324 10003KT CAVOK"
    },
    {
      "icao": "ENGM",
      "alert": "OK",
      "vis_m": 9999,
      "fzfg": false,
      "metar_trigger": false,
      "taf_trigger": false,
      "metar": "METAR ENGM 030520Z 02009KT 9999 BKN036 M00/M03 Q1009 NOSIG",
      "taf": ""
    },
    {
      "icao": "ENHD",
      "alert": "OK",
      "vis_m": 9999,
      "fzfg": false,
      "metar_trigger": false,
      "taf_trigger": false,
      "metar": "METAR ENHD 030520Z AUTO 15009KT 9999 NCD 01/01 Q1007",
      "taf": "TAF ENHD 030200Z 0303/0312 14008KT 9999 FEW040"
    },
    {
      "icao": "ENTC",
      "alert": "OK",
      "vis_m": 9999,
      "fzfg": false,
      "metar_trigger": false,
      "taf_trigger": false,
      "metar": "METAR ENTC 030520Z 13005KT 9999 FEW014 SCT027 BKN046 00/M01 Q1007 TEMPO 1200 -SHSN BKN009 RMK WIND 2600FT 33015KT",
      "taf": "TAF ENTC 022300Z 0300/0324 18008KT 9999 FEW020 BKN025"
    },
    {
      "icao": "ENTO",
      "alert": "OK",
      "vis_m": 9999,
      "fzfg": false,
      "metar_trigger": false,
      "taf_trigger": false,
      "metar": "METAR ENTO 030520Z 36010KT 9999 FEW022 SCT027 00/M00 Q1008 NOSIG",
      "taf": "TAF ENTO 022300Z 0300/0324 01014KT 9999 -RASN BKN016"
    },
    {
      "icao": "ENVA",
      "alert": "OK",
      "vis_m": 9999,
      "fzfg": false,
      "metar_trigger": false,
      "taf_trigger": false,
      "metar": "METAR ENVA 030520Z 12007KT 9999 FEW030 M02/M03 Q1011 NOSIG RMK WIND 670FT 10007KT",
      "taf": "TAF ENVA 022300Z 0300/0324 10005KT 9999 FEW050"
    },
    {
      "icao": "ENZV",
      "alert": "OK",
      "vis_m": 9999,
      "fzfg": false,
      "metar_trigger": false,
      "taf_trigger": false,
      "metar": "METAR ENZV 030520Z 14007KT 9999 FEW045 02/M00 Q1008 NOSIG",
      "taf": "TAF ENZV 022300Z 0300/0324 17005KT 9999 FEW040"
    },
    {
      "icao": "EPGD",
      "alert": "OK",
      "vis_m": 9999,
      "fzfg": false,
      "metar_trigger": false,
      "taf_trigger": false,
      "metar": "METAR EPGD 030500Z VRB01KT 9999 SCT049 01/M02 Q1010",
      "taf": "TAF EPGD 022330Z 0300/0324 VRB03KT CAVOK"
    },
    {
      "icao": "EPKK",
      "alert": "OK",
      "vis_m": 6000,
      "fzfg": false,
      "metar_trigger": false,
      "taf_trigger": false,
      "metar": "METAR EPKK 030500Z 24003KT 220V290 6000 FEW046 04/02 Q1013",
      "taf": "TAF EPKK 030230Z 0303/0403 21002KT 9999 BKN045"
    },
    {
      "icao": "EPKT",
      "alert": "OK",
      "vis_m": 9999,
      "fzfg": false,
      "metar_trigger": false,
      "taf_trigger": false,
      "metar": "METAR EPKT 030500Z 18003KT CAVOK M01/M03 Q1013",
      "taf": "TAF EPKT 022330Z 0300/0324 26002KT CAVOK"
    },
    {
      "icao": "EPLB",
      "alert": "OK",
      "vis_m": 9999,
      "fzfg": false,
      "metar_trigger": false,
      "taf_trigger": false,
      "metar": "METAR EPLB 030500Z 31006KT CAVOK 06/00 Q1011",
      "taf": "TAF EPLB 022330Z 0300/0324 32005KT CAVOK"
    },
    {
      "icao": "EPMO",
      "alert": "OK",
      "vis_m": 9999,
      "fzfg": false,
      "metar_trigger": false,
      "taf_trigger": false,
      "metar": "METAR EPMO 030500Z 24002KT CAVOK 01/M04 Q1012",
      "taf": "TAF EPMO 022330Z 0300/0324 34004KT CAVOK"
    },
    {
      "icao": "EPPO",
      "alert": "OK",
      "vis_m": 9999,
      "fzfg": false,
      "metar_trigger": false,
      "taf_trigger": false,
      "metar": "METAR EPPO 030500Z 22003KT CAVOK 04/00 Q1012",
      "taf": "TAF EPPO 022330Z 0300/0324 VRB02KT CAVOK"
    },
    {
      "icao": "EPRA",
      "alert": "OK",
      "vis_m": 9999,
      "fzfg": false,
      "metar_trigger": false,
      "taf_trigger": false,
      "metar": "METAR EPRA 030500Z 30004KT CAVOK 03/M04 Q1012",
      "taf": "TAF EPRA 030230Z 0303/0312 31006KT CAVOK"
    },
    {
      "icao": "EPRZ",
      "alert": "OK",
      "vis_m": 9999,
      "fzfg": false,
      "metar_trigger": false,
      "taf_trigger": false,
      "metar": "METAR EPRZ 030500Z 26006KT CAVOK 05/03 Q1011",
      "taf": "TAF EPRZ 022330Z 0300/0324 33006KT CAVOK"
    },
    {
      "icao": "EPSC",
      "alert": "OK",
      "vis_m": 9999,
      "fzfg": false,
      "metar_trigger": false,
      "taf_trigger": false,
      "metar": "METAR EPSC 030500Z 29012KT 9999 FEW015 BKN018 04/M00 Q1013",
      "taf": "TAF EPSC 022330Z 0300/0324 20006KT 9999 BKN035"
    },
    {
      "icao": "EPSY",
      "alert": "OK",
      "vis_m": 9999,
      "fzfg": false,
      "metar_trigger": false,
      "taf_trigger": false,
      "metar": "METAR EPSY 030500Z 00000KT CAVOK M04/M05 Q1011",
      "taf": "TAF EPSY 030230Z 0303/0312 VRB02KT CAVOK"
    },
    {
      "icao": "EPWA",
      "alert": "OK",
      "vis_m": 9999,
      "fzfg": false,
      "metar_trigger": false,
      "taf_trigger": false,
      "metar": "METAR EPWA 030500Z 28003KT CAVOK 01/M04 Q1012 NOSIG",
      "taf": "TAF EPWA 030230Z 0303/0403 29003KT CAVOK"
    },
    {
      "icao": "EPWR",
      "alert": "OK",
      "vis_m": 9999,
      "fzfg": false,
      "metar_trigger": false,
      "taf_trigger": false,
      "metar": "METAR EPWR 030500Z VRB01KT CAVOK 01/M02 Q1014",
      "taf": "TAF EPWR 030230Z 0303/0403 23005KT CAVOK"
    },
    {
      "icao": "ESGG",
      "alert": "OK",
      "vis_m": 1100,
      "fzfg": false,
      "metar_trigger": false,
      "taf_trigger": false,
      "metar": "METAR ESGG 030520Z 03003KT 1100 R03/P2000N R21/1900N BR VV003 01/01 Q1006",
      "taf": ""
    },
    {
      "icao": "ESKN",
      "alert": "OK",
      "vis_m": 9999,
      "fzfg": false,
      "metar_trigger": false,
      "taf_trigger": false,
      "metar": "METAR ESKN 030520Z 11008KT 9999 OVC002 04/04 Q1006",
      "taf": ""
    },
    {
      "icao": "ESMS",
      "alert": "OK",
      "vis_m": 9999,
      "fzfg": false,
      "metar_trigger": false,
      "taf_trigger": false,
      "metar": "METAR ESMS 030520Z 26011KT 9999 BKN028 04/M01 Q1010",
      "taf": "TAF ESMS 030227Z 0303/0403 27010KT 9999 BKN025"
    },
    {
      "icao": "ESSA",
      "alert": "OK",
      "vis_m": 6000,
      "fzfg": false,
      "metar_trigger": false,
      "taf_trigger": false,
      "metar": "METAR ESSA 030520Z 05006KT 6000 -SN BKN007 OVC018 00/M00 Q1008 TEMPO 4000 -SNRA",
      "taf": "TAF ESSA 030230Z 0303/0403 03006KT 9999 -RA BKN015"
    },
    {
      "icao": "EYKA",
      "alert": "OK",
      "vis_m": 9999,
      "fzfg": false,
      "metar_trigger": false,
      "taf_trigger": false,
      "metar": "METAR EYKA 030520Z VRB02KT CAVOK 00/M02 Q1011",
      "taf": "TAF EYKA 030500Z 0306/0406 VRB04KT 9000 NSC"
    },
    {
      "icao": "EYPA",
      "alert": "OK",
      "vis_m": 9999,
      "fzfg": false,
      "metar_trigger": false,
      "taf_trigger": false,
      "metar": "METAR EYPA 030520Z 16005KT CAVOK M00/M01 Q1010",
      "taf": "TAF EYPA 030500Z 0306/0406 VRB04KT 8000 NSC"
    },
    {
      "icao": "EYVI",
      "alert": "OK",
      "vis_m": 9999,
      "fzfg": false,
      "metar_trigger": false,
      "taf_trigger": false,
      "metar": "METAR EYVI 030520Z VRB02KT CAVOK 01/M02 Q1010 NOSIG",
      "taf": "TAF EYVI 030500Z 0306/0406 VRB04KT 9000 NSC"
    },
    {
      "icao": "GCFV",
      "alert": "OK",
      "vis_m": 9999,
      "fzfg": false,
      "metar_trigger": false,
      "taf_trigger": false,
      "metar": "METAR GCFV 030500Z 32009KT CAVOK 17/10 Q1017",
      "taf": "TAF GCFV 030200Z 0303/0403 34009KT CAVOK TX24/0314Z TN16/0306Z"
    },
    {
      "icao": "GCLP",
      "alert": "OK",
      "vis_m": 9999,
      "fzfg": false,
      "metar_trigger": false,
      "taf_trigger": false,
      "metar": "METAR GCLP 030500Z 36011KT 9999 FEW020 16/11 Q1017 NOSIG",
      "taf": "TAF GCLP 030200Z 0303/0403 36012KT 9999 FEW025 TX23/0314Z TN16/0306Z"
    },
    {
      "icao": "GCTS",
      "alert": "OK",
      "vis_m": 9999,
      "fzfg": false,
      "metar_trigger": false,
      "taf_trigger": false,
      "metar": "METAR GCTS 030500Z 07013KT CAVOK 18/02 Q1017 NOSIG",
      "taf": "TAF GCTS 030200Z 0303/0403 07015KT CAVOK TX24/0314Z TN16/0306Z"
    },
    {
      "icao": "GMAD",
      "alert": "OK",
      "vis_m": 8000,
      "fzfg": false,
      "metar_trigger": false,
      "taf_trigger": false,
      "metar": "METAR GMAD 030500Z 00000KT 8000 NSC 11/10 Q1014 NOSIG",
      "taf": "TAF GMAD 022300Z 0300/0406 12004KT 8000 NSC"
    },
    {
      "icao": "GMMN",
      "alert": "OK",
      "vis_m": 8000,
      "fzfg": false,
      "metar_trigger": false,
      "taf_trigger": false,
      "metar": "METAR GMMN 030500Z 12004KT 070V160 8000 SCT004 06/05 Q1019 NOSIG",
      "taf": "TAF GMMN 030500Z 0306/0412 12004KT 8000 SCT004"
    },
    {
      "icao": "GMMX",
      "alert": "OK",
      "vis_m": 9999,
      "fzfg": false,
      "metar_trigger": false,
      "taf_trigger": false,
      "metar": "METAR GMMX 030500Z 08005KT CAVOK 11/07 Q1017 NOSIG",
      "taf": "TAF GMMX 030500Z 0306/0412 06006KT 8000 NSC"
    },
    {
      "icao": "HEGN",
      "alert": "OK",
      "vis_m": 1000,
      "fzfg": false,
      "metar_trigger": false,
      "taf_trigger": false,
      "metar": "METAR HEGN 030500Z 33021KT 1000 R34 1000 R16 1000 SA FEW020 BKN100 21/13 Q1013 NOSIG",
      "taf": "TAF HEGN 030500Z 0306/0412 33013G26KT 6000 SCT020 BKN070"
    },
    {
      "icao": "HEMA",
      "alert": "OK",
      "vis_m": 1800,
      "fzfg": false,
      "metar_trigger": false,
      "taf_trigger": false,
      "metar": "METAR HEMA 030500Z 33005KT 1800 BR NSC 22/20 Q1012 NOSIG",
      "taf": "TAF HEMA 030500Z 0306/0412 34010G22KT 6000 SCT020 BKN070"
    },
    {
      "icao": "HESH",
      "alert": "OK",
      "vis_m": 9999,
      "fzfg": false,
      "metar_trigger": false,
      "taf_trigger": false,
      "metar": "METAR HESH 030500Z 36014KT CAVOK 24/18 Q1011 NOSIG",
      "taf": "TAF HESH 030500Z 0306/0412 36006G18KT 6000 SCT025"
    },
    {
      "icao": "HESX",
      "alert": "OK",
      "vis_m": 9999,
      "fzfg": false,
      "metar_trigger": false,
      "taf_trigger": false,
      "metar": "METAR HESX 030500Z VRB05KT CAVOK 12/05 Q1016 NOSIG",
      "taf": "TAF HESX 030500Z 0306/0412 VRB03KT 8000 NSC"
    },
    {
      "icao": "LATI",
      "alert": "OK",
      "vis_m": 6000,
      "fzfg": false,
      "metar_trigger": false,
      "taf_trigger": false,
      "metar": "METAR LATI 030520Z VRB02KT 6000 BKN100 10/08 Q1001 NOSIG",
      "taf": "TAF LATI 030500Z 0306/0406 VRB03KT 9999 FEW060 BKN100 TX19/0312Z TN08/0404Z"
    },
    {
      "icao": "LBPD",
      "alert": "OK",
      "vis_m": 9999,
      "fzfg": false,
      "metar_trigger": false,
      "taf_trigger": false,
      "metar": "METAR LBPD 030500Z AUTO 00000KT 9999 OVC031/// 07/07 Q1002 NOSIG",
      "taf": "TAF LBPD 030500Z 0306/0406 VRB03KT 8000 SCT015 BKN050"
    },
    {
      "icao": "LBSF",
      "alert": "OK",
      "vis_m": 9999,
      "fzfg": false,
      "metar_trigger": false,
      "taf_trigger": false,
      "metar": "METAR LBSF 030500Z 06001KT 9999 SCT012 BKN034 BKN070 05/05 Q1002 TEMPO 5000 BR SCT007",
      "taf": "TAF LBSF 030500Z 0306/0406 30008KT 9999 SCT015 BKN035"
    },
    {
      "icao": "LBWN",
      "alert": "OK",
      "vis_m": 4200,
      "fzfg": false,
      "metar_trigger": false,
      "taf_trigger": false,
      "metar": "METAR LBWN 030500Z AUTO VRB01KT 4200 BR SCT002/// OVC004/// 09/09 Q1003 TEMPO BKN002",
      "taf": "TAF LBWN 030500Z 0306/0406 VRB03KT 4000 BR SCT002 BKN004"
    },
    {
      "icao": "LCLK",
      "alert": "OK",
      "vis_m": 1300,
      "fzfg": false,
      "metar_trigger": false,
      "taf_trigger": false,
      "metar": "METAR LCLK 030500Z 21006KT 1300 R22/P2000 R04/P2000 DU NSC 15/11 Q1013 TEMPO 0800 DU",
      "taf": "TAF LCLK 022330Z 0300/0400 24008KT 9999 FEW030"
    },
    {
      "icao": "LCPH",
      "alert": "OK",
      "vis_m": 1200,
      "fzfg": false,
      "metar_trigger": false,
      "taf_trigger": false,
      "metar": "METAR LCPH 030500Z 24008KT 180V260 1200 R29/1900 R11/P2000 DU NSC 18/12 Q1013 TEMPO 0800 DU",
      "taf": "TAF LCPH 022330Z 0300/0400 28009KT 8000 FEW030"
    },
    {
      "icao": "LEAL",
      "alert": "OK",
      "vis_m": 9999,
      "fzfg": false,
      "metar_trigger": false,
      "taf_trigger": false,
      "metar": "METAR LEAL 030500Z 28007KT CAVOK 10/03 Q1018 NOSIG",
      "taf": "TAF LEAL 030500Z 0306/0406 32007KT CAVOK TX20/0312Z TN08/0405Z"
    },
    {
      "icao": "LEBB",
      "alert": "OK",
      "vis_m": 9999,
      "fzfg": false,
      "metar_trigger": false,
      "taf_trigger": false,
      "metar": "METAR LEBB 030500Z VRB02KT 9999 BKN044 08/07 Q1026 NOSIG",
      "taf": "TAF LEBB 030500Z 0306/0406 10006KT 9999 BKN035 TX16/0314Z TN07/0405Z"
    },
    {
      "icao": "LEBL",
      "alert": "OK",
      "vis_m": 9999,
      "fzfg": false,
      "metar_trigger": false,
      "taf_trigger": false,
      "metar": "METAR LEBL 030500Z 31004KT 280V340 9999 FEW015 09/01 Q1017 NOSIG",
      "taf": "TAF LEBL 030500Z 0306/0406 34009KT 9999 FEW020 SCT030 TX19/0312Z TN11/0306Z"
    },
    {
      "icao": "LECH",
      "alert": "OK",
      "vis_m": 9999,
      "fzfg": false,
      "metar_trigger": false,
      "taf_trigger": false,
      "metar": "METAR LECH 030500Z AUTO 34016G27KT 290V020 CAVOK 11/M01 Q1017",
      "taf": "TAF LECH 030500Z 0306/0406 33020KT CAVOK TX22/0313Z TN09/0306Z"
    },
    {
      "icao": "LEMD",
      "alert": "OK",
      "vis_m": 9999,
      "fzfg": false,
      "metar_trigger": false,
      "taf_trigger": false,
      "metar": "METAR LEMD 030500Z 04003KT CAVOK 03/M00 Q1022 NOSIG",
      "taf": "TAF LEMD 030500Z 0306/0412 VRB04KT CAVOK TX22/0315Z TN03/0306Z"
    },
    {
      "icao": "LEMG",
      "alert": "OK",
      "vis_m": 9999,
      "fzfg": false,
      "metar_trigger": false,
      "taf_trigger": false,
      "metar": "METAR LEMG 030500Z 31007KT CAVOK 11/08 Q1018 NOSIG",
      "taf": "TAF LEMG 030500Z 0306/0406 28010KT CAVOK TX23/0314Z TN11/0405Z"
    },
    {
      "icao": "LEVC",
      "alert": "OK",
      "vis_m": 9999,
      "fzfg": false,
      "metar_trigger": false,
      "taf_trigger": false,
      "metar": "METAR LEVC 030500Z 29005KT CAVOK 07/01 Q1019 NOSIG",
      "taf": "TAF LEVC 030500Z 0306/0406 30007KT CAVOK TX22/0314Z TN08/0405Z"
    },
    {
      "icao": "LEXJ",
      "alert": "OK",
      "vis_m": 9999,
      "fzfg": false,
      "metar_trigger": false,
      "taf_trigger": false,
      "metar": "METAR LEXJ 030500Z 24005KT 9999 SCT024 BKN035 10/07 Q1026",
      "taf": "TAF LEXJ 030200Z 0303/0403 21007KT 9999 BKN030 TX16/0314Z TN09/0403Z"
    },
    {
      "icao": "LEZG",
      "alert": "OK",
      "vis_m": 9999,
      "fzfg": false,
      "metar_trigger": false,
      "taf_trigger": false,
      "metar": "METAR LEZG 030500Z 28009KT 240V300 9999 FEW040 09/03 Q1022 NOSIG",
      "taf": "TAF LEZG 030500Z 0306/0406 30015KT 9999 FEW040 TX20/0314Z TN09/0306Z"
    },
    {
      "icao": "LEZL",
      "alert": "OK",
      "vis_m": 9999,
      "fzfg": false,
      "metar_trigger": false,
      "taf_trigger": false,
      "metar": "METAR LEZL 030500Z 05005KT CAVOK 11/05 Q1020 WS R09 NOSIG",
      "taf": "TAF LEZL 030200Z 0303/0403 04008KT CAVOK TX26/0315Z TN10/0307Z"
    },
    {
      "icao": "LFBD",
      "alert": "OK",
      "vis_m": 9999,
      "fzfg": false,
      "metar_trigger": false,
      "taf_trigger": false,
      "metar": "METAR LFBD 030500Z AUTO 24006KT CAVOK 06/05 Q1024 TEMPO 1500 MIFG",
      "taf": "TAF LFBD 022300Z 0300/0406 27005KT CAVOK TX15/0314Z TN07/0403Z"
    },
    {
      "icao": "LFLL",
      "alert": "OK",
      "vis_m": 9999,
      "fzfg": false,
      "metar_trigger": false,
      "taf_trigger": false,
      "metar": "METAR LFLL 030500Z 34004KT CAVOK 04/02 Q1019 NOSIG",
      "taf": "TAF LFLL 030500Z 0306/0412 34008KT CAVOK"
    },
    {
      "icao": "LFLS",
      "alert": "OK",
      "vis_m": 9999,
      "fzfg": false,
      "metar_trigger": false,
      "taf_trigger": false,
      "metar": "METAR LFLS 030500Z AUTO 02004KT 340V050 CAVOK 03/00 Q1019 NOSIG",
      "taf": "TAF LFLS 030200Z 0303/0403 34010KT CAVOK"
    },
    {
      "icao": "LFMN",
      "alert": "OK",
      "vis_m": 9999,
      "fzfg": false,
      "metar_trigger": false,
      "taf_trigger": false,
      "metar": "METAR LFMN 030500Z 33011KT CAVOK 11/M00 Q1011 NOSIG",
      "taf": "TAF LFMN 030200Z 0303/0409 33010KT CAVOK"
    },
    {
      "icao": "LFOB",
      "alert": "OK",
      "vis_m": 6000,
      "fzfg": false,
      "metar_trigger": false,
      "taf_trigger": false,
      "metar": "METAR LFOB 030500Z AUTO 13003KT 6000 NSC 01/01 Q1019 TEMPO 4000 BR",
      "taf": "TAF LFOB 022300Z 0300/0324 VRB03KT 9999 BKN035"
    },
    {
      "icao": "LFPO",
      "alert": "OK",
      "vis_m": 9999,
      "fzfg": false,
      "metar_trigger": false,
      "taf_trigger": false,
      "metar": "METAR LFPO 030500Z 25004KT CAVOK 03/02 Q1020 NOSIG",
      "taf": "TAF LFPO 030500Z 0306/0412 22005KT CAVOK"
    },
    {
      "icao": "LFSB",
      "alert": "OK",
      "vis_m": 9999,
      "fzfg": false,
      "metar_trigger": false,
      "taf_trigger": false,
      "metar": "METAR LFSB 030500Z AUTO VRB02KT CAVOK M00/M01 Q1019 NOSIG",
      "taf": "TAF LFSB 030500Z 0306/0406 VRB03KT CAVOK"
    },
    {
      "icao": "LGAV",
      "alert": "OK",
      "vis_m": 9999,
      "fzfg": false,
      "metar_trigger": false,
      "taf_trigger": false,
      "metar": "METAR LGAV 030520Z 19007KT 9999 FEW018 SCT035 14/10 Q1001 NOSIG",
      "taf": "TAF LGAV 030500Z 0306/0406 20010KT 9999 FEW018 SCT035"
    },
    {
      "icao": "LGTS",
      "alert": "OK",
      "vis_m": 9999,
      "fzfg": false,
      "metar_trigger": false,
      "taf_trigger": false,
      "metar": "METAR LGTS 030520Z VRB03KT 9999 FEW025 08/08 Q1002 NOSIG",
      "taf": "TAF LGTS 030500Z 0306/0406 33007KT 9999 FEW012 SCT030"
    },
    {
      "icao": "LHBP",
      "alert": "OK",
      "vis_m": 9999,
      "fzfg": false,
      "metar_trigger": false,
      "taf_trigger": false,
      "metar": "METAR LHBP 030500Z 34009KT CAVOK 09/04 Q1009 NOSIG",
      "taf": "TAF LHBP 022315Z 0300/0324 34010KT CAVOK"
    },
    {
      "icao": "LHDC",
      "alert": "OK",
      "vis_m": 9999,
      "fzfg": false,
      "metar_trigger": false,
      "taf_trigger": false,
      "metar": "METAR LHDC 030445Z AUTO 02014KT 340V050 CAVOK 10/03 Q1006 NOSIG",
      "taf": "TAF LHDC 030515Z 0306/0315 01013KT CAVOK"
    },
    {
      "icao": "LIBD",
      "alert": "OK",
      "vis_m": 9999,
      "fzfg": false,
      "metar_trigger": false,
      "taf_trigger": false,
      "metar": "METAR LIBD 030520Z 26008KT 9999 VCSH SCT025 10/09 Q1002",
      "taf": "TAF LIBD 030500Z 0306/0406 28010KT 9999 SCT010 BKN030"
    },
    {
      "icao": "LIBG",
      "alert": "OK",
      "vis_m": null,
      "fzfg": false,
      "metar_trigger": false,
      "taf_trigger": false,
      "metar": "",
      "taf": ""
    },
    {
      "icao": "LIBP",
      "alert": "OK",
      "vis_m": 9999,
      "fzfg": false,
      "metar_trigger": false,
      "taf_trigger": false,
      "metar": "METAR LIBP 030520Z AUTO 33007KT 290V360 9999 SCT056/// OVC069/// 12/08 Q1007",
      "taf": "TAF LIBP 030500Z 0306/0406 29010KT 9999 SCT030 OVC050"
    },
    {
      "icao": "LIBR",
      "alert": "OK",
      "vis_m": 9999,
      "fzfg": false,
      "metar_trigger": false,
      "taf_trigger": false,
      "metar": "METAR LIBR 030520Z 01008KT CAVOK 13/08 Q1001",
      "taf": "TAF LIBR 030500Z 0306/0406 03010KT 9999 BKN035"
    },
    {
      "icao": "LICA",
      "alert": "OK",
      "vis_m": 9999,
      "fzfg": false,
      "metar_trigger": false,
      "taf_trigger": false,
      "metar": "METAR LICA 030520Z AUTO 20003KT 170V250 9999 FEW052/// BKN086/// 11/10 Q1002",
      "taf": "TAF LICA 030500Z 0306/0406 VRB06KT 9999 BKN030"
    },
    {
      "icao": "LICC",
      "alert": "OK",
      "vis_m": 9999,
      "fzfg": false,
      "metar_trigger": false,
      "taf_trigger": false,
      "metar": "METAR LICC 030520Z 25010KT 9999 FEW030 SCT110 11/08 Q1002",
      "taf": "TAF LICC 030500Z 0306/0406 28011KT 9999 BKN025"
    },
    {
      "icao": "LICJ",
      "alert": "OK",
      "vis_m": 9999,
      "fzfg": false,
      "metar_trigger": false,
      "taf_trigger": false,
      "metar": "METAR LICJ 030520Z 18004KT 9999 -RA BKN035 11/09 Q1005",
      "taf": "TAF LICJ 030500Z 0306/0406 VRB06KT 8000 BKN025"
    },
    {
      "icao": "LIMC",
      "alert": "OK",
      "vis_m": 9999,
      "fzfg": false,
      "metar_trigger": false,
      "taf_trigger": false,
      "metar": "METAR LIMC 030520Z 35003KT 320V020 CAVOK 04/M02 Q1012 NOSIG",
      "taf": "TAF LIMC 030500Z 0306/0412 VRB05KT CAVOK"
    },
    {
      "icao": "LIME",
      "alert": "OK",
      "vis_m": 9999,
      "fzfg": false,
      "metar_trigger": false,
      "taf_trigger": false,
      "metar": "METAR LIME 030520Z 35006KT CAVOK 08/M03 Q1011 NOSIG",
      "taf": "TAF LIME 030500Z 0306/0406 VRB05KT CAVOK"
    },
    {
      "icao": "LIMF",
      "alert": "OK",
      "vis_m": 9999,
      "fzfg": false,
      "metar_trigger": false,
      "taf_trigger": false,
      "metar": "METAR LIMF 030520Z 29003KT 270V330 CAVOK 07/M04 Q1012",
      "taf": "TAF LIMF 030500Z 0306/0406 VRB04KT CAVOK"
    },
    {
      "icao": "LIMJ",
      "alert": "OK",
      "vis_m": 9999,
      "fzfg": false,
      "metar_trigger": false,
      "taf_trigger": false,
      "metar": "METAR LIMJ 030520Z 02008KT 310V050 CAVOK 13/M01 Q1011",
      "taf": "TAF LIMJ 030500Z 0306/0406 03012KT CAVOK"
    },
    {
      "icao": "LIPE",
      "alert": "OK",
      "vis_m": 9999,
      "fzfg": false,
      "metar_trigger": false,
      "taf_trigger": false,
      "metar": "METAR LIPE 030520Z 26005KT CAVOK 10/M03 Q1011",
      "taf": "TAF LIPE 030500Z 0306/0406 VRB05KT 9999 SCT060"
    },
    {
      "icao": "LIPH",
      "alert": "OK",
      "vis_m": 9999,
      "fzfg": false,
      "metar_trigger": false,
      "taf_trigger": false,
      "metar": "METAR LIPH 030520Z 31002KT CAVOK 06/03 Q1010",
      "taf": "TAF LIPH 030500Z 0306/0406 VRB05KT 9999 FEW060"
    },
    {
      "icao": "LIPQ",
      "alert": "OK",
      "vis_m": 9999,
      "fzfg": false,
      "metar_trigger": false,
      "taf_trigger": false,
      "metar": "METAR LIPQ 030520Z AUTO 33003KT 9999 OVC130/// 06/03 Q1010",
      "taf": "TAF LIPQ 030500Z 0306/0406 VRB05KT 9999 FEW060"
    },
    {
      "icao": "LIPR",
      "alert": "OK",
      "vis_m": 9999,
      "fzfg": false,
      "metar_trigger": false,
      "taf_trigger": false,
      "metar": "METAR LIPR 030520Z 31007KT 9999 BKN060 10/05 Q1010",
      "taf": "TAF LIPR 030500Z 0306/0406 30008KT 9999 SCT060"
    },
    {
      "icao": "LIPX",
      "alert": "OK",
      "vis_m": 9999,
      "fzfg": false,
      "metar_trigger": false,
      "taf_trigger": false,
      "metar": "METAR LIPX 030520Z VRB02KT CAVOK 09/M03 Q1011",
      "taf": "TAF LIPX 030500Z 0306/0406 VRB05KT CAVOK"
    },
    {
      "icao": "LIPY",
      "alert": "OK",
      "vis_m": 9999,
      "fzfg": false,
      "metar_trigger": false,
      "taf_trigger": false,
      "metar": "METAR LIPY 030520Z AUTO 33007KT 9999 FEW092/// 12/09 Q1009",
      "taf": "TAF LIPY 030500Z 0306/0406 34013KT 9999 SCT060"
    },
    {
      "icao": "LIPZ",
      "alert": "OK",
      "vis_m": 9999,
      "fzfg": false,
      "metar_trigger": false,
      "taf_trigger": false,
      "metar": "METAR LIPZ 030520Z 35004KT 310V040 9999 SCT071 09/04 Q1010 NOSIG",
      "taf": "TAF LIPZ 030500Z 0306/0412 VRB05KT CAVOK"
    },
    {
      "icao": "LIRF",
      "alert": "OK",
      "vis_m": 9999,
      "fzfg": false,
      "metar_trigger": false,
      "taf_trigger": false,
      "metar": "METAR LIRF 030520Z 01011KT CAVOK 12/05 Q1005 NOSIG",
      "taf": "TAF LIRF 030500Z 0306/0412 36013KT CAVOK"
    },
    {
      "icao": "LIRN",
      "alert": "OK",
      "vis_m": 9999,
      "fzfg": false,
      "metar_trigger": false,
      "taf_trigger": false,
      "metar": "METAR LIRN 030520Z VRB02KT 9999 FEW030 SCT050 10/08 Q1004 NOSIG",
      "taf": "TAF LIRN 030500Z 0306/0406 03012KT 9999 BKN050"
    },
    {
      "icao": "LIRP",
      "alert": "OK",
      "vis_m": 9999,
      "fzfg": false,
      "metar_trigger": false,
      "taf_trigger": false,
      "metar": "METAR LIRP 030515Z 33003KT CAVOK 06/04 Q1010 NOSIG",
      "taf": "TAF LIRP 030500Z 0306/0406 VRB03KT 9999 FEW050"
    },
    {
      "icao": "LIRZ",
      "alert": "OK",
      "vis_m": 9999,
      "fzfg": false,
      "metar_trigger": false,
      "taf_trigger": false,
      "metar": "METAR LIRZ 030520Z AUTO 35005KT 320V030 9999 SCT110/// BKN140/// 08/04 Q1008",
      "taf": "TAF LIRZ 030500Z 0306/0406 02012KT 9999 SCT030"
    },
    {
      "icao": "LJLJ",
      "alert": "OK",
      "vis_m": 9999,
      "fzfg": false,
      "metar_trigger": false,
      "taf_trigger": false,
      "metar": "METAR LJLJ 030500Z 32011KT 9999 FEW055 SCT100 09/M02 Q1011 NOSIG",
      "taf": "TAF LJLJ 030500Z 0306/0406 32008KT 9999 FEW055 SCT100"
    },
    {
      "icao": "LKMT",
      "alert": "OK",
      "vis_m": 9999,
      "fzfg": false,
      "metar_trigger": false,
      "taf_trigger": false,
      "metar": "METAR LKMT 030500Z 00000KT CAVOK 00/M02 Q1014 NOSIG",
      "taf": "TAF LKMT 030500Z 0306/0406 01008KT CAVOK"
    },
    {
      "icao": "LKPR",
      "alert": "OK",
      "vis_m": 9999,
      "fzfg": false,
      "metar_trigger": false,
      "taf_trigger": false,
      "metar": "METAR LKPR 030500Z 23010KT CAVOK M00/M02 Q1015 NOSIG",
      "taf": "TAF LKPR 030500Z 0306/0412 24008KT CAVOK"
    },
    {
      "icao": "LLBG",
      "alert": "OK",
      "vis_m": 9000,
      "fzfg": false,
      "metar_trigger": false,
      "taf_trigger": false,
      "metar": "METAR LLBG 030520Z 14005KT 9000 NSC 17/10 Q1017 TEMPO 5000 HZ",
      "taf": "TAF LLBG 030512Z 0306/0406 VRB04KT 8000 NSC TX21/0312Z TN10/0404Z"
    },
    {
      "icao": "LMML",
      "alert": "OK",
      "vis_m": 9999,
      "fzfg": false,
      "metar_trigger": false,
      "taf_trigger": false,
      "metar": "METAR LMML 030515Z 28020G33KT 9999 VCSH SCT012TCU 12/10 Q1005 NOSIG",
      "taf": "TAF LMML 030500Z 0306/0406 28020G30KT 9999 SCT020"
    },
    {
      "icao": "LOWW",
      "alert": "OK",
      "vis_m": 9999,
      "fzfg": false,
      "metar_trigger": false,
      "taf_trigger": false,
      "metar": "METAR LOWW 030520Z 31014KT CAVOK 07/02 Q1015 NOSIG",
      "taf": "TAF LOWW 030515Z 0306/0412 31015G25KT CAVOK TX15/0314Z TN06/0403Z"
    },
    {
      "icao": "LPFR",
      "alert": "OK",
      "vis_m": 9999,
      "fzfg": false,
      "metar_trigger": false,
      "taf_trigger": false,
      "metar": "METAR LPFR 030500Z 35009KT CAVOK 14/06 Q1019",
      "taf": "TAF LPFR 030500Z 0306/0406 35010KT CAVOK"
    },
    {
      "icao": "LPMA",
      "alert": "OK",
      "vis_m": 9999,
      "fzfg": false,
      "metar_trigger": false,
      "taf_trigger": false,
      "metar": "METAR LPMA 030500Z 02019KT 9999 FEW016 15/07 Q1021",
      "taf": "TAF LPMA 030500Z 0306/0406 01015KT 9999 SCT015"
    },
    {
      "icao": "LPPR",
      "alert": "OK",
      "vis_m": 9999,
      "fzfg": false,
      "metar_trigger": false,
      "taf_trigger": false,
      "metar": "METAR LPPR 030500Z 12002KT CAVOK 09/06 Q1022",
      "taf": "TAF LPPR 030500Z 0306/0406 VRB02KT CAVOK"
    },
    {
      "icao": "LPPS",
      "alert": "OK",
      "vis_m": 9999,
      "fzfg": false,
      "metar_trigger": false,
      "taf_trigger": false,
      "metar": "METAR LPPS 030500Z 03003KT 010V070 9999 FEW012 13/11 Q1022",
      "taf": "TAF LPPS 030500Z 0306/0412 03012KT 9999 SCT012"
    },
    {
      "icao": "LPPT",
      "alert": "OK",
      "vis_m": 9999,
      "fzfg": false,
      "metar_trigger": false,
      "taf_trigger": false,
      "metar": "METAR LPPT 030500Z 33006KT CAVOK 12/10 Q1021",
      "taf": "TAF LPPT 030500Z 0306/0412 33007KT CAVOK"
    },
    {
      "icao": "LQBK",
      "alert": "OK",
      "vis_m": 9999,
      "fzfg": false,
      "metar_trigger": false,
      "taf_trigger": false,
      "metar": "METAR LQBK 030500Z 30007KT 9999 FEW017 BKN037 09/03 Q1009 NOSIG",
      "taf": "TAF LQBK 030500Z 0306/0406 29007KT CAVOK TX14/0313Z TN05/0406Z"
    },
    {
      "icao": "LQSA",
      "alert": "OK",
      "vis_m": 9999,
      "fzfg": false,
      "metar_trigger": false,
      "taf_trigger": false,
      "metar": "METAR LQSA 030500Z 30003KT 9999 -RA FEW008 SCT020 BKN035 06/05 Q1006 NOSIG",
      "taf": "TAF LQSA 030500Z 0306/0406 28005KT 9999 SCT020 BKN045 TX08/0313Z TN03/0404Z"
    },
    {
      "icao": "LQTZ",
      "alert": "OK",
      "vis_m": 800,
      "fzfg": false,
      "metar_trigger": false,
      "taf_trigger": false,
      "metar": "METAR LQTZ 030500Z 31004KT 0800 R09/1500D -RA FG BKN004 OVC015 05/05 Q1006",
      "taf": "TAF LQTZ 030500Z 0306/0406 29005KT 3000 RA BR BKN012 OVC020 TX08/0313Z TN05/0405Z"
    },
    {
      "icao": "LRBC",
      "alert": "OK",
      "vis_m": 2000,
      "fzfg": false,
      "metar_trigger": false,
      "taf_trigger": false,
      "metar": "METAR LRBC 030500Z 34005KT 2000 -RADZ BR OVC004 09/09 Q1005",
      "taf": "TAF LRBC 030200Z 0303/0312 VRB04KT 5000 -RA BR BKN010 OVC025"
    },
    {
      "icao": "LRBS",
      "alert": "OK",
      "vis_m": 8000,
      "fzfg": false,
      "metar_trigger": false,
      "taf_trigger": false,
      "metar": "METAR LRBS 030500Z 05007KT 8000 -RA OVC004 09/09 Q1003 NOSIG",
      "taf": "TAF LRBS 022300Z 0300/0324 06010KT 9999 BKN005"
    },
    {
      "icao": "LRBV",
      "alert": "OK",
      "vis_m": 9000,
      "fzfg": false,
      "metar_trigger": false,
      "taf_trigger": false,
      "metar": "METAR LRBV 030500Z 21003KT 9000 FEW020 SCT030 BKN052 07/06 Q1004",
      "taf": "TAF LRBV 030200Z 0303/0312 VRB04KT 9999 SCT020 BKN035"
    },
    {
      "icao": "LRCL",
      "alert": "OK",
      "vis_m": 9999,
      "fzfg": false,
      "metar_trigger": false,
      "taf_trigger": false,
      "metar": "METAR LRCL 030500Z 27005KT 250V310 9999 -RA FEW024 OVC044 09/08 Q1005",
      "taf": "TAF LRCL 030200Z 0303/0312 VRB04KT 9999 OVC045"
    },
    {
      "icao": "LRCV",
      "alert": "OK",
      "vis_m": 9999,
      "fzfg": false,
      "metar_trigger": false,
      "taf_trigger": false,
      "metar": "METAR LRCV 030500Z 08010KT 9999 -RADZ OVC005 09/08 Q1003",
      "taf": "TAF LRCV 030200Z 0303/0312 07014KT 5000 -RA BR BKN010 OVC020"
    },
    {
      "icao": "LRIA",
      "alert": "OK",
      "vis_m": 700,
      "fzfg": false,
      "metar_trigger": false,
      "taf_trigger": false,
      "metar": "METAR LRIA 030500Z 00000KT 0700 R14/1300N FG OVC001 10/09 Q1005",
      "taf": "TAF LRIA 030200Z 0303/0312 VRB04KT 1500 BR BKN005 OVC015"
    },
    {
      "icao": "LROP",
      "alert": "OK",
      "vis_m": 3000,
      "fzfg": false,
      "metar_trigger": false,
      "taf_trigger": false,
      "metar": "METAR LROP 030500Z 05009KT 3000 -DZRA BR OVC004 09/09 Q1003 NOSIG",
      "taf": "TAF LROP 022300Z 0300/0324 06010KT 9999 BKN005"
    },
    {
      "icao": "LRSB",
      "alert": "OK",
      "vis_m": 4000,
      "fzfg": false,
      "metar_trigger": false,
      "taf_trigger": false,
      "metar": "METAR LRSB 030500Z COR 23002KT 4000 -RA BR SCT003 OVC015 08/08 Q1004",
      "taf": "TAF LRSB 022300Z 0300/0324 VRB04KT 9999 BKN030"
    },
    {
      "icao": "LRSM",
      "alert": "OK",
      "vis_m": 9999,
      "fzfg": false,
      "metar_trigger": false,
      "taf_trigger": false,
      "metar": "METAR LRSM 030500Z 36010KT CAVOK 09/05 Q1005",
      "taf": "TAF LRSM 030200Z 0303/0312 05010KT CAVOK"
    },
    {
      "icao": "LRSV",
      "alert": "OK",
      "vis_m": 3500,
      "fzfg": false,
      "metar_trigger": false,
      "taf_trigger": false,
      "metar": "METAR LRSV 030500Z 32012KT 3500 -RA BR SCT012 BKN035 08/08 Q1005 RERA",
      "taf": "TAF LRSV 030200Z 0303/0312 32012KT 6000 -RA BKN010 OVC025"
    },
    {
      "icao": "LRTM",
      "alert": "OK",
      "vis_m": 4000,
      "fzfg": false,
      "metar_trigger": false,
      "taf_trigger": false,
      "metar": "METAR LRTM 030500Z 22003KT 4000 -RA BR FEW004 SCT007 09/08 Q1004",
      "taf": "TAF LRTM 030200Z 0303/0312 VRB04KT 5000 -RA BR BKN015 BKN045"
    },
    {
      "icao": "LRTR",
      "alert": "OK",
      "vis_m": 6000,
      "fzfg": false,
      "metar_trigger": false,
      "taf_trigger": false,
      "metar": "METAR LRTR 030500Z 33004KT 6000 -RA FEW020 BKN028 09/09 Q1005 NOSIG",
      "taf": "TAF LRTR 022300Z 0300/0324 VRB04KT 9999 OVC040"
    },
    {
      "icao": "LTAC",
      "alert": "OK",
      "vis_m": 9999,
      "fzfg": false,
      "metar_trigger": false,
      "taf_trigger": false,
      "metar": "METAR LTAC 030520Z 22009KT 9999 SCT040 SCT100 08/02 Q1007 NOSIG",
      "taf": "TAF LTAC 030440Z 0306/0406 24018KT 9999 SCT040 SCT100"
    },
    {
      "icao": "LTFM",
      "alert": "OK",
      "vis_m": 9999,
      "fzfg": false,
      "metar_trigger": false,
      "taf_trigger": false,
      "metar": "METAR LTFM 030520Z 20013KT 9999 SCT035 BKN080 11/08 Q1004 NOSIG",
      "taf": "TAF LTFM 030440Z 0306/0412 17012KT 9999 SCT035 BKN080"
    },
    {
      "icao": "LUKK",
      "alert": "OK",
      "vis_m": 4200,
      "fzfg": false,
      "metar_trigger": false,
      "taf_trigger": false,
      "metar": "METAR LUKK 030500Z 36003KT 340V040 4200 -RA BR FEW007 SCT032 OVC055 10/10 Q1004 TEMPO 1200 BR",
      "taf": "TAF LUKK 030512Z 0306/0406 VRB04KT 3000 BR BKN015"
    },
    {
      "icao": "LWOH",
      "alert": "OK",
      "vis_m": 9999,
      "fzfg": false,
      "metar_trigger": false,
      "taf_trigger": false,
      "metar": "METAR LWOH 030520Z 34004KT 310V010 9999 SCT010 OVC033 05/04 Q1002",
      "taf": "TAF LWOH 030520Z 0306/0406 35010KT 9999 SCT010 OVC035"
    },
    {
      "icao": "LWSK",
      "alert": "OK",
      "vis_m": 9999,
      "fzfg": false,
      "metar_trigger": false,
      "taf_trigger": false,
      "metar": "METAR LWSK 030520Z 02003KT 340V050 9999 -DZ FEW023 BKN036 BKN070 08/07 Q1003 NOSIG",
      "taf": "TAF LWSK 030520Z 0306/0406 VRB02KT 9999 FEW025 BKN040 BKN070"
    },
    {
      "icao": "LYBE",
      "alert": "OK",
      "vis_m": 4000,
      "fzfg": false,
      "metar_trigger": false,
      "taf_trigger": false,
      "metar": "METAR LYBE 030500Z 32006KT 4000 -RA BR BKN008 BKN026 08/08 Q1005 TEMPO BKN003 BKN026",
      "taf": "TAF LYBE 030500Z 0306/0406 31008KT 7000 SCT012 BKN030 TX12/0313Z TN06/0306Z"
    },
    {
      "icao": "LYNI",
      "alert": "OK",
      "vis_m": 9999,
      "fzfg": false,
      "metar_trigger": false,
      "taf_trigger": false,
      "metar": "METAR LYNI 030500Z 32010KT 9999 -RA BKN005 OVC017 08/08 Q1003 TEMPO 4000 BR",
      "taf": "TAF LYNI 030500Z 0306/0406 33013KT 9999 SCT010 BKN030 TX11/0313Z TN07/0405Z"
    },
    {
      "icao": "LYPG",
      "alert": "OK",
      "vis_m": 9999,
      "fzfg": false,
      "metar_trigger": false,
      "taf_trigger": false,
      "metar": "METAR LYPG 030500Z VRB02KT 9999 FEW040 SCT090 09/04 Q1001 NOSIG",
      "taf": "TAF LYPG 030500Z 0306/0406 36005KT 9999 FEW040 SCT080 TX18/0313Z TN08/0306Z"
    },
    {
      "icao": "LZIB",
      "alert": "OK",
      "vis_m": 9999,
      "fzfg": false,
      "metar_trigger": false,
      "taf_trigger": false,
      "metar": "METAR LZIB 030500Z 30013KT 270V330 CAVOK 07/M01 Q1013 NOSIG",
      "taf": "TAF LZIB 030515Z 0306/0406 33012KT CAVOK"
    },
    {
      "icao": "LZKZ",
      "alert": "OK",
      "vis_m": 9999,
      "fzfg": false,
      "metar_trigger": false,
      "taf_trigger": false,
      "metar": "METAR LZKZ 030500Z 36015KT CAVOK 10/M00 Q1009 NOSIG",
      "taf": "TAF LZKZ 030515Z 0306/0406 01017KT CAVOK"
    },
    {
      "icao": "LZTT",
      "alert": "OK",
      "vis_m": 9999,
      "fzfg": false,
      "metar_trigger": false,
      "taf_trigger": false,
      "metar": "METAR LZTT 030500Z 28010KT 9999 FEW006 02/01 Q1010 NOSIG",
      "taf": "TAF LZTT 030515Z 0306/0406 27005KT 9999 FEW015 SCT045"
    },
    {
      "icao": "OEJN",
      "alert": "OK",
      "vis_m": 9999,
      "fzfg": false,
      "metar_trigger": false,
      "taf_trigger": false,
      "metar": "METAR OEJN 030500Z 32003KT CAVOK 30/13 Q1010 NOSIG",
      "taf": "TAF OEJN 030500Z 0306/0412 26012KT CAVOK"
    },
    {
      "icao": "OEMA",
      "alert": "OK",
      "vis_m": 9999,
      "fzfg": false,
      "metar_trigger": false,
      "taf_trigger": false,
      "metar": "METAR OEMA 030500Z 05010KT CAVOK 28/02 Q1016 NOSIG",
      "taf": "TAF OEMA 030500Z 0306/0412 06010KT 9999 FEW045"
    },
    {
      "icao": "OJAI",
      "alert": "OK",
      "vis_m": 1500,
      "fzfg": false,
      "metar_trigger": false,
      "taf_trigger": false,
      "metar": "METAR OJAI 030500Z 29011KT 1500 BR BKN010 11/10 Q1017 NOSIG",
      "taf": ""
    },
    {
      "icao": "OMAA",
      "alert": "OK",
      "vis_m": null,
      "fzfg": false,
      "metar_trigger": false,
      "taf_trigger": false,
      "metar": "",
      "taf": ""
    },
    {
      "icao": "OMDB",
      "alert": "OK",
      "vis_m": null,
      "fzfg": false,
      "metar_trigger": false,
      "taf_trigger": false,
      "metar": "",
      "taf": ""
    },
    {
      "icao": "UAAA",
      "alert": "OK",
      "vis_m": 9999,
      "fzfg": false,
      "metar_trigger": false,
      "taf_trigger": false,
      "metar": "METAR UAAA 030500Z 01003MPS 330V050 9999 SCT200 20/04 Q1011 NOSIG",
      "taf": "TAF UAAA 030503Z 0306/0406 04003G08MPS 9999 SCT100 TX26/0310Z TN10/0401Z"
    },
    {
      "icao": "UBBB",
      "alert": "OK",
      "vis_m": 9999,
      "fzfg": false,
      "metar_trigger": false,
      "taf_trigger": false,
      "metar": "METAR UBBB 030500Z 17016KT CAVOK 15/10 Q1006 NOSIG",
      "taf": "TAF UBBB 030501Z 0306/0406 17016KT 9999 SCT020 TX18/0310Z TN11/0401Z"
    },
    {
      "icao": "UDSG",
      "alert": "OK",
      "vis_m": 9999,
      "fzfg": false,
      "metar_trigger": false,
      "taf_trigger": false,
      "metar": "METAR UDSG 030500Z 34005KT 9999 SCT043CB 07/07 Q1013 NOSIG",
      "taf": "TAF UDSG 030500Z 0306/0406 21006KT 9999 SCT040"
    },
    {
      "icao": "UDYZ",
      "alert": "OK",
      "vis_m": 9999,
      "fzfg": false,
      "metar_trigger": false,
      "taf_trigger": false,
      "metar": "METAR UDYZ 030500Z 12005KT 9999 FEW046 12/08 Q1012 NOSIG",
      "taf": "TAF UDYZ 030500Z 0306/0406 24006KT 9999 SCT040"
    },
    {
      "icao": "UGKO",
      "alert": "OK",
      "vis_m": 9999,
      "fzfg": false,
      "metar_trigger": false,
      "taf_trigger": false,
      "metar": "METAR UGKO 030500Z 09014KT 9999 SCT028CB BKN058 17/08 Q1005 NOSIG",
      "taf": "TAF UGKO 030500Z 0306/0406 08012KT 9999 BKN050 TX25/0311Z TN11/0403Z"
    }
  ]
}