{
  "ts_utc": "2026-06-03T10:03:50Z",
  "threshold_m": 150,
  "source": "stations_override.txt (ICAO list) + aviationweather.gov (METAR/TAF raw)",
  "station_count": 159,
  "stations": [
    {
      "icao": "BIKF",
      "alert": "OK",
      "vis_m": 9999,
      "fzfg": false,
      "metar_trigger": false,
      "taf_trigger": false,
      "metar": "METAR BIKF 030930Z 11010KT 9999 BKN010 BKN018 OVC036 11/08 Q0995",
      "taf": "TAF BIKF 030757Z 0309/0409 10007KT 9999 -SHRA SCT020 BKN030 TX12/0315Z TN08/0405Z"
    },
    {
      "icao": "BKPR",
      "alert": "OK",
      "vis_m": 9999,
      "fzfg": false,
      "metar_trigger": false,
      "taf_trigger": false,
      "metar": "METAR BKPR 031000Z 23014KT 9999 FEW050 24/12 Q1013 NOSIG",
      "taf": "TAF BKPR 030530Z 0306/0406 21008KT 9999 FEW050"
    },
    {
      "icao": "EBCI",
      "alert": "OK",
      "vis_m": 9999,
      "fzfg": false,
      "metar_trigger": false,
      "taf_trigger": false,
      "metar": "METAR EBCI 030950Z 23016KT 9999 FEW025 BKN035 15/10 Q1010 NOSIG",
      "taf": "TAF EBCI 030502Z 0306/0412 24010KT 9999 BKN018"
    },
    {
      "icao": "EDDB",
      "alert": "OK",
      "vis_m": 9999,
      "fzfg": false,
      "metar_trigger": false,
      "taf_trigger": false,
      "metar": "METAR EDDB 030950Z AUTO 27006KT 240V300 9999 FEW020 SCT045 18/14 Q1008 NOSIG",
      "taf": "TAF EDDB 030500Z 0306/0406 26007KT CAVOK"
    },
    {
      "icao": "EDDH",
      "alert": "OK",
      "vis_m": 9999,
      "fzfg": false,
      "metar_trigger": false,
      "taf_trigger": false,
      "metar": "METAR EDDH 030950Z AUTO 23010KT 9999 SCT020 SCT026 BKN036 17/13 Q1006 NOSIG",
      "taf": "TAF EDDH 030500Z 0306/0412 24008KT 9999 BKN012"
    },
    {
      "icao": "EDDK",
      "alert": "OK",
      "vis_m": 9999,
      "fzfg": false,
      "metar_trigger": false,
      "taf_trigger": false,
      "metar": "METAR EDDK 030950Z AUTO 25009KT 9999 -SHRA FEW019 SCT032 FEW///TCU 15/13 Q1010 RESHRA NOSIG",
      "taf": "TAF EDDK 030500Z 0306/0412 18006KT 9999 SCT030"
    },
    {
      "icao": "EDDN",
      "alert": "OK",
      "vis_m": 9999,
      "fzfg": false,
      "metar_trigger": false,
      "taf_trigger": false,
      "metar": "METAR EDDN 030950Z AUTO 27014KT 9999 FEW031 SCT043 18/09 Q1012 NOSIG",
      "taf": "TAF EDDN 030500Z 0306/0406 26010KT 9999 SCT012 BKN035"
    },
    {
      "icao": "EDDS",
      "alert": "OK",
      "vis_m": 9999,
      "fzfg": false,
      "metar_trigger": false,
      "taf_trigger": false,
      "metar": "METAR EDDS 030950Z AUTO 26007KT 170V310 9999 FEW025 17/11 Q1013 NOSIG",
      "taf": ""
    },
    {
      "icao": "EDFH",
      "alert": "OK",
      "vis_m": 9999,
      "fzfg": false,
      "metar_trigger": false,
      "taf_trigger": false,
      "metar": "METAR EDFH 030950Z 24012KT 210V270 9999 SCT015 BKN017 13/10 Q1011",
      "taf": "TAF EDFH 030500Z 0306/0406 25010KT 9999 BKN005"
    },
    {
      "icao": "EDJA",
      "alert": "OK",
      "vis_m": 9999,
      "fzfg": false,
      "metar_trigger": false,
      "taf_trigger": false,
      "metar": "METAR EDJA 030950Z 26012KT 200V290 9999 TSRA SCT027 BKN034CB 15/10 Q1014",
      "taf": "TAF EDJA 030800Z 0309/0318 24013KT 9999 SCT020 BKN040"
    },
    {
      "icao": "EDLW",
      "alert": "OK",
      "vis_m": 9999,
      "fzfg": false,
      "metar_trigger": false,
      "taf_trigger": false,
      "metar": "METAR EDLW 030950Z 22012KT 9999 SCT026 BKN042 BKN048 17/12 Q1008",
      "taf": "TAF EDLW 030500Z 0306/0406 21011KT 9999 BKN030"
    },
    {
      "icao": "EDNY",
      "alert": "OK",
      "vis_m": 9999,
      "fzfg": false,
      "metar_trigger": false,
      "taf_trigger": false,
      "metar": "METAR EDNY 030950Z 25012KT 220V290 9999 SCT023 16/11 Q1015",
      "taf": "TAF EDNY 030800Z 0309/0318 25011KT 9999 SCT030"
    },
    {
      "icao": "EDSB",
      "alert": "OK",
      "vis_m": 9999,
      "fzfg": false,
      "metar_trigger": false,
      "taf_trigger": false,
      "metar": "METAR EDSB 030950Z 24011KT 210V280 9999 SCT039 OVC067 18/10 Q1013",
      "taf": "TAF EDSB 030500Z 0306/0406 23005KT CAVOK"
    },
    {
      "icao": "EETN",
      "alert": "OK",
      "vis_m": 9999,
      "fzfg": false,
      "metar_trigger": false,
      "taf_trigger": false,
      "metar": "METAR EETN 030950Z 12004KT 9999 FEW047 22/11 Q1013 NOSIG",
      "taf": "TAF EETN 030530Z 0306/0406 15007KT CAVOK"
    },
    {
      "icao": "EFTU",
      "alert": "OK",
      "vis_m": 9999,
      "fzfg": false,
      "metar_trigger": false,
      "taf_trigger": false,
      "metar": "METAR EFTU 030950Z AUTO 18006KT 100V230 CAVOK 20/11 Q1012",
      "taf": "TAF EFTU 030825Z 0309/0409 20006KT CAVOK"
    },
    {
      "icao": "EGBB",
      "alert": "OK",
      "vis_m": 9999,
      "fzfg": false,
      "metar_trigger": false,
      "taf_trigger": false,
      "metar": "METAR EGBB 030950Z 17011KT 9999 -RA BKN012 13/11 Q1000",
      "taf": "TAF EGBB 030458Z 0306/0406 21007KT 9999 FEW030"
    },
    {
      "icao": "EGGP",
      "alert": "OK",
      "vis_m": 9999,
      "fzfg": false,
      "metar_trigger": false,
      "taf_trigger": false,
      "metar": "METAR EGGP 030950Z 15012G24KT 130V190 9999 VCSH SCT012 BKN016 13/11 Q0996",
      "taf": "TAF EGGP 030457Z 0306/0406 21006KT 9999 SCT025"
    },
    {
      "icao": "EGGW",
      "alert": "OK",
      "vis_m": 9999,
      "fzfg": false,
      "metar_trigger": false,
      "taf_trigger": false,
      "metar": "METAR EGGW 030950Z AUTO 20010KT 160V230 9999 -RA BKN017 OVC023 14/11 Q1003",
      "taf": ""
    },
    {
      "icao": "EGKK",
      "alert": "OK",
      "vis_m": 9999,
      "fzfg": false,
      "metar_trigger": false,
      "taf_trigger": false,
      "metar": "METAR EGKK 030950Z 20010KT 170V260 9999 SCT015 BKN023 15/12 Q1005",
      "taf": "TAF EGKK 030457Z 0306/0412 22010KT 9999 SCT040"
    },
    {
      "icao": "EGNM",
      "alert": "OK",
      "vis_m": 6000,
      "fzfg": false,
      "metar_trigger": false,
      "taf_trigger": false,
      "metar": "METAR EGNM 030950Z 18011KT 150V220 6000 -RA SCT015 BKN022 12/11 Q0998",
      "taf": "TAF EGNM 030457Z 0306/0406 27012KT 9999 SCT025"
    },
    {
      "icao": "EGPD",
      "alert": "OK",
      "vis_m": 9999,
      "fzfg": false,
      "metar_trigger": false,
      "taf_trigger": false,
      "metar": "METAR EGPD 030950Z COR AUTO 18010KT 9999 SCT017 16/11 Q0993 NOSIG",
      "taf": ""
    },
    {
      "icao": "EGPF",
      "alert": "OK",
      "vis_m": 9999,
      "fzfg": false,
      "metar_trigger": false,
      "taf_trigger": false,
      "metar": "METAR EGPF 030950Z AUTO 11007KT 9999 -RA FEW019/// //////TCU 13/11 Q0992",
      "taf": ""
    },
    {
      "icao": "EHBK",
      "alert": "OK",
      "vis_m": 9999,
      "fzfg": false,
      "metar_trigger": false,
      "taf_trigger": false,
      "metar": "METAR EHBK 030955Z AUTO 23014KT 200V260 9999 SCT017 BKN021 BKN029 16/13 Q1009 NOSIG",
      "taf": "TAF EHBK 030502Z 0306/0412 23011KT 9999 BKN018"
    },
    {
      "icao": "EHEH",
      "alert": "OK",
      "vis_m": 9999,
      "fzfg": false,
      "metar_trigger": false,
      "taf_trigger": false,
      "metar": "METAR EHEH 030955Z AUTO 22011KT 190V270 9999 SCT017 BKN020 BKN024 18/14 Q1008 WHT TEMPO 4500 SHRA SCT018CB",
      "taf": "TAF EHEH 030504Z 0306/0412 21009KT SCT012 BKN015"
    },
    {
      "icao": "EKBI",
      "alert": "OK",
      "vis_m": 9999,
      "fzfg": false,
      "metar_trigger": false,
      "taf_trigger": false,
      "metar": "METAR EKBI 030950Z AUTO 19009KT 170V230 9999 BKN011/// BKN047/// 17/14 Q1003",
      "taf": "TAF EKBI 030827Z 0309/0409 20010KT 4000 RA BKN005 SCT020CB"
    },
    {
      "icao": "EKCH",
      "alert": "OK",
      "vis_m": 9999,
      "fzfg": false,
      "metar_trigger": false,
      "taf_trigger": false,
      "metar": "METAR EKCH 030950Z AUTO 14009KT 9999 SCT082/// SCT100/// 19/14 Q1005 NOSIG",
      "taf": "TAF EKCH 030827Z 0309/0409 10010KT 9999 FEW040"
    },
    {
      "icao": "ENAL",
      "alert": "OK",
      "vis_m": 9999,
      "fzfg": false,
      "metar_trigger": false,
      "taf_trigger": false,
      "metar": "METAR ENAL 030950Z 06005KT 9999 SCT055 19/12 Q0999",
      "taf": "TAF ENAL 030800Z 0309/0318 08008KT 9999 FEW050"
    },
    {
      "icao": "ENBR",
      "alert": "OK",
      "vis_m": 9999,
      "fzfg": false,
      "metar_trigger": false,
      "taf_trigger": false,
      "metar": "METAR ENBR 030950Z 11010KT CAVOK 20/09 Q0998 NOSIG RMK WIND 1200FT 12020KT",
      "taf": ""
    },
    {
      "icao": "ENGM",
      "alert": "OK",
      "vis_m": 9999,
      "fzfg": false,
      "metar_trigger": false,
      "taf_trigger": false,
      "metar": "METAR ENGM 030950Z 11005KT 070V170 9999 BKN019 18/13 Q1006 NOSIG",
      "taf": "TAF ENGM 030500Z 0306/0406 06005KT 9999 BKN008"
    },
    {
      "icao": "ENHD",
      "alert": "OK",
      "vis_m": 9999,
      "fzfg": false,
      "metar_trigger": false,
      "taf_trigger": false,
      "metar": "METAR ENHD 030950Z 16007KT 9999 -SHRA FEW025 BKN047 16/13 Q0998",
      "taf": "TAF ENHD 030800Z 0309/0318 12008KT 9999 FEW020 BKN040"
    },
    {
      "icao": "ENTC",
      "alert": "OK",
      "vis_m": 9999,
      "fzfg": false,
      "metar_trigger": false,
      "taf_trigger": false,
      "metar": "METAR ENTC 030950Z 22004KT CAVOK 16/05 Q1007 BECMG 02010KT RMK WIND 2600FT 15010KT",
      "taf": "TAF ENTC 030500Z 0306/0406 04005KT CAVOK"
    },
    {
      "icao": "ENTO",
      "alert": "OK",
      "vis_m": 9999,
      "fzfg": false,
      "metar_trigger": false,
      "taf_trigger": false,
      "metar": "METAR ENTO 030950Z 09007KT 060V120 9999 FEW013 19/13 Q1005 NOSIG",
      "taf": "TAF ENTO 030500Z 0306/0406 04007KT 9999 BKN040"
    },
    {
      "icao": "ENVA",
      "alert": "OK",
      "vis_m": 9999,
      "fzfg": false,
      "metar_trigger": false,
      "taf_trigger": false,
      "metar": "METAR ENVA 030950Z 12005KT 080V170 9999 NSC 21/12 Q1003 NOSIG RMK WIND 670FT 15014KT",
      "taf": "TAF ENVA 030500Z 0306/0406 14008KT CAVOK"
    },
    {
      "icao": "ENZV",
      "alert": "OK",
      "vis_m": 9999,
      "fzfg": false,
      "metar_trigger": false,
      "taf_trigger": false,
      "metar": "METAR ENZV 030950Z 15010KT 9999 -SHRA NSC 18/13 Q0998 NOSIG",
      "taf": "TAF ENZV 030500Z 0306/0406 14012KT 9999 FEW020 BKN040"
    },
    {
      "icao": "EPGD",
      "alert": "OK",
      "vis_m": 9999,
      "fzfg": false,
      "metar_trigger": false,
      "taf_trigger": false,
      "metar": "METAR EPGD 031000Z 14013KT 110V170 9999 SCT029 23/14 Q1009",
      "taf": "TAF EPGD 030530Z 0306/0406 14010KT CAVOK"
    },
    {
      "icao": "EPKK",
      "alert": "OK",
      "vis_m": 9999,
      "fzfg": false,
      "metar_trigger": false,
      "taf_trigger": false,
      "metar": "METAR EPKK 031000Z 06006KT 020V090 9999 FEW055CB SCT064 21/13 Q1008",
      "taf": "TAF EPKK 030830Z 0309/0409 05006KT CAVOK"
    },
    {
      "icao": "EPKT",
      "alert": "OK",
      "vis_m": 9999,
      "fzfg": false,
      "metar_trigger": false,
      "taf_trigger": false,
      "metar": "METAR EPKT 031000Z 18009KT CAVOK 23/11 Q1007",
      "taf": "TAF EPKT 030508Z 0306/0406 09007KT CAVOK"
    },
    {
      "icao": "EPLB",
      "alert": "OK",
      "vis_m": 9999,
      "fzfg": false,
      "metar_trigger": false,
      "taf_trigger": false,
      "metar": "METAR EPLB 031000Z 08008KT 060V120 9999 SCT020 BKN029 19/14 Q1010",
      "taf": "TAF EPLB 030530Z 0306/0406 10010KT 9999 BKN006"
    },
    {
      "icao": "EPMO",
      "alert": "OK",
      "vis_m": 9999,
      "fzfg": false,
      "metar_trigger": false,
      "taf_trigger": false,
      "metar": "METAR EPMO 031000Z 10007KT 030V170 9999 BKN033 21/12 Q1010",
      "taf": "TAF EPMO 030530Z 0306/0406 11010KT 9999 BKN006"
    },
    {
      "icao": "EPPO",
      "alert": "OK",
      "vis_m": 9999,
      "fzfg": false,
      "metar_trigger": false,
      "taf_trigger": false,
      "metar": "METAR EPPO 031000Z 14008KT 110V190 CAVOK 25/11 Q1006",
      "taf": ""
    },
    {
      "icao": "EPRA",
      "alert": "OK",
      "vis_m": 9999,
      "fzfg": false,
      "metar_trigger": false,
      "taf_trigger": false,
      "metar": "METAR EPRA 031000Z 11006KT 030V170 9999 SCT032 21/12 Q1009",
      "taf": "TAF EPRA 030830Z 0309/0318 12008KT 9999 BKN030"
    },
    {
      "icao": "EPRZ",
      "alert": "OK",
      "vis_m": 9999,
      "fzfg": false,
      "metar_trigger": false,
      "taf_trigger": false,
      "metar": "METAR EPRZ 031000Z 08009KT 050V110 9999 SCT023 22/15 Q1009",
      "taf": "TAF EPRZ 030530Z 0306/0406 08008KT 0900 FG OVC001"
    },
    {
      "icao": "EPSC",
      "alert": "OK",
      "vis_m": 9999,
      "fzfg": false,
      "metar_trigger": false,
      "taf_trigger": false,
      "metar": "METAR EPSC 031000Z 20005KT 170V240 CAVOK 20/13 Q1006",
      "taf": "TAF EPSC 030530Z 0306/0406 11010KT CAVOK"
    },
    {
      "icao": "EPSY",
      "alert": "OK",
      "vis_m": 9999,
      "fzfg": false,
      "metar_trigger": false,
      "taf_trigger": false,
      "metar": "METAR EPSY 031000Z 13006KT 090V170 9999 SCT019 BKN025 17/12 Q1011",
      "taf": "TAF EPSY 030830Z 0309/0318 14008KT 9999 BKN025"
    },
    {
      "icao": "EPWA",
      "alert": "OK",
      "vis_m": 9999,
      "fzfg": false,
      "metar_trigger": false,
      "taf_trigger": false,
      "metar": "METAR EPWA 031000Z 13008KT 100V160 9999 BKN034 20/13 Q1010 NOSIG",
      "taf": "TAF EPWA 030830Z 0309/0409 11010KT 9999 BKN030"
    },
    {
      "icao": "EPWR",
      "alert": "OK",
      "vis_m": 9999,
      "fzfg": false,
      "metar_trigger": false,
      "taf_trigger": false,
      "metar": "METAR EPWR 031000Z 29014KT 9999 BKN019 20/14 Q1007",
      "taf": "TAF EPWR 030830Z 0309/0409 28007KT CAVOK"
    },
    {
      "icao": "ESGG",
      "alert": "OK",
      "vis_m": 9999,
      "fzfg": false,
      "metar_trigger": false,
      "taf_trigger": false,
      "metar": "METAR ESGG 030950Z 14010KT 110V180 CAVOK 23/10 Q1004",
      "taf": "TAF ESGG 030830Z 0309/0409 12013KT CAVOK"
    },
    {
      "icao": "ESKN",
      "alert": "OK",
      "vis_m": 9999,
      "fzfg": false,
      "metar_trigger": false,
      "taf_trigger": false,
      "metar": "METAR ESKN 030950Z 14012KT CAVOK 19/12 Q1010",
      "taf": "TAF ESKN 030830Z 0309/0409 14010KT CAVOK"
    },
    {
      "icao": "ESMS",
      "alert": "OK",
      "vis_m": 9999,
      "fzfg": false,
      "metar_trigger": false,
      "taf_trigger": false,
      "metar": "METAR ESMS 030950Z 17011KT CAVOK 20/13 Q1005",
      "taf": "TAF ESMS 030827Z 0309/0409 11008KT 9999 FEW040"
    },
    {
      "icao": "ESSA",
      "alert": "OK",
      "vis_m": 9999,
      "fzfg": false,
      "metar_trigger": false,
      "taf_trigger": false,
      "metar": "METAR ESSA 030950Z 16010KT CAVOK 20/11 Q1010 NOSIG",
      "taf": "TAF ESSA 030830Z 0309/0409 16009KT CAVOK"
    },
    {
      "icao": "EYKA",
      "alert": "OK",
      "vis_m": 9999,
      "fzfg": false,
      "metar_trigger": false,
      "taf_trigger": false,
      "metar": "METAR EYKA 030950Z 12011KT 090V150 CAVOK 23/08 Q1013",
      "taf": "TAF EYKA 030500Z 0306/0406 VRB03KT 9000 NSC"
    },
    {
      "icao": "EYPA",
      "alert": "OK",
      "vis_m": 9999,
      "fzfg": false,
      "metar_trigger": false,
      "taf_trigger": false,
      "metar": "METAR EYPA 030950Z 18013KT 130V200 9999 SCT045 23/10 Q1011",
      "taf": "TAF EYPA 030500Z 0306/0406 14010KT 9000 NSC"
    },
    {
      "icao": "EYVI",
      "alert": "OK",
      "vis_m": 9999,
      "fzfg": false,
      "metar_trigger": false,
      "taf_trigger": false,
      "metar": "METAR EYVI 030950Z 15009KT CAVOK 21/08 Q1014 NOSIG",
      "taf": "TAF EYVI 030500Z 0306/0406 VRB03KT 9000 SCT045"
    },
    {
      "icao": "GCFV",
      "alert": "OK",
      "vis_m": 9999,
      "fzfg": false,
      "metar_trigger": false,
      "taf_trigger": false,
      "metar": "METAR GCFV 030930Z 04014KT 9999 FEW025 23/16 Q1020",
      "taf": "TAF GCFV 030800Z 0309/0409 03016KT 9999 FEW020 TX25/0314Z TN19/0406Z"
    },
    {
      "icao": "GCLP",
      "alert": "OK",
      "vis_m": 9999,
      "fzfg": false,
      "metar_trigger": false,
      "taf_trigger": false,
      "metar": "METAR GCLP 030930Z 01025KT 9999 FEW020 BKN025 22/15 Q1021 NOSIG",
      "taf": "TAF GCLP 030800Z 0309/0409 01025KT 9999 BKN025 TX24/0314Z TN19/0406Z"
    },
    {
      "icao": "GCTS",
      "alert": "OK",
      "vis_m": 9999,
      "fzfg": false,
      "metar_trigger": false,
      "taf_trigger": false,
      "metar": "METAR GCTS 030930Z 09017KT 9999 FEW020 23/15 Q1022 NOSIG",
      "taf": "TAF GCTS 030800Z 0309/0409 09020KT 9999 SCT020 TX26/0314Z TN19/0406Z"
    },
    {
      "icao": "GMAD",
      "alert": "OK",
      "vis_m": 6000,
      "fzfg": false,
      "metar_trigger": false,
      "taf_trigger": false,
      "metar": "METAR GMAD 031000Z 00000KT 6000 OVC006 21/17 Q1016 NOSIG",
      "taf": "TAF GMAD 030500Z 0306/0412 06006KT 6000 BKN010"
    },
    {
      "icao": "GMMN",
      "alert": "OK",
      "vis_m": 9999,
      "fzfg": false,
      "metar_trigger": false,
      "taf_trigger": false,
      "metar": "METAR GMMN 031000Z 01006KT 320V080 CAVOK 25/17 Q1019 NOSIG",
      "taf": "TAF GMMN 030500Z 0306/0412 36006KT 9999 BKN020"
    },
    {
      "icao": "GMMX",
      "alert": "OK",
      "vis_m": 9999,
      "fzfg": false,
      "metar_trigger": false,
      "taf_trigger": false,
      "metar": "METAR GMMX 031000Z 35005KT 310V100 CAVOK 26/16 Q1018 NOSIG",
      "taf": "TAF GMMX 030500Z 0306/0412 06006KT 8000 NSC"
    },
    {
      "icao": "HEGN",
      "alert": "OK",
      "vis_m": 9999,
      "fzfg": false,
      "metar_trigger": false,
      "taf_trigger": false,
      "metar": "METAR HEGN 030900Z 36006KT CAVOK 37/06 Q1013 NOSIG",
      "taf": "TAF HEGN 030500Z 0306/0412 32012KT CAVOK"
    },
    {
      "icao": "HEMA",
      "alert": "OK",
      "vis_m": 9999,
      "fzfg": false,
      "metar_trigger": false,
      "taf_trigger": false,
      "metar": "METAR HEMA 030900Z 35019KT CAVOK 37/06 Q1012 NOSIG",
      "taf": "TAF HEMA 030500Z 0306/0412 33015KT CAVOK"
    },
    {
      "icao": "HESH",
      "alert": "OK",
      "vis_m": 9999,
      "fzfg": false,
      "metar_trigger": false,
      "taf_trigger": false,
      "metar": "METAR HESH 030900Z 36010KT CAVOK 36/11 Q1013 NOSIG",
      "taf": "TAF HESH 030500Z 0306/0412 36012KT CAVOK"
    },
    {
      "icao": "HESX",
      "alert": "OK",
      "vis_m": 9999,
      "fzfg": false,
      "metar_trigger": false,
      "taf_trigger": false,
      "metar": "METAR HESX 030900Z 04005KT CAVOK 32/10 Q1013 NOSIG",
      "taf": "TAF HESX 030500Z 0306/0412 05009KT CAVOK"
    },
    {
      "icao": "LATI",
      "alert": "OK",
      "vis_m": 9999,
      "fzfg": false,
      "metar_trigger": false,
      "taf_trigger": false,
      "metar": "METAR LATI 030950Z 25008KT 210V300 CAVOK 28/14 Q1012 NOSIG",
      "taf": "TAF LATI 030500Z 0306/0406 VRB04KT 9999 SCT050 BKN080 TX30/0312Z TN14/0404Z"
    },
    {
      "icao": "LBPD",
      "alert": "OK",
      "vis_m": 9999,
      "fzfg": false,
      "metar_trigger": false,
      "taf_trigger": false,
      "metar": "METAR LBPD 031000Z AUTO VRB06KT 9999 NCD 26/18 Q1011 NOSIG",
      "taf": "TAF LBPD 030500Z 0306/0406 VRB04KT 9999 SCT060"
    },
    {
      "icao": "LBSF",
      "alert": "OK",
      "vis_m": 9999,
      "fzfg": false,
      "metar_trigger": false,
      "taf_trigger": false,
      "metar": "METAR LBSF 031000Z VRB04KT 9999 SCT066 23/16 Q1013 NOSIG",
      "taf": ""
    },
    {
      "icao": "LBWN",
      "alert": "OK",
      "vis_m": 9999,
      "fzfg": false,
      "metar_trigger": false,
      "taf_trigger": false,
      "metar": "METAR LBWN 031000Z 14006KT 090V190 9999 SCT030 25/18 Q1011 NOSIG",
      "taf": "TAF LBWN 030500Z 0306/0406 VRB04KT 9999 SCT040"
    },
    {
      "icao": "LCLK",
      "alert": "OK",
      "vis_m": 9999,
      "fzfg": false,
      "metar_trigger": false,
      "taf_trigger": false,
      "metar": "METAR LCLK 031000Z 18011KT 150V210 9999 FEW030 26/20 Q1015 NOSIG",
      "taf": "TAF LCLK 030530Z 0306/0406 12006KT CAVOK"
    },
    {
      "icao": "LCPH",
      "alert": "OK",
      "vis_m": 9999,
      "fzfg": false,
      "metar_trigger": false,
      "taf_trigger": false,
      "metar": "METAR LCPH 031000Z 31017KT 250V320 9999 FEW020 26/19 Q1016 NOSIG",
      "taf": "TAF LCPH 030530Z 0306/0406 02007KT CAVOK"
    },
    {
      "icao": "LEAL",
      "alert": "OK",
      "vis_m": 9999,
      "fzfg": false,
      "metar_trigger": false,
      "taf_trigger": false,
      "metar": "METAR LEAL 030930Z 09014KT 060V120 9999 FEW010 27/18 Q1018 NOSIG",
      "taf": "TAF LEAL 030500Z 0306/0406 06012KT CAVOK TX28/0312Z TN19/0405Z"
    },
    {
      "icao": "LEBB",
      "alert": "OK",
      "vis_m": 9999,
      "fzfg": false,
      "metar_trigger": false,
      "taf_trigger": false,
      "metar": "METAR LEBB 030930Z VRB04KT 9999 SCT055 23/13 Q1019 NOSIG",
      "taf": "TAF LEBB 030500Z 0306/0406 22007KT 9999 SCT020 BKN040 TX25/0312Z TN15/0306Z"
    },
    {
      "icao": "LEBL",
      "alert": "OK",
      "vis_m": 9999,
      "fzfg": false,
      "metar_trigger": false,
      "taf_trigger": false,
      "metar": "METAR LEBL 030930Z 16009KT 140V200 CAVOK 22/11 Q1017 NOSIG",
      "taf": "TAF LEBL 030500Z 0306/0406 32005KT 9999 FEW030 TX25/0312Z TN19/0306Z"
    },
    {
      "icao": "LECH",
      "alert": "OK",
      "vis_m": 9999,
      "fzfg": false,
      "metar_trigger": false,
      "taf_trigger": false,
      "metar": "METAR LECH 030930Z AUTO 18010KT 150V210 CAVOK 23/12 Q1019",
      "taf": "TAF LECH 030500Z 0306/0406 27005KT 9999 FEW050 TX27/0313Z TN16/0405Z"
    },
    {
      "icao": "LEMD",
      "alert": "OK",
      "vis_m": 9999,
      "fzfg": false,
      "metar_trigger": false,
      "taf_trigger": false,
      "metar": "METAR LEMD 030930Z 21003KT CAVOK 23/09 Q1020 NOSIG",
      "taf": "TAF LEMD 030500Z 0306/0412 VRB04KT CAVOK TX32/0316Z TN16/0405Z"
    },
    {
      "icao": "LEMG",
      "alert": "OK",
      "vis_m": 9999,
      "fzfg": false,
      "metar_trigger": false,
      "taf_trigger": false,
      "metar": "METAR LEMG 030930Z 11009KT 050V150 CAVOK 26/15 Q1018 NOSIG",
      "taf": "TAF LEMG 030500Z 0306/0406 30009KT 9999 FEW012 TX30/0314Z TN19/0406Z"
    },
    {
      "icao": "LEVC",
      "alert": "OK",
      "vis_m": 9999,
      "fzfg": false,
      "metar_trigger": false,
      "taf_trigger": false,
      "metar": "METAR LEVC 030930Z 11005KT 9999 FEW018 SCT037 BKN069 26/16 Q1019 NOSIG",
      "taf": "TAF LEVC 030500Z 0306/0406 VRB04KT 9999 SCT030 TX28/0312Z TN19/0405Z"
    },
    {
      "icao": "LEXJ",
      "alert": "OK",
      "vis_m": 9999,
      "fzfg": false,
      "metar_trigger": false,
      "taf_trigger": false,
      "metar": "METAR LEXJ 030930Z 26003KT 9999 BKN048 21/11 Q1019",
      "taf": "TAF LEXJ 030800Z 0309/0409 22005KT 9999 BKN035 TX24/0312Z TN16/0405Z"
    },
    {
      "icao": "LEZG",
      "alert": "OK",
      "vis_m": 9999,
      "fzfg": false,
      "metar_trigger": false,
      "taf_trigger": false,
      "metar": "METAR LEZG 030930Z 29016KT 250V330 CAVOK 22/09 Q1019 NOSIG",
      "taf": "TAF LEZG 030500Z 0306/0406 30012KT CAVOK TX31/0315Z TN14/0405Z"
    },
    {
      "icao": "LEZL",
      "alert": "OK",
      "vis_m": 9999,
      "fzfg": false,
      "metar_trigger": false,
      "taf_trigger": false,
      "metar": "METAR LEZL 030930Z 35005KT 280V060 CAVOK 26/11 Q1018 NOSIG",
      "taf": "TAF LEZL 030800Z 0309/0409 35005KT CAVOK TX37/0315Z TN18/0407Z"
    },
    {
      "icao": "LFBD",
      "alert": "OK",
      "vis_m": 9999,
      "fzfg": false,
      "metar_trigger": false,
      "taf_trigger": false,
      "metar": "METAR LFBD 031000Z AUTO 25015KT 9999 FEW033 SCT040 BKN048 20/12 Q1018 TEMPO 4500 -SHRA BKN020TCU",
      "taf": "TAF LFBD 030500Z 0306/0412 24010KT 9999 SCT040 TX21/0313Z TN15/0306Z"
    },
    {
      "icao": "LFLL",
      "alert": "OK",
      "vis_m": 9999,
      "fzfg": false,
      "metar_trigger": false,
      "taf_trigger": false,
      "metar": "METAR LFLL 031000Z 29005KT 200V350 9999 SCT040 BKN060 19/09 Q1017 NOSIG",
      "taf": "TAF LFLL 030500Z 0306/0412 34004KT 9999 FEW034 BKN050"
    },
    {
      "icao": "LFLS",
      "alert": "OK",
      "vis_m": 9999,
      "fzfg": false,
      "metar_trigger": false,
      "taf_trigger": false,
      "metar": "METAR LFLS 031000Z AUTO 35005KT 280V090 9999 SCT045 BKN058 BKN072 18/07 Q1017 NOSIG",
      "taf": "TAF LFLS 030800Z 0309/0409 35007KT CAVOK"
    },
    {
      "icao": "LFMN",
      "alert": "OK",
      "vis_m": 9999,
      "fzfg": false,
      "metar_trigger": false,
      "taf_trigger": false,
      "metar": "METAR LFMN 031000Z 17007KT CAVOK 25/17 Q1009 NOSIG",
      "taf": "TAF LFMN 030800Z 0309/0415 17005KT CAVOK"
    },
    {
      "icao": "LFOB",
      "alert": "OK",
      "vis_m": 9999,
      "fzfg": false,
      "metar_trigger": false,
      "taf_trigger": false,
      "metar": "METAR LFOB 031000Z AUTO 21013KT 180V260 9999 FEW021 OVC043 18/12 Q1011 TEMPO 3000 RADZ BKN014 BKN030 SCT060TCU BECMG 20015G25KT",
      "taf": "TAF LFOB 030500Z 0306/0406 24010KT 9999 BKN014 BKN020"
    },
    {
      "icao": "LFPO",
      "alert": "OK",
      "vis_m": 9999,
      "fzfg": false,
      "metar_trigger": false,
      "taf_trigger": false,
      "metar": "METAR LFPO 031000Z 23012KT 200V260 9999 BKN025 BKN036 17/11 Q1013 NOSIG",
      "taf": ""
    },
    {
      "icao": "LFSB",
      "alert": "OK",
      "vis_m": 9999,
      "fzfg": false,
      "metar_trigger": false,
      "taf_trigger": false,
      "metar": "METAR LFSB 031000Z AUTO 26009KT 220V290 9999 FEW028/// BKN034/// BKN041/// ///CB 18/12 Q1015 NOSIG",
      "taf": "TAF LFSB 030505Z 0306/0406 25010KT 9999 FEW025 BKN060"
    },
    {
      "icao": "LGAV",
      "alert": "OK",
      "vis_m": 9999,
      "fzfg": false,
      "metar_trigger": false,
      "taf_trigger": false,
      "metar": "METAR LGAV 030950Z 11008KT 9999 FEW030 27/17 Q1013 NOSIG",
      "taf": "TAF LGAV 030500Z 0306/0406 VRB05KT 9999 FEW025"
    },
    {
      "icao": "LGTS",
      "alert": "OK",
      "vis_m": 9999,
      "fzfg": false,
      "metar_trigger": false,
      "taf_trigger": false,
      "metar": "METAR LGTS 030950Z 28009KT 9999 FEW025 27/19 Q1011 NOSIG",
      "taf": "TAF LGTS 030500Z 0306/0406 VRB03KT 9999 FEW025"
    },
    {
      "icao": "LHBP",
      "alert": "OK",
      "vis_m": 9999,
      "fzfg": false,
      "metar_trigger": false,
      "taf_trigger": false,
      "metar": "METAR LHBP 031000Z VRB03KT 9999 FEW042 BKN140 24/13 Q1008 NOSIG",
      "taf": "TAF LHBP 030515Z 0306/0406 16005KT CAVOK"
    },
    {
      "icao": "LHDC",
      "alert": "OK",
      "vis_m": 9999,
      "fzfg": false,
      "metar_trigger": false,
      "taf_trigger": false,
      "metar": "METAR LHDC 030945Z AUTO 18008KT 100V250 CAVOK 26/13 Q1009 NOSIG",
      "taf": "TAF LHDC 030815Z 0309/0318 18009KT CAVOK"
    },
    {
      "icao": "LIBD",
      "alert": "OK",
      "vis_m": 9999,
      "fzfg": false,
      "metar_trigger": false,
      "taf_trigger": false,
      "metar": "METAR LIBD 030950Z 06004KT 020V080 9999 FEW030 24/18 Q1010",
      "taf": "TAF LIBD 030500Z 0306/0406 VRB05KT 9999 FEW050"
    },
    {
      "icao": "LIBG",
      "alert": "OK",
      "vis_m": 9999,
      "fzfg": false,
      "metar_trigger": false,
      "taf_trigger": false,
      "metar": "METAR LIBG 030950Z AUTO 22008KT 180V250 9999 NCD 28/16 Q1011",
      "taf": "TAF LIBG 030500Z 0306/0406 VRB05KT 9999 FEW050"
    },
    {
      "icao": "LIBP",
      "alert": "OK",
      "vis_m": 9999,
      "fzfg": false,
      "metar_trigger": false,
      "taf_trigger": false,
      "metar": "METAR LIBP 030950Z AUTO 01008KT 330V040 9999 FEW029/// BKN064/// 23/19 Q1008",
      "taf": "TAF LIBP 030500Z 0306/0406 VRB05KT 9999 SCT050"
    },
    {
      "icao": "LIBR",
      "alert": "OK",
      "vis_m": 9999,
      "fzfg": false,
      "metar_trigger": false,
      "taf_trigger": false,
      "metar": "METAR LIBR 030950Z 24015KT CAVOK 27/15 Q1010",
      "taf": "TAF LIBR 030500Z 0306/0406 18010KT 9999 FEW050"
    },
    {
      "icao": "LICA",
      "alert": "OK",
      "vis_m": 9999,
      "fzfg": false,
      "metar_trigger": false,
      "taf_trigger": false,
      "metar": "METAR LICA 030950Z AUTO 24005KT 190V280 9999 NCD 29/13 Q1011",
      "taf": "TAF LICA 030500Z 0306/0406 VRB05KT 9999 FEW020"
    },
    {
      "icao": "LICC",
      "alert": "OK",
      "vis_m": 9999,
      "fzfg": false,
      "metar_trigger": false,
      "taf_trigger": false,
      "metar": "METAR LICC 030950Z 25016KT CAVOK 31/18 Q1012",
      "taf": "TAF LICC 030500Z 0306/0406 27010KT 9999 FEW040"
    },
    {
      "icao": "LICJ",
      "alert": "OK",
      "vis_m": 9999,
      "fzfg": false,
      "metar_trigger": false,
      "taf_trigger": false,
      "metar": "METAR LICJ 030950Z 21016KT CAVOK 31/15 Q1010",
      "taf": "TAF LICJ 030500Z 0306/0406 20018G30KT CAVOK"
    },
    {
      "icao": "LIMC",
      "alert": "OK",
      "vis_m": 9999,
      "fzfg": false,
      "metar_trigger": false,
      "taf_trigger": false,
      "metar": "METAR LIMC 030950Z VRB05KT CAVOK 24/13 Q1009 NOSIG",
      "taf": "TAF LIMC 030500Z 0306/0412 VRB06KT 9999 FEW020"
    },
    {
      "icao": "LIME",
      "alert": "OK",
      "vis_m": 9999,
      "fzfg": false,
      "metar_trigger": false,
      "taf_trigger": false,
      "metar": "METAR LIME 030950Z VRB03KT 9999 FEW035 21/14 Q1009 NOSIG",
      "taf": "TAF LIME 030500Z 0306/0406 VRB06KT 9999 FEW030"
    },
    {
      "icao": "LIMF",
      "alert": "OK",
      "vis_m": 9999,
      "fzfg": false,
      "metar_trigger": false,
      "taf_trigger": false,
      "metar": "METAR LIMF 030950Z 13006KT 100V170 CAVOK 24/12 Q1009",
      "taf": "TAF LIMF 030500Z 0306/0406 VRB05KT 9999 FEW030"
    },
    {
      "icao": "LIMJ",
      "alert": "OK",
      "vis_m": 9999,
      "fzfg": false,
      "metar_trigger": false,
      "taf_trigger": false,
      "metar": "METAR LIMJ 030950Z 24007KT CAVOK 23/17 Q1008",
      "taf": "TAF LIMJ 030500Z 0306/0406 02008KT 9999 SCT040"
    },
    {
      "icao": "LIPE",
      "alert": "OK",
      "vis_m": 9999,
      "fzfg": false,
      "metar_trigger": false,
      "taf_trigger": false,
      "metar": "METAR LIPE 030950Z 30006KT 270V360 9999 FEW025 24/16 Q1008",
      "taf": "TAF LIPE 030500Z 0306/0406 28007KT 9999 FEW050"
    },
    {
      "icao": "LIPH",
      "alert": "OK",
      "vis_m": 9999,
      "fzfg": false,
      "metar_trigger": false,
      "taf_trigger": false,
      "metar": "METAR LIPH 030950Z VRB02KT 9999 FEW020 23/14 Q1007",
      "taf": "TAF LIPH 030500Z 0306/0406 VRB05KT 9999 SCT030"
    },
    {
      "icao": "LIPQ",
      "alert": "OK",
      "vis_m": 9999,
      "fzfg": false,
      "metar_trigger": false,
      "taf_trigger": false,
      "metar": "METAR LIPQ 030950Z AUTO 03010KT 010V070 9999 OVC025/// 18/13 Q1007",
      "taf": "TAF LIPQ 030500Z 0306/0406 03010KT 9999 SCT030"
    },
    {
      "icao": "LIPR",
      "alert": "OK",
      "vis_m": 9999,
      "fzfg": false,
      "metar_trigger": false,
      "taf_trigger": false,
      "metar": "METAR LIPR 030950Z 30010KT 270V340 9999 SCT020 25/17 Q1007",
      "taf": "TAF LIPR 030500Z 0306/0406 32012KT 9999 SCT030"
    },
    {
      "icao": "LIPX",
      "alert": "OK",
      "vis_m": 9999,
      "fzfg": false,
      "metar_trigger": false,
      "taf_trigger": false,
      "metar": "METAR LIPX 030950Z 27011KT CAVOK 23/12 Q1007",
      "taf": "TAF LIPX 030500Z 0306/0406 VRB05KT 9999 SCT040"
    },
    {
      "icao": "LIPY",
      "alert": "OK",
      "vis_m": 9999,
      "fzfg": false,
      "metar_trigger": false,
      "taf_trigger": false,
      "metar": "METAR LIPY 030950Z AUTO 28008KT 260V320 9999 FEW088/// SCT130/// BKN170/// 24/17 Q1008",
      "taf": "TAF LIPY 030500Z 0306/0406 VRB05KT 9999 SCT040"
    },
    {
      "icao": "LIPZ",
      "alert": "OK",
      "vis_m": 9999,
      "fzfg": false,
      "metar_trigger": false,
      "taf_trigger": false,
      "metar": "METAR LIPZ 030950Z VRB02KT 9999 FEW015 22/16 Q1007 NOSIG",
      "taf": "TAF LIPZ 030500Z 0306/0412 VRB05KT 9999 SCT020"
    },
    {
      "icao": "LIRF",
      "alert": "OK",
      "vis_m": 9999,
      "fzfg": false,
      "metar_trigger": false,
      "taf_trigger": false,
      "metar": "METAR LIRF 030950Z 24013KT 9999 SCT025 24/18 Q1008 NOSIG",
      "taf": "TAF LIRF 030500Z 0306/0412 17012KT 9999 FEW010 SCT030"
    },
    {
      "icao": "LIRN",
      "alert": "OK",
      "vis_m": 9999,
      "fzfg": false,
      "metar_trigger": false,
      "taf_trigger": false,
      "metar": "METAR LIRN 030950Z 19015KT 160V230 9999 BKN030 24/18 Q1011 NOSIG",
      "taf": "TAF LIRN 030500Z 0306/0406 19005KT 9999 FEW040"
    },
    {
      "icao": "LIRP",
      "alert": "OK",
      "vis_m": 9999,
      "fzfg": false,
      "metar_trigger": false,
      "taf_trigger": false,
      "metar": "METAR LIRP 030945Z 15004KT 9999 FEW035 24/15 Q1008 NOSIG",
      "taf": "TAF LIRP 030500Z 0306/0406 20010KT 9999 RA SCT025"
    },
    {
      "icao": "LIRZ",
      "alert": "OK",
      "vis_m": 9999,
      "fzfg": false,
      "metar_trigger": false,
      "taf_trigger": false,
      "metar": "METAR LIRZ 030950Z AUTO 13007KT 9999 FEW049/// 21/16 Q1009",
      "taf": "TAF LIRZ 030500Z 0306/0406 19005KT 9999 SCT015 BKN060"
    },
    {
      "icao": "LJLJ",
      "alert": "OK",
      "vis_m": 9999,
      "fzfg": false,
      "metar_trigger": false,
      "taf_trigger": false,
      "metar": "METAR LJLJ 030930Z 32009KT 300V010 9999 -SHRA FEW005 FEW043TCU OVC075 16/11 Q1009 NOSIG",
      "taf": "TAF LJLJ 030500Z 0306/0406 13004KT 9999 FEW020 BKN035 OVC045"
    },
    {
      "icao": "LKMT",
      "alert": "OK",
      "vis_m": 9999,
      "fzfg": false,
      "metar_trigger": false,
      "taf_trigger": false,
      "metar": "METAR LKMT 031000Z 24009KT 210V270 9999 FEW033 BKN045 23/15 Q1007 NOSIG",
      "taf": "TAF LKMT 030500Z 0306/0406 VRB02KT CAVOK"
    },
    {
      "icao": "LKPR",
      "alert": "OK",
      "vis_m": 9999,
      "fzfg": false,
      "metar_trigger": false,
      "taf_trigger": false,
      "metar": "METAR LKPR 031000Z 28012KT 9999 FEW034 17/11 Q1010 NOSIG",
      "taf": "TAF LKPR 030800Z 0309/0415 26010KT 9999 SCT025"
    },
    {
      "icao": "LLBG",
      "alert": "OK",
      "vis_m": 9999,
      "fzfg": false,
      "metar_trigger": false,
      "taf_trigger": false,
      "metar": "METAR LLBG 030950Z 34009KT 300V020 CAVOK 31/11 Q1015 NOSIG",
      "taf": "TAF LLBG 030509Z 0306/0406 VRB03KT CAVOK TX32/0311Z TN21/0403Z"
    },
    {
      "icao": "LMML",
      "alert": "OK",
      "vis_m": 9999,
      "fzfg": false,
      "metar_trigger": false,
      "taf_trigger": false,
      "metar": "METAR LMML 030945Z 19009KT 150V230 CAVOK 27/18 Q1014 NOSIG",
      "taf": "TAF LMML 030500Z 0306/0406 20007KT 9999 FEW012"
    },
    {
      "icao": "LOWW",
      "alert": "OK",
      "vis_m": 9999,
      "fzfg": false,
      "metar_trigger": false,
      "taf_trigger": false,
      "metar": "METAR LOWW 030950Z 28015KT 9999 -RA FEW014 BKN022 16/13 Q1010 TEMPO RA",
      "taf": "TAF LOWW 030815Z 0309/0415 30015KT 9000 -RA SCT030 BKN040 OVC050 TX26/0413Z TN14/0403Z"
    },
    {
      "icao": "LPFR",
      "alert": "OK",
      "vis_m": 9999,
      "fzfg": false,
      "metar_trigger": false,
      "taf_trigger": false,
      "metar": "METAR LPFR 030930Z 24011KT CAVOK 21/13 Q1019",
      "taf": ""
    },
    {
      "icao": "LPMA",
      "alert": "OK",
      "vis_m": 9999,
      "fzfg": false,
      "metar_trigger": false,
      "taf_trigger": false,
      "metar": "METAR LPMA 030930Z 36014KT 320V040 9999 FEW015 23/15 Q1025",
      "taf": ""
    },
    {
      "icao": "LPPR",
      "alert": "OK",
      "vis_m": 9999,
      "fzfg": false,
      "metar_trigger": false,
      "taf_trigger": false,
      "metar": "METAR LPPR 030930Z 28004KT 240V320 9999 BKN029 19/14 Q1022",
      "taf": ""
    },
    {
      "icao": "LPPS",
      "alert": "OK",
      "vis_m": null,
      "fzfg": false,
      "metar_trigger": false,
      "taf_trigger": false,
      "metar": "",
      "taf": ""
    },
    {
      "icao": "LPPT",
      "alert": "OK",
      "vis_m": null,
      "fzfg": false,
      "metar_trigger": false,
      "taf_trigger": false,
      "metar": "",
      "taf": ""
    },
    {
      "icao": "LQBK",
      "alert": "OK",
      "vis_m": 9999,
      "fzfg": false,
      "metar_trigger": false,
      "taf_trigger": false,
      "metar": "METAR LQBK 030930Z VRB02KT 9999 RA FEW010 SCT045 18/16 Q1008 TEMPO TSRA FEW035CB BKN045",
      "taf": "TAF LQBK 030500Z 0306/0406 17005KT 9999 SCT050 TX23/0310Z TN10/0404Z"
    },
    {
      "icao": "LQSA",
      "alert": "OK",
      "vis_m": 9999,
      "fzfg": false,
      "metar_trigger": false,
      "taf_trigger": false,
      "metar": "METAR LQSA 030930Z 30004KT 260V330 9999 SCT060 20/15 Q1009 NOSIG",
      "taf": "TAF LQSA 030500Z 0306/0406 VRB02KT 9999 SCT055 TX25/0313Z TN12/0404Z"
    },
    {
      "icao": "LQTZ",
      "alert": "OK",
      "vis_m": 9999,
      "fzfg": false,
      "metar_trigger": false,
      "taf_trigger": false,
      "metar": "METAR LQTZ 030930Z 10007KT 9999 FEW040 SCT060 23/16 Q1008",
      "taf": "TAF LQTZ 030500Z 0306/0406 06006KT CAVOK TX24/0312Z TN12/0403Z"
    },
    {
      "icao": "LRBC",
      "alert": "OK",
      "vis_m": 9999,
      "fzfg": false,
      "metar_trigger": false,
      "taf_trigger": false,
      "metar": "METAR LRBC 030930Z 03005KT 320V100 9999 BKN019 20/16 Q1012",
      "taf": "TAF LRBC 030800Z 0309/0318 VRB04KT 9999 BKN010"
    },
    {
      "icao": "LRBS",
      "alert": "OK",
      "vis_m": 9999,
      "fzfg": false,
      "metar_trigger": false,
      "taf_trigger": false,
      "metar": "METAR LRBS 030930Z 30003KT 230V340 9999 FEW039 26/15 Q1011 NOSIG",
      "taf": "TAF LRBS 030500Z 0306/0406 VRB04KT CAVOK"
    },
    {
      "icao": "LRBV",
      "alert": "OK",
      "vis_m": 9999,
      "fzfg": false,
      "metar_trigger": false,
      "taf_trigger": false,
      "metar": "METAR LRBV 030930Z 35004KT 280V050 9999 SCT030 20/12 Q1012",
      "taf": "TAF LRBV 030800Z 0309/0318 VRB04KT 9999 SCT030"
    },
    {
      "icao": "LRCL",
      "alert": "OK",
      "vis_m": 9999,
      "fzfg": false,
      "metar_trigger": false,
      "taf_trigger": false,
      "metar": "METAR LRCL 030930Z 12008KT 060V160 9999 FEW025 23/14 Q1011",
      "taf": "TAF LRCL 030800Z 0309/0318 11006KT CAVOK"
    },
    {
      "icao": "LRCV",
      "alert": "OK",
      "vis_m": 9999,
      "fzfg": false,
      "metar_trigger": false,
      "taf_trigger": false,
      "metar": "METAR LRCV 030930Z VRB03KT 9999 FEW044 25/14 Q1011",
      "taf": "TAF LRCV 030800Z 0309/0318 VRB04KT CAVOK"
    },
    {
      "icao": "LRIA",
      "alert": "OK",
      "vis_m": 9999,
      "fzfg": false,
      "metar_trigger": false,
      "taf_trigger": false,
      "metar": "METAR LRIA 030930Z 31004KT 9999 FEW014 BKN022 18/13 Q1012",
      "taf": "TAF LRIA 030800Z 0309/0318 VRB04KT 9999 BKN010"
    },
    {
      "icao": "LROP",
      "alert": "OK",
      "vis_m": 9999,
      "fzfg": false,
      "metar_trigger": false,
      "taf_trigger": false,
      "metar": "METAR LROP 030930Z 06003KT 020V140 9999 BKN042 24/14 Q1011 NOSIG",
      "taf": "TAF LROP 030500Z 0306/0406 VRB04KT CAVOK"
    },
    {
      "icao": "LRSB",
      "alert": "OK",
      "vis_m": 9999,
      "fzfg": false,
      "metar_trigger": false,
      "taf_trigger": false,
      "metar": "METAR LRSB 030930Z 36006KT 9999 FEW040 23/14 Q1011 NOSIG",
      "taf": "TAF LRSB 030500Z 0306/0406 VRB04KT CAVOK"
    },
    {
      "icao": "LRSM",
      "alert": "OK",
      "vis_m": 9999,
      "fzfg": false,
      "metar_trigger": false,
      "taf_trigger": false,
      "metar": "METAR LRSM 030930Z 12007KT 090V160 9999 FEW040 25/15 Q1010",
      "taf": "TAF LRSM 030800Z 0309/0318 VRB04KT CAVOK"
    },
    {
      "icao": "LRSV",
      "alert": "OK",
      "vis_m": 9999,
      "fzfg": false,
      "metar_trigger": false,
      "taf_trigger": false,
      "metar": "METAR LRSV 030930Z 10006KT 050V140 9999 BKN016 19/15 Q1012",
      "taf": "TAF LRSV 030800Z 0309/0318 VRB04KT CAVOK"
    },
    {
      "icao": "LRTM",
      "alert": "OK",
      "vis_m": 9999,
      "fzfg": false,
      "metar_trigger": false,
      "taf_trigger": false,
      "metar": "METAR LRTM 030930Z VRB03KT 9999 FEW016 21/17 Q1012",
      "taf": "TAF LRTM 030800Z 0309/0318 VRB04KT 9999 SCT025"
    },
    {
      "icao": "LRTR",
      "alert": "OK",
      "vis_m": 9999,
      "fzfg": false,
      "metar_trigger": false,
      "taf_trigger": false,
      "metar": "METAR LRTR 030930Z 12011KT CAVOK 26/13 Q1009 NOSIG",
      "taf": "TAF LRTR 030500Z 0306/0406 12009KT CAVOK"
    },
    {
      "icao": "LTAC",
      "alert": "OK",
      "vis_m": 9999,
      "fzfg": false,
      "metar_trigger": false,
      "taf_trigger": false,
      "metar": "METAR LTAC 030950Z 32007KT 9999 SCT040 23/11 Q1017 NOSIG RMK RWY21C 28007KT 250V310 RWY03L 29005KT 250V310 RWY21R 26007KT 220V290 RWY03R VRB04KT RWY21L 29006KT 260V320",
      "taf": "TAF LTAC 030440Z 0306/0406 VRB02KT 9999 SCT040"
    },
    {
      "icao": "LTFM",
      "alert": "OK",
      "vis_m": 9999,
      "fzfg": false,
      "metar_trigger": false,
      "taf_trigger": false,
      "metar": "METAR LTFM 030950Z 24008KT 180V280 CAVOK 28/13 Q1012 NOSIG RMK RWY17L 20006KT 160V260 RWY34L 20010KT 170V230 RWY16R 21008KT 180V240 RWY36 VRB05KT RWY18 36004KT",
      "taf": "TAF LTFM 030440Z 0306/0412 22012KT CAVOK"
    },
    {
      "icao": "LUKK",
      "alert": "OK",
      "vis_m": 4900,
      "fzfg": false,
      "metar_trigger": false,
      "taf_trigger": false,
      "metar": "METAR LUKK 030930Z 11005KT 4900 RA BKN005 OVC008 15/14 Q1013 NOSIG",
      "taf": "TAF LUKK 030511Z 0306/0406 12009KT 9999 BKN007"
    },
    {
      "icao": "LWOH",
      "alert": "OK",
      "vis_m": 9999,
      "fzfg": false,
      "metar_trigger": false,
      "taf_trigger": false,
      "metar": "METAR LWOH 030950Z 15005KT 110V200 9999 SCT050 22/14 Q1014",
      "taf": "TAF LWOH 030830Z 0309/0409 16006KT 9999 SCT050"
    },
    {
      "icao": "LWSK",
      "alert": "OK",
      "vis_m": 9999,
      "fzfg": false,
      "metar_trigger": false,
      "taf_trigger": false,
      "metar": "METAR LWSK 030950Z 29005KT 220V360 9999 FEW035 SCT085 24/16 Q1012 NOSIG",
      "taf": "TAF LWSK 030830Z 0309/0409 VRB02KT 9999 FEW030 SCT060"
    },
    {
      "icao": "LYBE",
      "alert": "OK",
      "vis_m": 9999,
      "fzfg": false,
      "metar_trigger": false,
      "taf_trigger": false,
      "metar": "METAR LYBE 030930Z 14005KT 100V260 CAVOK 26/14 Q1009 NOSIG",
      "taf": "TAF LYBE 030500Z 0306/0406 15005KT CAVOK TX28/0313Z TN16/0403Z"
    },
    {
      "icao": "LYNI",
      "alert": "OK",
      "vis_m": 9999,
      "fzfg": false,
      "metar_trigger": false,
      "taf_trigger": false,
      "metar": "METAR LYNI 030930Z 16006KT 080V220 CAVOK 26/15 Q1010 NOSIG",
      "taf": "TAF LYNI 030500Z 0306/0406 07004KT CAVOK TX28/0313Z TN15/0403Z"
    },
    {
      "icao": "LYPG",
      "alert": "OK",
      "vis_m": 9999,
      "fzfg": false,
      "metar_trigger": false,
      "taf_trigger": false,
      "metar": "METAR LYPG 030930Z 14007KT 090V170 9999 FEW033 SCT090 26/14 Q1012 NOSIG",
      "taf": "TAF LYPG 030500Z 0306/0406 16008KT 9999 SCT034 BKN080 TX26/0313Z TN16/0404Z"
    },
    {
      "icao": "LZIB",
      "alert": "OK",
      "vis_m": 9999,
      "fzfg": false,
      "metar_trigger": false,
      "taf_trigger": false,
      "metar": "METAR LZIB 031000Z 29012KT 9999 -RA FEW010 SCT014 BKN016 17/14 Q1009 TEMPO RA BKN020",
      "taf": ""
    },
    {
      "icao": "LZKZ",
      "alert": "OK",
      "vis_m": 9999,
      "fzfg": false,
      "metar_trigger": false,
      "taf_trigger": false,
      "metar": "METAR LZKZ 031000Z 19009KT 180V240 9999 FEW042TCU SCT045 24/14 Q1009 NOSIG",
      "taf": ""
    },
    {
      "icao": "LZTT",
      "alert": "OK",
      "vis_m": 9999,
      "fzfg": false,
      "metar_trigger": false,
      "taf_trigger": false,
      "metar": "METAR LZTT 031000Z 28008KT 9999 BKN040 18/12 Q1010 NOSIG",
      "taf": "TAF LZTT 030515Z 0306/0406 25004KT 9999 SCT040"
    },
    {
      "icao": "OEJN",
      "alert": "OK",
      "vis_m": 9999,
      "fzfg": false,
      "metar_trigger": false,
      "taf_trigger": false,
      "metar": "METAR OEJN 031000Z 26008KT CAVOK 34/21 Q1009 NOSIG",
      "taf": "TAF OEJN 030500Z 0306/0412 28012KT CAVOK"
    },
    {
      "icao": "OEMA",
      "alert": "OK",
      "vis_m": 9999,
      "fzfg": false,
      "metar_trigger": false,
      "taf_trigger": false,
      "metar": "METAR OEMA 031000Z 32005KT CAVOK 41/00 Q1014 NOSIG",
      "taf": "TAF OEMA 030500Z 0306/0412 28010KT CAVOK"
    },
    {
      "icao": "OJAI",
      "alert": "OK",
      "vis_m": 5000,
      "fzfg": false,
      "metar_trigger": false,
      "taf_trigger": false,
      "metar": "METAR OJAI 030900Z 29013KT 5000 HZ NSC 28/M03 Q1019 NOSIG",
      "taf": "TAF OJAI 030437Z 0306/0412 28006KT 5000 HZ NSC"
    },
    {
      "icao": "OMAA",
      "alert": "OK",
      "vis_m": 9999,
      "fzfg": false,
      "metar_trigger": false,
      "taf_trigger": false,
      "metar": "METAR OMAA 031000Z 29009KT 260V320 CAVOK 41/16 Q1003 NOSIG",
      "taf": "TAF OMAA 030500Z 0306/0412 23007KT 8000 NSC"
    },
    {
      "icao": "OMDB",
      "alert": "OK",
      "vis_m": 9999,
      "fzfg": false,
      "metar_trigger": false,
      "taf_trigger": false,
      "metar": "METAR OMDB 031000Z 28012KT CAVOK 40/18 Q1002 NOSIG",
      "taf": "TAF OMDB 030500Z 0306/0412 21008KT 8000 NSC"
    },
    {
      "icao": "UAAA",
      "alert": "OK",
      "vis_m": 9999,
      "fzfg": false,
      "metar_trigger": false,
      "taf_trigger": false,
      "metar": "METAR UAAA 030930Z 21006MPS 170V230 9999 BKN050CB OVC100 21/17 Q1014 NOSIG",
      "taf": "TAF UAAA 030502Z 0306/0406 26005G10MPS 9999 SCT050CB BKN100 TX30/0310Z TN15/0401Z"
    },
    {
      "icao": "UBBB",
      "alert": "OK",
      "vis_m": 9999,
      "fzfg": false,
      "metar_trigger": false,
      "taf_trigger": false,
      "metar": "METAR UBBB 031000Z 17016KT 140V200 CAVOK 23/11 Q1018 NOSIG",
      "taf": "TAF UBBB 030500Z 0306/0406 20010KT CAVOK TX23/0310Z TN16/0400Z"
    },
    {
      "icao": "UDSG",
      "alert": "OK",
      "vis_m": 9999,
      "fzfg": false,
      "metar_trigger": false,
      "taf_trigger": false,
      "metar": "METAR UDSG 030930Z 26004KT 9999 NSC 19/04 Q1021 NOSIG",
      "taf": "TAF UDSG 030458Z 0306/0406 27006KT 9999 FEW050"
    },
    {
      "icao": "UDYZ",
      "alert": "OK",
      "vis_m": 9999,
      "fzfg": false,
      "metar_trigger": false,
      "taf_trigger": false,
      "metar": "METAR UDYZ 030930Z VRB02KT 9999 NSC 25/07 Q1016 NOSIG",
      "taf": "TAF UDYZ 030500Z 0306/0406 20006KT 9999 FEW040"
    },
    {
      "icao": "UGKO",
      "alert": "OK",
      "vis_m": 9999,
      "fzfg": false,
      "metar_trigger": false,
      "taf_trigger": false,
      "metar": "METAR UGKO 030930Z 08023G35KT CAVOK 26/11 Q1013 NOSIG",
      "taf": "TAF UGKO 030500Z 0306/0406 08019G29KT CAVOK TX28/0311Z TN15/0402Z"
    }
  ]
}