{
  "ts_utc": "2026-05-09T03:51:59Z",
  "threshold_m": 150,
  "source": "stations_override.txt (ICAO list) + aviationweather.gov (METAR/TAF raw)",
  "station_count": 159,
  "stations": [
    {
      "icao": "BIKF",
      "alert": "OK",
      "vis_m": 9999,
      "fzfg": false,
      "metar_trigger": false,
      "taf_trigger": false,
      "metar": "METAR BIKF 090330Z 28010KT 9999 -RA SCT014 BKN028 05/02 Q1025",
      "taf": "TAF BIKF 090104Z 0903/1003 27012KT 9999 SCT013 BKN023 TX06/0915Z TN04/0906Z"
    },
    {
      "icao": "BKPR",
      "alert": "OK",
      "vis_m": 8000,
      "fzfg": false,
      "metar_trigger": false,
      "taf_trigger": false,
      "metar": "METAR BKPR 090330Z 03003KT 8000 -RA SCT010 BKN030 12/12 Q1016 NOSIG",
      "taf": "TAF BKPR 082330Z 0900/0924 VRB05KT 9999 SCT020 BKN050"
    },
    {
      "icao": "EBCI",
      "alert": "OK",
      "vis_m": 9999,
      "fzfg": false,
      "metar_trigger": false,
      "taf_trigger": false,
      "metar": "METAR EBCI 090320Z 07004KT CAVOK 10/06 Q1017 NOSIG",
      "taf": "TAF EBCI 082315Z 0900/1006 06004KT CAVOK"
    },
    {
      "icao": "EDDB",
      "alert": "OK",
      "vis_m": 9999,
      "fzfg": false,
      "metar_trigger": false,
      "taf_trigger": false,
      "metar": "METAR EDDB 090320Z AUTO 05003KT 9999 OVC048 09/06 Q1021 NOSIG",
      "taf": "TAF EDDB 082300Z 0900/0924 06004KT CAVOK"
    },
    {
      "icao": "EDDH",
      "alert": "OK",
      "vis_m": 9999,
      "fzfg": false,
      "metar_trigger": false,
      "taf_trigger": false,
      "metar": "METAR EDDH 090320Z AUTO VRB01KT CAVOK 05/02 Q1022 NOSIG",
      "taf": "TAF EDDH 082300Z 0900/1006 08005KT CAVOK"
    },
    {
      "icao": "EDDK",
      "alert": "OK",
      "vis_m": 9999,
      "fzfg": false,
      "metar_trigger": false,
      "taf_trigger": false,
      "metar": "METAR EDDK 090320Z AUTO 08004KT CAVOK 06/06 Q1018 NOSIG",
      "taf": "TAF EDDK 082300Z 0900/1006 VRB03KT CAVOK"
    },
    {
      "icao": "EDDN",
      "alert": "OK",
      "vis_m": 9999,
      "fzfg": false,
      "metar_trigger": false,
      "taf_trigger": false,
      "metar": "METAR EDDN 090320Z AUTO VRB02KT CAVOK 05/04 Q1018",
      "taf": "TAF EDDN 082300Z 0900/0924 VRB03KT CAVOK"
    },
    {
      "icao": "EDDS",
      "alert": "OK",
      "vis_m": 9999,
      "fzfg": false,
      "metar_trigger": false,
      "taf_trigger": false,
      "metar": "METAR EDDS 090320Z AUTO VRB02KT CAVOK 08/06 Q1017",
      "taf": "TAF EDDS 082300Z 0900/0924 VRB03KT CAVOK"
    },
    {
      "icao": "EDFH",
      "alert": "OK",
      "vis_m": 9999,
      "fzfg": false,
      "metar_trigger": false,
      "taf_trigger": false,
      "metar": "METAR EDFH 090320Z 13009KT CAVOK 06/04 Q1017",
      "taf": "TAF EDFH 082300Z 0900/0924 11006KT CAVOK"
    },
    {
      "icao": "EDJA",
      "alert": "OK",
      "vis_m": 9999,
      "fzfg": false,
      "metar_trigger": false,
      "taf_trigger": false,
      "metar": "METAR EDJA 090320Z AUTO 05004KT 9999 // OVC077/// 09/06 Q1017",
      "taf": "TAF EDJA 090200Z 0903/0912 VRB03KT CAVOK"
    },
    {
      "icao": "EDLW",
      "alert": "OK",
      "vis_m": 9999,
      "fzfg": false,
      "metar_trigger": false,
      "taf_trigger": false,
      "metar": "METAR EDLW 090320Z VRB02KT CAVOK 05/05 Q1018",
      "taf": "TAF EDLW 090320Z 0904/0924 08004KT CAVOK"
    },
    {
      "icao": "EDNY",
      "alert": "OK",
      "vis_m": 9999,
      "fzfg": false,
      "metar_trigger": false,
      "taf_trigger": false,
      "metar": "METAR EDNY 090320Z AUTO VRB02KT 9999 // SCT093/// OVC110/// 10/08 Q1017",
      "taf": "TAF EDNY 090200Z 0903/0912 VRB03KT CAVOK"
    },
    {
      "icao": "EDSB",
      "alert": "OK",
      "vis_m": 9999,
      "fzfg": false,
      "metar_trigger": false,
      "taf_trigger": false,
      "metar": "METAR EDSB 090320Z 02006KT CAVOK 10/08 Q1016",
      "taf": "TAF EDSB 082300Z 0900/0924 03006KT CAVOK"
    },
    {
      "icao": "EETN",
      "alert": "OK",
      "vis_m": 9999,
      "fzfg": false,
      "metar_trigger": false,
      "taf_trigger": false,
      "metar": "METAR EETN 090350Z 10003KT CAVOK 04/M00 Q1028 NOSIG",
      "taf": "TAF EETN 082330Z 0900/0924 08005KT CAVOK"
    },
    {
      "icao": "EFTU",
      "alert": "OK",
      "vis_m": 9999,
      "fzfg": false,
      "metar_trigger": false,
      "taf_trigger": false,
      "metar": "METAR EFTU 090320Z AUTO 10003KT CAVOK 01/M03 Q1028",
      "taf": "TAF EFTU 090232Z 0903/1003 09002KT CAVOK"
    },
    {
      "icao": "EGBB",
      "alert": "OK",
      "vis_m": 9999,
      "fzfg": false,
      "metar_trigger": false,
      "taf_trigger": false,
      "metar": "METAR EGBB 090320Z 12003KT CAVOK 10/08 Q1018",
      "taf": "TAF EGBB 082253Z 0900/0924 09003KT 9999 FEW045"
    },
    {
      "icao": "EGGP",
      "alert": "OK",
      "vis_m": 9999,
      "fzfg": false,
      "metar_trigger": false,
      "taf_trigger": false,
      "metar": "METAR EGGP 090320Z AUTO 28006KT 9999 BKN049/// 10/09 Q1019",
      "taf": ""
    },
    {
      "icao": "EGGW",
      "alert": "OK",
      "vis_m": 5000,
      "fzfg": false,
      "metar_trigger": false,
      "taf_trigger": false,
      "metar": "METAR EGGW 090320Z AUTO 09003KT 5000 HZ NCD 07/06 Q1018",
      "taf": "TAF EGGW 082300Z 0900/0924 12006KT 9999 FEW045"
    },
    {
      "icao": "EGKK",
      "alert": "OK",
      "vis_m": 9000,
      "fzfg": false,
      "metar_trigger": false,
      "taf_trigger": false,
      "metar": "METAR EGKK 090320Z 06001KT 9000 NSC 07/06 Q1017",
      "taf": "TAF EGKK 082256Z 0900/1006 05003KT CAVOK"
    },
    {
      "icao": "EGNM",
      "alert": "OK",
      "vis_m": 9999,
      "fzfg": false,
      "metar_trigger": false,
      "taf_trigger": false,
      "metar": "METAR EGNM 090320Z 03003KT 9999 -SHRA SCT045 08/07 Q1019",
      "taf": "TAF EGNM 082256Z 0900/0924 04003KT 9999 FEW040"
    },
    {
      "icao": "EGPD",
      "alert": "OK",
      "vis_m": 9999,
      "fzfg": false,
      "metar_trigger": false,
      "taf_trigger": false,
      "metar": "METAR EGPD 090320Z COR AUTO 32008KT 9999 SCT025 BKN041 06/04 Q1023 NOSIG",
      "taf": ""
    },
    {
      "icao": "EGPF",
      "alert": "OK",
      "vis_m": 9999,
      "fzfg": false,
      "metar_trigger": false,
      "taf_trigger": false,
      "metar": "METAR EGPF 090320Z AUTO 24003KT 9999 BKN033 03/01 Q1022",
      "taf": "TAF EGPF 082255Z 0900/0924 29004KT 9999 FEW045"
    },
    {
      "icao": "EHBK",
      "alert": "OK",
      "vis_m": 9999,
      "fzfg": false,
      "metar_trigger": false,
      "taf_trigger": false,
      "metar": "METAR EHBK 090325Z AUTO VRB02KT 9999 NCD 06/05 Q1018",
      "taf": "TAF EHBK 082313Z 0900/1006 06005KT CAVOK"
    },
    {
      "icao": "EHEH",
      "alert": "OK",
      "vis_m": 7000,
      "fzfg": false,
      "metar_trigger": false,
      "taf_trigger": false,
      "metar": "METAR EHEH 090325Z AUTO 03003KT 7000 BR NCD 05/05 Q1018 WHT",
      "taf": ""
    },
    {
      "icao": "EKBI",
      "alert": "OK",
      "vis_m": 9999,
      "fzfg": false,
      "metar_trigger": false,
      "taf_trigger": false,
      "metar": "METAR EKBI 090320Z AUTO 09004KT 9999 NCD 04/02 Q1023",
      "taf": "TAF EKBI 090227Z 0903/1003 09005KT CAVOK"
    },
    {
      "icao": "EKCH",
      "alert": "OK",
      "vis_m": 9999,
      "fzfg": false,
      "metar_trigger": false,
      "taf_trigger": false,
      "metar": "METAR EKCH 090320Z AUTO 06006KT 9999 NCD 05/01 Q1024 NOSIG",
      "taf": "TAF EKCH 090227Z 0903/1003 05005KT CAVOK"
    },
    {
      "icao": "ENAL",
      "alert": "OK",
      "vis_m": 9999,
      "fzfg": false,
      "metar_trigger": false,
      "taf_trigger": false,
      "metar": "METAR ENAL 090320Z AUTO 19013KT 9999 NCD 09/03 Q1016",
      "taf": "TAF ENAL 090200Z 0903/0912 20015KT 9999 -RA FEW020 BKN050"
    },
    {
      "icao": "ENBR",
      "alert": "OK",
      "vis_m": 9999,
      "fzfg": false,
      "metar_trigger": false,
      "taf_trigger": false,
      "metar": "METAR ENBR 090320Z 17011KT 9999 -SHRA SCT009 BKN041 07/06 Q1020 RMK WIND 1200FT 18016KT",
      "taf": ""
    },
    {
      "icao": "ENGM",
      "alert": "OK",
      "vis_m": 9999,
      "fzfg": false,
      "metar_trigger": false,
      "taf_trigger": false,
      "metar": "METAR ENGM 090320Z 32001KT CAVOK 02/M01 Q1023",
      "taf": "TAF ENGM 082300Z 0900/0924 VRB03KT CAVOK"
    },
    {
      "icao": "ENHD",
      "alert": "OK",
      "vis_m": 9999,
      "fzfg": false,
      "metar_trigger": false,
      "taf_trigger": false,
      "metar": "METAR ENHD 090320Z AUTO 16010KT 140V200 9999 BKN007/// 09/07 Q1021",
      "taf": "TAF ENHD 090200Z 0903/0912 17012KT 9999 BKN010"
    },
    {
      "icao": "ENTC",
      "alert": "OK",
      "vis_m": 9999,
      "fzfg": false,
      "metar_trigger": false,
      "taf_trigger": false,
      "metar": "METAR ENTC 090320Z AUTO 05003KT 9999 NCD 03/M01 Q1022 RMK WIND 2600FT 15017KT",
      "taf": "TAF ENTC 082300Z 0900/0924 02009KT CAVOK"
    },
    {
      "icao": "ENTO",
      "alert": "OK",
      "vis_m": 8000,
      "fzfg": false,
      "metar_trigger": false,
      "taf_trigger": false,
      "metar": "METAR ENTO 090320Z AUTO 00000KT 8000 // NCD 05/05 Q1023",
      "taf": "TAF ENTO 082300Z 0900/0924 VRB03KT CAVOK"
    },
    {
      "icao": "ENVA",
      "alert": "OK",
      "vis_m": 9999,
      "fzfg": false,
      "metar_trigger": false,
      "taf_trigger": false,
      "metar": "METAR ENVA 090320Z 08005KT CAVOK 10/M00 Q1017 RMK WIND 670FT 13009KT",
      "taf": "TAF ENVA 082300Z 0900/0924 13005KT CAVOK"
    },
    {
      "icao": "ENZV",
      "alert": "OK",
      "vis_m": 9999,
      "fzfg": false,
      "metar_trigger": false,
      "taf_trigger": false,
      "metar": "METAR ENZV 090320Z 17006KT CAVOK 08/05 Q1021",
      "taf": "TAF ENZV 082300Z 0900/0924 17008KT CAVOK"
    },
    {
      "icao": "EPGD",
      "alert": "OK",
      "vis_m": 9999,
      "fzfg": false,
      "metar_trigger": false,
      "taf_trigger": false,
      "metar": "METAR EPGD 090330Z 33003KT CAVOK 04/03 Q1021",
      "taf": "TAF EPGD 082330Z 0900/0924 31005KT CAVOK"
    },
    {
      "icao": "EPKK",
      "alert": "OK",
      "vis_m": 9999,
      "fzfg": false,
      "metar_trigger": false,
      "taf_trigger": false,
      "metar": "METAR EPKK 090330Z VRB02KT 9999 OVC040 10/07 Q1019",
      "taf": "TAF EPKK 090230Z 0903/1003 01003KT 9999 BKN035"
    },
    {
      "icao": "EPKT",
      "alert": "OK",
      "vis_m": 9999,
      "fzfg": false,
      "metar_trigger": false,
      "taf_trigger": false,
      "metar": "METAR EPKT 090330Z VRB02KT 9999 FEW014 BKN033 08/07 Q1019",
      "taf": "TAF EPKT 082330Z 0900/0924 31004KT 9999 BKN030"
    },
    {
      "icao": "EPLB",
      "alert": "OK",
      "vis_m": 9999,
      "fzfg": false,
      "metar_trigger": false,
      "taf_trigger": false,
      "metar": "METAR EPLB 090330Z 29006KT 260V320 9999 OVC034 09/08 Q1018",
      "taf": "TAF EPLB 082330Z 0900/0924 30004KT 9999 BKN030"
    },
    {
      "icao": "EPMO",
      "alert": "OK",
      "vis_m": 9999,
      "fzfg": false,
      "metar_trigger": false,
      "taf_trigger": false,
      "metar": "METAR EPMO 090330Z 33005KT 9999 SCT009 BKN019 08/08 Q1019",
      "taf": "TAF EPMO 082330Z 0900/0924 36005KT 9999 BKN012 BKN020"
    },
    {
      "icao": "EPPO",
      "alert": "OK",
      "vis_m": 7000,
      "fzfg": false,
      "metar_trigger": false,
      "taf_trigger": false,
      "metar": "METAR EPPO 090330Z 01002KT 7000 MIFG NSC 02/02 Q1021",
      "taf": ""
    },
    {
      "icao": "EPRA",
      "alert": "OK",
      "vis_m": 9999,
      "fzfg": false,
      "metar_trigger": false,
      "taf_trigger": false,
      "metar": "METAR EPRA 090330Z 31005KT 9999 BKN035 09/07 Q1018",
      "taf": "TAF EPRA 090230Z 0903/0912 30006KT 9999 BKN030"
    },
    {
      "icao": "EPRZ",
      "alert": "OK",
      "vis_m": 9999,
      "fzfg": false,
      "metar_trigger": false,
      "taf_trigger": false,
      "metar": "METAR EPRZ 090330Z 30003KT 9999 BKN040 10/08 Q1018",
      "taf": "TAF EPRZ 082330Z 0900/0924 31003KT 9999 BKN020"
    },
    {
      "icao": "EPSC",
      "alert": "OK",
      "vis_m": 9999,
      "fzfg": false,
      "metar_trigger": false,
      "taf_trigger": false,
      "metar": "METAR EPSC 090330Z VRB01KT CAVOK 03/03 Q1021",
      "taf": "TAF EPSC 082330Z 0900/0924 03003KT CAVOK"
    },
    {
      "icao": "EPSY",
      "alert": "OK",
      "vis_m": 9999,
      "fzfg": false,
      "metar_trigger": false,
      "taf_trigger": false,
      "metar": "METAR EPSY 090330Z 35005KT 9999 SCT017 BKN026 07/06 Q1020",
      "taf": "TAF EPSY 090230Z 0903/0912 02008KT 9999 BKN035"
    },
    {
      "icao": "EPWA",
      "alert": "OK",
      "vis_m": 9999,
      "fzfg": false,
      "metar_trigger": false,
      "taf_trigger": false,
      "metar": "METAR EPWA 090330Z 30006KT 9999 -RA BKN007 08/07 Q1019 NOSIG",
      "taf": "TAF EPWA 090230Z 0903/1003 30005KT 9999 BKN010 BKN020"
    },
    {
      "icao": "EPWR",
      "alert": "OK",
      "vis_m": 3000,
      "fzfg": false,
      "metar_trigger": false,
      "taf_trigger": false,
      "metar": "METAR EPWR 090330Z 28002KT 3000 MIFG BR NSC 05/05 Q1020",
      "taf": "TAF EPWR 090230Z 0903/1003 VRB02KT 2000 BR NSC"
    },
    {
      "icao": "ESGG",
      "alert": "OK",
      "vis_m": 9999,
      "fzfg": false,
      "metar_trigger": false,
      "taf_trigger": false,
      "metar": "METAR ESGG 090320Z 11007KT CAVOK 03/M02 Q1024",
      "taf": "TAF ESGG 090230Z 0903/1003 14006KT CAVOK"
    },
    {
      "icao": "ESKN",
      "alert": "OK",
      "vis_m": 9999,
      "fzfg": false,
      "metar_trigger": false,
      "taf_trigger": false,
      "metar": "METAR ESKN 090320Z 30002KT CAVOK M04/M05 Q1026",
      "taf": "TAF ESKN 090230Z 0903/1003 VRB02KT CAVOK"
    },
    {
      "icao": "ESMS",
      "alert": "OK",
      "vis_m": 9999,
      "fzfg": false,
      "metar_trigger": false,
      "taf_trigger": false,
      "metar": "METAR ESMS 090320Z 04005KT CAVOK 01/M02 Q1023",
      "taf": "TAF ESMS 090227Z 0903/1003 06005KT CAVOK"
    },
    {
      "icao": "ESSA",
      "alert": "OK",
      "vis_m": 9999,
      "fzfg": false,
      "metar_trigger": false,
      "taf_trigger": false,
      "metar": "METAR ESSA 090320Z 08003KT CAVOK M01/M05 Q1027 NOSIG",
      "taf": "TAF ESSA 090230Z 0903/1003 08004KT CAVOK"
    },
    {
      "icao": "EYKA",
      "alert": "OK",
      "vis_m": 9999,
      "fzfg": false,
      "metar_trigger": false,
      "taf_trigger": false,
      "metar": "METAR EYKA 090350Z 02010KT 350V050 9999 -RA SCT015 BKN023 OVC029 07/05 Q1018",
      "taf": "TAF EYKA 082300Z 0900/0924 04013KT 9000 SCT010 BKN015"
    },
    {
      "icao": "EYPA",
      "alert": "OK",
      "vis_m": 9999,
      "fzfg": false,
      "metar_trigger": false,
      "taf_trigger": false,
      "metar": "METAR EYPA 090350Z 08008KT CAVOK 08/M03 Q1022",
      "taf": ""
    },
    {
      "icao": "EYVI",
      "alert": "OK",
      "vis_m": 5000,
      "fzfg": false,
      "metar_trigger": false,
      "taf_trigger": false,
      "metar": "METAR EYVI 090350Z 03015KT 5000 -RA BR BKN008 OVC012 06/05 Q1015 TEMPO 3000 RA BR BKN005",
      "taf": "TAF EYVI 082300Z 0900/0924 02015KT 9000 SCT010 BKN015"
    },
    {
      "icao": "GCFV",
      "alert": "OK",
      "vis_m": 9999,
      "fzfg": false,
      "metar_trigger": false,
      "taf_trigger": false,
      "metar": "METAR GCFV 090330Z AUTO 24005KT CAVOK 19/14 Q1014",
      "taf": "TAF GCFV 090200Z 0903/1003 27005KT 9999 SCT030 TX24/0914Z TN17/0906Z"
    },
    {
      "icao": "GCLP",
      "alert": "OK",
      "vis_m": 9999,
      "fzfg": false,
      "metar_trigger": false,
      "taf_trigger": false,
      "metar": "METAR GCLP 090330Z 26003KT 9999 SCT018 19/16 Q1014 NOSIG",
      "taf": "TAF GCLP 090200Z 0903/1003 VRB05KT 9999 BKN030 TX22/0914Z TN16/0906Z"
    },
    {
      "icao": "GCTS",
      "alert": "OK",
      "vis_m": 9999,
      "fzfg": false,
      "metar_trigger": false,
      "taf_trigger": false,
      "metar": "METAR GCTS 090330Z 35004KT 9999 FEW030 19/11 Q1014 NOSIG",
      "taf": "TAF GCTS 090200Z 0903/1003 30005KT 9999 SCT025 TX24/0914Z TN16/0906Z"
    },
    {
      "icao": "GMAD",
      "alert": "OK",
      "vis_m": 9999,
      "fzfg": false,
      "metar_trigger": false,
      "taf_trigger": false,
      "metar": "METAR GMAD 090330Z 04004KT 9999 SCT040 SCT100 15/12 Q1013 NOSIG",
      "taf": "TAF GMAD 082300Z 0900/1006 20005KT 8000 NSC"
    },
    {
      "icao": "GMMN",
      "alert": "OK",
      "vis_m": 9999,
      "fzfg": false,
      "metar_trigger": false,
      "taf_trigger": false,
      "metar": "METAR GMMN 090330Z 21014KT 9999 SCT026 16/11 Q1011 NOSIG",
      "taf": "TAF GMMN 082300Z 0900/1006 18005KT CAVOK"
    },
    {
      "icao": "GMMX",
      "alert": "OK",
      "vis_m": 9999,
      "fzfg": false,
      "metar_trigger": false,
      "taf_trigger": false,
      "metar": "METAR GMMX 090330Z 15004KT 9999 FEW023 SCT080 14/08 Q1012 NOSIG",
      "taf": "TAF GMMX 082300Z 0900/1006 26006KT 9999 FEW023 BKN080"
    },
    {
      "icao": "HEGN",
      "alert": "OK",
      "vis_m": 9999,
      "fzfg": false,
      "metar_trigger": false,
      "taf_trigger": false,
      "metar": "METAR HEGN 090300Z 33014KT CAVOK 21/10 Q1011 NOSIG",
      "taf": "TAF HEGN 082300Z 0900/1006 29012KT CAVOK"
    },
    {
      "icao": "HEMA",
      "alert": "OK",
      "vis_m": 9999,
      "fzfg": false,
      "metar_trigger": false,
      "taf_trigger": false,
      "metar": "METAR HEMA 090300Z 32012KT CAVOK 23/09 Q1010 NOSIG",
      "taf": "TAF HEMA 082300Z 0900/1006 30012KT CAVOK"
    },
    {
      "icao": "HESH",
      "alert": "OK",
      "vis_m": 9999,
      "fzfg": false,
      "metar_trigger": false,
      "taf_trigger": false,
      "metar": "METAR HESH 090300Z 34016KT CAVOK 24/16 Q1010 NOSIG",
      "taf": "TAF HESH 082300Z 0900/1006 34012KT CAVOK"
    },
    {
      "icao": "HESX",
      "alert": "OK",
      "vis_m": 3000,
      "fzfg": false,
      "metar_trigger": false,
      "taf_trigger": false,
      "metar": "METAR HESX 090300Z 04008KT 3000 BR NSC 15/14 Q1016 BECMG 6000",
      "taf": "TAF HESX 082300Z 0900/1006 02010KT CAVOK"
    },
    {
      "icao": "LATI",
      "alert": "OK",
      "vis_m": 8000,
      "fzfg": false,
      "metar_trigger": false,
      "taf_trigger": false,
      "metar": "METAR LATI 090350Z 24005KT 8000 SCT015 OVC040 16/14 Q1015 NOSIG",
      "taf": "TAF LATI 082300Z 0900/0924 VRB05KT 4000 -RA BR BKN015 OVC030 TX22/0913Z TN11/0924Z"
    },
    {
      "icao": "LBPD",
      "alert": "OK",
      "vis_m": 9999,
      "fzfg": false,
      "metar_trigger": false,
      "taf_trigger": false,
      "metar": "METAR LBPD 090330Z AUTO 29003KT 9999 FEW011/// OVC082/// 13/13 Q1014 NOSIG",
      "taf": "TAF LBPD 082300Z 0900/0924 VRB03KT 9999 BKN070"
    },
    {
      "icao": "LBSF",
      "alert": "OK",
      "vis_m": 9999,
      "fzfg": false,
      "metar_trigger": false,
      "taf_trigger": false,
      "metar": "METAR LBSF 090330Z 30005KT 9999 FEW012 OVC048 13/11 Q1015 NOSIG",
      "taf": "TAF LBSF 082300Z 0900/0924 VRB03KT 9999 SCT025 BKN060"
    },
    {
      "icao": "LBWN",
      "alert": "OK",
      "vis_m": 9999,
      "fzfg": false,
      "metar_trigger": false,
      "taf_trigger": false,
      "metar": "METAR LBWN 090330Z AUTO 11004KT 040V140 9999 NSC 13/13 Q1014 NOSIG",
      "taf": "TAF LBWN 082300Z 0900/0924 VRB04KT 5000 BR SCT040"
    },
    {
      "icao": "LCLK",
      "alert": "OK",
      "vis_m": 9999,
      "fzfg": false,
      "metar_trigger": false,
      "taf_trigger": false,
      "metar": "METAR LCLK 090330Z 30005KT CAVOK 19/07 Q1016 NOSIG",
      "taf": "TAF LCLK 082330Z 0900/1000 31007KT CAVOK"
    },
    {
      "icao": "LCPH",
      "alert": "OK",
      "vis_m": 9999,
      "fzfg": false,
      "metar_trigger": false,
      "taf_trigger": false,
      "metar": "METAR LCPH 090330Z 02005KT 010V080 CAVOK 17/07 Q1016 NOSIG",
      "taf": "TAF LCPH 082330Z 0900/1000 01007KT CAVOK"
    },
    {
      "icao": "LEAL",
      "alert": "OK",
      "vis_m": 9999,
      "fzfg": false,
      "metar_trigger": false,
      "taf_trigger": false,
      "metar": "METAR LEAL 090330Z 33003KT 290V360 9999 FEW016 17/12 Q1010 NOSIG",
      "taf": "TAF LEAL 082300Z 0900/0924 05007KT 9999 FEW035 TX23/0912Z TN14/0905Z"
    },
    {
      "icao": "LEBB",
      "alert": "OK",
      "vis_m": 9999,
      "fzfg": false,
      "metar_trigger": false,
      "taf_trigger": false,
      "metar": "METAR LEBB 090330Z VRB04KT CAVOK 16/12 Q1010 NOSIG",
      "taf": "TAF LEBB 082300Z 0900/0924 13007KT 9999 FEW055 TX22/0912Z TN10/0905Z"
    },
    {
      "icao": "LEBL",
      "alert": "OK",
      "vis_m": 9999,
      "fzfg": false,
      "metar_trigger": false,
      "taf_trigger": false,
      "metar": "METAR LEBL 090330Z 32005KT 9999 FEW020 BKN032 17/14 Q1014 NOSIG",
      "taf": "TAF LEBL 082300Z 0900/0924 08006KT 9999 FEW020 TX20/0913Z TN15/0905Z"
    },
    {
      "icao": "LECH",
      "alert": "OK",
      "vis_m": 9999,
      "fzfg": false,
      "metar_trigger": false,
      "taf_trigger": false,
      "metar": "METAR LECH 090330Z AUTO 01004KT 340V040 9999 SCT019 BKN037 OVC044 13/12 Q1013",
      "taf": "TAF LECH 082300Z 0900/0924 VRB04KT 9999 FEW020 TX19/0914Z TN11/0905Z"
    },
    {
      "icao": "LEMD",
      "alert": "OK",
      "vis_m": 9999,
      "fzfg": false,
      "metar_trigger": false,
      "taf_trigger": false,
      "metar": "METAR LEMD 090330Z 13008KT 100V160 9999 FEW062 SCT070 13/10 Q1010 NOSIG",
      "taf": "TAF LEMD 082300Z 0900/1006 VRB04KT 9999 FEW045 TX17/0913Z TN09/0905Z"
    },
    {
      "icao": "LEMG",
      "alert": "OK",
      "vis_m": 9999,
      "fzfg": false,
      "metar_trigger": false,
      "taf_trigger": false,
      "metar": "METAR LEMG 090330Z VRB01KT 9999 -DZ SCT018 16/15 Q1009 NOSIG",
      "taf": "TAF LEMG 082300Z 0900/0924 VRB02KT 9999 SCT015 TX20/0914Z TN16/0906Z"
    },
    {
      "icao": "LEVC",
      "alert": "OK",
      "vis_m": 9999,
      "fzfg": false,
      "metar_trigger": false,
      "taf_trigger": false,
      "metar": "METAR LEVC 090330Z 30003KT 9999 BKN015 OVC021 15/13 Q1012 NOSIG",
      "taf": "TAF LEVC 082300Z 0900/1000 02005KT 9999 SCT015 TXTX21/0912Z TNTN14/0905Z"
    },
    {
      "icao": "LEXJ",
      "alert": "OK",
      "vis_m": 9999,
      "fzfg": false,
      "metar_trigger": false,
      "taf_trigger": false,
      "metar": "METAR LEXJ 090330Z VRB01KT CAVOK 11/11 Q1009",
      "taf": "TAF LEXJ 090200Z 0903/1003 18007KT 9999 FEW050 TX21/0914Z TN10/0905Z"
    },
    {
      "icao": "LEZG",
      "alert": "OK",
      "vis_m": 9999,
      "fzfg": false,
      "metar_trigger": false,
      "taf_trigger": false,
      "metar": "METAR LEZG 090330Z VRB02KT 9999 OVC020 13/12 Q1013 NOSIG",
      "taf": "TAF LEZG 082300Z 0900/0924 12010KT 9999 FEW020 TX21/0914Z TN13/0905Z"
    },
    {
      "icao": "LEZL",
      "alert": "OK",
      "vis_m": 9999,
      "fzfg": false,
      "metar_trigger": false,
      "taf_trigger": false,
      "metar": "METAR LEZL 090330Z VRB02KT 9999 FEW035 15/12 Q1008 NOSIG",
      "taf": "TAF LEZL 090200Z 0903/1003 20009KT CAVOK TX22/0914Z TN15/0906Z"
    },
    {
      "icao": "LFBD",
      "alert": "OK",
      "vis_m": 9999,
      "fzfg": false,
      "metar_trigger": false,
      "taf_trigger": false,
      "metar": "METAR LFBD 090330Z AUTO 12006KT CAVOK 15/12 Q1011 NOSIG",
      "taf": "TAF LFBD 082300Z 0900/1006 VRB03KT CAVOK TX24/0914Z TN12/0905Z"
    },
    {
      "icao": "LFLL",
      "alert": "OK",
      "vis_m": 9999,
      "fzfg": false,
      "metar_trigger": false,
      "taf_trigger": false,
      "metar": "METAR LFLL 090330Z 17009KT CAVOK 16/07 Q1015 NOSIG",
      "taf": "TAF LFLL 082300Z 0900/1006 16008KT CAVOK"
    },
    {
      "icao": "LFLS",
      "alert": "OK",
      "vis_m": 9999,
      "fzfg": false,
      "metar_trigger": false,
      "taf_trigger": false,
      "metar": "METAR LFLS 090330Z AUTO 09007KT CAVOK 11/10 Q1016 NOSIG",
      "taf": "TAF LFLS 090200Z 0903/1003 09005KT CAVOK"
    },
    {
      "icao": "LFMN",
      "alert": "OK",
      "vis_m": 9999,
      "fzfg": false,
      "metar_trigger": false,
      "taf_trigger": false,
      "metar": "METAR LFMN 090330Z 35006KT CAVOK 16/09 Q1016 NOSIG",
      "taf": "TAF LFMN 090200Z 0903/1009 33010KT CAVOK"
    },
    {
      "icao": "LFOB",
      "alert": "OK",
      "vis_m": 9000,
      "fzfg": false,
      "metar_trigger": false,
      "taf_trigger": false,
      "metar": "METAR LFOB 090330Z AUTO 30003KT 270V340 9000 NSC 06/06 Q1016 TEMPO 4000 BR",
      "taf": "TAF LFOB 082300Z 0900/0924 VRB03KT CAVOK"
    },
    {
      "icao": "LFPO",
      "alert": "OK",
      "vis_m": 9999,
      "fzfg": false,
      "metar_trigger": false,
      "taf_trigger": false,
      "metar": "METAR LFPO 090330Z AUTO 02004KT CAVOK 11/08 Q1015 NOSIG",
      "taf": "TAF LFPO 082300Z 0900/1006 04005KT CAVOK"
    },
    {
      "icao": "LFSB",
      "alert": "OK",
      "vis_m": 6000,
      "fzfg": false,
      "metar_trigger": false,
      "taf_trigger": false,
      "metar": "METAR LFSB 090330Z AUTO 26003KT 6000 NSC 08/08 Q1016 TEMPO 3000 MIFG",
      "taf": ""
    },
    {
      "icao": "LGAV",
      "alert": "OK",
      "vis_m": 9999,
      "fzfg": false,
      "metar_trigger": false,
      "taf_trigger": false,
      "metar": "METAR LGAV 090320Z VRB03KT 9999 SCT025 15/11 Q1016 NOSIG",
      "taf": "TAF LGAV 082300Z 0900/0924 VRB03KT 9999 SCT025 SCT070"
    },
    {
      "icao": "LGTS",
      "alert": "OK",
      "vis_m": 6000,
      "fzfg": false,
      "metar_trigger": false,
      "taf_trigger": false,
      "metar": "METAR LGTS 090320Z VRB03KT 6000 SCT006 BKN020 15/14 Q1015 NOSIG",
      "taf": "TAF LGTS 082300Z 0900/0924 VRB03KT 9999 SCT025"
    },
    {
      "icao": "LHBP",
      "alert": "OK",
      "vis_m": 9999,
      "fzfg": false,
      "metar_trigger": false,
      "taf_trigger": false,
      "metar": "METAR LHBP 090330Z 01003KT CAVOK 10/09 Q1016 NOSIG",
      "taf": "TAF LHBP 082315Z 0900/0924 33007KT CAVOK"
    },
    {
      "icao": "LHDC",
      "alert": "OK",
      "vis_m": 9999,
      "fzfg": false,
      "metar_trigger": false,
      "taf_trigger": false,
      "metar": "METAR LHDC 090315Z AUTO 03009KT CAVOK 13/11 Q1015 NOSIG",
      "taf": "TAF LHDC 090215Z 0903/0912 02008KT CAVOK"
    },
    {
      "icao": "LIBD",
      "alert": "OK",
      "vis_m": 9999,
      "fzfg": false,
      "metar_trigger": false,
      "taf_trigger": false,
      "metar": "METAR LIBD 090320Z 24005KT 9999 FEW045 13/12 Q1016",
      "taf": "TAF LIBD 082300Z 0900/0924 28008KT 8000 BKN020"
    },
    {
      "icao": "LIBG",
      "alert": "OK",
      "vis_m": null,
      "fzfg": false,
      "metar_trigger": false,
      "taf_trigger": false,
      "metar": "",
      "taf": ""
    },
    {
      "icao": "LIBP",
      "alert": "OK",
      "vis_m": 9999,
      "fzfg": false,
      "metar_trigger": false,
      "taf_trigger": false,
      "metar": "METAR LIBP 090320Z AUTO 24005KT 9999 OVC100/// 15/12 Q1016",
      "taf": "TAF LIBP 082300Z 0900/0924 VRB05KT 9999 SCT070"
    },
    {
      "icao": "LIBR",
      "alert": "OK",
      "vis_m": 9000,
      "fzfg": false,
      "metar_trigger": false,
      "taf_trigger": false,
      "metar": "METAR LIBR 090320Z 28005KT 9000 NSC 15/15 Q1015",
      "taf": "TAF LIBR 082300Z 0900/0924 02010KT 9999 BKN010 BKN020"
    },
    {
      "icao": "LICA",
      "alert": "OK",
      "vis_m": 9999,
      "fzfg": false,
      "metar_trigger": false,
      "taf_trigger": false,
      "metar": "METAR LICA 090320Z AUTO VRB02KT 9999 OVC067/// 16/14 Q1016",
      "taf": "TAF LICA 082300Z 0900/0924 VRB05KT 9999 FEW030"
    },
    {
      "icao": "LICC",
      "alert": "OK",
      "vis_m": 8000,
      "fzfg": false,
      "metar_trigger": false,
      "taf_trigger": false,
      "metar": "METAR LICC 090320Z 23005KT 8000 NSC 14/12 Q1015",
      "taf": ""
    },
    {
      "icao": "LICJ",
      "alert": "OK",
      "vis_m": 9999,
      "fzfg": false,
      "metar_trigger": false,
      "taf_trigger": false,
      "metar": "METAR LICJ 090320Z 15004KT CAVOK 16/13 Q1016",
      "taf": "TAF LICJ 082300Z 0900/0924 VRB05KT 9999 FEW040"
    },
    {
      "icao": "LIMC",
      "alert": "OK",
      "vis_m": 9999,
      "fzfg": false,
      "metar_trigger": false,
      "taf_trigger": false,
      "metar": "METAR LIMC 090320Z 35003KT 320V030 CAVOK 10/10 Q1017 NOSIG",
      "taf": "TAF LIMC 082300Z 0900/1006 VRB05KT 9999 FEW030"
    },
    {
      "icao": "LIME",
      "alert": "OK",
      "vis_m": 9999,
      "fzfg": false,
      "metar_trigger": false,
      "taf_trigger": false,
      "metar": "METAR LIME 090320Z 02005KT CAVOK 12/09 Q1016 NOSIG",
      "taf": "TAF LIME 082300Z 0900/0924 VRB05KT 9999 SCT050"
    },
    {
      "icao": "LIMF",
      "alert": "OK",
      "vis_m": 9999,
      "fzfg": false,
      "metar_trigger": false,
      "taf_trigger": false,
      "metar": "METAR LIMF 090320Z 28005KT CAVOK 11/09 Q1017",
      "taf": "TAF LIMF 082300Z 0900/0924 VRB05KT 9999 SCT030"
    },
    {
      "icao": "LIMJ",
      "alert": "OK",
      "vis_m": 9999,
      "fzfg": false,
      "metar_trigger": false,
      "taf_trigger": false,
      "metar": "METAR LIMJ 090320Z 03006KT CAVOK 17/11 Q1016",
      "taf": "TAF LIMJ 082300Z 0900/0924 03007KT 9999 SCT020"
    },
    {
      "icao": "LIPE",
      "alert": "OK",
      "vis_m": 9999,
      "fzfg": false,
      "metar_trigger": false,
      "taf_trigger": false,
      "metar": "METAR LIPE 090320Z 20005KT CAVOK 12/09 Q1016",
      "taf": "TAF LIPE 082300Z 0900/0924 VRB05KT CAVOK"
    },
    {
      "icao": "LIPH",
      "alert": "OK",
      "vis_m": 9999,
      "fzfg": false,
      "metar_trigger": false,
      "taf_trigger": false,
      "metar": "METAR LIPH 090320Z AUTO VRB01KT 9999 FEW097/// 12/11 Q1016",
      "taf": "TAF LIPH 082300Z 0900/0924 VRB05KT CAVOK"
    },
    {
      "icao": "LIPQ",
      "alert": "OK",
      "vis_m": 9999,
      "fzfg": false,
      "metar_trigger": false,
      "taf_trigger": false,
      "metar": "METAR LIPQ 090320Z AUTO 06002KT 9999 NCD 11/10 Q1016",
      "taf": "TAF LIPQ 082300Z 0900/0924 VRB05KT 9999 SCT050"
    },
    {
      "icao": "LIPR",
      "alert": "OK",
      "vis_m": 9999,
      "fzfg": false,
      "metar_trigger": false,
      "taf_trigger": false,
      "metar": "METAR LIPR 090320Z AUTO 20003KT 9999 NCD 13/12 Q1016",
      "taf": "TAF LIPR 082300Z 0900/0924 VRB05KT CAVOK"
    },
    {
      "icao": "LIPX",
      "alert": "OK",
      "vis_m": 9999,
      "fzfg": false,
      "metar_trigger": false,
      "taf_trigger": false,
      "metar": "METAR LIPX 090320Z VRB01KT CAVOK 11/10 Q1017",
      "taf": "TAF LIPX 082300Z 0900/0924 VRB05KT 9999 FEW050"
    },
    {
      "icao": "LIPY",
      "alert": "OK",
      "vis_m": 9999,
      "fzfg": false,
      "metar_trigger": false,
      "taf_trigger": false,
      "metar": "METAR LIPY 090320Z AUTO 17002KT 9999 SCT013/// BKN140/// 13/12 Q1016",
      "taf": "TAF LIPY 082300Z 0900/0924 VRB05KT CAVOK"
    },
    {
      "icao": "LIPZ",
      "alert": "OK",
      "vis_m": 9999,
      "fzfg": false,
      "metar_trigger": false,
      "taf_trigger": false,
      "metar": "METAR LIPZ 090320Z 33003KT 9999 FEW070 13/12 Q1016 NOSIG",
      "taf": "TAF LIPZ 082300Z 0900/1006 VRB05KT CAVOK"
    },
    {
      "icao": "LIRF",
      "alert": "OK",
      "vis_m": 9999,
      "fzfg": false,
      "metar_trigger": false,
      "taf_trigger": false,
      "metar": "METAR LIRF 090320Z 05002KT CAVOK 13/13 Q1016 NOSIG",
      "taf": "TAF LIRF 082300Z 0900/1006 05006KT 9999 FEW020"
    },
    {
      "icao": "LIRN",
      "alert": "OK",
      "vis_m": 9999,
      "fzfg": false,
      "metar_trigger": false,
      "taf_trigger": false,
      "metar": "METAR LIRN 090320Z VRB01KT CAVOK 13/09 Q1016 NOSIG",
      "taf": "TAF LIRN 082300Z 0900/0924 06007KT 9999 FEW050"
    },
    {
      "icao": "LIRP",
      "alert": "OK",
      "vis_m": 9999,
      "fzfg": false,
      "metar_trigger": false,
      "taf_trigger": false,
      "metar": "METAR LIRP 090315Z 13005KT CAVOK 11/10 Q1016 NOSIG",
      "taf": "TAF LIRP 082300Z 0900/0924 09005KT CAVOK"
    },
    {
      "icao": "LIRZ",
      "alert": "OK",
      "vis_m": 2400,
      "fzfg": false,
      "metar_trigger": false,
      "taf_trigger": false,
      "metar": "METAR LIRZ 090320Z AUTO 36004KT 2400 0900N BR BKN002/// 12/12 Q1017",
      "taf": "TAF LIRZ 082300Z 0900/0924 VRB05KT 9999 SCT040"
    },
    {
      "icao": "LJLJ",
      "alert": "OK",
      "vis_m": 9999,
      "fzfg": false,
      "metar_trigger": false,
      "taf_trigger": false,
      "metar": "METAR LJLJ 090330Z VRB01KT CAVOK 08/07 Q1017 NOSIG",
      "taf": "TAF LJLJ 082300Z 0900/1000 28003KT 9999 FEW065 SCT085"
    },
    {
      "icao": "LKMT",
      "alert": "OK",
      "vis_m": 9999,
      "fzfg": false,
      "metar_trigger": false,
      "taf_trigger": false,
      "metar": "METAR LKMT 090330Z 03002KT 9999 FEW041 SCT047 08/07 Q1019 NOSIG",
      "taf": "TAF LKMT 082300Z 0900/0924 02006KT 9999 BKN025"
    },
    {
      "icao": "LKPR",
      "alert": "OK",
      "vis_m": 7000,
      "fzfg": false,
      "metar_trigger": false,
      "taf_trigger": false,
      "metar": "METAR LKPR 090330Z VRB02KT 7000 NSC 06/06 Q1019 NOSIG",
      "taf": "TAF LKPR 090200Z 0903/1009 35005KT CAVOK"
    },
    {
      "icao": "LLBG",
      "alert": "OK",
      "vis_m": 9999,
      "fzfg": false,
      "metar_trigger": false,
      "taf_trigger": false,
      "metar": "METAR LLBG 090320Z VRB03KT 9999 FEW010 BKN015 18/15 Q1015 NOSIG",
      "taf": "TAF LLBG 082307Z 0900/0924 VRB04KT CAVOK TX29/0912Z TN15/0903Z"
    },
    {
      "icao": "LMML",
      "alert": "OK",
      "vis_m": 9999,
      "fzfg": false,
      "metar_trigger": false,
      "taf_trigger": false,
      "metar": "METAR LMML 090345Z 31006KT CAVOK 16/14 Q1015 NOSIG",
      "taf": "TAF LMML 082300Z 0900/0924 29008KT 9999 FEW012"
    },
    {
      "icao": "LOWW",
      "alert": "OK",
      "vis_m": 9999,
      "fzfg": false,
      "metar_trigger": false,
      "taf_trigger": false,
      "metar": "METAR LOWW 090320Z 32006KT CAVOK 09/07 Q1018 NOSIG",
      "taf": "TAF LOWW 090215Z 0903/1009 36008KT CAVOK TX21/0913Z TN08/1004Z"
    },
    {
      "icao": "LPFR",
      "alert": "OK",
      "vis_m": 9999,
      "fzfg": false,
      "metar_trigger": false,
      "taf_trigger": false,
      "metar": "METAR LPFR 090330Z 18012KT 9999 SCT014 FEW020CB 17/15 Q1005",
      "taf": "TAF LPFR 082300Z 0900/0924 VRB05KT 9999 SCT020"
    },
    {
      "icao": "LPMA",
      "alert": "OK",
      "vis_m": 9999,
      "fzfg": false,
      "metar_trigger": false,
      "taf_trigger": false,
      "metar": "METAR LPMA 090330Z 33005KT 9999 FEW015 SCT033 16/11 Q1010",
      "taf": "TAF LPMA 082300Z 0900/0924 VRB05KT 9999 SCT015"
    },
    {
      "icao": "LPPR",
      "alert": "OK",
      "vis_m": 9999,
      "fzfg": false,
      "metar_trigger": false,
      "taf_trigger": false,
      "metar": "METAR LPPR 090330Z 15010KT 9999 FEW016 15/10 Q1004",
      "taf": "TAF LPPR 082300Z 0900/0924 13010KT 9999 SCT025"
    },
    {
      "icao": "LPPS",
      "alert": "OK",
      "vis_m": 9999,
      "fzfg": false,
      "metar_trigger": false,
      "taf_trigger": false,
      "metar": "METAR LPPS 090330Z 28014KT 9999 SCT014 16/12 Q1009",
      "taf": "TAF LPPS 082300Z 0900/1006 27020G32KT 9999 SCT015 SCT030"
    },
    {
      "icao": "LPPT",
      "alert": "OK",
      "vis_m": 9999,
      "fzfg": false,
      "metar_trigger": false,
      "taf_trigger": false,
      "metar": "METAR LPPT 090330Z 15005KT 120V180 9999 -RA VCTS FEW008 FEW020CB 13/12 Q1003",
      "taf": "TAF LPPT 082300Z 0900/1006 17017KT 9999 SCT020"
    },
    {
      "icao": "LQBK",
      "alert": "OK",
      "vis_m": 9999,
      "fzfg": false,
      "metar_trigger": false,
      "taf_trigger": false,
      "metar": "METAR LQBK 090330Z 15005KT CAVOK 14/10 Q1016 NOSIG",
      "taf": "TAF LQBK 082300Z 0900/0924 16005KT CAVOK TX23/0913Z TN11/0904Z"
    },
    {
      "icao": "LQSA",
      "alert": "OK",
      "vis_m": 9999,
      "fzfg": false,
      "metar_trigger": false,
      "taf_trigger": false,
      "metar": "METAR LQSA 090330Z 30006KT 9999 -RA FEW020 BKN040 12/11 Q1017",
      "taf": "TAF LQSA 082300Z 0900/0924 VRB02KT 9999 SCT055 TX20/0913Z TN10/0904Z"
    },
    {
      "icao": "LQTZ",
      "alert": "OK",
      "vis_m": 3800,
      "fzfg": false,
      "metar_trigger": false,
      "taf_trigger": false,
      "metar": "METAR LQTZ 090330Z VRB01KT 3800 -RA BR FEW005 BKN066 13/13 Q1017",
      "taf": "TAF LQTZ 082300Z 0900/0924 27005KT 9999 BKN050 TX22/0913Z TN11/0904Z"
    },
    {
      "icao": "LRBC",
      "alert": "OK",
      "vis_m": 9999,
      "fzfg": false,
      "metar_trigger": false,
      "taf_trigger": false,
      "metar": "METAR LRBC 090330Z 34006KT 9999 -RA BKN010 FEW039CB OVC066 14/13 Q1016",
      "taf": "TAF LRBC 090200Z 0903/0912 34006KT 9999 BKN010 OVC030"
    },
    {
      "icao": "LRBS",
      "alert": "OK",
      "vis_m": 8000,
      "fzfg": false,
      "metar_trigger": false,
      "taf_trigger": false,
      "metar": "METAR LRBS 090330Z 06004KT 8000 -RA SCT036 14/13 Q1014 NOSIG",
      "taf": "TAF LRBS 082300Z 0900/0924 07010KT CAVOK"
    },
    {
      "icao": "LRBV",
      "alert": "OK",
      "vis_m": 6000,
      "fzfg": false,
      "metar_trigger": false,
      "taf_trigger": false,
      "metar": "METAR LRBV 090330Z AUTO 00000KT 6000 -RA OVC011/// 13/13 Q1015 REDZ",
      "taf": "TAF LRBV 090200Z 0903/0912 VRB04KT 9999 -RA BKN050"
    },
    {
      "icao": "LRCL",
      "alert": "OK",
      "vis_m": 9999,
      "fzfg": false,
      "metar_trigger": false,
      "taf_trigger": false,
      "metar": "METAR LRCL 090330Z 25002KT CAVOK 12/10 Q1015",
      "taf": "TAF LRCL 090200Z 0903/0912 VRB04KT CAVOK"
    },
    {
      "icao": "LRCV",
      "alert": "OK",
      "vis_m": 6000,
      "fzfg": false,
      "metar_trigger": false,
      "taf_trigger": false,
      "metar": "METAR LRCV 090330Z 07003KT 6000 RA OVC048 15/15 Q1014",
      "taf": "TAF LRCV 090200Z 0903/0912 02007KT 9999 -RA OVC040"
    },
    {
      "icao": "LRIA",
      "alert": "OK",
      "vis_m": 300,
      "fzfg": false,
      "metar_trigger": false,
      "taf_trigger": false,
      "metar": "METAR LRIA 090330Z 31003KT 0300 R14/0400N FG BKN002 14/13 Q1016",
      "taf": ""
    },
    {
      "icao": "LROP",
      "alert": "OK",
      "vis_m": 5000,
      "fzfg": false,
      "metar_trigger": false,
      "taf_trigger": false,
      "metar": "METAR LROP 090330Z COR 09005KT 5000 -RA BR OVC024 14/13 Q1014 NOSIG",
      "taf": "TAF LROP 082300Z 0900/0924 07010KT CAVOK"
    },
    {
      "icao": "LRSB",
      "alert": "OK",
      "vis_m": 9999,
      "fzfg": false,
      "metar_trigger": false,
      "taf_trigger": false,
      "metar": "METAR LRSB 090330Z COR VRB01KT 9999 -RA SCT038 OVC045 13/12 Q1015",
      "taf": "TAF LRSB 082300Z 0900/0924 VRB04KT CAVOK"
    },
    {
      "icao": "LRSM",
      "alert": "OK",
      "vis_m": 900,
      "fzfg": false,
      "metar_trigger": false,
      "taf_trigger": false,
      "metar": "METAR LRSM 090330Z AUTO 00000KT 0900 R19/1100U BCFG FEW001/// 09/08 Q1015",
      "taf": "TAF LRSM 090200Z 0903/0912 VRB04KT 3000 BR NSC"
    },
    {
      "icao": "LRSV",
      "alert": "OK",
      "vis_m": 9999,
      "fzfg": false,
      "metar_trigger": false,
      "taf_trigger": false,
      "metar": "METAR LRSV 090330Z 36008KT 9999 BKN037 12/11 Q1017",
      "taf": "TAF LRSV 090200Z 0903/0912 31008KT 9999 BKN040"
    },
    {
      "icao": "LRTM",
      "alert": "OK",
      "vis_m": 9999,
      "fzfg": false,
      "metar_trigger": false,
      "taf_trigger": false,
      "metar": "METAR LRTM 090330Z 07006KT CAVOK 12/11 Q1015",
      "taf": "TAF LRTM 090200Z 0903/0912 VRB04KT 9999 BKN040"
    },
    {
      "icao": "LRTR",
      "alert": "OK",
      "vis_m": 9999,
      "fzfg": false,
      "metar_trigger": false,
      "taf_trigger": false,
      "metar": "METAR LRTR 090330Z 10004KT 050V130 CAVOK 14/12 Q1014",
      "taf": "TAF LRTR 082300Z 0900/0924 VRB04KT CAVOK"
    },
    {
      "icao": "LTAC",
      "alert": "OK",
      "vis_m": 9999,
      "fzfg": false,
      "metar_trigger": false,
      "taf_trigger": false,
      "metar": "METAR LTAC 090320Z 01003KT 300V050 9999 SCT040 BKN100 10/07 Q1020 NOSIG RMK RWY21C VRB02KT RWY03L VRB02KT RWY21R 00000KT RWY03R VRB02KT RWY21L 00000KT",
      "taf": "TAF LTAC 082240Z 0900/0924 VRB02KT CAVOK"
    },
    {
      "icao": "LTFM",
      "alert": "OK",
      "vis_m": 9999,
      "fzfg": false,
      "metar_trigger": false,
      "taf_trigger": false,
      "metar": "METAR LTFM 090320Z VRB02KT 9999 SCT035 BKN080 15/11 Q1016 NOSIG RMK RWY17L 10002KT RWY34L 12003KT 090V150 RWY16R 10005KT RWY36 12004KT 030V150 RWY18 14002KT",
      "taf": "TAF LTFM 082240Z 0900/1006 35007KT 9999 SCT035 BKN080"
    },
    {
      "icao": "LUKK",
      "alert": "OK",
      "vis_m": 9999,
      "fzfg": false,
      "metar_trigger": false,
      "taf_trigger": false,
      "metar": "METAR LUKK 090330Z 13002KT CAVOK 12/11 Q1016 NOSIG",
      "taf": "TAF LUKK 082327Z 0900/0924 VRB05KT CAVOK"
    },
    {
      "icao": "LWOH",
      "alert": "OK",
      "vis_m": null,
      "fzfg": false,
      "metar_trigger": false,
      "taf_trigger": false,
      "metar": "",
      "taf": "TAF LWOH 082350Z 0900/0924 VRB02KT 9999 SCT040 BKN080"
    },
    {
      "icao": "LWSK",
      "alert": "OK",
      "vis_m": 9999,
      "fzfg": false,
      "metar_trigger": false,
      "taf_trigger": false,
      "metar": "METAR LWSK 090330Z 00000KT 9999 SCT020 OVC033 13/12 Q1016 NOSIG",
      "taf": "TAF LWSK 082350Z 0900/0924 VRB02KT 9999 SCT060 BKN100"
    },
    {
      "icao": "LYBE",
      "alert": "OK",
      "vis_m": 9999,
      "fzfg": false,
      "metar_trigger": false,
      "taf_trigger": false,
      "metar": "METAR LYBE 090330Z 28006KT CAVOK 15/13 Q1015 NOSIG",
      "taf": "TAF LYBE 082300Z 0900/0924 29005KT 9999 SCT040 TX22/0913Z TN13/0903Z"
    },
    {
      "icao": "LYNI",
      "alert": "OK",
      "vis_m": 9999,
      "fzfg": false,
      "metar_trigger": false,
      "taf_trigger": false,
      "metar": "METAR LYNI 090330Z 00000KT 9999 -RA SCT035 OVC075 14/14 Q1015 NOSIG",
      "taf": "TAF LYNI 082300Z 0900/0924 16004KT 9999 SCT050 BKN070 TX18/0914Z TN12/0903Z"
    },
    {
      "icao": "LYPG",
      "alert": "OK",
      "vis_m": 9999,
      "fzfg": false,
      "metar_trigger": false,
      "taf_trigger": false,
      "metar": "METAR LYPG 090330Z 00000KT 9999 FEW040 OVC070 15/14 Q1015 NOSIG",
      "taf": "TAF LYPG 082300Z 0900/0924 16005KT 9999 SCT040 BKN070 TX24/0914Z TN15/0906Z"
    },
    {
      "icao": "LZIB",
      "alert": "OK",
      "vis_m": 9999,
      "fzfg": false,
      "metar_trigger": false,
      "taf_trigger": false,
      "metar": "METAR LZIB 090330Z 34002KT CAVOK 11/07 Q1017 NOSIG",
      "taf": "TAF LZIB 082315Z 0900/1000 03006KT CAVOK"
    },
    {
      "icao": "LZKZ",
      "alert": "OK",
      "vis_m": 9999,
      "fzfg": false,
      "metar_trigger": false,
      "taf_trigger": false,
      "metar": "METAR LZKZ 090330Z 01012KT CAVOK 12/08 Q1017 NOSIG",
      "taf": "TAF LZKZ 082315Z 0900/1000 36012KT CAVOK"
    },
    {
      "icao": "LZTT",
      "alert": "OK",
      "vis_m": 4000,
      "fzfg": false,
      "metar_trigger": false,
      "taf_trigger": false,
      "metar": "METAR LZTT 090330Z 04004KT 4000 BR OVC004 08/08 Q1018",
      "taf": "TAF LZTT 082315Z 0900/1000 VRB02KT 9999 SCT013 OVC030"
    },
    {
      "icao": "OEJN",
      "alert": "OK",
      "vis_m": 9999,
      "fzfg": false,
      "metar_trigger": false,
      "taf_trigger": false,
      "metar": "METAR OEJN 090300Z 36010KT CAVOK 26/20 Q1007 NOSIG",
      "taf": "TAF OEJN 082300Z 0900/1006 34006KT 7000 FEW040"
    },
    {
      "icao": "OEMA",
      "alert": "OK",
      "vis_m": 8000,
      "fzfg": false,
      "metar_trigger": false,
      "taf_trigger": false,
      "metar": "METAR OEMA 090300Z 34003KT 8000 NSC 25/10 Q1014 NOSIG",
      "taf": "TAF OEMA 082300Z 0900/1006 VRB03KT 7000 NSC"
    },
    {
      "icao": "OJAI",
      "alert": "OK",
      "vis_m": 4000,
      "fzfg": false,
      "metar_trigger": false,
      "taf_trigger": false,
      "metar": "METAR OJAI 090300Z 32002KT 4000 HZ NSC 13/07 Q1018 NOSIG",
      "taf": "TAF OJAI 082250Z 0900/1006 VRB02KT 5000 HZ NSC"
    },
    {
      "icao": "OMAA",
      "alert": "OK",
      "vis_m": 9999,
      "fzfg": false,
      "metar_trigger": false,
      "taf_trigger": false,
      "metar": "METAR OMAA 090330Z 24005KT 200V260 CAVOK 29/22 Q1008 NOSIG",
      "taf": "TAF OMAA 082300Z 0900/1006 VRB02KT 8000 NSC"
    },
    {
      "icao": "OMDB",
      "alert": "OK",
      "vis_m": 9999,
      "fzfg": false,
      "metar_trigger": false,
      "taf_trigger": false,
      "metar": "METAR OMDB 090330Z 17008KT 110V210 CAVOK 29/23 Q1007 NOSIG",
      "taf": "TAF OMDB 082300Z 0900/1006 18006KT 8000 NSC"
    },
    {
      "icao": "UAAA",
      "alert": "OK",
      "vis_m": 9999,
      "fzfg": false,
      "metar_trigger": false,
      "taf_trigger": false,
      "metar": "METAR UAAA 090330Z VRB01MPS 9999 FEW050CB SCT100 BKN200 26/10 Q1015 NOSIG",
      "taf": "TAF UAAA 082305Z 0900/0924 32002G07MPS 9999 SCT050CB BKN100 TX30/0910Z TN17/0900Z"
    },
    {
      "icao": "UBBB",
      "alert": "OK",
      "vis_m": 9999,
      "fzfg": false,
      "metar_trigger": false,
      "taf_trigger": false,
      "metar": "METAR UBBB 090330Z 17006KT CAVOK 18/12 Q1018 NOSIG",
      "taf": "TAF UBBB 082303Z 0900/0924 VRB04KT 9999 FEW040 TX24/0910Z TN12/0901Z"
    },
    {
      "icao": "UDSG",
      "alert": "OK",
      "vis_m": 9999,
      "fzfg": false,
      "metar_trigger": false,
      "taf_trigger": false,
      "metar": "METAR UDSG 090330Z 06002KT 9999 NSC 02/00 Q1024 NOSIG",
      "taf": "TAF UDSG 082300Z 0900/0924 VRB06KT 9999 FEW050"
    },
    {
      "icao": "UDYZ",
      "alert": "OK",
      "vis_m": 9999,
      "fzfg": false,
      "metar_trigger": false,
      "taf_trigger": false,
      "metar": "METAR UDYZ 090330Z 07004KT 9999 NSC 12/03 Q1022 NOSIG",
      "taf": "TAF UDYZ 082300Z 0900/0924 16004KT 9999 FEW040"
    },
    {
      "icao": "UGKO",
      "alert": "OK",
      "vis_m": 9999,
      "fzfg": false,
      "metar_trigger": false,
      "taf_trigger": false,
      "metar": "METAR UGKO 090330Z 12005KT CAVOK 12/10 Q1019 NOSIG",
      "taf": "TAF UGKO 082300Z 0900/0924 09007KT CAVOK TX26/0912Z TN09/0902Z"
    }
  ]
}