{
  "ts_utc": "2026-07-13T10:55:19Z",
  "threshold_m": 150,
  "source": "stations_override.txt (ICAO list) + aviationweather.gov (METAR/TAF raw)",
  "station_count": 159,
  "stations": [
    {
      "icao": "BIKF",
      "alert": "OK",
      "vis_m": 4000,
      "fzfg": false,
      "metar_trigger": false,
      "taf_trigger": false,
      "metar": "METAR BIKF 131030Z 17019KT 4000 -RA OVC003 11/11 Q1021",
      "taf": "TAF BIKF 131035Z 1312/1412 18018KT 4000 RADZ BKN005 OVC010 TX11/1315Z TN10/1404Z"
    },
    {
      "icao": "BKPR",
      "alert": "OK",
      "vis_m": null,
      "fzfg": false,
      "metar_trigger": false,
      "taf_trigger": false,
      "metar": "",
      "taf": "TAF BKPR 130530Z 1306/1406 34010KT 9999 FEW050"
    },
    {
      "icao": "EBCI",
      "alert": "OK",
      "vis_m": 9999,
      "fzfg": false,
      "metar_trigger": false,
      "taf_trigger": false,
      "metar": "METAR EBCI 131020Z 06010KT 020V080 CAVOK 26/15 Q1020 NOSIG",
      "taf": "TAF EBCI 130501Z 1306/1412 04008KT CAVOK"
    },
    {
      "icao": "EDDB",
      "alert": "OK",
      "vis_m": 9999,
      "fzfg": false,
      "metar_trigger": false,
      "taf_trigger": false,
      "metar": "METAR EDDB 131050Z AUTO 07007KT 020V120 9999 FEW034 26/16 Q1021 NOSIG",
      "taf": "TAF EDDB 130500Z 1306/1406 04008KT CAVOK"
    },
    {
      "icao": "EDDH",
      "alert": "OK",
      "vis_m": 9999,
      "fzfg": false,
      "metar_trigger": false,
      "taf_trigger": false,
      "metar": "METAR EDDH 131050Z AUTO 04003KT 9999 SCT048 28/16 Q1022 BECMG 07008KT",
      "taf": "TAF EDDH 130500Z 1306/1412 VRB03KT CAVOK"
    },
    {
      "icao": "EDDK",
      "alert": "OK",
      "vis_m": 9999,
      "fzfg": false,
      "metar_trigger": false,
      "taf_trigger": false,
      "metar": "METAR EDDK 131050Z AUTO 01005KT 290V070 CAVOK 30/14 Q1019 NOSIG",
      "taf": "TAF EDDK 130500Z 1306/1412 VRB03KT CAVOK"
    },
    {
      "icao": "EDDN",
      "alert": "OK",
      "vis_m": 9999,
      "fzfg": false,
      "metar_trigger": false,
      "taf_trigger": false,
      "metar": "METAR EDDN 131050Z AUTO VRB06KT CAVOK 29/11 Q1019 NOSIG",
      "taf": "TAF EDDN 130500Z 1306/1406 VRB02KT CAVOK"
    },
    {
      "icao": "EDDS",
      "alert": "OK",
      "vis_m": 9999,
      "fzfg": false,
      "metar_trigger": false,
      "taf_trigger": false,
      "metar": "METAR EDDS 131050Z AUTO 09009KT 060V140 CAVOK 31/09 Q1018 NOSIG",
      "taf": "TAF EDDS 130500Z 1306/1406 VRB03KT CAVOK"
    },
    {
      "icao": "EDFH",
      "alert": "OK",
      "vis_m": 9999,
      "fzfg": false,
      "metar_trigger": false,
      "taf_trigger": false,
      "metar": "METAR EDFH 131020Z 07007KT 020V150 CAVOK 27/11 Q1020",
      "taf": "TAF EDFH 130500Z 1306/1406 10006KT CAVOK"
    },
    {
      "icao": "EDJA",
      "alert": "OK",
      "vis_m": 9999,
      "fzfg": false,
      "metar_trigger": false,
      "taf_trigger": false,
      "metar": "METAR EDJA 131020Z 08008KT 040V110 CAVOK 27/13 Q1020",
      "taf": "TAF EDJA 130800Z 1309/1318 07011KT CAVOK"
    },
    {
      "icao": "EDLW",
      "alert": "OK",
      "vis_m": 9999,
      "fzfg": false,
      "metar_trigger": false,
      "taf_trigger": false,
      "metar": "METAR EDLW 131020Z COR VRB05KT CAVOK 27/15 Q1020",
      "taf": "TAF EDLW 130500Z 1306/1406 VRB02KT CAVOK"
    },
    {
      "icao": "EDNY",
      "alert": "OK",
      "vis_m": 9999,
      "fzfg": false,
      "metar_trigger": false,
      "taf_trigger": false,
      "metar": "METAR EDNY 131020Z 24006KT 210V290 CAVOK 28/14 Q1018",
      "taf": "TAF EDNY 130800Z 1309/1318 05005KT CAVOK"
    },
    {
      "icao": "EDSB",
      "alert": "OK",
      "vis_m": 9999,
      "fzfg": false,
      "metar_trigger": false,
      "taf_trigger": false,
      "metar": "METAR EDSB 131020Z 09006KT 030V160 CAVOK 33/11 Q1017",
      "taf": "TAF EDSB 130500Z 1306/1406 02009KT CAVOK"
    },
    {
      "icao": "EETN",
      "alert": "OK",
      "vis_m": 9999,
      "fzfg": false,
      "metar_trigger": false,
      "taf_trigger": false,
      "metar": "METAR EETN 131050Z 34008KT 9999 OVC012 18/15 Q1018 NOSIG",
      "taf": "TAF EETN 130530Z 1306/1406 34008KT 9999 BKN030"
    },
    {
      "icao": "EFTU",
      "alert": "OK",
      "vis_m": 9999,
      "fzfg": false,
      "metar_trigger": false,
      "taf_trigger": false,
      "metar": "METAR EFTU 131050Z AUTO 03010KT 350V070 9999 BKN026 19/12 Q1020",
      "taf": "TAF EFTU 130823Z 1309/1409 36012KT 9999 BKN020"
    },
    {
      "icao": "EGBB",
      "alert": "OK",
      "vis_m": 9999,
      "fzfg": false,
      "metar_trigger": false,
      "taf_trigger": false,
      "metar": "METAR EGBB 131020Z 05011KT 010V080 9999 OVC018 17/12 Q1025",
      "taf": "TAF EGBB 130505Z 1306/1406 05012KT CAVOK"
    },
    {
      "icao": "EGGP",
      "alert": "OK",
      "vis_m": 9999,
      "fzfg": false,
      "metar_trigger": false,
      "taf_trigger": false,
      "metar": "METAR EGGP 131020Z 07010KT 040V110 CAVOK 20/10 Q1026",
      "taf": "TAF EGGP 130500Z 1306/1406 08008KT CAVOK"
    },
    {
      "icao": "EGGW",
      "alert": "OK",
      "vis_m": 9999,
      "fzfg": false,
      "metar_trigger": false,
      "taf_trigger": false,
      "metar": "METAR EGGW 131020Z AUTO 05015KT 020V080 9999 BKN023 BKN027 20/13 Q1024",
      "taf": ""
    },
    {
      "icao": "EGKK",
      "alert": "OK",
      "vis_m": 9999,
      "fzfg": false,
      "metar_trigger": false,
      "taf_trigger": false,
      "metar": "METAR EGKK 131020Z 06018KT CAVOK 23/14 Q1021",
      "taf": "TAF EGKK 130453Z 1306/1412 04010KT 9999 FEW015"
    },
    {
      "icao": "EGNM",
      "alert": "OK",
      "vis_m": 9999,
      "fzfg": false,
      "metar_trigger": false,
      "taf_trigger": false,
      "metar": "METAR EGNM 131020Z 04011KT 010V080 9999 FEW036 19/10 Q1027",
      "taf": "TAF EGNM 130459Z 1306/1406 04008KT 9999 FEW020"
    },
    {
      "icao": "EGPD",
      "alert": "OK",
      "vis_m": 9999,
      "fzfg": false,
      "metar_trigger": false,
      "taf_trigger": false,
      "metar": "METAR EGPD 131020Z AUTO 06004KT 360V130 9999 NCD 17/11 Q1031",
      "taf": ""
    },
    {
      "icao": "EGPF",
      "alert": "OK",
      "vis_m": 9999,
      "fzfg": false,
      "metar_trigger": false,
      "taf_trigger": false,
      "metar": "METAR EGPF 131020Z 06009KT 9999 SCT021 17/11 Q1030",
      "taf": "TAF EGPF 130455Z 1306/1406 07009KT 9999 FEW025"
    },
    {
      "icao": "EHBK",
      "alert": "OK",
      "vis_m": 9999,
      "fzfg": false,
      "metar_trigger": false,
      "taf_trigger": false,
      "metar": "METAR EHBK 131025Z AUTO 04007KT 340V080 9999 NSC 26/15 Q1020 NOSIG",
      "taf": "TAF EHBK 130507Z 1306/1412 03009KT CAVOK"
    },
    {
      "icao": "EHEH",
      "alert": "OK",
      "vis_m": 9999,
      "fzfg": false,
      "metar_trigger": false,
      "taf_trigger": false,
      "metar": "METAR EHEH 131025Z AUTO 03007KT 330V090 9999 NCD 25/14 Q1020 BLU NOSIG RMK TREND REMOTE BY EHWO",
      "taf": "TAF EHEH 130531Z 1306/1412 02006KT CAVOK"
    },
    {
      "icao": "EKBI",
      "alert": "OK",
      "vis_m": 9999,
      "fzfg": false,
      "metar_trigger": false,
      "taf_trigger": false,
      "metar": "METAR EKBI 131050Z AUTO 02009KT 9999 BKN210/// 23/17 Q1024",
      "taf": "TAF EKBI 130827Z 1309/1409 04006KT CAVOK"
    },
    {
      "icao": "EKCH",
      "alert": "OK",
      "vis_m": 9999,
      "fzfg": false,
      "metar_trigger": false,
      "taf_trigger": false,
      "metar": "METAR EKCH 131050Z 35007KT 9999 -RA SCT035CB BKN064 19/16 Q1025 TEMPO 4000 TSRA",
      "taf": "TAF EKCH 130827Z 1309/1409 36010KT 9999 FEW045"
    },
    {
      "icao": "ENAL",
      "alert": "OK",
      "vis_m": 9999,
      "fzfg": false,
      "metar_trigger": false,
      "taf_trigger": false,
      "metar": "METAR ENAL 131020Z 04007KT 9999 FEW015 15/10 Q1029",
      "taf": "TAF ENAL 130800Z 1309/1318 04009KT 9999 FEW015"
    },
    {
      "icao": "ENBR",
      "alert": "OK",
      "vis_m": 9999,
      "fzfg": false,
      "metar_trigger": false,
      "taf_trigger": false,
      "metar": "METAR ENBR 131020Z 28003KT CAVOK 19/13 Q1028 NOSIG RMK WIND 1200FT 29004KT",
      "taf": "TAF ENBR 130500Z 1306/1406 VRB03KT CAVOK"
    },
    {
      "icao": "ENGM",
      "alert": "OK",
      "vis_m": 9999,
      "fzfg": false,
      "metar_trigger": false,
      "taf_trigger": false,
      "metar": "METAR ENGM 131020Z VRB03KT CAVOK 22/08 Q1027 NOSIG",
      "taf": "TAF ENGM 130500Z 1306/1406 02007KT CAVOK"
    },
    {
      "icao": "ENHD",
      "alert": "OK",
      "vis_m": 9999,
      "fzfg": false,
      "metar_trigger": false,
      "taf_trigger": false,
      "metar": "METAR ENHD 131020Z 01006KT CAVOK 19/12 Q1027",
      "taf": "TAF ENHD 130800Z 1309/1318 34005KT CAVOK"
    },
    {
      "icao": "ENTC",
      "alert": "OK",
      "vis_m": 9999,
      "fzfg": false,
      "metar_trigger": false,
      "taf_trigger": false,
      "metar": "METAR ENTC 131020Z 19018KT 9999 FEW031 14/08 Q1022 NOSIG RMK WIND 2600FT 19026KT",
      "taf": ""
    },
    {
      "icao": "ENTO",
      "alert": "OK",
      "vis_m": 9999,
      "fzfg": false,
      "metar_trigger": false,
      "taf_trigger": false,
      "metar": "METAR ENTO 131020Z 03004KT 330V090 CAVOK 23/11 Q1027 NOSIG",
      "taf": "TAF ENTO 130500Z 1306/1406 03007KT CAVOK"
    },
    {
      "icao": "ENVA",
      "alert": "OK",
      "vis_m": 9999,
      "fzfg": false,
      "metar_trigger": false,
      "taf_trigger": false,
      "metar": "METAR ENVA 131020Z 24010KT CAVOK 16/10 Q1029 NOSIG RMK WIND 670FT 29006KT",
      "taf": "TAF ENVA 130500Z 1306/1406 27005KT CAVOK"
    },
    {
      "icao": "ENZV",
      "alert": "OK",
      "vis_m": 9999,
      "fzfg": false,
      "metar_trigger": false,
      "taf_trigger": false,
      "metar": "METAR ENZV 131020Z 29006KT CAVOK 22/14 Q1027 NOSIG",
      "taf": "TAF ENZV 130500Z 1306/1406 30006KT CAVOK"
    },
    {
      "icao": "EPGD",
      "alert": "OK",
      "vis_m": 9999,
      "fzfg": false,
      "metar_trigger": false,
      "taf_trigger": false,
      "metar": "METAR EPGD 131030Z 31011KT 9999 OVC006 18/16 Q1021",
      "taf": ""
    },
    {
      "icao": "EPKK",
      "alert": "OK",
      "vis_m": 9999,
      "fzfg": false,
      "metar_trigger": false,
      "taf_trigger": false,
      "metar": "METAR EPKK 131030Z 27008KT 240V310 9999 SCT022 BKN030 21/15 Q1020",
      "taf": "TAF EPKK 130830Z 1309/1409 26005KT 9999 FEW020 BKN036"
    },
    {
      "icao": "EPKT",
      "alert": "OK",
      "vis_m": 9999,
      "fzfg": false,
      "metar_trigger": false,
      "taf_trigger": false,
      "metar": "METAR EPKT 131030Z 29006KT 250V320 9999 SCT024 21/16 Q1020",
      "taf": "TAF EPKT 130530Z 1306/1406 VRB02KT 0100 FG BKN001"
    },
    {
      "icao": "EPLB",
      "alert": "OK",
      "vis_m": 9999,
      "fzfg": false,
      "metar_trigger": false,
      "taf_trigger": false,
      "metar": "METAR EPLB 131030Z 28009KT 9999 SCT010 BKN014 20/17 Q1017",
      "taf": ""
    },
    {
      "icao": "EPMO",
      "alert": "OK",
      "vis_m": 9999,
      "fzfg": false,
      "metar_trigger": false,
      "taf_trigger": false,
      "metar": "METAR EPMO 131030Z 30006KT 270V330 9999 FEW016 22/18 Q1018",
      "taf": "TAF EPMO 130530Z 1306/1406 32008KT 9999 OVC004"
    },
    {
      "icao": "EPPO",
      "alert": "OK",
      "vis_m": 9999,
      "fzfg": false,
      "metar_trigger": false,
      "taf_trigger": false,
      "metar": "METAR EPPO 131030Z 31007KT 290V360 9999 FEW030 25/16 Q1021",
      "taf": "TAF EPPO 130530Z 1306/1406 36008KT 9999 BKN004"
    },
    {
      "icao": "EPRA",
      "alert": "OK",
      "vis_m": 9999,
      "fzfg": false,
      "metar_trigger": false,
      "taf_trigger": false,
      "metar": "METAR EPRA 131030Z 33009KT 9999 BKN007 OVC011 18/16 Q1019",
      "taf": "TAF EPRA 130830Z 1309/1318 31006KT 9999 BKN004 OVC010"
    },
    {
      "icao": "EPRZ",
      "alert": "OK",
      "vis_m": 9999,
      "fzfg": false,
      "metar_trigger": false,
      "taf_trigger": false,
      "metar": "METAR EPRZ 131030Z 27010KT 9999 BKN016 20/16 Q1018",
      "taf": "TAF EPRZ 130530Z 1306/1406 28010KT 9999 OVC004"
    },
    {
      "icao": "EPSC",
      "alert": "OK",
      "vis_m": 9999,
      "fzfg": false,
      "metar_trigger": false,
      "taf_trigger": false,
      "metar": "METAR EPSC 131030Z VRB05KT 9999 FEW014 BKN017 21/16 Q1023",
      "taf": "TAF EPSC 130530Z 1306/1406 36010KT 9999 BKN007"
    },
    {
      "icao": "EPSY",
      "alert": "OK",
      "vis_m": 9999,
      "fzfg": false,
      "metar_trigger": false,
      "taf_trigger": false,
      "metar": "METAR EPSY 131030Z 33011KT 290V360 9999 BKN012 21/18 Q1019",
      "taf": "TAF EPSY 130830Z 1309/1318 33008KT 9999 BKN012"
    },
    {
      "icao": "EPWA",
      "alert": "OK",
      "vis_m": 9999,
      "fzfg": false,
      "metar_trigger": false,
      "taf_trigger": false,
      "metar": "METAR EPWA 131030Z 31007KT 9999 BKN010 20/18 Q1019 BECMG BKN015",
      "taf": "TAF EPWA 130830Z 1309/1409 32011KT 9999 BKN005"
    },
    {
      "icao": "EPWR",
      "alert": "OK",
      "vis_m": 9999,
      "fzfg": false,
      "metar_trigger": false,
      "taf_trigger": false,
      "metar": "METAR EPWR 131030Z 32008KT 250V030 9999 FEW036 26/16 Q1020",
      "taf": "TAF EPWR 130830Z 1309/1409 33008KT 9999 SCT040"
    },
    {
      "icao": "ESGG",
      "alert": "OK",
      "vis_m": 9999,
      "fzfg": false,
      "metar_trigger": false,
      "taf_trigger": false,
      "metar": "METAR ESGG 131020Z 03011KT 360V060 CAVOK 23/07 Q1025",
      "taf": "TAF ESGG 130830Z 1309/1409 07009KT CAVOK"
    },
    {
      "icao": "ESKN",
      "alert": "OK",
      "vis_m": 9999,
      "fzfg": false,
      "metar_trigger": false,
      "taf_trigger": false,
      "metar": "METAR ESKN 131020Z 30009KT 270V350 CAVOK 23/08 Q1024",
      "taf": "TAF ESKN 130830Z 1309/1409 35008KT CAVOK"
    },
    {
      "icao": "ESMS",
      "alert": "OK",
      "vis_m": 9999,
      "fzfg": false,
      "metar_trigger": false,
      "taf_trigger": false,
      "metar": "METAR ESMS 131020Z 01008KT 320V050 9999 FEW039 23/16 Q1024",
      "taf": "TAF ESMS 130827Z 1309/1409 VRB04KT 9999 FEW040"
    },
    {
      "icao": "ESSA",
      "alert": "OK",
      "vis_m": 9999,
      "fzfg": false,
      "metar_trigger": false,
      "taf_trigger": false,
      "metar": "METAR ESSA 131020Z 35013KT CAVOK 21/07 Q1024 NOSIG",
      "taf": "TAF ESSA 130830Z 1309/1409 36010KT CAVOK"
    },
    {
      "icao": "EYKA",
      "alert": "OK",
      "vis_m": 9999,
      "fzfg": false,
      "metar_trigger": false,
      "taf_trigger": false,
      "metar": "METAR EYKA 131050Z VRB07KT 9999 FEW043 28/18 Q1015",
      "taf": "TAF EYKA 130513Z 1306/1406 35010KT 9000 FEW025"
    },
    {
      "icao": "EYPA",
      "alert": "OK",
      "vis_m": 9999,
      "fzfg": false,
      "metar_trigger": false,
      "taf_trigger": false,
      "metar": "METAR EYPA 131050Z 35007KT 290V030 CAVOK 20/17 Q1018",
      "taf": "TAF EYPA 130502Z 1306/1406 35008KT 0800 FG VV002"
    },
    {
      "icao": "EYVI",
      "alert": "OK",
      "vis_m": 9999,
      "fzfg": false,
      "metar_trigger": false,
      "taf_trigger": false,
      "metar": "METAR EYVI 131050Z 34009KT 310V010 9999 SCT033 SCT044 27/19 Q1015 NOSIG",
      "taf": ""
    },
    {
      "icao": "GCFV",
      "alert": "OK",
      "vis_m": 9999,
      "fzfg": false,
      "metar_trigger": false,
      "taf_trigger": false,
      "metar": "METAR GCFV 131030Z 04008KT 010V070 9999 FEW025 25/17 Q1017",
      "taf": "TAF GCFV 130800Z 1309/1409 05010KT 9999 FEW030 TX25/1314Z TN21/1406Z"
    },
    {
      "icao": "GCLP",
      "alert": "OK",
      "vis_m": 9999,
      "fzfg": false,
      "metar_trigger": false,
      "taf_trigger": false,
      "metar": "METAR GCLP 131030Z 03015KT 9999 FEW025 25/17 Q1017 NOSIG",
      "taf": "TAF GCLP 130800Z 1309/1409 04014KT 9999 FEW030 TX26/1314Z TN20/1406Z"
    },
    {
      "icao": "GCTS",
      "alert": "OK",
      "vis_m": 9999,
      "fzfg": false,
      "metar_trigger": false,
      "taf_trigger": false,
      "metar": "METAR GCTS 131030Z 18006KT 140V240 9999 SCT035 24/17 Q1018 BECMG 11011KT",
      "taf": ""
    },
    {
      "icao": "GMAD",
      "alert": "OK",
      "vis_m": 9999,
      "fzfg": false,
      "metar_trigger": false,
      "taf_trigger": false,
      "metar": "METAR GMAD 131030Z 25004KT CAVOK 27/17 Q1015 NOSIG",
      "taf": "TAF GMAD 130500Z 1306/1412 22004KT 8000 NSC"
    },
    {
      "icao": "GMMN",
      "alert": "OK",
      "vis_m": 9999,
      "fzfg": false,
      "metar_trigger": false,
      "taf_trigger": false,
      "metar": "METAR GMMN 131030Z VRB07KT CAVOK 28/19 Q1017 NOSIG",
      "taf": "TAF GMMN 130500Z 1306/1412 05004KT 9999 FEW020"
    },
    {
      "icao": "GMMX",
      "alert": "OK",
      "vis_m": 9999,
      "fzfg": false,
      "metar_trigger": false,
      "taf_trigger": false,
      "metar": "METAR GMMX 131030Z VRB03KT CAVOK 27/18 Q1017 NOSIG",
      "taf": "TAF GMMX 130500Z 1306/1412 30006KT 8000 SCT030"
    },
    {
      "icao": "HEGN",
      "alert": "OK",
      "vis_m": 9999,
      "fzfg": false,
      "metar_trigger": false,
      "taf_trigger": false,
      "metar": "METAR HEGN 131000Z 35017KT CAVOK 34/15 Q1006 NOSIG",
      "taf": ""
    },
    {
      "icao": "HEMA",
      "alert": "OK",
      "vis_m": 9999,
      "fzfg": false,
      "metar_trigger": false,
      "taf_trigger": false,
      "metar": "METAR HEMA 131000Z 35016KT CAVOK 35/19 Q1005 NOSIG",
      "taf": ""
    },
    {
      "icao": "HESH",
      "alert": "OK",
      "vis_m": 9999,
      "fzfg": false,
      "metar_trigger": false,
      "taf_trigger": false,
      "metar": "METAR HESH 131000Z 36011KT CAVOK 35/14 Q1005 NOSIG",
      "taf": ""
    },
    {
      "icao": "HESX",
      "alert": "OK",
      "vis_m": 9999,
      "fzfg": false,
      "metar_trigger": false,
      "taf_trigger": false,
      "metar": "METAR HESX 131000Z 30011KT CAVOK 33/13 Q1009 NOSIG",
      "taf": ""
    },
    {
      "icao": "LATI",
      "alert": "OK",
      "vis_m": 9999,
      "fzfg": false,
      "metar_trigger": false,
      "taf_trigger": false,
      "metar": "METAR LATI 131050Z 32011KT 280V350 CAVOK 33/12 Q1013 NOSIG",
      "taf": "TAF LATI 130500Z 1306/1406 VRB03KT CAVOK TX36/1312Z TN17/1404Z"
    },
    {
      "icao": "LBPD",
      "alert": "OK",
      "vis_m": 9999,
      "fzfg": false,
      "metar_trigger": false,
      "taf_trigger": false,
      "metar": "METAR LBPD 131030Z AUTO 30009KT 260V330 9999 FEW071/// SCT120/// 29/12 Q1013 NOSIG",
      "taf": "TAF LBPD 130500Z 1306/1406 27015KT 9999 SCT070"
    },
    {
      "icao": "LBSF",
      "alert": "OK",
      "vis_m": 9999,
      "fzfg": false,
      "metar_trigger": false,
      "taf_trigger": false,
      "metar": "METAR LBSF 131030Z 04006KT 360V090 9999 BKN054 23/12 Q1017 NOSIG",
      "taf": "TAF LBSF 130500Z 1306/1406 29010KT 9999 SCT050"
    },
    {
      "icao": "LBWN",
      "alert": "OK",
      "vis_m": 9999,
      "fzfg": false,
      "metar_trigger": false,
      "taf_trigger": false,
      "metar": "METAR LBWN 131030Z 14004KT 060V190 9999 -TSRA SCT032CB BKN044 24/18 Q1013 TEMPO VRB16G30KT 5000 TSRA SCT033CB",
      "taf": "TAF LBWN 130500Z 1306/1406 30006KT 9999 SCT045"
    },
    {
      "icao": "LCLK",
      "alert": "OK",
      "vis_m": 9999,
      "fzfg": false,
      "metar_trigger": false,
      "taf_trigger": false,
      "metar": "METAR LCLK 131030Z 21014KT 9999 FEW025 34/24 Q1005 NOSIG",
      "taf": "TAF LCLK 130530Z 1306/1406 15008KT CAVOK"
    },
    {
      "icao": "LCPH",
      "alert": "OK",
      "vis_m": 9999,
      "fzfg": false,
      "metar_trigger": false,
      "taf_trigger": false,
      "metar": "METAR LCPH 131030Z 30009KT 250V320 9999 FEW020 29/25 Q1007 NOSIG",
      "taf": "TAF LCPH 130530Z 1306/1406 01005KT CAVOK"
    },
    {
      "icao": "LEAL",
      "alert": "OK",
      "vis_m": 9999,
      "fzfg": false,
      "metar_trigger": false,
      "taf_trigger": false,
      "metar": "METAR LEAL 131030Z 11007KT 060V150 9999 FEW020 SCT036 32/24 Q1014 NOSIG",
      "taf": "TAF LEAL 130500Z 1306/1406 VRB03KT 9999 FEW010 TX33/1312Z TN24/1306Z"
    },
    {
      "icao": "LEBB",
      "alert": "OK",
      "vis_m": 9999,
      "fzfg": false,
      "metar_trigger": false,
      "taf_trigger": false,
      "metar": "METAR LEBB 131030Z VRB04KT 9999 FEW032 29/19 Q1015 NOSIG",
      "taf": "TAF LEBB 130500Z 1306/1406 35006KT 9999 SCT030 TX28/1314Z TN21/1405Z"
    },
    {
      "icao": "LEBL",
      "alert": "OK",
      "vis_m": 9999,
      "fzfg": false,
      "metar_trigger": false,
      "taf_trigger": false,
      "metar": "METAR LEBL 131030Z 10010KT 080V150 9999 FEW012 SCT025 28/25 Q1015 NOSIG",
      "taf": "TAF LEBL 130500Z 1306/1406 05009KT 9999 FEW020 TX32/1312Z TN24/1306Z"
    },
    {
      "icao": "LECH",
      "alert": "OK",
      "vis_m": 9999,
      "fzfg": false,
      "metar_trigger": false,
      "taf_trigger": false,
      "metar": "METAR LECH 131030Z AUTO 15007KT 110V170 9999 SCT030 29/21 Q1015",
      "taf": "TAF LECH 130500Z 1306/1406 VRB03KT 9999 FEW010 TX34/1312Z TN19/1306Z"
    },
    {
      "icao": "LEMD",
      "alert": "OK",
      "vis_m": 9999,
      "fzfg": false,
      "metar_trigger": false,
      "taf_trigger": false,
      "metar": "METAR LEMD 131030Z 23007G17KT CAVOK 29/07 Q1017 NOSIG",
      "taf": "TAF LEMD 130500Z 1306/1412 VRB04KT CAVOK TX34/1316Z TN19/1405Z"
    },
    {
      "icao": "LEMG",
      "alert": "OK",
      "vis_m": 9999,
      "fzfg": false,
      "metar_trigger": false,
      "taf_trigger": false,
      "metar": "METAR LEMG 131030Z 15008KT 120V190 CAVOK 29/14 Q1014 NOSIG",
      "taf": "TAF LEMG 130500Z 1306/1406 27013KT CAVOK TX34/1314Z TN24/1405Z"
    },
    {
      "icao": "LEVC",
      "alert": "OK",
      "vis_m": 9999,
      "fzfg": false,
      "metar_trigger": false,
      "taf_trigger": false,
      "metar": "METAR LEVC 131030Z 06005KT 330V120 9999 FEW030 BKN035 31/22 Q1013 NOSIG",
      "taf": "TAF LEVC 130500Z 1306/1406 VRB03KT 9999 FEW015 TX33/1314Z TN23/1306Z"
    },
    {
      "icao": "LEXJ",
      "alert": "OK",
      "vis_m": 9999,
      "fzfg": false,
      "metar_trigger": false,
      "taf_trigger": false,
      "metar": "METAR LEXJ 131030Z 06004KT 330V120 CAVOK 26/15 Q1014",
      "taf": "TAF LEXJ 130800Z 1309/1409 04009KT 9999 FEW020 SCT040 TX27/1311Z TN19/1405Z"
    },
    {
      "icao": "LEZG",
      "alert": "OK",
      "vis_m": 9999,
      "fzfg": false,
      "metar_trigger": false,
      "taf_trigger": false,
      "metar": "METAR LEZG 131030Z 02003KT 9999 FEW070 31/17 Q1014 NOSIG",
      "taf": "TAF LEZG 130500Z 1306/1406 10008KT CAVOK TX37/1315Z TN23/1306Z"
    },
    {
      "icao": "LEZL",
      "alert": "OK",
      "vis_m": 9999,
      "fzfg": false,
      "metar_trigger": false,
      "taf_trigger": false,
      "metar": "METAR LEZL 131030Z 04004KT CAVOK 28/15 Q1016 NOSIG",
      "taf": "TAF LEZL 130800Z 1309/1409 VRB03KT CAVOK TX33/1315Z TN19/1405Z"
    },
    {
      "icao": "LFBD",
      "alert": "OK",
      "vis_m": 9999,
      "fzfg": false,
      "metar_trigger": false,
      "taf_trigger": false,
      "metar": "METAR LFBD 131030Z AUTO 24010KT 190V270 9999 SCT025/// BKN100/// BKN120/// ///CB 27/20 Q1015 BECMG NSC",
      "taf": ""
    },
    {
      "icao": "LFLL",
      "alert": "OK",
      "vis_m": 9999,
      "fzfg": false,
      "metar_trigger": false,
      "taf_trigger": false,
      "metar": "METAR LFLL 131000Z 17014KT 130V200 CAVOK 32/14 Q1015 NOSIG",
      "taf": "TAF LFLL 130500Z 1306/1412 16008KT CAVOK"
    },
    {
      "icao": "LFLS",
      "alert": "OK",
      "vis_m": 9999,
      "fzfg": false,
      "metar_trigger": false,
      "taf_trigger": false,
      "metar": "METAR LFLS 131030Z AUTO 18008KT 150V220 CAVOK 31/17 Q1017 NOSIG",
      "taf": "TAF LFLS 130800Z 1309/1409 09005KT CAVOK"
    },
    {
      "icao": "LFMN",
      "alert": "OK",
      "vis_m": 9999,
      "fzfg": false,
      "metar_trigger": false,
      "taf_trigger": false,
      "metar": "METAR LFMN 131030Z 12005KT CAVOK 30/22 Q1017 NOSIG",
      "taf": "TAF LFMN 130800Z 1309/1415 VRB04KT CAVOK"
    },
    {
      "icao": "LFOB",
      "alert": "OK",
      "vis_m": 9999,
      "fzfg": false,
      "metar_trigger": false,
      "taf_trigger": false,
      "metar": "METAR LFOB 131030Z AUTO 05016KT 030V090 CAVOK 28/15 Q1016 TEMPO VRB20G30KT 4000 TSRA SCT120CB",
      "taf": "TAF LFOB 130500Z 1306/1406 04015G25KT CAVOK"
    },
    {
      "icao": "LFPO",
      "alert": "OK",
      "vis_m": 9999,
      "fzfg": false,
      "metar_trigger": false,
      "taf_trigger": false,
      "metar": "METAR LFPO 131030Z 05015KT CAVOK 32/10 Q1014 NOSIG",
      "taf": ""
    },
    {
      "icao": "LFSB",
      "alert": "OK",
      "vis_m": 9999,
      "fzfg": false,
      "metar_trigger": false,
      "taf_trigger": false,
      "metar": "METAR LFSB 131030Z AUTO 01006KT 320V070 CAVOK 32/10 Q1017 NOSIG",
      "taf": "TAF LFSB 130500Z 1306/1406 VRB03KT CAVOK"
    },
    {
      "icao": "LGAV",
      "alert": "OK",
      "vis_m": 9999,
      "fzfg": false,
      "metar_trigger": false,
      "taf_trigger": false,
      "metar": "METAR LGAV 131020Z 08014KT 9999 FEW025 31/16 Q1013 NOSIG",
      "taf": "TAF LGAV 130500Z 1306/1406 04010KT 9999 FEW025"
    },
    {
      "icao": "LGTS",
      "alert": "OK",
      "vis_m": 9999,
      "fzfg": false,
      "metar_trigger": false,
      "taf_trigger": false,
      "metar": "METAR LGTS 131020Z 33013KT 9999 FEW025 31/15 Q1013 NOSIG",
      "taf": "TAF LGTS 130500Z 1306/1406 33015KT 9999 FEW030"
    },
    {
      "icao": "LHBP",
      "alert": "OK",
      "vis_m": 9999,
      "fzfg": false,
      "metar_trigger": false,
      "taf_trigger": false,
      "metar": "METAR LHBP 131030Z VRB04KT CAVOK 26/12 Q1017 NOSIG",
      "taf": "TAF LHBP 130515Z 1306/1406 35003KT CAVOK"
    },
    {
      "icao": "LHDC",
      "alert": "OK",
      "vis_m": 9999,
      "fzfg": false,
      "metar_trigger": false,
      "taf_trigger": false,
      "metar": "METAR LHDC 131015Z AUTO 01009KT 310V060 9999 SCT048 24/11 Q1017 NOSIG",
      "taf": "TAF LHDC 130815Z 1309/1318 02009KT CAVOK"
    },
    {
      "icao": "LIBD",
      "alert": "OK",
      "vis_m": 9999,
      "fzfg": false,
      "metar_trigger": false,
      "taf_trigger": false,
      "metar": "METAR LIBD 131020Z 35010KT CAVOK 28/18 Q1017",
      "taf": "TAF LIBD 130500Z 1306/1406 32005KT CAVOK"
    },
    {
      "icao": "LIBG",
      "alert": "OK",
      "vis_m": 9999,
      "fzfg": false,
      "metar_trigger": false,
      "taf_trigger": false,
      "metar": "METAR LIBG 131020Z AUTO 36016KT 9999 NCD 31/11 Q1016",
      "taf": "TAF LIBG 130500Z 1306/1406 VRB05KT CAVOK"
    },
    {
      "icao": "LIBP",
      "alert": "OK",
      "vis_m": 9999,
      "fzfg": false,
      "metar_trigger": false,
      "taf_trigger": false,
      "metar": "METAR LIBP 131020Z AUTO 08009KT 9999 NCD 31/16 Q1018",
      "taf": "TAF LIBP 130500Z 1306/1406 VRB05KT CAVOK"
    },
    {
      "icao": "LIBR",
      "alert": "OK",
      "vis_m": 9999,
      "fzfg": false,
      "metar_trigger": false,
      "taf_trigger": false,
      "metar": "METAR LIBR 131020Z 34015KT 300V360 9999 FEW015 29/18 Q1016",
      "taf": "TAF LIBR 130500Z 1306/1406 34013KT CAVOK"
    },
    {
      "icao": "LICA",
      "alert": "OK",
      "vis_m": 9999,
      "fzfg": false,
      "metar_trigger": false,
      "taf_trigger": false,
      "metar": "METAR LICA 131020Z AUTO 25013KT 220V280 9999 NCD 30/24 Q1016",
      "taf": "TAF LICA 130500Z 1306/1406 08005KT 9999 FEW015"
    },
    {
      "icao": "LICC",
      "alert": "OK",
      "vis_m": 9999,
      "fzfg": false,
      "metar_trigger": false,
      "taf_trigger": false,
      "metar": "METAR LICC 131020Z 12010KT CAVOK 30/20 Q1016",
      "taf": "TAF LICC 130500Z 1306/1406 VRB05KT CAVOK"
    },
    {
      "icao": "LICJ",
      "alert": "OK",
      "vis_m": 9999,
      "fzfg": false,
      "metar_trigger": false,
      "taf_trigger": false,
      "metar": "METAR LICJ 131020Z 03011KT CAVOK 29/25 Q1017",
      "taf": "TAF LICJ 130500Z 1306/1406 VRB05KT CAVOK"
    },
    {
      "icao": "LIMC",
      "alert": "OK",
      "vis_m": 9999,
      "fzfg": false,
      "metar_trigger": false,
      "taf_trigger": false,
      "metar": "METAR LIMC 131020Z 16005KT 090V230 9999 FEW040 31/18 Q1019 NOSIG",
      "taf": "TAF LIMC 130500Z 1306/1412 VRB05KT CAVOK"
    },
    {
      "icao": "LIME",
      "alert": "OK",
      "vis_m": 9999,
      "fzfg": false,
      "metar_trigger": false,
      "taf_trigger": false,
      "metar": "METAR LIME 131020Z 16004KT 120V210 CAVOK 30/18 Q1019 NOSIG",
      "taf": "TAF LIME 130500Z 1306/1406 VRB05KT CAVOK"
    },
    {
      "icao": "LIMF",
      "alert": "OK",
      "vis_m": 9999,
      "fzfg": false,
      "metar_trigger": false,
      "taf_trigger": false,
      "metar": "METAR LIMF 131020Z 08006KT 040V120 CAVOK 29/20 Q1019",
      "taf": "TAF LIMF 130500Z 1306/1406 VRB05KT CAVOK"
    },
    {
      "icao": "LIMJ",
      "alert": "OK",
      "vis_m": 9999,
      "fzfg": false,
      "metar_trigger": false,
      "taf_trigger": false,
      "metar": "METAR LIMJ 131020Z 15005KT CAVOK 28/23 Q1017",
      "taf": "TAF LIMJ 130500Z 1306/1406 VRB05KT CAVOK"
    },
    {
      "icao": "LIPE",
      "alert": "OK",
      "vis_m": 9999,
      "fzfg": false,
      "metar_trigger": false,
      "taf_trigger": false,
      "metar": "METAR LIPE 131020Z VRB05KT CAVOK 31/18 Q1017",
      "taf": "TAF LIPE 130500Z 1306/1406 VRB05KT CAVOK"
    },
    {
      "icao": "LIPH",
      "alert": "OK",
      "vis_m": 9999,
      "fzfg": false,
      "metar_trigger": false,
      "taf_trigger": false,
      "metar": "METAR LIPH 131020Z 11005KT 010V150 CAVOK 31/19 Q1018",
      "taf": "TAF LIPH 130500Z 1306/1406 VRB05KT CAVOK"
    },
    {
      "icao": "LIPQ",
      "alert": "OK",
      "vis_m": 9999,
      "fzfg": false,
      "metar_trigger": false,
      "taf_trigger": false,
      "metar": "METAR LIPQ 131020Z AUTO 25006KT 220V280 9999 NCD 31/15 Q1018",
      "taf": "TAF LIPQ 130500Z 1306/1406 VRB05KT CAVOK"
    },
    {
      "icao": "LIPR",
      "alert": "OK",
      "vis_m": 9999,
      "fzfg": false,
      "metar_trigger": false,
      "taf_trigger": false,
      "metar": "METAR LIPR 131020Z 10012KT CAVOK 29/20 Q1017",
      "taf": "TAF LIPR 130500Z 1306/1406 VRB05KT CAVOK"
    },
    {
      "icao": "LIPX",
      "alert": "OK",
      "vis_m": 9999,
      "fzfg": false,
      "metar_trigger": false,
      "taf_trigger": false,
      "metar": "METAR LIPX 131020Z 14004KT 070V220 CAVOK 31/19 Q1018",
      "taf": "TAF LIPX 130500Z 1306/1406 VRB05KT CAVOK"
    },
    {
      "icao": "LIPY",
      "alert": "OK",
      "vis_m": 9999,
      "fzfg": false,
      "metar_trigger": false,
      "taf_trigger": false,
      "metar": "METAR LIPY 131020Z AUTO 14006KT 080V190 9999 NCD 33/12 Q1018",
      "taf": "TAF LIPY 130500Z 1306/1406 VRB05KT CAVOK"
    },
    {
      "icao": "LIPZ",
      "alert": "OK",
      "vis_m": 9999,
      "fzfg": false,
      "metar_trigger": false,
      "taf_trigger": false,
      "metar": "METAR LIPZ 131020Z 14007KT 120V180 9999 FEW035 29/22 Q1018 NOSIG",
      "taf": "TAF LIPZ 130500Z 1306/1412 VRB05KT CAVOK"
    },
    {
      "icao": "LIRF",
      "alert": "OK",
      "vis_m": 9999,
      "fzfg": false,
      "metar_trigger": false,
      "taf_trigger": false,
      "metar": "METAR LIRF 131020Z 20013KT CAVOK 31/22 Q1018 NOSIG",
      "taf": "TAF LIRF 130500Z 1306/1412 05005KT CAVOK"
    },
    {
      "icao": "LIRN",
      "alert": "OK",
      "vis_m": 9999,
      "fzfg": false,
      "metar_trigger": false,
      "taf_trigger": false,
      "metar": "METAR LIRN 131020Z 03010KT 320V080 CAVOK 34/13 Q1017 NOSIG",
      "taf": "TAF LIRN 130500Z 1306/1406 05008KT CAVOK"
    },
    {
      "icao": "LIRP",
      "alert": "OK",
      "vis_m": 9999,
      "fzfg": false,
      "metar_trigger": false,
      "taf_trigger": false,
      "metar": "METAR LIRP 131015Z 27009KT CAVOK 33/21 Q1017 NOSIG",
      "taf": "TAF LIRP 130500Z 1306/1406 12004KT CAVOK"
    },
    {
      "icao": "LIRZ",
      "alert": "OK",
      "vis_m": 9999,
      "fzfg": false,
      "metar_trigger": false,
      "taf_trigger": false,
      "metar": "METAR LIRZ 131020Z AUTO VRB03KT 9999 FEW003/// 33/11 Q1018",
      "taf": "TAF LIRZ 130500Z 1306/1406 VRB05KT CAVOK"
    },
    {
      "icao": "LJLJ",
      "alert": "OK",
      "vis_m": 9999,
      "fzfg": false,
      "metar_trigger": false,
      "taf_trigger": false,
      "metar": "METAR LJLJ 131030Z 09005KT 030V150 9999 FEW070 29/17 Q1019 NOSIG",
      "taf": "TAF LJLJ 130500Z 1306/1406 VRB02KT CAVOK"
    },
    {
      "icao": "LKMT",
      "alert": "OK",
      "vis_m": 9999,
      "fzfg": false,
      "metar_trigger": false,
      "taf_trigger": false,
      "metar": "METAR LKMT 131030Z 08007KT 9999 FEW032 22/15 Q1021 NOSIG",
      "taf": ""
    },
    {
      "icao": "LKPR",
      "alert": "OK",
      "vis_m": 9999,
      "fzfg": false,
      "metar_trigger": false,
      "taf_trigger": false,
      "metar": "METAR LKPR 131030Z 04006KT 350V090 9999 SCT045 26/15 Q1021 NOSIG",
      "taf": "TAF LKPR 130800Z 1309/1415 07005KT CAVOK"
    },
    {
      "icao": "LLBG",
      "alert": "OK",
      "vis_m": 9999,
      "fzfg": false,
      "metar_trigger": false,
      "taf_trigger": false,
      "metar": "METAR LLBG 131050Z 28008KT CAVOK 31/20 Q1007 NOSIG",
      "taf": "TAF LLBG 130504Z 1306/1406 16005KT 9999 SCT022 TX31/1311Z TN23/1404Z"
    },
    {
      "icao": "LMML",
      "alert": "OK",
      "vis_m": 9999,
      "fzfg": false,
      "metar_trigger": false,
      "taf_trigger": false,
      "metar": "METAR LMML 131045Z 05013KT 9999 FEW017 31/23 Q1016 NOSIG",
      "taf": "TAF LMML 130500Z 1306/1406 05010KT 9999 FEW010"
    },
    {
      "icao": "LOWW",
      "alert": "OK",
      "vis_m": 9999,
      "fzfg": false,
      "metar_trigger": false,
      "taf_trigger": false,
      "metar": "METAR LOWW 131020Z 01012KT 330V050 9999 FEW050 28/11 Q1019 NOSIG",
      "taf": "TAF LOWW 130815Z 1309/1415 02010KT CAVOK TX30/1315Z TN17/1403Z"
    },
    {
      "icao": "LPFR",
      "alert": "OK",
      "vis_m": 9999,
      "fzfg": false,
      "metar_trigger": false,
      "taf_trigger": false,
      "metar": "METAR LPFR 131030Z 20007KT 180V240 9999 FEW020 23/18 Q1017",
      "taf": "TAF LPFR 130500Z 1306/1406 VRB02KT CAVOK"
    },
    {
      "icao": "LPMA",
      "alert": "OK",
      "vis_m": 9999,
      "fzfg": false,
      "metar_trigger": false,
      "taf_trigger": false,
      "metar": "METAR LPMA 131030Z 13005KT 100V170 9999 FEW015 24/19 Q1018",
      "taf": "TAF LPMA 130500Z 1306/1406 VRB05KT 9999 SCT015 SCT030"
    },
    {
      "icao": "LPPR",
      "alert": "OK",
      "vis_m": 9999,
      "fzfg": false,
      "metar_trigger": false,
      "taf_trigger": false,
      "metar": "METAR LPPR 131030Z 19011KT 9999 FEW020 SCT029 BKN045 22/17 Q1016",
      "taf": "TAF LPPR 130500Z 1306/1406 19008KT 9999 SCT015"
    },
    {
      "icao": "LPPS",
      "alert": "OK",
      "vis_m": 9999,
      "fzfg": false,
      "metar_trigger": false,
      "taf_trigger": false,
      "metar": "METAR LPPS 131030Z 27006KT 230V340 9999 SCT015 23/17 Q1018",
      "taf": "TAF LPPS 130500Z 1306/1412 VRB05KT 9999 SCT015 SCT030"
    },
    {
      "icao": "LPPT",
      "alert": "OK",
      "vis_m": 9999,
      "fzfg": false,
      "metar_trigger": false,
      "taf_trigger": false,
      "metar": "METAR LPPT 131030Z 10006KT 050V170 9999 FEW025 24/16 Q1016 BECMG 23010KT",
      "taf": "TAF LPPT 130500Z 1306/1412 VRB02KT 9999 SCT012"
    },
    {
      "icao": "LQBK",
      "alert": "OK",
      "vis_m": 9999,
      "fzfg": false,
      "metar_trigger": false,
      "taf_trigger": false,
      "metar": "METAR LQBK 131030Z 28009KT 240V330 9999 SCT037 28/11 Q1018 NOSIG",
      "taf": "TAF LQBK 130500Z 1306/1406 16005KT CAVOK TX31/1314Z TN15/1404Z"
    },
    {
      "icao": "LQSA",
      "alert": "OK",
      "vis_m": 9999,
      "fzfg": false,
      "metar_trigger": false,
      "taf_trigger": false,
      "metar": "METAR LQSA 131030Z 33010KT 300V010 9999 SCT050 24/13 Q1020 NOSIG",
      "taf": ""
    },
    {
      "icao": "LQTZ",
      "alert": "OK",
      "vis_m": 9999,
      "fzfg": false,
      "metar_trigger": false,
      "taf_trigger": false,
      "metar": "METAR LQTZ 131030Z 29011KT 250V320 9999 SCT070 26/14 Q1019",
      "taf": "TAF LQTZ 130500Z 1306/1406 27006KT 9999 SCT050 TX29/1314Z TN14/1403Z"
    },
    {
      "icao": "LRBC",
      "alert": "OK",
      "vis_m": 9999,
      "fzfg": false,
      "metar_trigger": false,
      "taf_trigger": false,
      "metar": "METAR LRBC 131030Z 34014KT 9999 FEW022 SCT045 21/15 Q1016",
      "taf": "TAF LRBC 130800Z 1309/1318 33010KT 9999 BKN040"
    },
    {
      "icao": "LRBS",
      "alert": "OK",
      "vis_m": 9999,
      "fzfg": false,
      "metar_trigger": false,
      "taf_trigger": false,
      "metar": "METAR LRBS 131030Z 07006KT 330V130 9999 SCT045CB 25/13 Q1014 NOSIG",
      "taf": ""
    },
    {
      "icao": "LRBV",
      "alert": "OK",
      "vis_m": 9999,
      "fzfg": false,
      "metar_trigger": false,
      "taf_trigger": false,
      "metar": "METAR LRBV 131030Z 30008KT 220V340 9999 SCT039 21/11 Q1016",
      "taf": "TAF LRBV 130800Z 1309/1318 30007KT 9999 SCT045"
    },
    {
      "icao": "LRCL",
      "alert": "OK",
      "vis_m": 9999,
      "fzfg": false,
      "metar_trigger": false,
      "taf_trigger": false,
      "metar": "METAR LRCL 131030Z 04005KT 320V110 9999 SCT044 23/10 Q1016",
      "taf": "TAF LRCL 130800Z 1309/1318 34005KT 9999 SCT035"
    },
    {
      "icao": "LRCV",
      "alert": "OK",
      "vis_m": 9999,
      "fzfg": false,
      "metar_trigger": false,
      "taf_trigger": false,
      "metar": "METAR LRCV 131030Z 30005KT 240V040 9999 FEW046 27/12 Q1014",
      "taf": "TAF LRCV 130800Z 1309/1318 31005KT CAVOK"
    },
    {
      "icao": "LRIA",
      "alert": "OK",
      "vis_m": 9999,
      "fzfg": false,
      "metar_trigger": false,
      "taf_trigger": false,
      "metar": "METAR LRIA 131030Z 30007KT 270V330 9999 FEW035 19/14 Q1015",
      "taf": "TAF LRIA 130800Z 1309/1318 32006KT CAVOK"
    },
    {
      "icao": "LROP",
      "alert": "OK",
      "vis_m": 9999,
      "fzfg": false,
      "metar_trigger": false,
      "taf_trigger": false,
      "metar": "METAR LROP 131030Z 10006KT 060V150 9999 FEW055CB 25/10 Q1014 NOSIG",
      "taf": ""
    },
    {
      "icao": "LRSB",
      "alert": "OK",
      "vis_m": 9999,
      "fzfg": false,
      "metar_trigger": false,
      "taf_trigger": false,
      "metar": "METAR LRSB 131030Z 34006KT 300V050 9999 SCT038 SCT085 23/13 Q1016 NOSIG",
      "taf": "TAF LRSB 130500Z 1306/1406 VRB04KT 9999 SCT045 BKN065"
    },
    {
      "icao": "LRSM",
      "alert": "OK",
      "vis_m": 9999,
      "fzfg": false,
      "metar_trigger": false,
      "taf_trigger": false,
      "metar": "METAR LRSM 131030Z 34005KT 260V050 9999 SCT040 24/13 Q1016",
      "taf": "TAF LRSM 130800Z 1309/1318 VRB04KT CAVOK"
    },
    {
      "icao": "LRSV",
      "alert": "OK",
      "vis_m": 9999,
      "fzfg": false,
      "metar_trigger": false,
      "taf_trigger": false,
      "metar": "METAR LRSV 131030Z 31011KT 9999 SCT030 20/13 Q1016",
      "taf": "TAF LRSV 130800Z 1309/1318 32010KT 9999 BKN035"
    },
    {
      "icao": "LRTM",
      "alert": "OK",
      "vis_m": 9999,
      "fzfg": false,
      "metar_trigger": false,
      "taf_trigger": false,
      "metar": "METAR LRTM 131030Z 34004KT 310V030 9999 BKN038 22/15 Q1016",
      "taf": "TAF LRTM 130800Z 1309/1318 29005KT 9999 SCT020"
    },
    {
      "icao": "LRTR",
      "alert": "OK",
      "vis_m": 9999,
      "fzfg": false,
      "metar_trigger": false,
      "taf_trigger": false,
      "metar": "METAR LRTR 131030Z 34010KT 300V030 9999 FEW048 26/13 Q1016",
      "taf": "TAF LRTR 130500Z 1306/1406 34008KT CAVOK"
    },
    {
      "icao": "LTAC",
      "alert": "OK",
      "vis_m": 9999,
      "fzfg": false,
      "metar_trigger": false,
      "taf_trigger": false,
      "metar": "METAR LTAC 131020Z 28006KT 230V030 9999 FEW040 29/09 Q1013 NOSIG RMK RWY21C VRB05KT RWY03L VRB05KT RWY21R VRB04G14KT RWY03R 22006KT 140V300 RWY21L VRB07KT",
      "taf": "TAF LTAC 130440Z 1306/1406 VRB02KT CAVOK"
    },
    {
      "icao": "LTFM",
      "alert": "OK",
      "vis_m": 9999,
      "fzfg": false,
      "metar_trigger": false,
      "taf_trigger": false,
      "metar": "METAR LTFM 131020Z 01014KT 9999 FEW015 SCT023 26/19 Q1013 NOSIG RMK RWY17L 01013KT RWY34L 36013KT 320V030 RWY16R 01012KT 330V030 RWY36 01013KT 330V030 RWY18 01014KT",
      "taf": "TAF LTFM 130440Z 1306/1412 03012KT 9999 SCT023"
    },
    {
      "icao": "LUKK",
      "alert": "OK",
      "vis_m": 9999,
      "fzfg": false,
      "metar_trigger": false,
      "taf_trigger": false,
      "metar": "METAR LUKK 131030Z 34008KT 300V040 CAVOK 22/16 Q1014 TEMPO SCT045CB",
      "taf": "TAF LUKK 130508Z 1306/1406 34008KT 9999 SCT045"
    },
    {
      "icao": "LWOH",
      "alert": "OK",
      "vis_m": 9999,
      "fzfg": false,
      "metar_trigger": false,
      "taf_trigger": false,
      "metar": "METAR LWOH 131050Z 17008KT 140V220 9999 SCT040 26/16 Q1017",
      "taf": "TAF LWOH 130820Z 1309/1409 33010KT CAVOK"
    },
    {
      "icao": "LWSK",
      "alert": "OK",
      "vis_m": 9999,
      "fzfg": false,
      "metar_trigger": false,
      "taf_trigger": false,
      "metar": "METAR LWSK 131050Z 36012KT 320V040 9999 SCT070 30/13 Q1015 NOSIG",
      "taf": "TAF LWSK 130820Z 1309/1409 34010KT 9999 SCT050"
    },
    {
      "icao": "LYBE",
      "alert": "OK",
      "vis_m": 9999,
      "fzfg": false,
      "metar_trigger": false,
      "taf_trigger": false,
      "metar": "METAR LYBE 131030Z 32011KT 270V360 9999 BKN043 26/14 Q1017 NOSIG",
      "taf": "TAF LYBE 130500Z 1306/1406 32012KT 9999 SCT040 TX29/1314Z TN16/1403Z"
    },
    {
      "icao": "LYNI",
      "alert": "OK",
      "vis_m": 9999,
      "fzfg": false,
      "metar_trigger": false,
      "taf_trigger": false,
      "metar": "METAR LYNI 131030Z 31010KT 260V350 9999 SCT050 26/14 Q1017 NOSIG",
      "taf": "TAF LYNI 130500Z 1306/1406 26004KT 9999 SCT035 TX28/1314Z TN13/1403Z"
    },
    {
      "icao": "LYPG",
      "alert": "OK",
      "vis_m": 9999,
      "fzfg": false,
      "metar_trigger": false,
      "taf_trigger": false,
      "metar": "METAR LYPG 131030Z 35014KT 320V030 9999 FEW050 33/09 Q1014 NOSIG",
      "taf": ""
    },
    {
      "icao": "LZIB",
      "alert": "OK",
      "vis_m": 9999,
      "fzfg": false,
      "metar_trigger": false,
      "taf_trigger": false,
      "metar": "METAR LZIB 131030Z 35012KT CAVOK 27/13 Q1018 NOSIG",
      "taf": "TAF LZIB 130515Z 1306/1406 02009KT CAVOK"
    },
    {
      "icao": "LZKZ",
      "alert": "OK",
      "vis_m": 9999,
      "fzfg": false,
      "metar_trigger": false,
      "taf_trigger": false,
      "metar": "METAR LZKZ 131030Z 36015KT 9999 SCT040 22/12 Q1018 NOSIG",
      "taf": "TAF LZKZ 130515Z 1306/1406 01011KT 9999 FEW040"
    },
    {
      "icao": "LZTT",
      "alert": "OK",
      "vis_m": 9999,
      "fzfg": false,
      "metar_trigger": false,
      "taf_trigger": false,
      "metar": "METAR LZTT 131030Z 08005KT 330V130 9999 FEW026 BKN036 21/12 Q1020 NOSIG",
      "taf": "TAF LZTT 130515Z 1306/1406 27005KT 9999 FEW040"
    },
    {
      "icao": "OEJN",
      "alert": "OK",
      "vis_m": 9999,
      "fzfg": false,
      "metar_trigger": false,
      "taf_trigger": false,
      "metar": "METAR OEJN 131000Z 27009KT CAVOK 35/23 Q1004 NOSIG",
      "taf": "TAF OEJN 130500Z 1306/1412 30014KT CAVOK"
    },
    {
      "icao": "OEMA",
      "alert": "OK",
      "vis_m": 9999,
      "fzfg": false,
      "metar_trigger": false,
      "taf_trigger": false,
      "metar": "METAR OEMA 131000Z 08004KT CAVOK 43/M08 Q1008 NOSIG",
      "taf": "TAF OEMA 130500Z 1306/1412 28012KT CAVOK"
    },
    {
      "icao": "OJAI",
      "alert": "OK",
      "vis_m": 5000,
      "fzfg": false,
      "metar_trigger": false,
      "taf_trigger": false,
      "metar": "METAR OJAI 131000Z 29009KT 5000 HZ NSC 31/14 Q1011 NOSIG",
      "taf": "TAF OJAI 131005Z 1312/1418 29010KT 5000 HZ NSC"
    },
    {
      "icao": "OMAA",
      "alert": "OK",
      "vis_m": 9999,
      "fzfg": false,
      "metar_trigger": false,
      "taf_trigger": false,
      "metar": "METAR OMAA 131030Z 30010KT 270V330 CAVOK 38/21 Q0996 NOSIG",
      "taf": "TAF OMAA 130500Z 1306/1412 23006KT 8000 NSC"
    },
    {
      "icao": "OMDB",
      "alert": "OK",
      "vis_m": 8000,
      "fzfg": false,
      "metar_trigger": false,
      "taf_trigger": false,
      "metar": "METAR OMDB 131030Z 29010KT 240V340 8000 NSC 39/27 Q0996 NOSIG",
      "taf": "TAF OMDB 130500Z 1306/1412 21009KT 9000 NSC"
    },
    {
      "icao": "UAAA",
      "alert": "OK",
      "vis_m": 9999,
      "fzfg": false,
      "metar_trigger": false,
      "taf_trigger": false,
      "metar": "METAR UAAA 131030Z 19004MPS 160V220 9999 BKN050CB OVC100 29/12 Q1007 NOSIG",
      "taf": "TAF UAAA 130502Z 1306/1406 33003MPS 9999 SCT050CB BKN100 TX32/1310Z TN21/1401Z"
    },
    {
      "icao": "UBBB",
      "alert": "OK",
      "vis_m": 9999,
      "fzfg": false,
      "metar_trigger": false,
      "taf_trigger": false,
      "metar": "METAR UBBB 131030Z 34014KT CAVOK 32/17 Q1007 NOSIG",
      "taf": "TAF UBBB 131051Z 1312/1412 32010KT CAVOK TX33/1312Z TN24/1401Z"
    },
    {
      "icao": "UDSG",
      "alert": "OK",
      "vis_m": 9999,
      "fzfg": false,
      "metar_trigger": false,
      "taf_trigger": false,
      "metar": "METAR UDSG 131030Z 05003KT 320V130 9999 SCT049CB 27/16 Q1016 NOSIG",
      "taf": "TAF UDSG 130458Z 1306/1406 07008KT 9999 FEW050"
    },
    {
      "icao": "UDYZ",
      "alert": "OK",
      "vis_m": 9999,
      "fzfg": false,
      "metar_trigger": false,
      "taf_trigger": false,
      "metar": "METAR UDYZ 131030Z 20006KT 150V250 9999 FEW046 34/16 Q1009 NOSIG",
      "taf": "TAF UDYZ 130500Z 1306/1406 16006KT 9999 FEW040"
    },
    {
      "icao": "UGKO",
      "alert": "OK",
      "vis_m": 9999,
      "fzfg": false,
      "metar_trigger": false,
      "taf_trigger": false,
      "metar": "METAR UGKO 131030Z 25006KT 220V290 9999 SCT032 27/19 Q1009 NOSIG",
      "taf": "TAF UGKO 130500Z 1306/1406 08007KT 9999 SCT020 BKN050 TX28/1311Z TN20/1402Z"
    }
  ]
}