{
  "ts_utc": "2026-07-20T14:27:44Z",
  "threshold_m": 150,
  "source": "stations_override.txt (ICAO list) + aviationweather.gov (METAR/TAF raw)",
  "station_count": 159,
  "stations": [
    {
      "icao": "BIKF",
      "alert": "OK",
      "vis_m": 2000,
      "fzfg": false,
      "metar_trigger": false,
      "taf_trigger": false,
      "metar": "METAR BIKF 201400Z 22017KT 2000 -DZ BR OVC005 11/11 Q1024",
      "taf": "TAF BIKF 201356Z 2015/2115 22018KT 3000 -DZ BR OVC004 TX11/2015Z TN10/2106Z"
    },
    {
      "icao": "BKPR",
      "alert": "OK",
      "vis_m": null,
      "fzfg": false,
      "metar_trigger": false,
      "taf_trigger": false,
      "metar": "",
      "taf": "TAF BKPR 201130Z 2012/2112 01008KT 9999 SCT050"
    },
    {
      "icao": "EBCI",
      "alert": "OK",
      "vis_m": 9999,
      "fzfg": false,
      "metar_trigger": false,
      "taf_trigger": false,
      "metar": "METAR EBCI 201420Z 02010KT 340V040 9999 FEW040 20/06 Q1024 NOSIG",
      "taf": "TAF EBCI 201102Z 2012/2118 34008KT 9999 FEW040"
    },
    {
      "icao": "EDDB",
      "alert": "OK",
      "vis_m": 9999,
      "fzfg": false,
      "metar_trigger": false,
      "taf_trigger": false,
      "metar": "METAR EDDB 201420Z AUTO 29017KT 9999 SCT025 19/12 Q1017 TEMPO 29015G25KT SHRA BKN025TCU",
      "taf": "TAF EDDB 201100Z 2012/2112 27013KT 9999 SCT030"
    },
    {
      "icao": "EDDH",
      "alert": "OK",
      "vis_m": 9999,
      "fzfg": false,
      "metar_trigger": false,
      "taf_trigger": false,
      "metar": "METAR EDDH 201420Z AUTO 31012KT CAVOK 19/10 Q1020 NOSIG",
      "taf": "TAF EDDH 201100Z 2012/2118 32011KT 9999 BKN040"
    },
    {
      "icao": "EDDK",
      "alert": "OK",
      "vis_m": 9999,
      "fzfg": false,
      "metar_trigger": false,
      "taf_trigger": false,
      "metar": "METAR EDDK 201420Z AUTO 36006KT 330V040 9999 FEW042 17/10 Q1024 NOSIG",
      "taf": "TAF EDDK 201100Z 2012/2118 34008KT 9999 SCT040"
    },
    {
      "icao": "EDDN",
      "alert": "OK",
      "vis_m": 9999,
      "fzfg": false,
      "metar_trigger": false,
      "taf_trigger": false,
      "metar": "METAR EDDN 201420Z AUTO 33008KT 280V040 CAVOK 20/06 Q1021 NOSIG",
      "taf": "TAF EDDN 201100Z 2012/2112 30008KT CAVOK"
    },
    {
      "icao": "EDDS",
      "alert": "OK",
      "vis_m": 9999,
      "fzfg": false,
      "metar_trigger": false,
      "taf_trigger": false,
      "metar": "METAR EDDS 201420Z AUTO 34009KT 290V040 CAVOK 22/05 Q1021 NOSIG",
      "taf": "TAF EDDS 201100Z 2012/2112 34008KT CAVOK"
    },
    {
      "icao": "EDFH",
      "alert": "OK",
      "vis_m": 9999,
      "fzfg": false,
      "metar_trigger": false,
      "taf_trigger": false,
      "metar": "METAR EDFH 201420Z 34005KT 220V020 CAVOK 18/05 Q1023",
      "taf": "TAF EDFH 201100Z 2012/2112 35008KT 9999 SCT040"
    },
    {
      "icao": "EDJA",
      "alert": "OK",
      "vis_m": 9999,
      "fzfg": false,
      "metar_trigger": false,
      "taf_trigger": false,
      "metar": "METAR EDJA 201420Z VRB04KT CAVOK 22/06 Q1021",
      "taf": "TAF EDJA 201400Z 2015/2024 32006KT 9999 FEW060"
    },
    {
      "icao": "EDLW",
      "alert": "OK",
      "vis_m": 9999,
      "fzfg": false,
      "metar_trigger": false,
      "taf_trigger": false,
      "metar": "METAR EDLW 201420Z 32006KT 260V020 CAVOK 20/08 Q1023",
      "taf": "TAF EDLW 201100Z 2012/2112 34006KT 9999 SCT040"
    },
    {
      "icao": "EDNY",
      "alert": "OK",
      "vis_m": 9999,
      "fzfg": false,
      "metar_trigger": false,
      "taf_trigger": false,
      "metar": "METAR EDNY 201420Z 21006KT 160V250 CAVOK 24/10 Q1020",
      "taf": "TAF EDNY 201400Z 2015/2024 22005KT CAVOK"
    },
    {
      "icao": "EDSB",
      "alert": "OK",
      "vis_m": null,
      "fzfg": false,
      "metar_trigger": false,
      "taf_trigger": false,
      "metar": "",
      "taf": "TAF EDSB 201100Z 2012/2112 01012KT CAVOK"
    },
    {
      "icao": "EETN",
      "alert": "OK",
      "vis_m": 9999,
      "fzfg": false,
      "metar_trigger": false,
      "taf_trigger": false,
      "metar": "METAR EETN 201350Z 06017KT 9999 FEW031 17/11 Q1014 NOSIG",
      "taf": "TAF EETN 201130Z 2012/2112 07015G25KT 9999 BKN025"
    },
    {
      "icao": "EFTU",
      "alert": "OK",
      "vis_m": 9999,
      "fzfg": false,
      "metar_trigger": false,
      "taf_trigger": false,
      "metar": "METAR EFTU 201420Z AUTO 08012KT CAVOK 19/07 Q1016",
      "taf": "TAF EFTU 201124Z 2012/2112 05010KT CAVOK"
    },
    {
      "icao": "EGBB",
      "alert": "OK",
      "vis_m": 9999,
      "fzfg": false,
      "metar_trigger": false,
      "taf_trigger": false,
      "metar": "METAR EGBB 201420Z 34008KT 300V040 CAVOK 25/08 Q1026",
      "taf": "TAF EGBB 201054Z 2012/2112 30004KT 9999 FEW045"
    },
    {
      "icao": "EGGP",
      "alert": "OK",
      "vis_m": 9999,
      "fzfg": false,
      "metar_trigger": false,
      "taf_trigger": false,
      "metar": "METAR EGGP 201420Z 31012KT CAVOK 21/11 Q1028",
      "taf": "TAF EGGP 201058Z 2012/2112 28009KT 9999 FEW025"
    },
    {
      "icao": "EGGW",
      "alert": "OK",
      "vis_m": 9999,
      "fzfg": false,
      "metar_trigger": false,
      "taf_trigger": false,
      "metar": "METAR EGGW 201420Z AUTO 36007KT 290V080 9999 NCD 25/05 Q1026",
      "taf": "TAF EGGW 201054Z 2012/2112 01007KT 9999 FEW045"
    },
    {
      "icao": "EGKK",
      "alert": "OK",
      "vis_m": 9999,
      "fzfg": false,
      "metar_trigger": false,
      "taf_trigger": false,
      "metar": "METAR EGKK 201420Z 01011KT 340V040 CAVOK 25/06 Q1026",
      "taf": "TAF EGKK 201057Z 2012/2118 04010KT 9999 FEW045"
    },
    {
      "icao": "EGNM",
      "alert": "OK",
      "vis_m": 9999,
      "fzfg": false,
      "metar_trigger": false,
      "taf_trigger": false,
      "metar": "METAR EGNM 201420Z 02005KT 330V070 9999 SCT049 22/08 Q1027",
      "taf": "TAF EGNM 201054Z 2012/2112 31006KT 9999 FEW030"
    },
    {
      "icao": "EGPD",
      "alert": "OK",
      "vis_m": 9999,
      "fzfg": false,
      "metar_trigger": false,
      "taf_trigger": false,
      "metar": "METAR EGPD 201420Z 32010KT 290V360 9999 BKN031 20/12 Q1028",
      "taf": "TAF EGPD 201054Z 2012/2112 33010KT 9999 BKN030"
    },
    {
      "icao": "EGPF",
      "alert": "OK",
      "vis_m": 9999,
      "fzfg": false,
      "metar_trigger": false,
      "taf_trigger": false,
      "metar": "METAR EGPF 201420Z AUTO VRB02KT 9999 BKN042 23/13 Q1027",
      "taf": "TAF EGPF 201053Z 2012/2112 29007KT 9999 FEW040"
    },
    {
      "icao": "EHBK",
      "alert": "OK",
      "vis_m": 9999,
      "fzfg": false,
      "metar_trigger": false,
      "taf_trigger": false,
      "metar": "METAR EHBK 201355Z AUTO 02008KT 310V070 9999 NSC 21/08 Q1023 NOSIG",
      "taf": "TAF EHBK 201107Z 2012/2118 36008KT CAVOK"
    },
    {
      "icao": "EHEH",
      "alert": "OK",
      "vis_m": 9999,
      "fzfg": false,
      "metar_trigger": false,
      "taf_trigger": false,
      "metar": "METAR EHEH 201355Z AUTO 32006KT 240V030 9999 OVC071 21/08 Q1024 BLU NOSIG RMK TREND REMOTE BY EHWX",
      "taf": ""
    },
    {
      "icao": "EKBI",
      "alert": "OK",
      "vis_m": 9999,
      "fzfg": false,
      "metar_trigger": false,
      "taf_trigger": false,
      "metar": "METAR EKBI 201420Z AUTO 35011KT 320V020 9999 SCT059/// 21/07 Q1020",
      "taf": "TAF EKBI 201127Z 2012/2112 35012KT 9999 FEW040"
    },
    {
      "icao": "EKCH",
      "alert": "OK",
      "vis_m": 9999,
      "fzfg": false,
      "metar_trigger": false,
      "taf_trigger": false,
      "metar": "METAR EKCH 201420Z AUTO 35014KT 9999 SCT041/// 21/10 Q1017 NOSIG",
      "taf": "TAF EKCH 201127Z 2012/2112 35015KT 9999 SCT030"
    },
    {
      "icao": "ENAL",
      "alert": "OK",
      "vis_m": 9999,
      "fzfg": false,
      "metar_trigger": false,
      "taf_trigger": false,
      "metar": "METAR ENAL 201420Z 32007KT 290V040 CAVOK 15/10 Q1025",
      "taf": "TAF ENAL 201100Z 2012/2021 34008KT 9999 FEW020"
    },
    {
      "icao": "ENBR",
      "alert": "OK",
      "vis_m": 9999,
      "fzfg": false,
      "metar_trigger": false,
      "taf_trigger": false,
      "metar": "METAR ENBR 201420Z 33012KT CAVOK 16/09 Q1023 NOSIG RMK WIND 1200FT 31013KT",
      "taf": "TAF ENBR 201100Z 2012/2112 34012KT 9999 FEW010"
    },
    {
      "icao": "ENGM",
      "alert": "OK",
      "vis_m": 9999,
      "fzfg": false,
      "metar_trigger": false,
      "taf_trigger": false,
      "metar": "METAR ENGM 201350Z 35006KT 300V040 CAVOK 22/03 Q1020 NOSIG",
      "taf": "TAF ENGM 201100Z 2012/2112 02008KT CAVOK"
    },
    {
      "icao": "ENHD",
      "alert": "OK",
      "vis_m": 9999,
      "fzfg": false,
      "metar_trigger": false,
      "taf_trigger": false,
      "metar": "METAR ENHD 201420Z 32016KT CAVOK 15/10 Q1024",
      "taf": "TAF ENHD 201100Z 2012/2021 34015KT 9999 FEW010"
    },
    {
      "icao": "ENTC",
      "alert": "OK",
      "vis_m": 9999,
      "fzfg": false,
      "metar_trigger": false,
      "taf_trigger": false,
      "metar": "METAR ENTC 201420Z 25003KT 190V280 9999 BKN055 12/04 Q1020 TEMPO 04010KT RMK WIND 2600FT 16008KT",
      "taf": ""
    },
    {
      "icao": "ENTO",
      "alert": "OK",
      "vis_m": 9999,
      "fzfg": false,
      "metar_trigger": false,
      "taf_trigger": false,
      "metar": "METAR ENTO 201420Z 02007KT CAVOK 22/05 Q1020 NOSIG",
      "taf": "TAF ENTO 201100Z 2012/2112 03010KT CAVOK"
    },
    {
      "icao": "ENVA",
      "alert": "OK",
      "vis_m": 9999,
      "fzfg": false,
      "metar_trigger": false,
      "taf_trigger": false,
      "metar": "METAR ENVA 201420Z 26010KT CAVOK 18/09 Q1022 NOSIG RMK WIND 670FT 28013KT",
      "taf": "TAF ENVA 201100Z 2012/2112 27010KT CAVOK"
    },
    {
      "icao": "ENZV",
      "alert": "OK",
      "vis_m": 9999,
      "fzfg": false,
      "metar_trigger": false,
      "taf_trigger": false,
      "metar": "METAR ENZV 201420Z 30015KT CAVOK 16/11 Q1023 NOSIG",
      "taf": "TAF ENZV 201100Z 2012/2112 32012KT CAVOK"
    },
    {
      "icao": "EPGD",
      "alert": "OK",
      "vis_m": 9999,
      "fzfg": false,
      "metar_trigger": false,
      "taf_trigger": false,
      "metar": "METAR EPGD 201400Z 25010KT 210V270 9999 SCT045 19/09 Q1011",
      "taf": "TAF EPGD 201130Z 2012/2112 23012KT 9999 SCT035"
    },
    {
      "icao": "EPKK",
      "alert": "OK",
      "vis_m": 9999,
      "fzfg": false,
      "metar_trigger": false,
      "taf_trigger": false,
      "metar": "METAR EPKK 201400Z 28014KT 250V310 9999 FEW040 22/08 Q1017",
      "taf": "TAF EPKK 201130Z 2012/2112 24012KT CAVOK"
    },
    {
      "icao": "EPKT",
      "alert": "OK",
      "vis_m": 9999,
      "fzfg": false,
      "metar_trigger": false,
      "taf_trigger": false,
      "metar": "METAR EPKT 201400Z 27015KT CAVOK 20/07 Q1017",
      "taf": "TAF EPKT 201130Z 2012/2112 24012KT CAVOK"
    },
    {
      "icao": "EPLB",
      "alert": "OK",
      "vis_m": 9999,
      "fzfg": false,
      "metar_trigger": false,
      "taf_trigger": false,
      "metar": "METAR EPLB 201400Z 29012KT CAVOK 22/09 Q1015",
      "taf": "TAF EPLB 201130Z 2012/2112 27013KT CAVOK"
    },
    {
      "icao": "EPMO",
      "alert": "OK",
      "vis_m": 9999,
      "fzfg": false,
      "metar_trigger": false,
      "taf_trigger": false,
      "metar": "METAR EPMO 201400Z 25016KT 9999 FEW050CB 18/11 Q1015",
      "taf": "TAF EPMO 201130Z 2012/2112 25015KT 9999 SCT045"
    },
    {
      "icao": "EPPO",
      "alert": "OK",
      "vis_m": 9999,
      "fzfg": false,
      "metar_trigger": false,
      "taf_trigger": false,
      "metar": "METAR EPPO 201400Z 25013KT 220V280 9999 -SHRA SCT025CB SCT028 16/13 Q1015 RESHRA",
      "taf": "TAF EPPO 201130Z 2012/2112 26014KT 9999 BKN030"
    },
    {
      "icao": "EPRA",
      "alert": "OK",
      "vis_m": 9999,
      "fzfg": false,
      "metar_trigger": false,
      "taf_trigger": false,
      "metar": "METAR EPRA 201400Z 27017KT CAVOK 22/07 Q1015",
      "taf": "TAF EPRA 201130Z 2012/2021 27012KT 9999 SCT040"
    },
    {
      "icao": "EPRZ",
      "alert": "OK",
      "vis_m": 9999,
      "fzfg": false,
      "metar_trigger": false,
      "taf_trigger": false,
      "metar": "METAR EPRZ 201400Z 27013KT CAVOK 24/05 Q1016",
      "taf": "TAF EPRZ 201130Z 2012/2112 27012KT CAVOK"
    },
    {
      "icao": "EPSC",
      "alert": "OK",
      "vis_m": 9999,
      "fzfg": false,
      "metar_trigger": false,
      "taf_trigger": false,
      "metar": "METAR EPSC 201400Z 30014KT 9999 -SHRA SCT011CB BKN048 16/16 Q1014",
      "taf": "TAF EPSC 201130Z 2012/2112 23008KT 9999 BKN035"
    },
    {
      "icao": "EPSY",
      "alert": "OK",
      "vis_m": 9999,
      "fzfg": false,
      "metar_trigger": false,
      "taf_trigger": false,
      "metar": "METAR EPSY 201400Z 23017KT 190V260 9999 SCT042 19/10 Q1013",
      "taf": "TAF EPSY 201130Z 2012/2021 24010KT 9999 SCT030"
    },
    {
      "icao": "EPWA",
      "alert": "OK",
      "vis_m": 9999,
      "fzfg": false,
      "metar_trigger": false,
      "taf_trigger": false,
      "metar": "METAR EPWA 201400Z 25015KT 9999 FEW040TCU 19/10 Q1015 TEMPO 3000 TSRA",
      "taf": "TAF EPWA 201130Z 2012/2112 25015KT CAVOK"
    },
    {
      "icao": "EPWR",
      "alert": "OK",
      "vis_m": 9999,
      "fzfg": false,
      "metar_trigger": false,
      "taf_trigger": false,
      "metar": "METAR EPWR 201400Z 27016KT CAVOK 19/09 Q1017",
      "taf": "TAF EPWR 201130Z 2012/2112 27015KT 9999 SCT045"
    },
    {
      "icao": "ESGG",
      "alert": "OK",
      "vis_m": 9999,
      "fzfg": false,
      "metar_trigger": false,
      "taf_trigger": false,
      "metar": "METAR ESGG 201420Z 02017KT CAVOK 20/06 Q1018",
      "taf": "TAF ESGG 201130Z 2012/2112 02015KT CAVOK"
    },
    {
      "icao": "ESKN",
      "alert": "OK",
      "vis_m": 9999,
      "fzfg": false,
      "metar_trigger": false,
      "taf_trigger": false,
      "metar": "METAR ESKN 201420Z 02009KT 340V060 CAVOK 16/05 Q1017",
      "taf": "TAF ESKN 201130Z 2012/2112 02012KT CAVOK"
    },
    {
      "icao": "ESMS",
      "alert": "OK",
      "vis_m": 9999,
      "fzfg": false,
      "metar_trigger": false,
      "taf_trigger": false,
      "metar": "METAR ESMS 201420Z 35007KT 9999 SCT044 17/12 Q1016",
      "taf": "TAF ESMS 201127Z 2012/2112 35012KT 9999 BKN012"
    },
    {
      "icao": "ESSA",
      "alert": "OK",
      "vis_m": 9999,
      "fzfg": false,
      "metar_trigger": false,
      "taf_trigger": false,
      "metar": "METAR ESSA 201420Z 02018KT CAVOK 17/02 Q1018 NOSIG",
      "taf": "TAF ESSA 201130Z 2012/2112 03015G25KT CAVOK"
    },
    {
      "icao": "EYKA",
      "alert": "OK",
      "vis_m": 9999,
      "fzfg": false,
      "metar_trigger": false,
      "taf_trigger": false,
      "metar": "METAR EYKA 201420Z 26013KT 230V290 9999 SCT042 20/12 Q1011",
      "taf": "TAF EYKA 201100Z 2012/2112 25010KT 9000 SCT030"
    },
    {
      "icao": "EYPA",
      "alert": "OK",
      "vis_m": 9999,
      "fzfg": false,
      "metar_trigger": false,
      "taf_trigger": false,
      "metar": "METAR EYPA 201420Z 28005KT 220V350 9999 SCT013 BKN025 18/14 Q1009",
      "taf": "TAF EYPA 201100Z 2012/2112 VRB03KT 9000 SCT030"
    },
    {
      "icao": "EYVI",
      "alert": "OK",
      "vis_m": 9999,
      "fzfg": false,
      "metar_trigger": false,
      "taf_trigger": false,
      "metar": "METAR EYVI 201420Z 25010KT 9999 SCT037 20/13 Q1011 NOSIG",
      "taf": "TAF EYVI 201100Z 2012/2112 26010G20KT 9000 BKN020"
    },
    {
      "icao": "GCFV",
      "alert": "OK",
      "vis_m": 9999,
      "fzfg": false,
      "metar_trigger": false,
      "taf_trigger": false,
      "metar": "METAR GCFV 201400Z 04022KT 9999 FEW020 26/20 Q1016",
      "taf": "TAF GCFV 201400Z 2015/2115 04020KT 9999 FEW020 TX27/2114Z TN22/2106Z"
    },
    {
      "icao": "GCLP",
      "alert": "OK",
      "vis_m": 9999,
      "fzfg": false,
      "metar_trigger": false,
      "taf_trigger": false,
      "metar": "METAR GCLP 201400Z 02031KT 9999 FEW020 28/19 Q1016 NOSIG",
      "taf": "TAF GCLP 201400Z 2015/2115 02027KT 9999 FEW025 TX28/2114Z TN22/2106Z"
    },
    {
      "icao": "GCTS",
      "alert": "OK",
      "vis_m": 9999,
      "fzfg": false,
      "metar_trigger": false,
      "taf_trigger": false,
      "metar": "METAR GCTS 201400Z 07024KT 9999 FEW020 29/17 Q1016 WS R07 NOSIG",
      "taf": "TAF GCTS 201400Z 2015/2115 08022KT 9999 FEW020 TX30/2114Z TN22/2106Z"
    },
    {
      "icao": "GMAD",
      "alert": "OK",
      "vis_m": 8000,
      "fzfg": false,
      "metar_trigger": false,
      "taf_trigger": false,
      "metar": "METAR GMAD 201400Z 22009KT 180V260 8000 NSC 31/18 Q1011 NOSIG",
      "taf": "TAF GMAD 201100Z 2012/2118 28010KT 8000 NSC"
    },
    {
      "icao": "GMMN",
      "alert": "OK",
      "vis_m": 9999,
      "fzfg": false,
      "metar_trigger": false,
      "taf_trigger": false,
      "metar": "METAR GMMN 201400Z 01012KT 330V030 CAVOK 28/18 Q1016 NOSIG",
      "taf": "TAF GMMN 201100Z 2012/2118 36014KT CAVOK"
    },
    {
      "icao": "GMMX",
      "alert": "OK",
      "vis_m": 9999,
      "fzfg": false,
      "metar_trigger": false,
      "taf_trigger": false,
      "metar": "METAR GMMX 201330Z VRB05KT CAVOK 36/19 Q1015 NOSIG",
      "taf": "TAF GMMX 201100Z 2012/2118 32006KT 8000 SCT100"
    },
    {
      "icao": "HEGN",
      "alert": "OK",
      "vis_m": 9999,
      "fzfg": false,
      "metar_trigger": false,
      "taf_trigger": false,
      "metar": "METAR HEGN 201400Z 01010KT CAVOK 39/07 Q1006 NOSIG",
      "taf": "TAF HEGN 201100Z 2012/2118 02015KT CAVOK"
    },
    {
      "icao": "HEMA",
      "alert": "OK",
      "vis_m": 9999,
      "fzfg": false,
      "metar_trigger": false,
      "taf_trigger": false,
      "metar": "METAR HEMA 201400Z 34012KT CAVOK 35/16 Q1006 NOSIG",
      "taf": "TAF HEMA 201100Z 2012/2118 34010G22KT CAVOK"
    },
    {
      "icao": "HESH",
      "alert": "OK",
      "vis_m": 9999,
      "fzfg": false,
      "metar_trigger": false,
      "taf_trigger": false,
      "metar": "METAR HESH 201400Z 02011KT CAVOK 38/12 Q1006 NOSIG",
      "taf": "TAF HESH 201100Z 2012/2118 03013KT CAVOK"
    },
    {
      "icao": "HESX",
      "alert": "OK",
      "vis_m": 9999,
      "fzfg": false,
      "metar_trigger": false,
      "taf_trigger": false,
      "metar": "METAR HESX 201400Z 04007KT CAVOK 36/14 Q1009 NOSIG",
      "taf": "TAF HESX 201100Z 2012/2118 36010KT CAVOK"
    },
    {
      "icao": "LATI",
      "alert": "OK",
      "vis_m": 9999,
      "fzfg": false,
      "metar_trigger": false,
      "taf_trigger": false,
      "metar": "METAR LATI 201420Z 26010KT 230V290 CAVOK 35/19 Q1012 NOSIG",
      "taf": "TAF LATI 201100Z 2012/2112 34012KT CAVOK TX39/2112Z TN22/2104Z"
    },
    {
      "icao": "LBPD",
      "alert": "OK",
      "vis_m": 9999,
      "fzfg": false,
      "metar_trigger": false,
      "taf_trigger": false,
      "metar": "METAR LBPD 201400Z AUTO VRB05KT 9999 SCT078 //////CB 36/17 Q1013 NOSIG",
      "taf": "TAF LBPD 201100Z 2012/2112 10010KT 9999 SCT070"
    },
    {
      "icao": "LBSF",
      "alert": "OK",
      "vis_m": 9999,
      "fzfg": false,
      "metar_trigger": false,
      "taf_trigger": false,
      "metar": "METAR LBSF 201400Z 28012KT 9999 FEW069 31/11 Q1016 NOSIG",
      "taf": ""
    },
    {
      "icao": "LBWN",
      "alert": "OK",
      "vis_m": 9999,
      "fzfg": false,
      "metar_trigger": false,
      "taf_trigger": false,
      "metar": "METAR LBWN 201400Z 12010KT 9999 VCTS FEW033CB SCT045 26/20 Q1014 NOSIG",
      "taf": "TAF LBWN 201100Z 2012/2112 12012KT 9999 SCT045"
    },
    {
      "icao": "LCLK",
      "alert": "OK",
      "vis_m": 9999,
      "fzfg": false,
      "metar_trigger": false,
      "taf_trigger": false,
      "metar": "METAR LCLK 201400Z 22019KT 9999 FEW030 33/25 Q1007 NOSIG",
      "taf": "TAF LCLK 201130Z 2012/2112 21018KT 9999 FEW030"
    },
    {
      "icao": "LCPH",
      "alert": "OK",
      "vis_m": 9999,
      "fzfg": false,
      "metar_trigger": false,
      "taf_trigger": false,
      "metar": "METAR LCPH 201400Z AUTO 31014KT 250V320 9999 NCD 30/26 Q1008 NOSIG",
      "taf": "TAF LCPH 201130Z 2012/2112 29014KT 9999 FEW012"
    },
    {
      "icao": "LEAL",
      "alert": "OK",
      "vis_m": 9999,
      "fzfg": false,
      "metar_trigger": false,
      "taf_trigger": false,
      "metar": "METAR LEAL 201400Z 10005KT 040V140 CAVOK 33/24 Q1014 NOSIG",
      "taf": "TAF LEAL 201100Z 2012/2112 10009KT 9999 SCT020 TX36/2016Z TN25/2106Z"
    },
    {
      "icao": "LEBB",
      "alert": "OK",
      "vis_m": 9999,
      "fzfg": false,
      "metar_trigger": false,
      "taf_trigger": false,
      "metar": "METAR LEBB 201400Z 35007KT 250V030 CAVOK 28/18 Q1016 NOSIG",
      "taf": "TAF LEBB 201100Z 2012/2112 35009KT 9999 SCT025 TX30/2012Z TN19/2105Z"
    },
    {
      "icao": "LEBL",
      "alert": "OK",
      "vis_m": 9999,
      "fzfg": false,
      "metar_trigger": false,
      "taf_trigger": false,
      "metar": "METAR LEBL 201400Z 11009KT 060V160 CAVOK 31/23 Q1014 NOSIG",
      "taf": "TAF LEBL 201100Z 2012/2112 12010KT 9999 FEW060 TX33/2012Z TN25/2105Z"
    },
    {
      "icao": "LECH",
      "alert": "OK",
      "vis_m": 9000,
      "fzfg": false,
      "metar_trigger": false,
      "taf_trigger": false,
      "metar": "METAR LECH 201400Z AUTO 10010KT 060V140 9000 NCD 30/22 Q1015",
      "taf": "TAF LECH 201100Z 2012/2112 12008KT 9999 BKN020 TX35/2013Z TN22/2106Z"
    },
    {
      "icao": "LEMD",
      "alert": "OK",
      "vis_m": 9999,
      "fzfg": false,
      "metar_trigger": false,
      "taf_trigger": false,
      "metar": "METAR LEMD 201400Z 21008KT 130V280 CAVOK 34/05 Q1016 NOSIG",
      "taf": ""
    },
    {
      "icao": "LEMG",
      "alert": "OK",
      "vis_m": 9999,
      "fzfg": false,
      "metar_trigger": false,
      "taf_trigger": false,
      "metar": "METAR LEMG 201400Z 13012KT CAVOK 33/13 Q1013 NOSIG",
      "taf": "TAF LEMG 201100Z 2012/2112 15010KT CAVOK TX36/2015Z TN24/2105Z"
    },
    {
      "icao": "LEVC",
      "alert": "OK",
      "vis_m": 9999,
      "fzfg": false,
      "metar_trigger": false,
      "taf_trigger": false,
      "metar": "METAR LEVC 201400Z 11008KT 070V160 CAVOK 32/25 Q1013 NOSIG",
      "taf": "TAF LEVC 201100Z 2012/2112 11008KT 9999 SCT020 TX35/2013Z TN25/2106Z"
    },
    {
      "icao": "LEXJ",
      "alert": "OK",
      "vis_m": 9999,
      "fzfg": false,
      "metar_trigger": false,
      "taf_trigger": false,
      "metar": "METAR LEXJ 201400Z 07006KT 350V140 CAVOK 26/19 Q1017",
      "taf": "TAF LEXJ 201400Z 2015/2115 05009KT CAVOK TX28/2110Z TN20/2103Z"
    },
    {
      "icao": "LEZG",
      "alert": "OK",
      "vis_m": 9999,
      "fzfg": false,
      "metar_trigger": false,
      "taf_trigger": false,
      "metar": "METAR LEZG 201400Z 09004KT CAVOK 37/10 Q1012 NOSIG",
      "taf": "TAF LEZG 201100Z 2012/2112 VRB03KT CAVOK TX40/2014Z TN23/2106Z"
    },
    {
      "icao": "LEZL",
      "alert": "OK",
      "vis_m": 9999,
      "fzfg": false,
      "metar_trigger": false,
      "taf_trigger": false,
      "metar": "METAR LEZL 201400Z 29004KT CAVOK 35/10 Q1014 NOSIG",
      "taf": "TAF LEZL 201400Z 2015/2115 23010KT CAVOK TX37/2015Z TN21/2105Z"
    },
    {
      "icao": "LFBD",
      "alert": "OK",
      "vis_m": 9999,
      "fzfg": false,
      "metar_trigger": false,
      "taf_trigger": false,
      "metar": "METAR LFBD 201400Z AUTO 06009KT 350V080 9999 FEW012 31/07 Q1016 NOSIG",
      "taf": "TAF LFBD 201100Z 2012/2118 03010KT CAVOK TX34/2015Z TN19/2105Z"
    },
    {
      "icao": "LFLL",
      "alert": "OK",
      "vis_m": 9999,
      "fzfg": false,
      "metar_trigger": false,
      "taf_trigger": false,
      "metar": "METAR LFLL 201400Z 35011KT 310V010 CAVOK 28/08 Q1018 NOSIG",
      "taf": "TAF LFLL 201100Z 2012/2118 35010KT CAVOK"
    },
    {
      "icao": "LFLS",
      "alert": "OK",
      "vis_m": 9999,
      "fzfg": false,
      "metar_trigger": false,
      "taf_trigger": false,
      "metar": "METAR LFLS 201400Z AUTO VRB08KT CAVOK 28/09 Q1018 NOSIG",
      "taf": "TAF LFLS 201400Z 2015/2115 35010KT CAVOK"
    },
    {
      "icao": "LFMN",
      "alert": "OK",
      "vis_m": 9999,
      "fzfg": false,
      "metar_trigger": false,
      "taf_trigger": false,
      "metar": "METAR LFMN 201400Z 12006KT 9999 FEW016 SCT260 30/25 Q1013 NOSIG",
      "taf": "TAF LFMN 201400Z 2015/2121 14006KT 9999 FEW016"
    },
    {
      "icao": "LFOB",
      "alert": "OK",
      "vis_m": 9999,
      "fzfg": false,
      "metar_trigger": false,
      "taf_trigger": false,
      "metar": "METAR LFOB 201400Z AUTO 03011KT 360V070 CAVOK 23/07 Q1024 NOSIG",
      "taf": "TAF LFOB 201100Z 2012/2112 01010KT CAVOK"
    },
    {
      "icao": "LFPO",
      "alert": "OK",
      "vis_m": 9999,
      "fzfg": false,
      "metar_trigger": false,
      "taf_trigger": false,
      "metar": "METAR LFPO 201400Z 02013KT 350V070 CAVOK 23/08 Q1023 NOSIG",
      "taf": "TAF LFPO 201100Z 2012/2118 03012KT CAVOK"
    },
    {
      "icao": "LFSB",
      "alert": "OK",
      "vis_m": 9999,
      "fzfg": false,
      "metar_trigger": false,
      "taf_trigger": false,
      "metar": "METAR LFSB 201400Z AUTO 36009KT 320V080 CAVOK 26/07 Q1020 NOSIG",
      "taf": "TAF LFSB 201100Z 2012/2112 36008KT CAVOK"
    },
    {
      "icao": "LGAV",
      "alert": "OK",
      "vis_m": 9999,
      "fzfg": false,
      "metar_trigger": false,
      "taf_trigger": false,
      "metar": "METAR LGAV 201420Z 04009KT 010V080 CAVOK 36/15 Q1013 NOSIG",
      "taf": "TAF LGAV 201100Z 2012/2112 06012KT 9999 FEW025"
    },
    {
      "icao": "LGTS",
      "alert": "OK",
      "vis_m": 9999,
      "fzfg": false,
      "metar_trigger": false,
      "taf_trigger": false,
      "metar": "METAR LGTS 201420Z 19011KT 9999 FEW025 35/19 Q1012 NOSIG",
      "taf": "TAF LGTS 201100Z 2012/2112 18013KT 9999 FEW030"
    },
    {
      "icao": "LHBP",
      "alert": "OK",
      "vis_m": 9999,
      "fzfg": false,
      "metar_trigger": false,
      "taf_trigger": false,
      "metar": "METAR LHBP 201400Z 31011KT CAVOK 28/06 Q1017 NOSIG",
      "taf": "TAF LHBP 201115Z 2012/2112 30013G23KT CAVOK"
    },
    {
      "icao": "LHDC",
      "alert": "OK",
      "vis_m": 9999,
      "fzfg": false,
      "metar_trigger": false,
      "taf_trigger": false,
      "metar": "METAR LHDC 201345Z AUTO 28010KT 230V330 CAVOK 29/08 Q1016 NOSIG",
      "taf": "TAF LHDC 201415Z 2015/2024 28009KT CAVOK"
    },
    {
      "icao": "LIBD",
      "alert": "OK",
      "vis_m": 9999,
      "fzfg": false,
      "metar_trigger": false,
      "taf_trigger": false,
      "metar": "METAR LIBD 201420Z 06005KT 030V120 CAVOK 33/23 Q1012",
      "taf": "TAF LIBD 201100Z 2012/2112 08012KT CAVOK"
    },
    {
      "icao": "LIBG",
      "alert": "OK",
      "vis_m": 9999,
      "fzfg": false,
      "metar_trigger": false,
      "taf_trigger": false,
      "metar": "METAR LIBG 201420Z 25004KT CAVOK 39/16 Q1011",
      "taf": "TAF LIBG 201100Z 2012/2112 22010KT CAVOK"
    },
    {
      "icao": "LIBP",
      "alert": "OK",
      "vis_m": 9999,
      "fzfg": false,
      "metar_trigger": false,
      "taf_trigger": false,
      "metar": "METAR LIBP 201420Z AUTO 05006KT 360V090 9999 NCD 31/24 Q1013",
      "taf": "TAF LIBP 201100Z 2012/2112 06010KT CAVOK"
    },
    {
      "icao": "LIBR",
      "alert": "OK",
      "vis_m": 9999,
      "fzfg": false,
      "metar_trigger": false,
      "taf_trigger": false,
      "metar": "METAR LIBR 201420Z 04006KT CAVOK 30/26 Q1012",
      "taf": "TAF LIBR 201100Z 2012/2112 11012KT CAVOK"
    },
    {
      "icao": "LICA",
      "alert": "OK",
      "vis_m": 9999,
      "fzfg": false,
      "metar_trigger": false,
      "taf_trigger": false,
      "metar": "METAR LICA 201420Z AUTO 23009KT 9999 FEW095/// 36/09 Q1013",
      "taf": "TAF LICA 201100Z 2012/2112 28012KT CAVOK"
    },
    {
      "icao": "LICC",
      "alert": "OK",
      "vis_m": 9999,
      "fzfg": false,
      "metar_trigger": false,
      "taf_trigger": false,
      "metar": "METAR LICC 201420Z 07011KT CAVOK 35/18 Q1013",
      "taf": "TAF LICC 201100Z 2012/2112 09012KT CAVOK"
    },
    {
      "icao": "LICJ",
      "alert": "OK",
      "vis_m": 9999,
      "fzfg": false,
      "metar_trigger": false,
      "taf_trigger": false,
      "metar": "METAR LICJ 201420Z 34004KT CAVOK 32/26 Q1014",
      "taf": "TAF LICJ 201100Z 2012/2112 29012KT CAVOK"
    },
    {
      "icao": "LIMC",
      "alert": "OK",
      "vis_m": 9999,
      "fzfg": false,
      "metar_trigger": false,
      "taf_trigger": false,
      "metar": "METAR LIMC 201420Z 10005KT 040V200 CAVOK 30/15 Q1014 NOSIG",
      "taf": "TAF LIMC 201100Z 2012/2118 12010KT 9999 FEW050"
    },
    {
      "icao": "LIME",
      "alert": "OK",
      "vis_m": 9999,
      "fzfg": false,
      "metar_trigger": false,
      "taf_trigger": false,
      "metar": "METAR LIME 201420Z VRB04KT CAVOK 28/14 Q1015 NOSIG",
      "taf": "TAF LIME 201100Z 2012/2112 13010KT 9999 SCT030"
    },
    {
      "icao": "LIMF",
      "alert": "OK",
      "vis_m": 9999,
      "fzfg": false,
      "metar_trigger": false,
      "taf_trigger": false,
      "metar": "METAR LIMF 201420Z 10007KT 060V120 9999 FEW030 30/18 Q1015",
      "taf": "TAF LIMF 201100Z 2012/2112 08010KT 9999 SCT030"
    },
    {
      "icao": "LIMJ",
      "alert": "OK",
      "vis_m": 9999,
      "fzfg": false,
      "metar_trigger": false,
      "taf_trigger": false,
      "metar": "METAR LIMJ 201420Z 24004KT 200V260 9999 FEW030 29/25 Q1013",
      "taf": "TAF LIMJ 201100Z 2012/2112 22010KT 9999 SCT030"
    },
    {
      "icao": "LIPE",
      "alert": "OK",
      "vis_m": 9999,
      "fzfg": false,
      "metar_trigger": false,
      "taf_trigger": false,
      "metar": "METAR LIPE 201420Z 09005KT 060V180 CAVOK 28/20 Q1014",
      "taf": "TAF LIPE 201100Z 2012/2112 11010KT CAVOK"
    },
    {
      "icao": "LIPH",
      "alert": "OK",
      "vis_m": 9999,
      "fzfg": false,
      "metar_trigger": false,
      "taf_trigger": false,
      "metar": "METAR LIPH 201420Z 16005KT 120V230 CAVOK 30/15 Q1014",
      "taf": "TAF LIPH 201100Z 2012/2112 04007KT 9999 SCT030"
    },
    {
      "icao": "LIPQ",
      "alert": "OK",
      "vis_m": 9999,
      "fzfg": false,
      "metar_trigger": false,
      "taf_trigger": false,
      "metar": "METAR LIPQ 201420Z AUTO 16007KT 090V200 9999 NCD 31/13 Q1014",
      "taf": "TAF LIPQ 201100Z 2012/2112 08007KT CAVOK"
    },
    {
      "icao": "LIPR",
      "alert": "OK",
      "vis_m": 9999,
      "fzfg": false,
      "metar_trigger": false,
      "taf_trigger": false,
      "metar": "METAR LIPR 201420Z 06009KT 9999 FEW020 28/21 Q1014",
      "taf": "TAF LIPR 201100Z 2012/2112 02010KT CAVOK"
    },
    {
      "icao": "LIPX",
      "alert": "OK",
      "vis_m": 9999,
      "fzfg": false,
      "metar_trigger": false,
      "taf_trigger": false,
      "metar": "METAR LIPX 201420Z 11006KT 070V150 CAVOK 30/15 Q1014",
      "taf": "TAF LIPX 201100Z 2012/2112 10010KT 9999 FEW040"
    },
    {
      "icao": "LIPY",
      "alert": "OK",
      "vis_m": 9999,
      "fzfg": false,
      "metar_trigger": false,
      "taf_trigger": false,
      "metar": "METAR LIPY 201420Z AUTO 06011KT 9999 FEW230/// 30/21 Q1014",
      "taf": "TAF LIPY 201100Z 2012/2112 05010KT CAVOK"
    },
    {
      "icao": "LIPZ",
      "alert": "OK",
      "vis_m": 9999,
      "fzfg": false,
      "metar_trigger": false,
      "taf_trigger": false,
      "metar": "METAR LIPZ 201420Z 14004KT 100V200 CAVOK 28/15 Q1014 NOSIG",
      "taf": "TAF LIPZ 201100Z 2012/2118 03010KT 9999 FEW030"
    },
    {
      "icao": "LIRF",
      "alert": "OK",
      "vis_m": 9999,
      "fzfg": false,
      "metar_trigger": false,
      "taf_trigger": false,
      "metar": "METAR LIRF 201420Z 23010KT CAVOK 32/24 Q1013 NOSIG",
      "taf": "TAF LIRF 201100Z 2012/2118 25012KT CAVOK"
    },
    {
      "icao": "LIRN",
      "alert": "OK",
      "vis_m": 9999,
      "fzfg": false,
      "metar_trigger": false,
      "taf_trigger": false,
      "metar": "METAR LIRN 201420Z 18006KT 140V210 CAVOK 34/22 Q1014 NOSIG",
      "taf": "TAF LIRN 201100Z 2012/2112 23010KT CAVOK"
    },
    {
      "icao": "LIRP",
      "alert": "OK",
      "vis_m": 9999,
      "fzfg": false,
      "metar_trigger": false,
      "taf_trigger": false,
      "metar": "METAR LIRP 201415Z 24008KT CAVOK 32/23 Q1013 NOSIG",
      "taf": "TAF LIRP 201100Z 2012/2112 24010KT 9999 SCT030"
    },
    {
      "icao": "LIRZ",
      "alert": "OK",
      "vis_m": 9999,
      "fzfg": false,
      "metar_trigger": false,
      "taf_trigger": false,
      "metar": "METAR LIRZ 201420Z AUTO 28010KT 250V340 9999 FEW081/// 37/16 Q1013",
      "taf": "TAF LIRZ 201100Z 2012/2112 28012KT 9999 FEW040"
    },
    {
      "icao": "LJLJ",
      "alert": "OK",
      "vis_m": 9999,
      "fzfg": false,
      "metar_trigger": false,
      "taf_trigger": false,
      "metar": "METAR LJLJ 201400Z 11006KT 080V190 9999 FEW060 25/13 Q1018 NOSIG",
      "taf": "TAF LJLJ 201100Z 2012/2112 12005KT 9999 FEW050"
    },
    {
      "icao": "LKMT",
      "alert": "OK",
      "vis_m": 9999,
      "fzfg": false,
      "metar_trigger": false,
      "taf_trigger": false,
      "metar": "METAR LKMT 201400Z 25011KT CAVOK 22/06 Q1017 NOSIG",
      "taf": "TAF LKMT 201100Z 2012/2112 25010KT CAVOK"
    },
    {
      "icao": "LKPR",
      "alert": "OK",
      "vis_m": 9999,
      "fzfg": false,
      "metar_trigger": false,
      "taf_trigger": false,
      "metar": "METAR LKPR 201400Z 30013KT CAVOK 20/06 Q1019 NOSIG",
      "taf": "TAF LKPR 201400Z 2015/2121 28008KT CAVOK"
    },
    {
      "icao": "LLBG",
      "alert": "OK",
      "vis_m": 9999,
      "fzfg": false,
      "metar_trigger": false,
      "taf_trigger": false,
      "metar": "METAR LLBG 201420Z 32010KT 9999 FEW025 31/21 Q1009 NOSIG",
      "taf": "TAF LLBG 201104Z 2012/2112 30012KT CAVOK TX33/2012Z TN24/2103Z"
    },
    {
      "icao": "LMML",
      "alert": "OK",
      "vis_m": 9999,
      "fzfg": false,
      "metar_trigger": false,
      "taf_trigger": false,
      "metar": "METAR LMML 201415Z 20009KT 160V220 CAVOK 38/18 Q1014",
      "taf": "TAF LMML 200500Z 2006/2106 28009KT CAVOK"
    },
    {
      "icao": "LOWW",
      "alert": "OK",
      "vis_m": 9999,
      "fzfg": false,
      "metar_trigger": false,
      "taf_trigger": false,
      "metar": "METAR LOWW 201420Z 29012KT 250V320 CAVOK 28/04 Q1017 NOSIG",
      "taf": "TAF LOWW 201415Z 2015/2121 27012KT CAVOK TX26/2015Z TN13/2103Z"
    },
    {
      "icao": "LPFR",
      "alert": "OK",
      "vis_m": 9999,
      "fzfg": false,
      "metar_trigger": false,
      "taf_trigger": false,
      "metar": "METAR LPFR 201400Z 21007KT 170V240 CAVOK 25/18 Q1016",
      "taf": "TAF LPFR 201100Z 2012/2112 20008KT CAVOK"
    },
    {
      "icao": "LPMA",
      "alert": "OK",
      "vis_m": 9999,
      "fzfg": false,
      "metar_trigger": false,
      "taf_trigger": false,
      "metar": "METAR LPMA 201400Z 02011KT 320V060 9999 FEW015 27/18 Q1021",
      "taf": "TAF LPMA 201100Z 2012/2112 02010KT 9999 SCT015"
    },
    {
      "icao": "LPPR",
      "alert": "OK",
      "vis_m": 9999,
      "fzfg": false,
      "metar_trigger": false,
      "taf_trigger": false,
      "metar": "METAR LPPR 201400Z 22010KT 190V250 9999 SCT012 24/19 Q1017",
      "taf": "TAF LPPR 201100Z 2012/2112 20010KT 9999 SCT025"
    },
    {
      "icao": "LPPS",
      "alert": "OK",
      "vis_m": 9999,
      "fzfg": false,
      "metar_trigger": false,
      "taf_trigger": false,
      "metar": "METAR LPPS 201400Z 01014KT 350V050 9999 FEW015 25/18 Q1022",
      "taf": "TAF LPPS 201100Z 2012/2118 02012KT 9999 SCT015"
    },
    {
      "icao": "LPPT",
      "alert": "OK",
      "vis_m": 9999,
      "fzfg": false,
      "metar_trigger": false,
      "taf_trigger": false,
      "metar": "METAR LPPT 201400Z 31009KT 270V350 9999 FEW040 26/15 Q1017 NOSIG",
      "taf": "TAF LPPT 201100Z 2012/2118 31010KT 9999 FEW030"
    },
    {
      "icao": "LQBK",
      "alert": "OK",
      "vis_m": 9999,
      "fzfg": false,
      "metar_trigger": false,
      "taf_trigger": false,
      "metar": "METAR LQBK 201400Z 12004KT 090V160 CAVOK 21/16 Q1018 NOSIG",
      "taf": ""
    },
    {
      "icao": "LQSA",
      "alert": "OK",
      "vis_m": 9999,
      "fzfg": false,
      "metar_trigger": false,
      "taf_trigger": false,
      "metar": "METAR LQSA 201400Z 30007KT 260V330 9999 -TSRA FEW035CB BKN050 20/17 Q1020 NOSIG",
      "taf": "TAF LQSA 201100Z 2012/2112 35005KT 9999 SCT050 TX29/2013Z TN16/2103Z"
    },
    {
      "icao": "LQTZ",
      "alert": "OK",
      "vis_m": 4000,
      "fzfg": false,
      "metar_trigger": false,
      "taf_trigger": false,
      "metar": "METAR LQTZ 201400Z 29015KT 4000 TSRA FEW035CB OVC040 19/18 Q1021",
      "taf": ""
    },
    {
      "icao": "LRBC",
      "alert": "OK",
      "vis_m": 9999,
      "fzfg": false,
      "metar_trigger": false,
      "taf_trigger": false,
      "metar": "METAR LRBC 201400Z 35012KT 9999 SCT031CB BKN062 21/19 Q1015 RETSRA",
      "taf": ""
    },
    {
      "icao": "LRBS",
      "alert": "OK",
      "vis_m": 9999,
      "fzfg": false,
      "metar_trigger": false,
      "taf_trigger": false,
      "metar": "METAR LRBS 201400Z 25007KT 220V290 9999 FEW044CB 32/20 Q1013 NOSIG",
      "taf": "TAF LRBS 201100Z 2012/2112 VRB04KT CAVOK"
    },
    {
      "icao": "LRBV",
      "alert": "OK",
      "vis_m": 9999,
      "fzfg": false,
      "metar_trigger": false,
      "taf_trigger": false,
      "metar": "METAR LRBV 201400Z 16006KT 9999 VCSH FEW034 SCT037CB BKN048 22/19 Q1017",
      "taf": "TAF LRBV 201100Z 2012/2021 30012KT 9999 SCT030"
    },
    {
      "icao": "LRCL",
      "alert": "OK",
      "vis_m": 9999,
      "fzfg": false,
      "metar_trigger": false,
      "taf_trigger": false,
      "metar": "METAR LRCL 201400Z 33011KT 280V030 CAVOK 28/11 Q1016",
      "taf": "TAF LRCL 201100Z 2012/2021 35010KT 9999 SCT040"
    },
    {
      "icao": "LRCV",
      "alert": "OK",
      "vis_m": 9999,
      "fzfg": false,
      "metar_trigger": false,
      "taf_trigger": false,
      "metar": "METAR LRCV 201400Z 29015KT CAVOK 32/15 Q1014",
      "taf": "TAF LRCV 201100Z 2012/2021 26012KT 9999 SCT030"
    },
    {
      "icao": "LRIA",
      "alert": "OK",
      "vis_m": 9999,
      "fzfg": false,
      "metar_trigger": false,
      "taf_trigger": false,
      "metar": "METAR LRIA 201400Z 30010KT 9999 FEW038 FEW040CB 21/17 Q1016",
      "taf": "TAF LRIA 201100Z 2012/2021 31010KT CAVOK"
    },
    {
      "icao": "LROP",
      "alert": "OK",
      "vis_m": 9999,
      "fzfg": false,
      "metar_trigger": false,
      "taf_trigger": false,
      "metar": "METAR LROP 201400Z 01011KT 330V040 9999 VCTS FEW045CB 32/20 Q1014 TEMPO VRB20G30KT 5000 TSRA",
      "taf": "TAF LROP 201100Z 2012/2112 VRB04KT CAVOK"
    },
    {
      "icao": "LRSB",
      "alert": "OK",
      "vis_m": 9999,
      "fzfg": false,
      "metar_trigger": false,
      "taf_trigger": false,
      "metar": "METAR LRSB 201400Z 28016KT 9999 FEW045 28/08 Q1016 NOSIG",
      "taf": "TAF LRSB 201100Z 2012/2112 32016KT 9999 SCT045"
    },
    {
      "icao": "LRSM",
      "alert": "OK",
      "vis_m": 9999,
      "fzfg": false,
      "metar_trigger": false,
      "taf_trigger": false,
      "metar": "METAR LRSM 201400Z 36004KT 300V090 CAVOK 26/10 Q1016",
      "taf": "TAF LRSM 201100Z 2012/2021 VRB04KT 9999 BKN045"
    },
    {
      "icao": "LRSV",
      "alert": "OK",
      "vis_m": 9999,
      "fzfg": false,
      "metar_trigger": false,
      "taf_trigger": false,
      "metar": "METAR LRSV 201400Z 31009KT 280V350 9999 FEW018 SCT045 21/16 Q1017",
      "taf": "TAF LRSV 201100Z 2012/2021 34012KT 9999 SCT040CB"
    },
    {
      "icao": "LRTM",
      "alert": "OK",
      "vis_m": 9999,
      "fzfg": false,
      "metar_trigger": false,
      "taf_trigger": false,
      "metar": "METAR LRTM 201400Z 06004KT 030V110 9999 SCT048 23/20 Q1016",
      "taf": "TAF LRTM 201100Z 2012/2021 VRB04KT 9999 SCT035CB"
    },
    {
      "icao": "LRTR",
      "alert": "OK",
      "vis_m": 9999,
      "fzfg": false,
      "metar_trigger": false,
      "taf_trigger": false,
      "metar": "METAR LRTR 201400Z 27006KT 240V310 CAVOK 29/03 Q1016 NOSIG",
      "taf": "TAF LRTR 201100Z 2012/2112 29010KT CAVOK"
    },
    {
      "icao": "LTAC",
      "alert": "OK",
      "vis_m": 9999,
      "fzfg": false,
      "metar_trigger": false,
      "taf_trigger": false,
      "metar": "METAR LTAC 201420Z 30008KT 260V340 9999 SCT040 33/08 Q1014 NOSIG",
      "taf": "TAF LTAC 201040Z 2012/2112 VRB02KT 9999 SCT040"
    },
    {
      "icao": "LTFM",
      "alert": "OK",
      "vis_m": 9999,
      "fzfg": false,
      "metar_trigger": false,
      "taf_trigger": false,
      "metar": "METAR LTFM 201420Z 06012KT CAVOK 27/18 Q1015 NOSIG",
      "taf": "TAF LTFM 201040Z 2012/2118 06012KT CAVOK"
    },
    {
      "icao": "LUKK",
      "alert": "OK",
      "vis_m": 9999,
      "fzfg": false,
      "metar_trigger": false,
      "taf_trigger": false,
      "metar": "METAR LUKK 201400Z 32008KT 290V360 9999 -SHRA BKN040CB 25/20 Q1014 NOSIG",
      "taf": "TAF LUKK 201104Z 2012/2112 30009KT 9999 SCT040"
    },
    {
      "icao": "LWOH",
      "alert": "OK",
      "vis_m": 9999,
      "fzfg": false,
      "metar_trigger": false,
      "taf_trigger": false,
      "metar": "METAR LWOH 201420Z 14006KT 120V180 9999 FEW040 32/15 Q1016",
      "taf": "TAF LWOH 201135Z 2012/2112 16005KT 9999 FEW040"
    },
    {
      "icao": "LWSK",
      "alert": "OK",
      "vis_m": 9999,
      "fzfg": false,
      "metar_trigger": false,
      "taf_trigger": false,
      "metar": "METAR LWSK 201420Z 01006KT 290V070 9999 FEW040 36/19 Q1013 NOSIG",
      "taf": "TAF LWSK 201135Z 2012/2112 36010KT 9999 FEW050"
    },
    {
      "icao": "LYBE",
      "alert": "OK",
      "vis_m": 9999,
      "fzfg": false,
      "metar_trigger": false,
      "taf_trigger": false,
      "metar": "METAR LYBE 201400Z VRB03KT CAVOK 28/10 Q1017 NOSIG",
      "taf": "TAF LYBE 201100Z 2012/2112 34008KT CAVOK TX29/2112Z TN18/2103Z"
    },
    {
      "icao": "LYNI",
      "alert": "OK",
      "vis_m": 9999,
      "fzfg": false,
      "metar_trigger": false,
      "taf_trigger": false,
      "metar": "METAR LYNI 201400Z 31018KT 9999 FEW060 28/15 Q1017 TEMPO 4000 TSRA SCT030CB BKN040",
      "taf": "TAF LYNI 201100Z 2012/2112 32012KT CAVOK TX31/2013Z TN17/2103Z"
    },
    {
      "icao": "LYPG",
      "alert": "OK",
      "vis_m": 9999,
      "fzfg": false,
      "metar_trigger": false,
      "taf_trigger": false,
      "metar": "METAR LYPG 201400Z 17008KT 110V220 CAVOK 38/14 Q1011 NOSIG",
      "taf": "TAF LYPG 201100Z 2012/2112 18008KT 9999 FEW050 TX38/2013Z TN23/2103Z"
    },
    {
      "icao": "LZIB",
      "alert": "OK",
      "vis_m": 9999,
      "fzfg": false,
      "metar_trigger": false,
      "taf_trigger": false,
      "metar": "METAR LZIB 201400Z 27012KT 230V290 CAVOK 27/08 Q1016 NOSIG",
      "taf": ""
    },
    {
      "icao": "LZKZ",
      "alert": "OK",
      "vis_m": 9999,
      "fzfg": false,
      "metar_trigger": false,
      "taf_trigger": false,
      "metar": "METAR LZKZ 201400Z 26007KT 200V360 CAVOK 27/07 Q1015 NOSIG",
      "taf": "TAF LZKZ 201115Z 2012/2112 05007KT CAVOK"
    },
    {
      "icao": "LZTT",
      "alert": "OK",
      "vis_m": 9999,
      "fzfg": false,
      "metar_trigger": false,
      "taf_trigger": false,
      "metar": "METAR LZTT 201400Z 28017KT 9999 FEW066 22/03 Q1018 NOSIG",
      "taf": "TAF LZTT 201115Z 2012/2112 28009KT 9999 SCT040"
    },
    {
      "icao": "OEJN",
      "alert": "OK",
      "vis_m": 9999,
      "fzfg": false,
      "metar_trigger": false,
      "taf_trigger": false,
      "metar": "METAR OEJN 201400Z 30012KT CAVOK 38/21 Q1000 NOSIG",
      "taf": "TAF OEJN 201100Z 2012/2118 33015KT 9999 FEW040"
    },
    {
      "icao": "OEMA",
      "alert": "OK",
      "vis_m": 9999,
      "fzfg": false,
      "metar_trigger": false,
      "taf_trigger": false,
      "metar": "METAR OEMA 201400Z 27011KT 9999 FEW040 46/M02 Q1007 NOSIG",
      "taf": "TAF OEMA 201100Z 2012/2118 33015KT CAVOK"
    },
    {
      "icao": "OJAI",
      "alert": "OK",
      "vis_m": 5000,
      "fzfg": false,
      "metar_trigger": false,
      "taf_trigger": false,
      "metar": "METAR OJAI 201400Z 27011KT 5000 HZ NSC 33/11 Q1014 NOSIG",
      "taf": "TAF OJAI 201100Z 2012/2118 29010KT 5000 HZ NSC"
    },
    {
      "icao": "OMAA",
      "alert": "OK",
      "vis_m": 9999,
      "fzfg": false,
      "metar_trigger": false,
      "taf_trigger": false,
      "metar": "METAR OMAA 201400Z 33010KT CAVOK 42/15 Q0995 NOSIG",
      "taf": "TAF OMAA 201100Z 2012/2118 32012KT 8000 NSC"
    },
    {
      "icao": "OMDB",
      "alert": "OK",
      "vis_m": 9999,
      "fzfg": false,
      "metar_trigger": false,
      "taf_trigger": false,
      "metar": "METAR OMDB 201400Z 34009KT 320V020 CAVOK 38/24 Q0996 NOSIG",
      "taf": "TAF OMDB 201100Z 2012/2118 30010KT CAVOK"
    },
    {
      "icao": "UAAA",
      "alert": "OK",
      "vis_m": 9999,
      "fzfg": false,
      "metar_trigger": false,
      "taf_trigger": false,
      "metar": "METAR UAAA 201400Z 11003MPS 9999 SCT050CB BKN100 35/14 Q1000 NOSIG",
      "taf": "TAF UAAA 201105Z 2012/2112 19003MPS 9999 SCT050CB BKN100 TX39/2110Z TN24/2100Z"
    },
    {
      "icao": "UBBB",
      "alert": "OK",
      "vis_m": 9999,
      "fzfg": false,
      "metar_trigger": false,
      "taf_trigger": false,
      "metar": "METAR UBBB 201400Z 02018KT CAVOK 26/19 Q1012 NOSIG",
      "taf": "TAF UBBB 201052Z 2012/2112 35018G28KT 9999 SCT020 TX28/2012Z TN24/2101Z"
    },
    {
      "icao": "UDSG",
      "alert": "OK",
      "vis_m": 9999,
      "fzfg": false,
      "metar_trigger": false,
      "taf_trigger": false,
      "metar": "METAR UDSG 201400Z 02003KT 290V100 9999 NSC 28/08 Q1018 NOSIG",
      "taf": "TAF UDSG 201058Z 2012/2112 VRB06KT 9999 FEW050"
    },
    {
      "icao": "UDYZ",
      "alert": "OK",
      "vis_m": 9999,
      "fzfg": false,
      "metar_trigger": false,
      "taf_trigger": false,
      "metar": "METAR UDYZ 201400Z 20006KT 9999 FEW043CB 35/11 Q1010 NOSIG",
      "taf": "TAF UDYZ 201100Z 2012/2112 23006KT 9999 FEW040"
    },
    {
      "icao": "UGKO",
      "alert": "OK",
      "vis_m": 9999,
      "fzfg": false,
      "metar_trigger": false,
      "taf_trigger": false,
      "metar": "METAR UGKO 201400Z 27008KT 240V300 CAVOK 29/20 Q1012 NOSIG",
      "taf": "TAF UGKO 201100Z 2012/2112 26007KT CAVOK TX30/2012Z TN19/2102Z"
    }
  ]
}