{
  "ts_utc": "2026-06-23T01:34:50Z",
  "threshold_m": 150,
  "source": "stations_override.txt (ICAO list) + aviationweather.gov (METAR/TAF raw)",
  "station_count": 159,
  "stations": [
    {
      "icao": "BIKF",
      "alert": "OK",
      "vis_m": 9999,
      "fzfg": false,
      "metar_trigger": false,
      "taf_trigger": false,
      "metar": "METAR BIKF 230130Z 09004KT 9999 FEW023 SCT038 BKN170 08/05 Q1013",
      "taf": "TAF BIKF 230109Z 2303/2403 05008KT 9999 FEW020 BKN040 TX10/2314Z TN08/2303Z"
    },
    {
      "icao": "BKPR",
      "alert": "OK",
      "vis_m": 9999,
      "fzfg": false,
      "metar_trigger": false,
      "taf_trigger": false,
      "metar": "METAR BKPR 230130Z 33003KT CAVOK 17/15 Q1019 NOSIG",
      "taf": "TAF BKPR 222330Z 2300/2324 VRB05KT 9999 FEW050"
    },
    {
      "icao": "EBCI",
      "alert": "OK",
      "vis_m": 9999,
      "fzfg": false,
      "metar_trigger": false,
      "taf_trigger": false,
      "metar": "METAR EBCI 230120Z 07005KT CAVOK 21/18 Q1023 NOSIG",
      "taf": "TAF EBCI 222315Z 2300/2406 04005KT CAVOK"
    },
    {
      "icao": "EDDB",
      "alert": "OK",
      "vis_m": 9999,
      "fzfg": false,
      "metar_trigger": false,
      "taf_trigger": false,
      "metar": "METAR EDDB 230120Z AUTO 11001KT CAVOK 15/13 Q1024 NOSIG",
      "taf": "TAF EDDB 222300Z 2300/2324 VRB03KT CAVOK"
    },
    {
      "icao": "EDDH",
      "alert": "OK",
      "vis_m": 9999,
      "fzfg": false,
      "metar_trigger": false,
      "taf_trigger": false,
      "metar": "METAR EDDH 230120Z AUTO VRB02KT CAVOK 13/11 Q1024 NOSIG",
      "taf": "TAF EDDH 222300Z 2300/2406 26003KT CAVOK"
    },
    {
      "icao": "EDDK",
      "alert": "OK",
      "vis_m": 9999,
      "fzfg": false,
      "metar_trigger": false,
      "taf_trigger": false,
      "metar": "METAR EDDK 230120Z AUTO VRB01KT CAVOK 18/18 Q1023 NOSIG",
      "taf": "TAF EDDK 222300Z 2300/2406 07003KT CAVOK"
    },
    {
      "icao": "EDDN",
      "alert": "OK",
      "vis_m": 6000,
      "fzfg": false,
      "metar_trigger": false,
      "taf_trigger": false,
      "metar": "METAR EDDN 230120Z AUTO VRB01KT 6000 NCD 19/18 Q1022",
      "taf": "TAF EDDN 222300Z 2300/2324 VRB02KT CAVOK"
    },
    {
      "icao": "EDDS",
      "alert": "OK",
      "vis_m": 9999,
      "fzfg": false,
      "metar_trigger": false,
      "taf_trigger": false,
      "metar": "METAR EDDS 230120Z AUTO 35002KT CAVOK 21/17 Q1022",
      "taf": "TAF EDDS 222300Z 2300/2324 VRB03KT CAVOK"
    },
    {
      "icao": "EDFH",
      "alert": "OK",
      "vis_m": 9999,
      "fzfg": false,
      "metar_trigger": false,
      "taf_trigger": false,
      "metar": "METAR EDFH 230120Z VRB01KT CAVOK 20/18 Q1024",
      "taf": "TAF EDFH 222300Z 2300/2324 05005KT CAVOK"
    },
    {
      "icao": "EDJA",
      "alert": "OK",
      "vis_m": 9999,
      "fzfg": false,
      "metar_trigger": false,
      "taf_trigger": false,
      "metar": "METAR EDJA 230120Z AUTO VRB01KT 9999 // FEW140/// 16/15 Q1023",
      "taf": "TAF EDJA 221700Z 2218/2303 06006KT CAVOK"
    },
    {
      "icao": "EDLW",
      "alert": "OK",
      "vis_m": 9999,
      "fzfg": false,
      "metar_trigger": false,
      "taf_trigger": false,
      "metar": "METAR EDLW 230120Z AUTO VRB02KT 9999 // NCD 17/15 Q1023",
      "taf": "TAF EDLW 221700Z 2218/2318 03006KT CAVOK"
    },
    {
      "icao": "EDNY",
      "alert": "OK",
      "vis_m": 9999,
      "fzfg": false,
      "metar_trigger": false,
      "taf_trigger": false,
      "metar": "METAR EDNY 230120Z AUTO 05004KT 9999 // NCD 19/17 Q1022",
      "taf": "TAF EDNY 221700Z 2218/2303 VRB03KT CAVOK"
    },
    {
      "icao": "EDSB",
      "alert": "OK",
      "vis_m": 9999,
      "fzfg": false,
      "metar_trigger": false,
      "taf_trigger": false,
      "metar": "METAR EDSB 230120Z AUTO 02005KT 9999 NCD 22/18 Q1020",
      "taf": "TAF EDSB 222300Z 2300/2324 02005KT CAVOK"
    },
    {
      "icao": "EETN",
      "alert": "OK",
      "vis_m": 9999,
      "fzfg": false,
      "metar_trigger": false,
      "taf_trigger": false,
      "metar": "METAR EETN 230120Z 33009KT 300V360 CAVOK 14/08 Q1021",
      "taf": "TAF EETN 222330Z 2300/2324 33012KT CAVOK"
    },
    {
      "icao": "EFTU",
      "alert": "OK",
      "vis_m": 9999,
      "fzfg": false,
      "metar_trigger": false,
      "taf_trigger": false,
      "metar": "METAR EFTU 230120Z AUTO 28004KT CAVOK 08/05 Q1022",
      "taf": "TAF EFTU 222322Z 2300/2324 29006KT CAVOK"
    },
    {
      "icao": "EGBB",
      "alert": "OK",
      "vis_m": 9999,
      "fzfg": false,
      "metar_trigger": false,
      "taf_trigger": false,
      "metar": "METAR EGBB 230120Z 10004KT CAVOK 20/18 Q1023",
      "taf": "TAF EGBB 222256Z 2300/2324 12005KT 9999 FEW040"
    },
    {
      "icao": "EGGP",
      "alert": "OK",
      "vis_m": 9999,
      "fzfg": false,
      "metar_trigger": false,
      "taf_trigger": false,
      "metar": "METAR EGGP 230120Z 12008KT CAVOK 19/15 Q1022",
      "taf": "TAF EGGP 222258Z 2300/2324 11010KT 9999 FEW045"
    },
    {
      "icao": "EGGW",
      "alert": "OK",
      "vis_m": 9999,
      "fzfg": false,
      "metar_trigger": false,
      "taf_trigger": false,
      "metar": "METAR EGGW 230120Z AUTO 16008KT 9999 -RA VCTS //////CB 17/15 Q1022",
      "taf": ""
    },
    {
      "icao": "EGKK",
      "alert": "OK",
      "vis_m": 9999,
      "fzfg": false,
      "metar_trigger": false,
      "taf_trigger": false,
      "metar": "METAR EGKK 230120Z 07003KT CAVOK 18/16 Q1022",
      "taf": "TAF EGKK 222255Z 2300/2406 09010KT 9999 FEW040"
    },
    {
      "icao": "EGNM",
      "alert": "OK",
      "vis_m": 9999,
      "fzfg": false,
      "metar_trigger": false,
      "taf_trigger": false,
      "metar": "METAR EGNM 230120Z 11004KT 070V140 9999 SCT042 15/09 Q1024",
      "taf": "TAF EGNM 222256Z 2300/2324 VRB03KT 9999 FEW045"
    },
    {
      "icao": "EGPD",
      "alert": "OK",
      "vis_m": 9999,
      "fzfg": false,
      "metar_trigger": false,
      "taf_trigger": false,
      "metar": "METAR EGPD 230120Z AUTO 13002KT 9999 NCD 16/14 Q1021",
      "taf": "TAF EGPD 222259Z 2300/2324 16004KT 9999 FEW045"
    },
    {
      "icao": "EGPF",
      "alert": "OK",
      "vis_m": 6000,
      "fzfg": false,
      "metar_trigger": false,
      "taf_trigger": false,
      "metar": "METAR EGPF 230120Z AUTO VRB02KT 6000 BKN046 16/15 Q1021",
      "taf": "TAF EGPF 222255Z 2300/2324 VRB02KT 9999 FEW020"
    },
    {
      "icao": "EHBK",
      "alert": "OK",
      "vis_m": 9999,
      "fzfg": false,
      "metar_trigger": false,
      "taf_trigger": false,
      "metar": "METAR EHBK 230125Z AUTO 05005KT 9999 NSC 19/17 Q1023",
      "taf": "TAF EHBK 222256Z 2300/2406 02008KT CAVOK"
    },
    {
      "icao": "EHEH",
      "alert": "OK",
      "vis_m": 9999,
      "fzfg": false,
      "metar_trigger": false,
      "taf_trigger": false,
      "metar": "METAR EHEH 230125Z AUTO 05004KT 020V080 9999 FEW240 18/15 Q1023 BLU",
      "taf": "TAF EHEH 222316Z 2300/2406 04007KT CAVOK"
    },
    {
      "icao": "EKBI",
      "alert": "OK",
      "vis_m": 9999,
      "fzfg": false,
      "metar_trigger": false,
      "taf_trigger": false,
      "metar": "METAR EKBI 230120Z AUTO 27002KT 9999 BKN180/// BKN230/// 10/09 Q1025",
      "taf": "TAF EKBI 222327Z 2300/2324 29006KT CAVOK"
    },
    {
      "icao": "EKCH",
      "alert": "OK",
      "vis_m": 9999,
      "fzfg": false,
      "metar_trigger": false,
      "taf_trigger": false,
      "metar": "METAR EKCH 230120Z AUTO 28004KT 9999 NCD 13/10 Q1024 NOSIG",
      "taf": "TAF EKCH 222327Z 2300/2324 30005KT CAVOK"
    },
    {
      "icao": "ENAL",
      "alert": "OK",
      "vis_m": 9999,
      "fzfg": false,
      "metar_trigger": false,
      "taf_trigger": false,
      "metar": "METAR ENAL 230120Z 18004KT 9999 -RA BKN039 11/09 Q1023",
      "taf": "TAF ENAL 222300Z 2300/2309 24007KT 9999 BKN050"
    },
    {
      "icao": "ENBR",
      "alert": "OK",
      "vis_m": 9999,
      "fzfg": false,
      "metar_trigger": false,
      "taf_trigger": false,
      "metar": "METAR ENBR 230120Z 16003KT 110V200 9999 -RA BKN048 11/09 Q1025 RMK WIND 1200FT 16008KT",
      "taf": "TAF ENBR 222300Z 2300/2324 VRB05KT 9999 SCT045"
    },
    {
      "icao": "ENGM",
      "alert": "OK",
      "vis_m": 9999,
      "fzfg": false,
      "metar_trigger": false,
      "taf_trigger": false,
      "metar": "METAR ENGM 230120Z 01003KT CAVOK 12/06 Q1022",
      "taf": "TAF ENGM 222300Z 2300/2324 VRB03KT CAVOK"
    },
    {
      "icao": "ENHD",
      "alert": "OK",
      "vis_m": 9999,
      "fzfg": false,
      "metar_trigger": false,
      "taf_trigger": false,
      "metar": "METAR ENHD 230120Z AUTO 27002KT 9999 -RA NCD 12/10 Q1025",
      "taf": "TAF ENHD 221400Z 2215/2222 33010KT 9999 SCT015"
    },
    {
      "icao": "ENTC",
      "alert": "OK",
      "vis_m": 9999,
      "fzfg": false,
      "metar_trigger": false,
      "taf_trigger": false,
      "metar": "METAR ENTC 230050Z AUTO 24005KT 190V280 9999 -RA FEW018/// SCT029/// BKN037/// 08/06 Q1016 RMK WIND 2600FT 24019KT",
      "taf": "TAF ENTC 222300Z 2300/2324 24009KT 9999 -RA FEW010 SCT015 BKN025"
    },
    {
      "icao": "ENTO",
      "alert": "OK",
      "vis_m": 2700,
      "fzfg": false,
      "metar_trigger": false,
      "taf_trigger": false,
      "metar": "METAR ENTO 230120Z AUTO 27005KT 2700 // NCD 12/07 Q1022",
      "taf": "TAF ENTO 221700Z 2218/2318 20010KT CAVOK"
    },
    {
      "icao": "ENVA",
      "alert": "OK",
      "vis_m": 9999,
      "fzfg": false,
      "metar_trigger": false,
      "taf_trigger": false,
      "metar": "METAR ENVA 230120Z 08003KT 9999 BKN040 09/08 Q1024 RMK WIND 670FT 26005KT",
      "taf": "TAF ENVA 222300Z 2300/2324 VRB05KT 9999 SCT025 BKN045"
    },
    {
      "icao": "ENZV",
      "alert": "OK",
      "vis_m": 9999,
      "fzfg": false,
      "metar_trigger": false,
      "taf_trigger": false,
      "metar": "METAR ENZV 230120Z 28005KT CAVOK 13/09 Q1026",
      "taf": "TAF ENZV 222300Z 2300/2324 VRB03KT 9999 FEW045"
    },
    {
      "icao": "EPGD",
      "alert": "OK",
      "vis_m": 9999,
      "fzfg": false,
      "metar_trigger": false,
      "taf_trigger": false,
      "metar": "METAR EPGD 230130Z 24002KT CAVOK 11/10 Q1023",
      "taf": "TAF EPGD 222330Z 2300/2324 VRB04KT CAVOK"
    },
    {
      "icao": "EPKK",
      "alert": "OK",
      "vis_m": 250,
      "fzfg": false,
      "metar_trigger": false,
      "taf_trigger": false,
      "metar": "METAR EPKK 230130Z VRB02KT 0250 R25/0500D FG SCT000 15/15 Q1021",
      "taf": ""
    },
    {
      "icao": "EPKT",
      "alert": "OK",
      "vis_m": 9999,
      "fzfg": false,
      "metar_trigger": false,
      "taf_trigger": false,
      "metar": "METAR EPKT 230130Z 27001KT 9999 MIFG NSC 12/12 Q1022",
      "taf": ""
    },
    {
      "icao": "EPLB",
      "alert": "OK",
      "vis_m": 9999,
      "fzfg": false,
      "metar_trigger": false,
      "taf_trigger": false,
      "metar": "METAR EPLB 230130Z 27004KT CAVOK 16/13 Q1020",
      "taf": "TAF EPLB 222330Z 2300/2324 33005KT CAVOK"
    },
    {
      "icao": "EPMO",
      "alert": "OK",
      "vis_m": 9999,
      "fzfg": false,
      "metar_trigger": false,
      "taf_trigger": false,
      "metar": "METAR EPMO 230130Z VRB02KT CAVOK 13/12 Q1022",
      "taf": "TAF EPMO 222330Z 2300/2324 35005KT CAVOK"
    },
    {
      "icao": "EPPO",
      "alert": "OK",
      "vis_m": 9999,
      "fzfg": false,
      "metar_trigger": false,
      "taf_trigger": false,
      "metar": "METAR EPPO 230130Z 35003KT CAVOK 12/09 Q1023",
      "taf": "TAF EPPO 222330Z 2300/2324 36005KT CAVOK"
    },
    {
      "icao": "EPRA",
      "alert": "OK",
      "vis_m": 9999,
      "fzfg": false,
      "metar_trigger": false,
      "taf_trigger": false,
      "metar": "METAR EPRA 230130Z 33005KT CAVOK 18/12 Q1021",
      "taf": "TAF EPRA 222330Z 2300/2309 34006KT CAVOK"
    },
    {
      "icao": "EPRZ",
      "alert": "OK",
      "vis_m": 9999,
      "fzfg": false,
      "metar_trigger": false,
      "taf_trigger": false,
      "metar": "METAR EPRZ 230130Z 32004KT CAVOK 19/17 Q1020",
      "taf": "TAF EPRZ 222330Z 2300/2324 25005KT CAVOK"
    },
    {
      "icao": "EPSC",
      "alert": "OK",
      "vis_m": 9999,
      "fzfg": false,
      "metar_trigger": false,
      "taf_trigger": false,
      "metar": "METAR EPSC 230130Z 13003KT CAVOK 08/08 Q1024",
      "taf": "TAF EPSC 222330Z 2300/2324 VRB03KT CAVOK"
    },
    {
      "icao": "EPSY",
      "alert": "OK",
      "vis_m": 9999,
      "fzfg": false,
      "metar_trigger": false,
      "taf_trigger": false,
      "metar": "METAR EPSY 230130Z 34003KT CAVOK 12/11 Q1022",
      "taf": "TAF EPSY 222330Z 2300/2309 32006KT CAVOK"
    },
    {
      "icao": "EPWA",
      "alert": "OK",
      "vis_m": 9999,
      "fzfg": false,
      "metar_trigger": false,
      "taf_trigger": false,
      "metar": "METAR EPWA 230130Z 34004KT CAVOK 16/14 Q1021 NOSIG",
      "taf": "TAF EPWA 222330Z 2300/2324 34005KT CAVOK"
    },
    {
      "icao": "EPWR",
      "alert": "OK",
      "vis_m": 9999,
      "fzfg": false,
      "metar_trigger": false,
      "taf_trigger": false,
      "metar": "METAR EPWR 230130Z 29005KT CAVOK 16/13 Q1023",
      "taf": "TAF EPWR 222330Z 2300/2324 36005KT CAVOK"
    },
    {
      "icao": "ESGG",
      "alert": "OK",
      "vis_m": 9999,
      "fzfg": false,
      "metar_trigger": false,
      "taf_trigger": false,
      "metar": "METAR ESGG 230120Z 28002KT CAVOK 11/09 Q1023",
      "taf": "TAF ESGG 222330Z 2300/2324 VRB02KT CAVOK"
    },
    {
      "icao": "ESKN",
      "alert": "OK",
      "vis_m": 9999,
      "fzfg": false,
      "metar_trigger": false,
      "taf_trigger": false,
      "metar": "METAR ESKN 230120Z 08003KT CAVOK 12/12 Q1023",
      "taf": "TAF ESKN 222330Z 2300/2324 10003KT CAVOK"
    },
    {
      "icao": "ESMS",
      "alert": "OK",
      "vis_m": 9999,
      "fzfg": false,
      "metar_trigger": false,
      "taf_trigger": false,
      "metar": "METAR ESMS 230120Z 36003KT CAVOK 11/11 Q1023",
      "taf": "TAF ESMS 222327Z 2300/2324 31007KT CAVOK"
    },
    {
      "icao": "ESSA",
      "alert": "OK",
      "vis_m": 9999,
      "fzfg": false,
      "metar_trigger": false,
      "taf_trigger": false,
      "metar": "METAR ESSA 230120Z 05003KT CAVOK 12/06 Q1023 TEMPO SCT060TCU",
      "taf": "TAF ESSA 222330Z 2300/2324 13004KT CAVOK"
    },
    {
      "icao": "EYKA",
      "alert": "OK",
      "vis_m": 9999,
      "fzfg": false,
      "metar_trigger": false,
      "taf_trigger": false,
      "metar": "METAR EYKA 230120Z 28003KT CAVOK 13/11 Q1020",
      "taf": "TAF EYKA 222311Z 2300/2324 VRB03KT 9000 NSC"
    },
    {
      "icao": "EYPA",
      "alert": "OK",
      "vis_m": 8000,
      "fzfg": false,
      "metar_trigger": false,
      "taf_trigger": false,
      "metar": "METAR EYPA 230120Z VRB02KT 8000 NSC 14/13 Q1021",
      "taf": "TAF EYPA 222315Z 2300/2324 VRB03KT 7000 NSC"
    },
    {
      "icao": "EYVI",
      "alert": "OK",
      "vis_m": 9999,
      "fzfg": false,
      "metar_trigger": false,
      "taf_trigger": false,
      "metar": "METAR EYVI 230120Z VRB01KT CAVOK 11/10 Q1019 NOSIG",
      "taf": "TAF EYVI 222312Z 2300/2324 VRB03KT 9000 NSC"
    },
    {
      "icao": "GCFV",
      "alert": "OK",
      "vis_m": 9999,
      "fzfg": false,
      "metar_trigger": false,
      "taf_trigger": false,
      "metar": "METAR GCFV 230100Z AUTO 02010KT 9999 OVC019 21/17 Q1018",
      "taf": "TAF GCFV 222000Z 2221/2321 05012KT 9999 FEW020 TX26/2314Z TN19/2306Z"
    },
    {
      "icao": "GCLP",
      "alert": "OK",
      "vis_m": 9999,
      "fzfg": false,
      "metar_trigger": false,
      "taf_trigger": false,
      "metar": "METAR GCLP 230100Z 36014KT 9999 FEW030 22/17 Q1017 NOSIG",
      "taf": "TAF GCLP 222000Z 2221/2321 02020KT 9999 FEW025 TX27/2314Z TN20/2306Z"
    },
    {
      "icao": "GCTS",
      "alert": "OK",
      "vis_m": 9999,
      "fzfg": false,
      "metar_trigger": false,
      "taf_trigger": false,
      "metar": "METAR GCTS 230100Z 27004KT 9999 FEW025 22/18 Q1018 NOSIG",
      "taf": "TAF GCTS 222000Z 2221/2321 VRB07KT 9999 FEW025 TX27/2314Z TN19/2306Z"
    },
    {
      "icao": "GMAD",
      "alert": "OK",
      "vis_m": 8000,
      "fzfg": false,
      "metar_trigger": false,
      "taf_trigger": false,
      "metar": "METAR GMAD 230130Z 00000KT 8000 FEW013 20/17 Q1015 NOSIG",
      "taf": "TAF GMAD 222300Z 2300/2406 18006KT 8000 BKN010"
    },
    {
      "icao": "GMMN",
      "alert": "OK",
      "vis_m": 9999,
      "fzfg": false,
      "metar_trigger": false,
      "taf_trigger": false,
      "metar": "METAR GMMN 230130Z 36005KT 330V030 9999 SCT010 21/18 Q1015 NOSIG",
      "taf": "TAF GMMN 222300Z 2300/2406 32004KT 9999 SCT016"
    },
    {
      "icao": "GMMX",
      "alert": "OK",
      "vis_m": 9999,
      "fzfg": false,
      "metar_trigger": false,
      "taf_trigger": false,
      "metar": "METAR GMMX 230130Z 24007KT 210V270 CAVOK 21/16 Q1015 NOSIG",
      "taf": "TAF GMMX 222300Z 2300/2406 30006KT 8000 CAVOK"
    },
    {
      "icao": "HEGN",
      "alert": "OK",
      "vis_m": 9999,
      "fzfg": false,
      "metar_trigger": false,
      "taf_trigger": false,
      "metar": "METAR HEGN 230100Z 30010KT CAVOK 26/11 Q1008 NOSIG",
      "taf": "TAF HEGN 222300Z 2300/2406 30008G20KT CAVOK"
    },
    {
      "icao": "HEMA",
      "alert": "OK",
      "vis_m": 9999,
      "fzfg": false,
      "metar_trigger": false,
      "taf_trigger": false,
      "metar": "METAR HEMA 230100Z 33006KT CAVOK 28/03 Q1006 NOSIG",
      "taf": "TAF HEMA 222300Z 2300/2406 30010G22KT CAVOK"
    },
    {
      "icao": "HESH",
      "alert": "OK",
      "vis_m": 9999,
      "fzfg": false,
      "metar_trigger": false,
      "taf_trigger": false,
      "metar": "METAR HESH 230100Z 35014KT CAVOK 29/17 Q1007 NOSIG",
      "taf": "TAF HESH 222300Z 2300/2406 33012KT CAVOK"
    },
    {
      "icao": "HESX",
      "alert": "OK",
      "vis_m": 6000,
      "fzfg": false,
      "metar_trigger": false,
      "taf_trigger": false,
      "metar": "METAR HESX 230100Z 33003KT 6000 NSC 20/18 Q1010 NOSIG",
      "taf": "TAF HESX 222300Z 2300/2406 35009KT CAVOK"
    },
    {
      "icao": "LATI",
      "alert": "OK",
      "vis_m": 9999,
      "fzfg": false,
      "metar_trigger": false,
      "taf_trigger": false,
      "metar": "METAR LATI 230120Z VRB02KT CAVOK 21/17 Q1015 NOSIG",
      "taf": "TAF LATI 222300Z 2300/2324 VRB03KT CAVOK TX35/2312Z TN18/2304Z"
    },
    {
      "icao": "LBPD",
      "alert": "OK",
      "vis_m": 9999,
      "fzfg": false,
      "metar_trigger": false,
      "taf_trigger": false,
      "metar": "METAR LBPD 230130Z AUTO 22003KT 9999 FEW130/// 19/18 Q1018",
      "taf": "TAF LBPD 222300Z 2300/2324 VRB04KT 9999 SCT070"
    },
    {
      "icao": "LBSF",
      "alert": "OK",
      "vis_m": 9999,
      "fzfg": false,
      "metar_trigger": false,
      "taf_trigger": false,
      "metar": "METAR LBSF 230130Z AUTO VRB01KT 9999 NSC 15/14 Q1020 NOSIG",
      "taf": "TAF LBSF 222300Z 2300/2324 VRB04KT 9999 SCT060"
    },
    {
      "icao": "LBWN",
      "alert": "OK",
      "vis_m": 8000,
      "fzfg": false,
      "metar_trigger": false,
      "taf_trigger": false,
      "metar": "METAR LBWN 230130Z AUTO 30003KT 270V330 8000 NCD 15/13 Q1016 NOSIG",
      "taf": "TAF LBWN 222300Z 2300/2324 VRB04KT CAVOK"
    },
    {
      "icao": "LCLK",
      "alert": "OK",
      "vis_m": 200,
      "fzfg": false,
      "metar_trigger": false,
      "taf_trigger": false,
      "metar": "METAR LCLK 230130Z 19002KT 0200 R22/0325 R04/0150 FG BKN002 24/24 Q1006 BECMG 0900 BCFG BKN001",
      "taf": ""
    },
    {
      "icao": "LCPH",
      "alert": "OK",
      "vis_m": 9999,
      "fzfg": false,
      "metar_trigger": false,
      "taf_trigger": false,
      "metar": "METAR LCPH 230130Z AUTO 02006KT 9999 NCD 21/14 Q1007 NOSIG",
      "taf": "TAF LCPH 222330Z 2300/2400 02006KT CAVOK"
    },
    {
      "icao": "LEAL",
      "alert": "OK",
      "vis_m": 9999,
      "fzfg": false,
      "metar_trigger": false,
      "taf_trigger": false,
      "metar": "METAR LEAL 230100Z 01003KT 330V050 CAVOK 29/10 Q1018 NOSIG",
      "taf": "TAF LEAL 222300Z 2300/2324 02006KT CAVOK TX33/2312Z TN24/2306Z"
    },
    {
      "icao": "LEBB",
      "alert": "OK",
      "vis_m": 9999,
      "fzfg": false,
      "metar_trigger": false,
      "taf_trigger": false,
      "metar": "METAR LEBB 230100Z AUTO VRB02KT CAVOK 25/22 Q1016",
      "taf": "TAF LEBB 222300Z 2300/2324 12008KT CAVOK TX38/2311Z TN22/2303Z"
    },
    {
      "icao": "LEBL",
      "alert": "OK",
      "vis_m": 9999,
      "fzfg": false,
      "metar_trigger": false,
      "taf_trigger": false,
      "metar": "METAR LEBL 230100Z 30004KT CAVOK 25/20 Q1018 NOSIG",
      "taf": "TAF LEBL 222300Z 2300/2324 24005KT CAVOK TX31/2312Z TN23/2306Z"
    },
    {
      "icao": "LECH",
      "alert": "OK",
      "vis_m": 9999,
      "fzfg": false,
      "metar_trigger": false,
      "taf_trigger": false,
      "metar": "METAR LECH 230100Z AUTO 00000KT CAVOK 22/11 Q1020",
      "taf": "TAF LECH 222300Z 2300/2324 VRB04KT CAVOK TX36/2312Z TN20/2306Z"
    },
    {
      "icao": "LEMD",
      "alert": "OK",
      "vis_m": 9999,
      "fzfg": false,
      "metar_trigger": false,
      "taf_trigger": false,
      "metar": "METAR LEMD 230100Z 07002KT CAVOK 26/07 Q1020 NOSIG",
      "taf": "TAF LEMD 222300Z 2300/2406 VRB04KT CAVOK TX40/2316Z TN23/2305Z"
    },
    {
      "icao": "LEMG",
      "alert": "OK",
      "vis_m": 9999,
      "fzfg": false,
      "metar_trigger": false,
      "taf_trigger": false,
      "metar": "METAR LEMG 230100Z 28008KT CAVOK 25/17 Q1015 NOSIG",
      "taf": "TAF LEMG 222300Z 2300/2324 29007KT CAVOK TX32/2314Z TN22/2306Z"
    },
    {
      "icao": "LEVC",
      "alert": "OK",
      "vis_m": 9999,
      "fzfg": false,
      "metar_trigger": false,
      "taf_trigger": false,
      "metar": "METAR LEVC 230100Z 31005KT CAVOK 24/12 Q1018 NOSIG",
      "taf": "TAF LEVC 222300Z 2300/2324 VRB03KT CAVOK TX36/2312Z TN22/2306Z"
    },
    {
      "icao": "LEXJ",
      "alert": "OK",
      "vis_m": 4300,
      "fzfg": false,
      "metar_trigger": false,
      "taf_trigger": false,
      "metar": "METAR LEXJ 230100Z AUTO 27005KT 210V300 4300 BR NCD 21/21 Q1016",
      "taf": "TAF LEXJ 222000Z 2221/2321 05009KT 9999 FEW010 TX32/2314Z TN20/2303Z"
    },
    {
      "icao": "LEZG",
      "alert": "OK",
      "vis_m": 9999,
      "fzfg": false,
      "metar_trigger": false,
      "taf_trigger": false,
      "metar": "METAR LEZG 230100Z 15004KT CAVOK 27/10 Q1018 NOSIG",
      "taf": "TAF LEZG 222300Z 2300/2324 10008KT CAVOK TX42/2315Z TN24/2306Z"
    },
    {
      "icao": "LEZL",
      "alert": "OK",
      "vis_m": 9999,
      "fzfg": false,
      "metar_trigger": false,
      "taf_trigger": false,
      "metar": "METAR LEZL 230100Z AUTO 33003KT CAVOK 26/19 Q1014",
      "taf": "TAF LEZL 222000Z 2221/2321 VRB03KT CAVOK TX38/2315Z TN23/2306Z"
    },
    {
      "icao": "LFBD",
      "alert": "OK",
      "vis_m": 9999,
      "fzfg": false,
      "metar_trigger": false,
      "taf_trigger": false,
      "metar": "METAR LFBD 230130Z AUTO VRB01KT CAVOK 25/18 Q1017 NOSIG",
      "taf": "TAF LFBD 222300Z 2300/2406 VRB03KT CAVOK TX43/2315Z TN27/2305Z"
    },
    {
      "icao": "LFLL",
      "alert": "OK",
      "vis_m": 9999,
      "fzfg": false,
      "metar_trigger": false,
      "taf_trigger": false,
      "metar": "METAR LFLL 230130Z 13002KT CAVOK 25/16 Q1020 NOSIG",
      "taf": "TAF LFLL 222300Z 2300/2406 16005KT CAVOK"
    },
    {
      "icao": "LFLS",
      "alert": "OK",
      "vis_m": 9999,
      "fzfg": false,
      "metar_trigger": false,
      "taf_trigger": false,
      "metar": "METAR LFLS 230130Z AUTO 10006KT CAVOK 18/15 Q1021",
      "taf": "TAF LFLS 221400Z 2215/2315 36010KT CAVOK"
    },
    {
      "icao": "LFMN",
      "alert": "OK",
      "vis_m": 9999,
      "fzfg": false,
      "metar_trigger": false,
      "taf_trigger": false,
      "metar": "METAR LFMN 230130Z 34009KT CAVOK 25/16 Q1018 NOSIG",
      "taf": "TAF LFMN 222000Z 2221/2403 33010KT CAVOK"
    },
    {
      "icao": "LFOB",
      "alert": "OK",
      "vis_m": 9999,
      "fzfg": false,
      "metar_trigger": false,
      "taf_trigger": false,
      "metar": "METAR LFOB 230130Z AUTO 05006KT CAVOK 21/19 Q1021 NOSIG",
      "taf": "TAF LFOB 222300Z 2300/2324 09005KT CAVOK"
    },
    {
      "icao": "LFPO",
      "alert": "OK",
      "vis_m": 9999,
      "fzfg": false,
      "metar_trigger": false,
      "taf_trigger": false,
      "metar": "METAR LFPO 230130Z AUTO 06004KT CAVOK 26/19 Q1021 NOSIG",
      "taf": "TAF LFPO 222300Z 2300/2406 05006KT CAVOK"
    },
    {
      "icao": "LFSB",
      "alert": "OK",
      "vis_m": 9999,
      "fzfg": false,
      "metar_trigger": false,
      "taf_trigger": false,
      "metar": "METAR LFSB 230130Z AUTO 25002KT CAVOK 19/16 Q1021 NOSIG",
      "taf": "TAF LFSB 222300Z 2300/2324 03005KT CAVOK"
    },
    {
      "icao": "LGAV",
      "alert": "OK",
      "vis_m": 9999,
      "fzfg": false,
      "metar_trigger": false,
      "taf_trigger": false,
      "metar": "METAR LGAV 230120Z 36011KT CAVOK 25/11 Q1015 NOSIG",
      "taf": "TAF LGAV 222300Z 2300/2324 02012KT 9999 FEW025"
    },
    {
      "icao": "LGTS",
      "alert": "OK",
      "vis_m": 9999,
      "fzfg": false,
      "metar_trigger": false,
      "taf_trigger": false,
      "metar": "METAR LGTS 230120Z 10005KT 9999 FEW020 22/17 Q1016 NOSIG",
      "taf": "TAF LGTS 222300Z 2300/2324 VRB03KT 9999 FEW030"
    },
    {
      "icao": "LHBP",
      "alert": "OK",
      "vis_m": 9999,
      "fzfg": false,
      "metar_trigger": false,
      "taf_trigger": false,
      "metar": "METAR LHBP 230130Z VRB02KT CAVOK 20/16 Q1019 NOSIG",
      "taf": "TAF LHBP 222315Z 2300/2324 VRB04KT CAVOK"
    },
    {
      "icao": "LHDC",
      "alert": "OK",
      "vis_m": 9999,
      "fzfg": false,
      "metar_trigger": false,
      "taf_trigger": false,
      "metar": "METAR LHDC 230115Z AUTO 02008KT 350V050 CAVOK 22/17 Q1017",
      "taf": "TAF LHDC 222315Z 2300/2309 01006KT CAVOK"
    },
    {
      "icao": "LIBD",
      "alert": "OK",
      "vis_m": 9999,
      "fzfg": false,
      "metar_trigger": false,
      "taf_trigger": false,
      "metar": "METAR LIBD 230120Z 28004KT CAVOK 22/18 Q1016",
      "taf": "TAF LIBD 222300Z 2300/2324 VRB04KT CAVOK"
    },
    {
      "icao": "LIBG",
      "alert": "OK",
      "vis_m": 9999,
      "fzfg": false,
      "metar_trigger": false,
      "taf_trigger": false,
      "metar": "METAR LIBG 230120Z AUTO 35006KT 310V010 9999 NCD 25/17 Q1015",
      "taf": "TAF LIBG 222300Z 2300/2324 VRB04KT CAVOK"
    },
    {
      "icao": "LIBP",
      "alert": "OK",
      "vis_m": 9999,
      "fzfg": false,
      "metar_trigger": false,
      "taf_trigger": false,
      "metar": "METAR LIBP 230120Z AUTO 26005KT 9999 NCD 23/19 Q1018",
      "taf": "TAF LIBP 222300Z 2300/2324 VRB04KT CAVOK"
    },
    {
      "icao": "LIBR",
      "alert": "OK",
      "vis_m": 9999,
      "fzfg": false,
      "metar_trigger": false,
      "taf_trigger": false,
      "metar": "METAR LIBR 230120Z 31011KT CAVOK 24/23 Q1015",
      "taf": "TAF LIBR 222300Z 2300/2324 33012KT CAVOK"
    },
    {
      "icao": "LICA",
      "alert": "OK",
      "vis_m": 9999,
      "fzfg": false,
      "metar_trigger": false,
      "taf_trigger": false,
      "metar": "METAR LICA 230120Z AUTO 10003KT 9999 NCD 22/20 Q1017",
      "taf": "TAF LICA 222300Z 2300/2324 VRB05KT 9999 FEW020"
    },
    {
      "icao": "LICC",
      "alert": "OK",
      "vis_m": 9999,
      "fzfg": false,
      "metar_trigger": false,
      "taf_trigger": false,
      "metar": "METAR LICC 230120Z 25005KT CAVOK 22/12 Q1016",
      "taf": "TAF LICC 222300Z 2300/2324 VRB05KT CAVOK"
    },
    {
      "icao": "LICJ",
      "alert": "OK",
      "vis_m": 9999,
      "fzfg": false,
      "metar_trigger": false,
      "taf_trigger": false,
      "metar": "METAR LICJ 230120Z 22003KT CAVOK 25/22 Q1017",
      "taf": "TAF LICJ 222300Z 2300/2324 VRB05KT CAVOK"
    },
    {
      "icao": "LIMC",
      "alert": "OK",
      "vis_m": 9999,
      "fzfg": false,
      "metar_trigger": false,
      "taf_trigger": false,
      "metar": "METAR LIMC 230120Z 09007KT CAVOK 27/19 Q1021 NOSIG",
      "taf": "TAF LIMC 222300Z 2300/2406 VRB06KT CAVOK"
    },
    {
      "icao": "LIME",
      "alert": "OK",
      "vis_m": 9999,
      "fzfg": false,
      "metar_trigger": false,
      "taf_trigger": false,
      "metar": "METAR LIME 230050Z 34003KT 300V360 9999 SCT070 26/19 Q1021 NOSIG",
      "taf": "TAF LIME 222300Z 2300/2324 VRB06KT CAVOK"
    },
    {
      "icao": "LIMF",
      "alert": "OK",
      "vis_m": 9999,
      "fzfg": false,
      "metar_trigger": false,
      "taf_trigger": false,
      "metar": "METAR LIMF 230120Z 07005KT CAVOK 25/21 Q1021",
      "taf": "TAF LIMF 222300Z 2300/2324 VRB06KT CAVOK"
    },
    {
      "icao": "LIMJ",
      "alert": "OK",
      "vis_m": 9999,
      "fzfg": false,
      "metar_trigger": false,
      "taf_trigger": false,
      "metar": "METAR LIMJ 230120Z 04005KT 010V170 CAVOK 28/20 Q1018",
      "taf": "TAF LIMJ 222300Z 2300/2324 VRB06KT CAVOK"
    },
    {
      "icao": "LIPE",
      "alert": "OK",
      "vis_m": 9999,
      "fzfg": false,
      "metar_trigger": false,
      "taf_trigger": false,
      "metar": "METAR LIPE 230120Z 14003KT 060V200 CAVOK 25/16 Q1019",
      "taf": "TAF LIPE 222300Z 2300/2324 VRB05KT CAVOK"
    },
    {
      "icao": "LIPH",
      "alert": "OK",
      "vis_m": 9999,
      "fzfg": false,
      "metar_trigger": false,
      "taf_trigger": false,
      "metar": "METAR LIPH 230120Z AUTO 02003KT 9999 FEW130/// 23/19 Q1018",
      "taf": "TAF LIPH 222300Z 2300/2324 VRB05KT 9999 FEW040"
    },
    {
      "icao": "LIPQ",
      "alert": "OK",
      "vis_m": 9999,
      "fzfg": false,
      "metar_trigger": false,
      "taf_trigger": false,
      "metar": "METAR LIPQ 230120Z AUTO 03004KT 9999 NCD 21/19 Q1018",
      "taf": "TAF LIPQ 222300Z 2300/2324 VRB05KT 9999 FEW040"
    },
    {
      "icao": "LIPR",
      "alert": "OK",
      "vis_m": 9999,
      "fzfg": false,
      "metar_trigger": false,
      "taf_trigger": false,
      "metar": "METAR LIPR 230120Z AUTO 24006KT 9999 NCD 23/18 Q1019",
      "taf": "TAF LIPR 222300Z 2300/2324 VRB04KT 9999 FEW030"
    },
    {
      "icao": "LIPX",
      "alert": "OK",
      "vis_m": 9999,
      "fzfg": false,
      "metar_trigger": false,
      "taf_trigger": false,
      "metar": "METAR LIPX 230120Z 31005KT 9999 SCT060 22/19 Q1019",
      "taf": "TAF LIPX 222300Z 2300/2324 VRB06KT CAVOK"
    },
    {
      "icao": "LIPY",
      "alert": "OK",
      "vis_m": 9999,
      "fzfg": false,
      "metar_trigger": false,
      "taf_trigger": false,
      "metar": "METAR LIPY 230120Z AUTO 17003KT 9999 NCD 23/20 Q1018",
      "taf": "TAF LIPY 222300Z 2300/2324 VRB04KT CAVOK"
    },
    {
      "icao": "LIPZ",
      "alert": "OK",
      "vis_m": 9999,
      "fzfg": false,
      "metar_trigger": false,
      "taf_trigger": false,
      "metar": "METAR LIPZ 230120Z 06002KT CAVOK 23/19 Q1018 NOSIG",
      "taf": "TAF LIPZ 222300Z 2300/2406 VRB04KT 9999 FEW040"
    },
    {
      "icao": "LIRF",
      "alert": "OK",
      "vis_m": 9999,
      "fzfg": false,
      "metar_trigger": false,
      "taf_trigger": false,
      "metar": "METAR LIRF 230120Z 36004KT CAVOK 21/18 Q1017 NOSIG",
      "taf": "TAF LIRF 222300Z 2300/2406 VRB05KT CAVOK"
    },
    {
      "icao": "LIRN",
      "alert": "OK",
      "vis_m": 9999,
      "fzfg": false,
      "metar_trigger": false,
      "taf_trigger": false,
      "metar": "METAR LIRN 230120Z 32003KT CAVOK 25/19 Q1017 NOSIG",
      "taf": "TAF LIRN 222300Z 2300/2324 VRB05KT 9999 SCT030"
    },
    {
      "icao": "LIRP",
      "alert": "OK",
      "vis_m": null,
      "fzfg": false,
      "metar_trigger": false,
      "taf_trigger": false,
      "metar": "",
      "taf": "TAF LIRP 222300Z 2300/2324 08005KT CAVOK"
    },
    {
      "icao": "LIRZ",
      "alert": "OK",
      "vis_m": 9999,
      "fzfg": false,
      "metar_trigger": false,
      "taf_trigger": false,
      "metar": "METAR LIRZ 230120Z AUTO 27005KT 9999 NCD 22/16 Q1019",
      "taf": "TAF LIRZ 222300Z 2300/2324 VRB05KT CAVOK"
    },
    {
      "icao": "LJLJ",
      "alert": "OK",
      "vis_m": 9999,
      "fzfg": false,
      "metar_trigger": false,
      "taf_trigger": false,
      "metar": "METAR LJLJ 230100Z 30006KT 9999 FEW005 19/16 Q1022 NOSIG",
      "taf": "TAF LJLJ 222300Z 2300/2400 08005KT 9999 FEW060"
    },
    {
      "icao": "LKMT",
      "alert": "OK",
      "vis_m": 9999,
      "fzfg": false,
      "metar_trigger": false,
      "taf_trigger": false,
      "metar": "METAR LKMT 230130Z 21003KT CAVOK 16/15 Q1022 NOSIG",
      "taf": "TAF LKMT 222300Z 2300/2324 VRB02KT CAVOK"
    },
    {
      "icao": "LKPR",
      "alert": "OK",
      "vis_m": 9999,
      "fzfg": false,
      "metar_trigger": false,
      "taf_trigger": false,
      "metar": "METAR LKPR 230130Z 03003KT CAVOK 18/15 Q1023 NOSIG",
      "taf": "TAF LKPR 222300Z 2300/2406 03004KT CAVOK"
    },
    {
      "icao": "LLBG",
      "alert": "OK",
      "vis_m": 9999,
      "fzfg": false,
      "metar_trigger": false,
      "taf_trigger": false,
      "metar": "METAR LLBG 230120Z 16005KT 9999 FEW020 22/19 Q1009 NOSIG",
      "taf": "TAF LLBG 222302Z 2300/2324 VRB03KT 9999 FEW025 TX29/2311Z TN20/2303Z"
    },
    {
      "icao": "LMML",
      "alert": "OK",
      "vis_m": 9999,
      "fzfg": false,
      "metar_trigger": false,
      "taf_trigger": false,
      "metar": "METAR LMML 230115Z 29004KT CAVOK 24/21 Q1017 NOSIG",
      "taf": "TAF LMML 222300Z 2300/2324 29009KT 9999 FEW015"
    },
    {
      "icao": "LOWW",
      "alert": "OK",
      "vis_m": 9999,
      "fzfg": false,
      "metar_trigger": false,
      "taf_trigger": false,
      "metar": "METAR LOWW 230120Z 34005KT CAVOK 20/17 Q1021 NOSIG",
      "taf": "TAF LOWW 222315Z 2300/2406 33004KT 9999 FEW050 TX31/2314Z TN19/2403Z"
    },
    {
      "icao": "LPFR",
      "alert": "OK",
      "vis_m": 9999,
      "fzfg": false,
      "metar_trigger": false,
      "taf_trigger": false,
      "metar": "METAR LPFR 230100Z 21003KT CAVOK 21/20 Q1014",
      "taf": "TAF LPFR 222300Z 2300/2324 VRB02KT CAVOK"
    },
    {
      "icao": "LPMA",
      "alert": "OK",
      "vis_m": 9999,
      "fzfg": false,
      "metar_trigger": false,
      "taf_trigger": false,
      "metar": "METAR LPMA 230100Z 34011KT 9999 FEW015 21/15 Q1019",
      "taf": "TAF LPMA 222300Z 2300/2324 36012KT 9999 SCT015"
    },
    {
      "icao": "LPPR",
      "alert": "OK",
      "vis_m": 3500,
      "fzfg": false,
      "metar_trigger": false,
      "taf_trigger": false,
      "metar": "METAR LPPR 230100Z 31003KT 270V340 3500 BR BKN002 18/17 Q1015",
      "taf": "TAF LPPR 222300Z 2300/2324 VRB02KT 8000 SCT005"
    },
    {
      "icao": "LPPS",
      "alert": "OK",
      "vis_m": 9999,
      "fzfg": false,
      "metar_trigger": false,
      "taf_trigger": false,
      "metar": "METAR LPPS 230100Z 33007KT 9999 FEW015 21/17 Q1019",
      "taf": "TAF LPPS 222300Z 2300/2406 33012KT 9999 FEW015"
    },
    {
      "icao": "LPPT",
      "alert": "OK",
      "vis_m": 9999,
      "fzfg": false,
      "metar_trigger": false,
      "taf_trigger": false,
      "metar": "METAR LPPT 230100Z 31006KT CAVOK 20/17 Q1014",
      "taf": "TAF LPPT 222300Z 2300/2406 VRB05KT 9999 SCT012"
    },
    {
      "icao": "LQBK",
      "alert": "OK",
      "vis_m": 9999,
      "fzfg": false,
      "metar_trigger": false,
      "taf_trigger": false,
      "metar": "METAR LQBK 230130Z 15003KT CAVOK 20/17 Q1019 NOSIG",
      "taf": "TAF LQBK 222300Z 2300/2324 28007KT CAVOK TX32/2314Z TN20/2303Z"
    },
    {
      "icao": "LQSA",
      "alert": "OK",
      "vis_m": 9999,
      "fzfg": false,
      "metar_trigger": false,
      "taf_trigger": false,
      "metar": "METAR LQSA 230130Z VRB02KT 9999 FEW005 17/16 Q1021",
      "taf": "TAF LQSA 222300Z 2300/2324 VRB02KT CAVOK TX28/2311Z TN16/2303Z"
    },
    {
      "icao": "LQTZ",
      "alert": "OK",
      "vis_m": 9999,
      "fzfg": false,
      "metar_trigger": false,
      "taf_trigger": false,
      "metar": "METAR LQTZ 230130Z 05002KT CAVOK 18/18 Q1019",
      "taf": "TAF LQTZ 222300Z 2300/2324 28005KT 9999 SCT050 TX27/2314Z TN17/2303Z"
    },
    {
      "icao": "LRBC",
      "alert": "OK",
      "vis_m": 9999,
      "fzfg": false,
      "metar_trigger": false,
      "taf_trigger": false,
      "metar": "METAR LRBC 230100Z 01003KT 340V040 CAVOK 18/17 Q1018",
      "taf": "TAF LRBC 222300Z 2300/2309 VRB04KT CAVOK"
    },
    {
      "icao": "LRBS",
      "alert": "OK",
      "vis_m": 9999,
      "fzfg": false,
      "metar_trigger": false,
      "taf_trigger": false,
      "metar": "METAR LRBS 230100Z 00000KT CAVOK 20/17 Q1016 NOSIG",
      "taf": "TAF LRBS 222300Z 2300/2324 04005KT 9999 FEW045"
    },
    {
      "icao": "LRBV",
      "alert": "OK",
      "vis_m": 6000,
      "fzfg": false,
      "metar_trigger": false,
      "taf_trigger": false,
      "metar": "METAR LRBV 230100Z AUTO VRB02KT 6000 OVC095/// 17/17 Q1019",
      "taf": "TAF LRBV 221700Z 2218/2303 34008KT 9999 SCT060"
    },
    {
      "icao": "LRCL",
      "alert": "OK",
      "vis_m": 9999,
      "fzfg": false,
      "metar_trigger": false,
      "taf_trigger": false,
      "metar": "METAR LRCL 230100Z 00000KT 9999 MIFG NSC 16/16 Q1019",
      "taf": "TAF LRCL 222300Z 2300/2309 VRB04KT 9999 FEW050"
    },
    {
      "icao": "LRCV",
      "alert": "OK",
      "vis_m": 9999,
      "fzfg": false,
      "metar_trigger": false,
      "taf_trigger": false,
      "metar": "METAR LRCV 230100Z 05002KT CAVOK 19/19 Q1017",
      "taf": "TAF LRCV 222300Z 2300/2309 VRB04KT 9999 SCT045"
    },
    {
      "icao": "LRIA",
      "alert": "OK",
      "vis_m": 9999,
      "fzfg": false,
      "metar_trigger": false,
      "taf_trigger": false,
      "metar": "METAR LRIA 230100Z 26003KT CAVOK 17/16 Q1017",
      "taf": "TAF LRIA 222300Z 2300/2309 VRB04KT CAVOK"
    },
    {
      "icao": "LROP",
      "alert": "OK",
      "vis_m": 9999,
      "fzfg": false,
      "metar_trigger": false,
      "taf_trigger": false,
      "metar": "METAR LROP 230100Z 36006KT CAVOK 22/19 Q1017 NOSIG",
      "taf": "TAF LROP 222300Z 2300/2324 04005KT 9999 FEW045"
    },
    {
      "icao": "LRSB",
      "alert": "OK",
      "vis_m": 6000,
      "fzfg": false,
      "metar_trigger": false,
      "taf_trigger": false,
      "metar": "METAR LRSB 230100Z VRB01KT 6000 0800S BCFG FEW005 17/17 Q1019",
      "taf": "TAF LRSB 222300Z 2300/2324 VRB04KT 9999 SCT045"
    },
    {
      "icao": "LRSM",
      "alert": "OK",
      "vis_m": 9999,
      "fzfg": false,
      "metar_trigger": false,
      "taf_trigger": false,
      "metar": "METAR LRSM 230100Z AUTO 04003KT 9999 NCD 19/17 Q1018",
      "taf": "TAF LRSM 221400Z 2215/2224 VRB04KT 9999 SCT040"
    },
    {
      "icao": "LRSV",
      "alert": "OK",
      "vis_m": 9999,
      "fzfg": false,
      "metar_trigger": false,
      "taf_trigger": false,
      "metar": "METAR LRSV 230100Z 30011KT CAVOK 19/15 Q1019",
      "taf": "TAF LRSV 222300Z 2300/2309 VRB04KT CAVOK"
    },
    {
      "icao": "LRTM",
      "alert": "OK",
      "vis_m": 9999,
      "fzfg": false,
      "metar_trigger": false,
      "taf_trigger": false,
      "metar": "METAR LRTM 230100Z 06004KT 030V090 9999 FEW006 16/16 Q1019",
      "taf": "TAF LRTM 222300Z 2300/2309 VRB04KT 7000 BKN025"
    },
    {
      "icao": "LRTR",
      "alert": "OK",
      "vis_m": 9999,
      "fzfg": false,
      "metar_trigger": false,
      "taf_trigger": false,
      "metar": "METAR LRTR 230100Z 12002KT CAVOK 19/19 Q1017",
      "taf": "TAF LRTR 222300Z 2300/2324 VRB04KT CAVOK"
    },
    {
      "icao": "LTAC",
      "alert": "OK",
      "vis_m": 9999,
      "fzfg": false,
      "metar_trigger": false,
      "taf_trigger": false,
      "metar": "METAR LTAC 230120Z 05005KT CAVOK 10/07 Q1017 NOSIG",
      "taf": "TAF LTAC 222240Z 2300/2324 05008KT CAVOK"
    },
    {
      "icao": "LTFM",
      "alert": "OK",
      "vis_m": 9999,
      "fzfg": false,
      "metar_trigger": false,
      "taf_trigger": false,
      "metar": "METAR LTFM 230120Z 02006KT 9999 SCT014 21/19 Q1016 NOSIG",
      "taf": "TAF LTFM 222240Z 2300/2406 06005KT 9999 SCT014"
    },
    {
      "icao": "LUKK",
      "alert": "OK",
      "vis_m": 9999,
      "fzfg": false,
      "metar_trigger": false,
      "taf_trigger": false,
      "metar": "METAR LUKK 230130Z VRB03KT CAVOK 17/16 Q1017 NOSIG",
      "taf": "TAF LUKK 222305Z 2300/2324 VRB04KT CAVOK"
    },
    {
      "icao": "LWOH",
      "alert": "OK",
      "vis_m": null,
      "fzfg": false,
      "metar_trigger": false,
      "taf_trigger": false,
      "metar": "",
      "taf": "TAF LWOH 222305Z 2300/2324 33006KT CAVOK"
    },
    {
      "icao": "LWSK",
      "alert": "OK",
      "vis_m": 9999,
      "fzfg": false,
      "metar_trigger": false,
      "taf_trigger": false,
      "metar": "METAR LWSK 230120Z VRB01KT CAVOK 19/16 Q1017 NOSIG",
      "taf": "TAF LWSK 222305Z 2300/2324 VRB02KT CAVOK"
    },
    {
      "icao": "LYBE",
      "alert": "OK",
      "vis_m": 9999,
      "fzfg": false,
      "metar_trigger": false,
      "taf_trigger": false,
      "metar": "METAR LYBE 230130Z 35005KT CAVOK 20/18 Q1018 NOSIG",
      "taf": "TAF LYBE 222300Z 2300/2324 28005KT CAVOK TX30/2314Z TN19/2303Z"
    },
    {
      "icao": "LYNI",
      "alert": "OK",
      "vis_m": 9999,
      "fzfg": false,
      "metar_trigger": false,
      "taf_trigger": false,
      "metar": "METAR LYNI 230130Z VRB01KT 9999 FEW050 20/18 Q1017 NOSIG",
      "taf": "TAF LYNI 222300Z 2300/2324 06004KT 9999 SCT055 TX29/2314Z TN17/2303Z"
    },
    {
      "icao": "LYPG",
      "alert": "OK",
      "vis_m": 9999,
      "fzfg": false,
      "metar_trigger": false,
      "taf_trigger": false,
      "metar": "METAR LYPG 230130Z VRB01KT CAVOK 25/16 Q1016 NOSIG",
      "taf": "TAF LYPG 222300Z 2300/2324 36009KT CAVOK TX34/2313Z TN23/2303Z"
    },
    {
      "icao": "LZIB",
      "alert": "OK",
      "vis_m": 9999,
      "fzfg": false,
      "metar_trigger": false,
      "taf_trigger": false,
      "metar": "METAR LZIB 230130Z 30002KT CAVOK 23/17 Q1020 NOSIG",
      "taf": "TAF LZIB 222315Z 2300/2400 02006KT CAVOK"
    },
    {
      "icao": "LZKZ",
      "alert": "OK",
      "vis_m": 9999,
      "fzfg": false,
      "metar_trigger": false,
      "taf_trigger": false,
      "metar": "METAR LZKZ 230130Z 01009KT CAVOK 20/17 Q1019 NOSIG",
      "taf": "TAF LZKZ 222315Z 2300/2400 03010KT CAVOK"
    },
    {
      "icao": "LZTT",
      "alert": "OK",
      "vis_m": 9999,
      "fzfg": false,
      "metar_trigger": false,
      "taf_trigger": false,
      "metar": "METAR LZTT 230130Z 29005KT 270V350 CAVOK 14/14 Q1022",
      "taf": "TAF LZTT 222315Z 2300/2400 VRB02KT CAVOK"
    },
    {
      "icao": "OEJN",
      "alert": "OK",
      "vis_m": 9999,
      "fzfg": false,
      "metar_trigger": false,
      "taf_trigger": false,
      "metar": "METAR OEJN 230100Z 26004KT CAVOK 29/24 Q1004 NOSIG",
      "taf": "TAF OEJN 222300Z 2300/2406 VRB03KT 7000 NSC"
    },
    {
      "icao": "OEMA",
      "alert": "OK",
      "vis_m": 9999,
      "fzfg": false,
      "metar_trigger": false,
      "taf_trigger": false,
      "metar": "METAR OEMA 230100Z VRB02KT CAVOK 35/M02 Q1009 NOSIG",
      "taf": "TAF OEMA 222300Z 2300/2406 27005KT CAVOK"
    },
    {
      "icao": "OJAI",
      "alert": "OK",
      "vis_m": 5000,
      "fzfg": false,
      "metar_trigger": false,
      "taf_trigger": false,
      "metar": "METAR OJAI 230100Z 24003KT 5000 HZ NSC 17/12 Q1012 NOSIG",
      "taf": "TAF OJAI 222255Z 2300/2406 28010KT 5000 HZ NSC"
    },
    {
      "icao": "OMAA",
      "alert": "OK",
      "vis_m": 6000,
      "fzfg": false,
      "metar_trigger": false,
      "taf_trigger": false,
      "metar": "METAR OMAA 230130Z 11007KT 6000 NSC 30/24 Q0999 NOSIG",
      "taf": "TAF OMAA 222300Z 2300/2406 35008KT 7000 NSC"
    },
    {
      "icao": "OMDB",
      "alert": "OK",
      "vis_m": 8000,
      "fzfg": false,
      "metar_trigger": false,
      "taf_trigger": false,
      "metar": "METAR OMDB 230130Z 09006KT 8000 NSC 32/24 Q0998 NOSIG",
      "taf": "TAF OMDB 222300Z 2300/2406 VRB02KT 8000 NSC"
    },
    {
      "icao": "UAAA",
      "alert": "OK",
      "vis_m": 9999,
      "fzfg": false,
      "metar_trigger": false,
      "taf_trigger": false,
      "metar": "METAR UAAA 230100Z 20001MPS 9999 NSC 22/09 Q1011 NOSIG",
      "taf": "TAF UAAA 222301Z 2300/2324 20003MPS 9999 FEW050CB SCT100 TX35/2310Z TN20/2301Z"
    },
    {
      "icao": "UBBB",
      "alert": "OK",
      "vis_m": 9999,
      "fzfg": false,
      "metar_trigger": false,
      "taf_trigger": false,
      "metar": "METAR UBBB 230130Z 32004KT CAVOK 22/16 Q1015 NOSIG",
      "taf": "TAF UBBB 222304Z 2300/2324 34008KT 9999 BKN040 TX28/2310Z TN20/2301Z"
    },
    {
      "icao": "UDSG",
      "alert": "OK",
      "vis_m": 9999,
      "fzfg": false,
      "metar_trigger": false,
      "taf_trigger": false,
      "metar": "METAR UDSG 230100Z 22003KT 9999 NSC 11/10 Q1020 NOSIG",
      "taf": "TAF UDSG 222300Z 2300/2324 22006KT 9999 SCT050"
    },
    {
      "icao": "UDYZ",
      "alert": "OK",
      "vis_m": 9999,
      "fzfg": false,
      "metar_trigger": false,
      "taf_trigger": false,
      "metar": "METAR UDYZ 230100Z 35008KT 9999 NSC 21/10 Q1015 NOSIG",
      "taf": "TAF UDYZ 222300Z 2300/2324 03006KT 9999 FEW040"
    },
    {
      "icao": "UGKO",
      "alert": "OK",
      "vis_m": 9999,
      "fzfg": false,
      "metar_trigger": false,
      "taf_trigger": false,
      "metar": "METAR UGKO 230100Z 08003KT 9999 SCT012 BKN017 17/17 Q1015 NOSIG",
      "taf": "TAF UGKO 222300Z 2300/2324 VRB02KT CAVOK TX30/2311Z TN16/2302Z"
    }
  ]
}