{
  "ts_utc": "2026-07-14T09:25:58Z",
  "threshold_m": 150,
  "source": "stations_override.txt (ICAO list) + aviationweather.gov (METAR/TAF raw)",
  "station_count": 159,
  "stations": [
    {
      "icao": "BIKF",
      "alert": "OK",
      "vis_m": 1200,
      "fzfg": false,
      "metar_trigger": false,
      "taf_trigger": false,
      "metar": "METAR BIKF 140900Z 16018KT 1200 R19/P1500D -DZRA BR OVC003 11/11 Q1018",
      "taf": "TAF BIKF 140754Z 1409/1509 16018KT 4000 RADZ BKN005 OVC010 TX11/1415Z TN10/1503Z"
    },
    {
      "icao": "BKPR",
      "alert": "OK",
      "vis_m": null,
      "fzfg": false,
      "metar_trigger": false,
      "taf_trigger": false,
      "metar": "",
      "taf": "TAF BKPR 140530Z 1406/1506 33008KT 9999 FEW050"
    },
    {
      "icao": "EBCI",
      "alert": "OK",
      "vis_m": 9999,
      "fzfg": false,
      "metar_trigger": false,
      "taf_trigger": false,
      "metar": "METAR EBCI 140850Z 35006KT 290V040 CAVOK 26/17 Q1018 NOSIG",
      "taf": "TAF EBCI 140507Z 1406/1512 03007KT CAVOK"
    },
    {
      "icao": "EDDB",
      "alert": "OK",
      "vis_m": 9999,
      "fzfg": false,
      "metar_trigger": false,
      "taf_trigger": false,
      "metar": "METAR EDDB 140920Z AUTO 05012KT 9999 SHRA FEW009 FEW///TCU 18/17 Q1020 TEMPO NSW",
      "taf": "TAF EDDB 140500Z 1406/1506 05008KT 9999 BKN009"
    },
    {
      "icao": "EDDH",
      "alert": "OK",
      "vis_m": 9999,
      "fzfg": false,
      "metar_trigger": false,
      "taf_trigger": false,
      "metar": "METAR EDDH 140920Z AUTO 07010KT 040V100 CAVOK 21/13 Q1022 NOSIG",
      "taf": "TAF EDDH 140500Z 1406/1512 07005KT CAVOK"
    },
    {
      "icao": "EDDK",
      "alert": "OK",
      "vis_m": 9999,
      "fzfg": false,
      "metar_trigger": false,
      "taf_trigger": false,
      "metar": "METAR EDDK 140920Z AUTO 06006KT 020V120 CAVOK 29/15 Q1017 NOSIG",
      "taf": "TAF EDDK 140500Z 1406/1512 VRB03KT CAVOK"
    },
    {
      "icao": "EDDN",
      "alert": "OK",
      "vis_m": 9999,
      "fzfg": false,
      "metar_trigger": false,
      "taf_trigger": false,
      "metar": "METAR EDDN 140920Z AUTO VRB02KT CAVOK 27/15 Q1017 NOSIG",
      "taf": "TAF EDDN 140500Z 1406/1506 10006KT CAVOK"
    },
    {
      "icao": "EDDS",
      "alert": "OK",
      "vis_m": 9999,
      "fzfg": false,
      "metar_trigger": false,
      "taf_trigger": false,
      "metar": "METAR EDDS 140920Z AUTO VRB02KT CAVOK 24/18 Q1018 NOSIG",
      "taf": "TAF EDDS 140500Z 1406/1506 VRB03KT CAVOK"
    },
    {
      "icao": "EDFH",
      "alert": "OK",
      "vis_m": 9999,
      "fzfg": false,
      "metar_trigger": false,
      "taf_trigger": false,
      "metar": "METAR EDFH 140850Z VRB04KT CAVOK 25/14 Q1018",
      "taf": "TAF EDFH 140500Z 1406/1506 08008KT CAVOK"
    },
    {
      "icao": "EDJA",
      "alert": "OK",
      "vis_m": 9000,
      "fzfg": false,
      "metar_trigger": false,
      "taf_trigger": false,
      "metar": "METAR EDJA 140850Z 10006KT 340V140 9000 FEW023 17/16 Q1019",
      "taf": "TAF EDJA 140800Z 1409/1418 23008KT CAVOK"
    },
    {
      "icao": "EDLW",
      "alert": "OK",
      "vis_m": 9999,
      "fzfg": false,
      "metar_trigger": false,
      "taf_trigger": false,
      "metar": "METAR EDLW 140850Z 06007KT 030V110 CAVOK 24/15 Q1019",
      "taf": "TAF EDLW 140500Z 1406/1506 04005KT CAVOK"
    },
    {
      "icao": "EDNY",
      "alert": "OK",
      "vis_m": 9999,
      "fzfg": false,
      "metar_trigger": false,
      "taf_trigger": false,
      "metar": "METAR EDNY 140850Z 14008KT 090V180 9999 -RA FEW015 19/17 Q1018",
      "taf": "TAF EDNY 140800Z 1409/1418 05004KT CAVOK"
    },
    {
      "icao": "EDSB",
      "alert": "OK",
      "vis_m": 9999,
      "fzfg": false,
      "metar_trigger": false,
      "taf_trigger": false,
      "metar": "METAR EDSB 140850Z VRB03KT CAVOK 25/18 Q1016",
      "taf": "TAF EDSB 140500Z 1406/1506 27004KT CAVOK"
    },
    {
      "icao": "EETN",
      "alert": "OK",
      "vis_m": 9999,
      "fzfg": false,
      "metar_trigger": false,
      "taf_trigger": false,
      "metar": "METAR EETN 140920Z 05007KT 9999 SCT015 BKN027 19/15 Q1020 BECMG SCT020",
      "taf": "TAF EETN 140530Z 1406/1506 02010KT 9999 SCT012 BKN035"
    },
    {
      "icao": "EFTU",
      "alert": "OK",
      "vis_m": 9999,
      "fzfg": false,
      "metar_trigger": false,
      "taf_trigger": false,
      "metar": "METAR EFTU 140920Z AUTO 01006KT 320V060 CAVOK 22/11 Q1021",
      "taf": "TAF EFTU 140828Z 1409/1509 02009KT CAVOK"
    },
    {
      "icao": "EGBB",
      "alert": "OK",
      "vis_m": 9999,
      "fzfg": false,
      "metar_trigger": false,
      "taf_trigger": false,
      "metar": "METAR EGBB 140920Z 03011KT 9999 BKN022 19/12 Q1025",
      "taf": "TAF EGBB 140459Z 1406/1506 04010KT 9999 BKN012"
    },
    {
      "icao": "EGGP",
      "alert": "OK",
      "vis_m": 9999,
      "fzfg": false,
      "metar_trigger": false,
      "taf_trigger": false,
      "metar": "METAR EGGP 140920Z 06010KT 020V090 CAVOK 19/09 Q1025",
      "taf": "TAF EGGP 140459Z 1406/1506 08009KT 9999 FEW045"
    },
    {
      "icao": "EGGW",
      "alert": "OK",
      "vis_m": 9999,
      "fzfg": false,
      "metar_trigger": false,
      "taf_trigger": false,
      "metar": "METAR EGGW 140920Z 01012KT 9999 BKN008 17/15 Q1023",
      "taf": ""
    },
    {
      "icao": "EGKK",
      "alert": "OK",
      "vis_m": 9999,
      "fzfg": false,
      "metar_trigger": false,
      "taf_trigger": false,
      "metar": "METAR EGKK 140850Z 04012KT 9999 BKN018 21/15 Q1021",
      "taf": "TAF EGKK 140455Z 1406/1512 05010KT CAVOK"
    },
    {
      "icao": "EGNM",
      "alert": "OK",
      "vis_m": 9999,
      "fzfg": false,
      "metar_trigger": false,
      "taf_trigger": false,
      "metar": "METAR EGNM 140920Z 01012KT 9999 FEW019 17/10 Q1026",
      "taf": "TAF EGNM 140500Z 1406/1506 04012KT 9999 FEW013"
    },
    {
      "icao": "EGPD",
      "alert": "OK",
      "vis_m": 9999,
      "fzfg": false,
      "metar_trigger": false,
      "taf_trigger": false,
      "metar": "METAR EGPD 140920Z AUTO 35004KT 320V020 9999 OVC006 13/11 Q1030",
      "taf": ""
    },
    {
      "icao": "EGPF",
      "alert": "OK",
      "vis_m": 9999,
      "fzfg": false,
      "metar_trigger": false,
      "taf_trigger": false,
      "metar": "METAR EGPF 140920Z AUTO 06009KT 9999 OVC014 14/11 Q1029",
      "taf": ""
    },
    {
      "icao": "EHBK",
      "alert": "OK",
      "vis_m": 9999,
      "fzfg": false,
      "metar_trigger": false,
      "taf_trigger": false,
      "metar": "METAR EHBK 140855Z AUTO 05008KT 010V090 9999 NCD 27/15 Q1017 NOSIG",
      "taf": "TAF EHBK 140444Z 1406/1512 05007KT CAVOK"
    },
    {
      "icao": "EHEH",
      "alert": "OK",
      "vis_m": 9999,
      "fzfg": false,
      "metar_trigger": false,
      "taf_trigger": false,
      "metar": "METAR EHEH 140855Z AUTO 03009KT 020V100 9999 NCD 26/17 Q1018 BLU NOSIG RMK TREND REMOTE BY EHWX",
      "taf": "TAF EHEH 140530Z 1406/1512 03006KT CAVOK"
    },
    {
      "icao": "EKBI",
      "alert": "OK",
      "vis_m": 9999,
      "fzfg": false,
      "metar_trigger": false,
      "taf_trigger": false,
      "metar": "METAR EKBI 140920Z AUTO 06006KT 360V140 9999 NCD 24/11 Q1024",
      "taf": "TAF EKBI 140827Z 1409/1509 03008KT CAVOK"
    },
    {
      "icao": "EKCH",
      "alert": "OK",
      "vis_m": 9999,
      "fzfg": false,
      "metar_trigger": false,
      "taf_trigger": false,
      "metar": "METAR EKCH 140920Z AUTO 12005KT 080V160 9999 NCD 24/15 Q1023 NOSIG",
      "taf": "TAF EKCH 140827Z 1409/1509 VRB04KT CAVOK"
    },
    {
      "icao": "ENAL",
      "alert": "OK",
      "vis_m": 9999,
      "fzfg": false,
      "metar_trigger": false,
      "taf_trigger": false,
      "metar": "METAR ENAL 140850Z 05009KT 9999 BKN007 13/11 Q1028",
      "taf": "TAF ENAL 140800Z 1409/1418 04009KT 9999 BKN006"
    },
    {
      "icao": "ENBR",
      "alert": "OK",
      "vis_m": 9999,
      "fzfg": false,
      "metar_trigger": false,
      "taf_trigger": false,
      "metar": "METAR ENBR 140850Z 30004KT 260V330 CAVOK 16/13 Q1025 NOSIG RMK WIND 1200FT 34004KT",
      "taf": "TAF ENBR 140500Z 1406/1506 33008KT 0500 FG VV002"
    },
    {
      "icao": "ENGM",
      "alert": "OK",
      "vis_m": 9999,
      "fzfg": false,
      "metar_trigger": false,
      "taf_trigger": false,
      "metar": "METAR ENGM 140850Z 05010KT CAVOK 22/09 Q1025 NOSIG",
      "taf": "TAF ENGM 140500Z 1406/1506 02005KT CAVOK"
    },
    {
      "icao": "ENHD",
      "alert": "OK",
      "vis_m": 550,
      "fzfg": false,
      "metar_trigger": false,
      "taf_trigger": false,
      "metar": "METAR ENHD 140850Z 34012KT 0550 R13/0900N R31/0800N FG VV002 11/11 Q1025",
      "taf": "TAF ENHD 140800Z 1409/1418 34012KT 0200 FG VV001"
    },
    {
      "icao": "ENTC",
      "alert": "OK",
      "vis_m": 9999,
      "fzfg": false,
      "metar_trigger": false,
      "taf_trigger": false,
      "metar": "METAR ENTC 140850Z 28017KT 9999 SCT008 BKN013 10/08 Q1019 NOSIG RMK WIND 2600FT 26024KT",
      "taf": "TAF ENTC 140500Z 1406/1506 25010KT 9999 -DZRA SCT012 BKN020"
    },
    {
      "icao": "ENTO",
      "alert": "OK",
      "vis_m": 9999,
      "fzfg": false,
      "metar_trigger": false,
      "taf_trigger": false,
      "metar": "METAR ENTO 140850Z 01008KT CAVOK 22/13 Q1025 NOSIG",
      "taf": "TAF ENTO 140500Z 1406/1506 36005KT CAVOK"
    },
    {
      "icao": "ENVA",
      "alert": "OK",
      "vis_m": 9999,
      "fzfg": false,
      "metar_trigger": false,
      "taf_trigger": false,
      "metar": "METAR ENVA 140850Z 27007KT 9999 FEW020 SCT023 15/11 Q1028 NOSIG RMK WIND 670FT 29007KT",
      "taf": "TAF ENVA 140500Z 1406/1506 27009KT 9999 BKN012"
    },
    {
      "icao": "ENZV",
      "alert": "OK",
      "vis_m": 9999,
      "fzfg": false,
      "metar_trigger": false,
      "taf_trigger": false,
      "metar": "METAR ENZV 140850Z 28007KT 9999 2000S PRFG NSC 16/13 Q1025 BECMG NSW",
      "taf": "TAF ENZV 140500Z 1406/1506 30005KT 0200 FG VV001"
    },
    {
      "icao": "EPGD",
      "alert": "OK",
      "vis_m": 9999,
      "fzfg": false,
      "metar_trigger": false,
      "taf_trigger": false,
      "metar": "METAR EPGD 140900Z 02009KT 320V050 CAVOK 19/12 Q1022",
      "taf": "TAF EPGD 140530Z 1406/1506 36008KT CAVOK"
    },
    {
      "icao": "EPKK",
      "alert": "OK",
      "vis_m": 9999,
      "fzfg": false,
      "metar_trigger": false,
      "taf_trigger": false,
      "metar": "METAR EPKK 140900Z VRB02KT 9999 FEW026 25/16 Q1019",
      "taf": "TAF EPKK 140830Z 1409/1509 10003KT CAVOK"
    },
    {
      "icao": "EPKT",
      "alert": "OK",
      "vis_m": 9999,
      "fzfg": false,
      "metar_trigger": false,
      "taf_trigger": false,
      "metar": "METAR EPKT 140900Z 03006KT 330V050 9999 FEW023 24/18 Q1019",
      "taf": "TAF EPKT 140530Z 1406/1506 05005KT CAVOK"
    },
    {
      "icao": "EPLB",
      "alert": "OK",
      "vis_m": 9999,
      "fzfg": false,
      "metar_trigger": false,
      "taf_trigger": false,
      "metar": "METAR EPLB 140900Z 30005KT 9999 SCT013 23/19 Q1019",
      "taf": "TAF EPLB 140530Z 1406/1506 35008KT 9999 BKN012"
    },
    {
      "icao": "EPMO",
      "alert": "OK",
      "vis_m": 9999,
      "fzfg": false,
      "metar_trigger": false,
      "taf_trigger": false,
      "metar": "METAR EPMO 140900Z 01005KT 310V100 CAVOK 22/14 Q1019",
      "taf": "TAF EPMO 140530Z 1406/1506 01007KT 9999 SCT040"
    },
    {
      "icao": "EPPO",
      "alert": "OK",
      "vis_m": 9999,
      "fzfg": false,
      "metar_trigger": false,
      "taf_trigger": false,
      "metar": "METAR EPPO 140900Z 36007KT 360V070 CAVOK 23/09 Q1021",
      "taf": "TAF EPPO 140530Z 1406/1506 06007KT CAVOK"
    },
    {
      "icao": "EPRA",
      "alert": "OK",
      "vis_m": 9999,
      "fzfg": false,
      "metar_trigger": false,
      "taf_trigger": false,
      "metar": "METAR EPRA 140900Z 30006KT 250V350 9999 BKN022 21/17 Q1019",
      "taf": "TAF EPRA 140830Z 1409/1418 32006KT 9999 BKN020"
    },
    {
      "icao": "EPRZ",
      "alert": "OK",
      "vis_m": 9999,
      "fzfg": false,
      "metar_trigger": false,
      "taf_trigger": false,
      "metar": "METAR EPRZ 140900Z 33006KT 300V020 9999 BKN022 24/19 Q1019",
      "taf": "TAF EPRZ 140530Z 1406/1506 34005KT 9999 BKN007"
    },
    {
      "icao": "EPSC",
      "alert": "OK",
      "vis_m": 9999,
      "fzfg": false,
      "metar_trigger": false,
      "taf_trigger": false,
      "metar": "METAR EPSC 140900Z 08010KT CAVOK 22/11 Q1022",
      "taf": "TAF EPSC 140530Z 1406/1506 03008KT CAVOK"
    },
    {
      "icao": "EPSY",
      "alert": "OK",
      "vis_m": 9999,
      "fzfg": false,
      "metar_trigger": false,
      "taf_trigger": false,
      "metar": "METAR EPSY 140900Z 36009KT 300V040 CAVOK 20/13 Q1020",
      "taf": "TAF EPSY 140830Z 1409/1418 34008KT CAVOK"
    },
    {
      "icao": "EPWA",
      "alert": "OK",
      "vis_m": 9999,
      "fzfg": false,
      "metar_trigger": false,
      "taf_trigger": false,
      "metar": "METAR EPWA 140900Z 34004KT 220V020 CAVOK 22/16 Q1019 NOSIG",
      "taf": "TAF EPWA 140830Z 1409/1509 VRB06KT CAVOK"
    },
    {
      "icao": "EPWR",
      "alert": "OK",
      "vis_m": 9999,
      "fzfg": false,
      "metar_trigger": false,
      "taf_trigger": false,
      "metar": "METAR EPWR 140900Z 05004KT 010V110 9999 FEW030 SCT044 24/17 Q1019",
      "taf": "TAF EPWR 140830Z 1409/1509 05004KT CAVOK"
    },
    {
      "icao": "ESGG",
      "alert": "OK",
      "vis_m": 9999,
      "fzfg": false,
      "metar_trigger": false,
      "taf_trigger": false,
      "metar": "METAR ESGG 140920Z 33007KT 290V020 CAVOK 25/11 Q1024",
      "taf": "TAF ESGG 140830Z 1409/1509 04005KT CAVOK"
    },
    {
      "icao": "ESKN",
      "alert": "OK",
      "vis_m": 9999,
      "fzfg": false,
      "metar_trigger": false,
      "taf_trigger": false,
      "metar": "METAR ESKN 140920Z 34007KT 300V030 CAVOK 23/08 Q1023",
      "taf": "TAF ESKN 140830Z 1409/1509 01005KT CAVOK"
    },
    {
      "icao": "ESMS",
      "alert": "OK",
      "vis_m": 9999,
      "fzfg": false,
      "metar_trigger": false,
      "taf_trigger": false,
      "metar": "METAR ESMS 140920Z 30004KT 220V350 CAVOK 23/12 Q1023",
      "taf": "TAF ESMS 140827Z 1409/1509 33006KT CAVOK"
    },
    {
      "icao": "ESSA",
      "alert": "OK",
      "vis_m": 9999,
      "fzfg": false,
      "metar_trigger": false,
      "taf_trigger": false,
      "metar": "METAR ESSA 140920Z 36006KT 320V040 CAVOK 22/07 Q1023 NOSIG",
      "taf": "TAF ESSA 140830Z 1409/1509 02007KT CAVOK"
    },
    {
      "icao": "EYKA",
      "alert": "OK",
      "vis_m": 9999,
      "fzfg": false,
      "metar_trigger": false,
      "taf_trigger": false,
      "metar": "METAR EYKA 140920Z 32005KT 280V010 9999 OVC006 18/17 Q1019",
      "taf": "TAF EYKA 140500Z 1406/1506 VRB03KT 3000 BR OVC002"
    },
    {
      "icao": "EYPA",
      "alert": "OK",
      "vis_m": 9999,
      "fzfg": false,
      "metar_trigger": false,
      "taf_trigger": false,
      "metar": "METAR EYPA 140920Z 33004KT 250V040 9999 FEW007 SCT025 BKN042 19/16 Q1020",
      "taf": "TAF EYPA 140500Z 1406/1506 VRB03KT 8000 OVC005"
    },
    {
      "icao": "EYVI",
      "alert": "OK",
      "vis_m": 9999,
      "fzfg": false,
      "metar_trigger": false,
      "taf_trigger": false,
      "metar": "METAR EYVI 140920Z 33006KT 290V360 9999 OVC005 18/17 Q1018 NOSIG",
      "taf": "TAF EYVI 140501Z 1406/1506 34013KT 5000 BR OVC002"
    },
    {
      "icao": "GCFV",
      "alert": "OK",
      "vis_m": 9999,
      "fzfg": false,
      "metar_trigger": false,
      "taf_trigger": false,
      "metar": "METAR GCFV 140900Z 04010KT 9999 FEW017 SCT025 24/19 Q1017",
      "taf": "TAF GCFV 140800Z 1409/1509 05011KT 9999 SCT025 TX26/1414Z TN21/1506Z"
    },
    {
      "icao": "GCLP",
      "alert": "OK",
      "vis_m": 9999,
      "fzfg": false,
      "metar_trigger": false,
      "taf_trigger": false,
      "metar": "METAR GCLP 140900Z 02013KT 9999 SCT020 25/19 Q1017 NOSIG",
      "taf": "TAF GCLP 140800Z 1409/1509 02017KT 9999 SCT020 TX27/1414Z TN21/1506Z"
    },
    {
      "icao": "GCTS",
      "alert": "OK",
      "vis_m": 9999,
      "fzfg": false,
      "metar_trigger": false,
      "taf_trigger": false,
      "metar": "METAR GCTS 140900Z 06010KT 030V100 9999 FEW030 25/16 Q1018 NOSIG",
      "taf": "TAF GCTS 140800Z 1409/1509 09015KT 9999 FEW030 TX27/1414Z TN20/1506Z"
    },
    {
      "icao": "GMAD",
      "alert": "OK",
      "vis_m": 9999,
      "fzfg": false,
      "metar_trigger": false,
      "taf_trigger": false,
      "metar": "METAR GMAD 140900Z 16004KT CAVOK 25/19 Q1016 NOSIG",
      "taf": "TAF GMAD 140500Z 1406/1512 02003KT 8000 FEW010 SCT100"
    },
    {
      "icao": "GMMN",
      "alert": "OK",
      "vis_m": 9999,
      "fzfg": false,
      "metar_trigger": false,
      "taf_trigger": false,
      "metar": "METAR GMMN 140900Z 03005KT 310V110 9999 FEW016 26/19 Q1018 NOSIG",
      "taf": "TAF GMMN 140500Z 1406/1512 04006KT 9999 SCT010"
    },
    {
      "icao": "GMMX",
      "alert": "OK",
      "vis_m": 9999,
      "fzfg": false,
      "metar_trigger": false,
      "taf_trigger": false,
      "metar": "METAR GMMX 140900Z 28004KT 200V330 9999 FEW100 25/18 Q1018 NOSIG",
      "taf": "TAF GMMX 140500Z 1406/1512 30006KT CAVOK"
    },
    {
      "icao": "HEGN",
      "alert": "OK",
      "vis_m": 9999,
      "fzfg": false,
      "metar_trigger": false,
      "taf_trigger": false,
      "metar": "METAR HEGN 140900Z 36015KT CAVOK 34/13 Q1006 NOSIG",
      "taf": "TAF HEGN 140500Z 1406/1512 34018KT CAVOK"
    },
    {
      "icao": "HEMA",
      "alert": "OK",
      "vis_m": 9999,
      "fzfg": false,
      "metar_trigger": false,
      "taf_trigger": false,
      "metar": "METAR HEMA 140900Z 36018KT CAVOK 35/19 Q1005 NOSIG",
      "taf": "TAF HEMA 140500Z 1406/1512 36018KT CAVOK"
    },
    {
      "icao": "HESH",
      "alert": "OK",
      "vis_m": 9999,
      "fzfg": false,
      "metar_trigger": false,
      "taf_trigger": false,
      "metar": "METAR HESH 140900Z 02010KT CAVOK 35/17 Q1006 NOSIG",
      "taf": "TAF HESH 140500Z 1406/1512 35015KT CAVOK"
    },
    {
      "icao": "HESX",
      "alert": "OK",
      "vis_m": 9999,
      "fzfg": false,
      "metar_trigger": false,
      "taf_trigger": false,
      "metar": "METAR HESX 140900Z 33004KT CAVOK 31/18 Q1009 NOSIG",
      "taf": "TAF HESX 140500Z 1406/1512 33009KT CAVOK"
    },
    {
      "icao": "LATI",
      "alert": "OK",
      "vis_m": 9999,
      "fzfg": false,
      "metar_trigger": false,
      "taf_trigger": false,
      "metar": "METAR LATI 140920Z 35006KT 290V090 CAVOK 32/14 Q1016 NOSIG",
      "taf": "TAF LATI 140500Z 1406/1506 VRB03KT CAVOK TX36/1412Z TN18/1504Z"
    },
    {
      "icao": "LBPD",
      "alert": "OK",
      "vis_m": 9999,
      "fzfg": false,
      "metar_trigger": false,
      "taf_trigger": false,
      "metar": "METAR LBPD 140900Z AUTO 33006KT 270V040 9999 NCD 27/12 Q1017 NOSIG",
      "taf": "TAF LBPD 140500Z 1406/1506 VRB03KT CAVOK"
    },
    {
      "icao": "LBSF",
      "alert": "OK",
      "vis_m": 9999,
      "fzfg": false,
      "metar_trigger": false,
      "taf_trigger": false,
      "metar": "METAR LBSF 140900Z VRB07KT 9999 FEW069 24/10 Q1019 NOSIG",
      "taf": "TAF LBSF 140500Z 1406/1506 VRB03KT CAVOK"
    },
    {
      "icao": "LBWN",
      "alert": "OK",
      "vis_m": 9999,
      "fzfg": false,
      "metar_trigger": false,
      "taf_trigger": false,
      "metar": "METAR LBWN 140900Z 32011KT 9999 SCT028 26/14 Q1015 NOSIG",
      "taf": "TAF LBWN 140500Z 1406/1506 32010KT 9999 SCT050"
    },
    {
      "icao": "LCLK",
      "alert": "OK",
      "vis_m": 9999,
      "fzfg": false,
      "metar_trigger": false,
      "taf_trigger": false,
      "metar": "METAR LCLK 140900Z 21014KT 180V240 9999 FEW025 32/25 Q1006 NOSIG",
      "taf": "TAF LCLK 140530Z 1406/1506 20008KT 9999 FEW015"
    },
    {
      "icao": "LCPH",
      "alert": "OK",
      "vis_m": 9999,
      "fzfg": false,
      "metar_trigger": false,
      "taf_trigger": false,
      "metar": "METAR LCPH 140900Z 24006KT 220V280 9999 FEW025 29/24 Q1007 NOSIG",
      "taf": "TAF LCPH 140530Z 1406/1506 21008KT 9999 FEW012"
    },
    {
      "icao": "LEAL",
      "alert": "OK",
      "vis_m": 9999,
      "fzfg": false,
      "metar_trigger": false,
      "taf_trigger": false,
      "metar": "METAR LEAL 140900Z 09006KT 050V130 CAVOK 30/22 Q1016 NOSIG",
      "taf": "TAF LEAL 140500Z 1406/1506 VRB04KT 9999 FEW010 TX33/1412Z TN23/1406Z"
    },
    {
      "icao": "LEBB",
      "alert": "OK",
      "vis_m": 9999,
      "fzfg": false,
      "metar_trigger": false,
      "taf_trigger": false,
      "metar": "METAR LEBB 140900Z VRB03KT 9999 FEW025 28/21 Q1016 NOSIG",
      "taf": "TAF LEBB 140500Z 1406/1506 VRB03KT 9999 FEW040 TX31/1413Z TN22/1505Z"
    },
    {
      "icao": "LEBL",
      "alert": "OK",
      "vis_m": 9999,
      "fzfg": false,
      "metar_trigger": false,
      "taf_trigger": false,
      "metar": "METAR LEBL 140900Z 12008KT 080V160 9999 SCT010 28/24 Q1016 NOSIG",
      "taf": "TAF LEBL 140500Z 1406/1506 VRB04KT 9999 FEW020 TX31/1412Z TN24/1406Z"
    },
    {
      "icao": "LECH",
      "alert": "OK",
      "vis_m": 9000,
      "fzfg": false,
      "metar_trigger": false,
      "taf_trigger": false,
      "metar": "METAR LECH 140900Z AUTO 08005KT 050V150 9000 SCT016 OVC022 27/22 Q1018",
      "taf": ""
    },
    {
      "icao": "LEMD",
      "alert": "OK",
      "vis_m": 9999,
      "fzfg": false,
      "metar_trigger": false,
      "taf_trigger": false,
      "metar": "METAR LEMD 140900Z 21002KT CAVOK 28/06 Q1018 NOSIG",
      "taf": "TAF LEMD 140500Z 1406/1512 VRB04KT CAVOK TX37/1416Z TN21/1505Z"
    },
    {
      "icao": "LEMG",
      "alert": "OK",
      "vis_m": 9999,
      "fzfg": false,
      "metar_trigger": false,
      "taf_trigger": false,
      "metar": "METAR LEMG 140900Z 17006KT 110V200 CAVOK 28/17 Q1015 NOSIG",
      "taf": "TAF LEMG 140500Z 1406/1506 30009KT CAVOK TX35/1414Z TN22/1505Z"
    },
    {
      "icao": "LEVC",
      "alert": "OK",
      "vis_m": 9000,
      "fzfg": false,
      "metar_trigger": false,
      "taf_trigger": false,
      "metar": "METAR LEVC 140900Z 08006KT 350V140 9000 FEW019 BKN026 30/23 Q1016 NOSIG",
      "taf": ""
    },
    {
      "icao": "LEXJ",
      "alert": "OK",
      "vis_m": 9999,
      "fzfg": false,
      "metar_trigger": false,
      "taf_trigger": false,
      "metar": "METAR LEXJ 140900Z VRB04KT 9999 FEW019 SCT030 24/21 Q1016",
      "taf": "TAF LEXJ 140800Z 1409/1509 VRB03KT 9999 FEW020 TX27/1412Z TN21/1503Z"
    },
    {
      "icao": "LEZG",
      "alert": "OK",
      "vis_m": 9999,
      "fzfg": false,
      "metar_trigger": false,
      "taf_trigger": false,
      "metar": "METAR LEZG 140900Z 31005KT 240V030 CAVOK 28/18 Q1016 NOSIG",
      "taf": "TAF LEZG 140500Z 1406/1506 30010KT CAVOK TX40/1415Z TN24/1406Z"
    },
    {
      "icao": "LEZL",
      "alert": "OK",
      "vis_m": 9999,
      "fzfg": false,
      "metar_trigger": false,
      "taf_trigger": false,
      "metar": "METAR LEZL 140900Z 30002KT CAVOK 25/18 Q1016 NOSIG",
      "taf": "TAF LEZL 140800Z 1409/1509 VRB03KT CAVOK TX34/1415Z TN18/1505Z"
    },
    {
      "icao": "LFBD",
      "alert": "OK",
      "vis_m": 9999,
      "fzfg": false,
      "metar_trigger": false,
      "taf_trigger": false,
      "metar": "METAR LFBD 140900Z AUTO 06005KT 020V100 CAVOK 29/16 Q1016 NOSIG",
      "taf": "TAF LFBD 140500Z 1406/1512 VRB03KT CAVOK TX37/1414Z TN21/1406Z"
    },
    {
      "icao": "LFLL",
      "alert": "OK",
      "vis_m": 9999,
      "fzfg": false,
      "metar_trigger": false,
      "taf_trigger": false,
      "metar": "METAR LFLL 140900Z 23006KT 190V270 CAVOK 31/17 Q1017 NOSIG",
      "taf": "TAF LFLL 140500Z 1406/1512 18008KT CAVOK"
    },
    {
      "icao": "LFLS",
      "alert": "OK",
      "vis_m": 9999,
      "fzfg": false,
      "metar_trigger": false,
      "taf_trigger": false,
      "metar": "METAR LFLS 140900Z AUTO 27004KT 230V330 CAVOK 30/17 Q1018 NOSIG",
      "taf": "TAF LFLS 140800Z 1409/1509 20006KT CAVOK"
    },
    {
      "icao": "LFMN",
      "alert": "OK",
      "vis_m": 9999,
      "fzfg": false,
      "metar_trigger": false,
      "taf_trigger": false,
      "metar": "METAR LFMN 140900Z 10006KT 9999 FEW018 29/22 Q1016 NOSIG",
      "taf": "TAF LFMN 140800Z 1409/1515 10008KT 9999 FEW022"
    },
    {
      "icao": "LFOB",
      "alert": "OK",
      "vis_m": 9999,
      "fzfg": false,
      "metar_trigger": false,
      "taf_trigger": false,
      "metar": "METAR LFOB 140900Z AUTO 03009KT 340V070 CAVOK 25/19 Q1017 NOSIG",
      "taf": "TAF LFOB 140500Z 1406/1506 02008KT CAVOK"
    },
    {
      "icao": "LFPO",
      "alert": "OK",
      "vis_m": 9999,
      "fzfg": false,
      "metar_trigger": false,
      "taf_trigger": false,
      "metar": "METAR LFPO 140900Z 34006KT 300V030 CAVOK 26/16 Q1017 NOSIG",
      "taf": "TAF LFPO 140500Z 1406/1512 02005KT CAVOK"
    },
    {
      "icao": "LFSB",
      "alert": "OK",
      "vis_m": 9999,
      "fzfg": false,
      "metar_trigger": false,
      "taf_trigger": false,
      "metar": "METAR LFSB 140900Z AUTO 10005KT 050V150 CAVOK 29/16 Q1017 TEMPO FEW080CB",
      "taf": "TAF LFSB 140500Z 1406/1506 VRB04KT CAVOK"
    },
    {
      "icao": "LGAV",
      "alert": "OK",
      "vis_m": 9999,
      "fzfg": false,
      "metar_trigger": false,
      "taf_trigger": false,
      "metar": "METAR LGAV 140920Z 07016KT 9999 SCT025 28/16 Q1015 NOSIG",
      "taf": "TAF LGAV 140500Z 1406/1506 04010KT 9999 FEW025"
    },
    {
      "icao": "LGTS",
      "alert": "OK",
      "vis_m": 9999,
      "fzfg": false,
      "metar_trigger": false,
      "taf_trigger": false,
      "metar": "METAR LGTS 140850Z 30009KT 9999 FEW025 30/13 Q1016 NOSIG",
      "taf": "TAF LGTS 140500Z 1406/1506 33015KT 9999 FEW030"
    },
    {
      "icao": "LHBP",
      "alert": "OK",
      "vis_m": 9999,
      "fzfg": false,
      "metar_trigger": false,
      "taf_trigger": false,
      "metar": "METAR LHBP 140900Z 21007KT 150V270 CAVOK 28/13 Q1018 NOSIG",
      "taf": "TAF LHBP 140515Z 1406/1506 VRB03KT CAVOK"
    },
    {
      "icao": "LHDC",
      "alert": "OK",
      "vis_m": 9999,
      "fzfg": false,
      "metar_trigger": false,
      "taf_trigger": false,
      "metar": "METAR LHDC 140845Z AUTO 29007KT 200V350 CAVOK 27/16 Q1018 NOSIG",
      "taf": "TAF LHDC 140815Z 1409/1418 33005KT CAVOK"
    },
    {
      "icao": "LIBD",
      "alert": "OK",
      "vis_m": 9999,
      "fzfg": false,
      "metar_trigger": false,
      "taf_trigger": false,
      "metar": "METAR LIBD 140850Z 32005KT 260V020 CAVOK 29/18 Q1018",
      "taf": "TAF LIBD 140500Z 1406/1506 VRB05KT CAVOK"
    },
    {
      "icao": "LIBG",
      "alert": "OK",
      "vis_m": 9999,
      "fzfg": false,
      "metar_trigger": false,
      "taf_trigger": false,
      "metar": "METAR LIBG 140850Z AUTO 35007KT 300V050 9999 NCD 32/15 Q1017",
      "taf": "TAF LIBG 140500Z 1406/1506 35010KT CAVOK"
    },
    {
      "icao": "LIBP",
      "alert": "OK",
      "vis_m": 9999,
      "fzfg": false,
      "metar_trigger": false,
      "taf_trigger": false,
      "metar": "METAR LIBP 140850Z AUTO 07007KT 030V090 9999 NCD 33/17 Q1017",
      "taf": "TAF LIBP 140500Z 1406/1506 VRB04KT CAVOK"
    },
    {
      "icao": "LIBR",
      "alert": "OK",
      "vis_m": 9999,
      "fzfg": false,
      "metar_trigger": false,
      "taf_trigger": false,
      "metar": "METAR LIBR 140850Z 36010KT CAVOK 28/22 Q1017",
      "taf": "TAF LIBR 140500Z 1406/1506 34012KT CAVOK"
    },
    {
      "icao": "LICA",
      "alert": "OK",
      "vis_m": 9999,
      "fzfg": false,
      "metar_trigger": false,
      "taf_trigger": false,
      "metar": "METAR LICA 140850Z AUTO 24010KT 9999 FEW021/// 29/24 Q1019",
      "taf": "TAF LICA 140500Z 1406/1506 VRB05KT CAVOK"
    },
    {
      "icao": "LICC",
      "alert": "OK",
      "vis_m": 9999,
      "fzfg": false,
      "metar_trigger": false,
      "taf_trigger": false,
      "metar": "METAR LICC 140850Z 07007KT CAVOK 32/23 Q1018",
      "taf": "TAF LICC 140500Z 1406/1506 26008KT CAVOK"
    },
    {
      "icao": "LICJ",
      "alert": "OK",
      "vis_m": 9999,
      "fzfg": false,
      "metar_trigger": false,
      "taf_trigger": false,
      "metar": "METAR LICJ 140850Z AUTO 32005KT 9999 NCD 29/21 Q1019",
      "taf": "TAF LICJ 140500Z 1406/1506 VRB05KT CAVOK"
    },
    {
      "icao": "LIMC",
      "alert": "OK",
      "vis_m": 9999,
      "fzfg": false,
      "metar_trigger": false,
      "taf_trigger": false,
      "metar": "METAR LIMC 140850Z VRB02KT CAVOK 31/19 Q1017 NOSIG",
      "taf": "TAF LIMC 140500Z 1406/1512 VRB05KT 9999 FEW060"
    },
    {
      "icao": "LIME",
      "alert": "OK",
      "vis_m": 9999,
      "fzfg": false,
      "metar_trigger": false,
      "taf_trigger": false,
      "metar": "METAR LIME 140850Z VRB03KT CAVOK 30/19 Q1017 NOSIG",
      "taf": "TAF LIME 140500Z 1406/1506 VRB05KT 9999 FEW060"
    },
    {
      "icao": "LIMF",
      "alert": "OK",
      "vis_m": 9999,
      "fzfg": false,
      "metar_trigger": false,
      "taf_trigger": false,
      "metar": "METAR LIMF 140850Z 08004KT 340V130 CAVOK 30/20 Q1017",
      "taf": "TAF LIMF 140500Z 1406/1506 VRB05KT 9999 SCT060"
    },
    {
      "icao": "LIMJ",
      "alert": "OK",
      "vis_m": 9999,
      "fzfg": false,
      "metar_trigger": false,
      "taf_trigger": false,
      "metar": "METAR LIMJ 140850Z 14010KT CAVOK 28/23 Q1016",
      "taf": "TAF LIMJ 140500Z 1406/1506 VRB05KT 9999 SCT020"
    },
    {
      "icao": "LIPE",
      "alert": "OK",
      "vis_m": 9999,
      "fzfg": false,
      "metar_trigger": false,
      "taf_trigger": false,
      "metar": "METAR LIPE 140850Z VRB02KT CAVOK 32/19 Q1016",
      "taf": "TAF LIPE 140500Z 1406/1506 VRB06KT CAVOK"
    },
    {
      "icao": "LIPH",
      "alert": "OK",
      "vis_m": 9999,
      "fzfg": false,
      "metar_trigger": false,
      "taf_trigger": false,
      "metar": "METAR LIPH 140850Z VRB03KT 9999 FEW030 31/21 Q1016",
      "taf": "TAF LIPH 140500Z 1406/1506 VRB05KT CAVOK"
    },
    {
      "icao": "LIPQ",
      "alert": "OK",
      "vis_m": 9999,
      "fzfg": false,
      "metar_trigger": false,
      "taf_trigger": false,
      "metar": "METAR LIPQ 140850Z AUTO 32004KT 270V020 9999 FEW065/// 30/17 Q1017",
      "taf": "TAF LIPQ 140500Z 1406/1506 VRB05KT CAVOK"
    },
    {
      "icao": "LIPR",
      "alert": "OK",
      "vis_m": 9999,
      "fzfg": false,
      "metar_trigger": false,
      "taf_trigger": false,
      "metar": "METAR LIPR 140850Z 05007KT 020V090 CAVOK 29/21 Q1016",
      "taf": "TAF LIPR 140500Z 1406/1506 VRB05KT CAVOK"
    },
    {
      "icao": "LIPX",
      "alert": "OK",
      "vis_m": 9999,
      "fzfg": false,
      "metar_trigger": false,
      "taf_trigger": false,
      "metar": "METAR LIPX 140850Z 13005KT 090V170 CAVOK 29/20 Q1016",
      "taf": "TAF LIPX 140500Z 1406/1506 VRB06KT 9999 FEW060"
    },
    {
      "icao": "LIPY",
      "alert": "OK",
      "vis_m": 9999,
      "fzfg": false,
      "metar_trigger": false,
      "taf_trigger": false,
      "metar": "METAR LIPY 140850Z AUTO 04009KT 9999 NCD 32/18 Q1016",
      "taf": "TAF LIPY 140500Z 1406/1506 VRB05KT CAVOK"
    },
    {
      "icao": "LIPZ",
      "alert": "OK",
      "vis_m": 9999,
      "fzfg": false,
      "metar_trigger": false,
      "taf_trigger": false,
      "metar": "METAR LIPZ 140850Z 13005KT 100V170 CAVOK 30/19 Q1016 NOSIG",
      "taf": "TAF LIPZ 140500Z 1406/1512 VRB05KT CAVOK"
    },
    {
      "icao": "LIRF",
      "alert": "OK",
      "vis_m": 9999,
      "fzfg": false,
      "metar_trigger": false,
      "taf_trigger": false,
      "metar": "METAR LIRF 140850Z 20006KT 160V260 CAVOK 33/17 Q1018 NOSIG",
      "taf": "TAF LIRF 140500Z 1406/1512 VRB05KT CAVOK"
    },
    {
      "icao": "LIRN",
      "alert": "OK",
      "vis_m": 9999,
      "fzfg": false,
      "metar_trigger": false,
      "taf_trigger": false,
      "metar": "METAR LIRN 140850Z 19004KT 140V240 CAVOK 32/19 Q1019 NOSIG",
      "taf": "TAF LIRN 140500Z 1406/1506 VRB05KT CAVOK"
    },
    {
      "icao": "LIRP",
      "alert": "OK",
      "vis_m": 9999,
      "fzfg": false,
      "metar_trigger": false,
      "taf_trigger": false,
      "metar": "METAR LIRP 140845Z VRB04KT CAVOK 31/18 Q1017 NOSIG",
      "taf": "TAF LIRP 140500Z 1406/1506 VRB05KT CAVOK"
    },
    {
      "icao": "LIRZ",
      "alert": "OK",
      "vis_m": 9999,
      "fzfg": false,
      "metar_trigger": false,
      "taf_trigger": false,
      "metar": "METAR LIRZ 140850Z AUTO 15003KT 060V230 9999 NCD 31/19 Q1019",
      "taf": "TAF LIRZ 140500Z 1406/1506 VRB05KT CAVOK"
    },
    {
      "icao": "LJLJ",
      "alert": "OK",
      "vis_m": 9999,
      "fzfg": false,
      "metar_trigger": false,
      "taf_trigger": false,
      "metar": "METAR LJLJ 140900Z VRB02KT 9999 BKN047 27/18 Q1018 NOSIG",
      "taf": "TAF LJLJ 140500Z 1406/1506 VRB02KT 9999 FEW065"
    },
    {
      "icao": "LKMT",
      "alert": "OK",
      "vis_m": 9999,
      "fzfg": false,
      "metar_trigger": false,
      "taf_trigger": false,
      "metar": "METAR LKMT 140900Z VRB05KT 9999 FEW038 26/18 Q1019 NOSIG",
      "taf": "TAF LKMT 140500Z 1406/1506 02008KT CAVOK"
    },
    {
      "icao": "LKPR",
      "alert": "OK",
      "vis_m": 9999,
      "fzfg": false,
      "metar_trigger": false,
      "taf_trigger": false,
      "metar": "METAR LKPR 140900Z 11005KT 070V160 CAVOK 25/16 Q1019 NOSIG",
      "taf": "TAF LKPR 140800Z 1409/1515 06005KT CAVOK"
    },
    {
      "icao": "LLBG",
      "alert": "OK",
      "vis_m": 9999,
      "fzfg": false,
      "metar_trigger": false,
      "taf_trigger": false,
      "metar": "METAR LLBG 140920Z 27008KT CAVOK 32/20 Q1007 NOSIG",
      "taf": "TAF LLBG 140503Z 1406/1506 19006KT 9999 SCT025 TX31/1411Z TN23/1503Z"
    },
    {
      "icao": "LMML",
      "alert": "OK",
      "vis_m": 9999,
      "fzfg": false,
      "metar_trigger": false,
      "taf_trigger": false,
      "metar": "METAR LMML 140915Z 29007KT 230V330 CAVOK 33/18 Q1020 NOSIG",
      "taf": "TAF LMML 140500Z 1406/1506 30008KT 9999 FEW015"
    },
    {
      "icao": "LOWW",
      "alert": "OK",
      "vis_m": 9999,
      "fzfg": false,
      "metar_trigger": false,
      "taf_trigger": false,
      "metar": "METAR LOWW 140850Z 10006KT 050V180 CAVOK 28/14 Q1018 BECMG 11010KT",
      "taf": "TAF LOWW 140819Z 1409/1515 11010KT CAVOK TX31/1414Z TN19/1504Z"
    },
    {
      "icao": "LPFR",
      "alert": "OK",
      "vis_m": 9999,
      "fzfg": false,
      "metar_trigger": false,
      "taf_trigger": false,
      "metar": "METAR LPFR 140900Z 22005KT 9999 FEW040 23/17 Q1017",
      "taf": "TAF LPFR 140500Z 1406/1506 VRB02KT CAVOK"
    },
    {
      "icao": "LPMA",
      "alert": "OK",
      "vis_m": 9999,
      "fzfg": false,
      "metar_trigger": false,
      "taf_trigger": false,
      "metar": "METAR LPMA 140900Z 06004KT 030V090 9999 SCT015 23/18 Q1017",
      "taf": "TAF LPMA 140500Z 1406/1506 VRB05KT 9999 SCT015"
    },
    {
      "icao": "LPPR",
      "alert": "OK",
      "vis_m": 9999,
      "fzfg": false,
      "metar_trigger": false,
      "taf_trigger": false,
      "metar": "METAR LPPR 140900Z 28004KT 230V320 9999 FEW014 21/17 Q1017",
      "taf": "TAF LPPR 140500Z 1406/1506 VRB02KT 9999 SCT020"
    },
    {
      "icao": "LPPS",
      "alert": "OK",
      "vis_m": 9999,
      "fzfg": false,
      "metar_trigger": false,
      "taf_trigger": false,
      "metar": "METAR LPPS 140900Z 16005KT 130V210 9999 FEW015 23/19 Q1018",
      "taf": "TAF LPPS 140500Z 1406/1512 VRB05KT 9999 FEW015 SCT030"
    },
    {
      "icao": "LPPT",
      "alert": "OK",
      "vis_m": 9999,
      "fzfg": false,
      "metar_trigger": false,
      "taf_trigger": false,
      "metar": "METAR LPPT 140900Z 28003KT 190V360 9999 FEW025 22/15 Q1017 NOSIG",
      "taf": "TAF LPPT 140500Z 1406/1512 VRB02KT 9999 FEW025"
    },
    {
      "icao": "LQBK",
      "alert": "OK",
      "vis_m": 9999,
      "fzfg": false,
      "metar_trigger": false,
      "taf_trigger": false,
      "metar": "METAR LQBK 140900Z 15005KT 110V200 CAVOK 30/14 Q1018 NOSIG",
      "taf": "TAF LQBK 140500Z 1406/1506 04005KT CAVOK TX33/1414Z TN18/1503Z"
    },
    {
      "icao": "LQSA",
      "alert": "OK",
      "vis_m": 9999,
      "fzfg": false,
      "metar_trigger": false,
      "taf_trigger": false,
      "metar": "METAR LQSA 140900Z VRB02KT CAVOK 25/14 Q1021 NOSIG",
      "taf": "TAF LQSA 140500Z 1406/1506 VRB02KT CAVOK TX31/1413Z TN15/1504Z"
    },
    {
      "icao": "LQTZ",
      "alert": "OK",
      "vis_m": 9999,
      "fzfg": false,
      "metar_trigger": false,
      "taf_trigger": false,
      "metar": "METAR LQTZ 140900Z VRB03KT CAVOK 28/14 Q1019",
      "taf": "TAF LQTZ 140500Z 1406/1506 VRB02KT 9999 SCT050 TX33/1414Z TN16/1503Z"
    },
    {
      "icao": "LRBC",
      "alert": "OK",
      "vis_m": 9999,
      "fzfg": false,
      "metar_trigger": false,
      "taf_trigger": false,
      "metar": "METAR LRBC 140900Z 01007KT 340V040 9999 BKN025 FEW035CB 25/18 Q1015",
      "taf": "TAF LRBC 140800Z 1409/1418 34010KT 9999 BKN025 BKN040"
    },
    {
      "icao": "LRBS",
      "alert": "OK",
      "vis_m": 9999,
      "fzfg": false,
      "metar_trigger": false,
      "taf_trigger": false,
      "metar": "METAR LRBS 140900Z 27007KT 220V340 CAVOK 27/15 Q1015 NOSIG",
      "taf": "TAF LRBS 140500Z 1406/1506 28006KT CAVOK"
    },
    {
      "icao": "LRBV",
      "alert": "OK",
      "vis_m": 9999,
      "fzfg": false,
      "metar_trigger": false,
      "taf_trigger": false,
      "metar": "METAR LRBV 140900Z 29009KT 250V320 9999 FEW030 BKN041 21/14 Q1019",
      "taf": "TAF LRBV 140800Z 1409/1418 32010KT 9999 BKN045"
    },
    {
      "icao": "LRCL",
      "alert": "OK",
      "vis_m": 9999,
      "fzfg": false,
      "metar_trigger": false,
      "taf_trigger": false,
      "metar": "METAR LRCL 140900Z 30006KT 240V350 9999 FEW031 25/16 Q1018",
      "taf": "TAF LRCL 140800Z 1409/1418 30008KT CAVOK"
    },
    {
      "icao": "LRCV",
      "alert": "OK",
      "vis_m": 9999,
      "fzfg": false,
      "metar_trigger": false,
      "taf_trigger": false,
      "metar": "METAR LRCV 140900Z 28009KT CAVOK 27/14 Q1017",
      "taf": "TAF LRCV 140800Z 1409/1418 30008KT CAVOK"
    },
    {
      "icao": "LRIA",
      "alert": "OK",
      "vis_m": 9999,
      "fzfg": false,
      "metar_trigger": false,
      "taf_trigger": false,
      "metar": "METAR LRIA 140900Z 31012KT 270V330 9999 SCT021 24/17 Q1015",
      "taf": "TAF LRIA 140800Z 1409/1418 33010KT 9999 BKN035"
    },
    {
      "icao": "LROP",
      "alert": "OK",
      "vis_m": 9999,
      "fzfg": false,
      "metar_trigger": false,
      "taf_trigger": false,
      "metar": "METAR LROP 140900Z 26010KT CAVOK 27/14 Q1015 NOSIG",
      "taf": "TAF LROP 140500Z 1406/1506 28006KT CAVOK"
    },
    {
      "icao": "LRSB",
      "alert": "OK",
      "vis_m": 9999,
      "fzfg": false,
      "metar_trigger": false,
      "taf_trigger": false,
      "metar": "METAR LRSB 140900Z 32006KT 280V360 9999 FEW050 25/12 Q1018",
      "taf": "TAF LRSB 140500Z 1406/1506 VRB04KT CAVOK"
    },
    {
      "icao": "LRSM",
      "alert": "OK",
      "vis_m": 9999,
      "fzfg": false,
      "metar_trigger": false,
      "taf_trigger": false,
      "metar": "METAR LRSM 140900Z AUTO 32007KT 280V360 9999 NCD 27/18 Q1017",
      "taf": "TAF LRSM 140800Z 1409/1418 VRB04KT CAVOK"
    },
    {
      "icao": "LRSV",
      "alert": "OK",
      "vis_m": 9999,
      "fzfg": false,
      "metar_trigger": false,
      "taf_trigger": false,
      "metar": "METAR LRSV 140900Z 31011KT 9999 FEW016 24/19 Q1016",
      "taf": "TAF LRSV 140800Z 1409/1418 32010KT 9999 SCT040"
    },
    {
      "icao": "LRTM",
      "alert": "OK",
      "vis_m": 9999,
      "fzfg": false,
      "metar_trigger": false,
      "taf_trigger": false,
      "metar": "METAR LRTM 140900Z 30007KT 240V340 9999 FEW030 24/18 Q1018",
      "taf": "TAF LRTM 140800Z 1409/1418 30008KT CAVOK"
    },
    {
      "icao": "LRTR",
      "alert": "OK",
      "vis_m": 9999,
      "fzfg": false,
      "metar_trigger": false,
      "taf_trigger": false,
      "metar": "METAR LRTR 140900Z 36007KT 9999 FEW040 27/16 Q1018",
      "taf": "TAF LRTR 140500Z 1406/1506 35006KT CAVOK"
    },
    {
      "icao": "LTAC",
      "alert": "OK",
      "vis_m": 9999,
      "fzfg": false,
      "metar_trigger": false,
      "taf_trigger": false,
      "metar": "METAR LTAC 140850Z 27007KT 200V300 9999 SCT040 SCT100 26/13 Q1013 NOSIG RMK RWY21C 29007KT 250V330 RWY03L 28009KT 220V320 RWY21R 27006KT 210V300 RWY03R 27006KT 210V310 RWY21L 27006KT 220V300",
      "taf": "TAF LTAC 140440Z 1406/1506 VRB02KT 9999 SCT040 SCT100"
    },
    {
      "icao": "LTFM",
      "alert": "OK",
      "vis_m": 9999,
      "fzfg": false,
      "metar_trigger": false,
      "taf_trigger": false,
      "metar": "METAR LTFM 140850Z 34017G27KT 9999 FEW020TCU BKN025 24/17 Q1015 RESHRA NOSIG RMK RWY17L 34016KT RWY34L 34016KT RWY16R 35016KT RWY36 34017KT RWY18 35016KT",
      "taf": "TAF LTFM 140440Z 1406/1512 35015KT 9999 SCT025 BKN100"
    },
    {
      "icao": "LUKK",
      "alert": "OK",
      "vis_m": 9999,
      "fzfg": false,
      "metar_trigger": false,
      "taf_trigger": false,
      "metar": "METAR LUKK 140900Z 35007KT 290V020 9999 BKN025 22/16 Q1014 NOSIG",
      "taf": "TAF LUKK 140420Z 1406/1506 30009KT 9999 SCT045"
    },
    {
      "icao": "LWOH",
      "alert": "OK",
      "vis_m": 9999,
      "fzfg": false,
      "metar_trigger": false,
      "taf_trigger": false,
      "metar": "METAR LWOH 140920Z VRB06KT 9999 FEW040 26/13 Q1020",
      "taf": "TAF LWOH 140825Z 1409/1509 33006KT 9999 FEW040"
    },
    {
      "icao": "LWSK",
      "alert": "OK",
      "vis_m": 9999,
      "fzfg": false,
      "metar_trigger": false,
      "taf_trigger": false,
      "metar": "METAR LWSK 140920Z VRB07KT 9999 SCT055 28/14 Q1018 NOSIG",
      "taf": "TAF LWSK 140825Z 1409/1509 34010KT 9999 FEW060"
    },
    {
      "icao": "LYBE",
      "alert": "OK",
      "vis_m": 9999,
      "fzfg": false,
      "metar_trigger": false,
      "taf_trigger": false,
      "metar": "METAR LYBE 140900Z 01005KT 270V070 CAVOK 27/13 Q1019 NOSIG",
      "taf": "TAF LYBE 140500Z 1406/1506 34004KT CAVOK TX31/1414Z TN20/1503Z"
    },
    {
      "icao": "LYNI",
      "alert": "OK",
      "vis_m": 9999,
      "fzfg": false,
      "metar_trigger": false,
      "taf_trigger": false,
      "metar": "METAR LYNI 140900Z 31009KT 270V020 9999 FEW040 27/12 Q1019 NOSIG",
      "taf": "TAF LYNI 140500Z 1406/1506 33006KT CAVOK TX30/1414Z TN15/1503Z"
    },
    {
      "icao": "LYPG",
      "alert": "OK",
      "vis_m": 9999,
      "fzfg": false,
      "metar_trigger": false,
      "taf_trigger": false,
      "metar": "METAR LYPG 140900Z VRB05KT 9999 FEW050 33/12 Q1017 NOSIG",
      "taf": "TAF LYPG 140500Z 1406/1506 18008KT CAVOK TX36/1415Z TN23/1503Z"
    },
    {
      "icao": "LZIB",
      "alert": "OK",
      "vis_m": 9999,
      "fzfg": false,
      "metar_trigger": false,
      "taf_trigger": false,
      "metar": "METAR LZIB 140900Z 11006KT 070V130 CAVOK 28/15 Q1018 NOSIG",
      "taf": ""
    },
    {
      "icao": "LZKZ",
      "alert": "OK",
      "vis_m": 9999,
      "fzfg": false,
      "metar_trigger": false,
      "taf_trigger": false,
      "metar": "METAR LZKZ 140900Z 03009KT 360V060 9999 FEW043 26/17 Q1018 NOSIG",
      "taf": ""
    },
    {
      "icao": "LZTT",
      "alert": "OK",
      "vis_m": 9999,
      "fzfg": false,
      "metar_trigger": false,
      "taf_trigger": false,
      "metar": "METAR LZTT 140900Z VRB03KT 9999 SCT036 23/14 Q1020 NOSIG",
      "taf": ""
    },
    {
      "icao": "OEJN",
      "alert": "OK",
      "vis_m": 9999,
      "fzfg": false,
      "metar_trigger": false,
      "taf_trigger": false,
      "metar": "METAR OEJN 140900Z 28009KT CAVOK 35/23 Q1004 NOSIG",
      "taf": "TAF OEJN 140500Z 1406/1512 32012KT CAVOK"
    },
    {
      "icao": "OEMA",
      "alert": "OK",
      "vis_m": 9999,
      "fzfg": false,
      "metar_trigger": false,
      "taf_trigger": false,
      "metar": "METAR OEMA 140900Z 08010KT CAVOK 44/M05 Q1008 NOSIG",
      "taf": "TAF OEMA 140500Z 1406/1512 28012KT 9999 FEW045"
    },
    {
      "icao": "OJAI",
      "alert": "OK",
      "vis_m": 5000,
      "fzfg": false,
      "metar_trigger": false,
      "taf_trigger": false,
      "metar": "METAR OJAI 140900Z 27008KT 5000 HZ NSC 31/07 Q1011 NOSIG",
      "taf": "TAF OJAI 140450Z 1406/1512 30012KT 5000 HZ NSC"
    },
    {
      "icao": "OMAA",
      "alert": "OK",
      "vis_m": 9999,
      "fzfg": false,
      "metar_trigger": false,
      "taf_trigger": false,
      "metar": "METAR OMAA 140900Z 31005KT 250V030 CAVOK 41/16 Q0996 NOSIG",
      "taf": "TAF OMAA 140500Z 1406/1512 23005KT 8000 NSC"
    },
    {
      "icao": "OMDB",
      "alert": "OK",
      "vis_m": 9000,
      "fzfg": false,
      "metar_trigger": false,
      "taf_trigger": false,
      "metar": "METAR OMDB 140900Z 17007KT 120V200 9000 NSC 42/15 Q0997 BECMG 33010KT",
      "taf": "TAF OMDB 140500Z 1406/1512 24007KT 8000 NSC"
    },
    {
      "icao": "UAAA",
      "alert": "OK",
      "vis_m": 9999,
      "fzfg": false,
      "metar_trigger": false,
      "taf_trigger": false,
      "metar": "METAR UAAA 140900Z 02004MPS 350V070 9999 FEW050CB BKN200 33/13 Q1009 NOSIG",
      "taf": "TAF UAAA 140502Z 1406/1506 34003MPS 9999 SCT050CB BKN100 TX33/1410Z TN20/1501Z"
    },
    {
      "icao": "UBBB",
      "alert": "OK",
      "vis_m": 9999,
      "fzfg": false,
      "metar_trigger": false,
      "taf_trigger": false,
      "metar": "METAR UBBB 140900Z 36008KT CAVOK 32/18 Q1007 NOSIG",
      "taf": "TAF UBBB 140500Z 1406/1506 35014KT CAVOK TX33/1410Z TN25/1501Z"
    },
    {
      "icao": "UDSG",
      "alert": "OK",
      "vis_m": 9999,
      "fzfg": false,
      "metar_trigger": false,
      "taf_trigger": false,
      "metar": "METAR UDSG 140900Z 06005KT 9999 NSC 28/16 Q1014 NOSIG",
      "taf": "TAF UDSG 140458Z 1406/1506 36008KT 9999 FEW050"
    },
    {
      "icao": "UDYZ",
      "alert": "OK",
      "vis_m": 9999,
      "fzfg": false,
      "metar_trigger": false,
      "taf_trigger": false,
      "metar": "METAR UDYZ 140900Z 16005KT 130V230 9999 NSC 34/15 Q1007 NOSIG",
      "taf": "TAF UDYZ 140500Z 1406/1506 16006KT 9999 FEW040"
    },
    {
      "icao": "UGKO",
      "alert": "OK",
      "vis_m": 9999,
      "fzfg": false,
      "metar_trigger": false,
      "taf_trigger": false,
      "metar": "METAR UGKO 140900Z 29006KT 250V320 9999 SCT010 OVC033 23/20 Q1009 NOSIG",
      "taf": "TAF UGKO 140500Z 1406/1506 25007KT 9999 SCT015 OVC030 TX26/1411Z TN20/1502Z"
    }
  ]
}