{
  "ts_utc": "2026-02-23T12:31:37Z",
  "threshold_m": 150,
  "source": "stations_override.txt (ICAO list) + aviationweather.gov (METAR/TAF raw)",
  "station_count": 159,
  "stations": [
    {
      "icao": "BIKF",
      "alert": "OK",
      "vis_m": 9999,
      "fzfg": false,
      "metar_trigger": false,
      "taf_trigger": false,
      "metar": "METAR BIKF 231200Z 14017KT 9999 VCSH FEW009 BKN015CB BKN034 05/05 Q0993",
      "taf": "TAF BIKF 231031Z 2312/2412 17022KT 9999 -SHRA SCT015 BKN025 TX07/2314Z TN01/2406Z"
    },
    {
      "icao": "BKPR",
      "alert": "OK",
      "vis_m": 9999,
      "fzfg": false,
      "metar_trigger": false,
      "taf_trigger": false,
      "metar": "METAR BKPR 231230Z 14004KT 9999 BKN090 09/03 Q1019 NOSIG",
      "taf": "TAF BKPR 231130Z 2312/2412 23007KT 9999 BKN080"
    },
    {
      "icao": "EBCI",
      "alert": "OK",
      "vis_m": 9999,
      "fzfg": false,
      "metar_trigger": false,
      "taf_trigger": false,
      "metar": "METAR EBCI 231220Z 24016KT 9999 BKN020 10/06 Q1018 NOSIG",
      "taf": "TAF EBCI 231115Z 2312/2418 26014KT 9999 SCT030"
    },
    {
      "icao": "EDDB",
      "alert": "OK",
      "vis_m": 9999,
      "fzfg": false,
      "metar_trigger": false,
      "taf_trigger": false,
      "metar": "METAR EDDB 231220Z AUTO 26015KT 9999 SCT032 BKN043 11/05 Q1009 TEMPO 26020G30KT SHRA BKN012CB",
      "taf": "TAF EDDB 231100Z 2312/2412 26015G25KT 9999 SCT020 BKN030"
    },
    {
      "icao": "EDDH",
      "alert": "OK",
      "vis_m": 9999,
      "fzfg": false,
      "metar_trigger": false,
      "taf_trigger": false,
      "metar": "METAR EDDH 231220Z AUTO 27010KT 240V300 9999 SHRA FEW007 BKN020 BKN034 FEW///CB 07/06 Q1007 TEMPO 27015G30KT NSW BKN013",
      "taf": "TAF EDDH 231100Z 2312/2418 25012KT 9999 BKN015"
    },
    {
      "icao": "EDDK",
      "alert": "OK",
      "vis_m": 9999,
      "fzfg": false,
      "metar_trigger": false,
      "taf_trigger": false,
      "metar": "METAR EDDK 231220Z AUTO 26016KT 9999 BKN034 BKN043 11/05 Q1016 TEMPO 27015G25KT",
      "taf": "TAF EDDK 231100Z 2312/2418 27015KT 9999 BKN025"
    },
    {
      "icao": "EDDN",
      "alert": "OK",
      "vis_m": 9999,
      "fzfg": false,
      "metar_trigger": false,
      "taf_trigger": false,
      "metar": "METAR EDDN 231220Z AUTO 26013KT 9999 BKN028 BKN036 11/06 Q1016 TEMPO 27015G25KT",
      "taf": "TAF EDDN 231100Z 2312/2412 26013KT 9999 BKN020"
    },
    {
      "icao": "EDDS",
      "alert": "OK",
      "vis_m": 9999,
      "fzfg": false,
      "metar_trigger": false,
      "taf_trigger": false,
      "metar": "METAR EDDS 231220Z AUTO 25014G25KT 210V290 9999 SCT035 SCT044 12/05 Q1017 NOSIG",
      "taf": "TAF EDDS 231100Z 2312/2412 24012KT 9999 BKN030"
    },
    {
      "icao": "EDFH",
      "alert": "OK",
      "vis_m": 9999,
      "fzfg": false,
      "metar_trigger": false,
      "taf_trigger": false,
      "metar": "METAR EDFH 231220Z 26016KT 9999 BKN018 08/05 Q1016",
      "taf": "TAF EDFH 231100Z 2312/2412 27015G30KT 9999 BKN020"
    },
    {
      "icao": "EDJA",
      "alert": "OK",
      "vis_m": 9999,
      "fzfg": false,
      "metar_trigger": false,
      "taf_trigger": false,
      "metar": "METAR EDJA 231220Z 25014KT 9999 BKN016 09/06 Q1019",
      "taf": "TAF EDJA 231100Z 2312/2321 24015G25KT 9999 SCT015 BKN040"
    },
    {
      "icao": "EDLW",
      "alert": "OK",
      "vis_m": 9999,
      "fzfg": false,
      "metar_trigger": false,
      "taf_trigger": false,
      "metar": "METAR EDLW 231220Z 23018G28KT 9999 VCSH SCT023 BKN027TCU BKN044 10/06 Q1013",
      "taf": "TAF EDLW 231100Z 2312/2412 24013KT 9999 BKN020"
    },
    {
      "icao": "EDNY",
      "alert": "OK",
      "vis_m": 9999,
      "fzfg": false,
      "metar_trigger": false,
      "taf_trigger": false,
      "metar": "METAR EDNY 231220Z 26011KT 230V290 9999 FEW030 BKN041 12/07 Q1021",
      "taf": "TAF EDNY 231100Z 2312/2321 24010KT 9999 FEW020 BKN040"
    },
    {
      "icao": "EDSB",
      "alert": "OK",
      "vis_m": 9999,
      "fzfg": false,
      "metar_trigger": false,
      "taf_trigger": false,
      "metar": "METAR EDSB 231220Z 22013KT 9999 BKN025 BKN058 13/08 Q1019",
      "taf": "TAF EDSB 231100Z 2312/2412 22012KT 9999 BKN035"
    },
    {
      "icao": "EETN",
      "alert": "OK",
      "vis_m": 9999,
      "fzfg": false,
      "metar_trigger": false,
      "taf_trigger": false,
      "metar": "METAR EETN 231220Z 11007KT CAVOK M04/M06 Q1007 NOSIG",
      "taf": "TAF EETN 231130Z 2312/2412 12006KT 9999 FEW015"
    },
    {
      "icao": "EFTU",
      "alert": "OK",
      "vis_m": 9999,
      "fzfg": false,
      "metar_trigger": false,
      "taf_trigger": false,
      "metar": "METAR EFTU 231220Z AUTO 14006KT 110V180 9999 OVC008 M03/M05 Q1007",
      "taf": "TAF EFTU 231130Z 2312/2412 12005KT 9999 OVC007"
    },
    {
      "icao": "EGBB",
      "alert": "OK",
      "vis_m": 9999,
      "fzfg": false,
      "metar_trigger": false,
      "taf_trigger": false,
      "metar": "METAR EGBB 231220Z 25008KT 200V280 9999 BKN035 12/05 Q1013",
      "taf": "TAF EGBB 231056Z 2312/2412 26010KT 9999 SCT030"
    },
    {
      "icao": "EGGP",
      "alert": "OK",
      "vis_m": 9999,
      "fzfg": false,
      "metar_trigger": false,
      "taf_trigger": false,
      "metar": "METAR EGGP 231220Z 26015KT 9999 SCT033 11/06 Q1011",
      "taf": "TAF EGGP 231100Z 2312/2412 25013KT 9999 FEW030"
    },
    {
      "icao": "EGGW",
      "alert": "OK",
      "vis_m": 9999,
      "fzfg": false,
      "metar_trigger": false,
      "taf_trigger": false,
      "metar": "METAR EGGW 231220Z AUTO 25014KT 230V290 9999 BKN031 BKN039 11/06 Q1014",
      "taf": "TAF EGGW 231055Z 2312/2412 23012KT 9999 SCT025"
    },
    {
      "icao": "EGKK",
      "alert": "OK",
      "vis_m": 9999,
      "fzfg": false,
      "metar_trigger": false,
      "taf_trigger": false,
      "metar": "METAR EGKK 231220Z 24009KT 9999 SCT032 12/08 Q1016",
      "taf": "TAF EGKK 231059Z 2312/2418 23010KT 9999 SCT020"
    },
    {
      "icao": "EGNM",
      "alert": "OK",
      "vis_m": 9999,
      "fzfg": false,
      "metar_trigger": false,
      "taf_trigger": false,
      "metar": "METAR EGNM 231220Z 27023G34KT 9999 SCT021 SCT025 10/04 Q1009",
      "taf": "TAF EGNM 231100Z 2312/2412 26014KT 9999 SCT030"
    },
    {
      "icao": "EGPD",
      "alert": "OK",
      "vis_m": 9999,
      "fzfg": false,
      "metar_trigger": false,
      "taf_trigger": false,
      "metar": "METAR EGPD 231220Z COR AUTO 26008KT 230V290 9999 FEW040 SCT049 11/04 Q1000 NOSIG",
      "taf": "TAF EGPD 231059Z 2312/2412 27009KT 9999 FEW035"
    },
    {
      "icao": "EGPF",
      "alert": "OK",
      "vis_m": 9999,
      "fzfg": false,
      "metar_trigger": false,
      "taf_trigger": false,
      "metar": "METAR EGPF 231220Z AUTO 23017KT 9999 FEW025 SCT030 BKN037 10/07 Q1005",
      "taf": "TAF EGPF 231056Z 2312/2412 25012KT 9999 SCT025"
    },
    {
      "icao": "EHBK",
      "alert": "OK",
      "vis_m": 9999,
      "fzfg": false,
      "metar_trigger": false,
      "taf_trigger": false,
      "metar": "METAR EHBK 231225Z AUTO 24015G25KT 200V280 9999 FEW025 BKN028 BKN033 11/06 Q1015 NOSIG",
      "taf": "TAF EHBK 231121Z 2312/2418 25015KT 9999 BKN018"
    },
    {
      "icao": "EHEH",
      "alert": "OK",
      "vis_m": 9999,
      "fzfg": false,
      "metar_trigger": false,
      "taf_trigger": false,
      "metar": "METAR EHEH 231225Z AUTO 26011KT 220V290 9999 SCT024 BKN029 OVC033 11/06 Q1014 BLU TEMPO 25015G25KT",
      "taf": "TAF EHEH 231123Z 2312/2418 24015G27KT 9999 BKN025"
    },
    {
      "icao": "EKBI",
      "alert": "OK",
      "vis_m": 7000,
      "fzfg": false,
      "metar_trigger": false,
      "taf_trigger": false,
      "metar": "METAR EKBI 231220Z 24009KT 7000 -RA BKN003 FEW020CB 05/05 Q1003",
      "taf": ""
    },
    {
      "icao": "EKCH",
      "alert": "OK",
      "vis_m": 6000,
      "fzfg": false,
      "metar_trigger": false,
      "taf_trigger": false,
      "metar": "METAR EKCH 231220Z 25009KT 6000 OVC004 04/04 Q1003 BECMG BKN005",
      "taf": "TAF EKCH 231109Z 2312/2412 24010KT 2000 BR BKN003"
    },
    {
      "icao": "ENAL",
      "alert": "OK",
      "vis_m": 9999,
      "fzfg": false,
      "metar_trigger": false,
      "taf_trigger": false,
      "metar": "METAR ENAL 231220Z 10006KT 070V130 9999 FEW010 BKN020 02/02 Q0998",
      "taf": ""
    },
    {
      "icao": "ENBR",
      "alert": "OK",
      "vis_m": 7000,
      "fzfg": false,
      "metar_trigger": false,
      "taf_trigger": false,
      "metar": "METAR ENBR 231220Z 13007KT 7000 -SHRA FEW005 BKN009 04/04 Q0998 TEMPO 4000 SHRA SCT018CB RMK WIND 1200FT 17010KT",
      "taf": "TAF ENBR 231100Z 2312/2412 13008KT 9999 SCT008 BKN020"
    },
    {
      "icao": "ENGM",
      "alert": "OK",
      "vis_m": 9999,
      "fzfg": false,
      "metar_trigger": false,
      "taf_trigger": false,
      "metar": "METAR ENGM 231220Z VRB02KT 9999 2800NW -SN FEW009 SCT011 BKN013 M01/M04 Q1000 TEMPO 2500 BKN008",
      "taf": "TAF ENGM 231100Z 2312/2412 02003KT 8000 -SN SCT007 BKN012"
    },
    {
      "icao": "ENHD",
      "alert": "OK",
      "vis_m": 9000,
      "fzfg": false,
      "metar_trigger": false,
      "taf_trigger": false,
      "metar": "METAR ENHD 231220Z 12008KT 9000 VCSH FEW002 BKN010 BKN014 05/04 Q0999",
      "taf": "TAF ENHD 231100Z 2312/2321 17008KT 9999 SCT010 BKN015"
    },
    {
      "icao": "ENTC",
      "alert": "OK",
      "vis_m": 9999,
      "fzfg": false,
      "metar_trigger": false,
      "taf_trigger": false,
      "metar": "METAR ENTC 231220Z 25004KT 9999 FEW013 M03/M06 Q1006 NOSIG RMK WIND 2600FT 17008KT",
      "taf": "TAF ENTC 231100Z 2312/2412 22008KT 9999 FEW015"
    },
    {
      "icao": "ENTO",
      "alert": "OK",
      "vis_m": 1900,
      "fzfg": false,
      "metar_trigger": false,
      "taf_trigger": false,
      "metar": "METAR ENTO 231220Z 17003KT 1900 BR OVC002 M00/M00 Q1000 NOSIG",
      "taf": ""
    },
    {
      "icao": "ENVA",
      "alert": "OK",
      "vis_m": 9999,
      "fzfg": false,
      "metar_trigger": false,
      "taf_trigger": false,
      "metar": "METAR ENVA 231220Z 13002KT CAVOK 02/M07 Q0999 NOSIG RMK WIND 670FT 08003KT",
      "taf": "TAF ENVA 231100Z 2312/2412 09005KT CAVOK"
    },
    {
      "icao": "ENZV",
      "alert": "OK",
      "vis_m": 9999,
      "fzfg": false,
      "metar_trigger": false,
      "taf_trigger": false,
      "metar": "METAR ENZV 231220Z 21004KT 9999 FEW026 BKN034 06/04 Q1000 TEMPO BKN009",
      "taf": "TAF ENZV 231100Z 2312/2412 17008KT 9999 SCT010 BKN020"
    },
    {
      "icao": "EPGD",
      "alert": "OK",
      "vis_m": 9999,
      "fzfg": false,
      "metar_trigger": false,
      "taf_trigger": false,
      "metar": "METAR EPGD 231200Z 25010KT 9999 -DZ OVC003 04/03 Q1004",
      "taf": "TAF EPGD 231130Z 2312/2412 26010KT 9999 OVC003"
    },
    {
      "icao": "EPKK",
      "alert": "OK",
      "vis_m": 9999,
      "fzfg": false,
      "metar_trigger": false,
      "taf_trigger": false,
      "metar": "METAR EPKK 231200Z 26015KT 9999 FEW022TCU BKN044 09/05 Q1011",
      "taf": "TAF EPKK 231130Z 2312/2412 24012KT 9999 BKN030"
    },
    {
      "icao": "EPKT",
      "alert": "OK",
      "vis_m": 9999,
      "fzfg": false,
      "metar_trigger": false,
      "taf_trigger": false,
      "metar": "METAR EPKT 231200Z 25010KT 9999 FEW020CB BKN046 09/06 Q1011",
      "taf": "TAF EPKT 231130Z 2312/2412 25012KT 9999 BKN025"
    },
    {
      "icao": "EPLB",
      "alert": "OK",
      "vis_m": 9999,
      "fzfg": false,
      "metar_trigger": false,
      "taf_trigger": false,
      "metar": "METAR EPLB 231200Z 29012KT 9999 BKN017 OVC021 06/04 Q1008",
      "taf": "TAF EPLB 231130Z 2312/2412 28012KT 9999 BKN014"
    },
    {
      "icao": "EPMO",
      "alert": "OK",
      "vis_m": 9999,
      "fzfg": false,
      "metar_trigger": false,
      "taf_trigger": false,
      "metar": "METAR EPMO 231200Z 25009KT 9999 BKN011 05/05 Q1008",
      "taf": "TAF EPMO 231130Z 2312/2412 27012KT 9999 BKN010"
    },
    {
      "icao": "EPPO",
      "alert": "OK",
      "vis_m": 9999,
      "fzfg": false,
      "metar_trigger": false,
      "taf_trigger": false,
      "metar": "METAR EPPO 231200Z 25009KT 9999 BKN020 09/06 Q1008",
      "taf": ""
    },
    {
      "icao": "EPRA",
      "alert": "OK",
      "vis_m": 9999,
      "fzfg": false,
      "metar_trigger": false,
      "taf_trigger": false,
      "metar": "METAR EPRA 231200Z 29013KT 9999 BKN018 07/04 Q1009",
      "taf": "TAF EPRA 231130Z 2312/2321 27012KT 9999 BKN016"
    },
    {
      "icao": "EPRZ",
      "alert": "OK",
      "vis_m": 9999,
      "fzfg": false,
      "metar_trigger": false,
      "taf_trigger": false,
      "metar": "METAR EPRZ 231200Z 28017KT 9999 BKN030 10/05 Q1009",
      "taf": "TAF EPRZ 231130Z 2312/2412 25015KT 9999 BKN025"
    },
    {
      "icao": "EPSC",
      "alert": "OK",
      "vis_m": 3500,
      "fzfg": false,
      "metar_trigger": false,
      "taf_trigger": false,
      "metar": "METAR EPSC 231200Z 24003KT 210V270 3500 -SHRA FEW003 SCT011 BKN015CB 07/07 Q1007 RESHRA",
      "taf": "TAF EPSC 231130Z 2312/2412 26010KT 9999 BKN016"
    },
    {
      "icao": "EPSY",
      "alert": "OK",
      "vis_m": 9999,
      "fzfg": false,
      "metar_trigger": false,
      "taf_trigger": false,
      "metar": "METAR EPSY 231200Z 26006KT 210V300 9999 BKN006 OVC008 04/03 Q1006",
      "taf": "TAF EPSY 231130Z 2312/2321 27006KT 9999 OVC007"
    },
    {
      "icao": "EPWA",
      "alert": "OK",
      "vis_m": 9999,
      "fzfg": false,
      "metar_trigger": false,
      "taf_trigger": false,
      "metar": "METAR EPWA 231200Z 26010KT 9999 BKN012 06/05 Q1008 NOSIG",
      "taf": "TAF EPWA 231130Z 2312/2412 27012KT 9999 OVC011"
    },
    {
      "icao": "EPWR",
      "alert": "OK",
      "vis_m": 9999,
      "fzfg": false,
      "metar_trigger": false,
      "taf_trigger": false,
      "metar": "METAR EPWR 231200Z 27014KT 9999 FEW020 SCT027 10/06 Q1011",
      "taf": "TAF EPWR 231130Z 2312/2412 26010KT 9999 BKN025"
    },
    {
      "icao": "ESGG",
      "alert": "OK",
      "vis_m": 9999,
      "fzfg": false,
      "metar_trigger": false,
      "taf_trigger": false,
      "metar": "METAR ESGG 231220Z 20006KT 9999 OVC004 02/02 Q1000",
      "taf": "TAF ESGG 231130Z 2312/2412 18006KT 0100 FG VV002"
    },
    {
      "icao": "ESKN",
      "alert": "OK",
      "vis_m": 7000,
      "fzfg": false,
      "metar_trigger": false,
      "taf_trigger": false,
      "metar": "METAR ESKN 231220Z 13006KT 7000 -SNRA OVC003 00/M00 Q1002",
      "taf": "TAF ESKN 231130Z 2312/2412 13008KT 9999 SCT004 BKN015"
    },
    {
      "icao": "ESMS",
      "alert": "OK",
      "vis_m": 1300,
      "fzfg": false,
      "metar_trigger": false,
      "taf_trigger": false,
      "metar": "METAR ESMS 231220Z 25014KT 1300 R17/1100N R35/1200U FG OVC002 04/04 Q1002",
      "taf": "TAF ESMS 231130Z 2312/2412 26008KT 0200 FG VV002"
    },
    {
      "icao": "ESSA",
      "alert": "OK",
      "vis_m": 9999,
      "fzfg": false,
      "metar_trigger": false,
      "taf_trigger": false,
      "metar": "METAR ESSA 231220Z 15008KT 9999 BKN018 01/M02 Q1003 NOSIG",
      "taf": "TAF ESSA 231130Z 2312/2412 14007KT 9999 SCT015"
    },
    {
      "icao": "EYKA",
      "alert": "OK",
      "vis_m": 4200,
      "fzfg": false,
      "metar_trigger": false,
      "taf_trigger": false,
      "metar": "METAR EYKA 231220Z 17005KT 130V230 4200 -RA BR OVC004 01/00 Q1003",
      "taf": "TAF EYKA 231109Z 2312/2412 VRB05KT 1500 BR OVC005"
    },
    {
      "icao": "EYPA",
      "alert": "OK",
      "vis_m": 9999,
      "fzfg": false,
      "metar_trigger": false,
      "taf_trigger": false,
      "metar": "METAR EYPA 231220Z 26006KT 220V300 9999 BKN004 OVC007 01/01 Q1001",
      "taf": ""
    },
    {
      "icao": "EYVI",
      "alert": "OK",
      "vis_m": 2400,
      "fzfg": false,
      "metar_trigger": false,
      "taf_trigger": false,
      "metar": "METAR EYVI 231220Z 17005KT 2400 SN BR OVC005 01/M00 Q1003 TEMPO 0800 +SNRA OVC002",
      "taf": "TAF EYVI 231120Z 2312/2412 18008KT 3000 SNRA OVC005"
    },
    {
      "icao": "GCFV",
      "alert": "OK",
      "vis_m": 9999,
      "fzfg": false,
      "metar_trigger": false,
      "taf_trigger": false,
      "metar": "METAR GCFV 231200Z 05004KT 020V090 CAVOK 24/11 Q1023",
      "taf": "TAF GCFV 230800Z 2309/2409 17005KT 7000 NSC TX24/2314Z TN17/2406Z"
    },
    {
      "icao": "GCLP",
      "alert": "OK",
      "vis_m": 9999,
      "fzfg": false,
      "metar_trigger": false,
      "taf_trigger": false,
      "metar": "METAR GCLP 231200Z 15008KT CAVOK 24/09 Q1022 NOSIG",
      "taf": "TAF GCLP 230800Z 2309/2409 17010KT 7000 NSC TX25/2314Z TN18/2406Z"
    },
    {
      "icao": "GCTS",
      "alert": "OK",
      "vis_m": 9999,
      "fzfg": false,
      "metar_trigger": false,
      "taf_trigger": false,
      "metar": "METAR GCTS 231200Z 11009KT 080V140 CAVOK 29/M03 Q1022 NOSIG",
      "taf": "TAF GCTS 230800Z 2309/2409 10010KT 8000 NSC TX27/2314Z TN19/2406Z"
    },
    {
      "icao": "GMAD",
      "alert": "OK",
      "vis_m": 9999,
      "fzfg": false,
      "metar_trigger": false,
      "taf_trigger": false,
      "metar": "METAR GMAD 231200Z 02003KT 320V100 CAVOK 28/04 Q1022 NOSIG",
      "taf": "TAF GMAD 231100Z 2312/2418 05005KT CAVOK"
    },
    {
      "icao": "GMMN",
      "alert": "OK",
      "vis_m": 9999,
      "fzfg": false,
      "metar_trigger": false,
      "taf_trigger": false,
      "metar": "METAR GMMN 231200Z VRB02KT CAVOK 26/16 Q1024 NOSIG",
      "taf": ""
    },
    {
      "icao": "GMMX",
      "alert": "OK",
      "vis_m": 9999,
      "fzfg": false,
      "metar_trigger": false,
      "taf_trigger": false,
      "metar": "METAR GMMX 231200Z 06007KT 030V090 CAVOK 26/05 Q1024 NOSIG",
      "taf": "TAF GMMX 231100Z 2312/2418 06006KT 8000 NSC"
    },
    {
      "icao": "HEGN",
      "alert": "OK",
      "vis_m": 9999,
      "fzfg": false,
      "metar_trigger": false,
      "taf_trigger": false,
      "metar": "METAR HEGN 231200Z 36018KT CAVOK 22/04 Q1012 NOSIG",
      "taf": "TAF HEGN 231100Z 2312/2418 34015G25KT CAVOK"
    },
    {
      "icao": "HEMA",
      "alert": "OK",
      "vis_m": 9999,
      "fzfg": false,
      "metar_trigger": false,
      "taf_trigger": false,
      "metar": "METAR HEMA 231200Z 02009KT CAVOK 22/06 Q1011 NOSIG",
      "taf": "TAF HEMA 231100Z 2312/2418 35015G25KT CAVOK"
    },
    {
      "icao": "HESH",
      "alert": "OK",
      "vis_m": 9999,
      "fzfg": false,
      "metar_trigger": false,
      "taf_trigger": false,
      "metar": "METAR HESH 231200Z 06005KT CAVOK 24/07 Q1011 NOSIG",
      "taf": "TAF HESH 231100Z 2312/2418 03015KT CAVOK"
    },
    {
      "icao": "HESX",
      "alert": "OK",
      "vis_m": 9999,
      "fzfg": false,
      "metar_trigger": false,
      "taf_trigger": false,
      "metar": "METAR HESX 231200Z 27016KT 9999 SCT020 19/06 Q1014 NOSIG",
      "taf": "TAF HESX 231100Z 2312/2418 27012G22KT 9999 SCT020"
    },
    {
      "icao": "LATI",
      "alert": "OK",
      "vis_m": 9999,
      "fzfg": false,
      "metar_trigger": false,
      "taf_trigger": false,
      "metar": "METAR LATI 231220Z VRB02KT CAVOK 17/M01 Q1020 NOSIG",
      "taf": "TAF LATI 231100Z 2312/2412 VRB05KT CAVOK TX17/2412Z TN03/2405Z"
    },
    {
      "icao": "LBPD",
      "alert": "OK",
      "vis_m": 9999,
      "fzfg": false,
      "metar_trigger": false,
      "taf_trigger": false,
      "metar": "METAR LBPD 231230Z AUTO 09003KT 050V140 9999 SCT120/// BKN240/// 12/03 Q1017 NOSIG",
      "taf": "TAF LBPD 231100Z 2312/2412 VRB03KT 9999 SCT070"
    },
    {
      "icao": "LBSF",
      "alert": "OK",
      "vis_m": 9999,
      "fzfg": false,
      "metar_trigger": false,
      "taf_trigger": false,
      "metar": "METAR LBSF 231230Z 17003KT 090V230 9999 BKN083 08/01 Q1018 NOSIG",
      "taf": "TAF LBSF 231100Z 2312/2412 VRB03KT 9999 SCT050"
    },
    {
      "icao": "LBWN",
      "alert": "OK",
      "vis_m": 9999,
      "fzfg": false,
      "metar_trigger": false,
      "taf_trigger": false,
      "metar": "METAR LBWN 231230Z 25011KT 220V290 CAVOK 13/02 Q1016 NOSIG",
      "taf": "TAF LBWN 231100Z 2312/2412 27010KT CAVOK"
    },
    {
      "icao": "LCLK",
      "alert": "OK",
      "vis_m": 9999,
      "fzfg": false,
      "metar_trigger": false,
      "taf_trigger": false,
      "metar": "METAR LCLK 231200Z 22012KT 9999 SCT025 FEW040CB 19/10 Q1011 NOSIG RMK DISTANT CB TO S",
      "taf": "TAF LCLK 231130Z 2312/2412 22012KT 9999 FEW025"
    },
    {
      "icao": "LCPH",
      "alert": "OK",
      "vis_m": 9999,
      "fzfg": false,
      "metar_trigger": false,
      "taf_trigger": false,
      "metar": "METAR LCPH 231200Z 30011KT 250V320 9999 FEW025 FEW030CB 18/10 Q1012 NOSIG",
      "taf": "TAF LCPH 231130Z 2312/2412 28012KT 9999 FEW020"
    },
    {
      "icao": "LEAL",
      "alert": "OK",
      "vis_m": 9999,
      "fzfg": false,
      "metar_trigger": false,
      "taf_trigger": false,
      "metar": "METAR LEAL 231200Z 08005KT 040V130 CAVOK 20/06 Q1025 NOSIG",
      "taf": "TAF LEAL 231100Z 2312/2412 VRB04KT CAVOK TX20/2312Z TN07/2406Z"
    },
    {
      "icao": "LEBB",
      "alert": "OK",
      "vis_m": 9999,
      "fzfg": false,
      "metar_trigger": false,
      "taf_trigger": false,
      "metar": "METAR LEBB 231200Z VRB01KT CAVOK 19/09 Q1025 NOSIG",
      "taf": "TAF LEBB 231100Z 2312/2412 10005KT CAVOK TX22/2314Z TN09/2407Z"
    },
    {
      "icao": "LEBL",
      "alert": "OK",
      "vis_m": 9999,
      "fzfg": false,
      "metar_trigger": false,
      "taf_trigger": false,
      "metar": "METAR LEBL 231200Z 11005KT 070V160 CAVOK 16/11 Q1025 NOSIG",
      "taf": "TAF LEBL 231100Z 2312/2412 12006KT 9999 FEW025 TX17/2312Z TN08/2406Z"
    },
    {
      "icao": "LECH",
      "alert": "OK",
      "vis_m": 9999,
      "fzfg": false,
      "metar_trigger": false,
      "taf_trigger": false,
      "metar": "METAR LECH 231200Z AUTO 16003KT 110V240 CAVOK 20/03 Q1026",
      "taf": ""
    },
    {
      "icao": "LEMD",
      "alert": "OK",
      "vis_m": 9999,
      "fzfg": false,
      "metar_trigger": false,
      "taf_trigger": false,
      "metar": "METAR LEMD 231200Z VRB02KT CAVOK 16/05 Q1027 NOSIG",
      "taf": "TAF LEMD 231100Z 2312/2418 VRB04KT CAVOK TX21/2315Z TN02/2407Z"
    },
    {
      "icao": "LEMG",
      "alert": "OK",
      "vis_m": 9999,
      "fzfg": false,
      "metar_trigger": false,
      "taf_trigger": false,
      "metar": "METAR LEMG 231200Z 13008KT CAVOK 16/08 Q1026 NOSIG",
      "taf": "TAF LEMG 231100Z 2312/2412 29008KT CAVOK TX19/2314Z TN08/2407Z"
    },
    {
      "icao": "LEVC",
      "alert": "OK",
      "vis_m": 9999,
      "fzfg": false,
      "metar_trigger": false,
      "taf_trigger": false,
      "metar": "METAR LEVC 231200Z 36002KT CAVOK 21/03 Q1025 NOSIG",
      "taf": "TAF LEVC 231100Z 2312/2412 VRB04KT CAVOK TX23/2312Z TN06/2406Z"
    },
    {
      "icao": "LEXJ",
      "alert": "OK",
      "vis_m": 9999,
      "fzfg": false,
      "metar_trigger": false,
      "taf_trigger": false,
      "metar": "METAR LEXJ 231200Z 04003KT 010V080 CAVOK 14/10 Q1025",
      "taf": "TAF LEXJ 230800Z 2309/2409 20009KT 9999 FEW020 TX19/2314Z TN06/2309Z"
    },
    {
      "icao": "LEZG",
      "alert": "OK",
      "vis_m": 9999,
      "fzfg": false,
      "metar_trigger": false,
      "taf_trigger": false,
      "metar": "METAR LEZG 231200Z 32006KT 290V010 CAVOK 18/05 Q1026 NOSIG",
      "taf": "TAF LEZG 231100Z 2312/2412 32009KT CAVOK TX21/2314Z TN05/2406Z"
    },
    {
      "icao": "LEZL",
      "alert": "OK",
      "vis_m": 9999,
      "fzfg": false,
      "metar_trigger": false,
      "taf_trigger": false,
      "metar": "METAR LEZL 231200Z VRB02KT CAVOK 20/10 Q1025 NOSIG",
      "taf": "TAF LEZL 230800Z 2309/2409 VRB03KT CAVOK TX23/2315Z TN08/2407Z"
    },
    {
      "icao": "LFBD",
      "alert": "OK",
      "vis_m": 9999,
      "fzfg": false,
      "metar_trigger": false,
      "taf_trigger": false,
      "metar": "METAR LFBD 231200Z AUTO 16006KT 120V180 9999 BKN014 14/10 Q1027 BECMG NSC",
      "taf": "TAF LFBD 231100Z 2312/2418 20005KT 9999 BKN014 TX18/2415Z TN07/2406Z"
    },
    {
      "icao": "LFLL",
      "alert": "OK",
      "vis_m": 9999,
      "fzfg": false,
      "metar_trigger": false,
      "taf_trigger": false,
      "metar": "METAR LFLL 231200Z VRB02KT 9999 FEW030 SCT061 BKN260 15/08 Q1025 NOSIG",
      "taf": "TAF LFLL 231100Z 2312/2418 VRB05KT 9999 BKN030"
    },
    {
      "icao": "LFLS",
      "alert": "OK",
      "vis_m": 9999,
      "fzfg": false,
      "metar_trigger": false,
      "taf_trigger": false,
      "metar": "METAR LFLS 231200Z AUTO 04004KT 350V080 9999 BKN029 BKN052 14/08 Q1025 NOSIG",
      "taf": "TAF LFLS 230800Z 2309/2409 VRB02KT CAVOK"
    },
    {
      "icao": "LFMN",
      "alert": "OK",
      "vis_m": 9999,
      "fzfg": false,
      "metar_trigger": false,
      "taf_trigger": false,
      "metar": "METAR LFMN 231200Z 21004KT 180V240 9999 FEW026 15/09 Q1020 NOSIG",
      "taf": "TAF LFMN 230800Z 2309/2415 33010KT 9999 FEW020 BKN250"
    },
    {
      "icao": "LFOB",
      "alert": "OK",
      "vis_m": 9999,
      "fzfg": false,
      "metar_trigger": false,
      "taf_trigger": false,
      "metar": "METAR LFOB 231200Z AUTO 25011KT 9999 BKN020 BKN026 BKN031 12/08 Q1020 NOSIG",
      "taf": "TAF LFOB 231100Z 2312/2412 24012KT 9999 SCT025"
    },
    {
      "icao": "LFPO",
      "alert": "OK",
      "vis_m": 9999,
      "fzfg": false,
      "metar_trigger": false,
      "taf_trigger": false,
      "metar": "METAR LFPO 231200Z 25014KT 9999 FEW028 SCT073 BKN160 15/08 Q1021 NOSIG",
      "taf": "TAF LFPO 231100Z 2312/2418 25012KT 9999 SCT030 BKN160"
    },
    {
      "icao": "LFSB",
      "alert": "OK",
      "vis_m": 9999,
      "fzfg": false,
      "metar_trigger": false,
      "taf_trigger": false,
      "metar": "METAR LFSB 231200Z AUTO 26012KT 220V290 9999 OVC024 13/08 Q1022 TEMPO 26015G25KT",
      "taf": "TAF LFSB 231100Z 2312/2412 26012KT 9999 BKN025"
    },
    {
      "icao": "LGAV",
      "alert": "OK",
      "vis_m": 9999,
      "fzfg": false,
      "metar_trigger": false,
      "taf_trigger": false,
      "metar": "METAR LGAV 231220Z 06005KT 010V100 9999 SCT030 14/04 Q1020 NOSIG",
      "taf": "TAF LGAV 231100Z 2312/2412 04010KT 9999 SCT025"
    },
    {
      "icao": "LGTS",
      "alert": "OK",
      "vis_m": 9999,
      "fzfg": false,
      "metar_trigger": false,
      "taf_trigger": false,
      "metar": "METAR LGTS 231220Z 26006KT CAVOK 13/02 Q1020 NOSIG",
      "taf": "TAF LGTS 231100Z 2312/2412 VRB03KT 9999 FEW030"
    },
    {
      "icao": "LHBP",
      "alert": "OK",
      "vis_m": 9999,
      "fzfg": false,
      "metar_trigger": false,
      "taf_trigger": false,
      "metar": "METAR LHBP 231200Z 31017G27KT 9999 SCT034 SCT040 14/06 Q1014 NOSIG",
      "taf": "TAF LHBP 231115Z 2312/2412 29014KT 9999 BKN035"
    },
    {
      "icao": "LHDC",
      "alert": "OK",
      "vis_m": 9999,
      "fzfg": false,
      "metar_trigger": false,
      "taf_trigger": false,
      "metar": "METAR LHDC 231145Z AUTO 30006KT 9999 -SHRA OVC013 09/08 Q1014 BECMG SCT020",
      "taf": "TAF LHDC 231115Z 2312/2321 25009KT 9999 BKN009"
    },
    {
      "icao": "LIBD",
      "alert": "OK",
      "vis_m": 9999,
      "fzfg": false,
      "metar_trigger": false,
      "taf_trigger": false,
      "metar": "METAR LIBD 231220Z 08009KT CAVOK 17/05 Q1019",
      "taf": "TAF LIBD 231100Z 2312/2412 VRB06KT CAVOK"
    },
    {
      "icao": "LIBG",
      "alert": "OK",
      "vis_m": 9999,
      "fzfg": false,
      "metar_trigger": false,
      "taf_trigger": false,
      "metar": "METAR LIBG 231150Z 22005KT 170V290 CAVOK 17/07 Q1020",
      "taf": "TAF LIBG 231100Z 2312/2321 22010KT CAVOK"
    },
    {
      "icao": "LIBP",
      "alert": "OK",
      "vis_m": 9999,
      "fzfg": false,
      "metar_trigger": false,
      "taf_trigger": false,
      "metar": "METAR LIBP 231220Z AUTO 04006KT 350V080 9999 FEW220/// 16/08 Q1020",
      "taf": "TAF LIBP 231100Z 2312/2412 35010KT 8000 NSC"
    },
    {
      "icao": "LIBR",
      "alert": "OK",
      "vis_m": 9999,
      "fzfg": false,
      "metar_trigger": false,
      "taf_trigger": false,
      "metar": "METAR LIBR 231220Z 21007KT 180V260 CAVOK 18/06 Q1019",
      "taf": "TAF LIBR 231100Z 2312/2412 VRB06KT 8000 NSC"
    },
    {
      "icao": "LICA",
      "alert": "OK",
      "vis_m": 9999,
      "fzfg": false,
      "metar_trigger": false,
      "taf_trigger": false,
      "metar": "METAR LICA 231220Z AUTO 26012KT 9999 FEW019/// 16/12 Q1023",
      "taf": "TAF LICA 231100Z 2312/2412 27012KT 9999 FEW020"
    },
    {
      "icao": "LICC",
      "alert": "OK",
      "vis_m": 9999,
      "fzfg": false,
      "metar_trigger": false,
      "taf_trigger": false,
      "metar": "METAR LICC 231220Z 08009KT CAVOK 19/14 Q1022",
      "taf": "TAF LICC 231100Z 2312/2412 25008KT CAVOK"
    },
    {
      "icao": "LICJ",
      "alert": "OK",
      "vis_m": 9999,
      "fzfg": false,
      "metar_trigger": false,
      "taf_trigger": false,
      "metar": "METAR LICJ 231220Z 23013KT CAVOK 18/11 Q1022",
      "taf": "TAF LICJ 231100Z 2312/2412 21016KT CAVOK"
    },
    {
      "icao": "LIMC",
      "alert": "OK",
      "vis_m": 9999,
      "fzfg": false,
      "metar_trigger": false,
      "taf_trigger": false,
      "metar": "METAR LIMC 231220Z 26006KT 220V310 CAVOK 14/08 Q1019 NOSIG",
      "taf": "TAF LIMC 231100Z 2312/2418 VRB05KT CAVOK"
    },
    {
      "icao": "LIME",
      "alert": "OK",
      "vis_m": 8000,
      "fzfg": false,
      "metar_trigger": false,
      "taf_trigger": false,
      "metar": "METAR LIME 231220Z 23006KT 190V250 8000 NSC 12/07 Q1019 NOSIG",
      "taf": "TAF LIME 231100Z 2312/2412 VRB05KT 7000 NSC"
    },
    {
      "icao": "LIMF",
      "alert": "OK",
      "vis_m": 7000,
      "fzfg": false,
      "metar_trigger": false,
      "taf_trigger": false,
      "metar": "METAR LIMF 231220Z 13003KT 040V190 7000 NSC 14/06 Q1018",
      "taf": "TAF LIMF 231100Z 2312/2412 VRB04KT 7000 NSC"
    },
    {
      "icao": "LIMJ",
      "alert": "OK",
      "vis_m": 9999,
      "fzfg": false,
      "metar_trigger": false,
      "taf_trigger": false,
      "metar": "METAR LIMJ 231220Z 14007KT 9999 FEW024 SCT040 14/12 Q1020",
      "taf": "TAF LIMJ 231100Z 2312/2412 VRB05KT 9999 SCT025"
    },
    {
      "icao": "LIPE",
      "alert": "OK",
      "vis_m": 9999,
      "fzfg": false,
      "metar_trigger": false,
      "taf_trigger": false,
      "metar": "METAR LIPE 231220Z 03005KT 360V080 CAVOK 15/07 Q1019",
      "taf": "TAF LIPE 231100Z 2312/2412 VRB04KT 9999 FEW030"
    },
    {
      "icao": "LIPH",
      "alert": "OK",
      "vis_m": 4500,
      "fzfg": false,
      "metar_trigger": false,
      "taf_trigger": false,
      "metar": "METAR LIPH 231220Z VRB02KT 4500 BR SCT004 BKN030 10/08 Q1020",
      "taf": "TAF LIPH 231100Z 2312/2412 VRB03KT 2500 BR BKN005"
    },
    {
      "icao": "LIPQ",
      "alert": "OK",
      "vis_m": 9999,
      "fzfg": false,
      "metar_trigger": false,
      "taf_trigger": false,
      "metar": "METAR LIPQ 231220Z AUTO VRB02KT 9999 NCD 14/05 Q1019",
      "taf": "TAF LIPQ 231100Z 2312/2412 VRB03KT 9999 SCT030"
    },
    {
      "icao": "LIPR",
      "alert": "OK",
      "vis_m": 9999,
      "fzfg": false,
      "metar_trigger": false,
      "taf_trigger": false,
      "metar": "METAR LIPR 231220Z 06005KT CAVOK 12/09 Q1019",
      "taf": "TAF LIPR 231100Z 2312/2412 VRB04KT 7000 FEW030"
    },
    {
      "icao": "LIPX",
      "alert": "OK",
      "vis_m": 8000,
      "fzfg": false,
      "metar_trigger": false,
      "taf_trigger": false,
      "metar": "METAR LIPX 231220Z VRB03KT 8000 FEW020 12/08 Q1019",
      "taf": "TAF LIPX 231100Z 2312/2412 VRB04KT 7000 NSC"
    },
    {
      "icao": "LIPY",
      "alert": "OK",
      "vis_m": 9999,
      "fzfg": false,
      "metar_trigger": false,
      "taf_trigger": false,
      "metar": "METAR LIPY 231220Z AUTO 04004KT 350V080 9999 VV002 10/10 Q1020",
      "taf": "TAF LIPY 231100Z 2312/2412 VRB05KT 8000 NSC"
    },
    {
      "icao": "LIPZ",
      "alert": "OK",
      "vis_m": 6000,
      "fzfg": false,
      "metar_trigger": false,
      "taf_trigger": false,
      "metar": "METAR LIPZ 231220Z VRB02KT 6000 SCT010 10/07 Q1020 NOSIG",
      "taf": "TAF LIPZ 231100Z 2312/2418 VRB03KT 4000 BR BKN005"
    },
    {
      "icao": "LIRF",
      "alert": "OK",
      "vis_m": 9999,
      "fzfg": false,
      "metar_trigger": false,
      "taf_trigger": false,
      "metar": "METAR LIRF 231220Z 15008KT 9999 FEW015 BKN030 14/12 Q1021 NOSIG",
      "taf": "TAF LIRF 231100Z 2312/2418 16010KT 9999 FEW015 BKN030"
    },
    {
      "icao": "LIRN",
      "alert": "OK",
      "vis_m": 9999,
      "fzfg": false,
      "metar_trigger": false,
      "taf_trigger": false,
      "metar": "METAR LIRN 231220Z 19008KT 140V220 9999 BKN030 15/10 Q1022 NOSIG",
      "taf": "TAF LIRN 231100Z 2312/2412 VRB05KT CAVOK"
    },
    {
      "icao": "LIRP",
      "alert": "OK",
      "vis_m": 9999,
      "fzfg": false,
      "metar_trigger": false,
      "taf_trigger": false,
      "metar": "METAR LIRP 231215Z 12002KT 9999 BKN040 13/11 Q1021 NOSIG",
      "taf": "TAF LIRP 231100Z 2312/2412 VRB04KT 9999 SCT030"
    },
    {
      "icao": "LIRZ",
      "alert": "OK",
      "vis_m": 9999,
      "fzfg": false,
      "metar_trigger": false,
      "taf_trigger": false,
      "metar": "METAR LIRZ 231220Z AUTO 20006KT 170V250 9999 BKN037/// 14/07 Q1020",
      "taf": "TAF LIRZ 231100Z 2312/2412 VRB05KT 9999 BKN030"
    },
    {
      "icao": "LJLJ",
      "alert": "OK",
      "vis_m": 9999,
      "fzfg": false,
      "metar_trigger": false,
      "taf_trigger": false,
      "metar": "METAR LJLJ 231200Z 09003KT 020V190 9999 FEW070 BKN220 12/04 Q1017 NOSIG",
      "taf": "TAF LJLJ 231100Z 2312/2412 VRB02KT 9999 FEW070"
    },
    {
      "icao": "LKMT",
      "alert": "OK",
      "vis_m": 9999,
      "fzfg": false,
      "metar_trigger": false,
      "taf_trigger": false,
      "metar": "METAR LKMT 231200Z 24014KT 9999 SCT030 12/07 Q1012 NOSIG",
      "taf": "TAF LKMT 231100Z 2312/2412 23014KT 9999 SCT022 BKN045"
    },
    {
      "icao": "LKPR",
      "alert": "OK",
      "vis_m": 9999,
      "fzfg": false,
      "metar_trigger": false,
      "taf_trigger": false,
      "metar": "METAR LKPR 231200Z 26014KT 9999 SCT045 11/02 Q1013 NOSIG",
      "taf": "TAF LKPR 231100Z 2312/2418 23015KT 9999 SCT035"
    },
    {
      "icao": "LLBG",
      "alert": "OK",
      "vis_m": 9999,
      "fzfg": false,
      "metar_trigger": false,
      "taf_trigger": false,
      "metar": "METAR LLBG 231220Z 26009KT 9999 SCT035 SCT050 17/09 Q1013 NOSIG",
      "taf": "TAF LLBG 231106Z 2312/2412 24010KT 9999 SCT025 BKN035"
    },
    {
      "icao": "LMML",
      "alert": "OK",
      "vis_m": 9999,
      "fzfg": false,
      "metar_trigger": false,
      "taf_trigger": false,
      "metar": "METAR LMML 231215Z 27015KT 9999 FEW020 17/12 Q1024 NOSIG",
      "taf": "TAF LMML 231100Z 2312/2412 28012KT 9999 FEW018"
    },
    {
      "icao": "LOWW",
      "alert": "OK",
      "vis_m": 9999,
      "fzfg": false,
      "metar_trigger": false,
      "taf_trigger": false,
      "metar": "METAR LOWW 231220Z 32005KT 280V360 9999 FEW026 BKN032 13/07 Q1016 NOSIG",
      "taf": "TAF LOWW 231115Z 2312/2418 28012KT 9999 FEW040 SCT050 TX14/2312Z TN07/2418Z"
    },
    {
      "icao": "LPFR",
      "alert": "OK",
      "vis_m": 9999,
      "fzfg": false,
      "metar_trigger": false,
      "taf_trigger": false,
      "metar": "METAR LPFR 231200Z 10011KT CAVOK 18/11 Q1024",
      "taf": "TAF LPFR 231100Z 2312/2412 12010KT CAVOK"
    },
    {
      "icao": "LPMA",
      "alert": "OK",
      "vis_m": 9999,
      "fzfg": false,
      "metar_trigger": false,
      "taf_trigger": false,
      "metar": "METAR LPMA 231200Z 07004KT 360V140 9999 SCT014 18/13 Q1024",
      "taf": "TAF LPMA 231100Z 2312/2412 VRB05KT 9999 FEW015"
    },
    {
      "icao": "LPPR",
      "alert": "OK",
      "vis_m": 9999,
      "fzfg": false,
      "metar_trigger": false,
      "taf_trigger": false,
      "metar": "METAR LPPR 231200Z 13006KT 100V160 CAVOK 20/09 Q1024",
      "taf": "TAF LPPR 231100Z 2312/2412 12010KT CAVOK"
    },
    {
      "icao": "LPPS",
      "alert": "OK",
      "vis_m": 9999,
      "fzfg": false,
      "metar_trigger": false,
      "taf_trigger": false,
      "metar": "METAR LPPS 231200Z 12007KT 9999 FEW014 SCT030 16/13 Q1024",
      "taf": "TAF LPPS 231100Z 2312/2418 13008KT 9999 FEW015"
    },
    {
      "icao": "LPPT",
      "alert": "OK",
      "vis_m": 9999,
      "fzfg": false,
      "metar_trigger": false,
      "taf_trigger": false,
      "metar": "METAR LPPT 231200Z VRB04G16KT CAVOK 17/10 Q1024",
      "taf": "TAF LPPT 231100Z 2312/2418 VRB05KT CAVOK"
    },
    {
      "icao": "LQBK",
      "alert": "OK",
      "vis_m": 9999,
      "fzfg": false,
      "metar_trigger": false,
      "taf_trigger": false,
      "metar": "METAR LQBK 231200Z 07003KT 030V110 CAVOK 16/04 Q1017 NOSIG",
      "taf": "TAF LQBK 231100Z 2312/2412 32005KT CAVOK TX15/2313Z TN05/2406Z"
    },
    {
      "icao": "LQSA",
      "alert": "OK",
      "vis_m": 9999,
      "fzfg": false,
      "metar_trigger": false,
      "taf_trigger": false,
      "metar": "METAR LQSA 231200Z VRB01KT CAVOK 12/02 Q1018 NOSIG",
      "taf": "TAF LQSA 231100Z 2312/2412 VRB02KT CAVOK TX15/2314Z TN02/2405Z"
    },
    {
      "icao": "LQTZ",
      "alert": "OK",
      "vis_m": 9999,
      "fzfg": false,
      "metar_trigger": false,
      "taf_trigger": false,
      "metar": "METAR LQTZ 231200Z VRB02KT CAVOK 15/02 Q1017",
      "taf": "TAF LQTZ 231100Z 2312/2412 30005KT CAVOK TX15/2313Z TN04/2406Z"
    },
    {
      "icao": "LRBC",
      "alert": "OK",
      "vis_m": 9999,
      "fzfg": false,
      "metar_trigger": false,
      "taf_trigger": false,
      "metar": "METAR LRBC 231200Z 14008KT CAVOK 08/02 Q1011",
      "taf": "TAF LRBC 231100Z 2312/2321 17008KT CAVOK"
    },
    {
      "icao": "LRBS",
      "alert": "OK",
      "vis_m": 9999,
      "fzfg": false,
      "metar_trigger": false,
      "taf_trigger": false,
      "metar": "METAR LRBS 231200Z 26015KT CAVOK 03/00 Q1016 NOSIG",
      "taf": "TAF LRBS 231100Z 2312/2412 26010KT CAVOK"
    },
    {
      "icao": "LRBV",
      "alert": "OK",
      "vis_m": 5000,
      "fzfg": false,
      "metar_trigger": false,
      "taf_trigger": false,
      "metar": "METAR LRBV 231200Z COR 00000KT 5000 -RA BR FEW014 BKN020 01/M01 Q1014",
      "taf": "TAF LRBV 231100Z 2312/2321 VRB04KT 9999 BKN025"
    },
    {
      "icao": "LRCL",
      "alert": "OK",
      "vis_m": 7000,
      "fzfg": false,
      "metar_trigger": false,
      "taf_trigger": false,
      "metar": "METAR LRCL 231200Z 09005KT 7000 -RA SCT007 OVC025 06/04 Q1013",
      "taf": "TAF LRCL 231100Z 2312/2321 VRB04KT 9999 BKN035"
    },
    {
      "icao": "LRCV",
      "alert": "OK",
      "vis_m": 8000,
      "fzfg": false,
      "metar_trigger": false,
      "taf_trigger": false,
      "metar": "METAR LRCV 231200Z 24004KT 8000 -RA BKN042 04/04 Q1016",
      "taf": ""
    },
    {
      "icao": "LRIA",
      "alert": "OK",
      "vis_m": 9999,
      "fzfg": false,
      "metar_trigger": false,
      "taf_trigger": false,
      "metar": "METAR LRIA 231200Z 10008KT CAVOK 05/01 Q1011",
      "taf": "TAF LRIA 231100Z 2312/2321 10008KT 9999 BKN045"
    },
    {
      "icao": "LROP",
      "alert": "OK",
      "vis_m": 9999,
      "fzfg": false,
      "metar_trigger": false,
      "taf_trigger": false,
      "metar": "METAR LROP 231200Z COR 25014KT 9999 -RA NSC 03/M01 Q1015 NOSIG",
      "taf": "TAF LROP 231100Z 2312/2412 24010KT CAVOK"
    },
    {
      "icao": "LRSB",
      "alert": "OK",
      "vis_m": 9999,
      "fzfg": false,
      "metar_trigger": false,
      "taf_trigger": false,
      "metar": "METAR LRSB 231200Z 07003KT 020V100 9999 -RA SCT027 BKN038 OVC046 07/06 Q1014",
      "taf": "TAF LRSB 231100Z 2312/2412 VRB03KT 9999 BKN045"
    },
    {
      "icao": "LRSM",
      "alert": "OK",
      "vis_m": 9999,
      "fzfg": false,
      "metar_trigger": false,
      "taf_trigger": false,
      "metar": "METAR LRSM 231200Z 10004KT 060V120 9999 -RA BKN005 OVC007 05/05 Q1014 RERA",
      "taf": "TAF LRSM 231100Z 2312/2321 VRB04KT 5000 -RA BR BKN010 BKN020"
    },
    {
      "icao": "LRSV",
      "alert": "OK",
      "vis_m": 9999,
      "fzfg": false,
      "metar_trigger": false,
      "taf_trigger": false,
      "metar": "METAR LRSV 231200Z 20006KT 9999 -RA BKN044 07/03 Q1010",
      "taf": "TAF LRSV 231100Z 2312/2321 18006KT CAVOK"
    },
    {
      "icao": "LRTM",
      "alert": "OK",
      "vis_m": 9999,
      "fzfg": false,
      "metar_trigger": false,
      "taf_trigger": false,
      "metar": "METAR LRTM 231200Z 04006KT 9999 -RA FEW021 SCT038 BKN046 07/04 Q1013",
      "taf": "TAF LRTM 231100Z 2312/2321 VRB04KT 9999 BKN040"
    },
    {
      "icao": "LRTR",
      "alert": "OK",
      "vis_m": 9999,
      "fzfg": false,
      "metar_trigger": false,
      "taf_trigger": false,
      "metar": "METAR LRTR 231200Z 21008KT 170V230 9999 -RA FEW040 10/08 Q1016",
      "taf": "TAF LRTR 231100Z 2312/2412 20008KT 9999 SCT035"
    },
    {
      "icao": "LTAC",
      "alert": "OK",
      "vis_m": 9999,
      "fzfg": false,
      "metar_trigger": false,
      "taf_trigger": false,
      "metar": "METAR LTAC 231220Z 30007KT 270V330 9999 SCT029 06/M01 Q1014 NOSIG RMK RWY21C 23007KT RWY03L 28005KT 250V310 RWY21R 23006KT 180V270 RWY03R 23007KT 200V280 RWY21L 26005KT 170V300",
      "taf": "TAF LTAC 231040Z 2312/2412 VRB02KT 9999 SCT040"
    },
    {
      "icao": "LTFM",
      "alert": "OK",
      "vis_m": 9999,
      "fzfg": false,
      "metar_trigger": false,
      "taf_trigger": false,
      "metar": "METAR LTFM 231220Z 21012KT 9999 SCT028 09/02 Q1019 NOSIG RMK RWY17L 21010KT 170V240 RWY34L 20010KT 170V230 RWY16R 21010KT 180V240 RWY36 23010KT 190V250 RWY18 22012KT",
      "taf": "TAF LTFM 231040Z 2312/2418 21012KT 9999 SCT028"
    },
    {
      "icao": "LUKK",
      "alert": "OK",
      "vis_m": 9999,
      "fzfg": false,
      "metar_trigger": false,
      "taf_trigger": false,
      "metar": "METAR LUKK 231200Z 20006KT 9999 FEW049 06/M00 Q1012 NOSIG",
      "taf": "TAF LUKK 231121Z 2312/2412 23006KT 9999 BKN045"
    },
    {
      "icao": "LWOH",
      "alert": "OK",
      "vis_m": 9999,
      "fzfg": false,
      "metar_trigger": false,
      "taf_trigger": false,
      "metar": "METAR LWOH 231220Z 16006KT 9999 FEW040 09/02 Q1019",
      "taf": "TAF LWOH 231130Z 2312/2412 16010KT 9999 FEW050"
    },
    {
      "icao": "LWSK",
      "alert": "OK",
      "vis_m": 9999,
      "fzfg": false,
      "metar_trigger": false,
      "taf_trigger": false,
      "metar": "METAR LWSK 231220Z VRB02KT CAVOK 10/01 Q1019 NOSIG",
      "taf": "TAF LWSK 231130Z 2312/2412 VRB02KT CAVOK"
    },
    {
      "icao": "LYBE",
      "alert": "OK",
      "vis_m": 9999,
      "fzfg": false,
      "metar_trigger": false,
      "taf_trigger": false,
      "metar": "METAR LYBE 231200Z 31007KT CAVOK 13/05 Q1018 NOSIG",
      "taf": "TAF LYBE 231100Z 2312/2412 20005KT CAVOK TX14/2313Z TN06/2406Z"
    },
    {
      "icao": "LYNI",
      "alert": "OK",
      "vis_m": 9999,
      "fzfg": false,
      "metar_trigger": false,
      "taf_trigger": false,
      "metar": "METAR LYNI 231200Z 14003KT 080V180 CAVOK 09/02 Q1019 NOSIG",
      "taf": "TAF LYNI 231100Z 2312/2412 21005KT 9999 BKN080 TX12/2314Z TN00/2405Z"
    },
    {
      "icao": "LYPG",
      "alert": "OK",
      "vis_m": 9999,
      "fzfg": false,
      "metar_trigger": false,
      "taf_trigger": false,
      "metar": "METAR LYPG 231200Z 14005KT 110V170 CAVOK 13/02 Q1020 NOSIG",
      "taf": "TAF LYPG 231100Z 2312/2412 16005KT CAVOK TX16/2313Z TN04/2405Z"
    },
    {
      "icao": "LZIB",
      "alert": "OK",
      "vis_m": 9999,
      "fzfg": false,
      "metar_trigger": false,
      "taf_trigger": false,
      "metar": "METAR LZIB 231200Z 29009KT 270V330 9999 -SHRA FEW015 FEW035TCU BKN046 10/09 Q1015 NOSIG",
      "taf": "TAF LZIB 231115Z 2312/2412 30009KT 9999 SCT040"
    },
    {
      "icao": "LZKZ",
      "alert": "OK",
      "vis_m": 8000,
      "fzfg": false,
      "metar_trigger": false,
      "taf_trigger": false,
      "metar": "METAR LZKZ 231200Z 12004KT 8000 SCT006 BKN008 06/05 Q1013 NOSIG",
      "taf": "TAF LZKZ 231115Z 2312/2412 23009KT 9999 BKN018"
    },
    {
      "icao": "LZTT",
      "alert": "OK",
      "vis_m": 9999,
      "fzfg": false,
      "metar_trigger": false,
      "taf_trigger": false,
      "metar": "METAR LZTT 231200Z 27015KT 9999 FEW017 09/03 Q1010 NOSIG",
      "taf": "TAF LZTT 231115Z 2312/2412 27008KT 9999 BKN020"
    },
    {
      "icao": "OEJN",
      "alert": "OK",
      "vis_m": 9999,
      "fzfg": false,
      "metar_trigger": false,
      "taf_trigger": false,
      "metar": "METAR OEJN 231200Z 29011KT 9999 FEW040 29/17 Q1009 NOSIG",
      "taf": "TAF OEJN 231100Z 2312/2418 31010KT 9999 FEW040"
    },
    {
      "icao": "OEMA",
      "alert": "OK",
      "vis_m": 9999,
      "fzfg": false,
      "metar_trigger": false,
      "taf_trigger": false,
      "metar": "METAR OEMA 231200Z 20012KT CAVOK 30/03 Q1010 NOSIG",
      "taf": "TAF OEMA 231100Z 2312/2418 24010KT CAVOK"
    },
    {
      "icao": "OJAI",
      "alert": "OK",
      "vis_m": 6000,
      "fzfg": false,
      "metar_trigger": false,
      "taf_trigger": false,
      "metar": "METAR OJAI 231200Z 27013KT 6000 SCT035 15/02 Q1013 NOSIG",
      "taf": "TAF OJAI 231100Z 2312/2418 31012KT 5000 HZ SCT030"
    },
    {
      "icao": "OMAA",
      "alert": "OK",
      "vis_m": 9999,
      "fzfg": false,
      "metar_trigger": false,
      "taf_trigger": false,
      "metar": "METAR OMAA 231230Z 31011KT CAVOK 29/10 Q1009 NOSIG",
      "taf": "TAF OMAA 231100Z 2312/2418 33010KT 8000 NSC"
    },
    {
      "icao": "OMDB",
      "alert": "OK",
      "vis_m": 9999,
      "fzfg": false,
      "metar_trigger": false,
      "taf_trigger": false,
      "metar": "METAR OMDB 231230Z 31011KT CAVOK 27/16 Q1009 NOSIG",
      "taf": "TAF OMDB 231100Z 2312/2418 30010KT 8000 NSC"
    },
    {
      "icao": "UAAA",
      "alert": "OK",
      "vis_m": 5000,
      "fzfg": false,
      "metar_trigger": false,
      "taf_trigger": false,
      "metar": "METAR UAAA 231200Z 12003MPS 5000 -RA BR OVC026 03/02 Q1019 NOSIG",
      "taf": "TAF UAAA 231105Z 2312/2412 04002G07MPS 3100 -SHRA BR BKN011CB OVC020 TXM03/2409Z TNM06/2402Z"
    },
    {
      "icao": "UBBB",
      "alert": "OK",
      "vis_m": 9999,
      "fzfg": false,
      "metar_trigger": false,
      "taf_trigger": false,
      "metar": "METAR UBBB 231200Z 33016KT 9999 BKN014 BKN043 07/04 Q1015 NOSIG",
      "taf": "TAF UBBB 231055Z 2312/2412 32014KT 9999 BKN012 BKN030 TX07/2312Z TN05/2401Z"
    },
    {
      "icao": "UDSG",
      "alert": "OK",
      "vis_m": 9999,
      "fzfg": false,
      "metar_trigger": false,
      "taf_trigger": false,
      "metar": "METAR UDSG 231200Z 35007KT 9999 SCT043 07/M04 Q1013 NOSIG",
      "taf": "TAF UDSG 231058Z 2312/2412 VRB04KT 9999 SCT030"
    },
    {
      "icao": "UDYZ",
      "alert": "OK",
      "vis_m": 9999,
      "fzfg": false,
      "metar_trigger": false,
      "taf_trigger": false,
      "metar": "METAR UDYZ 231200Z 28004KT 230V360 9999 FEW043CB 14/M02 Q1010 NOSIG",
      "taf": "TAF UDYZ 231100Z 2312/2412 24006KT 9999 SCT040"
    },
    {
      "icao": "UGKO",
      "alert": "OK",
      "vis_m": 9999,
      "fzfg": false,
      "metar_trigger": false,
      "taf_trigger": false,
      "metar": "METAR UGKO 231200Z 28007KT 9999 SCT014 OVC021 09/06 Q1018 NOSIG",
      "taf": "TAF UGKO 231100Z 2312/2412 26007KT 9000 SCT030 OVC045 TX13/2411Z TN04/2403Z"
    }
  ]
}