{
  "ts_utc": "2026-02-15T02:54:12Z",
  "threshold_m": 150,
  "source": "stations_override.txt (ICAO list) + aviationweather.gov (METAR/TAF raw)",
  "station_count": 159,
  "stations": [
    {
      "icao": "BIKF",
      "alert": "OK",
      "vis_m": 9999,
      "fzfg": false,
      "metar_trigger": false,
      "taf_trigger": false,
      "metar": "METAR BIKF 150230Z 08021KT CAVOK M03/M12 Q0996",
      "taf": "TAF BIKF 150157Z 1503/1603 09015G25KT CAVOK TXM02/1515Z TNM06/1522Z"
    },
    {
      "icao": "BKPR",
      "alert": "OK",
      "vis_m": 9999,
      "fzfg": false,
      "metar_trigger": false,
      "taf_trigger": false,
      "metar": "METAR BKPR 150230Z 26011KT 9999 -RA SCT015 BKN040 07/06 Q1000 NOSIG",
      "taf": "TAF BKPR 142330Z 1500/1524 15006KT 9999 BKN030"
    },
    {
      "icao": "EBCI",
      "alert": "OK",
      "vis_m": 9999,
      "fzfg": false,
      "metar_trigger": false,
      "taf_trigger": false,
      "metar": "METAR EBCI 150220Z 16003KT CAVOK M03/M04 Q1019 NOSIG",
      "taf": "TAF EBCI 142306Z 1500/1606 14005KT CAVOK"
    },
    {
      "icao": "EDDB",
      "alert": "OK",
      "vis_m": 9999,
      "fzfg": false,
      "metar_trigger": false,
      "taf_trigger": false,
      "metar": "METAR EDDB 150220Z AUTO 34005KT 9999 OVC036 M02/M05 Q1018 NOSIG",
      "taf": "TAF EDDB 142300Z 1500/1524 36009KT 9999 SCT015 OVC035"
    },
    {
      "icao": "EDDH",
      "alert": "OK",
      "vis_m": 7000,
      "fzfg": true,
      "metar_trigger": false,
      "taf_trigger": false,
      "metar": "METAR EDDH 150220Z AUTO VRB01KT 7000 0900 R05/1600D R15/P2000N BCFG NCD M09/M10 Q1020 TEMPO 0500 FZFG",
      "taf": "TAF EDDH 142300Z 1500/1606 VRB02KT 7000 NSC"
    },
    {
      "icao": "EDDK",
      "alert": "OK",
      "vis_m": 9999,
      "fzfg": false,
      "metar_trigger": false,
      "taf_trigger": false,
      "metar": "METAR EDDK 150220Z AUTO VRB02KT CAVOK M03/M04 Q1019 NOSIG",
      "taf": "TAF EDDK 142300Z 1500/1606 VRB03KT 9999 SCT030"
    },
    {
      "icao": "EDDN",
      "alert": "OK",
      "vis_m": 9999,
      "fzfg": false,
      "metar_trigger": false,
      "taf_trigger": false,
      "metar": "METAR EDDN 150220Z AUTO 01006KT 9999 OVC021 M00/M05 Q1016",
      "taf": "TAF EDDN 142300Z 1500/1524 34005KT 9999 BKN020"
    },
    {
      "icao": "EDDS",
      "alert": "OK",
      "vis_m": 9999,
      "fzfg": false,
      "metar_trigger": false,
      "taf_trigger": false,
      "metar": "METAR EDDS 150220Z AUTO 03005KT 9999 FEW007 BKN015 OVC022 M00/M01 Q1015",
      "taf": "TAF EDDS 142300Z 1500/1524 35007KT 9999 BKN015"
    },
    {
      "icao": "EDFH",
      "alert": "OK",
      "vis_m": 9999,
      "fzfg": false,
      "metar_trigger": false,
      "taf_trigger": false,
      "metar": "METAR EDFH 150220Z 00000KT 9999 OVC024 M02/M04 Q1016",
      "taf": ""
    },
    {
      "icao": "EDJA",
      "alert": "OK",
      "vis_m": 5000,
      "fzfg": false,
      "metar_trigger": false,
      "taf_trigger": false,
      "metar": "METAR EDJA 150220Z AUTO 01010KT 5000 // OVC004/// M02/M02 Q1014",
      "taf": "TAF EDJA 150200Z 1503/1512 02008KT 9999 SCT007 OVC015"
    },
    {
      "icao": "EDLW",
      "alert": "OK",
      "vis_m": 9999,
      "fzfg": false,
      "metar_trigger": false,
      "taf_trigger": false,
      "metar": "METAR EDLW 150220Z AUTO 15004KT 9999 // NCD M05/M06 Q1019",
      "taf": "TAF EDLW 141700Z 1418/1518 35007KT 9999 OVC013"
    },
    {
      "icao": "EDNY",
      "alert": "OK",
      "vis_m": 3500,
      "fzfg": false,
      "metar_trigger": false,
      "taf_trigger": false,
      "metar": "METAR EDNY 150220Z AUTO VRB02KT 3500 // FEW014/// BKN018/// OVC023/// 00/M00 Q1015",
      "taf": "TAF EDNY 150200Z 1503/1512 02004KT 9999 SCT008 OVC020"
    },
    {
      "icao": "EDSB",
      "alert": "OK",
      "vis_m": 9999,
      "fzfg": false,
      "metar_trigger": false,
      "taf_trigger": false,
      "metar": "METAR EDSB 150220Z AUTO 04006KT 9999 // FEW020/// OVC043/// 01/M01 Q1018",
      "taf": "TAF EDSB 142300Z 1500/1524 02007KT 9999 BKN025"
    },
    {
      "icao": "EETN",
      "alert": "OK",
      "vis_m": 9999,
      "fzfg": false,
      "metar_trigger": false,
      "taf_trigger": false,
      "metar": "METAR EETN 150250Z 20001KT CAVOK M20/M22 Q1016",
      "taf": "TAF EETN 142330Z 1500/1524 VRB02KT CAVOK"
    },
    {
      "icao": "EFTU",
      "alert": "OK",
      "vis_m": 9999,
      "fzfg": false,
      "metar_trigger": false,
      "taf_trigger": false,
      "metar": "METAR EFTU 150250Z AUTO VRB02KT 9999 OVC011 M11/M12 Q1014",
      "taf": "TAF EFTU 150230Z 1503/1603 20001KT 9999 BKN015"
    },
    {
      "icao": "EGBB",
      "alert": "OK",
      "vis_m": 9999,
      "fzfg": false,
      "metar_trigger": false,
      "taf_trigger": false,
      "metar": "METAR EGBB 150220Z 16013KT 9999 BKN029 02/M00 Q1010",
      "taf": ""
    },
    {
      "icao": "EGGP",
      "alert": "OK",
      "vis_m": 9999,
      "fzfg": false,
      "metar_trigger": false,
      "taf_trigger": false,
      "metar": "METAR EGGP 150220Z 16014G25KT 9999 -RA BKN011 02/M00 Q1006",
      "taf": "TAF EGGP 142255Z 1500/1524 16012KT 9999 SCT025"
    },
    {
      "icao": "EGGW",
      "alert": "OK",
      "vis_m": 9999,
      "fzfg": false,
      "metar_trigger": false,
      "taf_trigger": false,
      "metar": "METAR EGGW 150220Z AUTO 18009KT 150V210 9999 NCD 03/M02 Q1013",
      "taf": "TAF EGGW 142315Z 1500/1524 18010KT 9999 SCT025"
    },
    {
      "icao": "EGKK",
      "alert": "OK",
      "vis_m": 9999,
      "fzfg": false,
      "metar_trigger": false,
      "taf_trigger": false,
      "metar": "METAR EGKK 150220Z 21010KT 170V230 9999 -RA FEW022 SCT028 BKN034 04/M01 Q1015",
      "taf": "TAF EGKK 142300Z 1500/1606 16002KT 9999 SCT030"
    },
    {
      "icao": "EGNM",
      "alert": "OK",
      "vis_m": null,
      "fzfg": false,
      "metar_trigger": false,
      "taf_trigger": false,
      "metar": "",
      "taf": "TAF EGNM 142255Z 1500/1524 17009KT 9999 FEW030"
    },
    {
      "icao": "EGPD",
      "alert": "OK",
      "vis_m": 9999,
      "fzfg": false,
      "metar_trigger": false,
      "taf_trigger": false,
      "metar": "METAR EGPD 150220Z AUTO 19020KT 9999 -RA BKN013/// BKN027/// //////TCU 02/00 Q1002",
      "taf": "TAF EGPD 142254Z 1500/1524 17012KT 9999 FEW020"
    },
    {
      "icao": "EGPF",
      "alert": "OK",
      "vis_m": 7000,
      "fzfg": false,
      "metar_trigger": false,
      "taf_trigger": false,
      "metar": "METAR EGPF 150220Z AUTO 17007KT 100V210 7000 -RA OVC014 03/01 Q1000",
      "taf": ""
    },
    {
      "icao": "EHBK",
      "alert": "OK",
      "vis_m": 9999,
      "fzfg": false,
      "metar_trigger": false,
      "taf_trigger": false,
      "metar": "METAR EHBK 150225Z AUTO 17003KT 9999 NSC M04/M05 Q1019",
      "taf": "TAF EHBK 142312Z 1500/1606 VRB01KT CAVOK"
    },
    {
      "icao": "EHEH",
      "alert": "OK",
      "vis_m": 7000,
      "fzfg": false,
      "metar_trigger": false,
      "taf_trigger": false,
      "metar": "SPECI EHEH 150234Z AUTO VRB02KT 7000 BR OVC150 M06/M07 Q1019 WHT",
      "taf": "TAF EHEH 142333Z 1500/1606 VRB03KT CAVOK"
    },
    {
      "icao": "EKBI",
      "alert": "OK",
      "vis_m": 9999,
      "fzfg": false,
      "metar_trigger": false,
      "taf_trigger": false,
      "metar": "METAR EKBI 150220Z AUTO 16004KT 9999 BKN055/// M04/M07 Q1018",
      "taf": "TAF EKBI 150227Z 1503/1603 15005KT 9999 BKN048"
    },
    {
      "icao": "EKCH",
      "alert": "OK",
      "vis_m": 9999,
      "fzfg": false,
      "metar_trigger": false,
      "taf_trigger": false,
      "metar": "METAR EKCH 150220Z AUTO 00000KT 9999 NCD M08/M11 Q1020 NOSIG",
      "taf": "TAF EKCH 150227Z 1503/1603 VRB03KT 9999 BKN045"
    },
    {
      "icao": "ENAL",
      "alert": "OK",
      "vis_m": 9999,
      "fzfg": false,
      "metar_trigger": false,
      "taf_trigger": false,
      "metar": "METAR ENAL 150220Z AUTO 15014KT 9999 NCD M00/M08 Q1007",
      "taf": "TAF ENAL 150200Z 1503/1512 15010KT CAVOK"
    },
    {
      "icao": "ENBR",
      "alert": "OK",
      "vis_m": 9999,
      "fzfg": false,
      "metar_trigger": false,
      "taf_trigger": false,
      "metar": "METAR ENBR 150220Z AUTO 13008KT 9999 OVC037/// M00/M03 Q1010 RMK WIND 1200FT 15019KT",
      "taf": "TAF ENBR 142300Z 1500/1524 14008KT 9999 SCT015"
    },
    {
      "icao": "ENGM",
      "alert": "OK",
      "vis_m": 9999,
      "fzfg": false,
      "metar_trigger": false,
      "taf_trigger": false,
      "metar": "METAR ENGM 150220Z 35002KT 9999 FEW002 M21/M23 Q1016",
      "taf": "TAF ENGM 142300Z 1500/1524 VRB03KT 9999 FEW002"
    },
    {
      "icao": "ENHD",
      "alert": "OK",
      "vis_m": 9999,
      "fzfg": false,
      "metar_trigger": false,
      "taf_trigger": false,
      "metar": "METAR ENHD 150220Z AUTO 15009KT 9999 OVC024/// M00/M03 Q1011",
      "taf": "TAF ENHD 150200Z 1503/1512 14012KT 9999 BKN030"
    },
    {
      "icao": "ENTC",
      "alert": "OK",
      "vis_m": 1700,
      "fzfg": false,
      "metar_trigger": false,
      "taf_trigger": false,
      "metar": "METAR ENTC 150220Z 20022KT 1700 -SN FEW029 SCT038 BKN049 M03/M05 Q0999 RMK WIND 2600FT 22024KT",
      "taf": "TAF ENTC 142300Z 1500/1524 21020KT 9999 -SHSN FEW015 SCT030CB"
    },
    {
      "icao": "ENTO",
      "alert": "OK",
      "vis_m": 9999,
      "fzfg": false,
      "metar_trigger": false,
      "taf_trigger": false,
      "metar": "METAR ENTO 150220Z AUTO VRB02KT 9999 SCT014/// OVC025/// M09/M11 Q1016",
      "taf": "TAF ENTO 142300Z 1500/1524 VRB03KT 9999 BKN020"
    },
    {
      "icao": "ENVA",
      "alert": "OK",
      "vis_m": 9999,
      "fzfg": false,
      "metar_trigger": false,
      "taf_trigger": false,
      "metar": "METAR ENVA 150220Z AUTO 09006KT 9999 NCD M11/M12 Q1010 RMK WIND 670FT 14010KT",
      "taf": "TAF ENVA 142300Z 1500/1524 10008KT 9999 FEW015 SCT025"
    },
    {
      "icao": "ENZV",
      "alert": "OK",
      "vis_m": 9999,
      "fzfg": false,
      "metar_trigger": false,
      "taf_trigger": false,
      "metar": "METAR ENZV 150220Z AUTO 16007KT 9999 OVC025/// M01/M05 Q1012",
      "taf": ""
    },
    {
      "icao": "EPGD",
      "alert": "OK",
      "vis_m": 9999,
      "fzfg": false,
      "metar_trigger": false,
      "taf_trigger": false,
      "metar": "METAR EPGD 150230Z 05005KT 9999 SCT015 BKN019 M06/M08 Q1016",
      "taf": "TAF EPGD 142330Z 1500/1524 06007KT 9999 BKN012"
    },
    {
      "icao": "EPKK",
      "alert": "OK",
      "vis_m": 8000,
      "fzfg": false,
      "metar_trigger": false,
      "taf_trigger": false,
      "metar": "METAR EPKK 150230Z 04001KT 8000 -SN FEW006 SCT015 BKN030 M03/M04 Q1011",
      "taf": "TAF EPKK 150230Z 1503/1603 03004KT 5000 -SN BR BKN020"
    },
    {
      "icao": "EPKT",
      "alert": "OK",
      "vis_m": 2200,
      "fzfg": false,
      "metar_trigger": false,
      "taf_trigger": false,
      "metar": "METAR EPKT 150230Z 34007KT 2200 SN BR FEW006 OVC019 M04/M05 Q1011",
      "taf": ""
    },
    {
      "icao": "EPLB",
      "alert": "OK",
      "vis_m": 4300,
      "fzfg": false,
      "metar_trigger": false,
      "taf_trigger": false,
      "metar": "METAR EPLB 150230Z 36008KT 4300 -SN BR OVC006 M05/M06 Q1011",
      "taf": "TAF EPLB 142330Z 1500/1524 01010KT 9999 BKN006 OVC012"
    },
    {
      "icao": "EPMO",
      "alert": "OK",
      "vis_m": 9999,
      "fzfg": false,
      "metar_trigger": false,
      "taf_trigger": false,
      "metar": "METAR EPMO 150230Z 02003KT 9999 OVC011 M06/M08 Q1014",
      "taf": "TAF EPMO 142330Z 1500/1524 34007KT 9999 OVC012"
    },
    {
      "icao": "EPPO",
      "alert": "OK",
      "vis_m": 9999,
      "fzfg": false,
      "metar_trigger": false,
      "taf_trigger": false,
      "metar": "METAR EPPO 150230Z 35006KT 9999 -SN OVC033 M02/M06 Q1016",
      "taf": "TAF EPPO 142330Z 1500/1524 35006KT 9999 BKN020"
    },
    {
      "icao": "EPRA",
      "alert": "OK",
      "vis_m": 8000,
      "fzfg": false,
      "metar_trigger": false,
      "taf_trigger": false,
      "metar": "METAR EPRA 150230Z 36007KT 8000 -SN OVC007 M05/M06 Q1012",
      "taf": "TAF EPRA 150230Z 1503/1512 35008KT 6000 -SN OVC006"
    },
    {
      "icao": "EPRZ",
      "alert": "OK",
      "vis_m": 8000,
      "fzfg": false,
      "metar_trigger": false,
      "taf_trigger": false,
      "metar": "METAR EPRZ 150230Z 36005KT 320V020 8000 -SN BKN006 M02/M02 Q1010",
      "taf": "TAF EPRZ 142330Z 1500/1524 34008KT 2000 -SN BR BKN005"
    },
    {
      "icao": "EPSC",
      "alert": "OK",
      "vis_m": 9999,
      "fzfg": false,
      "metar_trigger": false,
      "taf_trigger": false,
      "metar": "METAR EPSC 150230Z 32006KT 9999 FEW035 OVC040 M02/M08 Q1018",
      "taf": "TAF EPSC 142330Z 1500/1524 35005KT 9999 BKN030"
    },
    {
      "icao": "EPSY",
      "alert": "OK",
      "vis_m": 9999,
      "fzfg": false,
      "metar_trigger": false,
      "taf_trigger": false,
      "metar": "METAR EPSY 150230Z 03006KT CAVOK M08/M11 Q1014",
      "taf": "TAF EPSY 150230Z 1503/1512 01008KT CAVOK"
    },
    {
      "icao": "EPWA",
      "alert": "OK",
      "vis_m": 9999,
      "fzfg": false,
      "metar_trigger": false,
      "taf_trigger": false,
      "metar": "METAR EPWA 150230Z 35006KT 9999 OVC008 M05/M07 Q1013 NOSIG",
      "taf": "TAF EPWA 150230Z 1503/1603 36007KT 9999 BKN012"
    },
    {
      "icao": "EPWR",
      "alert": "OK",
      "vis_m": 9999,
      "fzfg": false,
      "metar_trigger": false,
      "taf_trigger": false,
      "metar": "METAR EPWR 150230Z 32008KT 300V360 9999 -SN BKN012 BKN026 M01/M03 Q1014",
      "taf": "TAF EPWR 150230Z 1503/1603 34006KT 9999 BKN020"
    },
    {
      "icao": "ESGG",
      "alert": "OK",
      "vis_m": 9999,
      "fzfg": false,
      "metar_trigger": false,
      "taf_trigger": false,
      "metar": "METAR ESGG 150220Z 17005KT CAVOK M14/M15 Q1018",
      "taf": "TAF ESGG 150230Z 1503/1603 16006KT CAVOK"
    },
    {
      "icao": "ESKN",
      "alert": "OK",
      "vis_m": 9999,
      "fzfg": false,
      "metar_trigger": false,
      "taf_trigger": false,
      "metar": "METAR ESKN 150220Z 26003KT CAVOK M15/M16 Q1018",
      "taf": "TAF ESKN 150230Z 1503/1603 26003KT CAVOK"
    },
    {
      "icao": "ESMS",
      "alert": "OK",
      "vis_m": 9999,
      "fzfg": false,
      "metar_trigger": false,
      "taf_trigger": false,
      "metar": "METAR ESMS 150220Z 00000KT CAVOK M12/M13 Q1019",
      "taf": "TAF ESMS 150227Z 1503/1603 VRB03KT 9999 BKN042"
    },
    {
      "icao": "ESSA",
      "alert": "OK",
      "vis_m": 9999,
      "fzfg": false,
      "metar_trigger": false,
      "taf_trigger": false,
      "metar": "METAR ESSA 150220Z 25007KT CAVOK M13/M15 Q1016 NOSIG",
      "taf": "TAF ESSA 150230Z 1503/1603 25007KT CAVOK"
    },
    {
      "icao": "EYKA",
      "alert": "OK",
      "vis_m": 9999,
      "fzfg": false,
      "metar_trigger": false,
      "taf_trigger": false,
      "metar": "METAR EYKA 150250Z 34003KT CAVOK M14/M17 Q1016",
      "taf": "TAF EYKA 142300Z 1500/1524 VRB04KT 8000 SCT030"
    },
    {
      "icao": "EYPA",
      "alert": "OK",
      "vis_m": 9999,
      "fzfg": false,
      "metar_trigger": false,
      "taf_trigger": false,
      "metar": "METAR EYPA 150250Z AUTO VRB01KT 9999 NCD M18/M20 Q1018",
      "taf": "TAF EYPA 142300Z 1500/1524 VRB04KT 8000 NSC"
    },
    {
      "icao": "EYVI",
      "alert": "OK",
      "vis_m": 9999,
      "fzfg": false,
      "metar_trigger": false,
      "taf_trigger": false,
      "metar": "METAR EYVI 150250Z 02007KT CAVOK M14/M16 Q1013 NOSIG",
      "taf": ""
    },
    {
      "icao": "GCFV",
      "alert": "OK",
      "vis_m": 8000,
      "fzfg": false,
      "metar_trigger": false,
      "taf_trigger": false,
      "metar": "METAR GCFV 150230Z AUTO 02028KT 8000 NCD 17/09 Q1025",
      "taf": "TAF GCFV 150200Z 1503/1603 03025KT 9999 FEW040 TX20/1514Z TN16/1506Z"
    },
    {
      "icao": "GCLP",
      "alert": "OK",
      "vis_m": 9999,
      "fzfg": false,
      "metar_trigger": false,
      "taf_trigger": false,
      "metar": "METAR GCLP 150230Z 01020KT 9999 SCT030 17/10 Q1026 NOSIG",
      "taf": "TAF GCLP 150200Z 1503/1603 02026KT 9999 FEW035 TX20/1514Z TN16/1506Z"
    },
    {
      "icao": "GCTS",
      "alert": "OK",
      "vis_m": 9999,
      "fzfg": false,
      "metar_trigger": false,
      "taf_trigger": false,
      "metar": "METAR GCTS 150230Z 07024KT 9999 FEW030 17/07 Q1025 NOSIG",
      "taf": "TAF GCTS 150200Z 1503/1603 06020KT 9999 FEW035 TX24/1514Z TN17/1506Z"
    },
    {
      "icao": "GMAD",
      "alert": "OK",
      "vis_m": 9999,
      "fzfg": false,
      "metar_trigger": false,
      "taf_trigger": false,
      "metar": "METAR GMAD 150230Z 02004KT 360V060 CAVOK 07/05 Q1020 NOSIG",
      "taf": "TAF GMAD 142300Z 1500/1606 07004KT CAVOK"
    },
    {
      "icao": "GMMN",
      "alert": "OK",
      "vis_m": 9999,
      "fzfg": false,
      "metar_trigger": false,
      "taf_trigger": false,
      "metar": "METAR GMMN 150230Z 18003KT 9999 BKN026 05/03 Q1030 NOSIG",
      "taf": "TAF GMMN 142300Z 1500/1606 16004KT 9999 SCT016"
    },
    {
      "icao": "GMMX",
      "alert": "OK",
      "vis_m": 9999,
      "fzfg": false,
      "metar_trigger": false,
      "taf_trigger": false,
      "metar": "METAR GMMX 150230Z 09009KT CAVOK 06/04 Q1028 NOSIG",
      "taf": "TAF GMMX 142300Z 1500/1606 06006KT CAVOK"
    },
    {
      "icao": "HEGN",
      "alert": "OK",
      "vis_m": 9999,
      "fzfg": false,
      "metar_trigger": false,
      "taf_trigger": false,
      "metar": "METAR HEGN 150200Z 30006KT CAVOK 16/M04 Q1016 NOSIG",
      "taf": "TAF HEGN 142300Z 1500/1606 27012KT 6000 NSC"
    },
    {
      "icao": "HEMA",
      "alert": "OK",
      "vis_m": 9999,
      "fzfg": false,
      "metar_trigger": false,
      "taf_trigger": false,
      "metar": "METAR HEMA 150200Z 32013KT CAVOK 18/03 Q1016 NOSIG",
      "taf": "TAF HEMA 142300Z 1500/1606 31012KT 6000 NSC"
    },
    {
      "icao": "HESH",
      "alert": "OK",
      "vis_m": 9999,
      "fzfg": false,
      "metar_trigger": false,
      "taf_trigger": false,
      "metar": "METAR HESH 150200Z 34005KT CAVOK 20/09 Q1017 NOSIG",
      "taf": "TAF HESH 142300Z 1500/1606 33012KT 6000 NSC"
    },
    {
      "icao": "HESX",
      "alert": "OK",
      "vis_m": 9999,
      "fzfg": false,
      "metar_trigger": false,
      "taf_trigger": false,
      "metar": "METAR HESX 150200Z 15003KT CAVOK 12/00 Q1018 NOSIG",
      "taf": "TAF HESX 142300Z 1500/1606 14008KT CAVOK"
    },
    {
      "icao": "LATI",
      "alert": "OK",
      "vis_m": 9999,
      "fzfg": false,
      "metar_trigger": false,
      "taf_trigger": false,
      "metar": "METAR LATI 150250Z 17012KT 9999 SCT053 BKN120 13/08 Q0995 NOSIG",
      "taf": "TAF LATI 142300Z 1500/1524 15010G20KT 9999 -RA FEW020 SCT035 BKN070 TX14/1512Z TN10/1505Z"
    },
    {
      "icao": "LBPD",
      "alert": "OK",
      "vis_m": 8000,
      "fzfg": false,
      "metar_trigger": false,
      "taf_trigger": false,
      "metar": "METAR LBPD 150230Z AUTO 31003KT 240V020 8000 FEW001/// BKN230/// 05/05 Q1004",
      "taf": "TAF LBPD 142300Z 1500/1524 VRB03KT 4000 BR SCT015 BKN030"
    },
    {
      "icao": "LBSF",
      "alert": "OK",
      "vis_m": 9000,
      "fzfg": false,
      "metar_trigger": false,
      "taf_trigger": false,
      "metar": "METAR LBSF 150230Z AUTO 14006KT 9000 NSC 03/03 Q1002 TEMPO 1500 BR",
      "taf": "TAF LBSF 142300Z 1500/1524 VRB03KT 6000 BKN030"
    },
    {
      "icao": "LBWN",
      "alert": "OK",
      "vis_m": 9999,
      "fzfg": false,
      "metar_trigger": false,
      "taf_trigger": false,
      "metar": "METAR LBWN 150230Z AUTO 11009KT 9999 FEW032/// 09/08 Q1007 NOSIG",
      "taf": "TAF LBWN 142300Z 1500/1524 09010KT 9999 SCT045"
    },
    {
      "icao": "LCLK",
      "alert": "OK",
      "vis_m": 9999,
      "fzfg": false,
      "metar_trigger": false,
      "taf_trigger": false,
      "metar": "METAR LCLK 150230Z 33006KT CAVOK 10/10 Q1020 NOSIG",
      "taf": "TAF LCLK 142330Z 1500/1600 30007KT 9999 FEW020"
    },
    {
      "icao": "LCPH",
      "alert": "OK",
      "vis_m": 9999,
      "fzfg": false,
      "metar_trigger": false,
      "taf_trigger": false,
      "metar": "METAR LCPH 150230Z AUTO 07007KT 010V080 9999 SCT025 12/09 Q1019 NOSIG",
      "taf": "TAF LCPH 142330Z 1500/1600 02007KT 8000 SCT018"
    },
    {
      "icao": "LEAL",
      "alert": "OK",
      "vis_m": 9999,
      "fzfg": false,
      "metar_trigger": false,
      "taf_trigger": false,
      "metar": "METAR LEAL 150230Z 31024G34KT CAVOK 14/M05 Q1019 NOSIG",
      "taf": "TAF LEAL 142300Z 1500/1524 31020KT 9999 FEW040 TX20/1513Z TN09/1506Z"
    },
    {
      "icao": "LEBB",
      "alert": "OK",
      "vis_m": 9999,
      "fzfg": false,
      "metar_trigger": false,
      "taf_trigger": false,
      "metar": "METAR LEBB 150230Z AUTO 08003KT 9999 OVC056 06/05 Q1024",
      "taf": "TAF LEBB 142300Z 1500/1524 18005KT 9999 SCT040 TX15/1512Z TN07/1501Z"
    },
    {
      "icao": "LEBL",
      "alert": "OK",
      "vis_m": 9999,
      "fzfg": false,
      "metar_trigger": false,
      "taf_trigger": false,
      "metar": "METAR LEBL 150230Z 31014KT 9999 FEW030 10/00 Q1012 NOSIG",
      "taf": "TAF LEBL 142300Z 1500/1524 32008KT 9999 FEW035 TX15/1513Z TN07/1506Z"
    },
    {
      "icao": "LECH",
      "alert": "OK",
      "vis_m": 9000,
      "fzfg": false,
      "metar_trigger": false,
      "taf_trigger": false,
      "metar": "METAR LECH 150230Z AUTO 32017KT 290V020 9000 NSC 09/M05 Q1017",
      "taf": ""
    },
    {
      "icao": "LEMD",
      "alert": "OK",
      "vis_m": 9999,
      "fzfg": false,
      "metar_trigger": false,
      "taf_trigger": false,
      "metar": "METAR LEMD 150230Z VRB02KT CAVOK 00/M02 Q1024 NOSIG",
      "taf": "TAF LEMD 142300Z 1500/1606 VRB04KT 9999 FEW040 TX13/1515Z TNM00/1507Z"
    },
    {
      "icao": "LEMG",
      "alert": "OK",
      "vis_m": 9999,
      "fzfg": false,
      "metar_trigger": false,
      "taf_trigger": false,
      "metar": "METAR LEMG 150230Z 30008KT CAVOK 08/03 Q1027 NOSIG",
      "taf": "TAF LEMG 142300Z 1500/1524 30012KT CAVOK TX18/1514Z TN09/1507Z"
    },
    {
      "icao": "LEVC",
      "alert": "OK",
      "vis_m": 9999,
      "fzfg": false,
      "metar_trigger": false,
      "taf_trigger": false,
      "metar": "METAR LEVC 150230Z 29025KT CAVOK 12/M06 Q1019 NOSIG",
      "taf": ""
    },
    {
      "icao": "LEXJ",
      "alert": "OK",
      "vis_m": 9999,
      "fzfg": false,
      "metar_trigger": false,
      "taf_trigger": false,
      "metar": "METAR LEXJ 150230Z AUTO 24008KT 9999 3100E OVC040 09/02 Q1024",
      "taf": "TAF LEXJ 150200Z 1503/1603 22009KT 9999 SCT020 BKN040 TX15/1514Z TN09/1503Z"
    },
    {
      "icao": "LEZG",
      "alert": "OK",
      "vis_m": 9999,
      "fzfg": false,
      "metar_trigger": false,
      "taf_trigger": false,
      "metar": "METAR LEZG 150230Z 29022KT 9999 BKN040 07/00 Q1021 NOSIG",
      "taf": "TAF LEZG 142300Z 1500/1524 30020KT 9999 FEW040 TX16/1512Z TN06/1506Z"
    },
    {
      "icao": "LEZL",
      "alert": "OK",
      "vis_m": 9999,
      "fzfg": false,
      "metar_trigger": false,
      "taf_trigger": false,
      "metar": "METAR LEZL 150230Z AUTO 30007KT CAVOK 08/06 Q1029",
      "taf": "TAF LEZL 150200Z 1503/1603 21005KT 9999 FEW040 TX18/1515Z TN06/1507Z"
    },
    {
      "icao": "LFBD",
      "alert": "OK",
      "vis_m": 9999,
      "fzfg": false,
      "metar_trigger": false,
      "taf_trigger": false,
      "metar": "METAR LFBD 150230Z AUTO 19005KT CAVOK 03/02 Q1022 NOSIG",
      "taf": "TAF LFBD 142300Z 1500/1606 21005KT 9999 BKN020 TX13/1516Z TN04/1504Z"
    },
    {
      "icao": "LFLL",
      "alert": "OK",
      "vis_m": 9999,
      "fzfg": false,
      "metar_trigger": false,
      "taf_trigger": false,
      "metar": "METAR LFLL 150230Z 33013KT 9999 OVC016 01/M01 Q1018 NOSIG",
      "taf": "TAF LFLL 142300Z 1500/1606 34012KT 9999 BKN016"
    },
    {
      "icao": "LFLS",
      "alert": "OK",
      "vis_m": 9999,
      "fzfg": false,
      "metar_trigger": false,
      "taf_trigger": false,
      "metar": "METAR LFLS 150230Z AUTO 35020KT 9999 OVC010 00/M01 Q1016 NOSIG",
      "taf": "TAF LFLS 150200Z 1503/1603 35018KT 9999 BKN012"
    },
    {
      "icao": "LFMN",
      "alert": "OK",
      "vis_m": 9999,
      "fzfg": false,
      "metar_trigger": false,
      "taf_trigger": false,
      "metar": "METAR LFMN 150230Z 34008KT CAVOK 09/05 Q1002 NOSIG",
      "taf": "TAF LFMN 150200Z 1503/1609 34010KT CAVOK"
    },
    {
      "icao": "LFOB",
      "alert": "OK",
      "vis_m": 5000,
      "fzfg": false,
      "metar_trigger": false,
      "taf_trigger": false,
      "metar": "METAR LFOB 150230Z AUTO 13004KT 5000 BR NSC M03/M03 Q1018 NOSIG",
      "taf": "TAF LFOB 142300Z 1500/1524 35006KT 9999 OVC025"
    },
    {
      "icao": "LFPO",
      "alert": "OK",
      "vis_m": 9999,
      "fzfg": false,
      "metar_trigger": false,
      "taf_trigger": false,
      "metar": "METAR LFPO 150230Z AUTO 19005KT CAVOK M01/M02 Q1019 NOSIG",
      "taf": "TAF LFPO 142300Z 1500/1606 18005KT CAVOK"
    },
    {
      "icao": "LFSB",
      "alert": "OK",
      "vis_m": 9999,
      "fzfg": false,
      "metar_trigger": false,
      "taf_trigger": false,
      "metar": "METAR LFSB 150230Z AUTO 34007KT 300V010 9999 BKN010 BKN015 OVC038 02/M00 Q1017 NOSIG",
      "taf": "TAF LFSB 142300Z 1500/1524 34008KT 9999 FEW007 BKN017"
    },
    {
      "icao": "LGAV",
      "alert": "OK",
      "vis_m": 9999,
      "fzfg": false,
      "metar_trigger": false,
      "taf_trigger": false,
      "metar": "METAR LGAV 150220Z VRB03KT 9999 FEW020 13/09 Q1006 NOSIG",
      "taf": "TAF LGAV 142300Z 1500/1524 16012KT 9999 SCT025"
    },
    {
      "icao": "LGTS",
      "alert": "OK",
      "vis_m": null,
      "fzfg": false,
      "metar_trigger": false,
      "taf_trigger": false,
      "metar": "",
      "taf": "TAF LGTS 142300Z 1500/1524 13013KT 9999 SCT025"
    },
    {
      "icao": "LHBP",
      "alert": "OK",
      "vis_m": 9999,
      "fzfg": false,
      "metar_trigger": false,
      "taf_trigger": false,
      "metar": "METAR LHBP 150230Z 36004KT 330V060 9999 BKN042 BKN070 06/04 Q1004 NOSIG",
      "taf": "TAF LHBP 142315Z 1500/1524 01007KT CAVOK"
    },
    {
      "icao": "LHDC",
      "alert": "OK",
      "vis_m": 9999,
      "fzfg": false,
      "metar_trigger": false,
      "taf_trigger": false,
      "metar": "METAR LHDC 150215Z AUTO 04005KT 9999 -SHRA NSC 06/05 Q1003",
      "taf": ""
    },
    {
      "icao": "LIBD",
      "alert": "OK",
      "vis_m": 9999,
      "fzfg": false,
      "metar_trigger": false,
      "taf_trigger": false,
      "metar": "METAR LIBD 150220Z 28007KT 9999 -RA BKN020 10/09 Q0995",
      "taf": "TAF LIBD 142300Z 1500/1524 26015KT 9999 BKN030"
    },
    {
      "icao": "LIBG",
      "alert": "OK",
      "vis_m": null,
      "fzfg": false,
      "metar_trigger": false,
      "taf_trigger": false,
      "metar": "",
      "taf": "TAF LIBG 141700Z 1418/1503 31016KT 9999 BKN030"
    },
    {
      "icao": "LIBP",
      "alert": "OK",
      "vis_m": 9999,
      "fzfg": false,
      "metar_trigger": false,
      "taf_trigger": false,
      "metar": "METAR LIBP 150220Z AUTO 24004KT 200V300 9999 -RA OVC025/// 11/09 Q0997 RERA",
      "taf": "TAF LIBP 142300Z 1500/1524 31015KT 9999 BKN030"
    },
    {
      "icao": "LIBR",
      "alert": "OK",
      "vis_m": 9999,
      "fzfg": false,
      "metar_trigger": false,
      "taf_trigger": false,
      "metar": "METAR LIBR 150220Z 24009KT CAVOK 10/09 Q0995",
      "taf": "TAF LIBR 142300Z 1500/1524 16018G32KT 9999 BKN030"
    },
    {
      "icao": "LICA",
      "alert": "OK",
      "vis_m": 9999,
      "fzfg": false,
      "metar_trigger": false,
      "taf_trigger": false,
      "metar": "METAR LICA 150220Z AUTO 07003KT 9999 BKN018/// BKN052/// 09/08 Q0998",
      "taf": "TAF LICA 142300Z 1500/1524 26010KT 9999 FEW020 SCT050"
    },
    {
      "icao": "LICC",
      "alert": "OK",
      "vis_m": 9999,
      "fzfg": false,
      "metar_trigger": false,
      "taf_trigger": false,
      "metar": "METAR LICC 150220Z 26004KT 9999 -RA BKN025 09/06 Q0999",
      "taf": "TAF LICC 142300Z 1500/1524 26007KT 9999 SCT020"
    },
    {
      "icao": "LICJ",
      "alert": "OK",
      "vis_m": 9999,
      "fzfg": false,
      "metar_trigger": false,
      "taf_trigger": false,
      "metar": "METAR LICJ 150220Z AUTO 18013KT 9999 -RA BKN022/// 13/10 Q0995 REDZ",
      "taf": "TAF LICJ 142300Z 1500/1524 20016G28KT 9999 SCT030"
    },
    {
      "icao": "LIMC",
      "alert": "OK",
      "vis_m": 9999,
      "fzfg": false,
      "metar_trigger": false,
      "taf_trigger": false,
      "metar": "METAR LIMC 150220Z 01009KT CAVOK 03/01 Q1003 NOSIG",
      "taf": "TAF LIMC 142300Z 1500/1606 VRB05KT 8000 NSC"
    },
    {
      "icao": "LIME",
      "alert": "OK",
      "vis_m": 9999,
      "fzfg": false,
      "metar_trigger": false,
      "taf_trigger": false,
      "metar": "METAR LIME 150150Z 29003KT CAVOK 06/06 Q1003 NOSIG",
      "taf": "TAF LIME 142300Z 1500/1524 VRB05KT 9000 FEW070"
    },
    {
      "icao": "LIMF",
      "alert": "OK",
      "vis_m": 9999,
      "fzfg": false,
      "metar_trigger": false,
      "taf_trigger": false,
      "metar": "METAR LIMF 150220Z AUTO 27006KT 9999 NCD 04/00 Q1003",
      "taf": "TAF LIMF 142300Z 1500/1524 VRB05KT CAVOK"
    },
    {
      "icao": "LIMJ",
      "alert": "OK",
      "vis_m": 9999,
      "fzfg": false,
      "metar_trigger": false,
      "taf_trigger": false,
      "metar": "METAR LIMJ 150220Z 02012KT CAVOK 13/03 Q1001",
      "taf": "TAF LIMJ 142300Z 1500/1524 03014KT 9999 FEW050"
    },
    {
      "icao": "LIPE",
      "alert": "OK",
      "vis_m": 8000,
      "fzfg": false,
      "metar_trigger": false,
      "taf_trigger": false,
      "metar": "METAR LIPE 150220Z 29007KT 8000 -RA FEW010 BKN025 08/08 Q1002 REDZ",
      "taf": "TAF LIPE 142300Z 1500/1524 29008KT 7000 BKN020"
    },
    {
      "icao": "LIPH",
      "alert": "OK",
      "vis_m": 9999,
      "fzfg": false,
      "metar_trigger": false,
      "taf_trigger": false,
      "metar": "METAR LIPH 150220Z AUTO 33003KT 300V360 9999 -DZ OVC071/// 09/07 Q1002",
      "taf": "TAF LIPH 142300Z 1500/1524 04007KT 8000 BKN030"
    },
    {
      "icao": "LIPQ",
      "alert": "OK",
      "vis_m": 9999,
      "fzfg": false,
      "metar_trigger": false,
      "taf_trigger": false,
      "metar": "METAR LIPQ 150220Z AUTO VRB01KT 9999 -RA OVC055/// 09/07 Q1001",
      "taf": "TAF LIPQ 142300Z 1500/1524 04012KT 9999 BKN030"
    },
    {
      "icao": "LIPR",
      "alert": "OK",
      "vis_m": 9999,
      "fzfg": false,
      "metar_trigger": false,
      "taf_trigger": false,
      "metar": "METAR LIPR 150220Z AUTO 31011KT 9999 OVC005/// 10/09 Q1000 REDZ RERA",
      "taf": "TAF LIPR 142300Z 1500/1524 33014KT 8000 BKN030"
    },
    {
      "icao": "LIPX",
      "alert": "OK",
      "vis_m": 9000,
      "fzfg": false,
      "metar_trigger": false,
      "taf_trigger": false,
      "metar": "METAR LIPX 150220Z 32004KT 9000 BKN090 08/07 Q1002",
      "taf": "TAF LIPX 142300Z 1500/1524 VRB05KT 8000 SCT040"
    },
    {
      "icao": "LIPY",
      "alert": "OK",
      "vis_m": 9999,
      "fzfg": false,
      "metar_trigger": false,
      "taf_trigger": false,
      "metar": "METAR LIPY 150220Z AUTO 31007KT 280V340 9999 OVC007/// 10/09 Q0999",
      "taf": "TAF LIPY 142300Z 1500/1524 33016KT 7000 BKN040"
    },
    {
      "icao": "LIPZ",
      "alert": "OK",
      "vis_m": 9999,
      "fzfg": false,
      "metar_trigger": false,
      "taf_trigger": false,
      "metar": "METAR LIPZ 150220Z 07012KT 9999 -RA BKN045 10/07 Q1002 NOSIG",
      "taf": "TAF LIPZ 142300Z 1500/1606 04016KT 8000 BKN030"
    },
    {
      "icao": "LIRF",
      "alert": "OK",
      "vis_m": 9999,
      "fzfg": false,
      "metar_trigger": false,
      "taf_trigger": false,
      "metar": "METAR LIRF 150220Z 36004KT CAVOK 08/07 Q0997 NOSIG",
      "taf": "TAF LIRF 142300Z 1500/1606 04007KT 9999 SCT020"
    },
    {
      "icao": "LIRN",
      "alert": "OK",
      "vis_m": 7000,
      "fzfg": false,
      "metar_trigger": false,
      "taf_trigger": false,
      "metar": "METAR LIRN 150220Z 07003KT 7000 RA BKN040 09/09 Q0997 NOSIG",
      "taf": "TAF LIRN 142300Z 1500/1524 VRB05KT 9999 SCT040"
    },
    {
      "icao": "LIRP",
      "alert": "OK",
      "vis_m": 9999,
      "fzfg": false,
      "metar_trigger": false,
      "taf_trigger": false,
      "metar": "METAR LIRP 150215Z 15005KT 9999 FEW050 08/08 Q1000 NOSIG",
      "taf": "TAF LIRP 142300Z 1500/1524 29005KT 9999 FEW030 SCT060"
    },
    {
      "icao": "LIRZ",
      "alert": "OK",
      "vis_m": 9999,
      "fzfg": false,
      "metar_trigger": false,
      "taf_trigger": false,
      "metar": "METAR LIRZ 150220Z AUTO 04006KT 9999 NCD 06/05 Q0998",
      "taf": "TAF LIRZ 142300Z 1500/1524 VRB06KT 9000 SCT030"
    },
    {
      "icao": "LJLJ",
      "alert": "OK",
      "vis_m": 6000,
      "fzfg": false,
      "metar_trigger": false,
      "taf_trigger": false,
      "metar": "METAR LJLJ 150230Z 19003KT 170V250 6000 MIFG FEW003 SCT043 BKN073 05/05 Q1003 NOSIG",
      "taf": "TAF LJLJ 142300Z 1500/1600 27004KT 9999 FEW003 SCT030 BKN050"
    },
    {
      "icao": "LKMT",
      "alert": "OK",
      "vis_m": 2500,
      "fzfg": false,
      "metar_trigger": false,
      "taf_trigger": false,
      "metar": "METAR LKMT 150230Z 03008KT 2500 -SN BR FEW007 BKN016 OVC047 M02/M02 Q1012 NOSIG",
      "taf": "TAF LKMT 142300Z 1500/1524 01012KT 3500 -SN BR BKN005 OVC012"
    },
    {
      "icao": "LKPR",
      "alert": "OK",
      "vis_m": 9999,
      "fzfg": false,
      "metar_trigger": false,
      "taf_trigger": false,
      "metar": "METAR LKPR 150230Z 32010KT 9999 OVC032 M02/M05 Q1014 NOSIG",
      "taf": "TAF LKPR 150200Z 1503/1609 35010KT 9999 BKN025"
    },
    {
      "icao": "LLBG",
      "alert": "OK",
      "vis_m": 7000,
      "fzfg": false,
      "metar_trigger": false,
      "taf_trigger": false,
      "metar": "METAR LLBG 150250Z VRB02KT 7000 NSC 12/09 Q1020 TEMPO 5000 DU",
      "taf": "TAF LLBG 142320Z 1500/1524 VRB04KT 5000 DU NSC"
    },
    {
      "icao": "LMML",
      "alert": "OK",
      "vis_m": 9999,
      "fzfg": false,
      "metar_trigger": false,
      "taf_trigger": false,
      "metar": "METAR LMML 150245Z 24018KT 210V270 9999 FEW025 13/09 Q1001 NOSIG",
      "taf": "TAF LMML 142300Z 1500/1524 25008KT 9999 FEW018"
    },
    {
      "icao": "LOWW",
      "alert": "OK",
      "vis_m": 9999,
      "fzfg": false,
      "metar_trigger": false,
      "taf_trigger": false,
      "metar": "METAR LOWW 150220Z 34015KT 9999 -SN FEW007 BKN012 00/M01 Q1011 TEMPO 4000 -SN BKN007",
      "taf": "TAF LOWW 150215Z 1503/1609 34010KT 9999 SCT009 BKN020 TX01/1510Z TNM05/1601Z"
    },
    {
      "icao": "LPFR",
      "alert": "OK",
      "vis_m": 9999,
      "fzfg": false,
      "metar_trigger": false,
      "taf_trigger": false,
      "metar": "METAR LPFR 150230Z 31009KT CAVOK 10/07 Q1030",
      "taf": "TAF LPFR 142300Z 1500/1524 30005KT CAVOK"
    },
    {
      "icao": "LPMA",
      "alert": "OK",
      "vis_m": 9999,
      "fzfg": false,
      "metar_trigger": false,
      "taf_trigger": false,
      "metar": "METAR LPMA 150230Z 01011KT 9999 FEW016 15/09 Q1032",
      "taf": "TAF LPMA 142300Z 1500/1524 02012KT 9999 SCT015"
    },
    {
      "icao": "LPPR",
      "alert": "OK",
      "vis_m": 8000,
      "fzfg": false,
      "metar_trigger": false,
      "taf_trigger": false,
      "metar": "METAR LPPR 150230Z VRB01KT 8000 -SHRA FEW007 SCT013 BKN018 10/09 Q1029",
      "taf": "TAF LPPR 142300Z 1500/1524 VRB02KT 9999 FEW012 BKN025"
    },
    {
      "icao": "LPPS",
      "alert": "OK",
      "vis_m": 9999,
      "fzfg": false,
      "metar_trigger": false,
      "taf_trigger": false,
      "metar": "METAR LPPS 150230Z 05008KT 9999 FEW015 14/08 Q1033",
      "taf": "TAF LPPS 142300Z 1500/1606 06010KT 9999 SCT015"
    },
    {
      "icao": "LPPT",
      "alert": "OK",
      "vis_m": 9999,
      "fzfg": false,
      "metar_trigger": false,
      "taf_trigger": false,
      "metar": "METAR LPPT 150230Z 29004KT 9999 FEW022 11/08 Q1030",
      "taf": "TAF LPPT 142300Z 1500/1606 29005KT 9999 SCT025"
    },
    {
      "icao": "LQBK",
      "alert": "OK",
      "vis_m": 9999,
      "fzfg": false,
      "metar_trigger": false,
      "taf_trigger": false,
      "metar": "METAR LQBK 150230Z 30006KT 9999 SCT043 08/06 Q1000 NOSIG",
      "taf": "TAF LQBK 142300Z 1500/1524 29005KT 9999 BKN045 TX06/1500Z TNM03/1524Z"
    },
    {
      "icao": "LQSA",
      "alert": "OK",
      "vis_m": 9999,
      "fzfg": false,
      "metar_trigger": false,
      "taf_trigger": false,
      "metar": "METAR LQSA 150230Z VRB02KT 9999 -RA SCT025 BKN040 05/05 Q0998",
      "taf": "TAF LQSA 142300Z 1500/1524 12005KT 9999 BKN045 TX05/1500Z TNM03/1524Z"
    },
    {
      "icao": "LQTZ",
      "alert": "OK",
      "vis_m": 2500,
      "fzfg": false,
      "metar_trigger": false,
      "taf_trigger": false,
      "metar": "METAR LQTZ 150230Z 22002KT 2500 -RA BR FEW012 SCT030 OVC040 06/06 Q0999",
      "taf": "TAF LQTZ 142300Z 1500/1524 16005KT 9999 SCT025 BKN045 TX07/1500Z TNM02/1524Z"
    },
    {
      "icao": "LRBC",
      "alert": "OK",
      "vis_m": 200,
      "fzfg": false,
      "metar_trigger": false,
      "taf_trigger": false,
      "metar": "METAR LRBC 150230Z VRB01KT 0200 R16/0450N FG VV001 04/04 Q1006",
      "taf": "TAF LRBC 150200Z 1503/1512 16008KT 0200 FG VV001"
    },
    {
      "icao": "LRBS",
      "alert": "OK",
      "vis_m": 2800,
      "fzfg": false,
      "metar_trigger": false,
      "taf_trigger": false,
      "metar": "METAR LRBS 150230Z 04004KT 010V070 2800 BR FEW002 05/05 Q1005 NOSIG",
      "taf": "TAF LRBS 142300Z 1500/1524 05010KT 1500 BR BKN005"
    },
    {
      "icao": "LRBV",
      "alert": "OK",
      "vis_m": 9999,
      "fzfg": false,
      "metar_trigger": false,
      "taf_trigger": false,
      "metar": "METAR LRBV 150230Z AUTO 14002KT 9999 -RA BKN049/// OVC063/// 08/02 Q1004 RERA",
      "taf": "TAF LRBV 150200Z 1503/1512 VRB04KT 9999 BKN050"
    },
    {
      "icao": "LRCL",
      "alert": "OK",
      "vis_m": 6000,
      "fzfg": false,
      "metar_trigger": false,
      "taf_trigger": false,
      "metar": "METAR LRCL 150230Z 00000KT 6000 NSC 02/02 Q1003",
      "taf": "TAF LRCL 150200Z 1503/1512 VRB04KT 7000 NSC"
    },
    {
      "icao": "LRCV",
      "alert": "OK",
      "vis_m": 5000,
      "fzfg": false,
      "metar_trigger": false,
      "taf_trigger": false,
      "metar": "METAR LRCV 150230Z 07014KT 5000 -RA BR SCT025 07/06 Q1002",
      "taf": "TAF LRCV 150200Z 1503/1512 07014KT 5000 -RA BR SCT015 BKN040"
    },
    {
      "icao": "LRIA",
      "alert": "OK",
      "vis_m": 7000,
      "fzfg": false,
      "metar_trigger": false,
      "taf_trigger": false,
      "metar": "METAR LRIA 150230Z 10009KT 7000 NSC 05/04 Q1007",
      "taf": "TAF LRIA 150200Z 1503/1512 09010KT 7000 NSC"
    },
    {
      "icao": "LROP",
      "alert": "OK",
      "vis_m": 2500,
      "fzfg": false,
      "metar_trigger": false,
      "taf_trigger": false,
      "metar": "METAR LROP 150230Z COR 04006KT 2500 BR NSC 05/05 Q1005 NOSIG",
      "taf": "TAF LROP 142300Z 1500/1524 05010KT 1500 BR BKN005"
    },
    {
      "icao": "LRSB",
      "alert": "OK",
      "vis_m": 9999,
      "fzfg": false,
      "metar_trigger": false,
      "taf_trigger": false,
      "metar": "METAR LRSB 150230Z 16011KT 9999 FEW050 SCT060 BKN075 09/02 Q1002",
      "taf": "TAF LRSB 142300Z 1500/1524 VRB04KT CAVOK"
    },
    {
      "icao": "LRSM",
      "alert": "OK",
      "vis_m": 9999,
      "fzfg": false,
      "metar_trigger": false,
      "taf_trigger": false,
      "metar": "METAR LRSM 150230Z AUTO 07004KT 9999 OVC080/// 05/03 Q1003",
      "taf": "TAF LRSM 150200Z 1503/1512 08006KT 9999 BKN045"
    },
    {
      "icao": "LRSV",
      "alert": "OK",
      "vis_m": 250,
      "fzfg": false,
      "metar_trigger": false,
      "taf_trigger": false,
      "metar": "METAR LRSV 150230Z 34003KT 0250 R34/0400N FG VV002 02/02 Q1005",
      "taf": "TAF LRSV 150200Z 1503/1512 VRB04KT 0250 FG VV002"
    },
    {
      "icao": "LRTM",
      "alert": "OK",
      "vis_m": 9999,
      "fzfg": false,
      "metar_trigger": false,
      "taf_trigger": false,
      "metar": "METAR LRTM 150230Z AUTO 09005KT 9999 NCD 04/02 Q1004",
      "taf": "TAF LRTM 150200Z 1503/1512 08006KT CAVOK"
    },
    {
      "icao": "LRTR",
      "alert": "OK",
      "vis_m": 9999,
      "fzfg": false,
      "metar_trigger": false,
      "taf_trigger": false,
      "metar": "METAR LRTR 150230Z 09005KT CAVOK 07/05 Q1001",
      "taf": "TAF LRTR 142300Z 1500/1524 10007KT 9999 BKN045"
    },
    {
      "icao": "LTAC",
      "alert": "OK",
      "vis_m": 7000,
      "fzfg": false,
      "metar_trigger": false,
      "taf_trigger": false,
      "metar": "METAR LTAC 150220Z 35003KT 300V080 7000 NSC M01/M02 Q1018 NOSIG RMK RWY21C 35003KT RWY03L VRB02KT RWY21R 34003KT 300V360 RWY03R VRB02KT RWY21L 35003KT",
      "taf": "TAF LTAC 142240Z 1500/1524 VRB02KT CAVOK"
    },
    {
      "icao": "LTFM",
      "alert": "OK",
      "vis_m": 9999,
      "fzfg": false,
      "metar_trigger": false,
      "taf_trigger": false,
      "metar": "METAR LTFM 150220Z 18012KT CAVOK 12/06 Q1009 NOSIG RMK RWY17L 18010KT RWY34L 16011KT RWY16R 17011KT RWY36 17013KT RWY18 18010KT",
      "taf": "TAF LTFM 142240Z 1500/1606 16012KT CAVOK"
    },
    {
      "icao": "LUKK",
      "alert": "OK",
      "vis_m": 350,
      "fzfg": false,
      "metar_trigger": false,
      "taf_trigger": false,
      "metar": "METAR LUKK 150230Z 10007KT 0350 R08/0400N FG VV001 01/01 Q1008 NOSIG",
      "taf": ""
    },
    {
      "icao": "LWOH",
      "alert": "OK",
      "vis_m": null,
      "fzfg": false,
      "metar_trigger": false,
      "taf_trigger": false,
      "metar": "",
      "taf": "TAF LWOH 150230Z 1503/1603 35005KT 9999 -RA SCT015 OVC035"
    },
    {
      "icao": "LWSK",
      "alert": "OK",
      "vis_m": 9999,
      "fzfg": false,
      "metar_trigger": false,
      "taf_trigger": false,
      "metar": "METAR LWSK 150250Z 14010KT 100V160 9999 -RA SCT045 OVC070 10/09 Q1000 NOSIG",
      "taf": "TAF LWSK 150230Z 1503/1603 14012KT 9999 RA SCT035 OVC070"
    },
    {
      "icao": "LYBE",
      "alert": "OK",
      "vis_m": 8000,
      "fzfg": false,
      "metar_trigger": false,
      "taf_trigger": false,
      "metar": "METAR LYBE 150230Z 10008KT 8000 RA BKN040 08/07 Q1000 NOSIG",
      "taf": "TAF LYBE 142300Z 1500/1524 08008KT 9999 BKN035 TX08/1500Z TNM01/1524Z"
    },
    {
      "icao": "LYNI",
      "alert": "OK",
      "vis_m": 9999,
      "fzfg": false,
      "metar_trigger": false,
      "taf_trigger": false,
      "metar": "METAR LYNI 150230Z 10012KT 9999 -RA FEW020 BKN060 10/07 Q0999 NOSIG",
      "taf": "TAF LYNI 142300Z 1500/1524 10006KT 9999 BKN035 BKN070 TX13/1511Z TN01/1524Z"
    },
    {
      "icao": "LYPG",
      "alert": "OK",
      "vis_m": 9999,
      "fzfg": false,
      "metar_trigger": false,
      "taf_trigger": false,
      "metar": "METAR LYPG 150230Z 29005KT 9999 -RA FEW007 SCT040 OVC070 08/08 Q0996 RERA NOSIG",
      "taf": "TAF LYPG 142300Z 1500/1524 36005KT 9999 FEW010 BKN034 OVC070 TX11/1512Z TN07/1518Z"
    },
    {
      "icao": "LZIB",
      "alert": "OK",
      "vis_m": 9999,
      "fzfg": false,
      "metar_trigger": false,
      "taf_trigger": false,
      "metar": "METAR LZIB 150230Z 35014KT 9999 -SN FEW013 BKN018 01/M02 Q1009 NOSIG",
      "taf": ""
    },
    {
      "icao": "LZKZ",
      "alert": "OK",
      "vis_m": 9999,
      "fzfg": false,
      "metar_trigger": false,
      "taf_trigger": false,
      "metar": "METAR LZKZ 150230Z 36020KT CAVOK 03/00 Q1005 NOSIG",
      "taf": "TAF LZKZ 142315Z 1500/1600 01010KT CAVOK"
    },
    {
      "icao": "LZTT",
      "alert": "OK",
      "vis_m": 9999,
      "fzfg": false,
      "metar_trigger": false,
      "taf_trigger": false,
      "metar": "METAR LZTT 150230Z 08010KT 9999 OVC008 M01/M02 Q1006",
      "taf": "TAF LZTT 142315Z 1500/1600 08005KT 9999 OVC023"
    },
    {
      "icao": "OEJN",
      "alert": "OK",
      "vis_m": 9999,
      "fzfg": false,
      "metar_trigger": false,
      "taf_trigger": false,
      "metar": "METAR OEJN 150200Z 33004KT CAVOK 23/15 Q1012 NOSIG",
      "taf": "TAF OEJN 142300Z 1500/1606 VRB03KT 7000 NSC"
    },
    {
      "icao": "OEMA",
      "alert": "OK",
      "vis_m": 9999,
      "fzfg": false,
      "metar_trigger": false,
      "taf_trigger": false,
      "metar": "METAR OEMA 150200Z 36002KT CAVOK 17/M08 Q1019 NOSIG",
      "taf": "TAF OEMA 142300Z 1500/1606 VRB03KT CAVOK"
    },
    {
      "icao": "OJAI",
      "alert": "OK",
      "vis_m": 3000,
      "fzfg": false,
      "metar_trigger": false,
      "taf_trigger": false,
      "metar": "METAR OJAI 150200Z 05005KT 3000 DU NSC 05/03 Q1022 NOSIG",
      "taf": "TAF OJAI 142300Z 1500/1606 22010KT 2000 DU NSC"
    },
    {
      "icao": "OMAA",
      "alert": "OK",
      "vis_m": 9999,
      "fzfg": false,
      "metar_trigger": false,
      "taf_trigger": false,
      "metar": "METAR OMAA 150230Z 16004KT CAVOK 19/11 Q1015 NOSIG",
      "taf": "TAF OMAA 142300Z 1500/1606 17007KT 8000 NSC"
    },
    {
      "icao": "OMDB",
      "alert": "OK",
      "vis_m": 7000,
      "fzfg": false,
      "metar_trigger": false,
      "taf_trigger": false,
      "metar": "METAR OMDB 150230Z 17003KT 120V190 7000 NSC 21/08 Q1015 NOSIG",
      "taf": "TAF OMDB 142300Z 1500/1606 14005KT CAVOK"
    },
    {
      "icao": "UAAA",
      "alert": "CRITICAL",
      "vis_m": 50,
      "fzfg": true,
      "metar_trigger": true,
      "taf_trigger": false,
      "metar": "METAR UAAA 150230Z 00000MPS 0050 R23L/0100N FZFG VV001 M03/M04 Q1022 NOSIG RMK QBB040",
      "taf": ""
    },
    {
      "icao": "UBBB",
      "alert": "OK",
      "vis_m": 9999,
      "fzfg": false,
      "metar_trigger": false,
      "taf_trigger": false,
      "metar": "METAR UBBB 150230Z 34020G30KT 9999 FEW010 07/06 Q1011 NOSIG",
      "taf": "TAF UBBB 142257Z 1500/1524 31022G32KT 9999 BKN010 OVC030 TX12/1510Z TN07/1501Z"
    },
    {
      "icao": "UDSG",
      "alert": "OK",
      "vis_m": 5000,
      "fzfg": false,
      "metar_trigger": false,
      "taf_trigger": false,
      "metar": "METAR UDSG 150230Z 13002KT 5000 BR FEW010 BKN040 M01/M01 Q1019 NOSIG",
      "taf": "TAF UDSG 142300Z 1500/1524 VRB06KT 1200 BR BKN010"
    },
    {
      "icao": "UDYZ",
      "alert": "OK",
      "vis_m": 5000,
      "fzfg": false,
      "metar_trigger": false,
      "taf_trigger": false,
      "metar": "METAR UDYZ 150230Z COR VRB02KT 5000 BR FEW046 M00/M01 Q1017 NOSIG",
      "taf": "TAF UDYZ 142300Z 1500/1524 VRB04KT 3500 BR FEW040"
    },
    {
      "icao": "UGKO",
      "alert": "OK",
      "vis_m": 9999,
      "fzfg": false,
      "metar_trigger": false,
      "taf_trigger": false,
      "metar": "METAR UGKO 150230Z 26014KT 9999 SCT011 BKN013 OVC033 10/09 Q1020 NOSIG",
      "taf": "TAF UGKO 142300Z 1500/1524 25007KT 9999 BKN050 TX18/1511Z TN10/1504Z"
    }
  ]
}