{
  "ts_utc": "2026-04-15T12:04:50Z",
  "threshold_m": 150,
  "source": "stations_override.txt (ICAO list) + aviationweather.gov (METAR/TAF raw)",
  "station_count": 159,
  "stations": [
    {
      "icao": "BIKF",
      "alert": "OK",
      "vis_m": 9999,
      "fzfg": false,
      "metar_trigger": false,
      "taf_trigger": false,
      "metar": "METAR BIKF 151200Z 14018KT 9999 BKN016 BKN033 09/06 Q0992",
      "taf": "TAF BIKF 151030Z 1512/1612 14017KT 9999 SCT016 BKN025 TX08/1515Z TN03/1606Z"
    },
    {
      "icao": "BKPR",
      "alert": "OK",
      "vis_m": 9999,
      "fzfg": false,
      "metar_trigger": false,
      "taf_trigger": false,
      "metar": "METAR BKPR 151100Z 14007KT 9999 FEW060 18/10 Q1018 NOSIG",
      "taf": "TAF BKPR 151130Z 1512/1612 13009KT 9999 FEW050 BKN080"
    },
    {
      "icao": "EBCI",
      "alert": "OK",
      "vis_m": 9999,
      "fzfg": false,
      "metar_trigger": false,
      "taf_trigger": false,
      "metar": "METAR EBCI 151150Z 21011KT CAVOK 17/04 Q1020 NOSIG",
      "taf": "TAF EBCI 151100Z 1512/1618 22010KT CAVOK"
    },
    {
      "icao": "EDDB",
      "alert": "OK",
      "vis_m": 9999,
      "fzfg": false,
      "metar_trigger": false,
      "taf_trigger": false,
      "metar": "METAR EDDB 151150Z AUTO 21007KT 160V260 9999 FEW047 16/03 Q1023 NOSIG",
      "taf": "TAF EDDB 151100Z 1512/1612 VRB03KT CAVOK"
    },
    {
      "icao": "EDDH",
      "alert": "OK",
      "vis_m": 9999,
      "fzfg": false,
      "metar_trigger": false,
      "taf_trigger": false,
      "metar": "METAR EDDH 151150Z AUTO 20007KT 160V240 CAVOK 17/05 Q1022 NOSIG",
      "taf": "TAF EDDH 151100Z 1512/1618 21008KT CAVOK"
    },
    {
      "icao": "EDDK",
      "alert": "OK",
      "vis_m": 9999,
      "fzfg": false,
      "metar_trigger": false,
      "taf_trigger": false,
      "metar": "METAR EDDK 151150Z AUTO VRB09KT CAVOK 17/03 Q1021 NOSIG",
      "taf": "TAF EDDK 151100Z 1512/1618 15009KT CAVOK"
    },
    {
      "icao": "EDDN",
      "alert": "OK",
      "vis_m": 9999,
      "fzfg": false,
      "metar_trigger": false,
      "taf_trigger": false,
      "metar": "METAR EDDN 151150Z AUTO 16004KT 090V250 9999 FEW023 OVC034 14/08 Q1022 NOSIG",
      "taf": "TAF EDDN 151100Z 1512/1612 14006KT 9999 FEW020 OVC030"
    },
    {
      "icao": "EDDS",
      "alert": "OK",
      "vis_m": 9999,
      "fzfg": false,
      "metar_trigger": false,
      "taf_trigger": false,
      "metar": "METAR EDDS 151150Z AUTO 04003KT 9999 BKN041 13/07 Q1021 NOSIG",
      "taf": "TAF EDDS 151100Z 1512/1612 07004KT 9999 BKN040"
    },
    {
      "icao": "EDFH",
      "alert": "OK",
      "vis_m": 9999,
      "fzfg": false,
      "metar_trigger": false,
      "taf_trigger": false,
      "metar": "METAR EDFH 151150Z 14008KT 080V180 9999 FEW040 13/04 Q1021",
      "taf": "TAF EDFH 151100Z 1512/1612 14007KT 9999 FEW040"
    },
    {
      "icao": "EDJA",
      "alert": "OK",
      "vis_m": 9999,
      "fzfg": false,
      "metar_trigger": false,
      "taf_trigger": false,
      "metar": "METAR EDJA 151150Z COR 07004KT 030V100 9999 FEW014 OVC017 10/07 Q1021",
      "taf": "TAF EDJA 151100Z 1512/1521 05005KT 9999 FEW013 BKN020"
    },
    {
      "icao": "EDLW",
      "alert": "OK",
      "vis_m": 9999,
      "fzfg": false,
      "metar_trigger": false,
      "taf_trigger": false,
      "metar": "METAR EDLW 151150Z 19004KT 130V270 CAVOK 18/03 Q1021",
      "taf": "TAF EDLW 151100Z 1512/1612 19006KT CAVOK"
    },
    {
      "icao": "EDNY",
      "alert": "OK",
      "vis_m": 9999,
      "fzfg": false,
      "metar_trigger": false,
      "taf_trigger": false,
      "metar": "METAR EDNY 151150Z 23004KT 9999 BKN026 OVC031 12/08 Q1021",
      "taf": "TAF EDNY 151100Z 1512/1521 VRB03KT 9999 BKN030"
    },
    {
      "icao": "EDSB",
      "alert": "OK",
      "vis_m": 9999,
      "fzfg": false,
      "metar_trigger": false,
      "taf_trigger": false,
      "metar": "METAR EDSB 151150Z 36004KT 320V050 9999 FEW038 BKN047 16/07 Q1021",
      "taf": "TAF EDSB 151100Z 1512/1612 36005KT 9999 SCT045"
    },
    {
      "icao": "EETN",
      "alert": "OK",
      "vis_m": 9999,
      "fzfg": false,
      "metar_trigger": false,
      "taf_trigger": false,
      "metar": "METAR EETN 151150Z 02008KT 350V050 CAVOK 12/M04 Q1024 NOSIG",
      "taf": "TAF EETN 151130Z 1512/1612 03007KT CAVOK"
    },
    {
      "icao": "EFTU",
      "alert": "OK",
      "vis_m": 9999,
      "fzfg": false,
      "metar_trigger": false,
      "taf_trigger": false,
      "metar": "METAR EFTU 151150Z AUTO 11005KT 050V170 CAVOK 16/M05 Q1024",
      "taf": "TAF EFTU 151121Z 1512/1612 11006KT CAVOK"
    },
    {
      "icao": "EGBB",
      "alert": "OK",
      "vis_m": 9999,
      "fzfg": false,
      "metar_trigger": false,
      "taf_trigger": false,
      "metar": "METAR EGBB 151150Z 18015KT 9999 BKN035 16/09 Q1011",
      "taf": "TAF EGBB 151104Z 1512/1612 18010KT 9999 SCT030"
    },
    {
      "icao": "EGGP",
      "alert": "OK",
      "vis_m": 9999,
      "fzfg": false,
      "metar_trigger": false,
      "taf_trigger": false,
      "metar": "METAR EGGP 151150Z 19010KT 160V220 9999 -RA BKN039 14/08 Q1009",
      "taf": "TAF EGGP 151101Z 1512/1612 18010KT 9999 SCT020"
    },
    {
      "icao": "EGGW",
      "alert": "OK",
      "vis_m": 9999,
      "fzfg": false,
      "metar_trigger": false,
      "taf_trigger": false,
      "metar": "METAR EGGW 151150Z AUTO 21012KT 160V230 9999 -RA SCT011/// SCT018/// BKN026/// //////CB 14/12 Q1014",
      "taf": "TAF EGGW 151101Z 1512/1612 19012KT 9999 BKN011"
    },
    {
      "icao": "EGKK",
      "alert": "OK",
      "vis_m": 9999,
      "fzfg": false,
      "metar_trigger": false,
      "taf_trigger": false,
      "metar": "METAR EGKK 151150Z 19009KT 150V220 9999 BKN007 14/13 Q1015",
      "taf": "TAF EGKK 151056Z 1512/1618 20012KT 9999 SCT020"
    },
    {
      "icao": "EGNM",
      "alert": "OK",
      "vis_m": 9999,
      "fzfg": false,
      "metar_trigger": false,
      "taf_trigger": false,
      "metar": "METAR EGNM 151150Z 19014G24KT 160V220 9999 SCT028 SCT038 15/07 Q1009",
      "taf": "TAF EGNM 151101Z 1512/1612 18012KT 9999 SCT020"
    },
    {
      "icao": "EGPD",
      "alert": "OK",
      "vis_m": 9999,
      "fzfg": false,
      "metar_trigger": false,
      "taf_trigger": false,
      "metar": "METAR EGPD 151150Z COR 17019KT 9999 SCT008 14/11 Q1006 NOSIG",
      "taf": "TAF EGPD 151058Z 1512/1612 16012KT 9999 FEW006 SCT030"
    },
    {
      "icao": "EGPF",
      "alert": "OK",
      "vis_m": 8000,
      "fzfg": false,
      "metar_trigger": false,
      "taf_trigger": false,
      "metar": "METAR EGPF 151150Z AUTO 17010KT 8000 -RA BKN015 13/11 Q1004",
      "taf": "TAF EGPF 151108Z 1512/1612 16014KT 9999 SCT016"
    },
    {
      "icao": "EHBK",
      "alert": "OK",
      "vis_m": 9999,
      "fzfg": false,
      "metar_trigger": false,
      "taf_trigger": false,
      "metar": "METAR EHBK 151155Z AUTO 18006KT 140V210 9999 NSC 17/04 Q1020 NOSIG",
      "taf": "TAF EHBK 151114Z 1512/1618 19010KT CAVOK"
    },
    {
      "icao": "EHEH",
      "alert": "OK",
      "vis_m": 9999,
      "fzfg": false,
      "metar_trigger": false,
      "taf_trigger": false,
      "metar": "METAR EHEH 151155Z AUTO 21011KT 180V240 9999 OVC260 19/03 Q1020 BLU NOSIG RMK TREND REMOTE BY EHWX",
      "taf": "TAF EHEH 150514Z 1506/1612 17003KT CAVOK"
    },
    {
      "icao": "EKBI",
      "alert": "OK",
      "vis_m": 9999,
      "fzfg": false,
      "metar_trigger": false,
      "taf_trigger": false,
      "metar": "METAR EKBI 151150Z AUTO 18003KT 9999 OVC086/// 13/04 Q1022",
      "taf": "TAF EKBI 151127Z 1512/1612 12005KT 9999 FEW030"
    },
    {
      "icao": "EKCH",
      "alert": "OK",
      "vis_m": 9999,
      "fzfg": false,
      "metar_trigger": false,
      "taf_trigger": false,
      "metar": "METAR EKCH 151150Z AUTO 13009KT 090V150 9999 FEW002/// BKN026/// 09/05 Q1023 NOSIG",
      "taf": ""
    },
    {
      "icao": "ENAL",
      "alert": "OK",
      "vis_m": 9999,
      "fzfg": false,
      "metar_trigger": false,
      "taf_trigger": false,
      "metar": "METAR ENAL 151150Z 14006KT CAVOK 13/M02 Q1020",
      "taf": "TAF ENAL 151100Z 1512/1521 13008KT CAVOK"
    },
    {
      "icao": "ENBR",
      "alert": "OK",
      "vis_m": 9999,
      "fzfg": false,
      "metar_trigger": false,
      "taf_trigger": false,
      "metar": "METAR ENBR 151150Z 18012KT CAVOK 12/01 Q1020 NOSIG RMK WIND 1200FT 14017KT",
      "taf": "TAF ENBR 151100Z 1512/1612 14010KT CAVOK"
    },
    {
      "icao": "ENGM",
      "alert": "OK",
      "vis_m": 9999,
      "fzfg": false,
      "metar_trigger": false,
      "taf_trigger": false,
      "metar": "METAR ENGM 151150Z 06005KT 360V100 9999 BKN028 10/03 Q1024 NOSIG",
      "taf": "TAF ENGM 151100Z 1512/1612 04008KT 9999 BKN030"
    },
    {
      "icao": "ENHD",
      "alert": "OK",
      "vis_m": 9999,
      "fzfg": false,
      "metar_trigger": false,
      "taf_trigger": false,
      "metar": "METAR ENHD 151150Z 13018KT CAVOK 11/02 Q1020",
      "taf": "TAF ENHD 151100Z 1512/1521 13015KT CAVOK"
    },
    {
      "icao": "ENTC",
      "alert": "OK",
      "vis_m": 9999,
      "fzfg": false,
      "metar_trigger": false,
      "taf_trigger": false,
      "metar": "METAR ENTC 151150Z 20010KT 170V240 CAVOK 11/M04 Q1025 NOSIG RMK WIND 2600FT 18017KT",
      "taf": "TAF ENTC 151100Z 1512/1612 22008KT CAVOK"
    },
    {
      "icao": "ENTO",
      "alert": "OK",
      "vis_m": 9999,
      "fzfg": false,
      "metar_trigger": false,
      "taf_trigger": false,
      "metar": "METAR ENTO 151150Z 04005KT 360V080 9999 BKN019 OVC041 08/05 Q1024 NOSIG",
      "taf": "TAF ENTO 151100Z 1512/1612 03008KT 9999 BKN020"
    },
    {
      "icao": "ENVA",
      "alert": "OK",
      "vis_m": 9999,
      "fzfg": false,
      "metar_trigger": false,
      "taf_trigger": false,
      "metar": "METAR ENVA 151150Z 17012G24KT 130V200 CAVOK 14/M01 Q1024 NOSIG RMK WIND 670FT 16020G35KT",
      "taf": "TAF ENVA 151100Z 1512/1612 14012KT CAVOK"
    },
    {
      "icao": "ENZV",
      "alert": "OK",
      "vis_m": 9999,
      "fzfg": false,
      "metar_trigger": false,
      "taf_trigger": false,
      "metar": "METAR ENZV 151150Z 13018KT CAVOK 12/02 Q1020 NOSIG",
      "taf": "TAF ENZV 151100Z 1512/1612 13015KT CAVOK"
    },
    {
      "icao": "EPGD",
      "alert": "OK",
      "vis_m": 9999,
      "fzfg": false,
      "metar_trigger": false,
      "taf_trigger": false,
      "metar": "METAR EPGD 151200Z 31010KT 9999 BKN029 12/04 Q1022",
      "taf": "TAF EPGD 151130Z 1512/1612 29010KT 9999 BKN030"
    },
    {
      "icao": "EPKK",
      "alert": "OK",
      "vis_m": 9999,
      "fzfg": false,
      "metar_trigger": false,
      "taf_trigger": false,
      "metar": "METAR EPKK 151200Z 29007KT 9999 SCT020 BKN046 13/08 Q1022",
      "taf": "TAF EPKK 151130Z 1512/1612 29010KT 9999 BKN030"
    },
    {
      "icao": "EPKT",
      "alert": "OK",
      "vis_m": 9999,
      "fzfg": false,
      "metar_trigger": false,
      "taf_trigger": false,
      "metar": "METAR EPKT 151200Z 29005KT 250V310 9999 SCT015 OVC019 12/08 Q1022",
      "taf": "TAF EPKT 151130Z 1512/1612 29003KT 9999 BKN025"
    },
    {
      "icao": "EPLB",
      "alert": "OK",
      "vis_m": 9999,
      "fzfg": false,
      "metar_trigger": false,
      "taf_trigger": false,
      "metar": "METAR EPLB 151200Z 12003KT 070V210 CAVOK 17/03 Q1021",
      "taf": "TAF EPLB 151130Z 1512/1612 VRB03KT CAVOK"
    },
    {
      "icao": "EPMO",
      "alert": "OK",
      "vis_m": 9999,
      "fzfg": false,
      "metar_trigger": false,
      "taf_trigger": false,
      "metar": "METAR EPMO 151200Z 25008KT 230V290 CAVOK 15/07 Q1021",
      "taf": "TAF EPMO 151130Z 1512/1612 27008KT CAVOK"
    },
    {
      "icao": "EPPO",
      "alert": "OK",
      "vis_m": 9999,
      "fzfg": false,
      "metar_trigger": false,
      "taf_trigger": false,
      "metar": "METAR EPPO 151200Z 30007KT 9999 FEW040 15/01 Q1023",
      "taf": "TAF EPPO 151130Z 1512/1612 32008KT CAVOK"
    },
    {
      "icao": "EPRA",
      "alert": "OK",
      "vis_m": 9999,
      "fzfg": false,
      "metar_trigger": false,
      "taf_trigger": false,
      "metar": "METAR EPRA 151200Z 31007KT CAVOK 15/06 Q1022",
      "taf": "TAF EPRA 151130Z 1512/1521 30006KT 9999 SCT040"
    },
    {
      "icao": "EPRZ",
      "alert": "OK",
      "vis_m": 9999,
      "fzfg": false,
      "metar_trigger": false,
      "taf_trigger": false,
      "metar": "METAR EPRZ 151200Z 07003KT 040V140 CAVOK 16/04 Q1022",
      "taf": "TAF EPRZ 151130Z 1512/1612 30005KT 9999 BKN040"
    },
    {
      "icao": "EPSC",
      "alert": "OK",
      "vis_m": 9999,
      "fzfg": false,
      "metar_trigger": false,
      "taf_trigger": false,
      "metar": "METAR EPSC 151200Z 30010KT 240V320 CAVOK 15/M01 Q1023",
      "taf": "TAF EPSC 151130Z 1512/1612 VRB04KT 9999 SCT040"
    },
    {
      "icao": "EPSY",
      "alert": "OK",
      "vis_m": 9999,
      "fzfg": false,
      "metar_trigger": false,
      "taf_trigger": false,
      "metar": "METAR EPSY 151200Z VRB02KT 9999 FEW011 BKN040 11/07 Q1022",
      "taf": "TAF EPSY 151130Z 1512/1521 30005KT 9999 BKN035"
    },
    {
      "icao": "EPWA",
      "alert": "OK",
      "vis_m": 9999,
      "fzfg": false,
      "metar_trigger": false,
      "taf_trigger": false,
      "metar": "METAR EPWA 151200Z 27009KT CAVOK 13/07 Q1022 NOSIG",
      "taf": "TAF EPWA 151130Z 1512/1612 28010KT CAVOK"
    },
    {
      "icao": "EPWR",
      "alert": "OK",
      "vis_m": 9999,
      "fzfg": false,
      "metar_trigger": false,
      "taf_trigger": false,
      "metar": "METAR EPWR 151200Z 25004KT 190V290 9999 FEW033 BKN040 14/07 Q1023",
      "taf": "TAF EPWR 151130Z 1512/1612 30005KT 9999 BKN035"
    },
    {
      "icao": "ESGG",
      "alert": "OK",
      "vis_m": 9999,
      "fzfg": false,
      "metar_trigger": false,
      "taf_trigger": false,
      "metar": "METAR ESGG 151150Z 35005KT 310V040 9999 SCT016 BKN038 08/04 Q1021",
      "taf": "TAF ESGG 151130Z 1512/1612 02004KT 9999 BKN020"
    },
    {
      "icao": "ESKN",
      "alert": "OK",
      "vis_m": 9999,
      "fzfg": false,
      "metar_trigger": false,
      "taf_trigger": false,
      "metar": "METAR ESKN 151150Z 08014KT 9999 FEW040 13/03 Q1022",
      "taf": "TAF ESKN 151130Z 1512/1612 09010KT CAVOK"
    },
    {
      "icao": "ESMS",
      "alert": "OK",
      "vis_m": 9999,
      "fzfg": false,
      "metar_trigger": false,
      "taf_trigger": false,
      "metar": "METAR ESMS 151150Z 25010KT 9999 FEW025 10/05 Q1022",
      "taf": "TAF ESMS 151127Z 1512/1612 27006KT 9999 SCT020"
    },
    {
      "icao": "ESSA",
      "alert": "OK",
      "vis_m": 9999,
      "fzfg": false,
      "metar_trigger": false,
      "taf_trigger": false,
      "metar": "METAR ESSA 151150Z 10013KT 080V140 CAVOK 14/M02 Q1024 NOSIG",
      "taf": "TAF ESSA 151130Z 1512/1612 11010KT CAVOK"
    },
    {
      "icao": "EYKA",
      "alert": "OK",
      "vis_m": 9999,
      "fzfg": false,
      "metar_trigger": false,
      "taf_trigger": false,
      "metar": "METAR EYKA 151150Z 16008KT 130V200 CAVOK 17/M02 Q1021",
      "taf": "TAF EYKA 151102Z 1512/1612 VRB03KT 9000 NSC"
    },
    {
      "icao": "EYPA",
      "alert": "OK",
      "vis_m": 9999,
      "fzfg": false,
      "metar_trigger": false,
      "taf_trigger": false,
      "metar": "METAR EYPA 151150Z VRB02KT CAVOK 09/05 Q1022",
      "taf": "TAF EYPA 151101Z 1512/1612 VRB03KT 9000 OVC040"
    },
    {
      "icao": "EYVI",
      "alert": "OK",
      "vis_m": 9999,
      "fzfg": false,
      "metar_trigger": false,
      "taf_trigger": false,
      "metar": "METAR EYVI 151150Z VRB02KT CAVOK 17/M04 Q1021 NOSIG",
      "taf": "TAF EYVI 151100Z 1512/1612 VRB04KT 9000 NSC"
    },
    {
      "icao": "GCFV",
      "alert": "OK",
      "vis_m": 9999,
      "fzfg": false,
      "metar_trigger": false,
      "taf_trigger": false,
      "metar": "METAR GCFV 151130Z 03014KT 9999 FEW018 SCT025 20/14 Q1019",
      "taf": "TAF GCFV 150800Z 1509/1609 03012KT 9999 FEW025 TX23/1514Z TN16/1606Z"
    },
    {
      "icao": "GCLP",
      "alert": "OK",
      "vis_m": 9999,
      "fzfg": false,
      "metar_trigger": false,
      "taf_trigger": false,
      "metar": "METAR GCLP 151130Z 02022KT 9999 FEW020 SCT035 22/14 Q1019 NOSIG",
      "taf": "TAF GCLP 150800Z 1509/1609 01021KT 9999 FEW025 TX23/1514Z TN16/1606Z"
    },
    {
      "icao": "GCTS",
      "alert": "OK",
      "vis_m": 9999,
      "fzfg": false,
      "metar_trigger": false,
      "taf_trigger": false,
      "metar": "METAR GCTS 151130Z 08021KT 050V110 9999 FEW030 23/11 Q1019 NOSIG",
      "taf": "TAF GCTS 150800Z 1509/1609 08020KT 9999 FEW030 TX24/1514Z TN17/1606Z"
    },
    {
      "icao": "GMAD",
      "alert": "OK",
      "vis_m": 9999,
      "fzfg": false,
      "metar_trigger": false,
      "taf_trigger": false,
      "metar": "METAR GMAD 151200Z 27005KT CAVOK 32/04 Q1016 NOSIG",
      "taf": "TAF GMAD 151100Z 1512/1618 27010KT CAVOK"
    },
    {
      "icao": "GMMN",
      "alert": "OK",
      "vis_m": 9999,
      "fzfg": false,
      "metar_trigger": false,
      "taf_trigger": false,
      "metar": "METAR GMMN 151200Z 01011KT 290V060 CAVOK 23/16 Q1020 NOSIG",
      "taf": "TAF GMMN 151100Z 1512/1618 02012KT CAVOK"
    },
    {
      "icao": "GMMX",
      "alert": "OK",
      "vis_m": 9999,
      "fzfg": false,
      "metar_trigger": false,
      "taf_trigger": false,
      "metar": "METAR GMMX 151200Z 05005KT 010V110 CAVOK 27/11 Q1019 NOSIG",
      "taf": "TAF GMMX 151100Z 1512/1618 06006KT CAVOK"
    },
    {
      "icao": "HEGN",
      "alert": "OK",
      "vis_m": 9999,
      "fzfg": false,
      "metar_trigger": false,
      "taf_trigger": false,
      "metar": "METAR HEGN 151100Z 35006KT CAVOK 30/09 Q1010 NOSIG",
      "taf": "TAF HEGN 150500Z 1506/1612 01014KT CAVOK"
    },
    {
      "icao": "HEMA",
      "alert": "OK",
      "vis_m": 9999,
      "fzfg": false,
      "metar_trigger": false,
      "taf_trigger": false,
      "metar": "METAR HEMA 151100Z 33014KT CAVOK 29/13 Q1010 NOSIG",
      "taf": "TAF HEMA 150500Z 1506/1612 02015KT CAVOK"
    },
    {
      "icao": "HESH",
      "alert": "OK",
      "vis_m": 9999,
      "fzfg": false,
      "metar_trigger": false,
      "taf_trigger": false,
      "metar": "METAR HESH 151100Z 01006KT CAVOK 35/07 Q1010 NOSIG",
      "taf": "TAF HESH 150500Z 1506/1612 02014KT CAVOK"
    },
    {
      "icao": "HESX",
      "alert": "OK",
      "vis_m": 9999,
      "fzfg": false,
      "metar_trigger": false,
      "taf_trigger": false,
      "metar": "METAR HESX 151100Z 03009KT CAVOK 29/10 Q1010 NOSIG",
      "taf": "TAF HESX 150500Z 1506/1612 03011KT CAVOK"
    },
    {
      "icao": "LATI",
      "alert": "OK",
      "vis_m": 9999,
      "fzfg": false,
      "metar_trigger": false,
      "taf_trigger": false,
      "metar": "METAR LATI 151150Z 31008KT 280V340 9999 SCT070 SCT130 22/14 Q1016 NOSIG",
      "taf": "TAF LATI 151100Z 1512/1612 35010KT 9999 SCT040 BKN080 TX26/1612Z TN12/1604Z"
    },
    {
      "icao": "LBPD",
      "alert": "OK",
      "vis_m": 9999,
      "fzfg": false,
      "metar_trigger": false,
      "taf_trigger": false,
      "metar": "METAR LBPD 151200Z AUTO 09003KT 050V140 9999 OVC082/// 13/07 Q1021 NOSIG",
      "taf": "TAF LBPD 151100Z 1512/1612 VRB03KT 9999 SCT070"
    },
    {
      "icao": "LBSF",
      "alert": "OK",
      "vis_m": 9999,
      "fzfg": false,
      "metar_trigger": false,
      "taf_trigger": false,
      "metar": "METAR LBSF 151200Z 13006KT 100V160 9999 BKN082 16/05 Q1020 NOSIG",
      "taf": "TAF LBSF 151100Z 1512/1612 11010KT 9999 SCT050 BKN070"
    },
    {
      "icao": "LBWN",
      "alert": "OK",
      "vis_m": 9999,
      "fzfg": false,
      "metar_trigger": false,
      "taf_trigger": false,
      "metar": "METAR LBWN 151200Z 12014KT 9999 FEW019 13/07 Q1022 NOSIG",
      "taf": "TAF LBWN 151100Z 1512/1612 12012KT 9999 SCT020"
    },
    {
      "icao": "LCLK",
      "alert": "OK",
      "vis_m": 9999,
      "fzfg": false,
      "metar_trigger": false,
      "taf_trigger": false,
      "metar": "METAR LCLK 151200Z 05010KT CAVOK 25/11 Q1014 NOSIG",
      "taf": "TAF LCLK 151130Z 1512/1612 05014KT CAVOK"
    },
    {
      "icao": "LCPH",
      "alert": "OK",
      "vis_m": 9999,
      "fzfg": false,
      "metar_trigger": false,
      "taf_trigger": false,
      "metar": "METAR LCPH 151200Z 32015KT CAVOK 21/12 Q1014 NOSIG",
      "taf": "TAF LCPH 151130Z 1512/1612 30010KT CAVOK"
    },
    {
      "icao": "LEAL",
      "alert": "OK",
      "vis_m": 9999,
      "fzfg": false,
      "metar_trigger": false,
      "taf_trigger": false,
      "metar": "METAR LEAL 151130Z 09006KT 050V140 9999 FEW030 21/11 Q1021 NOSIG",
      "taf": "TAF LEAL 151100Z 1512/1612 11010KT 9999 FEW030 TX21/1513Z TN12/1606Z"
    },
    {
      "icao": "LEBB",
      "alert": "OK",
      "vis_m": 9999,
      "fzfg": false,
      "metar_trigger": false,
      "taf_trigger": false,
      "metar": "METAR LEBB 151130Z VRB02KT 9999 FEW040 23/15 Q1021 NOSIG",
      "taf": "TAF LEBB 151100Z 1512/1612 VRB03KT 9999 FEW045 TX21/1512Z TN08/1606Z"
    },
    {
      "icao": "LEBL",
      "alert": "OK",
      "vis_m": 9999,
      "fzfg": false,
      "metar_trigger": false,
      "taf_trigger": false,
      "metar": "METAR LEBL 151130Z 17005KT 110V210 9999 FEW020 17/06 Q1020 NOSIG",
      "taf": "TAF LEBL 151100Z 1512/1612 20008KT CAVOK TX18/1513Z TN11/1606Z"
    },
    {
      "icao": "LECH",
      "alert": "OK",
      "vis_m": 9999,
      "fzfg": false,
      "metar_trigger": false,
      "taf_trigger": false,
      "metar": "METAR LECH 151130Z AUTO 13011KT 100V160 CAVOK 20/07 Q1021",
      "taf": "TAF LECH 151100Z 1512/1612 VRB03KT 9999 FEW030 TX23/1513Z TN08/1606Z"
    },
    {
      "icao": "LEMD",
      "alert": "OK",
      "vis_m": 9999,
      "fzfg": false,
      "metar_trigger": false,
      "taf_trigger": false,
      "metar": "METAR LEMD 151130Z 23007KT CAVOK 21/07 Q1022 NOSIG",
      "taf": "TAF LEMD 151100Z 1512/1618 VRB04KT CAVOK TX24/1516Z TN08/1606Z"
    },
    {
      "icao": "LEMG",
      "alert": "OK",
      "vis_m": 9999,
      "fzfg": false,
      "metar_trigger": false,
      "taf_trigger": false,
      "metar": "METAR LEMG 151130Z 16007KT 120V190 9999 FEW040 22/11 Q1021 NOSIG",
      "taf": "TAF LEMG 151100Z 1512/1612 13010KT CAVOK TX26/1514Z TN15/1607Z"
    },
    {
      "icao": "LEVC",
      "alert": "OK",
      "vis_m": 9999,
      "fzfg": false,
      "metar_trigger": false,
      "taf_trigger": false,
      "metar": "METAR LEVC 151130Z 16007KT 110V220 9999 FEW030 23/08 Q1020 NOSIG",
      "taf": "TAF LEVC 151100Z 1512/1612 VRB04KT 9999 FEW030 TX24/1513Z TN10/1606Z"
    },
    {
      "icao": "LEXJ",
      "alert": "OK",
      "vis_m": 9999,
      "fzfg": false,
      "metar_trigger": false,
      "taf_trigger": false,
      "metar": "METAR LEXJ 151130Z 05004KT 330V140 9999 FEW030 18/13 Q1022",
      "taf": "TAF LEXJ 150800Z 1509/1609 VRB03KT 9999 FEW030 TX20/1514Z TN10/1603Z"
    },
    {
      "icao": "LEZG",
      "alert": "OK",
      "vis_m": 9999,
      "fzfg": false,
      "metar_trigger": false,
      "taf_trigger": false,
      "metar": "METAR LEZG 151100Z 32009KT 9999 FEW080 22/09 Q1020 NOSIG",
      "taf": "TAF LEZG 151100Z 1512/1612 31015KT 9999 FEW040 TX25/1513Z TN11/1606Z"
    },
    {
      "icao": "LEZL",
      "alert": "OK",
      "vis_m": 9999,
      "fzfg": false,
      "metar_trigger": false,
      "taf_trigger": false,
      "metar": "METAR LEZL 151130Z 05005KT 350V100 CAVOK 24/12 Q1022 NOSIG",
      "taf": "TAF LEZL 150800Z 1509/1609 04004KT CAVOK TX28/1515Z TN13/1607Z"
    },
    {
      "icao": "LFBD",
      "alert": "OK",
      "vis_m": 9999,
      "fzfg": false,
      "metar_trigger": false,
      "taf_trigger": false,
      "metar": "METAR LFBD 151200Z AUTO 23007KT 180V270 9999 FEW019 SCT039 BKN082 19/13 Q1022 TEMPO 4000 -SHRA BKN025TCU",
      "taf": "TAF LFBD 151100Z 1512/1618 VRB03KT 9999 BKN015 TX23/1615Z TN08/1605Z"
    },
    {
      "icao": "LFLL",
      "alert": "OK",
      "vis_m": 9999,
      "fzfg": false,
      "metar_trigger": false,
      "taf_trigger": false,
      "metar": "METAR LFLL 151200Z 36006KT 310V050 9999 SCT032 16/08 Q1021 NOSIG",
      "taf": "TAF LFLL 151100Z 1512/1618 36010KT 9999 FEW030"
    },
    {
      "icao": "LFLS",
      "alert": "OK",
      "vis_m": 9999,
      "fzfg": false,
      "metar_trigger": false,
      "taf_trigger": false,
      "metar": "METAR LFLS 151200Z AUTO 02004KT 320V070 9999 BKN035 14/07 Q1021 NOSIG",
      "taf": "TAF LFLS 150800Z 1509/1609 VRB02KT 9999 BKN030"
    },
    {
      "icao": "LFMN",
      "alert": "OK",
      "vis_m": 9999,
      "fzfg": false,
      "metar_trigger": false,
      "taf_trigger": false,
      "metar": "METAR LFMN 151200Z 18005KT CAVOK 20/14 Q1017 NOSIG",
      "taf": "TAF LFMN 150800Z 1509/1615 19010KT CAVOK"
    },
    {
      "icao": "LFOB",
      "alert": "OK",
      "vis_m": 9999,
      "fzfg": false,
      "metar_trigger": false,
      "taf_trigger": false,
      "metar": "METAR LFOB 151200Z AUTO 18012KT 9999 OVC030 15/09 Q1019 TEMPO 4500 -SHRA SCT008 SCT030TCU",
      "taf": "TAF LFOB 151100Z 1512/1612 19012KT CAVOK"
    },
    {
      "icao": "LFPO",
      "alert": "OK",
      "vis_m": 9999,
      "fzfg": false,
      "metar_trigger": false,
      "taf_trigger": false,
      "metar": "METAR LFPO 151200Z 20011KT 9999 BKN043 18/05 Q1020 NOSIG",
      "taf": "TAF LFPO 151100Z 1512/1618 21010KT 9999 BKN030"
    },
    {
      "icao": "LFSB",
      "alert": "OK",
      "vis_m": 9999,
      "fzfg": false,
      "metar_trigger": false,
      "taf_trigger": false,
      "metar": "METAR LFSB 151200Z AUTO 02004KT 330V070 9999 OVC039 13/07 Q1022 NOSIG",
      "taf": "TAF LFSB 150500Z 1506/1606 31005KT 8000 BKN035"
    },
    {
      "icao": "LGAV",
      "alert": "OK",
      "vis_m": 9999,
      "fzfg": false,
      "metar_trigger": false,
      "taf_trigger": false,
      "metar": "METAR LGAV 151150Z 03013KT 9999 FEW025 BKN070 19/13 Q1018 NOSIG",
      "taf": "TAF LGAV 151100Z 1512/1612 04016KT 9999 FEW020 SCT070"
    },
    {
      "icao": "LGTS",
      "alert": "OK",
      "vis_m": 9999,
      "fzfg": false,
      "metar_trigger": false,
      "taf_trigger": false,
      "metar": "METAR LGTS 151150Z 28005KT 9999 FEW025 17/11 Q1020 NOSIG",
      "taf": "TAF LGTS 151100Z 1512/1612 VRB03KT 9999 SCT025"
    },
    {
      "icao": "LHBP",
      "alert": "OK",
      "vis_m": 9999,
      "fzfg": false,
      "metar_trigger": false,
      "taf_trigger": false,
      "metar": "METAR LHBP 151200Z 03003KT 320V090 9999 FEW046 BKN094 19/07 Q1021 NOSIG",
      "taf": "TAF LHBP 151115Z 1512/1612 VRB03KT CAVOK"
    },
    {
      "icao": "LHDC",
      "alert": "OK",
      "vis_m": 9999,
      "fzfg": false,
      "metar_trigger": false,
      "taf_trigger": false,
      "metar": "METAR LHDC 151145Z AUTO 34007KT 290V080 CAVOK 20/05 Q1020 NOSIG",
      "taf": "TAF LHDC 151115Z 1512/1521 01006KT CAVOK"
    },
    {
      "icao": "LIBD",
      "alert": "OK",
      "vis_m": 7000,
      "fzfg": false,
      "metar_trigger": false,
      "taf_trigger": false,
      "metar": "METAR LIBD 151150Z 05005KT 010V090 7000 FEW005 17/16 Q1016",
      "taf": "TAF LIBD 151100Z 1512/1612 10012KT 7000 SCT020"
    },
    {
      "icao": "LIBG",
      "alert": "OK",
      "vis_m": 9999,
      "fzfg": false,
      "metar_trigger": false,
      "taf_trigger": false,
      "metar": "METAR LIBG 151050Z 14006KT 110V180 9999 FEW030 20/15 Q1015",
      "taf": "TAF LIBG 151100Z 1512/1521 13008KT 9999 SCT030"
    },
    {
      "icao": "LIBP",
      "alert": "OK",
      "vis_m": 9999,
      "fzfg": false,
      "metar_trigger": false,
      "taf_trigger": false,
      "metar": "METAR LIBP 151150Z AUTO 01005KT 340V040 9999 -RA OVC008/// 16/15 Q1016",
      "taf": "TAF LIBP 151100Z 1512/1612 08010KT 9999 BKN015"
    },
    {
      "icao": "LIBR",
      "alert": "OK",
      "vis_m": 9999,
      "fzfg": false,
      "metar_trigger": false,
      "taf_trigger": false,
      "metar": "METAR LIBR 151150Z 08005KT CAVOK 17/15 Q1016",
      "taf": "TAF LIBR 151100Z 1512/1612 09011KT 9999 SCT030"
    },
    {
      "icao": "LICA",
      "alert": "OK",
      "vis_m": 9999,
      "fzfg": false,
      "metar_trigger": false,
      "taf_trigger": false,
      "metar": "METAR LICA 151150Z AUTO 08025KT 9999 FEW020/// 20/15 Q1011",
      "taf": "TAF LICA 151100Z 1512/1612 08022G32KT 9999 SCT030"
    },
    {
      "icao": "LICC",
      "alert": "OK",
      "vis_m": 6000,
      "fzfg": false,
      "metar_trigger": false,
      "taf_trigger": false,
      "metar": "METAR LICC 151150Z 08012KT 6000 FEW005 BKN015 19/16 Q1010",
      "taf": "TAF LICC 151100Z 1512/1612 07013KT 7000 SCT015 BKN030"
    },
    {
      "icao": "LICJ",
      "alert": "OK",
      "vis_m": 9999,
      "fzfg": false,
      "metar_trigger": false,
      "taf_trigger": false,
      "metar": "METAR LICJ 151150Z AUTO 23009KT 9999 BKN098/// 15/13 Q1010",
      "taf": "TAF LICJ 151100Z 1512/1612 23010KT 9999 BKN020"
    },
    {
      "icao": "LIMC",
      "alert": "OK",
      "vis_m": 9999,
      "fzfg": false,
      "metar_trigger": false,
      "taf_trigger": false,
      "metar": "METAR LIMC 151150Z VRB04KT 9999 FEW030 20/12 Q1019 NOSIG",
      "taf": "TAF LIMC 151100Z 1512/1618 VRB05KT 9999 SCT030"
    },
    {
      "icao": "LIME",
      "alert": "OK",
      "vis_m": 9999,
      "fzfg": false,
      "metar_trigger": false,
      "taf_trigger": false,
      "metar": "METAR LIME 151150Z VRB04KT 9999 SCT020 19/12 Q1019 NOSIG",
      "taf": "TAF LIME 151100Z 1512/1612 VRB05KT 7000 BKN030"
    },
    {
      "icao": "LIMF",
      "alert": "OK",
      "vis_m": 9999,
      "fzfg": false,
      "metar_trigger": false,
      "taf_trigger": false,
      "metar": "METAR LIMF 151150Z 16004KT 100V200 9999 SCT025 19/12 Q1019",
      "taf": "TAF LIMF 151100Z 1512/1612 VRB05KT 8000 SCT040"
    },
    {
      "icao": "LIMJ",
      "alert": "OK",
      "vis_m": 9999,
      "fzfg": false,
      "metar_trigger": false,
      "taf_trigger": false,
      "metar": "METAR LIMJ 151150Z 36015KT 330V030 9999 FEW028 23/10 Q1016",
      "taf": "TAF LIMJ 151100Z 1512/1612 02014KT 9999 SCT060"
    },
    {
      "icao": "LIPE",
      "alert": "OK",
      "vis_m": 7000,
      "fzfg": false,
      "metar_trigger": false,
      "taf_trigger": false,
      "metar": "METAR LIPE 151150Z 25006KT 7000 FEW010 BKN025 15/14 Q1019",
      "taf": "TAF LIPE 151100Z 1512/1612 VRB05KT 7000 BKN015"
    },
    {
      "icao": "LIPH",
      "alert": "OK",
      "vis_m": 9999,
      "fzfg": false,
      "metar_trigger": false,
      "taf_trigger": false,
      "metar": "METAR LIPH 151150Z 09010KT 9999 SCT080 20/12 Q1019",
      "taf": "TAF LIPH 151100Z 1512/1612 VRB05KT 9999 SCT050"
    },
    {
      "icao": "LIPQ",
      "alert": "OK",
      "vis_m": 9999,
      "fzfg": false,
      "metar_trigger": false,
      "taf_trigger": false,
      "metar": "METAR LIPQ 151150Z AUTO 10009KT 050V120 9999 SCT081/// BKN110/// 21/10 Q1019",
      "taf": "TAF LIPQ 151100Z 1512/1612 10012KT 9999 SCT070"
    },
    {
      "icao": "LIPR",
      "alert": "OK",
      "vis_m": 9999,
      "fzfg": false,
      "metar_trigger": false,
      "taf_trigger": false,
      "metar": "METAR LIPR 151150Z 34007KT 9999 FEW010 BKN030 15/14 Q1018",
      "taf": "TAF LIPR 151100Z 1512/1612 05010KT 6000 BKN030"
    },
    {
      "icao": "LIPX",
      "alert": "OK",
      "vis_m": 9999,
      "fzfg": false,
      "metar_trigger": false,
      "taf_trigger": false,
      "metar": "METAR LIPX 151150Z 11007KT 070V150 9999 SCT035 21/11 Q1019",
      "taf": "TAF LIPX 151100Z 1512/1612 VRB05KT 7000 BKN050"
    },
    {
      "icao": "LIPY",
      "alert": "OK",
      "vis_m": 9999,
      "fzfg": false,
      "metar_trigger": false,
      "taf_trigger": false,
      "metar": "METAR LIPY 151150Z AUTO 02008KT 9999 OVC010/// 16/15 Q1017",
      "taf": "TAF LIPY 151100Z 1512/1612 06010KT 9999 BKN020"
    },
    {
      "icao": "LIPZ",
      "alert": "OK",
      "vis_m": 9999,
      "fzfg": false,
      "metar_trigger": false,
      "taf_trigger": false,
      "metar": "METAR LIPZ 151150Z 07009KT CAVOK 19/12 Q1019 NOSIG",
      "taf": "TAF LIPZ 151100Z 1512/1618 12007KT 9999 SCT040"
    },
    {
      "icao": "LIRF",
      "alert": "OK",
      "vis_m": 9999,
      "fzfg": false,
      "metar_trigger": false,
      "taf_trigger": false,
      "metar": "METAR LIRF 151150Z 27011KT 9999 SCT055 20/15 Q1012 NOSIG",
      "taf": "TAF LIRF 151100Z 1512/1618 27012KT 9999 SCT030"
    },
    {
      "icao": "LIRN",
      "alert": "OK",
      "vis_m": 9999,
      "fzfg": false,
      "metar_trigger": false,
      "taf_trigger": false,
      "metar": "METAR LIRN 151150Z 06011KT 030V100 9999 BKN060 24/11 Q1012 NOSIG",
      "taf": "TAF LIRN 151100Z 1512/1612 04010KT 9999 SCT040"
    },
    {
      "icao": "LIRP",
      "alert": "OK",
      "vis_m": 9999,
      "fzfg": false,
      "metar_trigger": false,
      "taf_trigger": false,
      "metar": "METAR LIRP 151145Z 08011KT 9999 FEW040 SCT080 24/11 Q1015 NOSIG",
      "taf": "TAF LIRP 151100Z 1512/1612 07012KT 9999 FEW030 SCT060"
    },
    {
      "icao": "LIRZ",
      "alert": "OK",
      "vis_m": 9999,
      "fzfg": false,
      "metar_trigger": false,
      "taf_trigger": false,
      "metar": "METAR LIRZ 151150Z AUTO 03015KT 9999 FEW079/// 18/14 Q1015",
      "taf": "TAF LIRZ 151100Z 1512/1612 03014KT 9999 SCT040"
    },
    {
      "icao": "LJLJ",
      "alert": "OK",
      "vis_m": 9999,
      "fzfg": false,
      "metar_trigger": false,
      "taf_trigger": false,
      "metar": "METAR LJLJ 151130Z 00000KT 9999 SCT011 BKN022 13/10 Q1022 NOSIG",
      "taf": "TAF LJLJ 151100Z 1512/1612 VRB02KT 9999 SCT013 BKN045"
    },
    {
      "icao": "LKMT",
      "alert": "OK",
      "vis_m": 9000,
      "fzfg": false,
      "metar_trigger": false,
      "taf_trigger": false,
      "metar": "METAR LKMT 151200Z 04004KT 360V070 9000 SCT022 OVC042 11/08 Q1023 NOSIG",
      "taf": "TAF LKMT 151100Z 1512/1612 03006KT 9999 BKN020"
    },
    {
      "icao": "LKPR",
      "alert": "OK",
      "vis_m": 9999,
      "fzfg": false,
      "metar_trigger": false,
      "taf_trigger": false,
      "metar": "METAR LKPR 151200Z VRB03KT 9999 FEW023 BKN047 12/07 Q1023 NOSIG",
      "taf": "TAF LKPR 151100Z 1512/1618 36008KT 9000 BKN040"
    },
    {
      "icao": "LLBG",
      "alert": "OK",
      "vis_m": 9999,
      "fzfg": false,
      "metar_trigger": false,
      "taf_trigger": false,
      "metar": "METAR LLBG 151150Z 10013KT CAVOK 35/05 Q1010 NOSIG",
      "taf": "TAF LLBG 151100Z 1512/1612 12007KT CAVOK TX35/1512Z TN25/1604Z"
    },
    {
      "icao": "LMML",
      "alert": "OK",
      "vis_m": 9999,
      "fzfg": false,
      "metar_trigger": false,
      "taf_trigger": false,
      "metar": "METAR LMML 151145Z 23012KT 9999 FEW019 19/13 Q1011 NOSIG",
      "taf": "TAF LMML 151100Z 1512/1612 26014KT 9999 SCT020"
    },
    {
      "icao": "LOWW",
      "alert": "OK",
      "vis_m": 9999,
      "fzfg": false,
      "metar_trigger": false,
      "taf_trigger": false,
      "metar": "METAR LOWW 151150Z 03008KT 360V060 9999 FEW030 BKN034 17/09 Q1022 NOSIG",
      "taf": "TAF LOWW 151115Z 1512/1618 34007KT 9999 BKN040 TX19/1614Z TN09/1604Z"
    },
    {
      "icao": "LPFR",
      "alert": "OK",
      "vis_m": 9999,
      "fzfg": false,
      "metar_trigger": false,
      "taf_trigger": false,
      "metar": "METAR LPFR 151130Z 18008KT CAVOK 20/13 Q1023",
      "taf": "TAF LPFR 151100Z 1512/1612 19008KT CAVOK"
    },
    {
      "icao": "LPMA",
      "alert": "OK",
      "vis_m": 9999,
      "fzfg": false,
      "metar_trigger": false,
      "taf_trigger": false,
      "metar": "METAR LPMA 151130Z 03020KT 9999 SCT015 17/12 Q1024",
      "taf": "TAF LPMA 151100Z 1512/1612 02015KT 9999 SCT016"
    },
    {
      "icao": "LPPR",
      "alert": "OK",
      "vis_m": 9999,
      "fzfg": false,
      "metar_trigger": false,
      "taf_trigger": false,
      "metar": "METAR LPPR 151130Z 24006KT 210V300 9999 SCT021 17/11 Q1025",
      "taf": "TAF LPPR 151100Z 1512/1612 21008KT 9999 SCT020"
    },
    {
      "icao": "LPPS",
      "alert": "OK",
      "vis_m": 9999,
      "fzfg": false,
      "metar_trigger": false,
      "taf_trigger": false,
      "metar": "METAR LPPS 151130Z 06011KT 020V090 9999 SCT014 BKN030 16/12 Q1025",
      "taf": "TAF LPPS 151100Z 1512/1618 04012KT 9999 FEW015 BKN030"
    },
    {
      "icao": "LPPT",
      "alert": "OK",
      "vis_m": 9999,
      "fzfg": false,
      "metar_trigger": false,
      "taf_trigger": false,
      "metar": "METAR LPPT 151130Z 32007KT 280V010 9999 FEW018 BKN025 17/12 Q1025",
      "taf": "TAF LPPT 151100Z 1512/1618 33008KT 9999 BKN025"
    },
    {
      "icao": "LQBK",
      "alert": "OK",
      "vis_m": 9999,
      "fzfg": false,
      "metar_trigger": false,
      "taf_trigger": false,
      "metar": "METAR LQBK 151200Z VRB02KT 9999 SCT017 OVC045 15/10 Q1021 NOSIG",
      "taf": "TAF LQBK 151100Z 1512/1612 32005KT 9999 SCT020 BKN045 TX19/1612Z TN11/1604Z"
    },
    {
      "icao": "LQSA",
      "alert": "OK",
      "vis_m": 9999,
      "fzfg": false,
      "metar_trigger": false,
      "taf_trigger": false,
      "metar": "METAR LQSA 151200Z 33009KT 290V010 9999 FEW030TCU BKN045 18/10 Q1017 TEMPO TSRA FEW030CB BKN040",
      "taf": "TAF LQSA 151100Z 1512/1612 VRB02KT 9999 BKN050 TX21/1513Z TN10/1604Z"
    },
    {
      "icao": "LQTZ",
      "alert": "OK",
      "vis_m": 9999,
      "fzfg": false,
      "metar_trigger": false,
      "taf_trigger": false,
      "metar": "METAR LQTZ 151200Z 27006KT 230V330 9999 BKN035 17/11 Q1020",
      "taf": "TAF LQTZ 151100Z 1512/1612 33005KT 9999 SCT040 TX19/1513Z TN08/1604Z"
    },
    {
      "icao": "LRBC",
      "alert": "OK",
      "vis_m": 9999,
      "fzfg": false,
      "metar_trigger": false,
      "taf_trigger": false,
      "metar": "METAR LRBC 151130Z 18009KT CAVOK 18/04 Q1021",
      "taf": "TAF LRBC 151100Z 1512/1521 17010KT CAVOK"
    },
    {
      "icao": "LRBS",
      "alert": "OK",
      "vis_m": 9999,
      "fzfg": false,
      "metar_trigger": false,
      "taf_trigger": false,
      "metar": "METAR LRBS 151130Z VRB05KT CAVOK 17/07 Q1021 NOSIG",
      "taf": "TAF LRBS 151100Z 1512/1612 07006KT CAVOK"
    },
    {
      "icao": "LRBV",
      "alert": "OK",
      "vis_m": 9999,
      "fzfg": false,
      "metar_trigger": false,
      "taf_trigger": false,
      "metar": "METAR LRBV 151130Z VRB04KT CAVOK 19/03 Q1019",
      "taf": "TAF LRBV 151100Z 1512/1521 VRB04KT CAVOK"
    },
    {
      "icao": "LRCL",
      "alert": "OK",
      "vis_m": 9999,
      "fzfg": false,
      "metar_trigger": false,
      "taf_trigger": false,
      "metar": "METAR LRCL 151130Z VRB01KT CAVOK 19/04 Q1020",
      "taf": "TAF LRCL 151100Z 1512/1521 VRB04KT CAVOK"
    },
    {
      "icao": "LRCV",
      "alert": "OK",
      "vis_m": 9999,
      "fzfg": false,
      "metar_trigger": false,
      "taf_trigger": false,
      "metar": "METAR LRCV 151130Z 14006KT 110V170 CAVOK 17/07 Q1021",
      "taf": "TAF LRCV 151100Z 1512/1521 09006KT CAVOK"
    },
    {
      "icao": "LRIA",
      "alert": "OK",
      "vis_m": 9999,
      "fzfg": false,
      "metar_trigger": false,
      "taf_trigger": false,
      "metar": "METAR LRIA 151130Z VRB04KT CAVOK 17/02 Q1021",
      "taf": "TAF LRIA 151100Z 1512/1521 VRB04KT CAVOK"
    },
    {
      "icao": "LROP",
      "alert": "OK",
      "vis_m": 9999,
      "fzfg": false,
      "metar_trigger": false,
      "taf_trigger": false,
      "metar": "METAR LROP 151130Z 07005KT 020V100 CAVOK 17/05 Q1021 NOSIG",
      "taf": "TAF LROP 151100Z 1512/1612 07006KT CAVOK"
    },
    {
      "icao": "LRSB",
      "alert": "OK",
      "vis_m": 9999,
      "fzfg": false,
      "metar_trigger": false,
      "taf_trigger": false,
      "metar": "METAR LRSB 151130Z 08006KT 020V120 CAVOK 20/04 Q1019",
      "taf": "TAF LRSB 151100Z 1512/1612 VRB04KT CAVOK"
    },
    {
      "icao": "LRSM",
      "alert": "OK",
      "vis_m": 9999,
      "fzfg": false,
      "metar_trigger": false,
      "taf_trigger": false,
      "metar": "METAR LRSM 151130Z 32003KT 240V360 CAVOK 19/05 Q1020",
      "taf": "TAF LRSM 151100Z 1512/1521 VRB04KT CAVOK"
    },
    {
      "icao": "LRSV",
      "alert": "OK",
      "vis_m": 9999,
      "fzfg": false,
      "metar_trigger": false,
      "taf_trigger": false,
      "metar": "METAR LRSV 151130Z VRB06KT CAVOK 16/05 Q1021",
      "taf": "TAF LRSV 151100Z 1512/1521 11007KT CAVOK"
    },
    {
      "icao": "LRTM",
      "alert": "OK",
      "vis_m": 9999,
      "fzfg": false,
      "metar_trigger": false,
      "taf_trigger": false,
      "metar": "METAR LRTM 151130Z VRB03KT CAVOK 21/07 Q1019",
      "taf": "TAF LRTM 151100Z 1512/1521 VRB04KT CAVOK"
    },
    {
      "icao": "LRTR",
      "alert": "OK",
      "vis_m": 9999,
      "fzfg": false,
      "metar_trigger": false,
      "taf_trigger": false,
      "metar": "METAR LRTR 151130Z 02007KT 350V050 CAVOK 20/08 Q1020 NOSIG",
      "taf": "TAF LRTR 151100Z 1512/1612 36006KT CAVOK"
    },
    {
      "icao": "LTAC",
      "alert": "OK",
      "vis_m": 9999,
      "fzfg": false,
      "metar_trigger": false,
      "taf_trigger": false,
      "metar": "METAR LTAC 151150Z 22010KT 170V260 9999 FEW040 BKN180 20/05 Q1019 NOSIG RMK RWY21C 20010KT 170V270 RWY03L 24010KT RWY21R 19009KT 150V240 RWY03R 21009KT 150V240 RWY21L 22009KT 180V250",
      "taf": "TAF LTAC 151040Z 1512/1612 VRB02KT 9999 FEW040 BKN180"
    },
    {
      "icao": "LTFM",
      "alert": "OK",
      "vis_m": 9999,
      "fzfg": false,
      "metar_trigger": false,
      "taf_trigger": false,
      "metar": "METAR LTFM 151150Z 03014KT 9999 FEW012 BKN180 11/07 Q1021 NOSIG RMK RWY17L 04012KT RWY34L 03012KT RWY16R 04012KT RWY36 04014KT RWY18 05012KT",
      "taf": "TAF LTFM 151040Z 1512/1618 06013KT 9999 SCT012 BKN180"
    },
    {
      "icao": "LUKK",
      "alert": "OK",
      "vis_m": 9999,
      "fzfg": false,
      "metar_trigger": false,
      "taf_trigger": false,
      "metar": "METAR LUKK 151200Z 21007KT 150V270 CAVOK 17/M00 Q1022 NOSIG",
      "taf": "TAF LUKK 151101Z 1512/1612 18006KT CAVOK"
    },
    {
      "icao": "LWOH",
      "alert": "OK",
      "vis_m": 9999,
      "fzfg": false,
      "metar_trigger": false,
      "taf_trigger": false,
      "metar": "METAR LWOH 151150Z 18004KT 150V210 9999 BKN038 14/10 Q1019",
      "taf": "TAF LWOH 151115Z 1512/1612 19005KT 9999 FEW015 BKN035"
    },
    {
      "icao": "LWSK",
      "alert": "OK",
      "vis_m": 9999,
      "fzfg": false,
      "metar_trigger": false,
      "taf_trigger": false,
      "metar": "METAR LWSK 151156Z COR 14005KT 070V210 9999 FEW017 BKN030 18/11 Q1020 NOSIG",
      "taf": "TAF LWSK 151115Z 1512/1612 15006KT 9999 FEW020 BKN035"
    },
    {
      "icao": "LYBE",
      "alert": "OK",
      "vis_m": 9999,
      "fzfg": false,
      "metar_trigger": false,
      "taf_trigger": false,
      "metar": "METAR LYBE 151200Z 04006KT 350V090 CAVOK 19/10 Q1019 NOSIG",
      "taf": "TAF LYBE 151100Z 1512/1612 07007KT CAVOK TX22/1612Z TN11/1604Z"
    },
    {
      "icao": "LYNI",
      "alert": "OK",
      "vis_m": 9999,
      "fzfg": false,
      "metar_trigger": false,
      "taf_trigger": false,
      "metar": "METAR LYNI 151200Z 31005KT 270V040 CAVOK 23/08 Q1017 NOSIG",
      "taf": "TAF LYNI 151100Z 1512/1612 07007KT CAVOK TX23/1612Z TN11/1604Z"
    },
    {
      "icao": "LYPG",
      "alert": "OK",
      "vis_m": 9999,
      "fzfg": false,
      "metar_trigger": false,
      "taf_trigger": false,
      "metar": "METAR LYPG 151200Z 16006KT 120V200 9999 FEW046 SCT090 23/10 Q1015 NOSIG",
      "taf": "TAF LYPG 151100Z 1512/1612 16005KT 9999 FEW040 BKN090 TX24/1512Z TN13/1604Z"
    },
    {
      "icao": "LZIB",
      "alert": "OK",
      "vis_m": 9999,
      "fzfg": false,
      "metar_trigger": false,
      "taf_trigger": false,
      "metar": "METAR LZIB 151200Z VRB03KT 9999 FEW037 SCT039 18/09 Q1021 NOSIG",
      "taf": "TAF LZIB 151115Z 1512/1612 33008KT CAVOK"
    },
    {
      "icao": "LZKZ",
      "alert": "OK",
      "vis_m": 9999,
      "fzfg": false,
      "metar_trigger": false,
      "taf_trigger": false,
      "metar": "METAR LZKZ 151200Z 03004KT 340V090 9999 FEW045 18/06 Q1021 NOSIG",
      "taf": "TAF LZKZ 151115Z 1512/1612 01008KT CAVOK"
    },
    {
      "icao": "LZTT",
      "alert": "OK",
      "vis_m": 9999,
      "fzfg": false,
      "metar_trigger": false,
      "taf_trigger": false,
      "metar": "METAR LZTT 151200Z VRB01KT 9999 SCT033 OVC043 13/06 Q1021 NOSIG",
      "taf": "TAF LZTT 151115Z 1512/1612 VRB02KT 9999 BKN040"
    },
    {
      "icao": "OEJN",
      "alert": "OK",
      "vis_m": 9999,
      "fzfg": false,
      "metar_trigger": false,
      "taf_trigger": false,
      "metar": "METAR OEJN 151100Z 22010KT CAVOK 35/16 Q1007 NOSIG",
      "taf": "TAF OEJN 151100Z 1512/1618 20010KT 7000 NSC"
    },
    {
      "icao": "OEMA",
      "alert": "OK",
      "vis_m": 9999,
      "fzfg": false,
      "metar_trigger": false,
      "taf_trigger": false,
      "metar": "METAR OEMA 151100Z 11011KT 9999 FEW035 BKN200 31/13 Q1015 NOSIG",
      "taf": "TAF OEMA 151100Z 1512/1618 12015KT 7000 SCT040"
    },
    {
      "icao": "OJAI",
      "alert": "OK",
      "vis_m": null,
      "fzfg": false,
      "metar_trigger": false,
      "taf_trigger": false,
      "metar": "",
      "taf": "TAF OJAI 151100Z 1512/1618 13010KT 4000 DU NSC"
    },
    {
      "icao": "OMAA",
      "alert": "OK",
      "vis_m": null,
      "fzfg": false,
      "metar_trigger": false,
      "taf_trigger": false,
      "metar": "",
      "taf": ""
    },
    {
      "icao": "OMDB",
      "alert": "OK",
      "vis_m": null,
      "fzfg": false,
      "metar_trigger": false,
      "taf_trigger": false,
      "metar": "",
      "taf": ""
    },
    {
      "icao": "UAAA",
      "alert": "OK",
      "vis_m": 9999,
      "fzfg": false,
      "metar_trigger": false,
      "taf_trigger": false,
      "metar": "METAR UAAA 151130Z 22004MPS 9999 FEW050 BKN200 25/00 Q1011 NOSIG",
      "taf": "TAF UAAA 151105Z 1512/1612 20003G08MPS 9999 SCT050CB BKN100 TX18/1609Z TN08/1601Z"
    },
    {
      "icao": "UBBB",
      "alert": "OK",
      "vis_m": 9999,
      "fzfg": false,
      "metar_trigger": false,
      "taf_trigger": false,
      "metar": "METAR UBBB 151200Z 09008KT 060V130 9999 BKN036 13/03 Q1021 NOSIG",
      "taf": "TAF UBBB 151048Z 1512/1612 36006KT 9999 BKN030 TX14/1512Z TN06/1600Z"
    },
    {
      "icao": "UDSG",
      "alert": "OK",
      "vis_m": 9999,
      "fzfg": false,
      "metar_trigger": false,
      "taf_trigger": false,
      "metar": "METAR UDSG 151130Z 20003KT 9999 NSC 08/M10 Q1021 NOSIG",
      "taf": "TAF UDSG 151100Z 1512/1612 VRB06KT 9999 FEW050"
    },
    {
      "icao": "UDYZ",
      "alert": "OK",
      "vis_m": 9999,
      "fzfg": false,
      "metar_trigger": false,
      "taf_trigger": false,
      "metar": "METAR UDYZ 151130Z VRB03KT 9999 FEW046 13/M06 Q1021 NOSIG",
      "taf": "TAF UDYZ 151100Z 1512/1612 23006KT 9999 FEW040"
    },
    {
      "icao": "UGKO",
      "alert": "OK",
      "vis_m": 9999,
      "fzfg": false,
      "metar_trigger": false,
      "taf_trigger": false,
      "metar": "METAR UGKO 151130Z AUTO 28011KT 250V330 CAVOK 16/01 Q1022 NOSIG",
      "taf": "TAF UGKO 151100Z 1512/1612 26007KT CAVOK TX19/1611Z TN01/1603Z"
    }
  ]
}