{
  "ts_utc": "2026-02-12T07:17:40Z",
  "threshold_m": 150,
  "source": "stations_override.txt (ICAO list) + aviationweather.gov (METAR/TAF raw)",
  "station_count": 159,
  "stations": [
    {
      "icao": "BIKF",
      "alert": "OK",
      "vis_m": 9999,
      "fzfg": false,
      "metar_trigger": false,
      "taf_trigger": false,
      "metar": "METAR BIKF 120700Z 02015KT CAVOK M04/M10 Q1006",
      "taf": "TAF BIKF 120459Z 1206/1306 07007KT CAVOK TXM04/1218Z TNM07/1209Z"
    },
    {
      "icao": "BKPR",
      "alert": "OK",
      "vis_m": 9999,
      "fzfg": false,
      "metar_trigger": false,
      "taf_trigger": false,
      "metar": "METAR BKPR 120700Z 20002KT 9999 SCT010 BKN025 05/05 Q0994 NOSIG",
      "taf": "TAF BKPR 120530Z 1206/1306 18010KT 9999 SCT020 BKN050"
    },
    {
      "icao": "EBCI",
      "alert": "OK",
      "vis_m": 3500,
      "fzfg": false,
      "metar_trigger": false,
      "taf_trigger": false,
      "metar": "METAR EBCI 120650Z 31012KT 280V340 3500 -RADZ SCT003 BKN004 07/07 Q0977 BECMG 6000 NSW",
      "taf": "TAF EBCI 120510Z 1206/1312 27009KT 7000 -RA SCT007 BKN012"
    },
    {
      "icao": "EDDB",
      "alert": "OK",
      "vis_m": 3400,
      "fzfg": false,
      "metar_trigger": false,
      "taf_trigger": false,
      "metar": "METAR EDDB 120650Z AUTO 15003KT 120V190 3400 1000 R24R/P2000N R24L/P2000N BR FEW002 SCT027 OVC046 06/06 Q0980 BECMG 6000 NSW",
      "taf": "TAF EDDB 120500Z 1206/1306 16004KT 0400 FG VV002"
    },
    {
      "icao": "EDDH",
      "alert": "OK",
      "vis_m": 5000,
      "fzfg": false,
      "metar_trigger": false,
      "taf_trigger": false,
      "metar": "METAR EDDH 120650Z AUTO 08007KT 050V110 5000 BR OVC003 02/01 Q0979 TEMPO 4000 BR",
      "taf": "TAF EDDH 120500Z 1206/1312 08008KT 4000 BR OVC003"
    },
    {
      "icao": "EDDK",
      "alert": "OK",
      "vis_m": 9999,
      "fzfg": false,
      "metar_trigger": false,
      "taf_trigger": false,
      "metar": "METAR EDDK 120650Z AUTO 15007KT 9999 SHRA FEW006 BKN027 BKN032 FEW///TCU 08/08 Q0974 TEMPO NSW BKN012",
      "taf": "TAF EDDK 120500Z 1206/1312 15009KT 9999 BKN020"
    },
    {
      "icao": "EDDN",
      "alert": "OK",
      "vis_m": 9999,
      "fzfg": false,
      "metar_trigger": false,
      "taf_trigger": false,
      "metar": "METAR EDDN 120650Z AUTO 15009KT 9999 BKN037 BKN049 05/04 Q0980 NOSIG",
      "taf": "TAF EDDN 120500Z 1206/1306 14009KT 9999 FEW014 BKN020"
    },
    {
      "icao": "EDDS",
      "alert": "OK",
      "vis_m": 9999,
      "fzfg": false,
      "metar_trigger": false,
      "taf_trigger": false,
      "metar": "METAR EDDS 120650Z AUTO 18008KT 9999 SCT032 BKN039 07/05 Q0979 NOSIG",
      "taf": "TAF EDDS 120500Z 1206/1306 18006KT 9999 BKN030"
    },
    {
      "icao": "EDFH",
      "alert": "OK",
      "vis_m": 9999,
      "fzfg": false,
      "metar_trigger": false,
      "taf_trigger": false,
      "metar": "METAR EDFH 120650Z 21014KT 9999 BKN010 BKN021 07/06 Q0975",
      "taf": "TAF EDFH 120500Z 1206/1306 20012KT 9999 BKN015"
    },
    {
      "icao": "EDJA",
      "alert": "OK",
      "vis_m": 9999,
      "fzfg": false,
      "metar_trigger": false,
      "taf_trigger": false,
      "metar": "METAR EDJA 120650Z 19006KT 9999 SCT038 05/03 Q0981",
      "taf": "TAF EDJA 120500Z 1206/1215 20006KT 9999 BKN030"
    },
    {
      "icao": "EDLW",
      "alert": "OK",
      "vis_m": 9999,
      "fzfg": false,
      "metar_trigger": false,
      "taf_trigger": false,
      "metar": "METAR EDLW 120650Z 09003KT 050V140 9999 OVC017 08/07 Q0973",
      "taf": "TAF EDLW 120500Z 1206/1306 12006KT 9999 BKN020"
    },
    {
      "icao": "EDNY",
      "alert": "OK",
      "vis_m": 9999,
      "fzfg": false,
      "metar_trigger": false,
      "taf_trigger": false,
      "metar": "METAR EDNY 120650Z VRB02KT 9999 -RA FEW021 SCT051 BKN059 05/04 Q0982",
      "taf": "TAF EDNY 120500Z 1206/1215 VRB02KT 9999 BKN035"
    },
    {
      "icao": "EDSB",
      "alert": "OK",
      "vis_m": 9999,
      "fzfg": false,
      "metar_trigger": false,
      "taf_trigger": false,
      "metar": "METAR EDSB 120650Z 20014KT 9999 SHRA FEW032 BKN038CB 10/08 Q0979",
      "taf": "TAF EDSB 120500Z 1206/1306 21012KT 9999 BKN035"
    },
    {
      "icao": "EETN",
      "alert": "OK",
      "vis_m": 9999,
      "fzfg": false,
      "metar_trigger": false,
      "taf_trigger": false,
      "metar": "METAR EETN 120650Z 09008KT CAVOK M09/M12 Q0992 NOSIG",
      "taf": "TAF EETN 120530Z 1206/1306 09008KT 9999 BKN045"
    },
    {
      "icao": "EFTU",
      "alert": "OK",
      "vis_m": 9999,
      "fzfg": false,
      "metar_trigger": false,
      "taf_trigger": false,
      "metar": "METAR EFTU 120650Z AUTO 04007KT 010V070 9999 BKN012 M11/M13 Q0993",
      "taf": ""
    },
    {
      "icao": "EGBB",
      "alert": "OK",
      "vis_m": 9999,
      "fzfg": false,
      "metar_trigger": false,
      "taf_trigger": false,
      "metar": "METAR EGBB 120650Z 25006KT 9999 FEW020 BKN036 05/04 Q0980",
      "taf": "TAF EGBB 120502Z 1206/1306 28006KT 9999 FEW020"
    },
    {
      "icao": "EGGP",
      "alert": "OK",
      "vis_m": 9999,
      "fzfg": false,
      "metar_trigger": false,
      "taf_trigger": false,
      "metar": "METAR EGGP 120650Z 04007KT 360V160 9999 SCT019 OVC026 05/04 Q0981",
      "taf": ""
    },
    {
      "icao": "EGGW",
      "alert": "OK",
      "vis_m": 9999,
      "fzfg": false,
      "metar_trigger": false,
      "taf_trigger": false,
      "metar": "METAR EGGW 120650Z AUTO 26009KT 9999 NCD 06/05 Q0980",
      "taf": "TAF EGGW 120453Z 1206/1306 27004KT 9999 SCT020"
    },
    {
      "icao": "EGKK",
      "alert": "OK",
      "vis_m": 9999,
      "fzfg": false,
      "metar_trigger": false,
      "taf_trigger": false,
      "metar": "METAR EGKK 120650Z 23005KT 9999 FEW046 07/06 Q0981",
      "taf": "TAF EGKK 120455Z 1206/1312 VRB03KT 9999 SCT030"
    },
    {
      "icao": "EGNM",
      "alert": "OK",
      "vis_m": 8000,
      "fzfg": false,
      "metar_trigger": false,
      "taf_trigger": false,
      "metar": "METAR EGNM 120650Z 01015KT 8000 -DZ OVC003 03/03 Q0980",
      "taf": "TAF EGNM 120454Z 1206/1306 36015KT 9999 FEW004 BKN010"
    },
    {
      "icao": "EGPD",
      "alert": "OK",
      "vis_m": 9999,
      "fzfg": false,
      "metar_trigger": false,
      "taf_trigger": false,
      "metar": "METAR EGPD 120650Z AUTO 02007KT 9999 OVC026 02/M01 Q0989 TEMPO BKN012",
      "taf": ""
    },
    {
      "icao": "EGPF",
      "alert": "OK",
      "vis_m": 9999,
      "fzfg": false,
      "metar_trigger": false,
      "taf_trigger": false,
      "metar": "METAR EGPF 120650Z AUTO 06011KT 9999 BKN021 BKN029 BKN038 03/00 Q0987",
      "taf": "TAF EGPF 120458Z 1206/1306 07013KT 9999 BKN025"
    },
    {
      "icao": "EHBK",
      "alert": "OK",
      "vis_m": 4600,
      "fzfg": false,
      "metar_trigger": false,
      "taf_trigger": false,
      "metar": "METAR EHBK 120655Z AUTO 24007KT 190V270 4600 -RADZ BKN001/// OVC002/// 09/09 Q0974 TEMPO 1200",
      "taf": "TAF EHBK 120505Z 1206/1312 21008KT 6000 -RADZ BKN018"
    },
    {
      "icao": "EHEH",
      "alert": "OK",
      "vis_m": 4700,
      "fzfg": false,
      "metar_trigger": false,
      "taf_trigger": false,
      "metar": "METAR EHEH 120655Z AUTO 34008KT 310V010 4700 -RA SCT003 BKN004 BKN005 SCT015CB 08/07 Q0975 YLO TEMPO 3000 RADZ SCT002 BKN004",
      "taf": ""
    },
    {
      "icao": "EKBI",
      "alert": "OK",
      "vis_m": 4500,
      "fzfg": false,
      "metar_trigger": false,
      "taf_trigger": false,
      "metar": "METAR EKBI 120649Z 06016KT 4500 -SN DRSN OVC008 M01/M02 Q0984",
      "taf": "TAF EKBI 120527Z 1206/1306 08015KT 1200 SN BKN005"
    },
    {
      "icao": "EKCH",
      "alert": "OK",
      "vis_m": 9999,
      "fzfg": false,
      "metar_trigger": false,
      "taf_trigger": false,
      "metar": "METAR EKCH 120650Z 07016KT 9999 BKN009 00/M01 Q0985 TEMPO BKN011",
      "taf": "TAF EKCH 120527Z 1206/1306 07015KT 8000 BKN015"
    },
    {
      "icao": "ENAL",
      "alert": "OK",
      "vis_m": 9999,
      "fzfg": false,
      "metar_trigger": false,
      "taf_trigger": false,
      "metar": "METAR ENAL 120650Z 15010KT 9999 FEW048 M02/M09 Q0991",
      "taf": "TAF ENAL 120500Z 1206/1215 17008KT 9999 FEW020 BKN040"
    },
    {
      "icao": "ENBR",
      "alert": "OK",
      "vis_m": 9999,
      "fzfg": false,
      "metar_trigger": false,
      "taf_trigger": false,
      "metar": "METAR ENBR 120650Z 07003KT 9999 SCT037 M04/M10 Q0991 NOSIG RMK WIND 1200FT 12005KT",
      "taf": "TAF ENBR 120500Z 1206/1306 VRB03KT 9999 FEW020 BKN040"
    },
    {
      "icao": "ENGM",
      "alert": "OK",
      "vis_m": 9999,
      "fzfg": false,
      "metar_trigger": false,
      "taf_trigger": false,
      "metar": "METAR ENGM 120650Z 36005KT CAVOK M11/M15 Q0993 NOSIG",
      "taf": "TAF ENGM 120500Z 1206/1306 01006KT 9999 BKN040"
    },
    {
      "icao": "ENHD",
      "alert": "OK",
      "vis_m": 9999,
      "fzfg": false,
      "metar_trigger": false,
      "taf_trigger": false,
      "metar": "METAR ENHD 120650Z 10007KT 9999 SCT047 M02/M09 Q0991",
      "taf": "TAF ENHD 120500Z 1206/1215 11008KT 9999 FEW025 BKN040"
    },
    {
      "icao": "ENTC",
      "alert": "OK",
      "vis_m": 9999,
      "fzfg": false,
      "metar_trigger": false,
      "taf_trigger": false,
      "metar": "METAR ENTC 120650Z 23007KT 9999 FEW020 SCT024 BKN034 M08/M12 Q0994 NOSIG RMK WIND 2600FT 29012KT",
      "taf": "TAF ENTC 120500Z 1206/1306 21008KT 9999 SCT050"
    },
    {
      "icao": "ENTO",
      "alert": "OK",
      "vis_m": 9999,
      "fzfg": false,
      "metar_trigger": false,
      "taf_trigger": false,
      "metar": "METAR ENTO 120650Z 03005KT 9999 BKN040 M08/M13 Q0993 NOSIG",
      "taf": "TAF ENTO 120500Z 1206/1306 04008KT 9999 FEW015 BKN040"
    },
    {
      "icao": "ENVA",
      "alert": "OK",
      "vis_m": 9999,
      "fzfg": false,
      "metar_trigger": false,
      "taf_trigger": false,
      "metar": "METAR ENVA 120650Z 07007KT 030V090 CAVOK M11/M16 Q0994 NOSIG RMK WIND 670FT 13016KT",
      "taf": "TAF ENVA 120500Z 1206/1306 12008KT CAVOK"
    },
    {
      "icao": "ENZV",
      "alert": "OK",
      "vis_m": 9999,
      "fzfg": false,
      "metar_trigger": false,
      "taf_trigger": false,
      "metar": "METAR ENZV 120650Z 12006KT 9999 FEW044 M04/M10 Q0991 NOSIG",
      "taf": "TAF ENZV 120500Z 1206/1306 10005KT 9999 FEW020 BKN040"
    },
    {
      "icao": "EPGD",
      "alert": "OK",
      "vis_m": 200,
      "fzfg": true,
      "metar_trigger": false,
      "taf_trigger": false,
      "metar": "METAR EPGD 120700Z 05005KT 030V090 0200 R29/0450N -SN FZFG VV001 M00/M00 Q0984",
      "taf": "TAF EPGD 120530Z 1206/1306 07008KT 0800 FG OVC002"
    },
    {
      "icao": "EPKK",
      "alert": "OK",
      "vis_m": 9999,
      "fzfg": false,
      "metar_trigger": false,
      "taf_trigger": false,
      "metar": "METAR EPKK 120700Z 23002KT 9999 FEW028 BKN045 04/03 Q0985",
      "taf": "TAF EPKK 120530Z 1206/1306 24004KT 9999 BKN025"
    },
    {
      "icao": "EPKT",
      "alert": "OK",
      "vis_m": 9999,
      "fzfg": false,
      "metar_trigger": false,
      "taf_trigger": false,
      "metar": "METAR EPKT 120700Z 20008KT 9999 FEW007 BKN033 06/05 Q0984",
      "taf": "TAF EPKT 120530Z 1206/1306 22012KT 9999 OVC025"
    },
    {
      "icao": "EPLB",
      "alert": "OK",
      "vis_m": 7000,
      "fzfg": false,
      "metar_trigger": false,
      "taf_trigger": false,
      "metar": "METAR EPLB 120700Z 21007KT 7000 -RA OVC020 03/03 Q0985",
      "taf": "TAF EPLB 120530Z 1206/1306 21008KT 9999 -RA OVC018"
    },
    {
      "icao": "EPMO",
      "alert": "OK",
      "vis_m": 1800,
      "fzfg": false,
      "metar_trigger": false,
      "taf_trigger": false,
      "metar": "METAR EPMO 120700Z 12004KT 1800 BR OVC004 02/02 Q0984",
      "taf": "TAF EPMO 120530Z 1206/1306 09003KT 2000 BR OVC005"
    },
    {
      "icao": "EPPO",
      "alert": "OK",
      "vis_m": 550,
      "fzfg": false,
      "metar_trigger": false,
      "taf_trigger": false,
      "metar": "METAR EPPO 120700Z 12005KT 0550 R28/1400U FG VV002 03/02 Q0982",
      "taf": ""
    },
    {
      "icao": "EPRA",
      "alert": "OK",
      "vis_m": 3000,
      "fzfg": false,
      "metar_trigger": false,
      "taf_trigger": false,
      "metar": "METAR EPRA 120700Z 18006KT 3000 -DZ BR SCT007 OVC013 03/02 Q0984",
      "taf": ""
    },
    {
      "icao": "EPRZ",
      "alert": "OK",
      "vis_m": 9999,
      "fzfg": false,
      "metar_trigger": false,
      "taf_trigger": false,
      "metar": "METAR EPRZ 120700Z 19010KT 9999 -RA BKN036 06/04 Q0986",
      "taf": "TAF EPRZ 120530Z 1206/1306 20012KT 9999 BKN035"
    },
    {
      "icao": "EPSC",
      "alert": "OK",
      "vis_m": 2700,
      "fzfg": false,
      "metar_trigger": false,
      "taf_trigger": false,
      "metar": "METAR EPSC 120700Z 06005KT 2700 BR FEW001 BKN012 02/02 Q0981",
      "taf": "TAF EPSC 120530Z 1206/1306 07007KT 2300 -RA BR OVC002"
    },
    {
      "icao": "EPSY",
      "alert": "OK",
      "vis_m": 1700,
      "fzfg": false,
      "metar_trigger": false,
      "taf_trigger": false,
      "metar": "METAR EPSY 120700Z VRB01KT 1700 BR OVC017 01/01 Q0983",
      "taf": "TAF EPSY 120530Z 1206/1215 VRB02KT 5000 BR BKN030"
    },
    {
      "icao": "EPWA",
      "alert": "OK",
      "vis_m": 1600,
      "fzfg": false,
      "metar_trigger": false,
      "taf_trigger": false,
      "metar": "METAR EPWA 120700Z 16004KT 1600 -DZ BR OVC002 02/02 Q0984 TEMPO 1200 BR",
      "taf": "TAF EPWA 120530Z 1206/1306 14005KT 6000 BKN010"
    },
    {
      "icao": "EPWR",
      "alert": "OK",
      "vis_m": 9999,
      "fzfg": false,
      "metar_trigger": false,
      "taf_trigger": false,
      "metar": "METAR EPWR 120700Z 16004KT 9999 BKN023 06/05 Q0982",
      "taf": "TAF EPWR 120530Z 1206/1306 18006KT 9999 SCT005 BKN019"
    },
    {
      "icao": "ESGG",
      "alert": "OK",
      "vis_m": 9999,
      "fzfg": false,
      "metar_trigger": false,
      "taf_trigger": false,
      "metar": "METAR ESGG 120650Z 03011KT 9999 BKN009 OVC034 M05/M07 Q0989",
      "taf": "TAF ESGG 120530Z 1206/1306 04011KT 9999 BKN035"
    },
    {
      "icao": "ESKN",
      "alert": "OK",
      "vis_m": 9999,
      "fzfg": false,
      "metar_trigger": false,
      "taf_trigger": false,
      "metar": "METAR ESKN 120650Z 36005KT 320V050 9999 BKN021 M07/M09 Q0992",
      "taf": "TAF ESKN 120530Z 1206/1306 01005KT 9999 -SN BKN020"
    },
    {
      "icao": "ESMS",
      "alert": "OK",
      "vis_m": 5000,
      "fzfg": false,
      "metar_trigger": false,
      "taf_trigger": false,
      "metar": "METAR ESMS 120650Z 07016KT 5000 BR OVC006 M00/M01 Q0984",
      "taf": "TAF ESMS 120527Z 1206/1306 07015KT 6000 OVC015"
    },
    {
      "icao": "ESSA",
      "alert": "OK",
      "vis_m": 9999,
      "fzfg": false,
      "metar_trigger": false,
      "taf_trigger": false,
      "metar": "METAR ESSA 120650Z 34005KT CAVOK M09/M11 Q0993 NOSIG",
      "taf": "TAF ESSA 120530Z 1206/1306 34005KT CAVOK"
    },
    {
      "icao": "EYKA",
      "alert": "OK",
      "vis_m": 1700,
      "fzfg": false,
      "metar_trigger": false,
      "taf_trigger": false,
      "metar": "METAR EYKA 120650Z 08002KT 1700 R08/1400N -SN BR OVC004 M00/M00 Q0986",
      "taf": "TAF EYKA 120500Z 1206/1306 VRB04KT 3000 SNRA BR OVC005"
    },
    {
      "icao": "EYPA",
      "alert": "OK",
      "vis_m": 3800,
      "fzfg": false,
      "metar_trigger": false,
      "taf_trigger": false,
      "metar": "METAR EYPA 120650Z 06008KT 3800 BR OVC008 M05/M07 Q0987",
      "taf": ""
    },
    {
      "icao": "EYVI",
      "alert": "OK",
      "vis_m": 3000,
      "fzfg": false,
      "metar_trigger": false,
      "taf_trigger": false,
      "metar": "METAR EYVI 120650Z 17005KT 3000 -SN BR OVC005 M01/M02 Q0985 TEMPO 1500 SN BR",
      "taf": "TAF EYVI 120500Z 1206/1306 VRB04KT 5000 SN BR BKN005"
    },
    {
      "icao": "GCFV",
      "alert": "OK",
      "vis_m": 9999,
      "fzfg": false,
      "metar_trigger": false,
      "taf_trigger": false,
      "metar": "METAR GCFV 120700Z 04011KT 010V070 9999 OVC013 18/15 Q1024",
      "taf": "TAF GCFV 120200Z 1203/1303 05012KT 9999 BKN016 TX22/1214Z TN17/1206Z"
    },
    {
      "icao": "GCLP",
      "alert": "OK",
      "vis_m": 9999,
      "fzfg": false,
      "metar_trigger": false,
      "taf_trigger": false,
      "metar": "METAR GCLP 120700Z 01012KT 9999 BKN020 18/15 Q1024 NOSIG",
      "taf": "TAF GCLP 120200Z 1203/1303 02014KT 9999 SCT015 TX23/1214Z TN17/1206Z"
    },
    {
      "icao": "GCTS",
      "alert": "OK",
      "vis_m": 9999,
      "fzfg": false,
      "metar_trigger": false,
      "taf_trigger": false,
      "metar": "METAR GCTS 120700Z 04008KT 340V070 9999 FEW015 17/13 Q1023 NOSIG",
      "taf": "TAF GCTS 120200Z 1203/1303 04009KT 9999 FEW020 TX25/1214Z TN17/1206Z"
    },
    {
      "icao": "GMAD",
      "alert": "OK",
      "vis_m": 2000,
      "fzfg": false,
      "metar_trigger": false,
      "taf_trigger": false,
      "metar": "METAR GMAD 120700Z 05003KT 020V090 2000 BR OVC001 15/14 Q1022 BECMG 1000 FG OVC001",
      "taf": "TAF GMAD 120500Z 1206/1312 07004KT 3000 BR OVC004"
    },
    {
      "icao": "GMMN",
      "alert": "OK",
      "vis_m": 5000,
      "fzfg": false,
      "metar_trigger": false,
      "taf_trigger": false,
      "metar": "SPECI GMMN 120711Z 32004KT 5000 2000N BR FEW010 SCT016 10/09 Q1025 NOSIG",
      "taf": "TAF GMMN 120500Z 1206/1312 18007KT 8000 SCT016"
    },
    {
      "icao": "GMMX",
      "alert": "OK",
      "vis_m": 4000,
      "fzfg": false,
      "metar_trigger": false,
      "taf_trigger": false,
      "metar": "METAR GMMX 120700Z 08005KT 050V120 4000 BR OVC006 14/14 Q1024 NOSIG",
      "taf": "TAF GMMX 120500Z 1206/1312 06006KT 0800 FG OVC004"
    },
    {
      "icao": "HEGN",
      "alert": "OK",
      "vis_m": 9999,
      "fzfg": false,
      "metar_trigger": false,
      "taf_trigger": false,
      "metar": "METAR HEGN 120700Z 30008KT CAVOK 19/02 Q1018 NOSIG",
      "taf": "TAF HEGN 120500Z 1206/1312 25008KT 6000 NSC"
    },
    {
      "icao": "HEMA",
      "alert": "OK",
      "vis_m": 9999,
      "fzfg": false,
      "metar_trigger": false,
      "taf_trigger": false,
      "metar": "METAR HEMA 120700Z 29010KT CAVOK 21/07 Q1017 NOSIG",
      "taf": "TAF HEMA 120500Z 1206/1312 26008KT CAVOK"
    },
    {
      "icao": "HESH",
      "alert": "OK",
      "vis_m": 9999,
      "fzfg": false,
      "metar_trigger": false,
      "taf_trigger": false,
      "metar": "METAR HESH 120700Z 33006KT CAVOK 22/05 Q1017 NOSIG",
      "taf": "TAF HESH 120500Z 1206/1312 29008KT 6000 NSC"
    },
    {
      "icao": "HESX",
      "alert": "OK",
      "vis_m": 9999,
      "fzfg": false,
      "metar_trigger": false,
      "taf_trigger": false,
      "metar": "METAR HESX 120700Z 18008KT CAVOK 19/02 Q1016 NOSIG",
      "taf": "TAF HESX 120500Z 1206/1312 20010KT 7000 NSC"
    },
    {
      "icao": "LATI",
      "alert": "OK",
      "vis_m": null,
      "fzfg": false,
      "metar_trigger": false,
      "taf_trigger": false,
      "metar": "",
      "taf": "TAF LATI 120500Z 1206/1306 VRB05KT 9999 SCT035 BKN070 TX15/1212Z TN09/1304Z"
    },
    {
      "icao": "LBPD",
      "alert": "OK",
      "vis_m": 9000,
      "fzfg": false,
      "metar_trigger": false,
      "taf_trigger": false,
      "metar": "METAR LBPD 120700Z AUTO 29007KT 9000 -RA SCT009/// BKN013/// OVC022/// 03/03 Q0997 NOSIG",
      "taf": "TAF LBPD 120500Z 1206/1306 VRB04KT 9999 BKN010"
    },
    {
      "icao": "LBSF",
      "alert": "OK",
      "vis_m": 7000,
      "fzfg": false,
      "metar_trigger": false,
      "taf_trigger": false,
      "metar": "METAR LBSF 120700Z 12003KT 090V190 7000 NSC 01/M01 Q0996 TEMPO 5000 BR",
      "taf": "TAF LBSF 120500Z 1206/1306 VRB04KT 9999 BKN070"
    },
    {
      "icao": "LBWN",
      "alert": "OK",
      "vis_m": 6000,
      "fzfg": false,
      "metar_trigger": false,
      "taf_trigger": false,
      "metar": "METAR LBWN 120700Z 09005KT 6000 FEW047 05/05 Q0997 NOSIG",
      "taf": "TAF LBWN 120500Z 1206/1306 09008KT 9999 SCT020 BKN050"
    },
    {
      "icao": "LCLK",
      "alert": "OK",
      "vis_m": 9999,
      "fzfg": false,
      "metar_trigger": false,
      "taf_trigger": false,
      "metar": "METAR LCLK 120700Z 22014KT 9999 FEW020 SCT060 18/14 Q1011 NOSIG",
      "taf": "TAF LCLK 120530Z 1206/1306 23010KT 9999 FEW030"
    },
    {
      "icao": "LCPH",
      "alert": "OK",
      "vis_m": 9999,
      "fzfg": false,
      "metar_trigger": false,
      "taf_trigger": false,
      "metar": "METAR LCPH 120700Z 15006KT 090V160 9999 FEW030 BKN050 BKN080 18/14 Q1010 NOSIG",
      "taf": "TAF LCPH 120530Z 1206/1306 23009KT 9999 FEW025 SCT035"
    },
    {
      "icao": "LEAL",
      "alert": "OK",
      "vis_m": 9999,
      "fzfg": false,
      "metar_trigger": false,
      "taf_trigger": false,
      "metar": "METAR LEAL 120700Z 29019KT 260V320 CAVOK 18/03 Q1012 NOSIG",
      "taf": "TAF LEAL 120500Z 1206/1306 27015KT 9999 FEW030 TX23/1213Z TN12/1206Z"
    },
    {
      "icao": "LEBB",
      "alert": "OK",
      "vis_m": 9999,
      "fzfg": false,
      "metar_trigger": false,
      "taf_trigger": false,
      "metar": "METAR LEBB 120700Z 28016G28KT 240V320 9999 FEW050 13/04 Q1008 NOSIG",
      "taf": ""
    },
    {
      "icao": "LEBL",
      "alert": "OK",
      "vis_m": 9999,
      "fzfg": false,
      "metar_trigger": false,
      "taf_trigger": false,
      "metar": "METAR LEBL 120700Z 28031G42KT 250V310 CAVOK 16/01 Q0997 NOSIG",
      "taf": ""
    },
    {
      "icao": "LECH",
      "alert": "OK",
      "vis_m": 9000,
      "fzfg": false,
      "metar_trigger": false,
      "taf_trigger": false,
      "metar": "METAR LECH 120700Z AUTO 28016KT 240V320 9000 NCD 13/M01 Q1008",
      "taf": ""
    },
    {
      "icao": "LEMD",
      "alert": "OK",
      "vis_m": 9999,
      "fzfg": false,
      "metar_trigger": false,
      "taf_trigger": false,
      "metar": "METAR LEMD 120700Z 26008KT 230V290 CAVOK 08/01 Q1014 NOSIG",
      "taf": "TAF LEMD 120500Z 1206/1312 25010KT 9999 FEW030 TX13/1215Z TN08/1307Z"
    },
    {
      "icao": "LEMG",
      "alert": "OK",
      "vis_m": 9999,
      "fzfg": false,
      "metar_trigger": false,
      "taf_trigger": false,
      "metar": "METAR LEMG 120700Z 27005KT 200V350 9999 FEW040 SCT055 16/12 Q1020 NOSIG",
      "taf": "TAF LEMG 120500Z 1206/1306 VRB03KT 9999 SCT050 TX23/1214Z TN11/1207Z"
    },
    {
      "icao": "LEVC",
      "alert": "OK",
      "vis_m": 9999,
      "fzfg": false,
      "metar_trigger": false,
      "taf_trigger": false,
      "metar": "METAR LEVC 120700Z 26020G31KT CAVOK 15/05 Q1011 NOSIG",
      "taf": "TAF LEVC 120500Z 1206/1306 27015KT 9999 FEW045 TX21/1214Z TN15/1206Z"
    },
    {
      "icao": "LEXJ",
      "alert": "OK",
      "vis_m": 9999,
      "fzfg": false,
      "metar_trigger": false,
      "taf_trigger": false,
      "metar": "METAR LEXJ 120700Z 29018KT 260V320 9999 FEW060 BKN070 13/06 Q1009",
      "taf": "TAF LEXJ 120200Z 1203/1303 27015KT 9999 FEW050 TX16/1213Z TN10/1207Z"
    },
    {
      "icao": "LEZG",
      "alert": "OK",
      "vis_m": 9999,
      "fzfg": false,
      "metar_trigger": false,
      "taf_trigger": false,
      "metar": "METAR LEZG 120700Z 31011KT CAVOK 11/02 Q1008 NOSIG",
      "taf": "TAF LEZG 120500Z 1206/1306 27015KT 9999 FEW050 TX17/1212Z TN10/1206Z"
    },
    {
      "icao": "LEZL",
      "alert": "OK",
      "vis_m": 9999,
      "fzfg": false,
      "metar_trigger": false,
      "taf_trigger": false,
      "metar": "METAR LEZL 120700Z 21005KT 9999 FEW015 14/14 Q1021 NOSIG",
      "taf": "TAF LEZL 120200Z 1203/1303 26005KT 9999 SCT030 TX20/1215Z TN13/1207Z"
    },
    {
      "icao": "LFBD",
      "alert": "OK",
      "vis_m": 9999,
      "fzfg": false,
      "metar_trigger": false,
      "taf_trigger": false,
      "metar": "METAR LFBD 120700Z AUTO 28026G41KT 9999 FEW029 BKN036 BKN047 12/07 Q1000 TEMPO 1400 TSRA BKN014 BKN025CB",
      "taf": ""
    },
    {
      "icao": "LFLL",
      "alert": "OK",
      "vis_m": 9999,
      "fzfg": false,
      "metar_trigger": false,
      "taf_trigger": false,
      "metar": "METAR LFLL 120700Z 26012KT 220V290 9999 -RA FEW030TCU SCT033 BKN053 10/07 Q0988 TEMPO 29015G25KT 4000 SHRA BKN035TCU",
      "taf": "TAF LFLL 120500Z 1206/1312 27012KT 9999 BKN040"
    },
    {
      "icao": "LFLS",
      "alert": "OK",
      "vis_m": 9999,
      "fzfg": false,
      "metar_trigger": false,
      "taf_trigger": false,
      "metar": "METAR LFLS 120700Z AUTO 24017KT 9999 -RA BKN038/// OVC045/// ///TCU 09/06 Q0989 TEMPO 26015G25KT RA",
      "taf": "TAF LFLS 120200Z 1203/1303 20012KT 9999 FEW025 OVC045"
    },
    {
      "icao": "LFMN",
      "alert": "OK",
      "vis_m": 9999,
      "fzfg": false,
      "metar_trigger": false,
      "taf_trigger": false,
      "metar": "METAR LFMN 120700Z 25016KT 9999 FEW066 BKN230 13/06 Q0985 TEMPO 26025KT",
      "taf": ""
    },
    {
      "icao": "LFOB",
      "alert": "OK",
      "vis_m": 9999,
      "fzfg": false,
      "metar_trigger": false,
      "taf_trigger": false,
      "metar": "METAR LFOB 120700Z AUTO 27010KT 9999 BKN011/// BKN019/// OVC032/// ///TCU 09/08 Q0982 TEMPO 28020G35KT 3000 SHRA BKN009",
      "taf": "TAF LFOB 120500Z 1206/1306 28015G25KT 9999 BKN020"
    },
    {
      "icao": "LFPO",
      "alert": "OK",
      "vis_m": 8000,
      "fzfg": false,
      "metar_trigger": false,
      "taf_trigger": false,
      "metar": "METAR LFPO 120700Z 28012KT 8000 BKN014 BKN023 09/07 Q0984 TEMPO 20015G35KT",
      "taf": ""
    },
    {
      "icao": "LFSB",
      "alert": "OK",
      "vis_m": 9999,
      "fzfg": false,
      "metar_trigger": false,
      "taf_trigger": false,
      "metar": "METAR LFSB 120700Z AUTO 14004KT 110V180 9999 FEW058/// BKN070/// OVC086/// ///TCU 09/06 Q0981 TEMPO SHRA BECMG 24020G30KT",
      "taf": "TAF LFSB 120500Z 1206/1306 22010KT 9999 OVC045"
    },
    {
      "icao": "LGAV",
      "alert": "OK",
      "vis_m": 9999,
      "fzfg": false,
      "metar_trigger": false,
      "taf_trigger": false,
      "metar": "METAR LGAV 120650Z 26007KT 9999 SCT025 13/09 Q0996 NOSIG",
      "taf": "TAF LGAV 120500Z 1206/1306 21015KT 9999 SCT025 SCT070"
    },
    {
      "icao": "LGTS",
      "alert": "OK",
      "vis_m": 9999,
      "fzfg": false,
      "metar_trigger": false,
      "taf_trigger": false,
      "metar": "METAR LGTS 120650Z 29013KT 9999 FEW008 BKN030 BKN050 10/10 Q0995 NOSIG",
      "taf": "TAF LGTS 120500Z 1206/1306 34013KT 9999 FEW010 BKN030"
    },
    {
      "icao": "LHBP",
      "alert": "OK",
      "vis_m": 2000,
      "fzfg": false,
      "metar_trigger": false,
      "taf_trigger": false,
      "metar": "METAR LHBP 120700Z 14003KT 2000 0600SE BCFG BR SCT041 03/03 Q0989 TEMPO 1400 PRFG",
      "taf": "TAF LHBP 120515Z 1206/1306 14005KT 9999 BKN030 BKN080"
    },
    {
      "icao": "LHDC",
      "alert": "OK",
      "vis_m": 9999,
      "fzfg": false,
      "metar_trigger": false,
      "taf_trigger": false,
      "metar": "METAR LHDC 120645Z AUTO 18009KT 9999 OVC042 07/05 Q0991 NOSIG",
      "taf": "TAF LHDC 120515Z 1206/1215 18011KT 9999 SCT020 BKN080"
    },
    {
      "icao": "LIBD",
      "alert": "OK",
      "vis_m": 9999,
      "fzfg": false,
      "metar_trigger": false,
      "taf_trigger": false,
      "metar": "METAR LIBD 120650Z 21005KT CAVOK 09/08 Q0992",
      "taf": "TAF LIBD 120500Z 1206/1306 21006KT 9999 FEW040"
    },
    {
      "icao": "LIBG",
      "alert": "OK",
      "vis_m": 9999,
      "fzfg": false,
      "metar_trigger": false,
      "taf_trigger": false,
      "metar": "SPECI LIBG 120651Z 02003KT 360V090 CAVOK 07/07 Q0994",
      "taf": "TAF LIBG 120712Z 1208/1215 VRB04KT CAVOK"
    },
    {
      "icao": "LIBP",
      "alert": "OK",
      "vis_m": 9999,
      "fzfg": false,
      "metar_trigger": false,
      "taf_trigger": false,
      "metar": "METAR LIBP 120650Z AUTO 23009KT 200V260 9999 -RA OVC063/// 13/07 Q0990",
      "taf": "TAF LIBP 120500Z 1206/1306 24008KT 9999 FEW060"
    },
    {
      "icao": "LIBR",
      "alert": "OK",
      "vis_m": 9999,
      "fzfg": false,
      "metar_trigger": false,
      "taf_trigger": false,
      "metar": "METAR LIBR 120650Z 17004KT CAVOK 10/08 Q0994",
      "taf": "TAF LIBR 120500Z 1206/1306 23006KT 9999 SCT030"
    },
    {
      "icao": "LICA",
      "alert": "OK",
      "vis_m": 9999,
      "fzfg": false,
      "metar_trigger": false,
      "taf_trigger": false,
      "metar": "METAR LICA 120650Z AUTO 26015KT 9999 FEW016/// BKN035/// 15/13 Q0997",
      "taf": "TAF LICA 120500Z 1206/1306 26016KT 9999 BKN020"
    },
    {
      "icao": "LICC",
      "alert": "OK",
      "vis_m": 7000,
      "fzfg": false,
      "metar_trigger": false,
      "taf_trigger": false,
      "metar": "METAR LICC 120650Z 28011KT 7000 -RA BKN045 13/09 Q0998 RERA",
      "taf": "TAF LICC 120500Z 1206/1306 26016KT 9999 SCT030"
    },
    {
      "icao": "LICJ",
      "alert": "OK",
      "vis_m": 9999,
      "fzfg": false,
      "metar_trigger": false,
      "taf_trigger": false,
      "metar": "METAR LICJ 120650Z 21017KT 9999 BKN020 16/14 Q0997",
      "taf": "TAF LICJ 120500Z 1206/1306 22018KT 9999 SCT020"
    },
    {
      "icao": "LIMC",
      "alert": "OK",
      "vis_m": 4000,
      "fzfg": false,
      "metar_trigger": false,
      "taf_trigger": false,
      "metar": "METAR LIMC 120650Z 02004KT 4000 BR SCT007 OVC010 07/06 Q0987 NOSIG",
      "taf": "TAF LIMC 120500Z 1206/1312 VRB04KT 8000 SCT030"
    },
    {
      "icao": "LIME",
      "alert": "OK",
      "vis_m": 800,
      "fzfg": false,
      "metar_trigger": false,
      "taf_trigger": false,
      "metar": "METAR LIME 120650Z 15003KT 130V190 0800 R28/P2000N -DZ FG BKN003 OVC008 07/07 Q0987 NOSIG",
      "taf": ""
    },
    {
      "icao": "LIMF",
      "alert": "OK",
      "vis_m": 3500,
      "fzfg": false,
      "metar_trigger": false,
      "taf_trigger": false,
      "metar": "METAR LIMF 120650Z 10002KT 3500 -DZ BR OVC012 06/05 Q0987",
      "taf": "TAF LIMF 120500Z 1206/1306 VRB05KT 9999 SCT020"
    },
    {
      "icao": "LIMJ",
      "alert": "OK",
      "vis_m": 9999,
      "fzfg": false,
      "metar_trigger": false,
      "taf_trigger": false,
      "metar": "METAR LIMJ 120650Z 04011KT 9999 SCT016 BKN028 11/08 Q0985",
      "taf": "TAF LIMJ 120500Z 1206/1306 03010KT 9999 SCT016"
    },
    {
      "icao": "LIPE",
      "alert": "OK",
      "vis_m": 50,
      "fzfg": false,
      "metar_trigger": false,
      "taf_trigger": false,
      "metar": "METAR LIPE 120650Z 29003KT 0050 R12/0375N R30/0325N FG VV001 07/07 Q0987",
      "taf": "TAF LIPE 120500Z 1206/1306 VRB05KT 0300 FG BKN001"
    },
    {
      "icao": "LIPH",
      "alert": "OK",
      "vis_m": 1000,
      "fzfg": false,
      "metar_trigger": false,
      "taf_trigger": false,
      "metar": "METAR LIPH 120650Z 03004KT 1000 R07/P2000N BR SCT002 BKN003 08/08 Q0988",
      "taf": "TAF LIPH 120500Z 1206/1306 04006KT 3000 BR BKN050"
    },
    {
      "icao": "LIPQ",
      "alert": "OK",
      "vis_m": 2600,
      "fzfg": false,
      "metar_trigger": false,
      "taf_trigger": false,
      "metar": "METAR LIPQ 120650Z AUTO 05002KT 2600 -RA BR FEW005/// OVC011/// 09/09 Q0988",
      "taf": "TAF LIPQ 120500Z 1206/1306 VRB04KT 2000 BCFG BKN002"
    },
    {
      "icao": "LIPR",
      "alert": "OK",
      "vis_m": 9999,
      "fzfg": false,
      "metar_trigger": false,
      "taf_trigger": false,
      "metar": "METAR LIPR 120650Z 20011KT 9999 BKN070 13/08 Q0987",
      "taf": "TAF LIPR 120500Z 1206/1306 16006KT 8000 BKN050"
    },
    {
      "icao": "LIPX",
      "alert": "OK",
      "vis_m": 3000,
      "fzfg": false,
      "metar_trigger": false,
      "taf_trigger": false,
      "metar": "METAR LIPX 120650Z 08005KT 3000 -DZ BR BKN025 BKN050 08/08 Q0987",
      "taf": "TAF LIPX 120500Z 1206/1306 07006KT 1500 BR BKN010"
    },
    {
      "icao": "LIPY",
      "alert": "OK",
      "vis_m": 9999,
      "fzfg": false,
      "metar_trigger": false,
      "taf_trigger": false,
      "metar": "METAR LIPY 120650Z AUTO 23004KT 190V260 9999 -RA OVC057/// 10/08 Q0989 REDZ",
      "taf": "TAF LIPY 120500Z 1206/1306 16006KT 7000 BKN050"
    },
    {
      "icao": "LIPZ",
      "alert": "OK",
      "vis_m": 1000,
      "fzfg": false,
      "metar_trigger": false,
      "taf_trigger": false,
      "metar": "METAR LIPZ 120650Z 04006KT 1000 R04R/1900N -RA BR OVC002 08/08 Q0988 NOSIG",
      "taf": "TAF LIPZ 120500Z 1206/1312 06006KT 6000 SCT050"
    },
    {
      "icao": "LIRF",
      "alert": "OK",
      "vis_m": 4000,
      "fzfg": false,
      "metar_trigger": false,
      "taf_trigger": false,
      "metar": "METAR LIRF 120650Z 20015KT 4000 1500N SHRA BR SCT005 BKN015 12/12 Q0989 TEMPO TSRA",
      "taf": "TAF LIRF 120500Z 1206/1312 16008KT 9999 FEW020"
    },
    {
      "icao": "LIRN",
      "alert": "OK",
      "vis_m": 8000,
      "fzfg": false,
      "metar_trigger": false,
      "taf_trigger": false,
      "metar": "METAR LIRN 120650Z 20009KT 8000 -RA FEW030 SCT050 13/11 Q0992 NOSIG",
      "taf": "TAF LIRN 120500Z 1206/1306 25012KT 9999 SCT020"
    },
    {
      "icao": "LIRP",
      "alert": "OK",
      "vis_m": 9999,
      "fzfg": false,
      "metar_trigger": false,
      "taf_trigger": false,
      "metar": "METAR LIRP 120645Z 20012KT 9999 -RA SCT020 BKN040 13/12 Q0985 NOSIG",
      "taf": "TAF LIRP 120500Z 1206/1306 10005KT 9999 SCT030 BKN040"
    },
    {
      "icao": "LIRZ",
      "alert": "OK",
      "vis_m": 4700,
      "fzfg": false,
      "metar_trigger": false,
      "taf_trigger": false,
      "metar": "METAR LIRZ 120650Z AUTO 16007KT 4700 1800S RA BR BKN021/// BKN051/// 10/09 Q0989",
      "taf": "TAF LIRZ 120500Z 1206/1306 19008KT 9999 BKN030"
    },
    {
      "icao": "LJLJ",
      "alert": "OK",
      "vis_m": 2000,
      "fzfg": false,
      "metar_trigger": false,
      "taf_trigger": false,
      "metar": "METAR LJLJ 120700Z VRB02KT 2000 BR SCT003 BKN033 05/05 Q0988 NOSIG",
      "taf": "TAF LJLJ 120500Z 1206/1306 VRB02KT 0300 FG VV002"
    },
    {
      "icao": "LKMT",
      "alert": "OK",
      "vis_m": 9999,
      "fzfg": false,
      "metar_trigger": false,
      "taf_trigger": false,
      "metar": "METAR LKMT 120700Z 22006KT 9999 BKN026 06/06 Q0985 NOSIG",
      "taf": "TAF LKMT 120500Z 1206/1306 22010KT 9999 BKN022"
    },
    {
      "icao": "LKPR",
      "alert": "OK",
      "vis_m": 9999,
      "fzfg": false,
      "metar_trigger": false,
      "taf_trigger": false,
      "metar": "METAR LKPR 120700Z 16008KT CAVOK 05/03 Q0982 NOSIG",
      "taf": "TAF LKPR 120500Z 1206/1312 19008KT 9999 SCT030"
    },
    {
      "icao": "LLBG",
      "alert": "OK",
      "vis_m": 9999,
      "fzfg": false,
      "metar_trigger": false,
      "taf_trigger": false,
      "metar": "METAR LLBG 120650Z 18006KT CAVOK 19/07 Q1016 NOSIG",
      "taf": "TAF LLBG 120504Z 1206/1306 16007KT CAVOK"
    },
    {
      "icao": "LMML",
      "alert": "OK",
      "vis_m": 9999,
      "fzfg": false,
      "metar_trigger": false,
      "taf_trigger": false,
      "metar": "METAR LMML 120715Z 24016KT 9999 -RA BKN049 16/14 Q1002 TEMPO 9000 RA",
      "taf": "TAF LMML 120500Z 1206/1306 25015KT 9999 FEW020"
    },
    {
      "icao": "LOWW",
      "alert": "OK",
      "vis_m": 900,
      "fzfg": false,
      "metar_trigger": false,
      "taf_trigger": false,
      "metar": "METAR LOWW 120650Z 14006KT 100V270 0900 R16/P1500N R29/0900N BCFG FEW000 BKN001 04/03 Q0985 NOSIG",
      "taf": "TAF LOWW 120515Z 1206/1312 14010KT 7000 FEW005 TX11/1312Z TN03/1206Z"
    },
    {
      "icao": "LPFR",
      "alert": "OK",
      "vis_m": 7000,
      "fzfg": false,
      "metar_trigger": false,
      "taf_trigger": false,
      "metar": "METAR LPFR 120700Z 27007KT 7000 OVC003 15/14 Q1022",
      "taf": "TAF LPFR 120500Z 1206/1306 28007KT 9999 SCT025"
    },
    {
      "icao": "LPMA",
      "alert": "OK",
      "vis_m": 9999,
      "fzfg": false,
      "metar_trigger": false,
      "taf_trigger": false,
      "metar": "METAR LPMA 120700Z 18007KT 9999 BKN014 17/11 Q1025",
      "taf": "TAF LPMA 120500Z 1206/1306 22008KT 9999 SCT015"
    },
    {
      "icao": "LPPR",
      "alert": "OK",
      "vis_m": 9999,
      "fzfg": false,
      "metar_trigger": false,
      "taf_trigger": false,
      "metar": "METAR LPPR 120700Z 24004KT 220V280 9999 FEW020 11/09 Q1018",
      "taf": "TAF LPPR 120500Z 1206/1306 26005KT 9999 SCT015 SCT035"
    },
    {
      "icao": "LPPS",
      "alert": "OK",
      "vis_m": 9999,
      "fzfg": false,
      "metar_trigger": false,
      "taf_trigger": false,
      "metar": "METAR LPPS 120700Z 24004KT 9999 FEW014 14/11 Q1025",
      "taf": "TAF LPPS 120500Z 1206/1312 VRB05KT 9999 SCT015"
    },
    {
      "icao": "LPPT",
      "alert": "OK",
      "vis_m": 9999,
      "fzfg": false,
      "metar_trigger": false,
      "taf_trigger": false,
      "metar": "METAR LPPT 120700Z 24007KT 9999 FEW012 SCT026 13/12 Q1020",
      "taf": "TAF LPPT 120500Z 1206/1312 25008KT 9999 SCT025"
    },
    {
      "icao": "LQBK",
      "alert": "OK",
      "vis_m": 9999,
      "fzfg": false,
      "metar_trigger": false,
      "taf_trigger": false,
      "metar": "METAR LQBK 120700Z 15006KT CAVOK 06/04 Q0989 NOSIG",
      "taf": "TAF LQBK 120500Z 1206/1306 15005KT 9999 SCT045 TX13/1213Z TN03/1206Z"
    },
    {
      "icao": "LQSA",
      "alert": "OK",
      "vis_m": 9999,
      "fzfg": false,
      "metar_trigger": false,
      "taf_trigger": false,
      "metar": "METAR LQSA 120700Z 30004KT CAVOK 03/03 Q0991 NOSIG",
      "taf": "TAF LQSA 120500Z 1206/1306 11005KT 9999 SCT050 TX13/1213Z TN02/1206Z"
    },
    {
      "icao": "LQTZ",
      "alert": "OK",
      "vis_m": 9999,
      "fzfg": false,
      "metar_trigger": false,
      "taf_trigger": false,
      "metar": "METAR LQTZ 120700Z 28001KT CAVOK 02/02 Q0990",
      "taf": "TAF LQTZ 120500Z 1206/1306 31005KT 9999 SCT060 TX17/1213Z TN00/1206Z"
    },
    {
      "icao": "LRBC",
      "alert": "OK",
      "vis_m": 200,
      "fzfg": true,
      "metar_trigger": false,
      "taf_trigger": false,
      "metar": "METAR LRBC 120700Z 18010KT 0200 R16/0500N FZFG VV002 M01/M01 Q0995",
      "taf": "TAF LRBC 120500Z 1206/1215 17010KT 0600 FZFG OVC001"
    },
    {
      "icao": "LRBS",
      "alert": "OK",
      "vis_m": 4500,
      "fzfg": false,
      "metar_trigger": false,
      "taf_trigger": false,
      "metar": "METAR LRBS 120700Z 23005KT 4500 BR NSC 01/01 Q0997 NOSIG",
      "taf": "TAF LRBS 120500Z 1206/1306 VRB04KT 3000 BR NSC"
    },
    {
      "icao": "LRBV",
      "alert": "OK",
      "vis_m": 9999,
      "fzfg": false,
      "metar_trigger": false,
      "taf_trigger": false,
      "metar": "METAR LRBV 120700Z VRB03KT 9999 FEW076 00/M01 Q0994",
      "taf": "TAF LRBV 120500Z 1206/1215 VRB04KT CAVOK"
    },
    {
      "icao": "LRCL",
      "alert": "OK",
      "vis_m": 9999,
      "fzfg": false,
      "metar_trigger": false,
      "taf_trigger": false,
      "metar": "METAR LRCL 120700Z 05003KT 9999 FEW054 05/02 Q0992",
      "taf": "TAF LRCL 120500Z 1206/1215 VRB04KT CAVOK"
    },
    {
      "icao": "LRCV",
      "alert": "WARNING",
      "vis_m": 200,
      "fzfg": true,
      "metar_trigger": false,
      "taf_trigger": true,
      "metar": "METAR LRCV 120700Z VRB02KT 0200 R26/0250N FZFG VV002 M01/M01 Q0996",
      "taf": "TAF LRCV 120500Z 1206/1215 VRB04KT 0150 FZFG VV001"
    },
    {
      "icao": "LRIA",
      "alert": "OK",
      "vis_m": 200,
      "fzfg": true,
      "metar_trigger": false,
      "taf_trigger": false,
      "metar": "METAR LRIA 120700Z 10010KT 0200 R14/0400D FG BKN001 00/M00 Q0994",
      "taf": "TAF LRIA 120500Z 1206/1215 10008KT 0300 FZFG OVC001"
    },
    {
      "icao": "LROP",
      "alert": "OK",
      "vis_m": 2500,
      "fzfg": false,
      "metar_trigger": false,
      "taf_trigger": false,
      "metar": "METAR LROP 120700Z 21004KT 160V250 2500 BR NSC 01/01 Q0996 NOSIG",
      "taf": "TAF LROP 120500Z 1206/1306 VRB04KT 3000 BR NSC"
    },
    {
      "icao": "LRSB",
      "alert": "OK",
      "vis_m": 9999,
      "fzfg": false,
      "metar_trigger": false,
      "taf_trigger": false,
      "metar": "METAR LRSB 120700Z VRB02KT 9999 BKN080 05/02 Q0993 NOSIG",
      "taf": "TAF LRSB 120500Z 1206/1306 VRB04KT CAVOK"
    },
    {
      "icao": "LRSM",
      "alert": "OK",
      "vis_m": 9999,
      "fzfg": false,
      "metar_trigger": false,
      "taf_trigger": false,
      "metar": "METAR LRSM 120700Z 12005KT 9999 BKN040 07/05 Q0991",
      "taf": "TAF LRSM 120500Z 1206/1215 13008KT 9999 BKN030"
    },
    {
      "icao": "LRSV",
      "alert": "OK",
      "vis_m": 9999,
      "fzfg": false,
      "metar_trigger": false,
      "taf_trigger": false,
      "metar": "METAR LRSV 120700Z 22005KT CAVOK 02/00 Q0991",
      "taf": "TAF LRSV 120500Z 1206/1215 21006KT CAVOK"
    },
    {
      "icao": "LRTM",
      "alert": "OK",
      "vis_m": 9999,
      "fzfg": false,
      "metar_trigger": false,
      "taf_trigger": false,
      "metar": "METAR LRTM 120700Z 07004KT 9999 SCT039 FEW044CB 05/02 Q0993",
      "taf": "TAF LRTM 120500Z 1206/1215 VRB04KT CAVOK"
    },
    {
      "icao": "LRTR",
      "alert": "OK",
      "vis_m": 9999,
      "fzfg": false,
      "metar_trigger": false,
      "taf_trigger": false,
      "metar": "METAR LRTR 120700Z 11008KT CAVOK 05/04 Q0991",
      "taf": "TAF LRTR 120500Z 1206/1306 08006KT CAVOK"
    },
    {
      "icao": "LTAC",
      "alert": "OK",
      "vis_m": 6000,
      "fzfg": false,
      "metar_trigger": false,
      "taf_trigger": false,
      "metar": "METAR LTAC 120650Z VRB02KT 6000 SCT040 BKN100 03/02 Q1005 NOSIG RMK RWY21C VRB02KT RWY03L VRB02KT RWY21R VRB02KT RWY03R 00000KT RWY21L 35003KT 290V020",
      "taf": "TAF LTAC 120440Z 1206/1306 VRB02KT 9999 SCT040 BKN100"
    },
    {
      "icao": "LTFM",
      "alert": "OK",
      "vis_m": 9999,
      "fzfg": false,
      "metar_trigger": false,
      "taf_trigger": false,
      "metar": "METAR LTFM 120650Z 15007KT 9999 SCT035 BKN090 10/05 Q0997 RESHRA NOSIG RMK RWY17L 15010KT 120V190 RWY34L 16006KT RWY16R 16010KT RWY36 16007KT RWY18 17008KT",
      "taf": "TAF LTFM 120440Z 1206/1312 15012KT 9999 -SHRA BKN035 BKN080"
    },
    {
      "icao": "LUKK",
      "alert": "OK",
      "vis_m": 9999,
      "fzfg": false,
      "metar_trigger": false,
      "taf_trigger": false,
      "metar": "METAR LUKK 120700Z 18009KT 9999 OVC004 01/01 Q0996 NOSIG",
      "taf": "TAF LUKK 120510Z 1206/1306 17009KT 9999 OVC008"
    },
    {
      "icao": "LWOH",
      "alert": "OK",
      "vis_m": 9999,
      "fzfg": false,
      "metar_trigger": false,
      "taf_trigger": false,
      "metar": "METAR LWOH 120650Z 01003KT 320V030 9999 SCT015 BKN033 05/05 Q0995",
      "taf": "TAF LWOH 120530Z 1206/1306 18008KT 9999 SCT020 BKN040"
    },
    {
      "icao": "LWSK",
      "alert": "OK",
      "vis_m": null,
      "fzfg": false,
      "metar_trigger": false,
      "taf_trigger": false,
      "metar": "",
      "taf": ""
    },
    {
      "icao": "LYBE",
      "alert": "OK",
      "vis_m": 9999,
      "fzfg": false,
      "metar_trigger": false,
      "taf_trigger": false,
      "metar": "METAR LYBE 120700Z 12006KT CAVOK 08/04 Q0991 NOSIG",
      "taf": "TAF LYBE 120500Z 1206/1306 12010KT CAVOK TX17/1213Z TN04/1306Z"
    },
    {
      "icao": "LYNI",
      "alert": "OK",
      "vis_m": 9999,
      "fzfg": false,
      "metar_trigger": false,
      "taf_trigger": false,
      "metar": "METAR LYNI 120700Z 10012KT 9999 FEW040 07/02 Q0994 NOSIG",
      "taf": "TAF LYNI 120500Z 1206/1306 12010KT 9999 SCT060 TX15/1212Z TN04/1206Z"
    },
    {
      "icao": "LYPG",
      "alert": "OK",
      "vis_m": 5000,
      "fzfg": false,
      "metar_trigger": false,
      "taf_trigger": false,
      "metar": "METAR LYPG 120700Z VRB01KT 5000 BR FEW003 SCT040 BKN070 09/09 Q0994 BECMG 8000",
      "taf": ""
    },
    {
      "icao": "LZIB",
      "alert": "OK",
      "vis_m": 350,
      "fzfg": false,
      "metar_trigger": false,
      "taf_trigger": false,
      "metar": "METAR LZIB 120700Z 04009KT 0350 R31/0450N R22/0400N FG VV001 04/04 Q0986 TEMPO 0800 FG",
      "taf": "TAF LZIB 120515Z 1206/1306 03003KT 0800 FG BKN003"
    },
    {
      "icao": "LZKZ",
      "alert": "OK",
      "vis_m": 200,
      "fzfg": false,
      "metar_trigger": false,
      "taf_trigger": false,
      "metar": "METAR LZKZ 120700Z 24005KT 0200 R01/0550N FG VV002 04/04 Q0989 NOSIG",
      "taf": ""
    },
    {
      "icao": "LZTT",
      "alert": "OK",
      "vis_m": 9999,
      "fzfg": false,
      "metar_trigger": false,
      "taf_trigger": false,
      "metar": "METAR LZTT 120700Z 24008KT 9999 FEW020 BKN080 05/02 Q0987 NOSIG",
      "taf": "TAF LZTT 120515Z 1206/1306 24011KT 9999 BKN030"
    },
    {
      "icao": "OEJN",
      "alert": "OK",
      "vis_m": 9999,
      "fzfg": false,
      "metar_trigger": false,
      "taf_trigger": false,
      "metar": "METAR OEJN 120700Z 33006KT 9999 FEW040 27/19 Q1015 NOSIG",
      "taf": "TAF OEJN 120500Z 1206/1312 30010KT 9999 FEW040"
    },
    {
      "icao": "OEMA",
      "alert": "OK",
      "vis_m": 9999,
      "fzfg": false,
      "metar_trigger": false,
      "taf_trigger": false,
      "metar": "METAR OEMA 120700Z VRB03KT CAVOK 24/09 Q1019 NOSIG",
      "taf": "TAF OEMA 120500Z 1206/1312 VRB03KT CAVOK"
    },
    {
      "icao": "OJAI",
      "alert": "OK",
      "vis_m": 4000,
      "fzfg": false,
      "metar_trigger": false,
      "taf_trigger": false,
      "metar": "METAR OJAI 120700Z 14006KT 4000 HZ NSC 12/06 Q1019 NOSIG",
      "taf": "TAF OJAI 120500Z 1206/1312 25012KT 5000 HZ FEW035"
    },
    {
      "icao": "OMAA",
      "alert": "OK",
      "vis_m": 8000,
      "fzfg": false,
      "metar_trigger": false,
      "taf_trigger": false,
      "metar": "METAR OMAA 120700Z 15011KT 8000 NSC 25/15 Q1019 NOSIG",
      "taf": "TAF OMAA 120500Z 1206/1312 17010KT 8000 NSC"
    },
    {
      "icao": "OMDB",
      "alert": "OK",
      "vis_m": 9999,
      "fzfg": false,
      "metar_trigger": false,
      "taf_trigger": false,
      "metar": "METAR OMDB 120700Z 15007KT 130V190 CAVOK 28/14 Q1020 NOSIG",
      "taf": "TAF OMDB 120500Z 1206/1312 16008KT 8000 NSC"
    },
    {
      "icao": "UAAA",
      "alert": "OK",
      "vis_m": 4200,
      "fzfg": false,
      "metar_trigger": false,
      "taf_trigger": false,
      "metar": "METAR UAAA 120700Z 02004MPS 4200 BR SCT005 BKN018CB OVC100 M01/M02 Q1021 NOSIG RMK QBB160",
      "taf": "TAF UAAA 120507Z 1206/1306 35003MPS 6000 BKN011CB OVC020 TX00/1209Z TNM05/1303Z"
    },
    {
      "icao": "UBBB",
      "alert": "OK",
      "vis_m": 9999,
      "fzfg": false,
      "metar_trigger": false,
      "taf_trigger": false,
      "metar": "METAR UBBB 120700Z VRB02KT 9999 SCT012 05/01 Q1015 NOSIG",
      "taf": "TAF UBBB 120504Z 1206/1306 16010KT 9999 SCT025 TX08/1210Z TN01/1301Z"
    },
    {
      "icao": "UDSG",
      "alert": "OK",
      "vis_m": 1300,
      "fzfg": false,
      "metar_trigger": false,
      "taf_trigger": false,
      "metar": "METAR UDSG 120700Z 19002KT 1300 R02/1300N SN BR OVC005 M01/M01 Q1014 NOSIG",
      "taf": "TAF UDSG 120458Z 1206/1306 VRB06KT 3000 BR OVC020"
    },
    {
      "icao": "UDYZ",
      "alert": "OK",
      "vis_m": 4300,
      "fzfg": false,
      "metar_trigger": false,
      "taf_trigger": false,
      "metar": "METAR UDYZ 120700Z 26005KT 4300 -SHRA BR OVC030CB 03/02 Q1015 NOSIG",
      "taf": "TAF UDYZ 120500Z 1206/1306 VRB06KT 2300 BR OVC020"
    },
    {
      "icao": "UGKO",
      "alert": "OK",
      "vis_m": 9999,
      "fzfg": false,
      "metar_trigger": false,
      "taf_trigger": false,
      "metar": "METAR UGKO 120700Z 09012KT 9999 BKN077 08/02 Q1011 NOSIG",
      "taf": "TAF UGKO 120500Z 1206/1306 08015KT CAVOK TX17/1211Z TN09/1206Z"
    }
  ]
}