{
  "ts_utc": "2026-05-17T02:07:24Z",
  "threshold_m": 150,
  "source": "stations_override.txt (ICAO list) + aviationweather.gov (METAR/TAF raw)",
  "station_count": 159,
  "stations": [
    {
      "icao": "BIKF",
      "alert": "OK",
      "vis_m": 9999,
      "fzfg": false,
      "metar_trigger": false,
      "taf_trigger": false,
      "metar": "METAR BIKF 170200Z 11008KT 9999 BKN045 OVC079 06/03 Q1003",
      "taf": "TAF BIKF 170148Z 1703/1803 09010KT 9999 SCT032 TX09/1715Z TN05/1705Z"
    },
    {
      "icao": "BKPR",
      "alert": "OK",
      "vis_m": 9999,
      "fzfg": false,
      "metar_trigger": false,
      "taf_trigger": false,
      "metar": "METAR BKPR 170200Z 23019KT CAVOK 10/05 Q1004 NOSIG",
      "taf": "TAF BKPR 162330Z 1700/1724 26008KT 9999 SCT040"
    },
    {
      "icao": "EBCI",
      "alert": "OK",
      "vis_m": 9999,
      "fzfg": false,
      "metar_trigger": false,
      "taf_trigger": false,
      "metar": "METAR EBCI 170150Z 19007KT 9999 BKN030 09/06 Q1011 NOSIG",
      "taf": "TAF EBCI 162316Z 1700/1806 20009KT 9999 SCT018 BKN022"
    },
    {
      "icao": "EDDB",
      "alert": "OK",
      "vis_m": 9999,
      "fzfg": false,
      "metar_trigger": false,
      "taf_trigger": false,
      "metar": "METAR EDDB 170150Z AUTO 18003KT CAVOK 03/03 Q1013 NOSIG",
      "taf": "TAF EDDB 162300Z 1700/1724 20002KT CAVOK"
    },
    {
      "icao": "EDDH",
      "alert": "OK",
      "vis_m": 9999,
      "fzfg": false,
      "metar_trigger": false,
      "taf_trigger": false,
      "metar": "METAR EDDH 170150Z AUTO 15003KT 070V170 CAVOK 06/05 Q1011 NOSIG",
      "taf": "TAF EDDH 162300Z 1700/1806 16004KT 9999 SCT045"
    },
    {
      "icao": "EDDK",
      "alert": "OK",
      "vis_m": 9999,
      "fzfg": false,
      "metar_trigger": false,
      "taf_trigger": false,
      "metar": "METAR EDDK 170150Z AUTO 13006KT CAVOK 07/05 Q1012 NOSIG",
      "taf": "TAF EDDK 162300Z 1700/1806 14004KT 9999 SCT030"
    },
    {
      "icao": "EDDN",
      "alert": "OK",
      "vis_m": 9999,
      "fzfg": false,
      "metar_trigger": false,
      "taf_trigger": false,
      "metar": "METAR EDDN 170150Z AUTO 10009KT CAVOK 04/02 Q1014",
      "taf": "TAF EDDN 162300Z 1700/1724 12004KT CAVOK"
    },
    {
      "icao": "EDDS",
      "alert": "OK",
      "vis_m": 9999,
      "fzfg": false,
      "metar_trigger": false,
      "taf_trigger": false,
      "metar": "METAR EDDS 170150Z AUTO VRB01KT CAVOK 06/03 Q1014",
      "taf": "TAF EDDS 162300Z 1700/1724 VRB03KT 9999 FEW045"
    },
    {
      "icao": "EDFH",
      "alert": "OK",
      "vis_m": 9999,
      "fzfg": false,
      "metar_trigger": false,
      "taf_trigger": false,
      "metar": "METAR EDFH 170150Z 23006KT CAVOK 04/02 Q1013",
      "taf": "TAF EDFH 162300Z 1700/1724 24005KT 9999 SCT040"
    },
    {
      "icao": "EDJA",
      "alert": "OK",
      "vis_m": 9999,
      "fzfg": false,
      "metar_trigger": false,
      "taf_trigger": false,
      "metar": "METAR EDJA 170150Z AUTO 17003KT 9999 // FEW140/// 02/01 Q1015",
      "taf": "TAF EDJA 161700Z 1618/1703 22008KT 9999 SCT050"
    },
    {
      "icao": "EDLW",
      "alert": "OK",
      "vis_m": 9999,
      "fzfg": false,
      "metar_trigger": false,
      "taf_trigger": false,
      "metar": "METAR EDLW 170150Z AUTO 18008KT 9999 // BKN078/// 07/05 Q1012",
      "taf": "TAF EDLW 161700Z 1618/1718 24008KT 9999 FEW040"
    },
    {
      "icao": "EDNY",
      "alert": "OK",
      "vis_m": 9999,
      "fzfg": false,
      "metar_trigger": false,
      "taf_trigger": false,
      "metar": "METAR EDNY 170150Z AUTO VRB02KT 9999 // FEW100/// 03/03 Q1015",
      "taf": "TAF EDNY 161700Z 1618/1703 24008KT 9999 SCT040"
    },
    {
      "icao": "EDSB",
      "alert": "OK",
      "vis_m": 9999,
      "fzfg": false,
      "metar_trigger": false,
      "taf_trigger": false,
      "metar": "METAR EDSB 170150Z AUTO 23004KT 200V260 9999 BKN093/// 08/06 Q1014",
      "taf": "TAF EDSB 162300Z 1700/1724 19004KT 9999 FEW045"
    },
    {
      "icao": "EETN",
      "alert": "OK",
      "vis_m": 9999,
      "fzfg": false,
      "metar_trigger": false,
      "taf_trigger": false,
      "metar": "METAR EETN 170150Z 00000KT CAVOK 08/06 Q1010",
      "taf": "TAF EETN 162330Z 1700/1724 21006KT 9999 SCT035"
    },
    {
      "icao": "EFTU",
      "alert": "OK",
      "vis_m": 9999,
      "fzfg": false,
      "metar_trigger": false,
      "taf_trigger": false,
      "metar": "METAR EFTU 170150Z AUTO 17005KT CAVOK 06/05 Q1008",
      "taf": "TAF EFTU 162329Z 1700/1724 15002KT 9999 FEW006"
    },
    {
      "icao": "EGBB",
      "alert": "OK",
      "vis_m": 9999,
      "fzfg": false,
      "metar_trigger": false,
      "taf_trigger": false,
      "metar": "METAR EGBB 170150Z 25004KT 220V290 CAVOK 10/08 Q1007",
      "taf": "TAF EGBB 162259Z 1700/1724 26007KT 9999 SCT040"
    },
    {
      "icao": "EGGP",
      "alert": "OK",
      "vis_m": 9999,
      "fzfg": false,
      "metar_trigger": false,
      "taf_trigger": false,
      "metar": "METAR EGGP 170150Z AUTO 26008KT 9999 SCT022/// 09/06 Q1006",
      "taf": "TAF EGGP 162301Z 1700/1724 26011KT 9999 SCT030"
    },
    {
      "icao": "EGGW",
      "alert": "OK",
      "vis_m": 9999,
      "fzfg": false,
      "metar_trigger": false,
      "taf_trigger": false,
      "metar": "METAR EGGW 170150Z AUTO 25008KT 9999 OVC011 09/08 Q1007",
      "taf": "TAF EGGW 162256Z 1700/1724 22010KT 9999 SCT030"
    },
    {
      "icao": "EGKK",
      "alert": "OK",
      "vis_m": 6000,
      "fzfg": false,
      "metar_trigger": false,
      "taf_trigger": false,
      "metar": "METAR EGKK 170150Z VRB02KT 6000 -DZ SCT006 SCT012 11/10 Q1008 REDZ",
      "taf": "TAF EGKK 162257Z 1700/1806 22007KT 9999 SCT020"
    },
    {
      "icao": "EGNM",
      "alert": "OK",
      "vis_m": 9999,
      "fzfg": false,
      "metar_trigger": false,
      "taf_trigger": false,
      "metar": "METAR EGNM 170150Z 26008KT 9999 SCT039 08/06 Q1004",
      "taf": "TAF EGNM 162301Z 1700/1724 26008KT 9999 SCT030"
    },
    {
      "icao": "EGPD",
      "alert": "OK",
      "vis_m": 9999,
      "fzfg": false,
      "metar_trigger": false,
      "taf_trigger": false,
      "metar": "METAR EGPD 170150Z AUTO 15003KT 110V170 9999 -RA BKN040 BKN049 07/06 Q1001",
      "taf": "TAF EGPD 162256Z 1700/1724 16007KT 9999 SCT016"
    },
    {
      "icao": "EGPF",
      "alert": "OK",
      "vis_m": 9999,
      "fzfg": false,
      "metar_trigger": false,
      "taf_trigger": false,
      "metar": "METAR EGPF 170150Z AUTO 28003KT 9999 //////TCU 06/05 Q1002",
      "taf": "TAF EGPF 162256Z 1700/1724 26007KT 9999 SCT030"
    },
    {
      "icao": "EHBK",
      "alert": "OK",
      "vis_m": 9999,
      "fzfg": false,
      "metar_trigger": false,
      "taf_trigger": false,
      "metar": "METAR EHBK 170155Z AUTO 19009KT 9999 NSC 08/05 Q1011",
      "taf": "TAF EHBK 162319Z 1700/1806 18007KT CAVOK"
    },
    {
      "icao": "EHEH",
      "alert": "OK",
      "vis_m": 9999,
      "fzfg": false,
      "metar_trigger": false,
      "taf_trigger": false,
      "metar": "METAR EHEH 170155Z AUTO 18006KT 9999 SCT064 OVC076 10/05 Q1010 BLU",
      "taf": "TAF EHEH 162317Z 1700/1806 19006KT 9999 FEW040 BKN050"
    },
    {
      "icao": "EKBI",
      "alert": "OK",
      "vis_m": 9999,
      "fzfg": false,
      "metar_trigger": false,
      "taf_trigger": false,
      "metar": "METAR EKBI 170150Z AUTO 21003KT 9999 BKN017/// OVC029/// 07/06 Q1008",
      "taf": "TAF EKBI 162327Z 1700/1724 24010KT 9999 BKN015"
    },
    {
      "icao": "EKCH",
      "alert": "OK",
      "vis_m": 9999,
      "fzfg": false,
      "metar_trigger": false,
      "taf_trigger": false,
      "metar": "METAR EKCH 170150Z AUTO 23012KT 9999 FEW094/// SCT110/// 08/05 Q1010 NOSIG",
      "taf": "TAF EKCH 162327Z 1700/1724 23014KT 9999 SCT035"
    },
    {
      "icao": "ENAL",
      "alert": "OK",
      "vis_m": 9999,
      "fzfg": false,
      "metar_trigger": false,
      "taf_trigger": false,
      "metar": "METAR ENAL 170120Z AUTO 22005KT 9999 NCD 06/06 Q0999",
      "taf": "TAF ENAL 162300Z 1700/1709 VRB04KT CAVOK"
    },
    {
      "icao": "ENBR",
      "alert": "OK",
      "vis_m": 9999,
      "fzfg": false,
      "metar_trigger": false,
      "taf_trigger": false,
      "metar": "METAR ENBR 170150Z AUTO 13004KT 9999 NCD 07/04 Q1001 RMK WIND 1200FT 19005KT",
      "taf": "TAF ENBR 162300Z 1700/1724 VRB03KT CAVOK"
    },
    {
      "icao": "ENGM",
      "alert": "OK",
      "vis_m": 8000,
      "fzfg": false,
      "metar_trigger": false,
      "taf_trigger": false,
      "metar": "METAR ENGM 170150Z 19004KT 8000 -RADZ FEW001 BKN024 06/06 Q1001",
      "taf": "TAF ENGM 162300Z 1700/1724 VRB03KT 9999 SCT010 BKN020"
    },
    {
      "icao": "ENHD",
      "alert": "OK",
      "vis_m": 9999,
      "fzfg": false,
      "metar_trigger": false,
      "taf_trigger": false,
      "metar": "METAR ENHD 170150Z AUTO 23007KT 9999 FEW007/// 09/07 Q1002",
      "taf": ""
    },
    {
      "icao": "ENTC",
      "alert": "OK",
      "vis_m": 9999,
      "fzfg": false,
      "metar_trigger": false,
      "taf_trigger": false,
      "metar": "METAR ENTC 170150Z 01006KT 350V050 9999 OVC014 06/02 Q1008 RMK WIND 2600FT 02006KT",
      "taf": ""
    },
    {
      "icao": "ENTO",
      "alert": "OK",
      "vis_m": 9999,
      "fzfg": false,
      "metar_trigger": false,
      "taf_trigger": false,
      "metar": "METAR ENTO 170150Z AUTO 19002KT 9999 NCD 05/05 Q1002",
      "taf": "TAF ENTO 162300Z 1700/1724 19008KT 9999 SCT012 BKN020"
    },
    {
      "icao": "ENVA",
      "alert": "OK",
      "vis_m": 9999,
      "fzfg": false,
      "metar_trigger": false,
      "taf_trigger": false,
      "metar": "METAR ENVA 170150Z AUTO VRB02KT 9999 NCD 06/05 Q1000 RMK WIND 670FT 12003KT",
      "taf": "TAF ENVA 162300Z 1700/1724 10008KT CAVOK"
    },
    {
      "icao": "ENZV",
      "alert": "OK",
      "vis_m": 9999,
      "fzfg": false,
      "metar_trigger": false,
      "taf_trigger": false,
      "metar": "METAR ENZV 170150Z 20005KT 9999 BKN009 08/07 Q1003",
      "taf": ""
    },
    {
      "icao": "EPGD",
      "alert": "OK",
      "vis_m": 9000,
      "fzfg": false,
      "metar_trigger": false,
      "taf_trigger": false,
      "metar": "METAR EPGD 170200Z 25002KT 9000 BKN045 09/08 Q1012",
      "taf": "TAF EPGD 162330Z 1700/1724 VRB03KT 9999 BKN040"
    },
    {
      "icao": "EPKK",
      "alert": "OK",
      "vis_m": 7000,
      "fzfg": false,
      "metar_trigger": false,
      "taf_trigger": false,
      "metar": "METAR EPKK 170200Z 28006KT 7000 -RA BKN048 09/08 Q1010",
      "taf": "TAF EPKK 162330Z 1700/1724 30008KT 8000 -RA OVC040"
    },
    {
      "icao": "EPKT",
      "alert": "OK",
      "vis_m": 9999,
      "fzfg": false,
      "metar_trigger": false,
      "taf_trigger": false,
      "metar": "METAR EPKT 170200Z 29003KT 9999 -RA FEW005 BKN032 08/07 Q1011",
      "taf": "TAF EPKT 162330Z 1700/1724 32005KT 9999 -RA BKN040"
    },
    {
      "icao": "EPLB",
      "alert": "OK",
      "vis_m": 6000,
      "fzfg": false,
      "metar_trigger": false,
      "taf_trigger": false,
      "metar": "METAR EPLB 170200Z 35008KT 6000 -RA OVC003 12/11 Q1007",
      "taf": "TAF EPLB 162330Z 1700/1724 01008KT 9999 BKN007 OVC012"
    },
    {
      "icao": "EPMO",
      "alert": "OK",
      "vis_m": 9999,
      "fzfg": false,
      "metar_trigger": false,
      "taf_trigger": false,
      "metar": "METAR EPMO 170200Z 34007KT CAVOK 09/08 Q1011",
      "taf": "TAF EPMO 162330Z 1700/1724 36008KT CAVOK"
    },
    {
      "icao": "EPPO",
      "alert": "OK",
      "vis_m": 9999,
      "fzfg": false,
      "metar_trigger": false,
      "taf_trigger": false,
      "metar": "METAR EPPO 170200Z 32001KT 9999 MIFG NSC 03/02 Q1013",
      "taf": "TAF EPPO 162330Z 1700/1724 32006KT CAVOK"
    },
    {
      "icao": "EPRA",
      "alert": "OK",
      "vis_m": 9000,
      "fzfg": false,
      "metar_trigger": false,
      "taf_trigger": false,
      "metar": "METAR EPRA 170200Z 33007KT 9000 OVC005 11/09 Q1009",
      "taf": ""
    },
    {
      "icao": "EPRZ",
      "alert": "OK",
      "vis_m": 9999,
      "fzfg": false,
      "metar_trigger": false,
      "taf_trigger": false,
      "metar": "METAR EPRZ 170200Z 35008KT 9999 -SHRA BKN003 BKN011CB 11/11 Q1007",
      "taf": "TAF EPRZ 162330Z 1700/1724 35008KT 9999 BKN005"
    },
    {
      "icao": "EPSC",
      "alert": "OK",
      "vis_m": 9999,
      "fzfg": false,
      "metar_trigger": false,
      "taf_trigger": false,
      "metar": "METAR EPSC 170200Z 12002KT CAVOK 02/02 Q1013",
      "taf": "TAF EPSC 162330Z 1700/1724 VRB03KT CAVOK"
    },
    {
      "icao": "EPSY",
      "alert": "OK",
      "vis_m": 9999,
      "fzfg": false,
      "metar_trigger": false,
      "taf_trigger": false,
      "metar": "METAR EPSY 170200Z 36005KT CAVOK 07/05 Q1011",
      "taf": "TAF EPSY 162330Z 1700/1709 35007KT CAVOK"
    },
    {
      "icao": "EPWA",
      "alert": "OK",
      "vis_m": 9999,
      "fzfg": false,
      "metar_trigger": false,
      "taf_trigger": false,
      "metar": "METAR EPWA 170200Z 35008KT CAVOK 11/08 Q1010 NOSIG",
      "taf": "TAF EPWA 162330Z 1700/1724 36008KT CAVOK"
    },
    {
      "icao": "EPWR",
      "alert": "OK",
      "vis_m": 9999,
      "fzfg": false,
      "metar_trigger": false,
      "taf_trigger": false,
      "metar": "METAR EPWR 170200Z 29009KT CAVOK 07/06 Q1013",
      "taf": "TAF EPWR 162330Z 1700/1724 31006KT CAVOK"
    },
    {
      "icao": "ESGG",
      "alert": "OK",
      "vis_m": 9999,
      "fzfg": false,
      "metar_trigger": false,
      "taf_trigger": false,
      "metar": "METAR ESGG 170150Z 22009KT 9999 FEW009 SCT022 BKN029 07/06 Q1005",
      "taf": "TAF ESGG 162330Z 1700/1724 20009KT 9999 SCT016 BKN030"
    },
    {
      "icao": "ESKN",
      "alert": "OK",
      "vis_m": 9999,
      "fzfg": false,
      "metar_trigger": false,
      "taf_trigger": false,
      "metar": "METAR ESKN 170150Z 18007KT CAVOK 06/05 Q1006",
      "taf": "TAF ESKN 162330Z 1700/1724 19005KT CAVOK"
    },
    {
      "icao": "ESMS",
      "alert": "OK",
      "vis_m": 9999,
      "fzfg": false,
      "metar_trigger": false,
      "taf_trigger": false,
      "metar": "METAR ESMS 170150Z 23010KT 9999 BKN020 09/06 Q1010",
      "taf": "TAF ESMS 162327Z 1700/1724 22013KT 9999 SCT025"
    },
    {
      "icao": "ESSA",
      "alert": "OK",
      "vis_m": 9999,
      "fzfg": false,
      "metar_trigger": false,
      "taf_trigger": false,
      "metar": "METAR ESSA 170150Z 15006KT CAVOK 05/04 Q1006 NOSIG",
      "taf": "TAF ESSA 162330Z 1700/1724 19006KT 9999 FEW045"
    },
    {
      "icao": "EYKA",
      "alert": "OK",
      "vis_m": 9000,
      "fzfg": false,
      "metar_trigger": false,
      "taf_trigger": false,
      "metar": "METAR EYKA 170150Z 35003KT 310V010 9000 SCT004 BKN007 OVC011 11/11 Q1010",
      "taf": "TAF EYKA 162300Z 1700/1724 VRB04KT 5000 BR SCT005 BKN025"
    },
    {
      "icao": "EYPA",
      "alert": "OK",
      "vis_m": 650,
      "fzfg": false,
      "metar_trigger": false,
      "taf_trigger": false,
      "metar": "METAR EYPA 170150Z VRB01KT 0650 R19/0800N FG VV002 04/04 Q1012",
      "taf": "TAF EYPA 162300Z 1700/1724 VRB04KT 0500 FG OVC002"
    },
    {
      "icao": "EYVI",
      "alert": "OK",
      "vis_m": 7000,
      "fzfg": false,
      "metar_trigger": false,
      "taf_trigger": false,
      "metar": "METAR EYVI 170150Z 36004KT 7000 OVC002 12/11 Q1009 TEMPO 1500 BR",
      "taf": "TAF EYVI 162300Z 1700/1724 VRB05KT 5000 -SHRA SCT005 BKN035CB"
    },
    {
      "icao": "GCFV",
      "alert": "OK",
      "vis_m": 9999,
      "fzfg": false,
      "metar_trigger": false,
      "taf_trigger": false,
      "metar": "METAR GCFV 170200Z AUTO 02018KT 9999 FEW025 BKN044 19/14 Q1019",
      "taf": "TAF GCFV 162000Z 1621/1721 02015KT 9999 BKN030 TX23/1714Z TN17/1706Z"
    },
    {
      "icao": "GCLP",
      "alert": "OK",
      "vis_m": 9999,
      "fzfg": false,
      "metar_trigger": false,
      "taf_trigger": false,
      "metar": "METAR GCLP 170200Z 35015KT 9999 SCT030 19/13 Q1020 NOSIG",
      "taf": "TAF GCLP 162000Z 1621/1721 01020KT 9999 BKN030 TX23/1714Z TN18/1706Z"
    },
    {
      "icao": "GCTS",
      "alert": "OK",
      "vis_m": 9999,
      "fzfg": false,
      "metar_trigger": false,
      "taf_trigger": false,
      "metar": "METAR GCTS 170200Z 06007KT 010V090 9999 BKN040 19/11 Q1021 NOSIG",
      "taf": "TAF GCTS 162000Z 1621/1721 03008KT 9999 SCT035 TX24/1714Z TN16/1706Z"
    },
    {
      "icao": "GMAD",
      "alert": "OK",
      "vis_m": 8000,
      "fzfg": false,
      "metar_trigger": false,
      "taf_trigger": false,
      "metar": "METAR GMAD 170200Z 16003KT 8000 NSC 16/12 Q1014 NOSIG",
      "taf": "TAF GMAD 162300Z 1700/1806 06008KT CAVOK"
    },
    {
      "icao": "GMMN",
      "alert": "OK",
      "vis_m": 9999,
      "fzfg": false,
      "metar_trigger": false,
      "taf_trigger": false,
      "metar": "METAR GMMN 170200Z VRB01KT 9999 BKN013 13/11 Q1017 NOSIG",
      "taf": "TAF GMMN 162300Z 1700/1806 04004KT 9999 SCT013 SCT020"
    },
    {
      "icao": "GMMX",
      "alert": "OK",
      "vis_m": 8000,
      "fzfg": false,
      "metar_trigger": false,
      "taf_trigger": false,
      "metar": "METAR GMMX 170200Z 03005KT 360V060 8000 NSC 16/12 Q1016 NOSIG",
      "taf": "TAF GMMX 162300Z 1700/1806 22008KT 8000 SCT033 SCT100"
    },
    {
      "icao": "HEGN",
      "alert": "OK",
      "vis_m": 9999,
      "fzfg": false,
      "metar_trigger": false,
      "taf_trigger": false,
      "metar": "METAR HEGN 170100Z 30009KT CAVOK 26/07 Q1010 NOSIG",
      "taf": "TAF HEGN 162300Z 1700/1806 31015KT CAVOK"
    },
    {
      "icao": "HEMA",
      "alert": "OK",
      "vis_m": 9999,
      "fzfg": false,
      "metar_trigger": false,
      "taf_trigger": false,
      "metar": "METAR HEMA 170100Z 33018KT CAVOK 28/05 Q1009 NOSIG",
      "taf": "TAF HEMA 162300Z 1700/1806 30015KT CAVOK"
    },
    {
      "icao": "HESH",
      "alert": "OK",
      "vis_m": 9999,
      "fzfg": false,
      "metar_trigger": false,
      "taf_trigger": false,
      "metar": "METAR HESH 170100Z 35012KT CAVOK 26/12 Q1010 NOSIG",
      "taf": "TAF HESH 162300Z 1700/1806 35012KT CAVOK"
    },
    {
      "icao": "HESX",
      "alert": "OK",
      "vis_m": 9999,
      "fzfg": false,
      "metar_trigger": false,
      "taf_trigger": false,
      "metar": "METAR HESX 170100Z 12006KT CAVOK 22/13 Q1009 NOSIG",
      "taf": "TAF HESX 162312Z 1700/1806 14007KT CAVOK"
    },
    {
      "icao": "LATI",
      "alert": "OK",
      "vis_m": 9999,
      "fzfg": false,
      "metar_trigger": false,
      "taf_trigger": false,
      "metar": "METAR LATI 170150Z 14009KT 9999 SCT030 BKN072 13/10 Q1007 NOSIG",
      "taf": "TAF LATI 162300Z 1700/1724 VRB05KT 9999 RA BKN025 OVC050 TX24/1712Z TN11/1704Z"
    },
    {
      "icao": "LBPD",
      "alert": "OK",
      "vis_m": 9999,
      "fzfg": false,
      "metar_trigger": false,
      "taf_trigger": false,
      "metar": "METAR LBPD 170200Z AUTO 24005KT 9999 FEW065/// 09/09 Q1002",
      "taf": "TAF LBPD 162300Z 1700/1724 28014KT 9999 SCT050"
    },
    {
      "icao": "LBSF",
      "alert": "OK",
      "vis_m": 9999,
      "fzfg": false,
      "metar_trigger": false,
      "taf_trigger": false,
      "metar": "METAR LBSF 170200Z AUTO 36004KT 320V020 9999 SCT053/// OVC067/// 09/05 Q1003 NOSIG",
      "taf": "TAF LBSF 162300Z 1700/1724 28014KT 9999 SCT050 BKN070"
    },
    {
      "icao": "LBWN",
      "alert": "OK",
      "vis_m": 9999,
      "fzfg": false,
      "metar_trigger": false,
      "taf_trigger": false,
      "metar": "METAR LBWN 170200Z AUTO 16003KT 100V180 9999 -RA OVC011/// 13/13 Q1001 NOSIG",
      "taf": "TAF LBWN 162300Z 1700/1724 10012KT 9999 SCT020 SCT045"
    },
    {
      "icao": "LCLK",
      "alert": "OK",
      "vis_m": 9999,
      "fzfg": false,
      "metar_trigger": false,
      "taf_trigger": false,
      "metar": "METAR LCLK 170200Z VRB02KT CAVOK 17/16 Q1007 NOSIG",
      "taf": "TAF LCLK 162330Z 1700/1800 23007KT CAVOK"
    },
    {
      "icao": "LCPH",
      "alert": "OK",
      "vis_m": 9999,
      "fzfg": false,
      "metar_trigger": false,
      "taf_trigger": false,
      "metar": "METAR LCPH 170200Z AUTO 08006KT 010V080 9999 NCD 16/12 Q1008 NOSIG",
      "taf": "TAF LCPH 162330Z 1700/1800 03007KT 9999 FEW012"
    },
    {
      "icao": "LEAL",
      "alert": "OK",
      "vis_m": 9999,
      "fzfg": false,
      "metar_trigger": false,
      "taf_trigger": false,
      "metar": "METAR LEAL 170200Z VRB01KT CAVOK 15/11 Q1016 NOSIG",
      "taf": "TAF LEAL 162300Z 1700/1724 VRB03KT CAVOK TX22/1712Z TN11/1706Z"
    },
    {
      "icao": "LEBB",
      "alert": "OK",
      "vis_m": 9999,
      "fzfg": false,
      "metar_trigger": false,
      "taf_trigger": false,
      "metar": "METAR LEBB 170200Z AUTO 12003KT 9999 OVC049 13/11 Q1017",
      "taf": "TAF LEBB 162300Z 1700/1724 31009KT 9999 FEW025 BKN040 TX17/1712Z TN08/1705Z"
    },
    {
      "icao": "LEBL",
      "alert": "OK",
      "vis_m": 9999,
      "fzfg": false,
      "metar_trigger": false,
      "taf_trigger": false,
      "metar": "METAR LEBL 170200Z 35001KT 9999 FEW032 15/10 Q1015 NOSIG",
      "taf": "TAF LEBL 162300Z 1700/1724 09007KT 9999 FEW020 TX20/1712Z TN13/1706Z"
    },
    {
      "icao": "LECH",
      "alert": "OK",
      "vis_m": 9999,
      "fzfg": false,
      "metar_trigger": false,
      "taf_trigger": false,
      "metar": "METAR LECH 170200Z AUTO 18003KT CAVOK 10/07 Q1016",
      "taf": "TAF LECH 162300Z 1700/1724 VRB04KT CAVOK TX22/1714Z TN08/1706Z"
    },
    {
      "icao": "LEMD",
      "alert": "OK",
      "vis_m": 9999,
      "fzfg": false,
      "metar_trigger": false,
      "taf_trigger": false,
      "metar": "METAR LEMD 170200Z 35004KT 330V030 9999 FEW075 10/05 Q1015 NOSIG",
      "taf": "TAF LEMD 162300Z 1700/1806 VRB04KT CAVOK TX24/1715Z TN06/1705Z"
    },
    {
      "icao": "LEMG",
      "alert": "OK",
      "vis_m": 9999,
      "fzfg": false,
      "metar_trigger": false,
      "taf_trigger": false,
      "metar": "METAR LEMG 170200Z 30008KT CAVOK 14/08 Q1015 NOSIG",
      "taf": "TAF LEMG 162300Z 1700/1724 13010KT 9999 FEW020 TX24/1714Z TN15/1707Z"
    },
    {
      "icao": "LEVC",
      "alert": "OK",
      "vis_m": 9999,
      "fzfg": false,
      "metar_trigger": false,
      "taf_trigger": false,
      "metar": "METAR LEVC 170200Z 30003KT 270V330 CAVOK 12/07 Q1016 NOSIG",
      "taf": "TAF LEVC 162300Z 1700/1724 VRB04KT CAVOK TX24/1712Z TN11/1706Z"
    },
    {
      "icao": "LEXJ",
      "alert": "OK",
      "vis_m": 9999,
      "fzfg": false,
      "metar_trigger": false,
      "taf_trigger": false,
      "metar": "METAR LEXJ 170200Z AUTO 23005KT 9999 3600E OVC050 13/10 Q1017",
      "taf": "TAF LEXJ 162000Z 1621/1721 23008KT 9999 FEW020 BKN050 TX18/1712Z TN11/1703Z"
    },
    {
      "icao": "LEZG",
      "alert": "OK",
      "vis_m": 9999,
      "fzfg": false,
      "metar_trigger": false,
      "taf_trigger": false,
      "metar": "METAR LEZG 170200Z 33003KT 270V010 CAVOK 10/06 Q1016 NOSIG",
      "taf": "TAF LEZG 162300Z 1700/1724 28009KT CAVOK TX24/1718Z TN09/1705Z"
    },
    {
      "icao": "LEZL",
      "alert": "OK",
      "vis_m": 9999,
      "fzfg": false,
      "metar_trigger": false,
      "taf_trigger": false,
      "metar": "METAR LEZL 170200Z AUTO 18005KT 150V220 CAVOK 16/13 Q1015",
      "taf": "TAF LEZL 162000Z 1621/1721 23009KT CAVOK TX29/1715Z TN14/1707Z"
    },
    {
      "icao": "LFBD",
      "alert": "OK",
      "vis_m": 9999,
      "fzfg": false,
      "metar_trigger": false,
      "taf_trigger": false,
      "metar": "METAR LFBD 170200Z AUTO 20004KT 9999 SCT022 BKN047 BKN068 11/11 Q1016 TEMPO 2000 RADZ BKN008 OVC020",
      "taf": "TAF LFBD 162300Z 1700/1806 21005KT 9999 BKN020 TX18/1713Z TN09/1806Z"
    },
    {
      "icao": "LFLL",
      "alert": "OK",
      "vis_m": 9999,
      "fzfg": false,
      "metar_trigger": false,
      "taf_trigger": false,
      "metar": "METAR LFLL 170200Z 14003KT CAVOK 08/05 Q1015 NOSIG",
      "taf": "TAF LFLL 162300Z 1700/1806 15004KT CAVOK"
    },
    {
      "icao": "LFLS",
      "alert": "OK",
      "vis_m": 9999,
      "fzfg": false,
      "metar_trigger": false,
      "taf_trigger": false,
      "metar": "METAR LFLS 170200Z AUTO 10003KT CAVOK 02/02 Q1015",
      "taf": ""
    },
    {
      "icao": "LFMN",
      "alert": "OK",
      "vis_m": 9999,
      "fzfg": false,
      "metar_trigger": false,
      "taf_trigger": false,
      "metar": "METAR LFMN 170200Z 34008KT CAVOK 15/01 Q1010 NOSIG",
      "taf": "TAF LFMN 162000Z 1621/1803 33010KT CAVOK"
    },
    {
      "icao": "LFOB",
      "alert": "OK",
      "vis_m": 9999,
      "fzfg": false,
      "metar_trigger": false,
      "taf_trigger": false,
      "metar": "METAR LFOB 170200Z AUTO VRB03KT 9999 -RA SCT013 BKN024 OVC030 10/09 Q1011 TEMPO 2500 RA BKN009",
      "taf": "TAF LFOB 162300Z 1700/1724 21006KT 9999 SCT030"
    },
    {
      "icao": "LFPO",
      "alert": "OK",
      "vis_m": 9999,
      "fzfg": false,
      "metar_trigger": false,
      "taf_trigger": false,
      "metar": "METAR LFPO 170200Z AUTO 20006KT 9999 -RA NSC 11/08 Q1012 NOSIG",
      "taf": "TAF LFPO 162300Z 1700/1806 22006KT 9999 BKN040"
    },
    {
      "icao": "LFSB",
      "alert": "OK",
      "vis_m": 9999,
      "fzfg": false,
      "metar_trigger": false,
      "taf_trigger": false,
      "metar": "METAR LFSB 170200Z AUTO 16005KT CAVOK 06/05 Q1015 NOSIG",
      "taf": "TAF LFSB 162300Z 1700/1724 VRB03KT CAVOK"
    },
    {
      "icao": "LGAV",
      "alert": "OK",
      "vis_m": 9999,
      "fzfg": false,
      "metar_trigger": false,
      "taf_trigger": false,
      "metar": "METAR LGAV 170150Z 24004KT 9999 FEW030 15/12 Q1006 NOSIG",
      "taf": "TAF LGAV 162300Z 1700/1724 20010KT 9999 FEW030"
    },
    {
      "icao": "LGTS",
      "alert": "OK",
      "vis_m": 9999,
      "fzfg": false,
      "metar_trigger": false,
      "taf_trigger": false,
      "metar": "METAR LGTS 170150Z 11004KT 9999 FEW020 11/05 Q1004 NOSIG",
      "taf": "TAF LGTS 162300Z 1700/1724 33015KT 9999 FEW030"
    },
    {
      "icao": "LHBP",
      "alert": "OK",
      "vis_m": 9999,
      "fzfg": false,
      "metar_trigger": false,
      "taf_trigger": false,
      "metar": "METAR LHBP 170200Z 33010KT 9999 -RA SCT043 OVC055 11/10 Q1004 NOSIG",
      "taf": "TAF LHBP 162315Z 1700/1724 33012KT 9999 -RA SCT015 BKN030 OVC070"
    },
    {
      "icao": "LHDC",
      "alert": "OK",
      "vis_m": 9999,
      "fzfg": false,
      "metar_trigger": false,
      "taf_trigger": false,
      "metar": "METAR LHDC 170145Z AUTO 03015KT 350V060 CAVOK 14/11 Q1001",
      "taf": "TAF LHDC 161715Z 1618/1703 02009KT 9999 SCT040 SCT085"
    },
    {
      "icao": "LIBD",
      "alert": "OK",
      "vis_m": 9999,
      "fzfg": false,
      "metar_trigger": false,
      "taf_trigger": false,
      "metar": "METAR LIBD 170150Z 28009KT 250V310 CAVOK 13/09 Q1009",
      "taf": "TAF LIBD 162300Z 1700/1724 28012KT 9999 SCT040"
    },
    {
      "icao": "LIBG",
      "alert": "OK",
      "vis_m": null,
      "fzfg": false,
      "metar_trigger": false,
      "taf_trigger": false,
      "metar": "",
      "taf": ""
    },
    {
      "icao": "LIBP",
      "alert": "OK",
      "vis_m": 9999,
      "fzfg": false,
      "metar_trigger": false,
      "taf_trigger": false,
      "metar": "METAR LIBP 170150Z AUTO 24004KT 9999 BKN089/// 11/09 Q1011",
      "taf": "TAF LIBP 162300Z 1700/1724 VRB05KT 9999 SCT025"
    },
    {
      "icao": "LIBR",
      "alert": "OK",
      "vis_m": 9999,
      "fzfg": false,
      "metar_trigger": false,
      "taf_trigger": false,
      "metar": "METAR LIBR 170150Z 27007KT CAVOK 13/11 Q1008",
      "taf": "TAF LIBR 162300Z 1700/1724 30015KT 9999 SCT030"
    },
    {
      "icao": "LICA",
      "alert": "OK",
      "vis_m": 9999,
      "fzfg": false,
      "metar_trigger": false,
      "taf_trigger": false,
      "metar": "METAR LICA 170150Z AUTO 30010KT 9999 FEW040/// 16/09 Q1011",
      "taf": "TAF LICA 162300Z 1700/1724 27015KT 9999 SCT040"
    },
    {
      "icao": "LICC",
      "alert": "OK",
      "vis_m": 9999,
      "fzfg": false,
      "metar_trigger": false,
      "taf_trigger": false,
      "metar": "METAR LICC 170150Z 30002KT CAVOK 15/06 Q1011",
      "taf": "TAF LICC 162300Z 1700/1724 VRB05KT CAVOK"
    },
    {
      "icao": "LICJ",
      "alert": "OK",
      "vis_m": 9999,
      "fzfg": false,
      "metar_trigger": false,
      "taf_trigger": false,
      "metar": "METAR LICJ 170150Z 33011KT 9999 FEW040 18/11 Q1011",
      "taf": "TAF LICJ 162300Z 1700/1724 33014KT CAVOK"
    },
    {
      "icao": "LIMC",
      "alert": "OK",
      "vis_m": 9999,
      "fzfg": false,
      "metar_trigger": false,
      "taf_trigger": false,
      "metar": "METAR LIMC 170150Z 02007KT CAVOK 12/M02 Q1011 NOSIG",
      "taf": "TAF LIMC 162300Z 1700/1806 35007KT 9999 FEW090"
    },
    {
      "icao": "LIME",
      "alert": "OK",
      "vis_m": 9999,
      "fzfg": false,
      "metar_trigger": false,
      "taf_trigger": false,
      "metar": "METAR LIME 170150Z 36004KT 340V040 CAVOK 11/M00 Q1011 NOSIG",
      "taf": "TAF LIME 162300Z 1700/1724 01006KT CAVOK"
    },
    {
      "icao": "LIMF",
      "alert": "OK",
      "vis_m": 9999,
      "fzfg": false,
      "metar_trigger": false,
      "taf_trigger": false,
      "metar": "METAR LIMF 170150Z 23004KT 9999 BKN100 12/01 Q1011",
      "taf": "TAF LIMF 162300Z 1700/1724 30006KT 9999 FEW090"
    },
    {
      "icao": "LIMJ",
      "alert": "OK",
      "vis_m": 9999,
      "fzfg": false,
      "metar_trigger": false,
      "taf_trigger": false,
      "metar": "METAR LIMJ 170150Z VRB02KT CAVOK 13/06 Q1011",
      "taf": "TAF LIMJ 162300Z 1700/1724 04007KT CAVOK"
    },
    {
      "icao": "LIPE",
      "alert": "OK",
      "vis_m": 9999,
      "fzfg": false,
      "metar_trigger": false,
      "taf_trigger": false,
      "metar": "METAR LIPE 170150Z AUTO 21006KT 9999 NCD 11/05 Q1010",
      "taf": "TAF LIPE 162300Z 1700/1724 VRB05KT 9999 FEW030"
    },
    {
      "icao": "LIPH",
      "alert": "OK",
      "vis_m": 9999,
      "fzfg": false,
      "metar_trigger": false,
      "taf_trigger": false,
      "metar": "METAR LIPH 170150Z AUTO 03006KT 9999 BKN086/// 12/08 Q1010",
      "taf": "TAF LIPH 162300Z 1700/1724 VRB05KT 9999 SCT040"
    },
    {
      "icao": "LIPQ",
      "alert": "OK",
      "vis_m": 9999,
      "fzfg": false,
      "metar_trigger": false,
      "taf_trigger": false,
      "metar": "METAR LIPQ 170150Z AUTO 04002KT 9999 NCD 08/07 Q1011",
      "taf": "TAF LIPQ 162300Z 1700/1724 07006KT 9999 FEW050"
    },
    {
      "icao": "LIPR",
      "alert": "OK",
      "vis_m": 9999,
      "fzfg": false,
      "metar_trigger": false,
      "taf_trigger": false,
      "metar": "METAR LIPR 170150Z AUTO 24002KT 9999 NCD 08/05 Q1010",
      "taf": "TAF LIPR 162300Z 1700/1724 21007KT 9999 SCT040"
    },
    {
      "icao": "LIPX",
      "alert": "OK",
      "vis_m": 9999,
      "fzfg": false,
      "metar_trigger": false,
      "taf_trigger": false,
      "metar": "METAR LIPX 170120Z 01008KT CAVOK 14/M02 Q1010",
      "taf": "TAF LIPX 162300Z 1700/1724 VRB05KT CAVOK"
    },
    {
      "icao": "LIPY",
      "alert": "OK",
      "vis_m": 9999,
      "fzfg": false,
      "metar_trigger": false,
      "taf_trigger": false,
      "metar": "METAR LIPY 170150Z AUTO 13005KT 090V170 9999 SCT071/// 10/07 Q1011",
      "taf": "TAF LIPY 162300Z 1700/1724 VRB05KT 9999 SCT040"
    },
    {
      "icao": "LIPZ",
      "alert": "OK",
      "vis_m": 9999,
      "fzfg": false,
      "metar_trigger": false,
      "taf_trigger": false,
      "metar": "METAR LIPZ 170150Z 03007KT CAVOK 11/09 Q1010 NOSIG",
      "taf": "TAF LIPZ 162300Z 1700/1806 23010KT 9999 FEW010"
    },
    {
      "icao": "LIRF",
      "alert": "OK",
      "vis_m": 9999,
      "fzfg": false,
      "metar_trigger": false,
      "taf_trigger": false,
      "metar": "METAR LIRF 170150Z 34004KT CAVOK 08/07 Q1011 NOSIG",
      "taf": "TAF LIRF 162300Z 1700/1806 02007KT CAVOK"
    },
    {
      "icao": "LIRN",
      "alert": "OK",
      "vis_m": 9999,
      "fzfg": false,
      "metar_trigger": false,
      "taf_trigger": false,
      "metar": "METAR LIRN 170150Z 26002KT CAVOK 10/08 Q1011 NOSIG",
      "taf": "TAF LIRN 162300Z 1700/1724 VRB05KT CAVOK"
    },
    {
      "icao": "LIRP",
      "alert": "OK",
      "vis_m": 9999,
      "fzfg": false,
      "metar_trigger": false,
      "taf_trigger": false,
      "metar": "METAR LIRP 170145Z 10003KT CAVOK 08/08 Q1012 NOSIG",
      "taf": "TAF LIRP 162300Z 1700/1724 09005KT CAVOK"
    },
    {
      "icao": "LIRZ",
      "alert": "OK",
      "vis_m": 9999,
      "fzfg": false,
      "metar_trigger": false,
      "taf_trigger": false,
      "metar": "METAR LIRZ 170150Z AUTO 35004KT 9999 NCD 07/06 Q1012",
      "taf": "TAF LIRZ 162300Z 1700/1724 VRB05KT CAVOK"
    },
    {
      "icao": "LJLJ",
      "alert": "OK",
      "vis_m": 9999,
      "fzfg": false,
      "metar_trigger": false,
      "taf_trigger": false,
      "metar": "METAR LJLJ 170200Z 08002KT 9999 FEW070 SCT200 06/03 Q1011 NOSIG",
      "taf": "TAF LJLJ 162300Z 1700/1800 32008KT 9999 FEW070"
    },
    {
      "icao": "LKMT",
      "alert": "OK",
      "vis_m": 9999,
      "fzfg": false,
      "metar_trigger": false,
      "taf_trigger": false,
      "metar": "METAR LKMT 170200Z 01005KT 9999 -RA FEW030 BKN048 09/08 Q1012 NOSIG",
      "taf": "TAF LKMT 162300Z 1700/1724 02008KT 9999 -RA OVC040"
    },
    {
      "icao": "LKPR",
      "alert": "OK",
      "vis_m": 9999,
      "fzfg": false,
      "metar_trigger": false,
      "taf_trigger": false,
      "metar": "METAR LKPR 170200Z 24006KT CAVOK 05/03 Q1014 NOSIG",
      "taf": "TAF LKPR 162300Z 1700/1806 27005KT 9999 SCT045"
    },
    {
      "icao": "LLBG",
      "alert": "OK",
      "vis_m": 9999,
      "fzfg": false,
      "metar_trigger": false,
      "taf_trigger": false,
      "metar": "METAR LLBG 170150Z 13004KT CAVOK 18/13 Q1011 NOSIG",
      "taf": "TAF LLBG 162309Z 1700/1724 VRB04KT 9999 FEW020 TX35/1712Z TN16/1702Z"
    },
    {
      "icao": "LMML",
      "alert": "OK",
      "vis_m": 9999,
      "fzfg": false,
      "metar_trigger": false,
      "taf_trigger": false,
      "metar": "METAR LMML 170145Z 36008G22KT 280V020 CAVOK 17/09 Q1011 NOSIG",
      "taf": "TAF LMML 162300Z 1700/1724 34012KT 9999 FEW018"
    },
    {
      "icao": "LOWW",
      "alert": "OK",
      "vis_m": 9999,
      "fzfg": false,
      "metar_trigger": false,
      "taf_trigger": false,
      "metar": "METAR LOWW 170150Z 31012KT 9999 FEW050 10/07 Q1011 NOSIG",
      "taf": "TAF LOWW 162315Z 1700/1806 32012KT 9999 FEW020 BKN040 TX15/1713Z TN07/1803Z"
    },
    {
      "icao": "LPFR",
      "alert": "OK",
      "vis_m": 9999,
      "fzfg": false,
      "metar_trigger": false,
      "taf_trigger": false,
      "metar": "METAR LPFR 170200Z 35009KT CAVOK 15/09 Q1016",
      "taf": "TAF LPFR 162300Z 1700/1724 32007KT CAVOK"
    },
    {
      "icao": "LPMA",
      "alert": "OK",
      "vis_m": 9999,
      "fzfg": false,
      "metar_trigger": false,
      "taf_trigger": false,
      "metar": "METAR LPMA 170200Z 36011KT 330V040 9999 BKN015 16/12 Q1023",
      "taf": "TAF LPMA 162300Z 1700/1724 36010KT 9999 SCT015"
    },
    {
      "icao": "LPPR",
      "alert": "OK",
      "vis_m": 9999,
      "fzfg": false,
      "metar_trigger": false,
      "taf_trigger": false,
      "metar": "METAR LPPR 170200Z 00000KT 9999 FEW020 11/10 Q1017",
      "taf": "TAF LPPR 162300Z 1700/1724 33008KT 9999 SCT020"
    },
    {
      "icao": "LPPS",
      "alert": "OK",
      "vis_m": 9999,
      "fzfg": false,
      "metar_trigger": false,
      "taf_trigger": false,
      "metar": "METAR LPPS 170200Z 36010KT 9999 FEW015 BKN030 16/11 Q1023",
      "taf": "TAF LPPS 162300Z 1700/1806 01012KT 9999 SCT015 SCT030"
    },
    {
      "icao": "LPPT",
      "alert": "OK",
      "vis_m": 9999,
      "fzfg": false,
      "metar_trigger": false,
      "taf_trigger": false,
      "metar": "METAR LPPT 170200Z 31005KT 270V340 9999 FEW020 13/10 Q1018",
      "taf": "TAF LPPT 162300Z 1700/1806 33007KT 9999 SCT025"
    },
    {
      "icao": "LQBK",
      "alert": "OK",
      "vis_m": 9999,
      "fzfg": false,
      "metar_trigger": false,
      "taf_trigger": false,
      "metar": "METAR LQBK 170200Z 29016KT 9999 -RA SCT030 BKN040 11/06 Q1009 NOSIG",
      "taf": "TAF LQBK 162300Z 1700/1724 30012KT 9999 SCT012 BKN030 TX17/1714Z TN08/1723Z"
    },
    {
      "icao": "LQSA",
      "alert": "OK",
      "vis_m": 9999,
      "fzfg": false,
      "metar_trigger": false,
      "taf_trigger": false,
      "metar": "METAR LQSA 170200Z 32005KT 9999 OVC035 09/06 Q1007",
      "taf": "TAF LQSA 162300Z 1700/1724 31006KT 9999 SCT018 BKN040 TX14/1714Z TN06/1723Z"
    },
    {
      "icao": "LQTZ",
      "alert": "OK",
      "vis_m": 9999,
      "fzfg": false,
      "metar_trigger": false,
      "taf_trigger": false,
      "metar": "METAR LQTZ 170200Z 28010KT 9999 -RA OVC018 09/09 Q1006",
      "taf": "TAF LQTZ 162300Z 1700/1724 27005KT 9999 -RA SCT013 BKN030 TX16/1713Z TN05/1723Z"
    },
    {
      "icao": "LRBC",
      "alert": "OK",
      "vis_m": 8000,
      "fzfg": false,
      "metar_trigger": false,
      "taf_trigger": false,
      "metar": "METAR LRBC 170200Z VRB02KT 8000 FEW014 BKN051 10/09 Q1004",
      "taf": "TAF LRBC 162300Z 1700/1709 VRB04KT CAVOK"
    },
    {
      "icao": "LRBS",
      "alert": "OK",
      "vis_m": 8000,
      "fzfg": false,
      "metar_trigger": false,
      "taf_trigger": false,
      "metar": "METAR LRBS 170200Z 19004KT 140V240 8000 -RA OVC006 14/13 Q1000 NOSIG",
      "taf": ""
    },
    {
      "icao": "LRBV",
      "alert": "OK",
      "vis_m": 9999,
      "fzfg": false,
      "metar_trigger": false,
      "taf_trigger": false,
      "metar": "METAR LRBV 170200Z AUTO 07009KT 9999 FEW030/// BKN051/// OVC082/// 11/10 Q1000 RERA",
      "taf": "TAF LRBV 161700Z 1618/1703 08012KT 9999 SCT060"
    },
    {
      "icao": "LRCL",
      "alert": "OK",
      "vis_m": 7000,
      "fzfg": false,
      "metar_trigger": false,
      "taf_trigger": false,
      "metar": "METAR LRCL 170200Z 28002KT 7000 FEW003 11/10 Q1000",
      "taf": ""
    },
    {
      "icao": "LRCV",
      "alert": "OK",
      "vis_m": 9999,
      "fzfg": false,
      "metar_trigger": false,
      "taf_trigger": false,
      "metar": "METAR LRCV 170200Z 27011KT 9999 RA FEW007 BKN020 12/12 Q1000",
      "taf": "TAF LRCV 162300Z 1700/1709 27010KT 9999 BKN045"
    },
    {
      "icao": "LRIA",
      "alert": "OK",
      "vis_m": 9999,
      "fzfg": false,
      "metar_trigger": false,
      "taf_trigger": false,
      "metar": "METAR LRIA 170200Z 08007KT CAVOK 09/07 Q1005",
      "taf": "TAF LRIA 162300Z 1700/1709 10008KT CAVOK"
    },
    {
      "icao": "LROP",
      "alert": "OK",
      "vis_m": 9999,
      "fzfg": false,
      "metar_trigger": false,
      "taf_trigger": false,
      "metar": "METAR LROP 170200Z 16006KT 9999 -RA BKN008 14/14 Q1000 NOSIG",
      "taf": ""
    },
    {
      "icao": "LRSB",
      "alert": "OK",
      "vis_m": 9999,
      "fzfg": false,
      "metar_trigger": false,
      "taf_trigger": false,
      "metar": "METAR LRSB 170200Z VRB01KT 9999 -RA FEW030 BKN065 13/11 Q0999",
      "taf": "TAF LRSB 162300Z 1700/1724 11006KT 9999 SCT050 BKN060"
    },
    {
      "icao": "LRSM",
      "alert": "OK",
      "vis_m": 9999,
      "fzfg": false,
      "metar_trigger": false,
      "taf_trigger": false,
      "metar": "METAR LRSM 170200Z AUTO 05004KT 9999 FEW070/// 13/11 Q1001",
      "taf": ""
    },
    {
      "icao": "LRSV",
      "alert": "OK",
      "vis_m": 9999,
      "fzfg": false,
      "metar_trigger": false,
      "taf_trigger": false,
      "metar": "METAR LRSV 170200Z 08004KT CAVOK 08/07 Q1004",
      "taf": "TAF LRSV 162300Z 1700/1709 11008KT CAVOK"
    },
    {
      "icao": "LRTM",
      "alert": "OK",
      "vis_m": 9999,
      "fzfg": false,
      "metar_trigger": false,
      "taf_trigger": false,
      "metar": "METAR LRTM 170200Z 09005KT CAVOK 12/09 Q1000",
      "taf": "TAF LRTM 162300Z 1700/1709 10008KT CAVOK"
    },
    {
      "icao": "LRTR",
      "alert": "OK",
      "vis_m": 9999,
      "fzfg": false,
      "metar_trigger": false,
      "taf_trigger": false,
      "metar": "METAR LRTR 170200Z VRB02KT 9999 -RA FEW002 SCT019 13/13 Q1000",
      "taf": "TAF LRTR 162300Z 1700/1724 VRB04KT 9999 SCT015 OVC030"
    },
    {
      "icao": "LTAC",
      "alert": "OK",
      "vis_m": 9999,
      "fzfg": false,
      "metar_trigger": false,
      "taf_trigger": false,
      "metar": "METAR LTAC 170150Z 36002KT 9999 SCT040 BKN100 10/08 Q1007 NOSIG RMK RWY21C VRB02KT RWY03L 35002KT RWY21R VRB02KT RWY03R 33002KT RWY21L 33004KT",
      "taf": "TAF LTAC 162240Z 1700/1724 24012KT 9999 SCT040 BKN100"
    },
    {
      "icao": "LTFM",
      "alert": "OK",
      "vis_m": 9999,
      "fzfg": false,
      "metar_trigger": false,
      "taf_trigger": false,
      "metar": "METAR LTFM 170150Z 22014KT 9999 SCT032 SCT080 17/14 Q1002 NOSIG RMK RWY17L 22014KT RWY34L 20012KT RWY16R 21014KT RWY36 22015KT RWY18 23017KT",
      "taf": "TAF LTFM 162240Z 1700/1806 22016G28KT 9999 -SHRA BKN032 BKN080"
    },
    {
      "icao": "LUKK",
      "alert": "OK",
      "vis_m": 9999,
      "fzfg": false,
      "metar_trigger": false,
      "taf_trigger": false,
      "metar": "METAR LUKK 170200Z VRB02KT CAVOK 08/07 Q1006 NOSIG",
      "taf": "TAF LUKK 162321Z 1700/1724 VRB04KT CAVOK"
    },
    {
      "icao": "LWOH",
      "alert": "OK",
      "vis_m": null,
      "fzfg": false,
      "metar_trigger": false,
      "taf_trigger": false,
      "metar": "",
      "taf": "TAF LWOH 162330Z 1700/1724 VRB02KT 9999 SCT030"
    },
    {
      "icao": "LWSK",
      "alert": "OK",
      "vis_m": 9999,
      "fzfg": false,
      "metar_trigger": false,
      "taf_trigger": false,
      "metar": "METAR LWSK 170150Z 16003KT 100V250 9999 FEW075 07/04 Q1004 NOSIG",
      "taf": "TAF LWSK 162330Z 1700/1724 16008KT CAVOK"
    },
    {
      "icao": "LYBE",
      "alert": "OK",
      "vis_m": 5000,
      "fzfg": false,
      "metar_trigger": false,
      "taf_trigger": false,
      "metar": "METAR LYBE 170200Z 28018KT 5000 -RA BKN006 BKN030 11/10 Q1001 NOSIG",
      "taf": ""
    },
    {
      "icao": "LYNI",
      "alert": "OK",
      "vis_m": 9999,
      "fzfg": false,
      "metar_trigger": false,
      "taf_trigger": false,
      "metar": "METAR LYNI 170200Z 15002KT 9999 -RA OVC047 10/10 Q1004 NOSIG",
      "taf": "TAF LYNI 162300Z 1700/1724 24006KT 9999 SCT020 BKN070 TX12/1713Z TN09/1724Z"
    },
    {
      "icao": "LYPG",
      "alert": "OK",
      "vis_m": 9999,
      "fzfg": false,
      "metar_trigger": false,
      "taf_trigger": false,
      "metar": "METAR LYPG 170200Z VRB01KT 9999 FEW020 SCT050 12/12 Q1006 NOSIG",
      "taf": "TAF LYPG 162300Z 1700/1724 02005KT 9999 SCT040 SCT080 TX22/1713Z TN11/1704Z"
    },
    {
      "icao": "LZIB",
      "alert": "OK",
      "vis_m": 9999,
      "fzfg": false,
      "metar_trigger": false,
      "taf_trigger": false,
      "metar": "METAR LZIB 170200Z 33011KT CAVOK 11/07 Q1010 NOSIG",
      "taf": "TAF LZIB 162315Z 1700/1800 33015KT 9999 FEW040"
    },
    {
      "icao": "LZKZ",
      "alert": "OK",
      "vis_m": 9999,
      "fzfg": false,
      "metar_trigger": false,
      "taf_trigger": false,
      "metar": "METAR LZKZ 170200Z 36019KT 9999 -RA SCT025 11/09 Q1004 NOSIG",
      "taf": "TAF LZKZ 162315Z 1700/1800 36018KT 9999 FEW020 SCT038"
    },
    {
      "icao": "LZTT",
      "alert": "OK",
      "vis_m": 9999,
      "fzfg": false,
      "metar_trigger": false,
      "taf_trigger": false,
      "metar": "METAR LZTT 170200Z 22002KT 9999 -RA FEW005 BKN040 OVC056 07/07 Q1007",
      "taf": "TAF LZTT 162315Z 1700/1800 27004KT 9999 SCT016 BKN030"
    },
    {
      "icao": "OEJN",
      "alert": "OK",
      "vis_m": 9999,
      "fzfg": false,
      "metar_trigger": false,
      "taf_trigger": false,
      "metar": "METAR OEJN 170200Z 34007KT CAVOK 26/16 Q1006 NOSIG",
      "taf": "TAF OEJN 162300Z 1700/1806 35006KT 7000 NSC"
    },
    {
      "icao": "OEMA",
      "alert": "OK",
      "vis_m": 9999,
      "fzfg": false,
      "metar_trigger": false,
      "taf_trigger": false,
      "metar": "METAR OEMA 170200Z 33007KT CAVOK 27/M05 Q1012 NOSIG",
      "taf": "TAF OEMA 162300Z 1700/1806 VRB03KT 6000 NSC"
    },
    {
      "icao": "OJAI",
      "alert": "OK",
      "vis_m": 4000,
      "fzfg": false,
      "metar_trigger": false,
      "taf_trigger": false,
      "metar": "METAR OJAI 170100Z 30012KT 4000 DU NSC 12/03 Q1014 NOSIG",
      "taf": "TAF OJAI 162300Z 1700/1806 25010KT 5000 HZ NSC"
    },
    {
      "icao": "OMAA",
      "alert": "OK",
      "vis_m": 9999,
      "fzfg": false,
      "metar_trigger": false,
      "taf_trigger": false,
      "metar": "METAR OMAA 170200Z 11005KT CAVOK 26/18 Q1001 NOSIG",
      "taf": "TAF OMAA 162300Z 1700/1806 10005KT 8000 NSC"
    },
    {
      "icao": "OMDB",
      "alert": "OK",
      "vis_m": 7000,
      "fzfg": false,
      "metar_trigger": false,
      "taf_trigger": false,
      "metar": "METAR OMDB 170200Z 08006KT 7000 NSC 28/24 Q1002 NOSIG",
      "taf": "TAF OMDB 162300Z 1700/1806 11007KT 8000 NSC"
    },
    {
      "icao": "UAAA",
      "alert": "OK",
      "vis_m": 9999,
      "fzfg": false,
      "metar_trigger": false,
      "taf_trigger": false,
      "metar": "METAR UAAA 170200Z 24003MPS 9999 SCT100 BKN200 14/01 Q1013 NOSIG",
      "taf": "TAF UAAA 162301Z 1700/1724 23002G07MPS 9999 SCT100 TX26/1710Z TN07/1701Z"
    },
    {
      "icao": "UBBB",
      "alert": "OK",
      "vis_m": 9999,
      "fzfg": false,
      "metar_trigger": false,
      "taf_trigger": false,
      "metar": "METAR UBBB 170200Z 32014KT 9999 -SHRA SCT008 SCT026CB OVC026 15/14 Q1001 NOSIG",
      "taf": "TAF UBBB 162256Z 1700/1724 32014KT 9999 FEW040CB BKN040 TX17/1710Z TN15/1702Z"
    },
    {
      "icao": "UDSG",
      "alert": "OK",
      "vis_m": 9999,
      "fzfg": false,
      "metar_trigger": false,
      "taf_trigger": false,
      "metar": "METAR UDSG 170200Z 30002KT 9999 FEW049 03/02 Q1010 NOSIG",
      "taf": "TAF UDSG 162300Z 1700/1724 VRB06KT 9999 SCT040"
    },
    {
      "icao": "UDYZ",
      "alert": "OK",
      "vis_m": 9999,
      "fzfg": false,
      "metar_trigger": false,
      "taf_trigger": false,
      "metar": "METAR UDYZ 170200Z 25002KT 9999 FEW046 09/07 Q1007 NOSIG",
      "taf": "TAF UDYZ 162300Z 1700/1724 12004KT 9999 FEW040"
    },
    {
      "icao": "UGKO",
      "alert": "OK",
      "vis_m": 9999,
      "fzfg": false,
      "metar_trigger": false,
      "taf_trigger": false,
      "metar": "METAR UGKO 170200Z 09004KT 060V120 9999 OVC086 11/11 Q1008 NOSIG",
      "taf": "TAF UGKO 162300Z 1700/1724 09008KT CAVOK TX24/1712Z TN11/1702Z"
    }
  ]
}