{
  "ts_utc": "2026-04-01T12:39:09Z",
  "threshold_m": 150,
  "source": "stations_override.txt (ICAO list) + aviationweather.gov (METAR/TAF raw)",
  "station_count": 159,
  "stations": [
    {
      "icao": "BIKF",
      "alert": "OK",
      "vis_m": 9999,
      "fzfg": false,
      "metar_trigger": false,
      "taf_trigger": false,
      "metar": "METAR BIKF 011230Z 16011KT 9999 BKN039 OVC150 02/M01 Q1017",
      "taf": "TAF BIKF 011040Z 0112/0212 17008KT 9999 SCT030 BKN040 TX04/0115Z TN00/0204Z"
    },
    {
      "icao": "BKPR",
      "alert": "OK",
      "vis_m": 9999,
      "fzfg": false,
      "metar_trigger": false,
      "taf_trigger": false,
      "metar": "METAR BKPR 011230Z 01014KT 9999 -RA SCT015 BKN025 06/04 Q1009 NOSIG",
      "taf": "TAF BKPR 011130Z 0112/0212 36015KT 9999 SCT015 BKN025"
    },
    {
      "icao": "EBCI",
      "alert": "OK",
      "vis_m": 9999,
      "fzfg": false,
      "metar_trigger": false,
      "taf_trigger": false,
      "metar": "METAR EBCI 011220Z 10004KT 040V210 9999 FEW030 11/02 Q1023 NOSIG",
      "taf": "TAF EBCI 011120Z 0112/0218 10003KT 9999 FEW025"
    },
    {
      "icao": "EDDB",
      "alert": "OK",
      "vis_m": 9999,
      "fzfg": false,
      "metar_trigger": false,
      "taf_trigger": false,
      "metar": "METAR EDDB 011220Z AUTO VRB04KT 9999 FEW032 10/03 Q1025 NOSIG",
      "taf": "TAF EDDB 011100Z 0112/0212 VRB03KT 9999 SCT025"
    },
    {
      "icao": "EDDH",
      "alert": "OK",
      "vis_m": 9999,
      "fzfg": false,
      "metar_trigger": false,
      "taf_trigger": false,
      "metar": "METAR EDDH 011220Z AUTO 18004KT 130V220 9999 FEW030 11/04 Q1025 NOSIG",
      "taf": "TAF EDDH 011100Z 0112/0218 24006KT CAVOK"
    },
    {
      "icao": "EDDK",
      "alert": "OK",
      "vis_m": 9999,
      "fzfg": false,
      "metar_trigger": false,
      "taf_trigger": false,
      "metar": "METAR EDDK 011220Z AUTO 15008KT 090V180 CAVOK 11/00 Q1024 NOSIG",
      "taf": "TAF EDDK 011100Z 0112/0218 12006KT CAVOK"
    },
    {
      "icao": "EDDN",
      "alert": "OK",
      "vis_m": 9999,
      "fzfg": false,
      "metar_trigger": false,
      "taf_trigger": false,
      "metar": "METAR EDDN 011220Z AUTO VRB03KT 9999 OVC045 08/M00 Q1024 NOSIG",
      "taf": "TAF EDDN 011100Z 0112/0212 04005KT 9999 BKN025"
    },
    {
      "icao": "EDDS",
      "alert": "OK",
      "vis_m": 9999,
      "fzfg": false,
      "metar_trigger": false,
      "taf_trigger": false,
      "metar": "METAR EDDS 011220Z AUTO 07010KT 9999 SCT033 SCT042 07/00 Q1022 NOSIG",
      "taf": "TAF EDDS 011100Z 0112/0212 05006KT 9999 BKN020"
    },
    {
      "icao": "EDFH",
      "alert": "OK",
      "vis_m": 9999,
      "fzfg": false,
      "metar_trigger": false,
      "taf_trigger": false,
      "metar": "METAR EDFH 011220Z 07004KT 010V130 9999 FEW038 08/M02 Q1023",
      "taf": "TAF EDFH 011100Z 0112/0212 09007KT 9999 BKN040"
    },
    {
      "icao": "EDJA",
      "alert": "OK",
      "vis_m": 8000,
      "fzfg": false,
      "metar_trigger": false,
      "taf_trigger": false,
      "metar": "METAR EDJA 011220Z 02010KT 8000 SHRA BKN018TCU 03/01 Q1021",
      "taf": "TAF EDJA 011100Z 0112/0121 06008KT 9999 BKN025"
    },
    {
      "icao": "EDLW",
      "alert": "OK",
      "vis_m": 9999,
      "fzfg": false,
      "metar_trigger": false,
      "taf_trigger": false,
      "metar": "METAR EDLW 011220Z VRB04KT 9999 FEW037 10/01 Q1024",
      "taf": "TAF EDLW 011100Z 0112/0212 07005KT CAVOK"
    },
    {
      "icao": "EDNY",
      "alert": "OK",
      "vis_m": 9999,
      "fzfg": false,
      "metar_trigger": false,
      "taf_trigger": false,
      "metar": "METAR EDNY 011220Z 06011KT 030V090 9999 FEW035 SCT041 07/M01 Q1022",
      "taf": "TAF EDNY 011100Z 0112/0121 05006KT 9999 BKN035"
    },
    {
      "icao": "EDSB",
      "alert": "OK",
      "vis_m": 9999,
      "fzfg": false,
      "metar_trigger": false,
      "taf_trigger": false,
      "metar": "METAR EDSB 011220Z 04011KT 9999 FEW042 10/01 Q1023",
      "taf": "TAF EDSB 011100Z 0112/0212 04008KT 9999 SCT025"
    },
    {
      "icao": "EETN",
      "alert": "OK",
      "vis_m": 9999,
      "fzfg": false,
      "metar_trigger": false,
      "taf_trigger": false,
      "metar": "METAR EETN 011220Z 26005KT 9999 SCT009 03/00 Q1022 TEMPO BKN009",
      "taf": "TAF EETN 011130Z 0112/0212 26005KT 9999 OVC006"
    },
    {
      "icao": "EFTU",
      "alert": "OK",
      "vis_m": 9999,
      "fzfg": false,
      "metar_trigger": false,
      "taf_trigger": false,
      "metar": "METAR EFTU 011220Z AUTO 22011KT 170V240 CAVOK 07/01 Q1020",
      "taf": "TAF EFTU 011123Z 0112/0212 23011KT CAVOK"
    },
    {
      "icao": "EGBB",
      "alert": "OK",
      "vis_m": 9999,
      "fzfg": false,
      "metar_trigger": false,
      "taf_trigger": false,
      "metar": "METAR EGBB 011220Z 27007KT 9999 BKN043 12/03 Q1023",
      "taf": "TAF EGBB 011054Z 0112/0212 28008KT 9999 BKN045"
    },
    {
      "icao": "EGGP",
      "alert": "OK",
      "vis_m": 9999,
      "fzfg": false,
      "metar_trigger": false,
      "taf_trigger": false,
      "metar": "METAR EGGP 011220Z 27007KT 9999 FEW024 BKN041 11/06 Q1023",
      "taf": "TAF EGGP 011055Z 0112/0212 25004KT 9999 SCT045"
    },
    {
      "icao": "EGGW",
      "alert": "OK",
      "vis_m": 9999,
      "fzfg": false,
      "metar_trigger": false,
      "taf_trigger": false,
      "metar": "METAR EGGW 011220Z AUTO 30005KT 240V020 9999 FEW035 OVC045 12/03 Q1023",
      "taf": "TAF EGGW 011058Z 0112/0212 30007KT 9999 SCT030"
    },
    {
      "icao": "EGKK",
      "alert": "OK",
      "vis_m": 9999,
      "fzfg": false,
      "metar_trigger": false,
      "taf_trigger": false,
      "metar": "METAR EGKK 011220Z 33008KT 9999 FEW045 14/04 Q1024",
      "taf": "TAF EGKK 011103Z 0112/0218 32005KT 9999 SCT040"
    },
    {
      "icao": "EGNM",
      "alert": "OK",
      "vis_m": 9999,
      "fzfg": false,
      "metar_trigger": false,
      "taf_trigger": false,
      "metar": "METAR EGNM 011220Z 24010KT 9999 SCT015 BKN035 10/06 Q1021",
      "taf": "TAF EGNM 011100Z 0112/0212 27004KT 9999 FEW015 SCT030"
    },
    {
      "icao": "EGPD",
      "alert": "OK",
      "vis_m": 9999,
      "fzfg": false,
      "metar_trigger": false,
      "taf_trigger": false,
      "metar": "METAR EGPD 011220Z COR AUTO 24009KT 210V290 9999 NCD 14/06 Q1014 NOSIG",
      "taf": "TAF EGPD 011054Z 0112/0212 21009KT 9999 SCT030"
    },
    {
      "icao": "EGPF",
      "alert": "OK",
      "vis_m": 2500,
      "fzfg": false,
      "metar_trigger": false,
      "taf_trigger": false,
      "metar": "METAR EGPF 011220Z AUTO 21016KT 2500 -RADZ BKN009 BKN013 OVC018 10/09 Q1017",
      "taf": "TAF EGPF 011057Z 0112/0212 22010KT 9999 SCT040"
    },
    {
      "icao": "EHBK",
      "alert": "OK",
      "vis_m": 9999,
      "fzfg": false,
      "metar_trigger": false,
      "taf_trigger": false,
      "metar": "METAR EHBK 011225Z AUTO 11007KT 030V160 9999 NCD 11/01 Q1024 NOSIG",
      "taf": "TAF EHBK 011116Z 0112/0218 09006KT 9999 FEW030"
    },
    {
      "icao": "EHEH",
      "alert": "OK",
      "vis_m": 9999,
      "fzfg": false,
      "metar_trigger": false,
      "taf_trigger": false,
      "metar": "METAR EHEH 011225Z AUTO 11005KT 040V180 9999 NCD 12/02 Q1024 BLU TEMPO 4000 BR MIFG RMK TREND REMOTE BY EHWX",
      "taf": "TAF EHEH 011110Z 0112/0218 15005KT 9999 SCT034"
    },
    {
      "icao": "EKBI",
      "alert": "OK",
      "vis_m": 9999,
      "fzfg": false,
      "metar_trigger": false,
      "taf_trigger": false,
      "metar": "METAR EKBI 011220Z AUTO 20009KT 170V230 9999 FEW018/// BKN065/// 09/04 Q1024",
      "taf": "TAF EKBI 011127Z 0112/0212 23008KT CAVOK"
    },
    {
      "icao": "EKCH",
      "alert": "OK",
      "vis_m": 9999,
      "fzfg": false,
      "metar_trigger": false,
      "taf_trigger": false,
      "metar": "METAR EKCH 011220Z AUTO 17008KT 9999 NCD 09/03 Q1024 NOSIG",
      "taf": "TAF EKCH 011127Z 0112/0212 18008KT CAVOK"
    },
    {
      "icao": "ENAL",
      "alert": "OK",
      "vis_m": 1500,
      "fzfg": false,
      "metar_trigger": false,
      "taf_trigger": false,
      "metar": "METAR ENAL 011220Z 24002KT 1500 R24/1500N -SN VV010 00/M00 Q1014",
      "taf": "TAF ENAL 011100Z 0112/0121 32007KT 9000 -RADZ SCT007 BKN015"
    },
    {
      "icao": "ENBR",
      "alert": "OK",
      "vis_m": 9999,
      "fzfg": false,
      "metar_trigger": false,
      "taf_trigger": false,
      "metar": "METAR ENBR 011220Z 16017KT 9999 FEW008 BKN036 07/06 Q1015 NOSIG RMK WIND 1200FT 18020KT",
      "taf": "TAF ENBR 011100Z 0112/0212 18015KT 9999 SCT008 BKN015"
    },
    {
      "icao": "ENGM",
      "alert": "OK",
      "vis_m": 9999,
      "fzfg": false,
      "metar_trigger": false,
      "taf_trigger": false,
      "metar": "METAR ENGM 011220Z 21014KT CAVOK 13/02 Q1014 NOSIG",
      "taf": "TAF ENGM 011100Z 0112/0212 20008KT CAVOK"
    },
    {
      "icao": "ENHD",
      "alert": "OK",
      "vis_m": 9999,
      "fzfg": false,
      "metar_trigger": false,
      "taf_trigger": false,
      "metar": "METAR ENHD 011220Z 17016KT 9999 FEW003 BKN010 08/07 Q1016",
      "taf": "TAF ENHD 011100Z 0112/0121 18015KT 9000 SCT006 BKN015"
    },
    {
      "icao": "ENTC",
      "alert": "OK",
      "vis_m": 9999,
      "fzfg": false,
      "metar_trigger": false,
      "taf_trigger": false,
      "metar": "METAR ENTC 011220Z 23028KT 9999 -SHRA FEW023 SCT039 BKN047 04/M01 Q0992 TEMPO 22030G40KT RMK WIND 2600FT 21041KT",
      "taf": ""
    },
    {
      "icao": "ENTO",
      "alert": "OK",
      "vis_m": 9999,
      "fzfg": false,
      "metar_trigger": false,
      "taf_trigger": false,
      "metar": "METAR ENTO 011220Z 20014KT CAVOK 13/04 Q1017 NOSIG",
      "taf": "TAF ENTO 011100Z 0112/0212 21010KT CAVOK"
    },
    {
      "icao": "ENVA",
      "alert": "OK",
      "vis_m": 9999,
      "fzfg": false,
      "metar_trigger": false,
      "taf_trigger": false,
      "metar": "METAR ENVA 011220Z 26015KT 9999 -RASN FEW009 SCT013 BKN051 05/03 Q1011 TEMPO 4000 -RASN BKN012 RMK WIND 670FT 27014KT",
      "taf": "TAF ENVA 011100Z 0112/0212 26015KT 8000 -RA SCT007 BKN015"
    },
    {
      "icao": "ENZV",
      "alert": "OK",
      "vis_m": 9999,
      "fzfg": false,
      "metar_trigger": false,
      "taf_trigger": false,
      "metar": "METAR ENZV 011220Z 19011KT 9999 SCT006 BKN009 09/07 Q1017 NOSIG",
      "taf": "TAF ENZV 011100Z 0112/0212 18015KT 9999 FEW012 BKN030"
    },
    {
      "icao": "EPGD",
      "alert": "OK",
      "vis_m": 9999,
      "fzfg": false,
      "metar_trigger": false,
      "taf_trigger": false,
      "metar": "METAR EPGD 011230Z 06007KT 9999 FEW026 09/01 Q1024",
      "taf": "TAF EPGD 011130Z 0112/0212 VRB03KT CAVOK"
    },
    {
      "icao": "EPKK",
      "alert": "OK",
      "vis_m": 9999,
      "fzfg": false,
      "metar_trigger": false,
      "taf_trigger": false,
      "metar": "METAR EPKK 011230Z 03006KT 360V060 9999 -RA BKN030 07/00 Q1021",
      "taf": "TAF EPKK 011130Z 0112/0212 36006KT 9999 BKN030"
    },
    {
      "icao": "EPKT",
      "alert": "OK",
      "vis_m": 9999,
      "fzfg": false,
      "metar_trigger": false,
      "taf_trigger": false,
      "metar": "METAR EPKT 011230Z 01010KT CAVOK 10/M02 Q1021",
      "taf": "TAF EPKT 011130Z 0112/0212 01009KT CAVOK"
    },
    {
      "icao": "EPLB",
      "alert": "OK",
      "vis_m": 9999,
      "fzfg": false,
      "metar_trigger": false,
      "taf_trigger": false,
      "metar": "METAR EPLB 011230Z 33010KT 300V360 9999 FEW024 11/05 Q1018",
      "taf": "TAF EPLB 011130Z 0112/0212 35010KT 9999 SCT025"
    },
    {
      "icao": "EPMO",
      "alert": "OK",
      "vis_m": 9999,
      "fzfg": false,
      "metar_trigger": false,
      "taf_trigger": false,
      "metar": "METAR EPMO 011230Z 02013KT 340V060 CAVOK 13/M00 Q1021",
      "taf": "TAF EPMO 011130Z 0112/0212 01012KT CAVOK"
    },
    {
      "icao": "EPPO",
      "alert": "OK",
      "vis_m": 9999,
      "fzfg": false,
      "metar_trigger": false,
      "taf_trigger": false,
      "metar": "METAR EPPO 011230Z 30007KT 9999 FEW035 11/M00 Q1024",
      "taf": "TAF EPPO 011130Z 0112/0212 32007KT CAVOK"
    },
    {
      "icao": "EPRA",
      "alert": "OK",
      "vis_m": 9999,
      "fzfg": false,
      "metar_trigger": false,
      "taf_trigger": false,
      "metar": "METAR EPRA 011230Z 35009KT CAVOK 11/M00 Q1019",
      "taf": "TAF EPRA 011130Z 0112/0121 33010KT CAVOK"
    },
    {
      "icao": "EPRZ",
      "alert": "OK",
      "vis_m": 8000,
      "fzfg": false,
      "metar_trigger": false,
      "taf_trigger": false,
      "metar": "METAR EPRZ 011230Z 29006KT 8000 -RA BKN006 05/04 Q1019",
      "taf": "TAF EPRZ 011130Z 0112/0212 27008KT 9999 BKN004"
    },
    {
      "icao": "EPSC",
      "alert": "OK",
      "vis_m": 9999,
      "fzfg": false,
      "metar_trigger": false,
      "taf_trigger": false,
      "metar": "METAR EPSC 011230Z VRB04KT 9999 FEW034 11/02 Q1025",
      "taf": "TAF EPSC 011130Z 0112/0212 VRB04KT CAVOK"
    },
    {
      "icao": "EPSY",
      "alert": "OK",
      "vis_m": 9999,
      "fzfg": false,
      "metar_trigger": false,
      "taf_trigger": false,
      "metar": "METAR EPSY 011230Z 01012KT 330V050 CAVOK 11/M02 Q1022",
      "taf": "TAF EPSY 011130Z 0112/0121 01008KT CAVOK"
    },
    {
      "icao": "EPWA",
      "alert": "OK",
      "vis_m": 9999,
      "fzfg": false,
      "metar_trigger": false,
      "taf_trigger": false,
      "metar": "METAR EPWA 011230Z 36011KT 320V020 CAVOK 14/M00 Q1020 NOSIG",
      "taf": "TAF EPWA 011130Z 0112/0212 01012KT CAVOK"
    },
    {
      "icao": "EPWR",
      "alert": "OK",
      "vis_m": 9999,
      "fzfg": false,
      "metar_trigger": false,
      "taf_trigger": false,
      "metar": "METAR EPWR 011230Z 34008KT 9999 SCT030 10/01 Q1024",
      "taf": "TAF EPWR 011130Z 0112/0212 30007KT 9999 SCT030"
    },
    {
      "icao": "ESGG",
      "alert": "OK",
      "vis_m": 6000,
      "fzfg": false,
      "metar_trigger": false,
      "taf_trigger": false,
      "metar": "METAR ESGG 011220Z 21011KT 6000 BKN003 05/04 Q1022",
      "taf": "TAF ESGG 011130Z 0112/0212 19009KT 6000 BKN004"
    },
    {
      "icao": "ESKN",
      "alert": "OK",
      "vis_m": 9999,
      "fzfg": false,
      "metar_trigger": false,
      "taf_trigger": false,
      "metar": "METAR ESKN 011220Z 23011KT 190V250 CAVOK 14/M02 Q1019",
      "taf": "TAF ESKN 011130Z 0112/0212 21013KT CAVOK"
    },
    {
      "icao": "ESMS",
      "alert": "OK",
      "vis_m": 9999,
      "fzfg": false,
      "metar_trigger": false,
      "taf_trigger": false,
      "metar": "METAR ESMS 011220Z 24009KT 200V260 9999 FEW039 12/01 Q1024",
      "taf": "TAF ESMS 011129Z 0112/0212 22006KT 9999 FEW040"
    },
    {
      "icao": "ESSA",
      "alert": "OK",
      "vis_m": 9999,
      "fzfg": false,
      "metar_trigger": false,
      "taf_trigger": false,
      "metar": "METAR ESSA 011220Z 21015KT CAVOK 12/M00 Q1018 NOSIG",
      "taf": "TAF ESSA 011130Z 0112/0212 23015KT CAVOK"
    },
    {
      "icao": "EYKA",
      "alert": "OK",
      "vis_m": 9999,
      "fzfg": false,
      "metar_trigger": false,
      "taf_trigger": false,
      "metar": "METAR EYKA 011220Z 35011KT 320V020 CAVOK 12/M02 Q1021",
      "taf": "TAF EYKA 011101Z 0112/0212 35010KT 9000 NSC"
    },
    {
      "icao": "EYPA",
      "alert": "OK",
      "vis_m": 9999,
      "fzfg": false,
      "metar_trigger": false,
      "taf_trigger": false,
      "metar": "METAR EYPA 011220Z 30004KT 250V360 9999 FEW003 04/01 Q1024",
      "taf": "TAF EYPA 011102Z 0112/0212 VRB03KT 5000 BR SCT002"
    },
    {
      "icao": "EYVI",
      "alert": "OK",
      "vis_m": 9999,
      "fzfg": false,
      "metar_trigger": false,
      "taf_trigger": false,
      "metar": "METAR EYVI 011220Z 35013KT CAVOK 13/01 Q1019 NOSIG",
      "taf": "TAF EYVI 011100Z 0112/0212 36010KT 9000 NSC"
    },
    {
      "icao": "GCFV",
      "alert": "OK",
      "vis_m": 9999,
      "fzfg": false,
      "metar_trigger": false,
      "taf_trigger": false,
      "metar": "METAR GCFV 011230Z 03010KT CAVOK 20/15 Q1020",
      "taf": "TAF GCFV 010800Z 0109/0209 04009KT 8000 NSC TX23/0114Z TN16/0206Z"
    },
    {
      "icao": "GCLP",
      "alert": "OK",
      "vis_m": 9000,
      "fzfg": false,
      "metar_trigger": false,
      "taf_trigger": false,
      "metar": "METAR GCLP 011230Z 05008KT 010V090 9000 NSC 21/16 Q1020 NOSIG",
      "taf": "TAF GCLP 010800Z 0109/0209 35005KT 6000 NSC TX24/0114Z TN16/0206Z"
    },
    {
      "icao": "GCTS",
      "alert": "OK",
      "vis_m": 9000,
      "fzfg": false,
      "metar_trigger": false,
      "taf_trigger": false,
      "metar": "METAR GCTS 011230Z 09017KT 9000 NSC 24/10 Q1019 NOSIG",
      "taf": ""
    },
    {
      "icao": "GMAD",
      "alert": "OK",
      "vis_m": 8000,
      "fzfg": false,
      "metar_trigger": false,
      "taf_trigger": false,
      "metar": "METAR GMAD 011230Z 27011KT 240V300 8000 NSC 23/12 Q1017 NOSIG",
      "taf": "TAF GMAD 011100Z 0112/0218 27010KT 8000 NSC"
    },
    {
      "icao": "GMMN",
      "alert": "OK",
      "vis_m": 9999,
      "fzfg": false,
      "metar_trigger": false,
      "taf_trigger": false,
      "metar": "METAR GMMN 011230Z 30006KT 250V020 CAVOK 23/15 Q1019 NOSIG",
      "taf": "TAF GMMN 011100Z 0112/0218 36012KT CAVOK"
    },
    {
      "icao": "GMMX",
      "alert": "OK",
      "vis_m": 9999,
      "fzfg": false,
      "metar_trigger": false,
      "taf_trigger": false,
      "metar": "METAR GMMX 011230Z VRB03KT CAVOK 24/08 Q1019 NOSIG",
      "taf": "TAF GMMX 011100Z 0112/0218 06006KT CAVOK"
    },
    {
      "icao": "HEGN",
      "alert": "OK",
      "vis_m": 9999,
      "fzfg": false,
      "metar_trigger": false,
      "taf_trigger": false,
      "metar": "METAR HEGN 011200Z 06007KT 9999 FEW025 OVC100 19/16 Q1008 NOSIG",
      "taf": "TAF HEGN 011100Z 0112/0218 10006G16KT 9999 SCT020"
    },
    {
      "icao": "HEMA",
      "alert": "OK",
      "vis_m": 9999,
      "fzfg": false,
      "metar_trigger": false,
      "taf_trigger": false,
      "metar": "METAR HEMA 011200Z 10009KT CAVOK 28/13 Q1009 NOSIG",
      "taf": "TAF HEMA 011100Z 0112/0218 10006G18KT 9999 SCT020"
    },
    {
      "icao": "HESH",
      "alert": "OK",
      "vis_m": 9999,
      "fzfg": false,
      "metar_trigger": false,
      "taf_trigger": false,
      "metar": "METAR HESH 011200Z 36007KT CAVOK 28/08 Q1010 NOSIG",
      "taf": "TAF HESH 011100Z 0112/0218 12012KT 9999 SCT020"
    },
    {
      "icao": "HESX",
      "alert": "OK",
      "vis_m": 9999,
      "fzfg": false,
      "metar_trigger": false,
      "taf_trigger": false,
      "metar": "METAR HESX 011200Z 04011KT 9999 FEW030 SCT100 24/12 Q1006 NOSIG",
      "taf": "TAF HESX 011100Z 0112/0218 11009G20KT 6000 FEW030 BKN100"
    },
    {
      "icao": "LATI",
      "alert": "OK",
      "vis_m": 9999,
      "fzfg": false,
      "metar_trigger": false,
      "taf_trigger": false,
      "metar": "METAR LATI 011220Z 06006KT 050V120 9999 SCT076 BKN092 18/02 Q1001 NOSIG",
      "taf": "TAF LATI 011100Z 0112/0212 36010KT 9999 SCT060 BKN090 TX18/0112Z TN09/0204Z"
    },
    {
      "icao": "LBPD",
      "alert": "OK",
      "vis_m": 9000,
      "fzfg": false,
      "metar_trigger": false,
      "taf_trigger": false,
      "metar": "METAR LBPD 011230Z AUTO 15005KT 9000 OVC019/// 10/10 Q1011 NOSIG",
      "taf": "TAF LBPD 011100Z 0112/0212 11010KT 6000 -RA BKN015 OVC030"
    },
    {
      "icao": "LBSF",
      "alert": "OK",
      "vis_m": 7000,
      "fzfg": false,
      "metar_trigger": false,
      "taf_trigger": false,
      "metar": "METAR LBSF 011230Z 09008KT 7000 -RA SCT019 BKN022 OVC027 08/06 Q1011 RESHRA TEMPO 4000 RA",
      "taf": "TAF LBSF 011100Z 0112/0212 09012KT 7000 SCT012 BKN020 BKN040"
    },
    {
      "icao": "LBWN",
      "alert": "OK",
      "vis_m": 9999,
      "fzfg": false,
      "metar_trigger": false,
      "taf_trigger": false,
      "metar": "METAR LBWN 011230Z 14012KT 9999 SCT048 12/08 Q1012 NOSIG",
      "taf": "TAF LBWN 011100Z 0112/0212 10012KT 9999 SCT023 BKN050"
    },
    {
      "icao": "LCLK",
      "alert": "OK",
      "vis_m": 9999,
      "fzfg": false,
      "metar_trigger": false,
      "taf_trigger": false,
      "metar": "METAR LCLK 011230Z 07006KT 9999 FEW050 19/15 Q1012 NOSIG",
      "taf": "TAF LCLK 011130Z 0112/0212 08014KT 9999 SCT045"
    },
    {
      "icao": "LCPH",
      "alert": "OK",
      "vis_m": 9999,
      "fzfg": false,
      "metar_trigger": false,
      "taf_trigger": false,
      "metar": "METAR LCPH 011230Z 10011KT 090V160 9999 BKN080 20/09 Q1010 NOSIG",
      "taf": "TAF LCPH 011130Z 0112/0212 13017KT 9999 SCT045"
    },
    {
      "icao": "LEAL",
      "alert": "OK",
      "vis_m": 9999,
      "fzfg": false,
      "metar_trigger": false,
      "taf_trigger": false,
      "metar": "METAR LEAL 011230Z 12011KT 080V150 9999 FEW020 19/06 Q1018 NOSIG",
      "taf": "TAF LEAL 011100Z 0112/0212 10009KT CAVOK TX19/0112Z TN10/0205Z"
    },
    {
      "icao": "LEBB",
      "alert": "OK",
      "vis_m": 9999,
      "fzfg": false,
      "metar_trigger": false,
      "taf_trigger": false,
      "metar": "METAR LEBB 011230Z 33011KT 290V360 9999 BKN017 BKN032 14/11 Q1029 NOSIG",
      "taf": "TAF LEBB 011100Z 0112/0212 32009KT 9999 SCT010 BKN020 TX13/0112Z TN09/0206Z"
    },
    {
      "icao": "LEBL",
      "alert": "OK",
      "vis_m": 9999,
      "fzfg": false,
      "metar_trigger": false,
      "taf_trigger": false,
      "metar": "METAR LEBL 011230Z 19009KT 160V220 9999 FEW025 SCT060 15/07 Q1016 NOSIG",
      "taf": "TAF LEBL 011100Z 0112/0212 21012KT 9999 FEW020 TX18/0113Z TN09/0206Z"
    },
    {
      "icao": "LECH",
      "alert": "OK",
      "vis_m": 9999,
      "fzfg": false,
      "metar_trigger": false,
      "taf_trigger": false,
      "metar": "METAR LECH 011230Z AUTO 36011KT 300V050 CAVOK 20/01 Q1017",
      "taf": "TAF LECH 011100Z 0112/0212 34015KT CAVOK TX21/0113Z TN10/0205Z"
    },
    {
      "icao": "LEMD",
      "alert": "OK",
      "vis_m": 9999,
      "fzfg": false,
      "metar_trigger": false,
      "taf_trigger": false,
      "metar": "METAR LEMD 011230Z 01012G23KT 330V070 CAVOK 18/03 Q1022 NOSIG",
      "taf": "TAF LEMD 011100Z 0112/0218 01012KT CAVOK TX21/0115Z TN04/0206Z"
    },
    {
      "icao": "LEMG",
      "alert": "OK",
      "vis_m": 9999,
      "fzfg": false,
      "metar_trigger": false,
      "taf_trigger": false,
      "metar": "METAR LEMG 011230Z 11005KT 060V170 9999 FEW040 19/09 Q1020 NOSIG",
      "taf": "TAF LEMG 011100Z 0112/0212 14010KT CAVOK TX23/0113Z TN11/0207Z"
    },
    {
      "icao": "LEVC",
      "alert": "OK",
      "vis_m": 9999,
      "fzfg": false,
      "metar_trigger": false,
      "taf_trigger": false,
      "metar": "METAR LEVC 011230Z 13011KT 100V160 CAVOK 20/04 Q1016 NOSIG",
      "taf": "TAF LEVC 011100Z 0112/0212 33015KT CAVOK TX23/0114Z TN12/0205Z"
    },
    {
      "icao": "LEXJ",
      "alert": "OK",
      "vis_m": 9999,
      "fzfg": false,
      "metar_trigger": false,
      "taf_trigger": false,
      "metar": "METAR LEXJ 011230Z 35008KT 300V050 9999 SCT017 BKN027 14/10 Q1030",
      "taf": "TAF LEXJ 010800Z 0109/0209 32009KT 9999 SCT010 BKN020 TX14/0112Z TN10/0204Z"
    },
    {
      "icao": "LEZG",
      "alert": "OK",
      "vis_m": 9999,
      "fzfg": false,
      "metar_trigger": false,
      "taf_trigger": false,
      "metar": "METAR LEZG 011230Z 30029G39KT 280V340 9999 FEW045 17/05 Q1021 NOSIG",
      "taf": "TAF LEZG 011100Z 0112/0212 31020KT 9999 FEW040 TX19/0114Z TN09/0205Z"
    },
    {
      "icao": "LEZL",
      "alert": "OK",
      "vis_m": 9999,
      "fzfg": false,
      "metar_trigger": false,
      "taf_trigger": false,
      "metar": "METAR LEZL 011230Z 07010KT 030V100 CAVOK 22/05 Q1020 NOSIG",
      "taf": "TAF LEZL 010800Z 0109/0209 04011KT CAVOK TX26/0115Z TN09/0207Z"
    },
    {
      "icao": "LFBD",
      "alert": "OK",
      "vis_m": 9999,
      "fzfg": false,
      "metar_trigger": false,
      "taf_trigger": false,
      "metar": "METAR LFBD 011230Z AUTO 32010KT 290V010 9999 BKN031 BKN039 BKN045 16/09 Q1025 NOSIG",
      "taf": "TAF LFBD 011100Z 0112/0218 33010KT 9999 BKN025 TX16/0114Z TN09/0205Z"
    },
    {
      "icao": "LFLL",
      "alert": "OK",
      "vis_m": 9999,
      "fzfg": false,
      "metar_trigger": false,
      "taf_trigger": false,
      "metar": "METAR LFLL 011230Z 35021KT 9999 SCT046 12/M00 Q1018 NOSIG",
      "taf": "TAF LFLL 011100Z 0112/0218 36022KT 9999 SCT045"
    },
    {
      "icao": "LFLS",
      "alert": "OK",
      "vis_m": 9999,
      "fzfg": false,
      "metar_trigger": false,
      "taf_trigger": false,
      "metar": "METAR LFLS 011230Z AUTO 35015KT 9999 SCT045 BKN056 BKN068 11/01 Q1017 TEMPO 36015G25KT SCT040TCU",
      "taf": "TAF LFLS 010800Z 0109/0209 36012KT CAVOK"
    },
    {
      "icao": "LFMN",
      "alert": "OK",
      "vis_m": 9999,
      "fzfg": false,
      "metar_trigger": false,
      "taf_trigger": false,
      "metar": "METAR LFMN 011230Z 22011KT CAVOK 16/M02 Q1010 NOSIG",
      "taf": "TAF LFMN 010800Z 0109/0215 VRB05KT CAVOK"
    },
    {
      "icao": "LFOB",
      "alert": "OK",
      "vis_m": 6000,
      "fzfg": false,
      "metar_trigger": false,
      "taf_trigger": false,
      "metar": "METAR LFOB 011230Z AUTO 30006KT 6000 OVC004 10/10 Q1023 TEMPO 3000 RA BKN006 OVC012",
      "taf": "TAF LFOB 011100Z 0112/0212 VRB04KT 8000 SCT015"
    },
    {
      "icao": "LFPO",
      "alert": "OK",
      "vis_m": 2000,
      "fzfg": false,
      "metar_trigger": false,
      "taf_trigger": false,
      "metar": "METAR LFPO 011230Z 12003KT 060V190 2000 -DZ BR BKN004 OVC006 09/09 Q1024 NOSIG",
      "taf": "TAF LFPO 011100Z 0112/0218 VRB02KT 8000 BKN008"
    },
    {
      "icao": "LFSB",
      "alert": "OK",
      "vis_m": 9999,
      "fzfg": false,
      "metar_trigger": false,
      "taf_trigger": false,
      "metar": "METAR LFSB 011230Z AUTO 35007KT 300V070 9999 SCT035/// SCT048/// BKN058/// ///TCU 09/02 Q1022 NOSIG",
      "taf": "TAF LFSB 011100Z 0112/0212 35005KT 9999 SCT030 BKN060"
    },
    {
      "icao": "LGAV",
      "alert": "OK",
      "vis_m": 7000,
      "fzfg": false,
      "metar_trigger": false,
      "taf_trigger": false,
      "metar": "METAR LGAV 011220Z 06009KT 7000 -RA SCT015TCU BKN025 OVC070 13/11 Q1002 NOSIG",
      "taf": "TAF LGAV 011100Z 0112/0212 10015KT 9000 FEW015 SCT020 BKN070"
    },
    {
      "icao": "LGTS",
      "alert": "OK",
      "vis_m": 9999,
      "fzfg": false,
      "metar_trigger": false,
      "taf_trigger": false,
      "metar": "METAR LGTS 011220Z 08013KT 9999 -DZ SCT008 FEW018TCU BKN025 14/10 Q1006 NOSIG",
      "taf": "TAF LGTS 011100Z 0112/0212 11015KT 9999 FEW010 BKN025"
    },
    {
      "icao": "LHBP",
      "alert": "OK",
      "vis_m": 9999,
      "fzfg": false,
      "metar_trigger": false,
      "taf_trigger": false,
      "metar": "METAR LHBP 011230Z VRB04KT 9999 FEW048 14/01 Q1016 BECMG CAVOK",
      "taf": "TAF LHBP 011115Z 0112/0212 34008KT 9999 SCT040"
    },
    {
      "icao": "LHDC",
      "alert": "OK",
      "vis_m": 9999,
      "fzfg": false,
      "metar_trigger": false,
      "taf_trigger": false,
      "metar": "METAR LHDC 011215Z AUTO 01015KT 9999 BKN037 12/03 Q1015 NOSIG",
      "taf": "TAF LHDC 011115Z 0112/0121 02015G25KT 9999 BKN035"
    },
    {
      "icao": "LIBD",
      "alert": "OK",
      "vis_m": 7000,
      "fzfg": false,
      "metar_trigger": false,
      "taf_trigger": false,
      "metar": "METAR LIBD 011220Z 09007KT 7000 SCT010 BKN040 10/09 Q1001",
      "taf": "TAF LIBD 011100Z 0112/0212 08015KT 9999 BKN040"
    },
    {
      "icao": "LIBG",
      "alert": "OK",
      "vis_m": 9000,
      "fzfg": false,
      "metar_trigger": false,
      "taf_trigger": false,
      "metar": "METAR LIBG 011150Z 05008KT 9000 RA BKN030 09/08 Q1000",
      "taf": "TAF LIBG 011100Z 0112/0121 10012KT 9999 BKN030"
    },
    {
      "icao": "LIBP",
      "alert": "OK",
      "vis_m": 6000,
      "fzfg": false,
      "metar_trigger": false,
      "taf_trigger": false,
      "metar": "METAR LIBP 011220Z AUTO 32004KT 270V340 6000 RA OVC027/// 09/09 Q1006",
      "taf": "TAF LIBP 011100Z 0112/0212 36011KT 9999 BKN040"
    },
    {
      "icao": "LIBR",
      "alert": "OK",
      "vis_m": 3000,
      "fzfg": false,
      "metar_trigger": false,
      "taf_trigger": false,
      "metar": "METAR LIBR 011220Z 32007KT 3000 +RA BR BKN010 OVC030 10/09 Q1000",
      "taf": "TAF LIBR 011100Z 0112/0212 06015KT 9999 BKN030"
    },
    {
      "icao": "LICA",
      "alert": "OK",
      "vis_m": 9999,
      "fzfg": false,
      "metar_trigger": false,
      "taf_trigger": false,
      "metar": "METAR LICA 011220Z AUTO 08013KT 9999 -RA FEW023/// BKN041/// 12/10 Q0996",
      "taf": "TAF LICA 011100Z 0112/0212 08016KT 9999 SCT040"
    },
    {
      "icao": "LICC",
      "alert": "OK",
      "vis_m": 9999,
      "fzfg": false,
      "metar_trigger": false,
      "taf_trigger": false,
      "metar": "METAR LICC 011220Z 08011KT 9999 BKN050 14/12 Q0993",
      "taf": "TAF LICC 011100Z 0112/0212 08012KT 9999 SCT020 BKN050"
    },
    {
      "icao": "LICJ",
      "alert": "OK",
      "vis_m": 9999,
      "fzfg": false,
      "metar_trigger": false,
      "taf_trigger": false,
      "metar": "METAR LICJ 011220Z 08008KT 9999 -RA SCT020 SCT035 13/08 Q0995",
      "taf": "TAF LICJ 011100Z 0112/0212 02014KT 9999 SCT020"
    },
    {
      "icao": "LIMC",
      "alert": "OK",
      "vis_m": 9999,
      "fzfg": false,
      "metar_trigger": false,
      "taf_trigger": false,
      "metar": "METAR LIMC 011220Z 02007KT 300V070 9999 BKN100 15/M12 Q1014 NOSIG",
      "taf": "TAF LIMC 011100Z 0112/0218 01010KT CAVOK"
    },
    {
      "icao": "LIME",
      "alert": "OK",
      "vis_m": 9999,
      "fzfg": false,
      "metar_trigger": false,
      "taf_trigger": false,
      "metar": "METAR LIME 011220Z AUTO 30005KT 200V350 9999 NCD 14/M11 Q1013",
      "taf": "TAF LIME 011100Z 0112/0212 VRB06KT 9999 FEW090"
    },
    {
      "icao": "LIMF",
      "alert": "OK",
      "vis_m": 9999,
      "fzfg": false,
      "metar_trigger": false,
      "taf_trigger": false,
      "metar": "METAR LIMF 011220Z 17004KT 080V240 9999 SCT100 14/M07 Q1014",
      "taf": "TAF LIMF 011100Z 0112/0212 VRB05KT 9999 FEW100"
    },
    {
      "icao": "LIMJ",
      "alert": "OK",
      "vis_m": 9999,
      "fzfg": false,
      "metar_trigger": false,
      "taf_trigger": false,
      "metar": "METAR LIMJ 011220Z 03016G29KT 340V060 CAVOK 16/// Q1011",
      "taf": "TAF LIMJ 011100Z 0112/0212 03012KT CAVOK"
    },
    {
      "icao": "LIPE",
      "alert": "OK",
      "vis_m": 9999,
      "fzfg": false,
      "metar_trigger": false,
      "taf_trigger": false,
      "metar": "METAR LIPE 011220Z 05014KT 020V080 9999 BKN065 12/M01 Q1013",
      "taf": "TAF LIPE 011100Z 0112/0212 03012KT 9999 SCT060"
    },
    {
      "icao": "LIPH",
      "alert": "OK",
      "vis_m": 9999,
      "fzfg": false,
      "metar_trigger": false,
      "taf_trigger": false,
      "metar": "METAR LIPH 011220Z 03010KT 360V070 9999 FEW030 16/M03 Q1013",
      "taf": "TAF LIPH 011100Z 0112/0212 06013KT CAVOK"
    },
    {
      "icao": "LIPQ",
      "alert": "OK",
      "vis_m": 9999,
      "fzfg": false,
      "metar_trigger": false,
      "taf_trigger": false,
      "metar": "METAR LIPQ 011220Z AUTO 08014KT 050V110 9999 FEW120/// 15/M01 Q1013",
      "taf": "TAF LIPQ 011100Z 0112/0212 08015KT CAVOK"
    },
    {
      "icao": "LIPR",
      "alert": "OK",
      "vis_m": 9999,
      "fzfg": false,
      "metar_trigger": false,
      "taf_trigger": false,
      "metar": "METAR LIPR 011220Z 06016KT 9999 SCT030 BKN073 11/05 Q1011",
      "taf": "TAF LIPR 011100Z 0112/0212 04016KT 9999 SCT040"
    },
    {
      "icao": "LIPX",
      "alert": "OK",
      "vis_m": 9999,
      "fzfg": false,
      "metar_trigger": false,
      "taf_trigger": false,
      "metar": "METAR LIPX 011220Z VRB04KT 9999 BKN090 15/M06 Q1013",
      "taf": "TAF LIPX 011100Z 0112/0212 VRB05KT 9999 BKN080"
    },
    {
      "icao": "LIPY",
      "alert": "OK",
      "vis_m": 9999,
      "fzfg": false,
      "metar_trigger": false,
      "taf_trigger": false,
      "metar": "METAR LIPY 011220Z AUTO 05017KT 9999 FEW028/// BKN084/// 13/05 Q1008",
      "taf": "TAF LIPY 011100Z 0112/0212 04016KT 9999 SCT050"
    },
    {
      "icao": "LIPZ",
      "alert": "OK",
      "vis_m": 9999,
      "fzfg": false,
      "metar_trigger": false,
      "taf_trigger": false,
      "metar": "METAR LIPZ 011220Z 09012KT CAVOK 15/02 Q1013 NOSIG",
      "taf": "TAF LIPZ 011100Z 0112/0218 10015KT CAVOK"
    },
    {
      "icao": "LIRF",
      "alert": "OK",
      "vis_m": 9999,
      "fzfg": false,
      "metar_trigger": false,
      "taf_trigger": false,
      "metar": "METAR LIRF 011220Z 01021KT CAVOK 14/03 Q1001 NOSIG",
      "taf": "TAF LIRF 011100Z 0112/0218 02020G30KT CAVOK"
    },
    {
      "icao": "LIRN",
      "alert": "OK",
      "vis_m": 9999,
      "fzfg": false,
      "metar_trigger": false,
      "taf_trigger": false,
      "metar": "METAR LIRN 011220Z 03019KT 9999 SCT060 14/08 Q0998 NOSIG",
      "taf": "TAF LIRN 011100Z 0112/0212 03018KT 9999 SCT040"
    },
    {
      "icao": "LIRP",
      "alert": "OK",
      "vis_m": 9999,
      "fzfg": false,
      "metar_trigger": false,
      "taf_trigger": false,
      "metar": "METAR LIRP 011215Z 06015G25KT 9999 SCT070 13/M00 Q1010 NOSIG",
      "taf": "TAF LIRP 011100Z 0112/0212 06015KT 9999 SCT050"
    },
    {
      "icao": "LIRZ",
      "alert": "OK",
      "vis_m": 9999,
      "fzfg": false,
      "metar_trigger": false,
      "taf_trigger": false,
      "metar": "METAR LIRZ 011220Z AUTO 03016KT 360V060 9999 BKN040/// 11/04 Q1006",
      "taf": "TAF LIRZ 011100Z 0112/0212 03016G26KT 9999 BKN040"
    },
    {
      "icao": "LJLJ",
      "alert": "OK",
      "vis_m": 9999,
      "fzfg": false,
      "metar_trigger": false,
      "taf_trigger": false,
      "metar": "METAR LJLJ 011230Z 10007KT 060V150 9999 SCT060 SCT075 BKN100 10/M02 Q1015 NOSIG",
      "taf": "TAF LJLJ 011100Z 0112/0212 08008KT 9999 BKN060"
    },
    {
      "icao": "LKMT",
      "alert": "OK",
      "vis_m": 9999,
      "fzfg": false,
      "metar_trigger": false,
      "taf_trigger": false,
      "metar": "METAR LKMT 011230Z 01012KT 9999 BKN036 10/02 Q1021 NOSIG",
      "taf": "TAF LKMT 011100Z 0112/0212 04008KT 9999 BKN040"
    },
    {
      "icao": "LKPR",
      "alert": "OK",
      "vis_m": 9999,
      "fzfg": false,
      "metar_trigger": false,
      "taf_trigger": false,
      "metar": "METAR LKPR 011230Z 35006KT 310V040 9999 BKN036 08/M01 Q1023 NOSIG",
      "taf": "TAF LKPR 011100Z 0112/0218 35006KT 9999 BKN040"
    },
    {
      "icao": "LLBG",
      "alert": "OK",
      "vis_m": 9999,
      "fzfg": false,
      "metar_trigger": false,
      "taf_trigger": false,
      "metar": "METAR LLBG 011220Z 10006KT 070V130 CAVOK 27/11 Q1008 TEMPO 8000 RA SCT050 RMK SCT100",
      "taf": "TAF LLBG 011117Z 0112/0212 13008KT CAVOK TX26/0112Z TN18/0202Z"
    },
    {
      "icao": "LMML",
      "alert": "OK",
      "vis_m": 9999,
      "fzfg": false,
      "metar_trigger": false,
      "taf_trigger": false,
      "metar": "METAR LMML 011215Z 25019KT 9999 VCSH FEW008 FEW015TCU BKN020 13/10 Q0995 TEMPO 9000 SHRA",
      "taf": "TAF LMML 011100Z 0112/0212 26023G33KT 9999 SCT018"
    },
    {
      "icao": "LOWW",
      "alert": "OK",
      "vis_m": 9999,
      "fzfg": false,
      "metar_trigger": false,
      "taf_trigger": false,
      "metar": "METAR LOWW 011220Z 36016KT 9999 FEW042 11/M00 Q1020 NOSIG",
      "taf": "TAF LOWW 011115Z 0112/0218 36015G25KT 9999 SCT040 TX12/0114Z TN06/0204Z"
    },
    {
      "icao": "LPFR",
      "alert": "OK",
      "vis_m": 9999,
      "fzfg": false,
      "metar_trigger": false,
      "taf_trigger": false,
      "metar": "METAR LPFR 011230Z 09008KT 030V130 CAVOK 22/08 Q1021 WS R10",
      "taf": "TAF LPFR 011100Z 0112/0212 11010KT CAVOK"
    },
    {
      "icao": "LPMA",
      "alert": "OK",
      "vis_m": 9999,
      "fzfg": false,
      "metar_trigger": false,
      "taf_trigger": false,
      "metar": "METAR LPMA 011230Z 03013KT 350V060 9999 FEW015 21/13 Q1023",
      "taf": "TAF LPMA 011100Z 0112/0212 02015KT 9999 SCT015"
    },
    {
      "icao": "LPPR",
      "alert": "OK",
      "vis_m": 9999,
      "fzfg": false,
      "metar_trigger": false,
      "taf_trigger": false,
      "metar": "METAR LPPR 011230Z 34009KT 290V050 CAVOK 20/08 Q1025",
      "taf": "TAF LPPR 011100Z 0112/0212 VRB05KT CAVOK"
    },
    {
      "icao": "LPPS",
      "alert": "OK",
      "vis_m": 9999,
      "fzfg": false,
      "metar_trigger": false,
      "taf_trigger": false,
      "metar": "METAR LPPS 011230Z 02011KT 350V070 9999 FEW014 19/14 Q1024",
      "taf": "TAF LPPS 011100Z 0112/0218 06012KT 9999 SCT015"
    },
    {
      "icao": "LPPT",
      "alert": "OK",
      "vis_m": 9999,
      "fzfg": false,
      "metar_trigger": false,
      "taf_trigger": false,
      "metar": "METAR LPPT 011230Z 04011KT 360V070 CAVOK 20/06 Q1023",
      "taf": "TAF LPPT 011100Z 0112/0218 04012KT CAVOK"
    },
    {
      "icao": "LQBK",
      "alert": "OK",
      "vis_m": 9999,
      "fzfg": false,
      "metar_trigger": false,
      "taf_trigger": false,
      "metar": "METAR LQBK 011230Z 28006KT 9999 SCT023 BKN033 07/03 Q1015 NOSIG",
      "taf": ""
    },
    {
      "icao": "LQSA",
      "alert": "OK",
      "vis_m": 9999,
      "fzfg": false,
      "metar_trigger": false,
      "taf_trigger": false,
      "metar": "METAR LQSA 011230Z 34007KT 290V040 9999 SCT020 BKN035 05/02 Q1012 NOSIG",
      "taf": "TAF LQSA 011100Z 0112/0212 31006KT 9999 SCT020 BKN035 TX07/0113Z TN03/0205Z"
    },
    {
      "icao": "LQTZ",
      "alert": "OK",
      "vis_m": 3000,
      "fzfg": false,
      "metar_trigger": false,
      "taf_trigger": false,
      "metar": "METAR LQTZ 011230Z 29003KT 3000 -DZ BR BKN005 OVC012 05/05 Q1014",
      "taf": "TAF LQTZ 011100Z 0112/0212 30007KT 5000 -DZ BR OVC015 TX07/0113Z TN02/0205Z"
    },
    {
      "icao": "LRBC",
      "alert": "OK",
      "vis_m": 9999,
      "fzfg": false,
      "metar_trigger": false,
      "taf_trigger": false,
      "metar": "METAR LRBC 011230Z 01012KT 330V040 9999 FEW023 SCT065 11/05 Q1014",
      "taf": "TAF LRBC 011100Z 0112/0121 01010KT 9999 BKN040"
    },
    {
      "icao": "LRBS",
      "alert": "OK",
      "vis_m": 9999,
      "fzfg": false,
      "metar_trigger": false,
      "taf_trigger": false,
      "metar": "METAR LRBS 011230Z 11005KT 060V140 9999 SCT033 15/07 Q1013 NOSIG",
      "taf": "TAF LRBS 011100Z 0112/0212 09006KT 9999 BKN030"
    },
    {
      "icao": "LRBV",
      "alert": "OK",
      "vis_m": 9999,
      "fzfg": false,
      "metar_trigger": false,
      "taf_trigger": false,
      "metar": "METAR LRBV 011230Z 35005KT 240V030 9999 FEW020 SCT031 10/03 Q1013",
      "taf": "TAF LRBV 011100Z 0112/0121 VRB04KT 9999 BKN025"
    },
    {
      "icao": "LRCL",
      "alert": "OK",
      "vis_m": 9999,
      "fzfg": false,
      "metar_trigger": false,
      "taf_trigger": false,
      "metar": "METAR LRCL 011230Z VRB02KT 9999 BKN043 OVC052 12/04 Q1014",
      "taf": "TAF LRCL 011100Z 0112/0121 28006KT 9999 BKN045"
    },
    {
      "icao": "LRCV",
      "alert": "OK",
      "vis_m": 9999,
      "fzfg": false,
      "metar_trigger": false,
      "taf_trigger": false,
      "metar": "METAR LRCV 011230Z 11010KT 9999 SCT022 13/08 Q1012",
      "taf": "TAF LRCV 011100Z 0112/0121 06010KT 9999 BKN015"
    },
    {
      "icao": "LRIA",
      "alert": "OK",
      "vis_m": 9999,
      "fzfg": false,
      "metar_trigger": false,
      "taf_trigger": false,
      "metar": "METAR LRIA 011230Z 31012KT 280V350 9999 OVC015 09/05 Q1014",
      "taf": "TAF LRIA 011100Z 0112/0121 30014KT 9999 BKN010 OVC025"
    },
    {
      "icao": "LROP",
      "alert": "OK",
      "vis_m": 9999,
      "fzfg": false,
      "metar_trigger": false,
      "taf_trigger": false,
      "metar": "METAR LROP 011230Z 10005KT 060V170 9999 SCT028 15/06 Q1013 NOSIG",
      "taf": "TAF LROP 011100Z 0112/0212 09006KT 9999 BKN030"
    },
    {
      "icao": "LRSB",
      "alert": "OK",
      "vis_m": 9999,
      "fzfg": false,
      "metar_trigger": false,
      "taf_trigger": false,
      "metar": "METAR LRSB 011230Z 08006KT 350V100 9999 SCT021 BKN028 11/05 Q1013",
      "taf": "TAF LRSB 011100Z 0112/0212 VRB04KT 9999 SCT015 BKN025"
    },
    {
      "icao": "LRSM",
      "alert": "OK",
      "vis_m": 9999,
      "fzfg": false,
      "metar_trigger": false,
      "taf_trigger": false,
      "metar": "METAR LRSM 011230Z 02006KT 320V060 9999 SCT042 13/03 Q1015",
      "taf": "TAF LRSM 011100Z 0112/0121 01010KT CAVOK"
    },
    {
      "icao": "LRSV",
      "alert": "OK",
      "vis_m": 9999,
      "fzfg": false,
      "metar_trigger": false,
      "taf_trigger": false,
      "metar": "METAR LRSV 011230Z 31012KT 9999 SCT016 BKN038 09/05 Q1014",
      "taf": "TAF LRSV 011100Z 0112/0121 31012KT 9999 BKN010 OVC040"
    },
    {
      "icao": "LRTM",
      "alert": "OK",
      "vis_m": 9999,
      "fzfg": false,
      "metar_trigger": false,
      "taf_trigger": false,
      "metar": "METAR LRTM 011230Z VRB03KT 9999 SCT024 11/05 Q1014",
      "taf": "TAF LRTM 011100Z 0112/0121 VRB04KT 9999 SCT020 BKN025"
    },
    {
      "icao": "LRTR",
      "alert": "OK",
      "vis_m": 9999,
      "fzfg": false,
      "metar_trigger": false,
      "taf_trigger": false,
      "metar": "METAR LRTR 011230Z 36014KT 9999 FEW035 14/05 Q1012",
      "taf": "TAF LRTR 011100Z 0112/0212 01010KT CAVOK"
    },
    {
      "icao": "LTAC",
      "alert": "OK",
      "vis_m": 9999,
      "fzfg": false,
      "metar_trigger": false,
      "taf_trigger": false,
      "metar": "METAR LTAC 011220Z 17009KT 110V180 9999 SCT040 BKN080 16/03 Q1012 NOSIG RMK RWY21C 15011KT 110V170 RWY03L 16008KT 120V190 RWY21R 14011KT RWY03R 14008KT RWY21L 14009KT",
      "taf": "TAF LTAC 011040Z 0112/0212 VRB02KT 9999 SCT040 BKN100"
    },
    {
      "icao": "LTFM",
      "alert": "OK",
      "vis_m": 9999,
      "fzfg": false,
      "metar_trigger": false,
      "taf_trigger": false,
      "metar": "METAR LTFM 011220Z 05013KT 9999 FEW009 BKN180 12/09 Q1011 NOSIG RMK RWY17L 05012KT RWY34L 03012KT RWY16R 04011KT RWY36 04014KT RWY18 05011KT",
      "taf": "TAF LTFM 011040Z 0112/0218 06013KT CAVOK"
    },
    {
      "icao": "LUKK",
      "alert": "OK",
      "vis_m": 9999,
      "fzfg": false,
      "metar_trigger": false,
      "taf_trigger": false,
      "metar": "METAR LUKK 011230Z 34010KT 320V030 9999 OVC014 10/07 Q1013 NOSIG",
      "taf": "TAF LUKK 011104Z 0112/0212 32012KT 9999 OVC012"
    },
    {
      "icao": "LWOH",
      "alert": "OK",
      "vis_m": 9999,
      "fzfg": false,
      "metar_trigger": false,
      "taf_trigger": false,
      "metar": "METAR LWOH 011220Z 35010G20KT 310V020 9999 FEW020 OVC035 08/04 Q1005",
      "taf": "TAF LWOH 011145Z 0112/0212 34010KT 9999 RA SCT020 OVC035"
    },
    {
      "icao": "LWSK",
      "alert": "OK",
      "vis_m": 9999,
      "fzfg": false,
      "metar_trigger": false,
      "taf_trigger": false,
      "metar": "METAR LWSK 011220Z 26003KT 170V330 9999 RA SCT050 OVC070 09/06 Q1009 NOSIG",
      "taf": "TAF LWSK 011145Z 0112/0212 29005KT 8000 RA SCT020 BKN040 OVC070"
    },
    {
      "icao": "LYBE",
      "alert": "OK",
      "vis_m": 9999,
      "fzfg": false,
      "metar_trigger": false,
      "taf_trigger": false,
      "metar": "METAR LYBE 011230Z 08005KT 040V120 9999 SCT020 11/07 Q1013 NOSIG",
      "taf": "TAF LYBE 011100Z 0112/0212 01009KT 9999 BKN027 TX13/0114Z TN06/0206Z"
    },
    {
      "icao": "LYNI",
      "alert": "OK",
      "vis_m": 9999,
      "fzfg": false,
      "metar_trigger": false,
      "taf_trigger": false,
      "metar": "METAR LYNI 011230Z 33018KT 9999 FEW030 SCT040 11/06 Q1010 NOSIG",
      "taf": "TAF LYNI 011100Z 0112/0212 33013KT 9999 SCT033 BKN090 TX13/0113Z TN06/0206Z"
    },
    {
      "icao": "LYPG",
      "alert": "OK",
      "vis_m": 9999,
      "fzfg": false,
      "metar_trigger": false,
      "taf_trigger": false,
      "metar": "METAR LYPG 011230Z 36012KT 330V030 9999 FEW040 BKN080 14/04 Q1004 TEMPO 36022KT",
      "taf": "TAF LYPG 011100Z 0112/0212 02015G25KT 9999 FEW050 BKN080 TX16/0212Z TN10/0204Z"
    },
    {
      "icao": "LZIB",
      "alert": "OK",
      "vis_m": 9999,
      "fzfg": false,
      "metar_trigger": false,
      "taf_trigger": false,
      "metar": "METAR LZIB 011230Z 34017KT 9999 FEW045 12/00 Q1019 NOSIG",
      "taf": "TAF LZIB 011115Z 0112/0212 36015KT 9999 SCT045"
    },
    {
      "icao": "LZKZ",
      "alert": "OK",
      "vis_m": 9999,
      "fzfg": false,
      "metar_trigger": false,
      "taf_trigger": false,
      "metar": "METAR LZKZ 011230Z 02021KT 9999 BKN034 09/01 Q1017 NOSIG",
      "taf": "TAF LZKZ 011115Z 0112/0212 01018KT 9999 BKN040"
    },
    {
      "icao": "LZTT",
      "alert": "OK",
      "vis_m": 9999,
      "fzfg": false,
      "metar_trigger": false,
      "taf_trigger": false,
      "metar": "METAR LZTT 011230Z 19007KT 9999 VCSH BKN040 04/M02 Q1017 NOSIG",
      "taf": "TAF LZTT 011115Z 0112/0212 23006KT 9999 FEW030 BKN070"
    },
    {
      "icao": "OEJN",
      "alert": "OK",
      "vis_m": 9999,
      "fzfg": false,
      "metar_trigger": false,
      "taf_trigger": false,
      "metar": "METAR OEJN 011200Z 30013KT CAVOK 33/17 Q1007 NOSIG",
      "taf": "TAF OEJN 011100Z 0112/0218 26012KT CAVOK"
    },
    {
      "icao": "OEMA",
      "alert": "OK",
      "vis_m": 9999,
      "fzfg": false,
      "metar_trigger": false,
      "taf_trigger": false,
      "metar": "METAR OEMA 011200Z 32003KT CAVOK 33/01 Q1014 NOSIG",
      "taf": "TAF OEMA 011100Z 0112/0218 09008KT 8000 FEW045"
    },
    {
      "icao": "OJAI",
      "alert": "OK",
      "vis_m": 4000,
      "fzfg": false,
      "metar_trigger": false,
      "taf_trigger": false,
      "metar": "METAR OJAI 011200Z 10010KT 4000 HZ NSC 20/07 Q1015 NOSIG",
      "taf": "TAF OJAI 011100Z 0112/0218 12014KT 3000 BR SCT030"
    },
    {
      "icao": "OMAA",
      "alert": "OK",
      "vis_m": null,
      "fzfg": false,
      "metar_trigger": false,
      "taf_trigger": false,
      "metar": "",
      "taf": ""
    },
    {
      "icao": "OMDB",
      "alert": "OK",
      "vis_m": null,
      "fzfg": false,
      "metar_trigger": false,
      "taf_trigger": false,
      "metar": "",
      "taf": ""
    },
    {
      "icao": "UAAA",
      "alert": "OK",
      "vis_m": 9999,
      "fzfg": false,
      "metar_trigger": false,
      "taf_trigger": false,
      "metar": "METAR UAAA 011230Z 04004MPS 9999 SCT100 BKN200 20/03 Q1011 NOSIG",
      "taf": "TAF UAAA 011103Z 0112/0212 06003MPS 9999 SCT100 TX26/0210Z TN10/0201Z"
    },
    {
      "icao": "UBBB",
      "alert": "OK",
      "vis_m": 9999,
      "fzfg": false,
      "metar_trigger": false,
      "taf_trigger": false,
      "metar": "METAR UBBB 011230Z 18010KT CAVOK 16/12 Q1013 NOSIG",
      "taf": "TAF UBBB 011055Z 0112/0212 16005KT 9999 SCT030 TX17/0112Z TN08/0201Z"
    },
    {
      "icao": "UDSG",
      "alert": "OK",
      "vis_m": 9999,
      "fzfg": false,
      "metar_trigger": false,
      "taf_trigger": false,
      "metar": "METAR UDSG 011230Z 23007KT 9999 BKN046CB 11/M04 Q1016 NOSIG",
      "taf": "TAF UDSG 011058Z 0112/0212 24006KT 9999 SCT050"
    },
    {
      "icao": "UDYZ",
      "alert": "OK",
      "vis_m": 9999,
      "fzfg": false,
      "metar_trigger": false,
      "taf_trigger": false,
      "metar": "METAR UDYZ 011230Z VRB01KT 9999 FEW046 17/M02 Q1014 NOSIG",
      "taf": "TAF UDYZ 011100Z 0112/0212 06006KT 9999 FEW040"
    },
    {
      "icao": "UGKO",
      "alert": "OK",
      "vis_m": 9999,
      "fzfg": false,
      "metar_trigger": false,
      "taf_trigger": false,
      "metar": "METAR UGKO 011230Z 26015G25KT 230V290 CAVOK 21/08 Q1012 NOSIG",
      "taf": "TAF UGKO 011100Z 0112/0212 09007KT CAVOK TX25/0212Z TN08/0201Z"
    }
  ]
}