{
  "ts_utc": "2026-06-06T12:55:50Z",
  "threshold_m": 150,
  "source": "stations_override.txt (ICAO list) + aviationweather.gov (METAR/TAF raw)",
  "station_count": 159,
  "stations": [
    {
      "icao": "BIKF",
      "alert": "OK",
      "vis_m": 9999,
      "fzfg": false,
      "metar_trigger": false,
      "taf_trigger": false,
      "metar": "METAR BIKF 061230Z 16011KT 130V190 9999 SCT028TCU BKN230 11/04 Q0993",
      "taf": "TAF BIKF 061031Z 0612/0712 16012KT 9999 SCT020 BKN045 TX11/0615Z TN05/0704Z"
    },
    {
      "icao": "BKPR",
      "alert": "OK",
      "vis_m": 9999,
      "fzfg": false,
      "metar_trigger": false,
      "taf_trigger": false,
      "metar": "METAR BKPR 061230Z VRB02KT 9999 FEW050 27/14 Q1016 NOSIG",
      "taf": "TAF BKPR 061130Z 0612/0712 02008KT 9999 FEW050"
    },
    {
      "icao": "EBCI",
      "alert": "OK",
      "vis_m": 9999,
      "fzfg": false,
      "metar_trigger": false,
      "taf_trigger": false,
      "metar": "METAR EBCI 061220Z 19017KT 9999 FEW045 18/08 Q1013 NOSIG",
      "taf": "TAF EBCI 060500Z 0606/0712 16008KT 9999 FEW030 SCT045"
    },
    {
      "icao": "EDDB",
      "alert": "OK",
      "vis_m": 9999,
      "fzfg": false,
      "metar_trigger": false,
      "taf_trigger": false,
      "metar": "METAR EDDB 061250Z AUTO 21006KT 140V270 CAVOK 25/10 Q1016 NOSIG",
      "taf": "TAF EDDB 061100Z 0612/0712 VRB03KT 9999 FEW045"
    },
    {
      "icao": "EDDH",
      "alert": "OK",
      "vis_m": 9999,
      "fzfg": false,
      "metar_trigger": false,
      "taf_trigger": false,
      "metar": "METAR EDDH 061250Z AUTO 15009KT 120V190 9999 FEW041 21/12 Q1015 NOSIG",
      "taf": "TAF EDDH 061100Z 0612/0718 16008KT 9999 SCT030"
    },
    {
      "icao": "EDDK",
      "alert": "OK",
      "vis_m": 9999,
      "fzfg": false,
      "metar_trigger": false,
      "taf_trigger": false,
      "metar": "METAR EDDK 061250Z AUTO 18012KT 150V220 CAVOK 23/11 Q1014 NOSIG",
      "taf": "TAF EDDK 061100Z 0612/0718 18008KT CAVOK"
    },
    {
      "icao": "EDDN",
      "alert": "OK",
      "vis_m": 9999,
      "fzfg": false,
      "metar_trigger": false,
      "taf_trigger": false,
      "metar": "METAR EDDN 061250Z COR AUTO 26005KT 200V350 CAVOK 23/07 Q1016 NOSIG",
      "taf": "TAF EDDN 061100Z 0612/0712 13004KT 9999 FEW040"
    },
    {
      "icao": "EDDS",
      "alert": "OK",
      "vis_m": 9999,
      "fzfg": false,
      "metar_trigger": false,
      "taf_trigger": false,
      "metar": "METAR EDDS 061250Z AUTO VRB02KT CAVOK 23/10 Q1016 NOSIG",
      "taf": "TAF EDDS 061100Z 0612/0712 15005KT 9999 SCT030"
    },
    {
      "icao": "EDFH",
      "alert": "OK",
      "vis_m": 9999,
      "fzfg": false,
      "metar_trigger": false,
      "taf_trigger": false,
      "metar": "METAR EDFH 061220Z 23010KT 190V260 CAVOK 18/08 Q1015",
      "taf": "TAF EDFH 061100Z 0612/0712 22008KT 9999 SCT040"
    },
    {
      "icao": "EDJA",
      "alert": "OK",
      "vis_m": 9999,
      "fzfg": false,
      "metar_trigger": false,
      "taf_trigger": false,
      "metar": "METAR EDJA 061220Z COR 23007KT 190V260 9999 FEW036 19/10 Q1016",
      "taf": "TAF EDJA 061100Z 0612/0621 23007KT 9999 FEW035"
    },
    {
      "icao": "EDLW",
      "alert": "OK",
      "vis_m": 9999,
      "fzfg": false,
      "metar_trigger": false,
      "taf_trigger": false,
      "metar": "METAR EDLW 061220Z 19009KT CAVOK 20/10 Q1014",
      "taf": "TAF EDLW 061100Z 0612/0712 20009KT CAVOK"
    },
    {
      "icao": "EDNY",
      "alert": "OK",
      "vis_m": 9999,
      "fzfg": false,
      "metar_trigger": false,
      "taf_trigger": false,
      "metar": "METAR EDNY 061220Z 21005KT 160V280 CAVOK 20/13 Q1017",
      "taf": "TAF EDNY 061100Z 0612/0621 25005KT CAVOK"
    },
    {
      "icao": "EDSB",
      "alert": "OK",
      "vis_m": 9999,
      "fzfg": false,
      "metar_trigger": false,
      "taf_trigger": false,
      "metar": "METAR EDSB 061220Z VRB10KT CAVOK 23/10 Q1015",
      "taf": "TAF EDSB 061100Z 0612/0712 23006KT 9999 SCT040"
    },
    {
      "icao": "EETN",
      "alert": "OK",
      "vis_m": 9999,
      "fzfg": false,
      "metar_trigger": false,
      "taf_trigger": false,
      "metar": "METAR EETN 061250Z 25019KT 9999 BKN010 FEW027CB BKN049 16/13 Q1011 TEMPO BKN007",
      "taf": "TAF EETN 061130Z 0612/0712 18012KT 9999 SCT014 BKN020"
    },
    {
      "icao": "EFTU",
      "alert": "OK",
      "vis_m": 9999,
      "fzfg": false,
      "metar_trigger": false,
      "taf_trigger": false,
      "metar": "METAR EFTU 061250Z AUTO 24010KT 200V260 9999 +SHRA BKN004 OVC045 //////CB 16/16 Q1007 RESHGR",
      "taf": "TAF EFTU 061128Z 0612/0712 09006KT 2500 SHRA BKN010 SCT020CB"
    },
    {
      "icao": "EGBB",
      "alert": "OK",
      "vis_m": 9999,
      "fzfg": false,
      "metar_trigger": false,
      "taf_trigger": false,
      "metar": "METAR EGBB 061250Z 16011KT 9999 VCSH BKN027 17/11 Q1001",
      "taf": "TAF EGBB 061103Z 0612/0712 16013KT 9999 SCT024"
    },
    {
      "icao": "EGGP",
      "alert": "OK",
      "vis_m": 9999,
      "fzfg": false,
      "metar_trigger": false,
      "taf_trigger": false,
      "metar": "METAR EGGP 061250Z 15010KT 9999 VCSH SCT021 BKN029 16/10 Q1001",
      "taf": "TAF EGGP 061059Z 0612/0712 14009KT 9999 BKN020"
    },
    {
      "icao": "EGGW",
      "alert": "OK",
      "vis_m": 9999,
      "fzfg": false,
      "metar_trigger": false,
      "taf_trigger": false,
      "metar": "METAR EGGW 061250Z AUTO 18014KT 140V210 9999 SCT023 BKN027 BKN038 16/11 Q1004",
      "taf": "TAF EGGW 061054Z 0612/0712 19013KT 9999 FEW011 SCT025"
    },
    {
      "icao": "EGKK",
      "alert": "OK",
      "vis_m": 4100,
      "fzfg": false,
      "metar_trigger": false,
      "taf_trigger": false,
      "metar": "METAR EGKK 061250Z 20014G26KT 170V230 4100 -RA BKN009 14/12 Q1006",
      "taf": "TAF EGKK 061054Z 0612/0718 21014KT 9999 SCT040"
    },
    {
      "icao": "EGNM",
      "alert": "OK",
      "vis_m": 8000,
      "fzfg": false,
      "metar_trigger": false,
      "taf_trigger": false,
      "metar": "METAR EGNM 061250Z 13007KT 100V160 8000 SCT004 BKN008 12/12 Q1003",
      "taf": ""
    },
    {
      "icao": "EGPD",
      "alert": "OK",
      "vis_m": 9999,
      "fzfg": false,
      "metar_trigger": false,
      "taf_trigger": false,
      "metar": "METAR EGPD 061250Z COR AUTO 15013KT 9999 FEW034 BKN040 14/08 Q1006 NOSIG",
      "taf": "TAF EGPD 061059Z 0612/0712 15009KT 9999 SCT045"
    },
    {
      "icao": "EGPF",
      "alert": "OK",
      "vis_m": 9999,
      "fzfg": false,
      "metar_trigger": false,
      "taf_trigger": false,
      "metar": "METAR EGPF 061250Z AUTO 12008KT 9999 OVC030 15/09 Q1003",
      "taf": "TAF EGPF 061055Z 0612/0712 10010KT 9999 SCT020"
    },
    {
      "icao": "EHBK",
      "alert": "OK",
      "vis_m": 9999,
      "fzfg": false,
      "metar_trigger": false,
      "taf_trigger": false,
      "metar": "METAR EHBK 061225Z AUTO 21012KT 180V240 9999 FEW044 19/11 Q1013 REDZ NOSIG",
      "taf": "TAF EHBK 061122Z 0612/0718 21010KT 9999 BKN040"
    },
    {
      "icao": "EHEH",
      "alert": "OK",
      "vis_m": 9999,
      "fzfg": false,
      "metar_trigger": false,
      "taf_trigger": false,
      "metar": "METAR EHEH 061225Z AUTO 19013KT 160V220 9999 FEW040CB OVC082 20/09 Q1013 BLU NOSIG RMK TREND REMOTE BY EHWX",
      "taf": "TAF EHEH 061122Z 0612/0718 19012KT 9999 BKN045 BKN070"
    },
    {
      "icao": "EKBI",
      "alert": "OK",
      "vis_m": 9999,
      "fzfg": false,
      "metar_trigger": false,
      "taf_trigger": false,
      "metar": "METAR EKBI 061250Z AUTO 11002KT 9999 FEW035/// BKN073/// 18/11 Q1015",
      "taf": "TAF EKBI 061127Z 0612/0712 18005KT 9999 SCT030"
    },
    {
      "icao": "EKCH",
      "alert": "OK",
      "vis_m": 9999,
      "fzfg": false,
      "metar_trigger": false,
      "taf_trigger": false,
      "metar": "METAR EKCH 061250Z AUTO 17013KT 9999 NCD 18/11 Q1017 NOSIG",
      "taf": "TAF EKCH 061127Z 0612/0712 18010KT 9999 FEW030"
    },
    {
      "icao": "ENAL",
      "alert": "OK",
      "vis_m": 9999,
      "fzfg": false,
      "metar_trigger": false,
      "taf_trigger": false,
      "metar": "METAR ENAL 061220Z 02005KT 9999 FEW030 SCT055 15/10 Q1014",
      "taf": "TAF ENAL 061100Z 0612/0621 34008KT 9999 FEW012 BKN050"
    },
    {
      "icao": "ENBR",
      "alert": "OK",
      "vis_m": 9999,
      "fzfg": false,
      "metar_trigger": false,
      "taf_trigger": false,
      "metar": "METAR ENBR 061220Z 23005KT 9999 FEW035 SCT051 14/08 Q1014 NOSIG RMK WIND 1200FT 25005KT",
      "taf": ""
    },
    {
      "icao": "ENGM",
      "alert": "OK",
      "vis_m": 9999,
      "fzfg": false,
      "metar_trigger": false,
      "taf_trigger": false,
      "metar": "METAR ENGM 061220Z 22008KT 9999 BKN035 17/10 Q1012 NOSIG",
      "taf": "TAF ENGM 061100Z 0612/0712 19008KT 9999 FEW010 BKN030"
    },
    {
      "icao": "ENHD",
      "alert": "OK",
      "vis_m": 9999,
      "fzfg": false,
      "metar_trigger": false,
      "taf_trigger": false,
      "metar": "METAR ENHD 061220Z COR 22008KT 9999 FEW030 14/09 Q1014",
      "taf": "TAF ENHD 061100Z 0612/0621 22007KT 9999 SCT030"
    },
    {
      "icao": "ENTC",
      "alert": "OK",
      "vis_m": 9999,
      "fzfg": false,
      "metar_trigger": false,
      "taf_trigger": false,
      "metar": "METAR ENTC 061220Z 23013KT 9999 FEW051 SCT060 18/08 Q1014 NOSIG RMK WIND 2600FT 23014KT",
      "taf": "TAF ENTC 061100Z 0612/0712 21008KT 9999 SCT065"
    },
    {
      "icao": "ENTO",
      "alert": "OK",
      "vis_m": 9999,
      "fzfg": false,
      "metar_trigger": false,
      "taf_trigger": false,
      "metar": "METAR ENTO 061220Z 18013KT 9999 SCT019 16/11 Q1013 NOSIG",
      "taf": "TAF ENTO 061100Z 0612/0712 19010KT 9999 FEW020 SCT030"
    },
    {
      "icao": "ENVA",
      "alert": "OK",
      "vis_m": 9999,
      "fzfg": false,
      "metar_trigger": false,
      "taf_trigger": false,
      "metar": "METAR ENVA 061220Z 27010KT 9999 FEW030 BKN035 16/11 Q1015 NOSIG RMK WIND 670FT 28006KT",
      "taf": "TAF ENVA 061100Z 0612/0712 27008KT 9999 FEW030 BKN045"
    },
    {
      "icao": "ENZV",
      "alert": "OK",
      "vis_m": 9999,
      "fzfg": false,
      "metar_trigger": false,
      "taf_trigger": false,
      "metar": "METAR ENZV 061220Z 24007KT 210V280 9999 SCT021 16/08 Q1014 NOSIG",
      "taf": ""
    },
    {
      "icao": "EPGD",
      "alert": "OK",
      "vis_m": 9999,
      "fzfg": false,
      "metar_trigger": false,
      "taf_trigger": false,
      "metar": "METAR EPGD 061230Z 26007KT 9999 SCT044 22/11 Q1017",
      "taf": "TAF EPGD 061130Z 0612/0712 27010KT 9999 SCT040"
    },
    {
      "icao": "EPKK",
      "alert": "OK",
      "vis_m": 9999,
      "fzfg": false,
      "metar_trigger": false,
      "taf_trigger": false,
      "metar": "METAR EPKK 061230Z 09006KT 040V110 9999 FEW048 21/08 Q1018",
      "taf": "TAF EPKK 061130Z 0612/0712 10005KT CAVOK"
    },
    {
      "icao": "EPKT",
      "alert": "OK",
      "vis_m": 9999,
      "fzfg": false,
      "metar_trigger": false,
      "taf_trigger": false,
      "metar": "METAR EPKT 061230Z 09005KT 020V130 CAVOK 21/10 Q1018",
      "taf": "TAF EPKT 061130Z 0612/0712 08005KT CAVOK"
    },
    {
      "icao": "EPLB",
      "alert": "OK",
      "vis_m": 9999,
      "fzfg": false,
      "metar_trigger": false,
      "taf_trigger": false,
      "metar": "METAR EPLB 061230Z 35004KT 300V040 9999 BKN045 21/11 Q1018",
      "taf": "TAF EPLB 061130Z 0612/0712 36010KT CAVOK"
    },
    {
      "icao": "EPMO",
      "alert": "OK",
      "vis_m": 9999,
      "fzfg": false,
      "metar_trigger": false,
      "taf_trigger": false,
      "metar": "METAR EPMO 061230Z VRB02KT CAVOK 22/12 Q1018",
      "taf": "TAF EPMO 061130Z 0612/0712 VRB04KT CAVOK"
    },
    {
      "icao": "EPPO",
      "alert": "OK",
      "vis_m": 9999,
      "fzfg": false,
      "metar_trigger": false,
      "taf_trigger": false,
      "metar": "METAR EPPO 061230Z 19007KT 140V200 CAVOK 24/08 Q1017",
      "taf": "TAF EPPO 061130Z 0612/0712 VRB02KT 9999 SCT040"
    },
    {
      "icao": "EPRA",
      "alert": "OK",
      "vis_m": 9999,
      "fzfg": false,
      "metar_trigger": false,
      "taf_trigger": false,
      "metar": "METAR EPRA 061230Z VRB02KT CAVOK 22/09 Q1018",
      "taf": "TAF EPRA 061130Z 0612/0621 VRB02KT CAVOK"
    },
    {
      "icao": "EPRZ",
      "alert": "OK",
      "vis_m": 9999,
      "fzfg": false,
      "metar_trigger": false,
      "taf_trigger": false,
      "metar": "METAR EPRZ 061230Z 05007KT 010V090 9999 FEW040 20/10 Q1018",
      "taf": "TAF EPRZ 061130Z 0612/0712 05005KT 9999 BKN040"
    },
    {
      "icao": "EPSC",
      "alert": "OK",
      "vis_m": 9999,
      "fzfg": false,
      "metar_trigger": false,
      "taf_trigger": false,
      "metar": "METAR EPSC 061230Z 19005KT 150V250 9999 SCT040 21/11 Q1017",
      "taf": "TAF EPSC 061130Z 0612/0712 VRB04KT 9999 SCT038"
    },
    {
      "icao": "EPSY",
      "alert": "OK",
      "vis_m": 9999,
      "fzfg": false,
      "metar_trigger": false,
      "taf_trigger": false,
      "metar": "METAR EPSY 061230Z VRB05KT 9999 SCT048 22/10 Q1018",
      "taf": "TAF EPSY 061130Z 0612/0621 26006KT 9999 SCT040"
    },
    {
      "icao": "EPWA",
      "alert": "OK",
      "vis_m": 9999,
      "fzfg": false,
      "metar_trigger": false,
      "taf_trigger": false,
      "metar": "METAR EPWA 061230Z 34004KT 300V070 CAVOK 22/11 Q1018 NOSIG",
      "taf": "TAF EPWA 061130Z 0612/0712 VRB04KT CAVOK"
    },
    {
      "icao": "EPWR",
      "alert": "OK",
      "vis_m": 9999,
      "fzfg": false,
      "metar_trigger": false,
      "taf_trigger": false,
      "metar": "METAR EPWR 061230Z 15008KT 110V180 9999 FEW051TCU 24/11 Q1017",
      "taf": "TAF EPWR 061130Z 0612/0712 15010KT 9999 SCT040"
    },
    {
      "icao": "ESGG",
      "alert": "OK",
      "vis_m": 9999,
      "fzfg": false,
      "metar_trigger": false,
      "taf_trigger": false,
      "metar": "METAR ESGG 061250Z 22011KT 9999 SCT032 15/08 Q1015",
      "taf": "TAF ESGG 061130Z 0612/0712 24010KT 9999 SCT030"
    },
    {
      "icao": "ESKN",
      "alert": "OK",
      "vis_m": 9999,
      "fzfg": false,
      "metar_trigger": false,
      "taf_trigger": false,
      "metar": "METAR ESKN 061250Z 26009KT 230V290 9999 SCT048 20/11 Q1013",
      "taf": "TAF ESKN 061130Z 0612/0712 28007KT 9999 SCT035"
    },
    {
      "icao": "ESMS",
      "alert": "OK",
      "vis_m": 9999,
      "fzfg": false,
      "metar_trigger": false,
      "taf_trigger": false,
      "metar": "METAR ESMS 061250Z 21010KT 170V240 9999 FEW039 19/10 Q1017",
      "taf": "TAF ESMS 061127Z 0612/0712 27010KT 9999 FEW035"
    },
    {
      "icao": "ESSA",
      "alert": "OK",
      "vis_m": 9999,
      "fzfg": false,
      "metar_trigger": false,
      "taf_trigger": false,
      "metar": "METAR ESSA 061250Z 24009KT 9999 SCT033 BKN090 17/12 Q1012 NOSIG",
      "taf": "TAF ESSA 061130Z 0612/0712 25008KT CAVOK"
    },
    {
      "icao": "EYKA",
      "alert": "OK",
      "vis_m": 9999,
      "fzfg": false,
      "metar_trigger": false,
      "taf_trigger": false,
      "metar": "METAR EYKA 061250Z 31005KT 270V350 CAVOK 20/13 Q1017",
      "taf": "TAF EYKA 061100Z 0612/0712 VRB03KT 8000 SCT035"
    },
    {
      "icao": "EYPA",
      "alert": "OK",
      "vis_m": 9999,
      "fzfg": false,
      "metar_trigger": false,
      "taf_trigger": false,
      "metar": "METAR EYPA 061250Z 23006KT 200V290 9999 BKN007 16/14 Q1017",
      "taf": "TAF EYPA 061121Z 0612/0712 24006KT 8000 BKN005 BKN010"
    },
    {
      "icao": "EYVI",
      "alert": "OK",
      "vis_m": 9999,
      "fzfg": false,
      "metar_trigger": false,
      "taf_trigger": false,
      "metar": "METAR EYVI 061250Z 30008KT 270V360 9999 SCT027 19/12 Q1017 NOSIG",
      "taf": "TAF EYVI 061104Z 0612/0712 VRB03KT 8000 SCT015 BKN035"
    },
    {
      "icao": "GCFV",
      "alert": "OK",
      "vis_m": 9999,
      "fzfg": false,
      "metar_trigger": false,
      "taf_trigger": false,
      "metar": "METAR GCFV 061230Z 02019KT 350V050 9999 FEW025 27/13 Q1018",
      "taf": "TAF GCFV 060800Z 0609/0709 02018KT 9999 FEW025 TX26/0614Z TN20/0706Z"
    },
    {
      "icao": "GCLP",
      "alert": "OK",
      "vis_m": 9999,
      "fzfg": false,
      "metar_trigger": false,
      "taf_trigger": false,
      "metar": "METAR GCLP 061230Z 35027KT 9999 FEW020 27/11 Q1018 NOSIG",
      "taf": "TAF GCLP 060800Z 0609/0709 36026KT 9999 FEW025 TX26/0614Z TN19/0706Z"
    },
    {
      "icao": "GCTS",
      "alert": "OK",
      "vis_m": 9999,
      "fzfg": false,
      "metar_trigger": false,
      "taf_trigger": false,
      "metar": "METAR GCTS 061230Z 11011KT 060V150 9999 FEW025 27/14 Q1019 WS R07 NOSIG",
      "taf": "TAF GCTS 060800Z 0609/0709 20008KT 9999 FEW030 TX28/0614Z TN19/0706Z"
    },
    {
      "icao": "GMAD",
      "alert": "OK",
      "vis_m": 8000,
      "fzfg": false,
      "metar_trigger": false,
      "taf_trigger": false,
      "metar": "METAR GMAD 061230Z 25011KT 210V290 8000 NSC 26/16 Q1012 NOSIG",
      "taf": "TAF GMAD 061100Z 0612/0718 24006KT 8000 SCT010"
    },
    {
      "icao": "GMMN",
      "alert": "OK",
      "vis_m": 9999,
      "fzfg": false,
      "metar_trigger": false,
      "taf_trigger": false,
      "metar": "METAR GMMN 061230Z 01011KT 320V050 CAVOK 27/15 Q1016 NOSIG",
      "taf": "TAF GMMN 061100Z 0612/0718 35015KT CAVOK"
    },
    {
      "icao": "GMMX",
      "alert": "OK",
      "vis_m": 9999,
      "fzfg": false,
      "metar_trigger": false,
      "taf_trigger": false,
      "metar": "METAR GMMX 061230Z 04008KT 340V090 CAVOK 29/14 Q1015 NOSIG",
      "taf": "TAF GMMX 061100Z 0612/0718 06006KT 8000 NSC"
    },
    {
      "icao": "HEGN",
      "alert": "OK",
      "vis_m": 9999,
      "fzfg": false,
      "metar_trigger": false,
      "taf_trigger": false,
      "metar": "METAR HEGN 061200Z 36007KT CAVOK 36/01 Q1010 NOSIG",
      "taf": "TAF HEGN 061100Z 0612/0718 01015KT CAVOK"
    },
    {
      "icao": "HEMA",
      "alert": "OK",
      "vis_m": 9999,
      "fzfg": false,
      "metar_trigger": false,
      "taf_trigger": false,
      "metar": "METAR HEMA 061200Z 01013KT CAVOK 35/09 Q1010 NOSIG",
      "taf": "TAF HEMA 061100Z 0612/0718 36010G20KT CAVOK"
    },
    {
      "icao": "HESH",
      "alert": "OK",
      "vis_m": 9999,
      "fzfg": false,
      "metar_trigger": false,
      "taf_trigger": false,
      "metar": "METAR HESH 061200Z 13008KT CAVOK 38/08 Q1009 NOSIG",
      "taf": "TAF HESH 061100Z 0612/0718 35015KT CAVOK"
    },
    {
      "icao": "HESX",
      "alert": "OK",
      "vis_m": 9999,
      "fzfg": false,
      "metar_trigger": false,
      "taf_trigger": false,
      "metar": "METAR HESX 061200Z 32017KT CAVOK 34/11 Q1011 NOSIG",
      "taf": "TAF HESX 061100Z 0612/0718 35010KT 7000 NSC"
    },
    {
      "icao": "LATI",
      "alert": "OK",
      "vis_m": 9999,
      "fzfg": false,
      "metar_trigger": false,
      "taf_trigger": false,
      "metar": "METAR LATI 061250Z 32007KT 280V010 CAVOK 28/18 Q1016 NOSIG",
      "taf": "TAF LATI 061100Z 0612/0712 29010KT CAVOK TX32/0711Z TN15/0704Z"
    },
    {
      "icao": "LBPD",
      "alert": "OK",
      "vis_m": 9999,
      "fzfg": false,
      "metar_trigger": false,
      "taf_trigger": false,
      "metar": "METAR LBPD 061230Z AUTO 14009KT 9999 //////CB 29/19 Q1014 NOSIG",
      "taf": "TAF LBPD 061100Z 0612/0712 15010KT 9999 FEW025 SCT040"
    },
    {
      "icao": "LBSF",
      "alert": "OK",
      "vis_m": 9999,
      "fzfg": false,
      "metar_trigger": false,
      "taf_trigger": false,
      "metar": "METAR LBSF 061230Z 05006KT 340V110 9999 FEW055 27/13 Q1016 NOSIG",
      "taf": "TAF LBSF 061100Z 0612/0712 05010KT 9999 SCT050"
    },
    {
      "icao": "LBWN",
      "alert": "OK",
      "vis_m": 9999,
      "fzfg": false,
      "metar_trigger": false,
      "taf_trigger": false,
      "metar": "METAR LBWN 061230Z 10009KT 070V130 CAVOK 24/16 Q1016 NOSIG",
      "taf": "TAF LBWN 061100Z 0612/0712 12010KT 9999 SCT040"
    },
    {
      "icao": "LCLK",
      "alert": "OK",
      "vis_m": 9999,
      "fzfg": false,
      "metar_trigger": false,
      "taf_trigger": false,
      "metar": "METAR LCLK 061230Z 21014KT 9999 FEW025CB 29/14 Q1010 NOSIG RMK CB TO W",
      "taf": "TAF LCLK 061130Z 0612/0712 21018KT 9999 FEW025"
    },
    {
      "icao": "LCPH",
      "alert": "OK",
      "vis_m": 9999,
      "fzfg": false,
      "metar_trigger": false,
      "taf_trigger": false,
      "metar": "METAR LCPH 061230Z 31014KT 250V320 9999 FEW030 26/19 Q1011 NOSIG",
      "taf": "TAF LCPH 061130Z 0612/0712 29014KT 9999 FEW025"
    },
    {
      "icao": "LEAL",
      "alert": "OK",
      "vis_m": 9999,
      "fzfg": false,
      "metar_trigger": false,
      "taf_trigger": false,
      "metar": "METAR LEAL 061230Z 11008KT 070V170 9999 FEW025 SCT035 27/18 Q1018 NOSIG",
      "taf": "TAF LEAL 061100Z 0612/0712 12008KT 9999 SCT025 TX27/0612Z TN19/0706Z"
    },
    {
      "icao": "LEBB",
      "alert": "OK",
      "vis_m": 9999,
      "fzfg": false,
      "metar_trigger": false,
      "taf_trigger": false,
      "metar": "METAR LEBB 061230Z 29007KT 250V320 9999 FEW016 BKN033 18/14 Q1023 NOSIG",
      "taf": "TAF LEBB 061100Z 0612/0712 32010KT 9999 SCT020 BKN040 TX24/0712Z TN11/0705Z"
    },
    {
      "icao": "LEBL",
      "alert": "OK",
      "vis_m": 9999,
      "fzfg": false,
      "metar_trigger": false,
      "taf_trigger": false,
      "metar": "METAR LEBL 061230Z 20013KT 9999 FEW027 23/18 Q1019 NOSIG",
      "taf": "TAF LEBL 061100Z 0612/0712 22012KT 9999 FEW020 TX24/0612Z TN18/0706Z"
    },
    {
      "icao": "LECH",
      "alert": "OK",
      "vis_m": 9000,
      "fzfg": false,
      "metar_trigger": false,
      "taf_trigger": false,
      "metar": "METAR LECH 061230Z AUTO 12010KT 9000 NCD 23/17 Q1020",
      "taf": "TAF LECH 061100Z 0612/0712 13008KT 9999 FEW030 TX28/0613Z TN14/0706Z"
    },
    {
      "icao": "LEMD",
      "alert": "OK",
      "vis_m": 9999,
      "fzfg": false,
      "metar_trigger": false,
      "taf_trigger": false,
      "metar": "METAR LEMD 061230Z 17006KT 110V250 CAVOK 27/07 Q1019 NOSIG",
      "taf": "TAF LEMD 061100Z 0612/0718 VRB05KT CAVOK TX31/0616Z TN16/0705Z"
    },
    {
      "icao": "LEMG",
      "alert": "OK",
      "vis_m": 9999,
      "fzfg": false,
      "metar_trigger": false,
      "taf_trigger": false,
      "metar": "METAR LEMG 061230Z 12009KT 080V170 9999 FEW040 27/18 Q1017 NOSIG",
      "taf": "TAF LEMG 061100Z 0612/0712 13010KT 9999 FEW030 TX28/0614Z TN21/0706Z"
    },
    {
      "icao": "LEVC",
      "alert": "OK",
      "vis_m": 9999,
      "fzfg": false,
      "metar_trigger": false,
      "taf_trigger": false,
      "metar": "METAR LEVC 061230Z 11011KT 9999 FEW030 27/18 Q1018 NOSIG",
      "taf": "TAF LEVC 061100Z 0612/0712 11010KT 9999 FEW025 TX28/0612Z TN16/0706Z"
    },
    {
      "icao": "LEXJ",
      "alert": "OK",
      "vis_m": 9999,
      "fzfg": false,
      "metar_trigger": false,
      "taf_trigger": false,
      "metar": "METAR LEXJ 061230Z 29009KT 260V320 9999 FEW024 BKN032 18/13 Q1023",
      "taf": "TAF LEXJ 060800Z 0609/0709 28010KT 9999 SCT025 BKN040 TX18/0617Z TN11/0704Z"
    },
    {
      "icao": "LEZG",
      "alert": "OK",
      "vis_m": 9999,
      "fzfg": false,
      "metar_trigger": false,
      "taf_trigger": false,
      "metar": "METAR LEZG 061230Z 28004KT CAVOK 26/12 Q1019 NOSIG",
      "taf": "TAF LEZG 061100Z 0612/0712 VRB05KT CAVOK TX32/0615Z TN16/0706Z"
    },
    {
      "icao": "LEZL",
      "alert": "OK",
      "vis_m": 9999,
      "fzfg": false,
      "metar_trigger": false,
      "taf_trigger": false,
      "metar": "METAR LEZL 061230Z 12003KT CAVOK 30/07 Q1017 NOSIG",
      "taf": "TAF LEZL 060800Z 0609/0709 33004KT CAVOK TX34/0615Z TN18/0706Z"
    },
    {
      "icao": "LFBD",
      "alert": "OK",
      "vis_m": 9999,
      "fzfg": false,
      "metar_trigger": false,
      "taf_trigger": false,
      "metar": "METAR LFBD 061230Z AUTO 30015KT 9999 SCT046 SCT076 21/10 Q1021 TEMPO 27010G20KT",
      "taf": "TAF LFBD 061100Z 0612/0718 27010KT 9999 SCT040 TX27/0716Z TN11/0704Z"
    },
    {
      "icao": "LFLL",
      "alert": "OK",
      "vis_m": 9999,
      "fzfg": false,
      "metar_trigger": false,
      "taf_trigger": false,
      "metar": "METAR LFLL 061230Z 18004KT 100V270 CAVOK 24/09 Q1018 NOSIG",
      "taf": "TAF LFLL 061100Z 0612/0718 19005KT CAVOK"
    },
    {
      "icao": "LFLS",
      "alert": "OK",
      "vis_m": 9999,
      "fzfg": false,
      "metar_trigger": false,
      "taf_trigger": false,
      "metar": "METAR LFLS 061230Z AUTO 22006KT 130V300 CAVOK 23/09 Q1018 NOSIG",
      "taf": "TAF LFLS 060800Z 0609/0709 VRB03KT CAVOK"
    },
    {
      "icao": "LFMN",
      "alert": "OK",
      "vis_m": 9999,
      "fzfg": false,
      "metar_trigger": false,
      "taf_trigger": false,
      "metar": "METAR LFMN 061230Z 16006KT 9999 FEW028 24/15 Q1017 NOSIG",
      "taf": "TAF LFMN 060800Z 0609/0715 18008KT 9999 FEW018"
    },
    {
      "icao": "LFOB",
      "alert": "OK",
      "vis_m": 9999,
      "fzfg": false,
      "metar_trigger": false,
      "taf_trigger": false,
      "metar": "METAR LFOB 061230Z AUTO 19015KT 160V220 9999 SCT017/// SCT022/// ///CB 19/14 Q1012 TEMPO 27012G25KT 4000 SHRA BKN012 SCT020CB",
      "taf": ""
    },
    {
      "icao": "LFPO",
      "alert": "OK",
      "vis_m": 9999,
      "fzfg": false,
      "metar_trigger": false,
      "taf_trigger": false,
      "metar": "METAR LFPO 061230Z 21008KT 180V240 9999 SCT043 BKN056 16/15 Q1014 NOSIG",
      "taf": "TAF LFPO 061100Z 0612/0718 23012KT 9999 BKN030"
    },
    {
      "icao": "LFSB",
      "alert": "OK",
      "vis_m": 9999,
      "fzfg": false,
      "metar_trigger": false,
      "taf_trigger": false,
      "metar": "METAR LFSB 061230Z AUTO 28008KT 230V320 9999 SCT056 24/11 Q1016 NOSIG",
      "taf": "TAF LFSB 061106Z 0612/0712 26008KT 9999 FEW055"
    },
    {
      "icao": "LGAV",
      "alert": "OK",
      "vis_m": 9999,
      "fzfg": false,
      "metar_trigger": false,
      "taf_trigger": false,
      "metar": "METAR LGAV 061250Z 09005KT 030V120 9999 FEW025 30/12 Q1016 NOSIG",
      "taf": "TAF LGAV 061100Z 0612/0712 07010KT 9999 FEW030"
    },
    {
      "icao": "LGTS",
      "alert": "OK",
      "vis_m": 9999,
      "fzfg": false,
      "metar_trigger": false,
      "taf_trigger": false,
      "metar": "METAR LGTS 061220Z 29011KT 9999 FEW020 30/16 Q1014 NOSIG",
      "taf": "TAF LGTS 061100Z 0612/0712 VRB03KT 9999 FEW030"
    },
    {
      "icao": "LHBP",
      "alert": "OK",
      "vis_m": 9999,
      "fzfg": false,
      "metar_trigger": false,
      "taf_trigger": false,
      "metar": "METAR LHBP 061230Z 10004KT 030V160 CAVOK 24/10 Q1016 NOSIG",
      "taf": "TAF LHBP 061115Z 0612/0712 VRB04KT CAVOK"
    },
    {
      "icao": "LHDC",
      "alert": "OK",
      "vis_m": 9999,
      "fzfg": false,
      "metar_trigger": false,
      "taf_trigger": false,
      "metar": "METAR LHDC 061215Z AUTO VRB04KT 9999 FEW017 BKN098 21/15 Q1018 NOSIG",
      "taf": "TAF LHDC 061115Z 0612/0621 16005KT 9999 SCT014 BKN075"
    },
    {
      "icao": "LIBD",
      "alert": "OK",
      "vis_m": 9999,
      "fzfg": false,
      "metar_trigger": false,
      "taf_trigger": false,
      "metar": "METAR LIBD 061220Z 08011KT CAVOK 28/13 Q1015",
      "taf": "TAF LIBD 061100Z 0612/0712 07012KT CAVOK"
    },
    {
      "icao": "LIBG",
      "alert": "OK",
      "vis_m": 9999,
      "fzfg": false,
      "metar_trigger": false,
      "taf_trigger": false,
      "metar": "METAR LIBG 061220Z AUTO 18008KT 150V220 9999 NCD 29/15 Q1015",
      "taf": "TAF LIBG 061100Z 0612/0712 19010KT CAVOK"
    },
    {
      "icao": "LIBP",
      "alert": "OK",
      "vis_m": 9999,
      "fzfg": false,
      "metar_trigger": false,
      "taf_trigger": false,
      "metar": "METAR LIBP 061220Z AUTO 07008KT 9999 SCT110/// 24/19 Q1016",
      "taf": "TAF LIBP 061100Z 0612/0712 04010KT 9999 SCT060"
    },
    {
      "icao": "LIBR",
      "alert": "OK",
      "vis_m": 9999,
      "fzfg": false,
      "metar_trigger": false,
      "taf_trigger": false,
      "metar": "METAR LIBR 061220Z 11009KT CAVOK 25/18 Q1015",
      "taf": "TAF LIBR 061100Z 0612/0712 11012KT CAVOK"
    },
    {
      "icao": "LICA",
      "alert": "OK",
      "vis_m": 9999,
      "fzfg": false,
      "metar_trigger": false,
      "taf_trigger": false,
      "metar": "METAR LICA 061220Z AUTO 26011KT 9999 NCD 27/17 Q1016",
      "taf": "TAF LICA 061100Z 0612/0712 24012KT CAVOK"
    },
    {
      "icao": "LICC",
      "alert": "OK",
      "vis_m": 9999,
      "fzfg": false,
      "metar_trigger": false,
      "taf_trigger": false,
      "metar": "METAR LICC 061220Z 08011KT CAVOK 27/20 Q1016",
      "taf": "TAF LICC 061100Z 0612/0712 09012KT CAVOK"
    },
    {
      "icao": "LICJ",
      "alert": "OK",
      "vis_m": 9999,
      "fzfg": false,
      "metar_trigger": false,
      "taf_trigger": false,
      "metar": "METAR LICJ 061220Z 04014KT CAVOK 25/21 Q1016",
      "taf": "TAF LICJ 061100Z 0612/0712 04012KT CAVOK"
    },
    {
      "icao": "LIMC",
      "alert": "OK",
      "vis_m": 9999,
      "fzfg": false,
      "metar_trigger": false,
      "taf_trigger": false,
      "metar": "METAR LIMC 061220Z VRB05KT 9999 BKN035 22/14 Q1017 NOSIG",
      "taf": "TAF LIMC 061100Z 0612/0718 VRB05KT 9999 FEW030"
    },
    {
      "icao": "LIME",
      "alert": "OK",
      "vis_m": 9999,
      "fzfg": false,
      "metar_trigger": false,
      "taf_trigger": false,
      "metar": "METAR LIME 061220Z 18003KT 090V230 9999 SCT030 22/15 Q1017 NOSIG",
      "taf": "TAF LIME 061100Z 0612/0712 VRB05KT 9999 FEW030"
    },
    {
      "icao": "LIMF",
      "alert": "OK",
      "vis_m": 9999,
      "fzfg": false,
      "metar_trigger": false,
      "taf_trigger": false,
      "metar": "METAR LIMF 061220Z 09005KT 360V140 9999 SCT040 23/15 Q1017",
      "taf": "TAF LIMF 061100Z 0612/0712 VRB05KT 9999 FEW030"
    },
    {
      "icao": "LIMJ",
      "alert": "OK",
      "vis_m": 9999,
      "fzfg": false,
      "metar_trigger": false,
      "taf_trigger": false,
      "metar": "METAR LIMJ 061220Z 19005KT 160V220 9999 FEW027 21/16 Q1017",
      "taf": "TAF LIMJ 061100Z 0612/0712 15010KT 9999 FEW030"
    },
    {
      "icao": "LIPE",
      "alert": "OK",
      "vis_m": 9999,
      "fzfg": false,
      "metar_trigger": false,
      "taf_trigger": false,
      "metar": "METAR LIPE 061220Z VRB05KT 9999 FEW040 26/12 Q1016",
      "taf": "TAF LIPE 061100Z 0612/0712 34010KT 9999 SCT015"
    },
    {
      "icao": "LIPH",
      "alert": "OK",
      "vis_m": 9999,
      "fzfg": false,
      "metar_trigger": false,
      "taf_trigger": false,
      "metar": "METAR LIPH 061220Z VRB03KT 9999 SCT040 24/15 Q1016",
      "taf": "TAF LIPH 061100Z 0612/0712 VRB05KT 9999 FEW040"
    },
    {
      "icao": "LIPQ",
      "alert": "OK",
      "vis_m": 9999,
      "fzfg": false,
      "metar_trigger": false,
      "taf_trigger": false,
      "metar": "METAR LIPQ 061220Z AUTO VRB07KT 9999 FEW041/// BKN049/// BKN076/// 24/15 Q1016",
      "taf": "TAF LIPQ 061100Z 0612/0712 21010KT 9999 OVC030"
    },
    {
      "icao": "LIPR",
      "alert": "OK",
      "vis_m": 9999,
      "fzfg": false,
      "metar_trigger": false,
      "taf_trigger": false,
      "metar": "METAR LIPR 061220Z 05007KT 020V090 9999 SCT035 23/14 Q1016",
      "taf": "TAF LIPR 061100Z 0612/0712 07011KT 9999 BKN060"
    },
    {
      "icao": "LIPX",
      "alert": "OK",
      "vis_m": 9999,
      "fzfg": false,
      "metar_trigger": false,
      "taf_trigger": false,
      "metar": "METAR LIPX 061220Z 12005KT 070V200 9999 SCT040 24/14 Q1016",
      "taf": "TAF LIPX 061100Z 0612/0712 10010KT 9999 FEW030"
    },
    {
      "icao": "LIPY",
      "alert": "OK",
      "vis_m": 9999,
      "fzfg": false,
      "metar_trigger": false,
      "taf_trigger": false,
      "metar": "METAR LIPY 061220Z AUTO 07008KT 040V100 9999 BKN190/// 24/18 Q1016",
      "taf": "TAF LIPY 061100Z 0612/0712 05010KT 9999 BKN070"
    },
    {
      "icao": "LIPZ",
      "alert": "OK",
      "vis_m": 9999,
      "fzfg": false,
      "metar_trigger": false,
      "taf_trigger": false,
      "metar": "METAR LIPZ 061220Z 15005KT 100V180 9999 FEW030 23/17 Q1016 NOSIG",
      "taf": "TAF LIPZ 061100Z 0612/0718 14010KT 9999 FEW040"
    },
    {
      "icao": "LIRF",
      "alert": "OK",
      "vis_m": 9999,
      "fzfg": false,
      "metar_trigger": false,
      "taf_trigger": false,
      "metar": "METAR LIRF 061220Z 24009KT 210V280 CAVOK 27/12 Q1017 NOSIG",
      "taf": "TAF LIRF 061100Z 0612/0718 24012KT CAVOK"
    },
    {
      "icao": "LIRN",
      "alert": "OK",
      "vis_m": 9999,
      "fzfg": false,
      "metar_trigger": false,
      "taf_trigger": false,
      "metar": "METAR LIRN 061220Z 18011KT 160V220 CAVOK 27/18 Q1016 NOSIG",
      "taf": "TAF LIRN 061100Z 0612/0712 24010KT 9999 FEW030"
    },
    {
      "icao": "LIRP",
      "alert": "OK",
      "vis_m": 9999,
      "fzfg": false,
      "metar_trigger": false,
      "taf_trigger": false,
      "metar": "METAR LIRP 061215Z 25008KT 9999 FEW030 24/14 Q1018 NOSIG",
      "taf": "TAF LIRP 061100Z 0612/0712 26011KT 9999 SCT025"
    },
    {
      "icao": "LIRZ",
      "alert": "OK",
      "vis_m": 9999,
      "fzfg": false,
      "metar_trigger": false,
      "taf_trigger": false,
      "metar": "METAR LIRZ 061220Z AUTO 19006KT 150V250 9999 FEW053/// 26/12 Q1016",
      "taf": "TAF LIRZ 061100Z 0612/0712 24010KT 9999 FEW030"
    },
    {
      "icao": "LJLJ",
      "alert": "OK",
      "vis_m": 9999,
      "fzfg": false,
      "metar_trigger": false,
      "taf_trigger": false,
      "metar": "METAR LJLJ 061230Z VRB02KT 9999 FEW030 SCT050 BKN250 20/13 Q1018 NOSIG",
      "taf": "TAF LJLJ 061100Z 0612/0712 VRB02KT 9999 FEW035"
    },
    {
      "icao": "LKMT",
      "alert": "OK",
      "vis_m": 9999,
      "fzfg": false,
      "metar_trigger": false,
      "taf_trigger": false,
      "metar": "METAR LKMT 061230Z 02007KT 350V060 CAVOK 22/11 Q1017 NOSIG",
      "taf": "TAF LKMT 061100Z 0612/0712 04008KT CAVOK"
    },
    {
      "icao": "LKPR",
      "alert": "OK",
      "vis_m": 9999,
      "fzfg": false,
      "metar_trigger": false,
      "taf_trigger": false,
      "metar": "METAR LKPR 061230Z VRB02KT 9999 SCT048 21/09 Q1017 NOSIG",
      "taf": "TAF LKPR 061100Z 0612/0718 12004KT CAVOK"
    },
    {
      "icao": "LLBG",
      "alert": "OK",
      "vis_m": 9999,
      "fzfg": false,
      "metar_trigger": false,
      "taf_trigger": false,
      "metar": "METAR LLBG 061250Z 33007KT 300V360 CAVOK 32/05 Q1010 NOSIG",
      "taf": "TAF LLBG 061108Z 0612/0712 33010KT CAVOK TX33/0613Z TN19/0703Z"
    },
    {
      "icao": "LMML",
      "alert": "OK",
      "vis_m": 9999,
      "fzfg": false,
      "metar_trigger": false,
      "taf_trigger": false,
      "metar": "METAR LMML 061245Z 10008KT 060V140 CAVOK 30/17 Q1016 NOSIG",
      "taf": "TAF LMML 061100Z 0612/0712 05006KT 9999 FEW015"
    },
    {
      "icao": "LOWW",
      "alert": "OK",
      "vis_m": 9999,
      "fzfg": false,
      "metar_trigger": false,
      "taf_trigger": false,
      "metar": "METAR LOWW 061220Z VRB05KT 9999 FEW050 24/11 Q1016 TEMPO 14008KT",
      "taf": "TAF LOWW 061115Z 0612/0718 14007KT 9999 FEW050 TX26/0714Z TN15/0703Z"
    },
    {
      "icao": "LPFR",
      "alert": "OK",
      "vis_m": 9999,
      "fzfg": false,
      "metar_trigger": false,
      "taf_trigger": false,
      "metar": "METAR LPFR 061230Z 25012KT CAVOK 24/15 Q1018",
      "taf": "TAF LPFR 061100Z 0612/0712 20010KT CAVOK"
    },
    {
      "icao": "LPMA",
      "alert": "OK",
      "vis_m": 9999,
      "fzfg": false,
      "metar_trigger": false,
      "taf_trigger": false,
      "metar": "METAR LPMA 061230Z 35009KT 270V040 9999 FEW014 22/18 Q1022",
      "taf": "TAF LPMA 061100Z 0612/0712 01010KT 9999 SCT015"
    },
    {
      "icao": "LPPR",
      "alert": "OK",
      "vis_m": 9999,
      "fzfg": false,
      "metar_trigger": false,
      "taf_trigger": false,
      "metar": "METAR LPPR 061230Z 30008KT 260V330 9999 FEW017 BKN027 19/14 Q1021",
      "taf": "TAF LPPR 061100Z 0612/0712 31005KT 9999 SCT012 BKN018"
    },
    {
      "icao": "LPPS",
      "alert": "OK",
      "vis_m": 9999,
      "fzfg": false,
      "metar_trigger": false,
      "taf_trigger": false,
      "metar": "METAR LPPS 061230Z 35011KT 320V020 9999 SCT011 23/17 Q1023",
      "taf": "TAF LPPS 061100Z 0612/0718 36012KT 9999 SCT012 SCT025"
    },
    {
      "icao": "LPPT",
      "alert": "OK",
      "vis_m": 9999,
      "fzfg": false,
      "metar_trigger": false,
      "taf_trigger": false,
      "metar": "METAR LPPT 061230Z 33009KT 280V010 9999 FEW026 BKN030 22/14 Q1020",
      "taf": "TAF LPPT 061100Z 0612/0718 36007KT 9999 SCT030"
    },
    {
      "icao": "LQBK",
      "alert": "OK",
      "vis_m": 9999,
      "fzfg": false,
      "metar_trigger": false,
      "taf_trigger": false,
      "metar": "METAR LQBK 061230Z VRB03KT 9999 SCT025 BKN040 21/15 Q1017 NOSIG",
      "taf": "TAF LQBK 061100Z 0612/0712 04005KT 9999 SCT040 TX23/0614Z TN15/0703Z"
    },
    {
      "icao": "LQSA",
      "alert": "OK",
      "vis_m": 9999,
      "fzfg": false,
      "metar_trigger": false,
      "taf_trigger": false,
      "metar": "METAR LQSA 061230Z VRB03KT 9999 FEW050 25/13 Q1016 NOSIG",
      "taf": "TAF LQSA 061100Z 0612/0712 VRB02KT 9999 SCT055 TX26/0613Z TN15/0703Z"
    },
    {
      "icao": "LQTZ",
      "alert": "OK",
      "vis_m": 9999,
      "fzfg": false,
      "metar_trigger": false,
      "taf_trigger": false,
      "metar": "METAR LQTZ 061230Z 13005KT 100V160 CAVOK 23/14 Q1017",
      "taf": "TAF LQTZ 061100Z 0612/0712 06005KT 9999 SCT045 TX24/0614Z TN14/0703Z"
    },
    {
      "icao": "LRBC",
      "alert": "OK",
      "vis_m": 8000,
      "fzfg": false,
      "metar_trigger": false,
      "taf_trigger": false,
      "metar": "METAR LRBC 061230Z 33005KT 8000 -SHRA FEW015 BKN035CB 21/19 Q1017",
      "taf": "TAF LRBC 061100Z 0612/0621 35012KT 9999 SCT020 SCT035CB"
    },
    {
      "icao": "LRBS",
      "alert": "OK",
      "vis_m": 9999,
      "fzfg": false,
      "metar_trigger": false,
      "taf_trigger": false,
      "metar": "METAR LRBS 061230Z 11007KT 070V150 9999 FEW040 27/20 Q1015 NOSIG",
      "taf": "TAF LRBS 061100Z 0612/0712 VRB04KT CAVOK"
    },
    {
      "icao": "LRBV",
      "alert": "OK",
      "vis_m": 9999,
      "fzfg": false,
      "metar_trigger": false,
      "taf_trigger": false,
      "metar": "METAR LRBV 061230Z 13005KT 090V190 9999 VCSH SCT041CB SCT087 22/15 Q1016 RETS",
      "taf": "TAF LRBV 061100Z 0612/0621 VRB04KT 9999 SCT030CB SCT070"
    },
    {
      "icao": "LRCL",
      "alert": "OK",
      "vis_m": 9999,
      "fzfg": false,
      "metar_trigger": false,
      "taf_trigger": false,
      "metar": "METAR LRCL 061230Z 29015KT 9999 VCTS FEW025 SCT040CB BKN061 21/12 Q1017",
      "taf": "TAF LRCL 061100Z 0612/0621 VRB04KT 9999 SCT040CB"
    },
    {
      "icao": "LRCV",
      "alert": "OK",
      "vis_m": 9999,
      "fzfg": false,
      "metar_trigger": false,
      "taf_trigger": false,
      "metar": "METAR LRCV 061230Z VRB02KT 9999 SCT040 SCT045CB 27/17 Q1015",
      "taf": "TAF LRCV 061100Z 0612/0621 VRB04KT 9999 SCT045CB"
    },
    {
      "icao": "LRIA",
      "alert": "OK",
      "vis_m": 9999,
      "fzfg": false,
      "metar_trigger": false,
      "taf_trigger": false,
      "metar": "METAR LRIA 061230Z 30008KT 9999 BKN023 24/18 Q1015",
      "taf": "TAF LRIA 061100Z 0612/0621 28008KT 9999 BKN020 SCT035CB"
    },
    {
      "icao": "LROP",
      "alert": "OK",
      "vis_m": 9999,
      "fzfg": false,
      "metar_trigger": false,
      "taf_trigger": false,
      "metar": "METAR LROP 061230Z 14009KT 110V170 CAVOK 25/20 Q1015 NOSIG",
      "taf": "TAF LROP 061100Z 0612/0712 VRB04KT CAVOK"
    },
    {
      "icao": "LRSB",
      "alert": "OK",
      "vis_m": 9999,
      "fzfg": false,
      "metar_trigger": false,
      "taf_trigger": false,
      "metar": "METAR LRSB 061230Z 29006KT 9999 -SHRA FEW040CB SCT045 25/16 Q1016",
      "taf": "TAF LRSB 061100Z 0612/0712 VRB04KT 9999 SCT045CB"
    },
    {
      "icao": "LRSM",
      "alert": "OK",
      "vis_m": 9999,
      "fzfg": false,
      "metar_trigger": false,
      "taf_trigger": false,
      "metar": "METAR LRSM 061230Z 29005KT 230V320 CAVOK 22/14 Q1017",
      "taf": "TAF LRSM 061100Z 0612/0621 25008KT CAVOK"
    },
    {
      "icao": "LRSV",
      "alert": "OK",
      "vis_m": 9999,
      "fzfg": false,
      "metar_trigger": false,
      "taf_trigger": false,
      "metar": "METAR LRSV 061230Z 32010KT 9999 SCT010 20/17 Q1017",
      "taf": "TAF LRSV 061100Z 0612/0621 33008KT 9999 SCT010 BKN040"
    },
    {
      "icao": "LRTM",
      "alert": "OK",
      "vis_m": 9999,
      "fzfg": false,
      "metar_trigger": false,
      "taf_trigger": false,
      "metar": "METAR LRTM 061230Z VRB04KT 9999 SCT043 27/19 Q1015",
      "taf": "TAF LRTM 061100Z 0612/0621 VRB04KT 9999 SCT045"
    },
    {
      "icao": "LRTR",
      "alert": "OK",
      "vis_m": 9999,
      "fzfg": false,
      "metar_trigger": false,
      "taf_trigger": false,
      "metar": "METAR LRTR 061230Z 27005KT 230V300 9999 FEW015 20/16 Q1018 NOSIG",
      "taf": "TAF LRTR 061100Z 0612/0712 VRB04KT CAVOK"
    },
    {
      "icao": "LTAC",
      "alert": "OK",
      "vis_m": 9999,
      "fzfg": false,
      "metar_trigger": false,
      "taf_trigger": false,
      "metar": "METAR LTAC 061220Z 04011KT 360V080 9999 -TSRA FEW030CB BKN040 27/10 Q1016 BECMG TL1320 NSW RMK RWY21C 06012KT 360V090 RWY03L 04010KT RWY21R 04009KT 350V070 RWY03R 05008KT 360V120 RWY21L 04011KT",
      "taf": "TAF LTAC 061040Z 0612/0712 03012KT 9999 SCT040 SCT100"
    },
    {
      "icao": "LTFM",
      "alert": "OK",
      "vis_m": 9999,
      "fzfg": false,
      "metar_trigger": false,
      "taf_trigger": false,
      "metar": "METAR LTFM 061220Z 04009KT 010V070 CAVOK 22/17 Q1016 NOSIG RMK RWY17L 03009KT 360V060 RWY34L 02010KT 340V050 RWY16R 03008KT 350V070 RWY36 04010KT 360V070 RWY18 05008KT 010V090",
      "taf": "TAF LTFM 061040Z 0612/0718 03012KT CAVOK"
    },
    {
      "icao": "LUKK",
      "alert": "OK",
      "vis_m": 2200,
      "fzfg": false,
      "metar_trigger": false,
      "taf_trigger": false,
      "metar": "METAR LUKK 061230Z 13010KT 2200 VCTS SHRA FEW015 BKN023CB BKN047 17/16 Q1016 RETS TEMPO VRB16G26KT 2500 TSRA SCT010 BKN025CB",
      "taf": "TAF LUKK 061107Z 0612/0712 VRB06KT 9999 SCT030"
    },
    {
      "icao": "LWOH",
      "alert": "OK",
      "vis_m": 9999,
      "fzfg": false,
      "metar_trigger": false,
      "taf_trigger": false,
      "metar": "METAR LWOH 061250Z 18004KT 130V220 9999 FEW040 24/17 Q1018",
      "taf": "TAF LWOH 061120Z 0612/0712 VRB02KT 9999 FEW040"
    },
    {
      "icao": "LWSK",
      "alert": "OK",
      "vis_m": 9999,
      "fzfg": false,
      "metar_trigger": false,
      "taf_trigger": false,
      "metar": "METAR LWSK 061250Z VRB04KT 9999 R34/1400D FEW050 31/14 Q1014 NOSIG",
      "taf": "TAF LWSK 061120Z 0612/0712 VRB02KT CAVOK"
    },
    {
      "icao": "LYBE",
      "alert": "OK",
      "vis_m": 9999,
      "fzfg": false,
      "metar_trigger": false,
      "taf_trigger": false,
      "metar": "METAR LYBE 061230Z 34004KT 300V080 9999 BKN027 21/16 Q1018 NOSIG",
      "taf": "TAF LYBE 061100Z 0612/0712 03005KT 9999 BKN030 TX28/0712Z TN16/0704Z"
    },
    {
      "icao": "LYNI",
      "alert": "OK",
      "vis_m": 9999,
      "fzfg": false,
      "metar_trigger": false,
      "taf_trigger": false,
      "metar": "METAR LYNI 061230Z 32013KT 290V360 9999 FEW050 25/17 Q1016 NOSIG",
      "taf": "TAF LYNI 061100Z 0612/0712 32012KT CAVOK TX28/0712Z TN14/0704Z"
    },
    {
      "icao": "LYPG",
      "alert": "OK",
      "vis_m": 9999,
      "fzfg": false,
      "metar_trigger": false,
      "taf_trigger": false,
      "metar": "METAR LYPG 061230Z 16006KT 120V220 9999 FEW040 30/14 Q1015 NOSIG",
      "taf": "TAF LYPG 061100Z 0612/0712 18007KT 9999 FEW040 TX29/0614Z TN19/0703Z"
    },
    {
      "icao": "LZIB",
      "alert": "OK",
      "vis_m": 9999,
      "fzfg": false,
      "metar_trigger": false,
      "taf_trigger": false,
      "metar": "METAR LZIB 061230Z 09005KT 020V120 CAVOK 25/09 Q1016 NOSIG",
      "taf": "TAF LZIB 061115Z 0612/0712 VRB02KT 9999 FEW030"
    },
    {
      "icao": "LZKZ",
      "alert": "OK",
      "vis_m": 9999,
      "fzfg": false,
      "metar_trigger": false,
      "taf_trigger": false,
      "metar": "METAR LZKZ 061230Z 03009KT 360V060 CAVOK 21/11 Q1017 NOSIG",
      "taf": "TAF LZKZ 061115Z 0612/0712 01012KT CAVOK"
    },
    {
      "icao": "LZTT",
      "alert": "OK",
      "vis_m": 9999,
      "fzfg": false,
      "metar_trigger": false,
      "taf_trigger": false,
      "metar": "METAR LZTT 061230Z VRB03KT 9999 FEW046 SCT066 19/10 Q1019 NOSIG",
      "taf": "TAF LZTT 061115Z 0612/0712 06008KT 9999 FEW020 SCT045"
    },
    {
      "icao": "OEJN",
      "alert": "OK",
      "vis_m": 9999,
      "fzfg": false,
      "metar_trigger": false,
      "taf_trigger": false,
      "metar": "METAR OEJN 061200Z 30014KT CAVOK 36/20 Q1006 NOSIG",
      "taf": "TAF OEJN 061100Z 0612/0718 34014KT CAVOK"
    },
    {
      "icao": "OEMA",
      "alert": "OK",
      "vis_m": 9999,
      "fzfg": false,
      "metar_trigger": false,
      "taf_trigger": false,
      "metar": "METAR OEMA 061200Z 30012KT CAVOK 43/M05 Q1011 NOSIG",
      "taf": "TAF OEMA 061100Z 0612/0718 30012KT CAVOK"
    },
    {
      "icao": "OJAI",
      "alert": "OK",
      "vis_m": 5000,
      "fzfg": false,
      "metar_trigger": false,
      "taf_trigger": false,
      "metar": "METAR OJAI 061200Z 26012KT 5000 DU NSC 30/03 Q1015 NOSIG",
      "taf": "TAF OJAI 061100Z 0612/0718 30010KT 5000 HZ NSC"
    },
    {
      "icao": "OMAA",
      "alert": "OK",
      "vis_m": 9999,
      "fzfg": false,
      "metar_trigger": false,
      "taf_trigger": false,
      "metar": "METAR OMAA 061230Z 30012KT CAVOK 36/19 Q1000 NOSIG",
      "taf": "TAF OMAA 061100Z 0612/0718 29011KT 8000 NSC"
    },
    {
      "icao": "OMDB",
      "alert": "OK",
      "vis_m": 9999,
      "fzfg": false,
      "metar_trigger": false,
      "taf_trigger": false,
      "metar": "METAR OMDB 061230Z 28008KT 230V340 CAVOK 39/19 Q0999 NOSIG",
      "taf": "TAF OMDB 061100Z 0612/0718 30010KT 8000 NSC"
    },
    {
      "icao": "UAAA",
      "alert": "OK",
      "vis_m": 9999,
      "fzfg": false,
      "metar_trigger": false,
      "taf_trigger": false,
      "metar": "METAR UAAA 061230Z 36001MPS 9999 SCT100 OVC200 23/15 Q1016 NOSIG",
      "taf": "TAF UAAA 061101Z 0612/0712 22003MPS 9999 SCT050CB BKN100 TX26/0709Z TN16/0701Z"
    },
    {
      "icao": "UBBB",
      "alert": "OK",
      "vis_m": 9999,
      "fzfg": false,
      "metar_trigger": false,
      "taf_trigger": false,
      "metar": "METAR UBBB 061230Z 16009KT CAVOK 27/10 Q1012 NOSIG",
      "taf": "TAF UBBB 061050Z 0612/0712 17012KT CAVOK TX27/0612Z TN16/0701Z"
    },
    {
      "icao": "UDSG",
      "alert": "OK",
      "vis_m": 9999,
      "fzfg": false,
      "metar_trigger": false,
      "taf_trigger": false,
      "metar": "METAR UDSG 061230Z 03018KT 9999 VCTS BKN040CB 17/08 Q1019 TEMPO -TSRA",
      "taf": "TAF UDSG 061100Z 0612/0712 24006KT 9999 SCT050"
    },
    {
      "icao": "UDYZ",
      "alert": "OK",
      "vis_m": 9999,
      "fzfg": false,
      "metar_trigger": false,
      "taf_trigger": false,
      "metar": "METAR UDYZ 061230Z 21007KT 9999 VCTS BKN043CB 30/08 Q1011 NOSIG",
      "taf": "TAF UDYZ 061100Z 0612/0712 24006KT 9999 SCT040"
    },
    {
      "icao": "UGKO",
      "alert": "OK",
      "vis_m": 9999,
      "fzfg": false,
      "metar_trigger": false,
      "taf_trigger": false,
      "metar": "METAR UGKO 061230Z 26015KT 230V290 CAVOK 27/16 Q1012 NOSIG",
      "taf": "TAF UGKO 061100Z 0612/0712 26007KT CAVOK TX29/0612Z TN15/0702Z"
    }
  ]
}