{
  "ts_utc": "2026-07-13T21:16:28Z",
  "threshold_m": 150,
  "source": "stations_override.txt (ICAO list) + aviationweather.gov (METAR/TAF raw)",
  "station_count": 159,
  "stations": [
    {
      "icao": "BIKF",
      "alert": "OK",
      "vis_m": 4000,
      "fzfg": false,
      "metar_trigger": false,
      "taf_trigger": false,
      "metar": "METAR BIKF 132100Z 17017KT 4000 BR OVC002 11/11 Q1020",
      "taf": "TAF BIKF 131936Z 1321/1421 17018KT 4000 RADZ BKN005 OVC010 TX11/1415Z TN10/1404Z"
    },
    {
      "icao": "BKPR",
      "alert": "OK",
      "vis_m": 9999,
      "fzfg": false,
      "metar_trigger": false,
      "taf_trigger": false,
      "metar": "METAR BKPR 132100Z 32006KT 9999 SCT065 20/13 Q1020 NOSIG",
      "taf": "TAF BKPR 131730Z 1318/1418 32008KT 9999 FEW060"
    },
    {
      "icao": "EBCI",
      "alert": "OK",
      "vis_m": 9999,
      "fzfg": false,
      "metar_trigger": false,
      "taf_trigger": false,
      "metar": "METAR EBCI 132050Z 35006KT CAVOK 24/15 Q1018 NOSIG",
      "taf": "TAF EBCI 131715Z 1318/1424 03010KT CAVOK"
    },
    {
      "icao": "EDDB",
      "alert": "OK",
      "vis_m": 9999,
      "fzfg": false,
      "metar_trigger": false,
      "taf_trigger": false,
      "metar": "METAR EDDB 132050Z AUTO 04010KT CAVOK 22/16 Q1020 NOSIG",
      "taf": "TAF EDDB 131700Z 1318/1418 04008KT CAVOK"
    },
    {
      "icao": "EDDH",
      "alert": "OK",
      "vis_m": 9999,
      "fzfg": false,
      "metar_trigger": false,
      "taf_trigger": false,
      "metar": "METAR EDDH 132050Z AUTO 12009KT CAVOK 21/16 Q1021 BECMG 08004KT",
      "taf": "TAF EDDH 131700Z 1318/1424 06007KT CAVOK"
    },
    {
      "icao": "EDDK",
      "alert": "OK",
      "vis_m": 9999,
      "fzfg": false,
      "metar_trigger": false,
      "taf_trigger": false,
      "metar": "METAR EDDK 132050Z AUTO 05008KT CAVOK 26/15 Q1016 NOSIG",
      "taf": "TAF EDDK 131700Z 1318/1424 03007KT CAVOK"
    },
    {
      "icao": "EDDN",
      "alert": "OK",
      "vis_m": 9999,
      "fzfg": false,
      "metar_trigger": false,
      "taf_trigger": false,
      "metar": "METAR EDDN 132050Z AUTO 06007KT 020V080 CAVOK 26/15 Q1016",
      "taf": "TAF EDDN 131700Z 1318/1418 06004KT CAVOK"
    },
    {
      "icao": "EDDS",
      "alert": "OK",
      "vis_m": 9999,
      "fzfg": false,
      "metar_trigger": false,
      "taf_trigger": false,
      "metar": "METAR EDDS 132050Z AUTO VRB02KT CAVOK 24/11 Q1015",
      "taf": "TAF EDDS 131700Z 1318/1418 07005KT CAVOK"
    },
    {
      "icao": "EDFH",
      "alert": "OK",
      "vis_m": 9999,
      "fzfg": false,
      "metar_trigger": false,
      "taf_trigger": false,
      "metar": "METAR EDFH 132050Z 07004KT 030V110 CAVOK 24/09 Q1018",
      "taf": "TAF EDFH 131700Z 1318/1418 08007KT CAVOK"
    },
    {
      "icao": "EDJA",
      "alert": "OK",
      "vis_m": 9999,
      "fzfg": false,
      "metar_trigger": false,
      "taf_trigger": false,
      "metar": "METAR EDJA 132050Z 07005KT CAVOK 19/12 Q1017",
      "taf": "TAF EDJA 131700Z 1318/1403 07005KT CAVOK"
    },
    {
      "icao": "EDLW",
      "alert": "OK",
      "vis_m": 9999,
      "fzfg": false,
      "metar_trigger": false,
      "taf_trigger": false,
      "metar": "METAR EDLW 132050Z AUTO 09007KT 9999 // BKN091/// 24/13 Q1017",
      "taf": "TAF EDLW 131700Z 1318/1418 05007KT CAVOK"
    },
    {
      "icao": "EDNY",
      "alert": "OK",
      "vis_m": 9999,
      "fzfg": false,
      "metar_trigger": false,
      "taf_trigger": false,
      "metar": "METAR EDNY 132050Z AUTO 06004KT 010V080 9999 // SCT170/// 22/17 Q1016",
      "taf": "TAF EDNY 131700Z 1318/1403 VRB03KT CAVOK"
    },
    {
      "icao": "EDSB",
      "alert": "OK",
      "vis_m": 9999,
      "fzfg": false,
      "metar_trigger": false,
      "taf_trigger": false,
      "metar": "METAR EDSB 132050Z 02006KT CAVOK 26/12 Q1013",
      "taf": "TAF EDSB 131700Z 1318/1418 02007KT CAVOK"
    },
    {
      "icao": "EETN",
      "alert": "OK",
      "vis_m": 9999,
      "fzfg": false,
      "metar_trigger": false,
      "taf_trigger": false,
      "metar": "METAR EETN 132050Z 36005KT 9999 FEW032 19/16 Q1018 NOSIG",
      "taf": ""
    },
    {
      "icao": "EFTU",
      "alert": "OK",
      "vis_m": 9999,
      "fzfg": false,
      "metar_trigger": false,
      "taf_trigger": false,
      "metar": "METAR EFTU 132050Z AUTO 34003KT 300V010 CAVOK 16/12 Q1020",
      "taf": "TAF EFTU 132027Z 1321/1421 34004KT CAVOK"
    },
    {
      "icao": "EGBB",
      "alert": "OK",
      "vis_m": 9999,
      "fzfg": false,
      "metar_trigger": false,
      "taf_trigger": false,
      "metar": "METAR EGBB 132050Z 05010KT 020V080 CAVOK 19/11 Q1024",
      "taf": "TAF EGBB 131655Z 1318/1418 05010KT 9999 FEW040"
    },
    {
      "icao": "EGGP",
      "alert": "OK",
      "vis_m": 9999,
      "fzfg": false,
      "metar_trigger": false,
      "taf_trigger": false,
      "metar": "METAR EGGP 132050Z 08009KT 9999 7000SE NSC 19/08 Q1024",
      "taf": "TAF EGGP 131654Z 1318/1418 07009KT CAVOK"
    },
    {
      "icao": "EGGW",
      "alert": "OK",
      "vis_m": 9999,
      "fzfg": false,
      "metar_trigger": false,
      "taf_trigger": false,
      "metar": "METAR EGGW 132050Z AUTO 04014KT 9999 FEW017 18/15 Q1023",
      "taf": "TAF EGGW 131656Z 1318/1418 06012KT 9999 FEW045"
    },
    {
      "icao": "EGKK",
      "alert": "OK",
      "vis_m": 9999,
      "fzfg": false,
      "metar_trigger": false,
      "taf_trigger": false,
      "metar": "METAR EGKK 132050Z 05009KT 9999 FEW020 20/16 Q1021",
      "taf": "TAF EGKK 131656Z 1318/1424 05013KT CAVOK"
    },
    {
      "icao": "EGNM",
      "alert": "OK",
      "vis_m": 9999,
      "fzfg": false,
      "metar_trigger": false,
      "taf_trigger": false,
      "metar": "METAR EGNM 132050Z 02010KT CAVOK 14/11 Q1026",
      "taf": "TAF EGNM 131655Z 1318/1418 06010KT CAVOK"
    },
    {
      "icao": "EGPD",
      "alert": "OK",
      "vis_m": 9999,
      "fzfg": false,
      "metar_trigger": false,
      "taf_trigger": false,
      "metar": "METAR EGPD 132050Z AUTO 06003KT 9999 BKN012 13/10 Q1030",
      "taf": ""
    },
    {
      "icao": "EGPF",
      "alert": "OK",
      "vis_m": 9999,
      "fzfg": false,
      "metar_trigger": false,
      "taf_trigger": false,
      "metar": "METAR EGPF 132050Z AUTO 05008KT 9999 NCD 14/10 Q1028",
      "taf": "TAF EGPF 131650Z 1318/1418 06012KT CAVOK"
    },
    {
      "icao": "EHBK",
      "alert": "OK",
      "vis_m": 9999,
      "fzfg": false,
      "metar_trigger": false,
      "taf_trigger": false,
      "metar": "METAR EHBK 132055Z AUTO 01007KT 330V030 9999 NSC 25/15 Q1017",
      "taf": "TAF EHBK 131710Z 1318/1424 05010KT CAVOK"
    },
    {
      "icao": "EHEH",
      "alert": "OK",
      "vis_m": 9999,
      "fzfg": false,
      "metar_trigger": false,
      "taf_trigger": false,
      "metar": "METAR EHEH 132055Z AUTO 36005KT 320V040 9999 SCT086 SCT099 BKN260 23/16 Q1018 BLU NOSIG RMK TREND REMOTE BY EHWO",
      "taf": "TAF EHEH 131724Z 1318/1424 05009KT CAVOK"
    },
    {
      "icao": "EKBI",
      "alert": "OK",
      "vis_m": 9999,
      "fzfg": false,
      "metar_trigger": false,
      "taf_trigger": false,
      "metar": "METAR EKBI 132050Z AUTO 11003KT 9999 NCD 18/16 Q1024",
      "taf": "TAF EKBI 132027Z 1321/1421 VRB04KT 9999 SCT025"
    },
    {
      "icao": "EKCH",
      "alert": "OK",
      "vis_m": 9999,
      "fzfg": false,
      "metar_trigger": false,
      "taf_trigger": false,
      "metar": "METAR EKCH 132050Z AUTO 02006KT 9999 SCT110/// 18/16 Q1024 NOSIG",
      "taf": "TAF EKCH 132027Z 1321/1421 35008KT 9999 FEW030"
    },
    {
      "icao": "ENAL",
      "alert": "OK",
      "vis_m": 9999,
      "fzfg": false,
      "metar_trigger": false,
      "taf_trigger": false,
      "metar": "METAR ENAL 132050Z 35005KT 310V030 9999 BKN010 12/11 Q1029",
      "taf": "TAF ENAL 132000Z 1321/1406 36007KT 9999 BKN010"
    },
    {
      "icao": "ENBR",
      "alert": "OK",
      "vis_m": 9999,
      "fzfg": false,
      "metar_trigger": false,
      "taf_trigger": false,
      "metar": "METAR ENBR 132050Z 33006KT CAVOK 12/11 Q1026 RMK WIND 1200FT 35010KT",
      "taf": "TAF ENBR 131700Z 1318/1418 33010KT CAVOK"
    },
    {
      "icao": "ENGM",
      "alert": "OK",
      "vis_m": 9999,
      "fzfg": false,
      "metar_trigger": false,
      "taf_trigger": false,
      "metar": "METAR ENGM 132050Z 00000KT CAVOK 21/12 Q1023 NOSIG",
      "taf": "TAF ENGM 131700Z 1318/1418 VRB03KT CAVOK"
    },
    {
      "icao": "ENHD",
      "alert": "OK",
      "vis_m": 9999,
      "fzfg": false,
      "metar_trigger": false,
      "taf_trigger": false,
      "metar": "METAR ENHD 132050Z 34011KT CAVOK 12/11 Q1026",
      "taf": "TAF ENHD 131400Z 1315/1322 34009KT CAVOK"
    },
    {
      "icao": "ENTC",
      "alert": "OK",
      "vis_m": 9999,
      "fzfg": false,
      "metar_trigger": false,
      "taf_trigger": false,
      "metar": "METAR ENTC 132050Z 23026KT 9999 SCT045 13/08 Q1017 NOSIG RMK WIND 2600FT 21021KT",
      "taf": "TAF ENTC 131700Z 1318/1418 20025KT 9999 FEW030 BKN060"
    },
    {
      "icao": "ENTO",
      "alert": "OK",
      "vis_m": 3600,
      "fzfg": false,
      "metar_trigger": false,
      "taf_trigger": false,
      "metar": "METAR ENTO 132050Z AUTO 26004KT 3600 // NCD 20/08 Q1024",
      "taf": "TAF ENTO 131700Z 1318/1418 24010KT CAVOK"
    },
    {
      "icao": "ENVA",
      "alert": "OK",
      "vis_m": 9999,
      "fzfg": false,
      "metar_trigger": false,
      "taf_trigger": false,
      "metar": "METAR ENVA 132050Z 27013KT CAVOK 14/12 Q1028 RMK WIND 670FT 28016KT",
      "taf": "TAF ENVA 131700Z 1318/1418 27009KT CAVOK"
    },
    {
      "icao": "ENZV",
      "alert": "OK",
      "vis_m": 9999,
      "fzfg": false,
      "metar_trigger": false,
      "taf_trigger": false,
      "metar": "METAR ENZV 132050Z 26003KT CAVOK 14/12 Q1026",
      "taf": "TAF ENZV 131700Z 1318/1418 30006KT CAVOK"
    },
    {
      "icao": "EPGD",
      "alert": "OK",
      "vis_m": 9999,
      "fzfg": false,
      "metar_trigger": false,
      "taf_trigger": false,
      "metar": "METAR EPGD 132100Z 36005KT CAVOK 14/11 Q1022",
      "taf": "TAF EPGD 131730Z 1318/1418 36010KT CAVOK"
    },
    {
      "icao": "EPKK",
      "alert": "OK",
      "vis_m": 2000,
      "fzfg": false,
      "metar_trigger": false,
      "taf_trigger": false,
      "metar": "METAR EPKK 132100Z VRB01KT 2000 0400W BCFG BR FEW002 18/18 Q1019",
      "taf": "TAF EPKK 132030Z 1321/1421 VRB02KT 4500 BR FEW040"
    },
    {
      "icao": "EPKT",
      "alert": "OK",
      "vis_m": 9999,
      "fzfg": false,
      "metar_trigger": false,
      "taf_trigger": false,
      "metar": "METAR EPKT 132100Z VRB01KT CAVOK 17/16 Q1020",
      "taf": "TAF EPKT 131730Z 1318/1418 02006KT CAVOK"
    },
    {
      "icao": "EPLB",
      "alert": "OK",
      "vis_m": 9999,
      "fzfg": false,
      "metar_trigger": false,
      "taf_trigger": false,
      "metar": "METAR EPLB 132100Z 34006KT 9999 FEW035 21/18 Q1017",
      "taf": "TAF EPLB 131730Z 1318/1418 30008KT CAVOK"
    },
    {
      "icao": "EPMO",
      "alert": "OK",
      "vis_m": 9999,
      "fzfg": false,
      "metar_trigger": false,
      "taf_trigger": false,
      "metar": "METAR EPMO 132100Z 33008KT CAVOK 19/18 Q1018",
      "taf": "TAF EPMO 131730Z 1318/1418 33006KT 9999 SCT030"
    },
    {
      "icao": "EPPO",
      "alert": "OK",
      "vis_m": 9999,
      "fzfg": false,
      "metar_trigger": false,
      "taf_trigger": false,
      "metar": "METAR EPPO 132100Z 04008KT CAVOK 22/17 Q1020",
      "taf": "TAF EPPO 131730Z 1318/1418 02008KT CAVOK"
    },
    {
      "icao": "EPRA",
      "alert": "OK",
      "vis_m": 9999,
      "fzfg": false,
      "metar_trigger": false,
      "taf_trigger": false,
      "metar": "METAR EPRA 132100Z 31004KT 270V330 CAVOK 21/19 Q1018",
      "taf": "TAF EPRA 132030Z 1321/1406 28008KT 9999 SCT040"
    },
    {
      "icao": "EPRZ",
      "alert": "OK",
      "vis_m": 9999,
      "fzfg": false,
      "metar_trigger": false,
      "taf_trigger": false,
      "metar": "METAR EPRZ 132100Z 26003KT 9999 SCT026 18/17 Q1018",
      "taf": "TAF EPRZ 131730Z 1318/1418 32008KT CAVOK"
    },
    {
      "icao": "EPSC",
      "alert": "OK",
      "vis_m": 9999,
      "fzfg": false,
      "metar_trigger": false,
      "taf_trigger": false,
      "metar": "METAR EPSC 132100Z 02007KT 350V060 CAVOK 17/14 Q1021",
      "taf": "TAF EPSC 131730Z 1318/1418 03010KT CAVOK"
    },
    {
      "icao": "EPSY",
      "alert": "OK",
      "vis_m": 9999,
      "fzfg": false,
      "metar_trigger": false,
      "taf_trigger": false,
      "metar": "METAR EPSY 132100Z 33007KT 290V360 9999 BKN007 17/15 Q1019",
      "taf": "TAF EPSY 132030Z 1321/1406 32008KT 9999 BKN010"
    },
    {
      "icao": "EPWA",
      "alert": "OK",
      "vis_m": 9999,
      "fzfg": false,
      "metar_trigger": false,
      "taf_trigger": false,
      "metar": "METAR EPWA 132100Z 33008KT CAVOK 21/18 Q1018 NOSIG",
      "taf": "TAF EPWA 132030Z 1321/1421 33007KT CAVOK"
    },
    {
      "icao": "EPWR",
      "alert": "OK",
      "vis_m": 9999,
      "fzfg": false,
      "metar_trigger": false,
      "taf_trigger": false,
      "metar": "METAR EPWR 132100Z VRB01KT CAVOK 22/15 Q1019",
      "taf": "TAF EPWR 132030Z 1321/1421 VRB02KT CAVOK"
    },
    {
      "icao": "ESGG",
      "alert": "OK",
      "vis_m": 9999,
      "fzfg": false,
      "metar_trigger": false,
      "taf_trigger": false,
      "metar": "METAR ESGG 132050Z 32004KT CAVOK 20/08 Q1024",
      "taf": "TAF ESGG 131730Z 1318/1418 02008KT CAVOK"
    },
    {
      "icao": "ESKN",
      "alert": "OK",
      "vis_m": 9999,
      "fzfg": false,
      "metar_trigger": false,
      "taf_trigger": false,
      "metar": "METAR ESKN 132050Z 08001KT CAVOK 16/13 Q1023",
      "taf": "TAF ESKN 131730Z 1318/1418 34005KT CAVOK"
    },
    {
      "icao": "ESMS",
      "alert": "OK",
      "vis_m": 9999,
      "fzfg": false,
      "metar_trigger": false,
      "taf_trigger": false,
      "metar": "METAR ESMS 132050Z 00000KT CAVOK 17/12 Q1024",
      "taf": "TAF ESMS 132027Z 1321/1421 VRB04KT 9999 FEW035"
    },
    {
      "icao": "ESSA",
      "alert": "OK",
      "vis_m": 9999,
      "fzfg": false,
      "metar_trigger": false,
      "taf_trigger": false,
      "metar": "METAR ESSA 132050Z 01004KT CAVOK 14/06 Q1023 NOSIG",
      "taf": "TAF ESSA 131730Z 1318/1418 01010KT CAVOK"
    },
    {
      "icao": "EYKA",
      "alert": "OK",
      "vis_m": 9999,
      "fzfg": false,
      "metar_trigger": false,
      "taf_trigger": false,
      "metar": "METAR EYKA 132050Z 32003KT 260V020 CAVOK 20/19 Q1016",
      "taf": "TAF EYKA 131700Z 1318/1418 VRB03KT 9000 NSC"
    },
    {
      "icao": "EYPA",
      "alert": "OK",
      "vis_m": 9999,
      "fzfg": false,
      "metar_trigger": false,
      "taf_trigger": false,
      "metar": "METAR EYPA 132050Z 01006KT 320V030 CAVOK 15/13 Q1019",
      "taf": "TAF EYPA 131700Z 1318/1418 VRB04KT 9000 NSC"
    },
    {
      "icao": "EYVI",
      "alert": "OK",
      "vis_m": 9999,
      "fzfg": false,
      "metar_trigger": false,
      "taf_trigger": false,
      "metar": "METAR EYVI 132050Z 33004KT CAVOK 20/19 Q1016 NOSIG",
      "taf": "TAF EYVI 131700Z 1318/1418 33008KT 9000 SCT045"
    },
    {
      "icao": "GCFV",
      "alert": "OK",
      "vis_m": 9999,
      "fzfg": false,
      "metar_trigger": false,
      "taf_trigger": false,
      "metar": "METAR GCFV 132100Z 04007KT 9999 FEW017 SCT025 23/19 Q1017",
      "taf": "TAF GCFV 132000Z 1321/1421 04009KT 9999 SCT025 TX26/1414Z TN21/1406Z"
    },
    {
      "icao": "GCLP",
      "alert": "OK",
      "vis_m": 9999,
      "fzfg": false,
      "metar_trigger": false,
      "taf_trigger": false,
      "metar": "METAR GCLP 132100Z 01013KT 9999 FEW025 23/17 Q1017 NOSIG",
      "taf": "TAF GCLP 132000Z 1321/1421 36007KT 9999 SCT030 TX27/1414Z TN21/1406Z"
    },
    {
      "icao": "GCTS",
      "alert": "OK",
      "vis_m": 9999,
      "fzfg": false,
      "metar_trigger": false,
      "taf_trigger": false,
      "metar": "METAR GCTS 132100Z 08009KT 9999 FEW030 23/18 Q1017 NOSIG",
      "taf": "TAF GCTS 132000Z 1321/1421 05006KT 9999 SCT030 TX27/1414Z TN19/1406Z"
    },
    {
      "icao": "GMAD",
      "alert": "OK",
      "vis_m": 9999,
      "fzfg": false,
      "metar_trigger": false,
      "taf_trigger": false,
      "metar": "METAR GMAD 132100Z 21007KT CAVOK 23/19 Q1015 NOSIG",
      "taf": "TAF GMAD 131700Z 1318/1424 27014KT CAVOK"
    },
    {
      "icao": "GMMN",
      "alert": "OK",
      "vis_m": 9999,
      "fzfg": false,
      "metar_trigger": false,
      "taf_trigger": false,
      "metar": "METAR GMMN 132100Z 03009KT 9999 FEW020 22/18 Q1017 NOSIG",
      "taf": "TAF GMMN 131700Z 1318/1424 36012KT CAVOK"
    },
    {
      "icao": "GMMX",
      "alert": "OK",
      "vis_m": 9999,
      "fzfg": false,
      "metar_trigger": false,
      "taf_trigger": false,
      "metar": "METAR GMMX 132100Z 26007G21KT 220V020 CAVOK 30/17 Q1015 NOSIG",
      "taf": "TAF GMMX 131700Z 1318/1424 32008KT CAVOK"
    },
    {
      "icao": "HEGN",
      "alert": "OK",
      "vis_m": 9999,
      "fzfg": false,
      "metar_trigger": false,
      "taf_trigger": false,
      "metar": "METAR HEGN 132000Z 30004KT CAVOK 29/13 Q1006 NOSIG",
      "taf": "TAF HEGN 131700Z 1318/1424 34015KT CAVOK"
    },
    {
      "icao": "HEMA",
      "alert": "OK",
      "vis_m": 9999,
      "fzfg": false,
      "metar_trigger": false,
      "taf_trigger": false,
      "metar": "METAR HEMA 132000Z 26002KT CAVOK 30/15 Q1005 NOSIG",
      "taf": "TAF HEMA 131700Z 1318/1424 34015KT CAVOK"
    },
    {
      "icao": "HESH",
      "alert": "OK",
      "vis_m": 9999,
      "fzfg": false,
      "metar_trigger": false,
      "taf_trigger": false,
      "metar": "METAR HESH 132000Z 23004KT CAVOK 35/13 Q1003 NOSIG",
      "taf": "TAF HESH 131700Z 1318/1424 33012KT CAVOK"
    },
    {
      "icao": "HESX",
      "alert": "OK",
      "vis_m": 9999,
      "fzfg": false,
      "metar_trigger": false,
      "taf_trigger": false,
      "metar": "METAR HESX 132000Z 01009KT CAVOK 25/16 Q1010 NOSIG",
      "taf": "TAF HESX 131700Z 1318/1424 32012KT CAVOK"
    },
    {
      "icao": "LATI",
      "alert": "OK",
      "vis_m": null,
      "fzfg": false,
      "metar_trigger": false,
      "taf_trigger": false,
      "metar": "",
      "taf": "TAF LATI 131700Z 1318/1418 34010KT CAVOK TX35/1411Z TN18/1404Z"
    },
    {
      "icao": "LBPD",
      "alert": "OK",
      "vis_m": 9999,
      "fzfg": false,
      "metar_trigger": false,
      "taf_trigger": false,
      "metar": "METAR LBPD 132100Z AUTO VRB03KT 9999 SCT078/// OVC090/// 22/13 Q1016",
      "taf": "TAF LBPD 131700Z 1318/1418 27012KT 9999 SCT070"
    },
    {
      "icao": "LBSF",
      "alert": "OK",
      "vis_m": 9999,
      "fzfg": false,
      "metar_trigger": false,
      "taf_trigger": false,
      "metar": "METAR LBSF 132100Z AUTO 32003KT 290V020 9999 NCD 18/12 Q1018 NOSIG",
      "taf": "TAF LBSF 131700Z 1318/1418 32010KT 9999 SCT050"
    },
    {
      "icao": "LBWN",
      "alert": "OK",
      "vis_m": 9999,
      "fzfg": false,
      "metar_trigger": false,
      "taf_trigger": false,
      "metar": "METAR LBWN 132100Z AUTO 29006KT 260V340 9999 //////CB 18/17 Q1014 NOSIG",
      "taf": "TAF LBWN 131700Z 1318/1418 VRB04KT 9999 SCT030 SCT045"
    },
    {
      "icao": "LCLK",
      "alert": "OK",
      "vis_m": 9999,
      "fzfg": false,
      "metar_trigger": false,
      "taf_trigger": false,
      "metar": "METAR LCLK 132100Z 03004KT CAVOK 27/23 Q1005 NOSIG",
      "taf": "TAF LCLK 131730Z 1318/1418 24007KT 9999 FEW025"
    },
    {
      "icao": "LCPH",
      "alert": "OK",
      "vis_m": 9999,
      "fzfg": false,
      "metar_trigger": false,
      "taf_trigger": false,
      "metar": "METAR LCPH 132100Z AUTO 01005KT 9999 NCD 24/21 Q1006 NOSIG",
      "taf": "TAF LCPH 131730Z 1318/1418 35007KT 9999 FEW020"
    },
    {
      "icao": "LEAL",
      "alert": "OK",
      "vis_m": 9999,
      "fzfg": false,
      "metar_trigger": false,
      "taf_trigger": false,
      "metar": "METAR LEAL 132100Z 00000KT CAVOK 28/24 Q1013 NOSIG",
      "taf": "TAF LEAL 131700Z 1318/1418 11009KT 9999 FEW010 TX33/1412Z TN23/1406Z"
    },
    {
      "icao": "LEBB",
      "alert": "OK",
      "vis_m": 9999,
      "fzfg": false,
      "metar_trigger": false,
      "taf_trigger": false,
      "metar": "METAR LEBB 132100Z 29006KT 9999 SCT021 24/21 Q1016 NOSIG",
      "taf": "TAF LEBB 131700Z 1318/1418 28009KT 9999 SCT030 TX31/1412Z TN21/1405Z"
    },
    {
      "icao": "LEBL",
      "alert": "OK",
      "vis_m": 9999,
      "fzfg": false,
      "metar_trigger": false,
      "taf_trigger": false,
      "metar": "METAR LEBL 132100Z 12002KT 9999 FEW010 27/26 Q1014 NOSIG",
      "taf": "TAF LEBL 131700Z 1318/1418 05012KT 9999 FEW020 TX31/1412Z TN24/1406Z"
    },
    {
      "icao": "LECH",
      "alert": "OK",
      "vis_m": 9999,
      "fzfg": false,
      "metar_trigger": false,
      "taf_trigger": false,
      "metar": "METAR LECH 132100Z AUTO VRB02KT CAVOK 25/21 Q1015",
      "taf": "TAF LECH 131700Z 1318/1418 13008KT 9999 FEW010 TX35/1412Z TN21/1406Z"
    },
    {
      "icao": "LEMD",
      "alert": "OK",
      "vis_m": 9999,
      "fzfg": false,
      "metar_trigger": false,
      "taf_trigger": false,
      "metar": "METAR LEMD 132100Z 32004KT 280V340 CAVOK 28/05 Q1016 NOSIG",
      "taf": "TAF LEMD 131700Z 1318/1424 VRB04KT CAVOK TX37/1416Z TN19/1405Z"
    },
    {
      "icao": "LEMG",
      "alert": "OK",
      "vis_m": 9999,
      "fzfg": false,
      "metar_trigger": false,
      "taf_trigger": false,
      "metar": "METAR LEMG 132100Z 00000KT CAVOK 24/16 Q1013 NOSIG",
      "taf": "TAF LEMG 131700Z 1318/1418 08008KT CAVOK TX35/1414Z TN24/1405Z"
    },
    {
      "icao": "LEVC",
      "alert": "OK",
      "vis_m": 9999,
      "fzfg": false,
      "metar_trigger": false,
      "taf_trigger": false,
      "metar": "METAR LEVC 132100Z 05006KT 360V130 CAVOK 28/24 Q1013 NOSIG",
      "taf": "TAF LEVC 131700Z 1318/1418 11009KT 9999 FEW015 TX33/1414Z TN24/1406Z"
    },
    {
      "icao": "LEXJ",
      "alert": "OK",
      "vis_m": 9999,
      "fzfg": false,
      "metar_trigger": false,
      "taf_trigger": false,
      "metar": "METAR LEXJ 132100Z 00000KT 9999 FEW023 21/20 Q1016",
      "taf": "TAF LEXJ 132000Z 1321/1421 VRB03KT 9999 SCT020 TX27/1412Z TN19/1405Z"
    },
    {
      "icao": "LEZG",
      "alert": "OK",
      "vis_m": 9999,
      "fzfg": false,
      "metar_trigger": false,
      "taf_trigger": false,
      "metar": "METAR LEZG 132100Z 17007KT 130V220 9999 FEW080 FEW100CB 34/18 Q1012 NOSIG",
      "taf": "TAF LEZG 131700Z 1318/1418 08008KT CAVOK TX37/1415Z TN24/1406Z"
    },
    {
      "icao": "LEZL",
      "alert": "OK",
      "vis_m": 9999,
      "fzfg": false,
      "metar_trigger": false,
      "taf_trigger": false,
      "metar": "METAR LEZL 132100Z 25006KT CAVOK 26/15 Q1014 NOSIG",
      "taf": "TAF LEZL 132000Z 1321/1421 23010KT CAVOK TX34/1415Z TN20/1405Z"
    },
    {
      "icao": "LFBD",
      "alert": "OK",
      "vis_m": 9999,
      "fzfg": false,
      "metar_trigger": false,
      "taf_trigger": false,
      "metar": "METAR LFBD 132100Z AUTO 34003KT 300V050 CAVOK 24/19 Q1015 NOSIG",
      "taf": ""
    },
    {
      "icao": "LFLL",
      "alert": "OK",
      "vis_m": 9999,
      "fzfg": false,
      "metar_trigger": false,
      "taf_trigger": false,
      "metar": "METAR LFLL 132100Z 18008KT 150V210 CAVOK 31/12 Q1015 TEMPO 20015G25KT",
      "taf": "TAF LFLL 131700Z 1318/1424 18010KT CAVOK"
    },
    {
      "icao": "LFLS",
      "alert": "OK",
      "vis_m": 9999,
      "fzfg": false,
      "metar_trigger": false,
      "taf_trigger": false,
      "metar": "METAR LFLS 132100Z AUTO 20010KT CAVOK 28/16 Q1017",
      "taf": "TAF LFLS 131400Z 1315/1415 21008KT CAVOK"
    },
    {
      "icao": "LFMN",
      "alert": "OK",
      "vis_m": 9999,
      "fzfg": false,
      "metar_trigger": false,
      "taf_trigger": false,
      "metar": "METAR LFMN 132100Z 36003KT 330V040 CAVOK 27/20 Q1016 NOSIG",
      "taf": "TAF LFMN 132000Z 1321/1503 VRB03KT CAVOK"
    },
    {
      "icao": "LFOB",
      "alert": "OK",
      "vis_m": 9999,
      "fzfg": false,
      "metar_trigger": false,
      "taf_trigger": false,
      "metar": "METAR LFOB 132100Z AUTO 02011KT CAVOK 24/17 Q1016 NOSIG",
      "taf": "TAF LFOB 131700Z 1318/1418 04015G25KT CAVOK"
    },
    {
      "icao": "LFPO",
      "alert": "OK",
      "vis_m": 9999,
      "fzfg": false,
      "metar_trigger": false,
      "taf_trigger": false,
      "metar": "METAR LFPO 132100Z AUTO 04011KT 9999 ///CB 28/16 Q1015 TEMPO VRB15G25KT 4000 -TSRA",
      "taf": "TAF LFPO 131700Z 1318/1424 04015KT CAVOK"
    },
    {
      "icao": "LFSB",
      "alert": "OK",
      "vis_m": 9999,
      "fzfg": false,
      "metar_trigger": false,
      "taf_trigger": false,
      "metar": "METAR LFSB 132100Z AUTO 32003KT CAVOK 25/14 Q1014 TEMPO VRB20G35KT 2000 TSRA SCT090CB",
      "taf": "TAF LFSB 131700Z 1318/1418 01005KT CAVOK"
    },
    {
      "icao": "LGAV",
      "alert": "OK",
      "vis_m": 9999,
      "fzfg": false,
      "metar_trigger": false,
      "taf_trigger": false,
      "metar": "METAR LGAV 132050Z 00000KT 9999 FEW025 25/15 Q1013 NOSIG",
      "taf": "TAF LGAV 131700Z 1318/1418 03010KT 9999 FEW025"
    },
    {
      "icao": "LGTS",
      "alert": "OK",
      "vis_m": 9999,
      "fzfg": false,
      "metar_trigger": false,
      "taf_trigger": false,
      "metar": "METAR LGTS 132050Z 31009KT 9999 FEW025 28/15 Q1014 NOSIG",
      "taf": "TAF LGTS 131700Z 1318/1418 33015KT 9999 FEW030"
    },
    {
      "icao": "LHBP",
      "alert": "OK",
      "vis_m": 9999,
      "fzfg": false,
      "metar_trigger": false,
      "taf_trigger": false,
      "metar": "METAR LHBP 132100Z 14006KT CAVOK 21/11 Q1018 NOSIG",
      "taf": "TAF LHBP 131715Z 1318/1418 VRB03KT CAVOK"
    },
    {
      "icao": "LHDC",
      "alert": "OK",
      "vis_m": 9999,
      "fzfg": false,
      "metar_trigger": false,
      "taf_trigger": false,
      "metar": "METAR LHDC 132045Z AUTO 03006KT CAVOK 21/14 Q1017",
      "taf": "TAF LHDC 131415Z 1315/1324 02009KT CAVOK"
    },
    {
      "icao": "LIBD",
      "alert": "OK",
      "vis_m": 9999,
      "fzfg": false,
      "metar_trigger": false,
      "taf_trigger": false,
      "metar": "METAR LIBD 132050Z AUTO 28004KT 9999 NCD 25/14 Q1017",
      "taf": "TAF LIBD 131700Z 1318/1418 33010KT CAVOK"
    },
    {
      "icao": "LIBG",
      "alert": "OK",
      "vis_m": 9999,
      "fzfg": false,
      "metar_trigger": false,
      "taf_trigger": false,
      "metar": "METAR LIBG 132050Z AUTO VRB02KT 9999 NCD 24/12 Q1016",
      "taf": "TAF LIBG 131700Z 1318/1418 35010KT CAVOK"
    },
    {
      "icao": "LIBP",
      "alert": "OK",
      "vis_m": 9999,
      "fzfg": false,
      "metar_trigger": false,
      "taf_trigger": false,
      "metar": "METAR LIBP 132050Z AUTO 23006KT 9999 NCD 23/16 Q1017",
      "taf": "TAF LIBP 131700Z 1318/1418 VRB04KT CAVOK"
    },
    {
      "icao": "LIBR",
      "alert": "OK",
      "vis_m": 9999,
      "fzfg": false,
      "metar_trigger": false,
      "taf_trigger": false,
      "metar": "METAR LIBR 132050Z 35010KT CAVOK 27/21 Q1015",
      "taf": "TAF LIBR 131700Z 1318/1418 34012KT CAVOK"
    },
    {
      "icao": "LICA",
      "alert": "OK",
      "vis_m": 9999,
      "fzfg": false,
      "metar_trigger": false,
      "taf_trigger": false,
      "metar": "METAR LICA 132050Z AUTO 21003KT 9999 FEW019/// 26/23 Q1017",
      "taf": "TAF LICA 131700Z 1318/1418 26010KT CAVOK"
    },
    {
      "icao": "LICC",
      "alert": "OK",
      "vis_m": 9999,
      "fzfg": false,
      "metar_trigger": false,
      "taf_trigger": false,
      "metar": "METAR LICC 132050Z 08002KT CAVOK 26/19 Q1017",
      "taf": "TAF LICC 131700Z 1318/1418 11010KT CAVOK"
    },
    {
      "icao": "LICJ",
      "alert": "OK",
      "vis_m": 9999,
      "fzfg": false,
      "metar_trigger": false,
      "taf_trigger": false,
      "metar": "METAR LICJ 132050Z 07008KT 050V110 CAVOK 28/23 Q1017",
      "taf": "TAF LICJ 131700Z 1318/1418 05010KT CAVOK"
    },
    {
      "icao": "LIMC",
      "alert": "OK",
      "vis_m": 9999,
      "fzfg": false,
      "metar_trigger": false,
      "taf_trigger": false,
      "metar": "METAR LIMC 132050Z VRB02KT CAVOK 26/18 Q1017 NOSIG",
      "taf": "TAF LIMC 131700Z 1318/1424 VRB05KT 9999 SCT050"
    },
    {
      "icao": "LIME",
      "alert": "OK",
      "vis_m": 9999,
      "fzfg": false,
      "metar_trigger": false,
      "taf_trigger": false,
      "metar": "METAR LIME 132050Z 04003KT CAVOK 28/19 Q1017 NOSIG",
      "taf": "TAF LIME 131700Z 1318/1418 VRB05KT 9999 FEW070"
    },
    {
      "icao": "LIMF",
      "alert": "OK",
      "vis_m": 9999,
      "fzfg": false,
      "metar_trigger": false,
      "taf_trigger": false,
      "metar": "METAR LIMF 132050Z 35006KT 9999 SCT070 27/20 Q1017",
      "taf": "TAF LIMF 131700Z 1318/1418 VRB05KT 9999 FEW050"
    },
    {
      "icao": "LIMJ",
      "alert": "OK",
      "vis_m": 9999,
      "fzfg": false,
      "metar_trigger": false,
      "taf_trigger": false,
      "metar": "METAR LIMJ 132050Z VRB02KT CAVOK 29/20 Q1016",
      "taf": "TAF LIMJ 131700Z 1318/1418 VRB05KT CAVOK"
    },
    {
      "icao": "LIPE",
      "alert": "OK",
      "vis_m": 9999,
      "fzfg": false,
      "metar_trigger": false,
      "taf_trigger": false,
      "metar": "METAR LIPE 132050Z 10006KT CAVOK 28/18 Q1015",
      "taf": "TAF LIPE 131700Z 1318/1418 VRB04KT CAVOK"
    },
    {
      "icao": "LIPH",
      "alert": "OK",
      "vis_m": 9999,
      "fzfg": false,
      "metar_trigger": false,
      "taf_trigger": false,
      "metar": "METAR LIPH 132050Z 07003KT 040V110 CAVOK 27/21 Q1017",
      "taf": "TAF LIPH 131700Z 1318/1418 VRB05KT CAVOK"
    },
    {
      "icao": "LIPQ",
      "alert": "OK",
      "vis_m": 9999,
      "fzfg": false,
      "metar_trigger": false,
      "taf_trigger": false,
      "metar": "METAR LIPQ 132050Z AUTO VRB02KT 9999 BKN150/// 25/20 Q1016",
      "taf": "TAF LIPQ 131700Z 1318/1418 VRB05KT CAVOK"
    },
    {
      "icao": "LIPR",
      "alert": "OK",
      "vis_m": 9999,
      "fzfg": false,
      "metar_trigger": false,
      "taf_trigger": false,
      "metar": "METAR LIPR 132050Z VRB02KT CAVOK 25/20 Q1016",
      "taf": "TAF LIPR 131700Z 1318/1418 12010KT CAVOK"
    },
    {
      "icao": "LIPX",
      "alert": "OK",
      "vis_m": 9999,
      "fzfg": false,
      "metar_trigger": false,
      "taf_trigger": false,
      "metar": "METAR LIPX 132050Z 08004KT CAVOK 28/21 Q1017",
      "taf": "TAF LIPX 131700Z 1318/1418 VRB06KT CAVOK"
    },
    {
      "icao": "LIPY",
      "alert": "OK",
      "vis_m": 9999,
      "fzfg": false,
      "metar_trigger": false,
      "taf_trigger": false,
      "metar": "METAR LIPY 132050Z AUTO 21002KT 9999 NCD 26/13 Q1016",
      "taf": "TAF LIPY 131700Z 1318/1418 VRB05KT CAVOK"
    },
    {
      "icao": "LIPZ",
      "alert": "OK",
      "vis_m": 9999,
      "fzfg": false,
      "metar_trigger": false,
      "taf_trigger": false,
      "metar": "METAR LIPZ 132050Z VRB02KT CAVOK 27/21 Q1017 NOSIG",
      "taf": "TAF LIPZ 131700Z 1318/1424 16010KT CAVOK"
    },
    {
      "icao": "LIRF",
      "alert": "OK",
      "vis_m": 9999,
      "fzfg": false,
      "metar_trigger": false,
      "taf_trigger": false,
      "metar": "METAR LIRF 132050Z 30002KT CAVOK 26/25 Q1017 NOSIG",
      "taf": "TAF LIRF 131700Z 1318/1424 27010KT CAVOK"
    },
    {
      "icao": "LIRN",
      "alert": "OK",
      "vis_m": 9999,
      "fzfg": false,
      "metar_trigger": false,
      "taf_trigger": false,
      "metar": "METAR LIRN 132050Z 28004KT 250V360 CAVOK 29/16 Q1018 NOSIG",
      "taf": "TAF LIRN 131700Z 1318/1418 VRB05KT CAVOK"
    },
    {
      "icao": "LIRP",
      "alert": "OK",
      "vis_m": 9999,
      "fzfg": false,
      "metar_trigger": false,
      "taf_trigger": false,
      "metar": "METAR LIRP 132045Z 28005KT CAVOK 26/22 Q1017 NOSIG",
      "taf": "TAF LIRP 131700Z 1318/1418 28008KT CAVOK"
    },
    {
      "icao": "LIRZ",
      "alert": "OK",
      "vis_m": 9999,
      "fzfg": false,
      "metar_trigger": false,
      "taf_trigger": false,
      "metar": "METAR LIRZ 132050Z AUTO 27003KT 9999 NCD 30/18 Q1017",
      "taf": "TAF LIRZ 131700Z 1318/1418 VRB05KT CAVOK"
    },
    {
      "icao": "LJLJ",
      "alert": "OK",
      "vis_m": 9999,
      "fzfg": false,
      "metar_trigger": false,
      "taf_trigger": false,
      "metar": "METAR LJLJ 132100Z 07006KT 9999 FEW065 BKN250 23/18 Q1018 NOSIG",
      "taf": "TAF LJLJ 131700Z 1318/1418 23005KT 9999 FEW065"
    },
    {
      "icao": "LKMT",
      "alert": "OK",
      "vis_m": 9999,
      "fzfg": false,
      "metar_trigger": false,
      "taf_trigger": false,
      "metar": "METAR LKMT 132100Z 13004KT 090V150 CAVOK 19/17 Q1019 NOSIG",
      "taf": "TAF LKMT 131700Z 1318/1418 03008KT CAVOK"
    },
    {
      "icao": "LKPR",
      "alert": "OK",
      "vis_m": 9999,
      "fzfg": false,
      "metar_trigger": false,
      "taf_trigger": false,
      "metar": "METAR LKPR 132100Z 03004KT CAVOK 23/15 Q1019 NOSIG",
      "taf": "TAF LKPR 132000Z 1321/1503 07005KT CAVOK"
    },
    {
      "icao": "LLBG",
      "alert": "OK",
      "vis_m": 9999,
      "fzfg": false,
      "metar_trigger": false,
      "taf_trigger": false,
      "metar": "METAR LLBG 132050Z 21004KT CAVOK 26/22 Q1008 NOSIG",
      "taf": "TAF LLBG 131702Z 1318/1418 VRB04KT 9999 FEW020 TX31/1412Z TN23/1403Z"
    },
    {
      "icao": "LMML",
      "alert": "OK",
      "vis_m": 9999,
      "fzfg": false,
      "metar_trigger": false,
      "taf_trigger": false,
      "metar": "METAR LMML 132115Z 06004KT 040V100 9999 FEW006 26/24 Q1018 NOSIG",
      "taf": "TAF LMML 131700Z 1318/1418 07010KT 9999 FEW015"
    },
    {
      "icao": "LOWW",
      "alert": "OK",
      "vis_m": 9999,
      "fzfg": false,
      "metar_trigger": false,
      "taf_trigger": false,
      "metar": "METAR LOWW 132050Z 07002KT CAVOK 22/13 Q1018 NOSIG",
      "taf": ""
    },
    {
      "icao": "LPFR",
      "alert": "OK",
      "vis_m": 9999,
      "fzfg": false,
      "metar_trigger": false,
      "taf_trigger": false,
      "metar": "METAR LPFR 132100Z 27012KT CAVOK 23/19 Q1015",
      "taf": "TAF LPFR 131700Z 1318/1418 23012KT CAVOK"
    },
    {
      "icao": "LPMA",
      "alert": "OK",
      "vis_m": 9999,
      "fzfg": false,
      "metar_trigger": false,
      "taf_trigger": false,
      "metar": "METAR LPMA 132100Z 23003KT 150V260 9999 BKN014 22/18 Q1017",
      "taf": "TAF LPMA 131700Z 1318/1418 VRB05KT 9999 SCT015"
    },
    {
      "icao": "LPPR",
      "alert": "OK",
      "vis_m": 9999,
      "fzfg": false,
      "metar_trigger": false,
      "taf_trigger": false,
      "metar": "METAR LPPR 132100Z VRB02KT 9999 FEW045 20/17 Q1016",
      "taf": "TAF LPPR 131700Z 1318/1418 23010KT 9999 SCT020"
    },
    {
      "icao": "LPPS",
      "alert": "OK",
      "vis_m": 9999,
      "fzfg": false,
      "metar_trigger": false,
      "taf_trigger": false,
      "metar": "METAR LPPS 132100Z 26004KT 230V310 9999 SCT015 SCT030 22/18 Q1017",
      "taf": "TAF LPPS 131700Z 1318/1424 27010KT 9999 SCT015 SCT030"
    },
    {
      "icao": "LPPT",
      "alert": "OK",
      "vis_m": 9999,
      "fzfg": false,
      "metar_trigger": false,
      "taf_trigger": false,
      "metar": "METAR LPPT 132100Z 32009KT 280V340 CAVOK 20/17 Q1016 NOSIG",
      "taf": "TAF LPPT 131700Z 1318/1424 31010KT 9999 FEW025"
    },
    {
      "icao": "LQBK",
      "alert": "OK",
      "vis_m": 9999,
      "fzfg": false,
      "metar_trigger": false,
      "taf_trigger": false,
      "metar": "METAR LQBK 132100Z 15003KT CAVOK 20/14 Q1018 NOSIG",
      "taf": "TAF LQBK 131700Z 1318/1418 16005KT CAVOK TX33/1414Z TN16/1404Z"
    },
    {
      "icao": "LQSA",
      "alert": "OK",
      "vis_m": 9999,
      "fzfg": false,
      "metar_trigger": false,
      "taf_trigger": false,
      "metar": "METAR LQSA 132100Z 13004KT CAVOK 18/14 Q1020 NOSIG",
      "taf": "TAF LQSA 131700Z 1318/1418 VRB02KT CAVOK TX31/1413Z TN14/1403Z"
    },
    {
      "icao": "LQTZ",
      "alert": "OK",
      "vis_m": 9999,
      "fzfg": false,
      "metar_trigger": false,
      "taf_trigger": false,
      "metar": "METAR LQTZ 132100Z 00000KT CAVOK 17/17 Q1018",
      "taf": "TAF LQTZ 131700Z 1318/1418 27006KT 9999 SCT050 TX33/1414Z TN13/1403Z"
    },
    {
      "icao": "LRBC",
      "alert": "OK",
      "vis_m": 9999,
      "fzfg": false,
      "metar_trigger": false,
      "taf_trigger": false,
      "metar": "METAR LRBC 132100Z VRB02KT CAVOK 18/14 Q1016",
      "taf": "TAF LRBC 132000Z 1321/1406 VRB04KT CAVOK"
    },
    {
      "icao": "LRBS",
      "alert": "OK",
      "vis_m": 9999,
      "fzfg": false,
      "metar_trigger": false,
      "taf_trigger": false,
      "metar": "METAR LRBS 132100Z 24002KT CAVOK 18/14 Q1016 NOSIG",
      "taf": "TAF LRBS 131700Z 1318/1418 VRB04KT CAVOK"
    },
    {
      "icao": "LRBV",
      "alert": "OK",
      "vis_m": 9999,
      "fzfg": false,
      "metar_trigger": false,
      "taf_trigger": false,
      "metar": "METAR LRBV 132100Z AUTO 22006KT 9999 SCT059/// BKN071/// 16/13 Q1018",
      "taf": "TAF LRBV 131700Z 1318/1403 VRB04KT 9999 SCT040 SCT060"
    },
    {
      "icao": "LRCL",
      "alert": "OK",
      "vis_m": 9999,
      "fzfg": false,
      "metar_trigger": false,
      "taf_trigger": false,
      "metar": "METAR LRCL 132100Z 27006KT CAVOK 20/12 Q1017",
      "taf": "TAF LRCL 132000Z 1321/1406 28006KT CAVOK"
    },
    {
      "icao": "LRCV",
      "alert": "OK",
      "vis_m": 9999,
      "fzfg": false,
      "metar_trigger": false,
      "taf_trigger": false,
      "metar": "METAR LRCV 132100Z 00000KT CAVOK 17/16 Q1016",
      "taf": "TAF LRCV 132000Z 1321/1406 VRB04KT CAVOK"
    },
    {
      "icao": "LRIA",
      "alert": "OK",
      "vis_m": 9999,
      "fzfg": false,
      "metar_trigger": false,
      "taf_trigger": false,
      "metar": "METAR LRIA 132100Z 32004KT CAVOK 18/12 Q1015",
      "taf": "TAF LRIA 132000Z 1321/1406 30006KT CAVOK"
    },
    {
      "icao": "LROP",
      "alert": "OK",
      "vis_m": 9999,
      "fzfg": false,
      "metar_trigger": false,
      "taf_trigger": false,
      "metar": "METAR LROP 132100Z 28003KT 250V330 CAVOK 17/15 Q1016 NOSIG",
      "taf": "TAF LROP 131700Z 1318/1418 VRB04KT CAVOK"
    },
    {
      "icao": "LRSB",
      "alert": "OK",
      "vis_m": 9999,
      "fzfg": false,
      "metar_trigger": false,
      "taf_trigger": false,
      "metar": "METAR LRSB 132100Z VRB01KT 9999 FEW060 16/13 Q1018",
      "taf": "TAF LRSB 131700Z 1318/1418 VRB04KT 9999 SCT050"
    },
    {
      "icao": "LRSM",
      "alert": "OK",
      "vis_m": 9999,
      "fzfg": false,
      "metar_trigger": false,
      "taf_trigger": false,
      "metar": "METAR LRSM 132100Z AUTO 35005KT 9999 FEW080/// SCT100/// BKN120/// 21/14 Q1017",
      "taf": "TAF LRSM 131400Z 1315/1324 30007KT CAVOK"
    },
    {
      "icao": "LRSV",
      "alert": "OK",
      "vis_m": 9999,
      "fzfg": false,
      "metar_trigger": false,
      "taf_trigger": false,
      "metar": "METAR LRSV 132100Z 30008KT CAVOK 17/14 Q1016",
      "taf": "TAF LRSV 132000Z 1321/1406 32010KT CAVOK"
    },
    {
      "icao": "LRTM",
      "alert": "OK",
      "vis_m": 9999,
      "fzfg": false,
      "metar_trigger": false,
      "taf_trigger": false,
      "metar": "METAR LRTM 132100Z 24005KT CAVOK 19/15 Q1016",
      "taf": "TAF LRTM 132000Z 1321/1406 VRB04KT CAVOK"
    },
    {
      "icao": "LRTR",
      "alert": "OK",
      "vis_m": 9999,
      "fzfg": false,
      "metar_trigger": false,
      "taf_trigger": false,
      "metar": "METAR LRTR 132100Z 32005KT CAVOK 18/12 Q1017 NOSIG",
      "taf": "TAF LRTR 131700Z 1318/1418 35008KT CAVOK"
    },
    {
      "icao": "LTAC",
      "alert": "OK",
      "vis_m": 9999,
      "fzfg": false,
      "metar_trigger": false,
      "taf_trigger": false,
      "metar": "METAR LTAC 132050Z 33005KT CAVOK 20/13 Q1013 NOSIG RMK RWY21C 01006KT RWY03L 32004KT RWY21R 36005KT RWY03R 31005KT RWY21L 35005KT",
      "taf": "TAF LTAC 131640Z 1318/1418 VRB02KT CAVOK"
    },
    {
      "icao": "LTFM",
      "alert": "OK",
      "vis_m": 9999,
      "fzfg": false,
      "metar_trigger": false,
      "taf_trigger": false,
      "metar": "METAR LTFM 132050Z 01007KT 340V040 9999 FEW015 SCT025 BKN100 23/20 Q1013 NOSIG RMK RWY17L 01005KT RWY34L 35006KT RWY16R 01006KT RWY36 01006KT RWY18 01006KT",
      "taf": "TAF LTFM 131640Z 1318/1424 35006KT 9999 SCT025"
    },
    {
      "icao": "LUKK",
      "alert": "OK",
      "vis_m": 9999,
      "fzfg": false,
      "metar_trigger": false,
      "taf_trigger": false,
      "metar": "METAR LUKK 132100Z VRB01KT CAVOK 18/15 Q1014 NOSIG",
      "taf": "TAF LUKK 131717Z 1318/1418 33006KT CAVOK"
    },
    {
      "icao": "LWOH",
      "alert": "OK",
      "vis_m": null,
      "fzfg": false,
      "metar_trigger": false,
      "taf_trigger": false,
      "metar": "",
      "taf": "TAF LWOH 132055Z 1321/1421 35006KT CAVOK"
    },
    {
      "icao": "LWSK",
      "alert": "OK",
      "vis_m": null,
      "fzfg": false,
      "metar_trigger": false,
      "taf_trigger": false,
      "metar": "",
      "taf": "TAF LWSK 132055Z 1321/1421 01005KT CAVOK"
    },
    {
      "icao": "LYBE",
      "alert": "OK",
      "vis_m": 9999,
      "fzfg": false,
      "metar_trigger": false,
      "taf_trigger": false,
      "metar": "METAR LYBE 132100Z 06004KT CAVOK 22/13 Q1017 NOSIG",
      "taf": "TAF LYBE 131700Z 1318/1418 03006KT CAVOK TX31/1414Z TN16/1403Z"
    },
    {
      "icao": "LYNI",
      "alert": "OK",
      "vis_m": 9999,
      "fzfg": false,
      "metar_trigger": false,
      "taf_trigger": false,
      "metar": "METAR LYNI 132100Z 21003KT CAVOK 17/13 Q1018 NOSIG",
      "taf": "TAF LYNI 131700Z 1318/1418 35007KT CAVOK TX30/1414Z TN14/1403Z"
    },
    {
      "icao": "LYPG",
      "alert": "OK",
      "vis_m": 9999,
      "fzfg": false,
      "metar_trigger": false,
      "taf_trigger": false,
      "metar": "METAR LYPG 132100Z 34007KT CAVOK 26/11 Q1016 NOSIG",
      "taf": "TAF LYPG 131700Z 1318/1418 36012KT CAVOK TX36/1415Z TN24/1403Z"
    },
    {
      "icao": "LZIB",
      "alert": "OK",
      "vis_m": 9999,
      "fzfg": false,
      "metar_trigger": false,
      "taf_trigger": false,
      "metar": "METAR LZIB 132100Z 35006KT CAVOK 21/14 Q1018 NOSIG",
      "taf": ""
    },
    {
      "icao": "LZKZ",
      "alert": "OK",
      "vis_m": 9999,
      "fzfg": false,
      "metar_trigger": false,
      "taf_trigger": false,
      "metar": "METAR LZKZ 132100Z VRB01KT CAVOK 18/15 Q1018 NOSIG",
      "taf": ""
    },
    {
      "icao": "LZTT",
      "alert": "OK",
      "vis_m": 9999,
      "fzfg": false,
      "metar_trigger": false,
      "taf_trigger": false,
      "metar": "METAR LZTT 132100Z 26005KT 9999 FEW056 13/13 Q1020",
      "taf": "TAF LZTT 131715Z 1318/1418 VRB02KT 9999 FEW030"
    },
    {
      "icao": "OEJN",
      "alert": "OK",
      "vis_m": 9999,
      "fzfg": false,
      "metar_trigger": false,
      "taf_trigger": false,
      "metar": "METAR OEJN 132100Z 36004KT CAVOK 31/22 Q1002 NOSIG",
      "taf": "TAF OEJN 131700Z 1318/1424 36005KT CAVOK"
    },
    {
      "icao": "OEMA",
      "alert": "OK",
      "vis_m": 9999,
      "fzfg": false,
      "metar_trigger": false,
      "taf_trigger": false,
      "metar": "METAR OEMA 132100Z 22006KT CAVOK 39/09 Q1007 NOSIG",
      "taf": "TAF OEMA 131700Z 1318/1424 28010KT CAVOK"
    },
    {
      "icao": "OJAI",
      "alert": "OK",
      "vis_m": 5000,
      "fzfg": false,
      "metar_trigger": false,
      "taf_trigger": false,
      "metar": "METAR OJAI 132100Z 27007KT 5000 HZ NSC 24/16 Q1011 NOSIG",
      "taf": "TAF OJAI 131647Z 1318/1424 27010KT 5000 HZ NSC"
    },
    {
      "icao": "OMAA",
      "alert": "OK",
      "vis_m": 9999,
      "fzfg": false,
      "metar_trigger": false,
      "taf_trigger": false,
      "metar": "METAR OMAA 132100Z 18002KT CAVOK 33/25 Q0996 NOSIG",
      "taf": "TAF OMAA 131700Z 1318/1500 VRB02KT 8000 NSC"
    },
    {
      "icao": "OMDB",
      "alert": "OK",
      "vis_m": 9999,
      "fzfg": false,
      "metar_trigger": false,
      "taf_trigger": false,
      "metar": "METAR OMDB 132100Z 18004KT 140V200 CAVOK 35/24 Q0996 NOSIG",
      "taf": "TAF OMDB 131700Z 1318/1500 VRB02KT 8000 NSC"
    },
    {
      "icao": "UAAA",
      "alert": "OK",
      "vis_m": 9999,
      "fzfg": false,
      "metar_trigger": false,
      "taf_trigger": false,
      "metar": "METAR UAAA 132100Z 00000MPS 9999 FEW050CB BKN100 23/14 Q1008 NOSIG",
      "taf": "TAF UAAA 131701Z 1318/1418 16003MPS 9999 SCT050CB BKN100 TX33/1410Z TN21/1401Z"
    },
    {
      "icao": "UBBB",
      "alert": "OK",
      "vis_m": 9999,
      "fzfg": false,
      "metar_trigger": false,
      "taf_trigger": false,
      "metar": "METAR UBBB 132100Z 32006KT CAVOK 24/21 Q1007 NOSIG",
      "taf": "TAF UBBB 131700Z 1318/1418 32008KT CAVOK TX34/1410Z TN23/1401Z"
    },
    {
      "icao": "UDSG",
      "alert": "OK",
      "vis_m": 9999,
      "fzfg": false,
      "metar_trigger": false,
      "taf_trigger": false,
      "metar": "METAR UDSG 132100Z 26002KT 9999 FEW049 19/15 Q1016 NOSIG",
      "taf": "TAF UDSG 131658Z 1318/1418 VRB06KT 9999 FEW050"
    },
    {
      "icao": "UDYZ",
      "alert": "OK",
      "vis_m": 9999,
      "fzfg": false,
      "metar_trigger": false,
      "taf_trigger": false,
      "metar": "METAR UDYZ 132100Z 36005KT 9999 NSC 27/16 Q1009 NOSIG",
      "taf": "TAF UDYZ 131700Z 1318/1418 02006KT 9999 FEW040"
    },
    {
      "icao": "UGKO",
      "alert": "OK",
      "vis_m": 9999,
      "fzfg": false,
      "metar_trigger": false,
      "taf_trigger": false,
      "metar": "METAR UGKO 132100Z VRB02KT 9999 SCT025 OVC029 21/20 Q1009 NOSIG",
      "taf": "TAF UGKO 131700Z 1318/1418 26007KT 9999 SCT025 OVC040 TX26/1411Z TN20/1402Z"
    }
  ]
}