{
  "ts_utc": "2026-05-05T21:43:28Z",
  "threshold_m": 150,
  "source": "stations_override.txt (ICAO list) + aviationweather.gov (METAR/TAF raw)",
  "station_count": 159,
  "stations": [
    {
      "icao": "BIKF",
      "alert": "OK",
      "vis_m": 9999,
      "fzfg": false,
      "metar_trigger": false,
      "taf_trigger": false,
      "metar": "METAR BIKF 052130Z 03019KT 360V060 9999 FEW028 SCT050 BKN100 02/M03 Q1022",
      "taf": "TAF BIKF 051954Z 0521/0621 03018G30KT 9999 FEW030 BKN050 TX06/0615Z TN00/0606Z"
    },
    {
      "icao": "BKPR",
      "alert": "OK",
      "vis_m": 9999,
      "fzfg": false,
      "metar_trigger": false,
      "taf_trigger": false,
      "metar": "METAR BKPR 052130Z 35007KT CAVOK 14/01 Q1016 NOSIG",
      "taf": "TAF BKPR 051730Z 0518/0618 24008KT CAVOK"
    },
    {
      "icao": "EBCI",
      "alert": "OK",
      "vis_m": 4000,
      "fzfg": false,
      "metar_trigger": false,
      "taf_trigger": false,
      "metar": "METAR EBCI 052120Z 02010KT 4000 -RADZ BR SCT005 OVC007 09/09 Q1008 TEMPO 2500 RADZ BR BKN003",
      "taf": "TAF EBCI 051700Z 0518/0624 02007KT 4500 BR -DZ SCT004 BKN006"
    },
    {
      "icao": "EDDB",
      "alert": "OK",
      "vis_m": 9999,
      "fzfg": false,
      "metar_trigger": false,
      "taf_trigger": false,
      "metar": "METAR EDDB 052120Z AUTO 02009KT 9999 SCT013 13/11 Q1007 BECMG BKN008",
      "taf": "TAF EDDB 051700Z 0518/0618 04005KT 9999 BKN025"
    },
    {
      "icao": "EDDH",
      "alert": "OK",
      "vis_m": 9999,
      "fzfg": false,
      "metar_trigger": false,
      "taf_trigger": false,
      "metar": "METAR EDDH 052120Z AUTO 03006KT 360V060 9999 FEW041 10/06 Q1010 NOSIG",
      "taf": "TAF EDDH 051700Z 0518/0624 04007KT 9999 FEW025 BKN040"
    },
    {
      "icao": "EDDK",
      "alert": "OK",
      "vis_m": 4000,
      "fzfg": false,
      "metar_trigger": false,
      "taf_trigger": false,
      "metar": "METAR EDDK 052120Z AUTO 32007KT 4000 +RA BR BKN004 BKN007 OVC012 11/11 Q1007 BECMG RA",
      "taf": ""
    },
    {
      "icao": "EDDN",
      "alert": "OK",
      "vis_m": 9999,
      "fzfg": false,
      "metar_trigger": false,
      "taf_trigger": false,
      "metar": "METAR EDDN 052120Z AUTO 19003KT 9999 FEW012 12/11 Q1008",
      "taf": ""
    },
    {
      "icao": "EDDS",
      "alert": "OK",
      "vis_m": 9999,
      "fzfg": false,
      "metar_trigger": false,
      "taf_trigger": false,
      "metar": "METAR EDDS 052120Z AUTO 21003KT 170V250 9999 FEW048 12/10 Q1008",
      "taf": "TAF EDDS 051700Z 0518/0618 05006KT 9999 SCT035"
    },
    {
      "icao": "EDFH",
      "alert": "OK",
      "vis_m": 6000,
      "fzfg": false,
      "metar_trigger": false,
      "taf_trigger": false,
      "metar": "METAR EDFH 052120Z VRB01KT 6000 -RA FEW002 SCT012 10/10 Q1007",
      "taf": "TAF EDFH 051700Z 0518/0618 22005KT 9999 SCT020"
    },
    {
      "icao": "EDJA",
      "alert": "OK",
      "vis_m": 9999,
      "fzfg": false,
      "metar_trigger": false,
      "taf_trigger": false,
      "metar": "METAR EDJA 052120Z AUTO 20006KT 9999 // OVC110/// 10/09 Q1009",
      "taf": "TAF EDJA 051700Z 0518/0603 23007KT CAVOK"
    },
    {
      "icao": "EDLW",
      "alert": "OK",
      "vis_m": 3800,
      "fzfg": false,
      "metar_trigger": false,
      "taf_trigger": false,
      "metar": "METAR EDLW 052120Z AUTO 36005KT 3800 // OVC002/// 11/10 Q1007",
      "taf": "TAF EDLW 051700Z 0518/0618 01005KT 7000 OVC006"
    },
    {
      "icao": "EDNY",
      "alert": "OK",
      "vis_m": 9999,
      "fzfg": false,
      "metar_trigger": false,
      "taf_trigger": false,
      "metar": "METAR EDNY 052120Z AUTO VRB02KT 9999 // BKN100/// OVC130/// 11/10 Q1010",
      "taf": "TAF EDNY 051700Z 0518/0603 24005KT CAVOK"
    },
    {
      "icao": "EDSB",
      "alert": "OK",
      "vis_m": 9999,
      "fzfg": false,
      "metar_trigger": false,
      "taf_trigger": false,
      "metar": "METAR EDSB 052120Z 21003KT 9999 FEW035 13/12 Q1008",
      "taf": "TAF EDSB 051700Z 0518/0618 22004KT 9999 SCT015 BKN030"
    },
    {
      "icao": "EETN",
      "alert": "OK",
      "vis_m": 9999,
      "fzfg": false,
      "metar_trigger": false,
      "taf_trigger": false,
      "metar": "METAR EETN 052120Z 27010KT CAVOK 03/02 Q1009 NOSIG",
      "taf": "TAF EETN 051730Z 0518/0618 28016KT CAVOK"
    },
    {
      "icao": "EFTU",
      "alert": "OK",
      "vis_m": 9999,
      "fzfg": false,
      "metar_trigger": false,
      "taf_trigger": false,
      "metar": "METAR EFTU 052120Z AUTO 25002KT CAVOK 01/M02 Q1008",
      "taf": "TAF EFTU 052026Z 0521/0621 27004KT CAVOK"
    },
    {
      "icao": "EGBB",
      "alert": "OK",
      "vis_m": 9999,
      "fzfg": false,
      "metar_trigger": false,
      "taf_trigger": false,
      "metar": "METAR EGBB 052120Z 05009KT 9999 SCT024 10/06 Q1014",
      "taf": "TAF EGBB 051656Z 0518/0618 36008KT 9999 SCT040"
    },
    {
      "icao": "EGGP",
      "alert": "OK",
      "vis_m": 9999,
      "fzfg": false,
      "metar_trigger": false,
      "taf_trigger": false,
      "metar": "METAR EGGP 052120Z 04010KT 9999 OVC036 09/03 Q1016",
      "taf": "TAF EGGP 051654Z 0518/0618 32008KT 9999 SCT035"
    },
    {
      "icao": "EGGW",
      "alert": "OK",
      "vis_m": 9999,
      "fzfg": false,
      "metar_trigger": false,
      "taf_trigger": false,
      "metar": "METAR EGGW 052120Z AUTO 03011KT 9999 SCT038 BKN046 09/06 Q1013",
      "taf": "TAF EGGW 051655Z 0518/0618 03008KT 9999 SCT040"
    },
    {
      "icao": "EGKK",
      "alert": "OK",
      "vis_m": 9999,
      "fzfg": false,
      "metar_trigger": false,
      "taf_trigger": false,
      "metar": "METAR EGKK 052120Z 07007KT 9999 -RA BKN031 11/05 Q1012",
      "taf": "TAF EGKK 051655Z 0518/0624 05006KT 9999 FEW030"
    },
    {
      "icao": "EGNM",
      "alert": "OK",
      "vis_m": 9999,
      "fzfg": false,
      "metar_trigger": false,
      "taf_trigger": false,
      "metar": "METAR EGNM 052120Z 03008KT 350V060 9999 FEW014 SCT047 06/03 Q1016",
      "taf": ""
    },
    {
      "icao": "EGPD",
      "alert": "OK",
      "vis_m": 9999,
      "fzfg": false,
      "metar_trigger": false,
      "taf_trigger": false,
      "metar": "METAR EGPD 052120Z COR AUTO 32004KT 9999 NCD 03/M01 Q1018 NOSIG",
      "taf": "TAF EGPD 051659Z 0518/0618 36010KT 9999 FEW045"
    },
    {
      "icao": "EGPF",
      "alert": "OK",
      "vis_m": 9999,
      "fzfg": false,
      "metar_trigger": false,
      "taf_trigger": false,
      "metar": "METAR EGPF 052120Z AUTO 08009KT 9999 NCD 08/00 Q1018",
      "taf": "TAF EGPF 051657Z 0518/0618 07012KT 9999 FEW045"
    },
    {
      "icao": "EHBK",
      "alert": "OK",
      "vis_m": 4800,
      "fzfg": false,
      "metar_trigger": false,
      "taf_trigger": false,
      "metar": "METAR EHBK 052125Z AUTO 03009KT 4800 -RA SCT004 SCT006 BKN007 10/09 Q1008 REDZRA",
      "taf": "TAF EHBK 051656Z 0518/0624 01007KT 9999 OVC007"
    },
    {
      "icao": "EHEH",
      "alert": "OK",
      "vis_m": 9999,
      "fzfg": false,
      "metar_trigger": false,
      "taf_trigger": false,
      "metar": "METAR EHEH 052125Z AUTO 02009KT 340V060 9999 SCT010 OVC012 10/08 Q1009 GRN",
      "taf": "TAF EHEH 051733Z 0518/0624 03008KT 9999 OVC015"
    },
    {
      "icao": "EKBI",
      "alert": "OK",
      "vis_m": 9999,
      "fzfg": false,
      "metar_trigger": false,
      "taf_trigger": false,
      "metar": "METAR EKBI 052120Z AUTO 35006KT 9999 NCD 06/02 Q1012",
      "taf": "TAF EKBI 052027Z 0521/0621 01007KT CAVOK"
    },
    {
      "icao": "EKCH",
      "alert": "OK",
      "vis_m": 9999,
      "fzfg": false,
      "metar_trigger": false,
      "taf_trigger": false,
      "metar": "METAR EKCH 052120Z AUTO 35010KT 330V050 9999 NCD 09/02 Q1011 NOSIG",
      "taf": "TAF EKCH 052027Z 0521/0621 01010KT CAVOK"
    },
    {
      "icao": "ENAL",
      "alert": "OK",
      "vis_m": 9999,
      "fzfg": false,
      "metar_trigger": false,
      "taf_trigger": false,
      "metar": "METAR ENAL 052120Z AUTO 21007KT 9999 FEW023/// SCT034/// 04/M00 Q1012",
      "taf": "TAF ENAL 052000Z 0521/0606 22012KT 9999 FEW015 SCT030"
    },
    {
      "icao": "ENBR",
      "alert": "OK",
      "vis_m": 9999,
      "fzfg": false,
      "metar_trigger": false,
      "taf_trigger": false,
      "metar": "METAR ENBR 052120Z 06003KT 9999 FEW030 01/M01 Q1014 RMK WIND 1200FT 34005KT",
      "taf": "TAF ENBR 051700Z 0518/0618 33007KT 9999 SCT030"
    },
    {
      "icao": "ENGM",
      "alert": "OK",
      "vis_m": 9999,
      "fzfg": false,
      "metar_trigger": false,
      "taf_trigger": false,
      "metar": "METAR ENGM 052120Z VRB02KT CAVOK 03/M09 Q1010",
      "taf": "TAF ENGM 051700Z 0518/0618 30008KT CAVOK"
    },
    {
      "icao": "ENHD",
      "alert": "OK",
      "vis_m": 9999,
      "fzfg": false,
      "metar_trigger": false,
      "taf_trigger": false,
      "metar": "METAR ENHD 052120Z AUTO 33007KT 9999 FEW034/// 05/M01 Q1015",
      "taf": "TAF ENHD 051400Z 0515/0522 32008KT 9999 FEW015 SCT030"
    },
    {
      "icao": "ENTC",
      "alert": "OK",
      "vis_m": 9999,
      "fzfg": false,
      "metar_trigger": false,
      "taf_trigger": false,
      "metar": "METAR ENTC 052120Z 05003KT 020V090 9999 SCT049 02/M02 Q1002 RMK WIND 2600FT 04005KT",
      "taf": "TAF ENTC 051700Z 0518/0618 04008KT 9999 FEW025 BKN040"
    },
    {
      "icao": "ENTO",
      "alert": "OK",
      "vis_m": 9999,
      "fzfg": false,
      "metar_trigger": false,
      "taf_trigger": false,
      "metar": "METAR ENTO 052120Z 32006KT CAVOK 05/M00 Q1011",
      "taf": "TAF ENTO 051700Z 0518/0618 23010KT CAVOK"
    },
    {
      "icao": "ENVA",
      "alert": "OK",
      "vis_m": 9999,
      "fzfg": false,
      "metar_trigger": false,
      "taf_trigger": false,
      "metar": "METAR ENVA 052120Z 23007KT 9999 FEW025 SCT048 03/M02 Q1010 RMK WIND 670FT 26009KT",
      "taf": "TAF ENVA 051700Z 0518/0618 27015KT 9999 FEW012 BKN035"
    },
    {
      "icao": "ENZV",
      "alert": "OK",
      "vis_m": 9999,
      "fzfg": false,
      "metar_trigger": false,
      "taf_trigger": false,
      "metar": "METAR ENZV 052120Z 34007KT CAVOK 05/M01 Q1015",
      "taf": "TAF ENZV 051700Z 0518/0618 33008KT 9999 SCT030"
    },
    {
      "icao": "EPGD",
      "alert": "OK",
      "vis_m": 7000,
      "fzfg": false,
      "metar_trigger": false,
      "taf_trigger": false,
      "metar": "METAR EPGD 052130Z VRB02KT 7000 MIFG NSC 06/06 Q1010",
      "taf": "TAF EPGD 051730Z 0518/0618 04004KT 9999 FEW049"
    },
    {
      "icao": "EPKK",
      "alert": "OK",
      "vis_m": 9999,
      "fzfg": false,
      "metar_trigger": false,
      "taf_trigger": false,
      "metar": "METAR EPKK 052130Z VRB01KT CAVOK 17/04 Q1007",
      "taf": "TAF EPKK 052030Z 0521/0621 VRB02KT CAVOK"
    },
    {
      "icao": "EPKT",
      "alert": "OK",
      "vis_m": 9999,
      "fzfg": false,
      "metar_trigger": false,
      "taf_trigger": false,
      "metar": "METAR EPKT 052130Z 19008KT CAVOK 19/05 Q1007",
      "taf": "TAF EPKT 051730Z 0518/0618 21012KT CAVOK"
    },
    {
      "icao": "EPLB",
      "alert": "OK",
      "vis_m": 9999,
      "fzfg": false,
      "metar_trigger": false,
      "taf_trigger": false,
      "metar": "METAR EPLB 052130Z 18005KT CAVOK 18/03 Q1007",
      "taf": "TAF EPLB 051730Z 0518/0618 20007KT CAVOK"
    },
    {
      "icao": "EPMO",
      "alert": "OK",
      "vis_m": 9999,
      "fzfg": false,
      "metar_trigger": false,
      "taf_trigger": false,
      "metar": "METAR EPMO 052130Z 02010KT CAVOK 14/11 Q1006",
      "taf": "TAF EPMO 051730Z 0518/0618 19010KT CAVOK"
    },
    {
      "icao": "EPPO",
      "alert": "OK",
      "vis_m": 9999,
      "fzfg": false,
      "metar_trigger": false,
      "taf_trigger": false,
      "metar": "METAR EPPO 052130Z 04007KT CAVOK 12/10 Q1007",
      "taf": "TAF EPPO 051730Z 0518/0618 02007KT CAVOK"
    },
    {
      "icao": "EPRA",
      "alert": "OK",
      "vis_m": 9999,
      "fzfg": false,
      "metar_trigger": false,
      "taf_trigger": false,
      "metar": "METAR EPRA 052130Z 20010KT CAVOK 16/03 Q1006",
      "taf": "TAF EPRA 052030Z 0521/0606 17008KT CAVOK"
    },
    {
      "icao": "EPRZ",
      "alert": "OK",
      "vis_m": 9999,
      "fzfg": false,
      "metar_trigger": false,
      "taf_trigger": false,
      "metar": "METAR EPRZ 052130Z VRB02KT CAVOK 18/02 Q1008",
      "taf": "TAF EPRZ 051730Z 0518/0618 20014KT CAVOK"
    },
    {
      "icao": "EPSC",
      "alert": "OK",
      "vis_m": 9999,
      "fzfg": false,
      "metar_trigger": false,
      "taf_trigger": false,
      "metar": "METAR EPSC 052130Z 36005KT 9999 FEW009 SCT013 BKN042 10/09 Q1009",
      "taf": "TAF EPSC 051730Z 0518/0618 02006KT 9999 BKN007"
    },
    {
      "icao": "EPSY",
      "alert": "OK",
      "vis_m": 9999,
      "fzfg": false,
      "metar_trigger": false,
      "taf_trigger": false,
      "metar": "METAR EPSY 052130Z 02008KT CAVOK 09/07 Q1008",
      "taf": "TAF EPSY 052030Z 0521/0606 04006KT CAVOK"
    },
    {
      "icao": "EPWA",
      "alert": "OK",
      "vis_m": 9999,
      "fzfg": false,
      "metar_trigger": false,
      "taf_trigger": false,
      "metar": "METAR EPWA 052130Z 04010G21KT 350V060 CAVOK 18/12 Q1006 WS R33 NOSIG",
      "taf": "TAF EPWA 052030Z 0521/0621 VRB05KT CAVOK"
    },
    {
      "icao": "EPWR",
      "alert": "OK",
      "vis_m": 9999,
      "fzfg": false,
      "metar_trigger": false,
      "taf_trigger": false,
      "metar": "METAR EPWR 052130Z 36003KT 320V030 CAVOK 16/11 Q1005",
      "taf": "TAF EPWR 052030Z 0521/0621 02007KT CAVOK"
    },
    {
      "icao": "ESGG",
      "alert": "OK",
      "vis_m": 9999,
      "fzfg": false,
      "metar_trigger": false,
      "taf_trigger": false,
      "metar": "METAR ESGG 052120Z 33004KT CAVOK 04/M05 Q1012",
      "taf": "TAF ESGG 052030Z 0521/0621 29005KT CAVOK"
    },
    {
      "icao": "ESKN",
      "alert": "OK",
      "vis_m": 9999,
      "fzfg": false,
      "metar_trigger": false,
      "taf_trigger": false,
      "metar": "METAR ESKN 052120Z 27003KT CAVOK 03/M03 Q1011",
      "taf": "TAF ESKN 052030Z 0521/0621 VRB03KT CAVOK"
    },
    {
      "icao": "ESMS",
      "alert": "OK",
      "vis_m": 9999,
      "fzfg": false,
      "metar_trigger": false,
      "taf_trigger": false,
      "metar": "METAR ESMS 052120Z 34006KT CAVOK 05/M02 Q1011",
      "taf": "TAF ESMS 052027Z 0521/0621 34008KT CAVOK"
    },
    {
      "icao": "ESSA",
      "alert": "OK",
      "vis_m": 9999,
      "fzfg": false,
      "metar_trigger": false,
      "taf_trigger": false,
      "metar": "METAR ESSA 052120Z 18003KT CAVOK 00/M02 Q1010 TEMPO CAVOK",
      "taf": "TAF ESSA 052030Z 0521/0621 VRB03KT CAVOK"
    },
    {
      "icao": "EYKA",
      "alert": "OK",
      "vis_m": 9999,
      "fzfg": false,
      "metar_trigger": false,
      "taf_trigger": false,
      "metar": "METAR EYKA 052120Z 31004KT 230V360 9999 -SHRA SCT074CB 11/08 Q1010",
      "taf": "TAF EYKA 051700Z 0518/0618 VRB03KT 9000 NSC"
    },
    {
      "icao": "EYPA",
      "alert": "OK",
      "vis_m": 9999,
      "fzfg": false,
      "metar_trigger": false,
      "taf_trigger": false,
      "metar": "METAR EYPA 052120Z VRB01KT 9999 MIFG NSC 04/04 Q1011",
      "taf": "TAF EYPA 051700Z 0518/0618 VRB03KT 8000 NSC"
    },
    {
      "icao": "EYVI",
      "alert": "OK",
      "vis_m": 9999,
      "fzfg": false,
      "metar_trigger": false,
      "taf_trigger": false,
      "metar": "METAR EYVI 052120Z 34008KT CAVOK 13/09 Q1009 NOSIG",
      "taf": "TAF EYVI 051700Z 0518/0618 VRB03KT 9000 SCT045"
    },
    {
      "icao": "GCFV",
      "alert": "OK",
      "vis_m": 9999,
      "fzfg": false,
      "metar_trigger": false,
      "taf_trigger": false,
      "metar": "METAR GCFV 052130Z 03016KT 9999 SCT015 20/17 Q1015",
      "taf": "TAF GCFV 052000Z 0521/0621 04012KT 9999 FEW025 TX23/0614Z TN18/0606Z"
    },
    {
      "icao": "GCLP",
      "alert": "OK",
      "vis_m": 9999,
      "fzfg": false,
      "metar_trigger": false,
      "taf_trigger": false,
      "metar": "METAR GCLP 052130Z 01015KT 9999 FEW020 20/17 Q1015 NOSIG",
      "taf": ""
    },
    {
      "icao": "GCTS",
      "alert": "OK",
      "vis_m": 9999,
      "fzfg": false,
      "metar_trigger": false,
      "taf_trigger": false,
      "metar": "METAR GCTS 052130Z 08011KT 9999 FEW025 20/16 Q1015 NOSIG",
      "taf": "TAF GCTS 052000Z 0521/0621 05007KT 9999 FEW025 TX24/0614Z TN17/0606Z"
    },
    {
      "icao": "GMAD",
      "alert": "OK",
      "vis_m": 9999,
      "fzfg": false,
      "metar_trigger": false,
      "taf_trigger": false,
      "metar": "METAR GMAD 052130Z 20010KT CAVOK 18/12 Q1012 NOSIG",
      "taf": "TAF GMAD 051700Z 0518/0624 20008KT CAVOK"
    },
    {
      "icao": "GMMN",
      "alert": "OK",
      "vis_m": 9999,
      "fzfg": false,
      "metar_trigger": false,
      "taf_trigger": false,
      "metar": "METAR GMMN 052130Z 03008KT 9999 SCT026 SCT100 15/11 Q1016 NOSIG",
      "taf": "TAF GMMN 051700Z 0518/0624 35010KT CAVOK"
    },
    {
      "icao": "GMMX",
      "alert": "OK",
      "vis_m": 8000,
      "fzfg": false,
      "metar_trigger": false,
      "taf_trigger": false,
      "metar": "METAR GMMX 052130Z 02009KT 350V060 8000 FEW033 SCT200 18/09 Q1014 NOSIG",
      "taf": "TAF GMMX 051700Z 0518/0624 06006KT 8000 NSC"
    },
    {
      "icao": "HEGN",
      "alert": "OK",
      "vis_m": 9999,
      "fzfg": false,
      "metar_trigger": false,
      "taf_trigger": false,
      "metar": "METAR HEGN 052100Z 28010KT CAVOK 20/02 Q1014 NOSIG",
      "taf": "TAF HEGN 051700Z 0518/0624 31012G25KT CAVOK"
    },
    {
      "icao": "HEMA",
      "alert": "OK",
      "vis_m": 9999,
      "fzfg": false,
      "metar_trigger": false,
      "taf_trigger": false,
      "metar": "METAR HEMA 052100Z 32010KT CAVOK 21/11 Q1012 NOSIG",
      "taf": "TAF HEMA 051700Z 0518/0624 32012G25KT CAVOK"
    },
    {
      "icao": "HESH",
      "alert": "OK",
      "vis_m": 9999,
      "fzfg": false,
      "metar_trigger": false,
      "taf_trigger": false,
      "metar": "METAR HESH 052100Z 34012KT CAVOK 23/05 Q1012 NOSIG",
      "taf": "TAF HESH 051700Z 0518/0624 36012KT CAVOK"
    },
    {
      "icao": "HESX",
      "alert": "OK",
      "vis_m": 9999,
      "fzfg": false,
      "metar_trigger": false,
      "taf_trigger": false,
      "metar": "METAR HESX 052100Z 01005KT CAVOK 14/07 Q1017 NOSIG",
      "taf": "TAF HESX 051700Z 0518/0624 30010KT 9999 SCT030"
    },
    {
      "icao": "LATI",
      "alert": "OK",
      "vis_m": 9999,
      "fzfg": false,
      "metar_trigger": false,
      "taf_trigger": false,
      "metar": "METAR LATI 052120Z VRB01KT CAVOK 15/10 Q1017 NOSIG",
      "taf": "TAF LATI 051700Z 0518/0618 VRB05KT CAVOK TX22/0612Z TN10/0604Z"
    },
    {
      "icao": "LBPD",
      "alert": "OK",
      "vis_m": 9999,
      "fzfg": false,
      "metar_trigger": false,
      "taf_trigger": false,
      "metar": "METAR LBPD 052130Z AUTO 13003KT 040V160 9999 NCD 13/08 Q1015",
      "taf": "TAF LBPD 051700Z 0518/0618 VRB04KT CAVOK"
    },
    {
      "icao": "LBSF",
      "alert": "OK",
      "vis_m": 9999,
      "fzfg": false,
      "metar_trigger": false,
      "taf_trigger": false,
      "metar": "METAR LBSF 052130Z AUTO 17004KT 9999 NCD 11/06 Q1015 NOSIG",
      "taf": "TAF LBSF 051700Z 0518/0618 10010KT 9999 SCT070"
    },
    {
      "icao": "LBWN",
      "alert": "OK",
      "vis_m": 9999,
      "fzfg": false,
      "metar_trigger": false,
      "taf_trigger": false,
      "metar": "METAR LBWN 052130Z AUTO 01003KT 9999 NCD 07/04 Q1016 NOSIG",
      "taf": "TAF LBWN 051700Z 0518/0618 12012KT CAVOK"
    },
    {
      "icao": "LCLK",
      "alert": "OK",
      "vis_m": 9999,
      "fzfg": false,
      "metar_trigger": false,
      "taf_trigger": false,
      "metar": "METAR LCLK 052130Z 31006KT CAVOK 13/09 Q1014 NOSIG",
      "taf": "TAF LCLK 051730Z 0518/0618 30007KT 9999 FEW030"
    },
    {
      "icao": "LCPH",
      "alert": "OK",
      "vis_m": 9999,
      "fzfg": false,
      "metar_trigger": false,
      "taf_trigger": false,
      "metar": "METAR LCPH 052130Z 01005KT 010V080 CAVOK 13/08 Q1014 NOSIG",
      "taf": "TAF LCPH 051730Z 0518/0618 30010KT 9999 FEW025"
    },
    {
      "icao": "LEAL",
      "alert": "OK",
      "vis_m": 9999,
      "fzfg": false,
      "metar_trigger": false,
      "taf_trigger": false,
      "metar": "METAR LEAL 052130Z VRB02KT CAVOK 19/15 Q1011 NOSIG",
      "taf": "TAF LEAL 051700Z 0518/0618 VRB04KT CAVOK TX23/0612Z TN12/0605Z"
    },
    {
      "icao": "LEBB",
      "alert": "OK",
      "vis_m": 9999,
      "fzfg": false,
      "metar_trigger": false,
      "taf_trigger": false,
      "metar": "METAR LEBB 052130Z 00000KT CAVOK 11/10 Q1015 NOSIG",
      "taf": "TAF LEBB 051700Z 0518/0618 20007KT 9999 FEW010 SCT030 TX16/0611Z TN09/0604Z"
    },
    {
      "icao": "LEBL",
      "alert": "OK",
      "vis_m": 9999,
      "fzfg": false,
      "metar_trigger": false,
      "taf_trigger": false,
      "metar": "METAR LEBL 052130Z 32003KT 290V350 9999 FEW020TCU SCT040 17/11 Q1011 NOSIG",
      "taf": "TAF LEBL 051700Z 0518/0618 25007KT 9999 SCT040 TX20/0613Z TN12/0605Z"
    },
    {
      "icao": "LECH",
      "alert": "OK",
      "vis_m": 9999,
      "fzfg": false,
      "metar_trigger": false,
      "taf_trigger": false,
      "metar": "METAR LECH 052130Z AUTO 32002KT 9999 -RA NSC 11/11 Q1013",
      "taf": "TAF LECH 051700Z 0518/0618 09009KT 9999 SCT020 BKN025 TX20/0614Z TN07/0605Z"
    },
    {
      "icao": "LEMD",
      "alert": "OK",
      "vis_m": 9999,
      "fzfg": false,
      "metar_trigger": false,
      "taf_trigger": false,
      "metar": "METAR LEMD 052130Z 35003KT CAVOK 12/01 Q1013 NOSIG",
      "taf": ""
    },
    {
      "icao": "LEMG",
      "alert": "OK",
      "vis_m": 9999,
      "fzfg": false,
      "metar_trigger": false,
      "taf_trigger": false,
      "metar": "METAR LEMG 052130Z 29008KT CAVOK 18/04 Q1012 NOSIG",
      "taf": "TAF LEMG 051700Z 0518/0618 29010KT CAVOK TX26/0614Z TN16/0607Z"
    },
    {
      "icao": "LEVC",
      "alert": "OK",
      "vis_m": 9999,
      "fzfg": false,
      "metar_trigger": false,
      "taf_trigger": false,
      "metar": "METAR LEVC 052130Z 04012KT 360V080 9999 FEW025 18/09 Q1012 NOSIG",
      "taf": ""
    },
    {
      "icao": "LEXJ",
      "alert": "OK",
      "vis_m": 8000,
      "fzfg": false,
      "metar_trigger": false,
      "taf_trigger": false,
      "metar": "METAR LEXJ 052130Z AUTO 23007KT 8000 -RA FEW026 SCT042 BKN058 12/11 Q1015",
      "taf": "TAF LEXJ 052000Z 0521/0621 22008KT 9999 FEW020 BKN025 TX18/0614Z TN11/0605Z"
    },
    {
      "icao": "LEZG",
      "alert": "OK",
      "vis_m": 9999,
      "fzfg": false,
      "metar_trigger": false,
      "taf_trigger": false,
      "metar": "METAR LEZG 052130Z 26007KT 9999 FEW080 12/08 Q1014 NOSIG",
      "taf": "TAF LEZG 051700Z 0518/0618 30010KT 9999 SCT070 TX19/0614Z TN09/0605Z"
    },
    {
      "icao": "LEZL",
      "alert": "OK",
      "vis_m": 9999,
      "fzfg": false,
      "metar_trigger": false,
      "taf_trigger": false,
      "metar": "METAR LEZL 052130Z 34003KT 290V020 CAVOK 19/08 Q1013 NOSIG",
      "taf": "TAF LEZL 052000Z 0521/0621 22010KT CAVOK TX27/0615Z TN11/0607Z"
    },
    {
      "icao": "LFBD",
      "alert": "OK",
      "vis_m": 9999,
      "fzfg": false,
      "metar_trigger": false,
      "taf_trigger": false,
      "metar": "METAR LFBD 052130Z AUTO 23006KT 9999 ///TCU 12/09 Q1012 TEMPO 4000 SHRA BKN010 FEW020CB BKN025TCU",
      "taf": ""
    },
    {
      "icao": "LFLL",
      "alert": "OK",
      "vis_m": 8000,
      "fzfg": false,
      "metar_trigger": false,
      "taf_trigger": false,
      "metar": "METAR LFLL 052130Z 19006KT 8000 RA FEW030CB BKN060 12/10 Q1011 TEMPO 4000 SHRA SCT035TCU",
      "taf": ""
    },
    {
      "icao": "LFLS",
      "alert": "OK",
      "vis_m": 9999,
      "fzfg": false,
      "metar_trigger": false,
      "taf_trigger": false,
      "metar": "METAR LFLS 052130Z AUTO 08005KT 9999 -RA FEW026/// BKN045/// OVC060/// ///CB 11/10 Q1011",
      "taf": ""
    },
    {
      "icao": "LFMN",
      "alert": "OK",
      "vis_m": 9999,
      "fzfg": false,
      "metar_trigger": false,
      "taf_trigger": false,
      "metar": "METAR LFMN 052130Z 06010KT 9999 BKN013 SCT100 17/15 Q1011 NOSIG",
      "taf": ""
    },
    {
      "icao": "LFOB",
      "alert": "OK",
      "vis_m": 6000,
      "fzfg": false,
      "metar_trigger": false,
      "taf_trigger": false,
      "metar": "METAR LFOB 052130Z AUTO 36007KT 6000 -RA BKN020/// BKN028/// OVC047/// ///TCU 11/10 Q1008 TEMPO 4500 RA BECMG BKN020 OVC035",
      "taf": "TAF LFOB 051700Z 0518/0618 03009KT 9000 BKN020 OVC035"
    },
    {
      "icao": "LFPO",
      "alert": "OK",
      "vis_m": 4600,
      "fzfg": false,
      "metar_trigger": false,
      "taf_trigger": false,
      "metar": "METAR LFPO 052130Z AUTO 35007KT 4600 -RA BR BKN008/// OVC014/// ///TCU 12/11 Q1008 TEMPO BKN016",
      "taf": "TAF LFPO 051700Z 0518/0624 01010KT 6000 OVC008"
    },
    {
      "icao": "LFSB",
      "alert": "OK",
      "vis_m": 9999,
      "fzfg": false,
      "metar_trigger": false,
      "taf_trigger": false,
      "metar": "METAR LFSB 052130Z AUTO 19003KT 160V240 CAVOK 10/10 Q1009 NOSIG",
      "taf": ""
    },
    {
      "icao": "LGAV",
      "alert": "OK",
      "vis_m": 9999,
      "fzfg": false,
      "metar_trigger": false,
      "taf_trigger": false,
      "metar": "METAR LGAV 052120Z VRB02KT CAVOK 14/10 Q1016 NOSIG",
      "taf": "TAF LGAV 051700Z 0518/0618 23007KT 9999 FEW025"
    },
    {
      "icao": "LGTS",
      "alert": "OK",
      "vis_m": 9999,
      "fzfg": false,
      "metar_trigger": false,
      "taf_trigger": false,
      "metar": "METAR LGTS 052120Z 12005KT CAVOK 18/06 Q1014 NOSIG",
      "taf": "TAF LGTS 051700Z 0518/0618 16013KT 9999 FEW025"
    },
    {
      "icao": "LHBP",
      "alert": "OK",
      "vis_m": 9999,
      "fzfg": false,
      "metar_trigger": false,
      "taf_trigger": false,
      "metar": "METAR LHBP 052130Z 22005KT 180V240 CAVOK 17/08 Q1011 NOSIG",
      "taf": "TAF LHBP 051715Z 0518/0618 22009KT CAVOK"
    },
    {
      "icao": "LHDC",
      "alert": "OK",
      "vis_m": 9999,
      "fzfg": false,
      "metar_trigger": false,
      "taf_trigger": false,
      "metar": "METAR LHDC 052115Z AUTO 17003KT 110V200 CAVOK 14/02 Q1011",
      "taf": "TAF LHDC 051415Z 0515/0524 18008KT CAVOK"
    },
    {
      "icao": "LIBD",
      "alert": "OK",
      "vis_m": 9999,
      "fzfg": false,
      "metar_trigger": false,
      "taf_trigger": false,
      "metar": "METAR LIBD 052120Z VRB02KT CAVOK 18/13 Q1015",
      "taf": "TAF LIBD 051700Z 0518/0618 VRB05KT 9999 FEW030"
    },
    {
      "icao": "LIBG",
      "alert": "OK",
      "vis_m": null,
      "fzfg": false,
      "metar_trigger": false,
      "taf_trigger": false,
      "metar": "",
      "taf": "TAF LIBG 051400Z 0515/0524 17008KT 9999 FEW020"
    },
    {
      "icao": "LIBP",
      "alert": "OK",
      "vis_m": 9999,
      "fzfg": false,
      "metar_trigger": false,
      "taf_trigger": false,
      "metar": "METAR LIBP 052120Z AUTO 26004KT 9999 OVC089/// 15/15 Q1014",
      "taf": "TAF LIBP 051700Z 0518/0618 VRB05KT 9999 SCT070"
    },
    {
      "icao": "LIBR",
      "alert": "OK",
      "vis_m": 9999,
      "fzfg": false,
      "metar_trigger": false,
      "taf_trigger": false,
      "metar": "METAR LIBR 052120Z 19008KT CAVOK 17/16 Q1016",
      "taf": "TAF LIBR 051700Z 0518/0618 19012KT 9999 FEW030"
    },
    {
      "icao": "LICA",
      "alert": "OK",
      "vis_m": 9999,
      "fzfg": false,
      "metar_trigger": false,
      "taf_trigger": false,
      "metar": "METAR LICA 052120Z AUTO 09004KT 9999 SCT130/// 15/13 Q1016",
      "taf": "TAF LICA 051700Z 0518/0618 VRB05KT 9999 FEW020"
    },
    {
      "icao": "LICC",
      "alert": "OK",
      "vis_m": 9999,
      "fzfg": false,
      "metar_trigger": false,
      "taf_trigger": false,
      "metar": "METAR LICC 052120Z 04007KT 010V070 CAVOK 18/13 Q1017",
      "taf": "TAF LICC 051700Z 0518/0618 08010KT 9999 FEW030"
    },
    {
      "icao": "LICJ",
      "alert": "OK",
      "vis_m": 9999,
      "fzfg": false,
      "metar_trigger": false,
      "taf_trigger": false,
      "metar": "METAR LICJ 052120Z 22002KT CAVOK 18/15 Q1014",
      "taf": "TAF LICJ 051700Z 0518/0618 VRB05KT CAVOK"
    },
    {
      "icao": "LIMC",
      "alert": "OK",
      "vis_m": 4000,
      "fzfg": false,
      "metar_trigger": false,
      "taf_trigger": false,
      "metar": "METAR LIMC 052120Z 36003KT 330V030 4000 RA SCT005 BKN015 13/13 Q1013 NOSIG",
      "taf": "TAF LIMC 051700Z 0518/0624 35005KT 9999 BKN010"
    },
    {
      "icao": "LIME",
      "alert": "OK",
      "vis_m": 9999,
      "fzfg": false,
      "metar_trigger": false,
      "taf_trigger": false,
      "metar": "METAR LIME 052120Z VRB01KT 9999 -RADZ BKN015 14/14 Q1013 NOSIG",
      "taf": "TAF LIME 051700Z 0518/0618 VRB05KT 9999 BKN030"
    },
    {
      "icao": "LIMF",
      "alert": "OK",
      "vis_m": 6000,
      "fzfg": false,
      "metar_trigger": false,
      "taf_trigger": false,
      "metar": "METAR LIMF 052120Z 01003KT 340V040 6000 -RA SCT015 BKN025 13/12 Q1013",
      "taf": "TAF LIMF 051700Z 0518/0618 VRB05KT 9999 BKN020"
    },
    {
      "icao": "LIMJ",
      "alert": "OK",
      "vis_m": 9999,
      "fzfg": false,
      "metar_trigger": false,
      "taf_trigger": false,
      "metar": "METAR LIMJ 052120Z 29003KT 9999 SCT017 17/14 Q1012",
      "taf": "TAF LIMJ 051700Z 0518/0618 15010KT 9999 BKN030"
    },
    {
      "icao": "LIPE",
      "alert": "OK",
      "vis_m": 8000,
      "fzfg": false,
      "metar_trigger": false,
      "taf_trigger": false,
      "metar": "METAR LIPE 052120Z 36004KT 8000 FEW020 15/15 Q1013",
      "taf": "TAF LIPE 051700Z 0518/0618 03006KT 9999 BKN030"
    },
    {
      "icao": "LIPH",
      "alert": "OK",
      "vis_m": 9999,
      "fzfg": false,
      "metar_trigger": false,
      "taf_trigger": false,
      "metar": "METAR LIPH 052120Z AUTO 04003KT 350V080 9999 OVC010/// 14/13 Q1013",
      "taf": "TAF LIPH 051700Z 0518/0618 06007KT 4000 BR BKN020"
    },
    {
      "icao": "LIPQ",
      "alert": "OK",
      "vis_m": 9999,
      "fzfg": false,
      "metar_trigger": false,
      "taf_trigger": false,
      "metar": "METAR LIPQ 052120Z AUTO 15006KT 9999 OVC020/// 15/14 Q1013",
      "taf": "TAF LIPQ 051700Z 0518/0618 VRB05KT 9999 BKN020"
    },
    {
      "icao": "LIPR",
      "alert": "OK",
      "vis_m": 9999,
      "fzfg": false,
      "metar_trigger": false,
      "taf_trigger": false,
      "metar": "METAR LIPR 052120Z AUTO 18006KT 9999 -RA OVC068/// 16/14 Q1013 RERA",
      "taf": "TAF LIPR 051700Z 0518/0618 17010KT 9999 SCT030"
    },
    {
      "icao": "LIPX",
      "alert": "OK",
      "vis_m": 9999,
      "fzfg": false,
      "metar_trigger": false,
      "taf_trigger": false,
      "metar": "METAR LIPX 052120Z VRB01KT CAVOK 11/11 Q1013",
      "taf": "TAF LIPX 051700Z 0518/0618 VRB05KT 9999 BKN020"
    },
    {
      "icao": "LIPY",
      "alert": "OK",
      "vis_m": 9999,
      "fzfg": false,
      "metar_trigger": false,
      "taf_trigger": false,
      "metar": "METAR LIPY 052120Z AUTO 22003KT 170V240 9999 FEW070/// BKN110/// BKN120/// 17/14 Q1014",
      "taf": "TAF LIPY 051700Z 0518/0618 15007KT 9999 SCT030"
    },
    {
      "icao": "LIPZ",
      "alert": "OK",
      "vis_m": 9999,
      "fzfg": false,
      "metar_trigger": false,
      "taf_trigger": false,
      "metar": "METAR LIPZ 052120Z 03009KT 9999 SCT010 BKN020 14/13 Q1013 NOSIG",
      "taf": "TAF LIPZ 051700Z 0518/0624 04007KT 9999 SCT010 BKN020"
    },
    {
      "icao": "LIRF",
      "alert": "OK",
      "vis_m": 9999,
      "fzfg": false,
      "metar_trigger": false,
      "taf_trigger": false,
      "metar": "METAR LIRF 052120Z 13006KT 9999 FEW015 SCT045 17/14 Q1015 NOSIG",
      "taf": "TAF LIRF 051700Z 0518/0624 16016KT 9999 BKN030"
    },
    {
      "icao": "LIRN",
      "alert": "OK",
      "vis_m": 9999,
      "fzfg": false,
      "metar_trigger": false,
      "taf_trigger": false,
      "metar": "METAR LIRN 052120Z VRB01KT CAVOK 16/11 Q1016 NOSIG",
      "taf": "TAF LIRN 051700Z 0518/0618 VRB05KT 9999 SCT050"
    },
    {
      "icao": "LIRP",
      "alert": "OK",
      "vis_m": 9999,
      "fzfg": false,
      "metar_trigger": false,
      "taf_trigger": false,
      "metar": "METAR LIRP 052115Z 14006KT 9999 SCT015 BKN040 17/16 Q1013 NOSIG",
      "taf": "TAF LIRP 051700Z 0518/0618 26007KT 9999 SCT020 BKN040"
    },
    {
      "icao": "LIRZ",
      "alert": "OK",
      "vis_m": 9999,
      "fzfg": false,
      "metar_trigger": false,
      "taf_trigger": false,
      "metar": "METAR LIRZ 052120Z AUTO 17003KT 9999 BKN035/// 16/12 Q1015",
      "taf": "TAF LIRZ 051700Z 0518/0618 19010KT 9999 BKN030"
    },
    {
      "icao": "LJLJ",
      "alert": "OK",
      "vis_m": 9999,
      "fzfg": false,
      "metar_trigger": false,
      "taf_trigger": false,
      "metar": "METAR LJLJ 052130Z VRB02KT 9999 FEW007 SCT023 BKN045 13/10 Q1013 NOSIG",
      "taf": "TAF LJLJ 051700Z 0518/0618 22008KT 9999 FEW007 SCT023 BKN047"
    },
    {
      "icao": "LKMT",
      "alert": "OK",
      "vis_m": 9999,
      "fzfg": false,
      "metar_trigger": false,
      "taf_trigger": false,
      "metar": "METAR LKMT 052130Z 19008KT 150V240 CAVOK 18/05 Q1007 NOSIG",
      "taf": "TAF LKMT 051700Z 0518/0618 20013KT CAVOK"
    },
    {
      "icao": "LKPR",
      "alert": "OK",
      "vis_m": 8000,
      "fzfg": false,
      "metar_trigger": false,
      "taf_trigger": false,
      "metar": "METAR LKPR 052130Z 28014KT 8000 SHRA FEW015 SCT050CB 13/12 Q1007 NOSIG",
      "taf": "TAF LKPR 052000Z 0521/0703 03006KT CAVOK"
    },
    {
      "icao": "LLBG",
      "alert": "OK",
      "vis_m": 9999,
      "fzfg": false,
      "metar_trigger": false,
      "taf_trigger": false,
      "metar": "METAR LLBG 052120Z VRB03KT 9999 FEW030 SCT050 17/11 Q1016 NOSIG RMK BKN070",
      "taf": "TAF LLBG 051704Z 0518/0618 28005KT 9999 SCT040 TX22/0611Z TN14/0603Z"
    },
    {
      "icao": "LMML",
      "alert": "OK",
      "vis_m": 9999,
      "fzfg": false,
      "metar_trigger": false,
      "taf_trigger": false,
      "metar": "METAR LMML 052115Z 13010KT 9999 FEW006 17/16 Q1016 NOSIG",
      "taf": "TAF LMML 051700Z 0518/0618 14013KT 9999 FEW012"
    },
    {
      "icao": "LOWW",
      "alert": "OK",
      "vis_m": 9999,
      "fzfg": false,
      "metar_trigger": false,
      "taf_trigger": false,
      "metar": "METAR LOWW 052120Z 18011KT 9999 NSC 16/08 Q1005 NOSIG",
      "taf": "TAF LOWW 052015Z 0521/0703 16012KT CAVOK TX26/0613Z TN15/0603Z"
    },
    {
      "icao": "LPFR",
      "alert": "OK",
      "vis_m": 9999,
      "fzfg": false,
      "metar_trigger": false,
      "taf_trigger": false,
      "metar": "METAR LPFR 052130Z 32013KT CAVOK 16/09 Q1015",
      "taf": "TAF LPFR 051700Z 0518/0618 33012KT 9999 FEW020"
    },
    {
      "icao": "LPMA",
      "alert": "OK",
      "vis_m": 7000,
      "fzfg": false,
      "metar_trigger": false,
      "taf_trigger": false,
      "metar": "METAR LPMA 052130Z 03013KT 7000 RA FEW006 BKN012 15/14 Q1018",
      "taf": "TAF LPMA 051700Z 0518/0618 03012KT 8000 SCT008 BKN015"
    },
    {
      "icao": "LPPR",
      "alert": "OK",
      "vis_m": 9999,
      "fzfg": false,
      "metar_trigger": false,
      "taf_trigger": false,
      "metar": "METAR LPPR 052130Z 33005KT 300V360 9999 FEW018 13/10 Q1017",
      "taf": "TAF LPPR 051700Z 0518/0618 32012KT 9999 SCT025"
    },
    {
      "icao": "LPPS",
      "alert": "OK",
      "vis_m": 9999,
      "fzfg": false,
      "metar_trigger": false,
      "taf_trigger": false,
      "metar": "METAR LPPS 052130Z 07012KT 030V090 9999 -RA FEW008 SCT014 15/12 Q1019",
      "taf": "TAF LPPS 051700Z 0518/0624 07015KT 8000 SCT008 BKN015"
    },
    {
      "icao": "LPPT",
      "alert": "OK",
      "vis_m": 9999,
      "fzfg": false,
      "metar_trigger": false,
      "taf_trigger": false,
      "metar": "METAR LPPT 052130Z 33012KT CAVOK 14/10 Q1017",
      "taf": "TAF LPPT 051700Z 0518/0624 32013KT 9999 FEW030"
    },
    {
      "icao": "LQBK",
      "alert": "OK",
      "vis_m": 9999,
      "fzfg": false,
      "metar_trigger": false,
      "taf_trigger": false,
      "metar": "METAR LQBK 052130Z VRB03KT CAVOK 15/07 Q1013 NOSIG",
      "taf": "TAF LQBK 051700Z 0518/0618 15007KT CAVOK TX25/0613Z TN09/0603Z"
    },
    {
      "icao": "LQSA",
      "alert": "OK",
      "vis_m": 9999,
      "fzfg": false,
      "metar_trigger": false,
      "taf_trigger": false,
      "metar": "METAR LQSA 052130Z VRB02KT CAVOK 13/08 Q1015",
      "taf": "TAF LQSA 051700Z 0518/0618 15005KT CAVOK TX25/0614Z TN07/0604Z"
    },
    {
      "icao": "LQTZ",
      "alert": "OK",
      "vis_m": 9999,
      "fzfg": false,
      "metar_trigger": false,
      "taf_trigger": false,
      "metar": "METAR LQTZ 052130Z VRB02KT CAVOK 13/05 Q1014",
      "taf": "TAF LQTZ 051700Z 0518/0618 10005KT CAVOK TX26/0612Z TN05/0604Z"
    },
    {
      "icao": "LRBC",
      "alert": "OK",
      "vis_m": 9999,
      "fzfg": false,
      "metar_trigger": false,
      "taf_trigger": false,
      "metar": "METAR LRBC 052130Z 17013KT CAVOK 13/08 Q1014",
      "taf": "TAF LRBC 052000Z 0521/0606 16007KT CAVOK"
    },
    {
      "icao": "LRBS",
      "alert": "OK",
      "vis_m": 9000,
      "fzfg": false,
      "metar_trigger": false,
      "taf_trigger": false,
      "metar": "METAR LRBS 052130Z VRB01KT 9000 NSC 14/09 Q1014 NOSIG",
      "taf": "TAF LRBS 051700Z 0518/0618 VRB04KT CAVOK"
    },
    {
      "icao": "LRBV",
      "alert": "OK",
      "vis_m": 9999,
      "fzfg": false,
      "metar_trigger": false,
      "taf_trigger": false,
      "metar": "METAR LRBV 052130Z AUTO 14003KT 9999 NCD 13/06 Q1014",
      "taf": "TAF LRBV 051700Z 0518/0603 21010KT CAVOK"
    },
    {
      "icao": "LRCL",
      "alert": "OK",
      "vis_m": 9999,
      "fzfg": false,
      "metar_trigger": false,
      "taf_trigger": false,
      "metar": "METAR LRCL 052130Z 25004KT CAVOK 12/04 Q1013",
      "taf": "TAF LRCL 052000Z 0521/0606 VRB04KT CAVOK"
    },
    {
      "icao": "LRCV",
      "alert": "OK",
      "vis_m": 9999,
      "fzfg": false,
      "metar_trigger": false,
      "taf_trigger": false,
      "metar": "METAR LRCV 052130Z 09004KT CAVOK 12/09 Q1014",
      "taf": "TAF LRCV 052000Z 0521/0606 VRB04KT CAVOK"
    },
    {
      "icao": "LRIA",
      "alert": "OK",
      "vis_m": 9999,
      "fzfg": false,
      "metar_trigger": false,
      "taf_trigger": false,
      "metar": "METAR LRIA 052130Z 10008KT CAVOK 14/06 Q1013",
      "taf": "TAF LRIA 052000Z 0521/0606 VRB04KT CAVOK"
    },
    {
      "icao": "LROP",
      "alert": "OK",
      "vis_m": 9999,
      "fzfg": false,
      "metar_trigger": false,
      "taf_trigger": false,
      "metar": "METAR LROP 052130Z 03002KT CAVOK 14/10 Q1014 NOSIG",
      "taf": "TAF LROP 051700Z 0518/0618 VRB04KT CAVOK"
    },
    {
      "icao": "LRSB",
      "alert": "OK",
      "vis_m": 9999,
      "fzfg": false,
      "metar_trigger": false,
      "taf_trigger": false,
      "metar": "METAR LRSB 052130Z VRB02KT CAVOK 10/05 Q1013",
      "taf": "TAF LRSB 051700Z 0518/0618 VRB04KT CAVOK"
    },
    {
      "icao": "LRSM",
      "alert": "OK",
      "vis_m": 9999,
      "fzfg": false,
      "metar_trigger": false,
      "taf_trigger": false,
      "metar": "METAR LRSM 052130Z AUTO 19004KT 9999 NCD 13/06 Q1011",
      "taf": "TAF LRSM 051400Z 0515/0524 VRB04KT CAVOK"
    },
    {
      "icao": "LRSV",
      "alert": "OK",
      "vis_m": 9999,
      "fzfg": false,
      "metar_trigger": false,
      "taf_trigger": false,
      "metar": "METAR LRSV 052130Z 18009KT CAVOK 14/05 Q1012",
      "taf": "TAF LRSV 052000Z 0521/0606 16007KT CAVOK"
    },
    {
      "icao": "LRTM",
      "alert": "OK",
      "vis_m": 9999,
      "fzfg": false,
      "metar_trigger": false,
      "taf_trigger": false,
      "metar": "METAR LRTM 052130Z 09005KT CAVOK 10/05 Q1013",
      "taf": "TAF LRTM 052000Z 0521/0606 VRB04KT CAVOK"
    },
    {
      "icao": "LRTR",
      "alert": "OK",
      "vis_m": 9999,
      "fzfg": false,
      "metar_trigger": false,
      "taf_trigger": false,
      "metar": "METAR LRTR 052130Z 08006KT CAVOK 10/06 Q1012",
      "taf": "TAF LRTR 051700Z 0518/0618 21007KT CAVOK"
    },
    {
      "icao": "LTAC",
      "alert": "OK",
      "vis_m": 9999,
      "fzfg": false,
      "metar_trigger": false,
      "taf_trigger": false,
      "metar": "METAR LTAC 052120Z VRB02KT 9999 SCT040 BKN080 09/04 Q1014 NOSIG RMK RWY21C 05003KT 350V130 RWY03L 00000KT RWY21R 06003KT 010V130 RWY03R 23003KT RWY21L 00000KT",
      "taf": "TAF LTAC 051640Z 0518/0618 VRB02KT 9999 SCT035 BKN100"
    },
    {
      "icao": "LTFM",
      "alert": "OK",
      "vis_m": 9999,
      "fzfg": false,
      "metar_trigger": false,
      "taf_trigger": false,
      "metar": "METAR LTFM 052120Z 05005KT 020V080 CAVOK 12/08 Q1016 NOSIG RMK RWY17L 05003KT RWY34L VRB02KT RWY16R 06003KT 010V070 RWY36 07003KT RWY18 08003KT",
      "taf": "TAF LTFM 051640Z 0518/0624 VRB02KT CAVOK"
    },
    {
      "icao": "LUKK",
      "alert": "OK",
      "vis_m": 9999,
      "fzfg": false,
      "metar_trigger": false,
      "taf_trigger": false,
      "metar": "METAR LUKK 052130Z 23010KT CAVOK 13/05 Q1015 NOSIG",
      "taf": "TAF LUKK 051702Z 0518/0618 17010KT CAVOK"
    },
    {
      "icao": "LWOH",
      "alert": "OK",
      "vis_m": null,
      "fzfg": false,
      "metar_trigger": false,
      "taf_trigger": false,
      "metar": "",
      "taf": "TAF LWOH 052045Z 0521/0621 33005KT 9999 FEW040 SCT100"
    },
    {
      "icao": "LWSK",
      "alert": "OK",
      "vis_m": 9999,
      "fzfg": false,
      "metar_trigger": false,
      "taf_trigger": false,
      "metar": "METAR LWSK 052120Z VRB02KT CAVOK 13/06 Q1015 NOSIG",
      "taf": "TAF LWSK 052045Z 0521/0621 VRB02KT CAVOK"
    },
    {
      "icao": "LYBE",
      "alert": "OK",
      "vis_m": 9999,
      "fzfg": false,
      "metar_trigger": false,
      "taf_trigger": false,
      "metar": "METAR LYBE 052130Z 29009KT CAVOK 18/08 Q1013 NOSIG",
      "taf": "TAF LYBE 051700Z 0518/0618 19006KT CAVOK TX28/0613Z TN10/0604Z"
    },
    {
      "icao": "LYNI",
      "alert": "OK",
      "vis_m": 9999,
      "fzfg": false,
      "metar_trigger": false,
      "taf_trigger": false,
      "metar": "METAR LYNI 052130Z 12006KT 100V220 CAVOK 14/05 Q1014 NOSIG",
      "taf": "TAF LYNI 051700Z 0518/0618 10005KT CAVOK TX28/0614Z TN08/0604Z"
    },
    {
      "icao": "LYPG",
      "alert": "OK",
      "vis_m": 9999,
      "fzfg": false,
      "metar_trigger": false,
      "taf_trigger": false,
      "metar": "METAR LYPG 052130Z VRB02KT CAVOK 16/08 Q1017 NOSIG",
      "taf": "TAF LYPG 051700Z 0518/0618 36005KT CAVOK TX24/0613Z TN12/0604Z"
    },
    {
      "icao": "LZIB",
      "alert": "OK",
      "vis_m": 9999,
      "fzfg": false,
      "metar_trigger": false,
      "taf_trigger": false,
      "metar": "METAR LZIB 052130Z 17011KT CAVOK 17/08 Q1007 NOSIG",
      "taf": "TAF LZIB 051715Z 0518/0618 18012KT CAVOK"
    },
    {
      "icao": "LZKZ",
      "alert": "OK",
      "vis_m": 9999,
      "fzfg": false,
      "metar_trigger": false,
      "taf_trigger": false,
      "metar": "METAR LZKZ 052130Z 00000KT CAVOK 15/04 Q1010 NOSIG",
      "taf": "TAF LZKZ 051715Z 0518/0618 21007KT CAVOK"
    },
    {
      "icao": "LZTT",
      "alert": "OK",
      "vis_m": 9999,
      "fzfg": false,
      "metar_trigger": false,
      "taf_trigger": false,
      "metar": "METAR LZTT 052130Z 25008KT CAVOK 15/02 Q1011",
      "taf": "TAF LZTT 051715Z 0518/0618 25008KT CAVOK"
    },
    {
      "icao": "OEJN",
      "alert": "OK",
      "vis_m": 9999,
      "fzfg": false,
      "metar_trigger": false,
      "taf_trigger": false,
      "metar": "METAR OEJN 052100Z 35011KT 9999 FEW040 27/18 Q1008 NOSIG",
      "taf": "TAF OEJN 051700Z 0518/0624 35008KT 9999 FEW040"
    },
    {
      "icao": "OEMA",
      "alert": "OK",
      "vis_m": 9999,
      "fzfg": false,
      "metar_trigger": false,
      "taf_trigger": false,
      "metar": "METAR OEMA 052100Z 26005KT CAVOK 31/M09 Q1013 NOSIG",
      "taf": "TAF OEMA 051700Z 0518/0624 35006KT CAVOK"
    },
    {
      "icao": "OJAI",
      "alert": "OK",
      "vis_m": 5000,
      "fzfg": false,
      "metar_trigger": false,
      "taf_trigger": false,
      "metar": "METAR OJAI 052100Z 27007KT 5000 HZ FEW030 09/05 Q1017 NOSIG",
      "taf": "TAF OJAI 051653Z 0518/0624 28012KT 5000 HZ SCT030"
    },
    {
      "icao": "OMAA",
      "alert": "OK",
      "vis_m": 9999,
      "fzfg": false,
      "metar_trigger": false,
      "taf_trigger": false,
      "metar": "METAR OMAA 052130Z 08006KT CAVOK 28/21 Q1005 NOSIG",
      "taf": "TAF OMAA 051700Z 0518/0700 04006KT 8000 NSC"
    },
    {
      "icao": "OMDB",
      "alert": "OK",
      "vis_m": 9999,
      "fzfg": false,
      "metar_trigger": false,
      "taf_trigger": false,
      "metar": "METAR OMDB 052130Z 05003KT 330V110 CAVOK 31/19 Q1005 NOSIG",
      "taf": "TAF OMDB 051700Z 0518/0700 05005KT CAVOK"
    },
    {
      "icao": "UAAA",
      "alert": "OK",
      "vis_m": 9999,
      "fzfg": false,
      "metar_trigger": false,
      "taf_trigger": false,
      "metar": "METAR UAAA 052130Z 19001MPS 9999 FEW100 12/07 Q1017 NOSIG",
      "taf": "TAF UAAA 051700Z 0518/0618 16003MPS 9999 SCT050CB BKN100 TX25/0608Z TN10/0601Z"
    },
    {
      "icao": "UBBB",
      "alert": "OK",
      "vis_m": 9999,
      "fzfg": false,
      "metar_trigger": false,
      "taf_trigger": false,
      "metar": "METAR UBBB 052130Z 34012KT CAVOK 12/10 Q1011 NOSIG",
      "taf": "TAF UBBB 051711Z 0518/0618 33010KT 9999 SCT010 FEW040CB TX15/0610Z TN10/0601Z"
    },
    {
      "icao": "UDSG",
      "alert": "OK",
      "vis_m": 9999,
      "fzfg": false,
      "metar_trigger": false,
      "taf_trigger": false,
      "metar": "METAR UDSG 052130Z 34001KT 9999 FEW049CB 06/02 Q1012 NOSIG",
      "taf": "TAF UDSG 051700Z 0518/0618 06006KT 9999 SCT040"
    },
    {
      "icao": "UDYZ",
      "alert": "OK",
      "vis_m": 9999,
      "fzfg": false,
      "metar_trigger": false,
      "taf_trigger": false,
      "metar": "METAR UDYZ 052130Z 30005KT 9999 FEW046 10/04 Q1009 NOSIG",
      "taf": "TAF UDYZ 051700Z 0518/0618 04006KT 9999 SCT040"
    },
    {
      "icao": "UGKO",
      "alert": "OK",
      "vis_m": 9999,
      "fzfg": false,
      "metar_trigger": false,
      "taf_trigger": false,
      "metar": "METAR UGKO 052130Z 21003KT 9999 SCT020 BKN023 12/11 Q1013 NOSIG",
      "taf": "TAF UGKO 051700Z 0518/0618 26007KT 9999 SCT017 BKN050 TX14/0611Z TN11/0602Z"
    }
  ]
}