{
  "ts_utc": "2025-12-24T12:31:13Z",
  "threshold_m": 150,
  "source": "stations_override.txt (ICAO list) + aviationweather.gov (METAR/TAF raw)",
  "station_count": 159,
  "stations": [
    {
      "icao": "BIKF",
      "alert": "OK",
      "vis_m": 3000,
      "fzfg": false,
      "metar_trigger": false,
      "taf_trigger": false,
      "metar": "METAR BIKF 241200Z 18028KT 3000 -DZRA BR OVC005 08/08 Q1012",
      "taf": "TAF BIKF 241030Z 2412/2512 18030G40KT 7000 RADZ SCT010 BKN014 TX09/2503Z TN07/2512Z"
    },
    {
      "icao": "BKPR",
      "alert": "OK",
      "vis_m": 9999,
      "fzfg": false,
      "metar_trigger": false,
      "taf_trigger": false,
      "metar": "METAR BKPR 241230Z 30004KT 9999 SCT014 BKN050 08/06 Q1014 NOSIG",
      "taf": "TAF BKPR 241130Z 2412/2512 15007KT 9999 SCT012 BKN025"
    },
    {
      "icao": "EBCI",
      "alert": "OK",
      "vis_m": 9999,
      "fzfg": false,
      "metar_trigger": false,
      "taf_trigger": false,
      "metar": "METAR EBCI 241220Z 06021KT 9999 SCT026 01/M04 Q1027 NOSIG",
      "taf": "TAF EBCI 241120Z 2412/2518 05013KT 9999 FEW025"
    },
    {
      "icao": "EDDB",
      "alert": "OK",
      "vis_m": 9999,
      "fzfg": false,
      "metar_trigger": false,
      "taf_trigger": false,
      "metar": "METAR EDDB 241220Z AUTO 05013KT 020V080 9999 FEW020 M02/M07 Q1035 NOSIG",
      "taf": "TAF EDDB 241100Z 2412/2512 06010KT CAVOK"
    },
    {
      "icao": "EDDH",
      "alert": "OK",
      "vis_m": 9999,
      "fzfg": false,
      "metar_trigger": false,
      "taf_trigger": false,
      "metar": "METAR EDDH 241220Z AUTO 07013G24KT 9999 SCT025 03/M02 Q1036 TEMPO 07012KT",
      "taf": ""
    },
    {
      "icao": "EDDK",
      "alert": "OK",
      "vis_m": 9999,
      "fzfg": false,
      "metar_trigger": false,
      "taf_trigger": false,
      "metar": "METAR EDDK 241220Z AUTO 05011KT 020V080 CAVOK 03/M06 Q1029 NOSIG",
      "taf": "TAF EDDK 241100Z 2412/2518 06012KT CAVOK"
    },
    {
      "icao": "EDDN",
      "alert": "OK",
      "vis_m": 9999,
      "fzfg": false,
      "metar_trigger": false,
      "taf_trigger": false,
      "metar": "METAR EDDN 241220Z AUTO 06011KT 010V100 9999 BKN037 01/M06 Q1023 NOSIG",
      "taf": "TAF EDDN 241100Z 2412/2512 06015G25KT 9999 BKN035"
    },
    {
      "icao": "EDDS",
      "alert": "OK",
      "vis_m": 9999,
      "fzfg": false,
      "metar_trigger": false,
      "taf_trigger": false,
      "metar": "METAR EDDS 241220Z AUTO 06018KT 9999 -SN OVC021 00/M04 Q1019 TEMPO 06015G25KT 4000 BKN008",
      "taf": "TAF EDDS 241100Z 2412/2512 05015G25KT 9999 FEW010 BKN020"
    },
    {
      "icao": "EDFH",
      "alert": "OK",
      "vis_m": 9999,
      "fzfg": false,
      "metar_trigger": false,
      "taf_trigger": false,
      "metar": "METAR EDFH 241220Z 05019KT 9999 FEW020 BKN023 OVC031 M01/M06 Q1023",
      "taf": "TAF EDFH 241100Z 2412/2512 07015G30KT 9999 BKN035"
    },
    {
      "icao": "EDJA",
      "alert": "OK",
      "vis_m": 8000,
      "fzfg": false,
      "metar_trigger": false,
      "taf_trigger": false,
      "metar": "METAR EDJA 241220Z COR 05020KT 8000 OVC009 M01/M03 Q1016",
      "taf": "TAF EDJA 241100Z 2412/2421 05015G25KT 6000 OVC007"
    },
    {
      "icao": "EDLW",
      "alert": "OK",
      "vis_m": 9999,
      "fzfg": false,
      "metar_trigger": false,
      "taf_trigger": false,
      "metar": "METAR EDLW 241220Z 01013KT 9999 BKN024 M00/M05 Q1031",
      "taf": "TAF EDLW 241100Z 2412/2512 05011KT CAVOK"
    },
    {
      "icao": "EDNY",
      "alert": "OK",
      "vis_m": 9999,
      "fzfg": false,
      "metar_trigger": false,
      "taf_trigger": false,
      "metar": "METAR EDNY 241220Z 05018G28KT 9999 SCT020 BKN024 OVC029 01/M02 Q1015",
      "taf": "TAF EDNY 241100Z 2412/2421 04015KT 9999 BKN020"
    },
    {
      "icao": "EDSB",
      "alert": "OK",
      "vis_m": 9999,
      "fzfg": false,
      "metar_trigger": false,
      "taf_trigger": false,
      "metar": "METAR EDSB 241220Z 05020KT 9999 -SG OVC032 03/M03 Q1021",
      "taf": "TAF EDSB 241100Z 2412/2512 04020G30KT 9999 SCT020 OVC030"
    },
    {
      "icao": "EETN",
      "alert": "OK",
      "vis_m": 9999,
      "fzfg": false,
      "metar_trigger": false,
      "taf_trigger": false,
      "metar": "METAR EETN 241220Z 29011KT 9999 OVC012 01/M02 Q1032 NOSIG",
      "taf": "TAF EETN 241130Z 2412/2512 30012KT 9999 BKN015"
    },
    {
      "icao": "EFTU",
      "alert": "OK",
      "vis_m": 9999,
      "fzfg": false,
      "metar_trigger": false,
      "taf_trigger": false,
      "metar": "METAR EFTU 241220Z AUTO 29005KT 9999 OVC008 00/M01 Q1032",
      "taf": "TAF EFTU 241131Z 2412/2512 30006KT 9999 OVC007"
    },
    {
      "icao": "EGBB",
      "alert": "OK",
      "vis_m": 9999,
      "fzfg": false,
      "metar_trigger": false,
      "taf_trigger": false,
      "metar": "METAR EGBB 241220Z 07015KT 9999 BKN027 05/M01 Q1035",
      "taf": "TAF EGBB 241103Z 2412/2512 07012KT 9999 SCT020"
    },
    {
      "icao": "EGGP",
      "alert": "OK",
      "vis_m": 9999,
      "fzfg": false,
      "metar_trigger": false,
      "taf_trigger": false,
      "metar": "METAR EGGP 241220Z 10011KT 9999 FEW030 06/M01 Q1037",
      "taf": "TAF EGGP 241054Z 2412/2512 12012KT 9999 SCT025"
    },
    {
      "icao": "EGGW",
      "alert": "OK",
      "vis_m": 9999,
      "fzfg": false,
      "metar_trigger": false,
      "taf_trigger": false,
      "metar": "METAR EGGW 241220Z AUTO 08014KT 9999 SCT029 04/M01 Q1033",
      "taf": "TAF EGGW 241056Z 2412/2512 06013KT 9999 SCT025"
    },
    {
      "icao": "EGKK",
      "alert": "OK",
      "vis_m": 9999,
      "fzfg": false,
      "metar_trigger": false,
      "taf_trigger": false,
      "metar": "METAR EGKK 241220Z 05021KT 9999 FEW032 06/M01 Q1031",
      "taf": "TAF EGKK 241103Z 2412/2518 06018G30KT 9999 SCT025"
    },
    {
      "icao": "EGNM",
      "alert": "OK",
      "vis_m": 9999,
      "fzfg": false,
      "metar_trigger": false,
      "taf_trigger": false,
      "metar": "METAR EGNM 241220Z 09011KT 9999 BKN028 04/M00 Q1037",
      "taf": "TAF EGNM 241055Z 2412/2512 07008KT 9999 SCT025"
    },
    {
      "icao": "EGPD",
      "alert": "OK",
      "vis_m": 9999,
      "fzfg": false,
      "metar_trigger": false,
      "taf_trigger": false,
      "metar": "METAR EGPD 241220Z COR AUTO 19006KT 9999 BKN028 07/03 Q1040 NOSIG",
      "taf": "TAF EGPD 241054Z 2412/2512 20004KT 9999 SCT030"
    },
    {
      "icao": "EGPF",
      "alert": "OK",
      "vis_m": 9999,
      "fzfg": false,
      "metar_trigger": false,
      "taf_trigger": false,
      "metar": "METAR EGPF 241220Z AUTO VRB02KT 9999 NCD 07/03 Q1040",
      "taf": "TAF EGPF 241057Z 2412/2512 09005KT 9999 FEW025"
    },
    {
      "icao": "EHBK",
      "alert": "OK",
      "vis_m": 9999,
      "fzfg": false,
      "metar_trigger": false,
      "taf_trigger": false,
      "metar": "METAR EHBK 241225Z AUTO 04018KT 9999 FEW021 01/M04 Q1029 NOSIG",
      "taf": ""
    },
    {
      "icao": "EHEH",
      "alert": "OK",
      "vis_m": 9999,
      "fzfg": false,
      "metar_trigger": false,
      "taf_trigger": false,
      "metar": "METAR EHEH 241155Z AUTO 05017KT 030V100 9999 FEW025 02/M04 Q1031 BLU TEMPO 06015G25KT RMK TREND REMOTE BY EHWX",
      "taf": ""
    },
    {
      "icao": "EKBI",
      "alert": "OK",
      "vis_m": 9999,
      "fzfg": false,
      "metar_trigger": false,
      "taf_trigger": false,
      "metar": "METAR EKBI 241220Z AUTO 08009KT 040V100 9999 BKN026/// 01/M04 Q1040",
      "taf": "TAF EKBI 241127Z 2412/2512 05008KT 9999 BKN025"
    },
    {
      "icao": "EKCH",
      "alert": "OK",
      "vis_m": 9999,
      "fzfg": false,
      "metar_trigger": false,
      "taf_trigger": false,
      "metar": "METAR EKCH 241220Z AUTO 04008KT 9999 BKN032/// 01/M04 Q1040 NOSIG",
      "taf": "TAF EKCH 241127Z 2412/2512 05010KT 9999 SCT030"
    },
    {
      "icao": "ENAL",
      "alert": "OK",
      "vis_m": 9999,
      "fzfg": false,
      "metar_trigger": false,
      "taf_trigger": false,
      "metar": "METAR ENAL 241220Z 20011KT 9999 SCT028 BKN038 08/02 Q1038",
      "taf": "TAF ENAL 241100Z 2412/2421 20015KT 9999 BKN040"
    },
    {
      "icao": "ENBR",
      "alert": "OK",
      "vis_m": 9999,
      "fzfg": false,
      "metar_trigger": false,
      "taf_trigger": false,
      "metar": "METAR ENBR 241220Z VRB02KT 9999 BKN032 04/02 Q1042 NOSIG RMK WIND 1200FT 00000KT",
      "taf": "TAF ENBR 241100Z 2412/2512 09005KT 9999 BKN035"
    },
    {
      "icao": "ENGM",
      "alert": "OK",
      "vis_m": 9999,
      "fzfg": false,
      "metar_trigger": false,
      "taf_trigger": false,
      "metar": "METAR ENGM 241220Z 00000KT CAVOK M05/M07 Q1039 NOSIG",
      "taf": "TAF ENGM 241100Z 2412/2512 VRB03KT CAVOK"
    },
    {
      "icao": "ENHD",
      "alert": "OK",
      "vis_m": 9999,
      "fzfg": false,
      "metar_trigger": false,
      "taf_trigger": false,
      "metar": "METAR ENHD 241220Z 04004KT CAVOK 04/01 Q1042",
      "taf": "TAF ENHD 241100Z 2412/2421 06005KT 9999 FEW030"
    },
    {
      "icao": "ENTC",
      "alert": "OK",
      "vis_m": 9999,
      "fzfg": false,
      "metar_trigger": false,
      "taf_trigger": false,
      "metar": "METAR ENTC 241220Z 21014KT 9999 VCSH BKN037 BKN045 04/01 Q1019 NOSIG RMK WIND 2600FT 24026KT",
      "taf": "TAF ENTC 241100Z 2412/2512 22015KT 9999 FEW020 BKN030"
    },
    {
      "icao": "ENTO",
      "alert": "OK",
      "vis_m": 9999,
      "fzfg": false,
      "metar_trigger": false,
      "taf_trigger": false,
      "metar": "METAR ENTO 241220Z 36005KT CAVOK M04/M07 Q1040 NOSIG",
      "taf": "TAF ENTO 241100Z 2412/2512 35005KT CAVOK"
    },
    {
      "icao": "ENVA",
      "alert": "OK",
      "vis_m": 9999,
      "fzfg": false,
      "metar_trigger": false,
      "taf_trigger": false,
      "metar": "METAR ENVA 241220Z 08005KT 9999 -FZRA OVC026 M00/M01 Q1037 TEMPO 4000 RASN BKN014 RMK WIND 670FT 22005KT",
      "taf": ""
    },
    {
      "icao": "ENZV",
      "alert": "OK",
      "vis_m": 9999,
      "fzfg": false,
      "metar_trigger": false,
      "taf_trigger": false,
      "metar": "METAR ENZV 241220Z 18002KT CAVOK 03/M01 Q1042 NOSIG",
      "taf": "TAF ENZV 241100Z 2412/2512 VRB03KT 9999 FEW030"
    },
    {
      "icao": "EPGD",
      "alert": "OK",
      "vis_m": 9999,
      "fzfg": false,
      "metar_trigger": false,
      "taf_trigger": false,
      "metar": "METAR EPGD 241200Z 08008KT 050V120 9999 FEW026 M04/M09 Q1038",
      "taf": "TAF EPGD 241130Z 2412/2512 10012KT CAVOK"
    },
    {
      "icao": "EPKK",
      "alert": "OK",
      "vis_m": 9999,
      "fzfg": false,
      "metar_trigger": false,
      "taf_trigger": false,
      "metar": "METAR EPKK 241200Z 05015KT 9999 FEW014 OVC017 M02/M06 Q1030",
      "taf": "TAF EPKK 241130Z 2412/2512 05014KT 9999 BKN017"
    },
    {
      "icao": "EPKT",
      "alert": "OK",
      "vis_m": 9999,
      "fzfg": false,
      "metar_trigger": false,
      "taf_trigger": false,
      "metar": "METAR EPKT 241200Z 05014KT 9999 BKN017 M03/M06 Q1030",
      "taf": "TAF EPKT 241130Z 2412/2512 07014KT 9999 OVC018"
    },
    {
      "icao": "EPLB",
      "alert": "OK",
      "vis_m": 9999,
      "fzfg": false,
      "metar_trigger": false,
      "taf_trigger": false,
      "metar": "METAR EPLB 241200Z 07010KT 9999 SCT018 M08/M11 Q1035",
      "taf": "TAF EPLB 241130Z 2412/2512 06010KT 9999 SCT018"
    },
    {
      "icao": "EPMO",
      "alert": "OK",
      "vis_m": 9999,
      "fzfg": false,
      "metar_trigger": false,
      "taf_trigger": false,
      "metar": "METAR EPMO 241200Z 07009KT 020V100 9999 FEW021 M06/M10 Q1036",
      "taf": "TAF EPMO 241130Z 2412/2512 07010KT 9999 FEW020"
    },
    {
      "icao": "EPPO",
      "alert": "OK",
      "vis_m": 9999,
      "fzfg": false,
      "metar_trigger": false,
      "taf_trigger": false,
      "metar": "METAR EPPO 241200Z 08011KT CAVOK M04/M11 Q1036",
      "taf": "TAF EPPO 241130Z 2412/2512 07010KT CAVOK"
    },
    {
      "icao": "EPRA",
      "alert": "OK",
      "vis_m": 9999,
      "fzfg": false,
      "metar_trigger": false,
      "taf_trigger": false,
      "metar": "METAR EPRA 241200Z 04011KT 9999 BKN014 M07/M11 Q1035",
      "taf": "TAF EPRA 241130Z 2412/2421 06010KT 9999 BKN014"
    },
    {
      "icao": "EPRZ",
      "alert": "OK",
      "vis_m": 9999,
      "fzfg": false,
      "metar_trigger": false,
      "taf_trigger": false,
      "metar": "METAR EPRZ 241200Z 05012KT 9999 OVC013 M04/M07 Q1031",
      "taf": "TAF EPRZ 241130Z 2412/2512 05013KT 9999 OVC013"
    },
    {
      "icao": "EPSC",
      "alert": "OK",
      "vis_m": 9999,
      "fzfg": false,
      "metar_trigger": false,
      "taf_trigger": false,
      "metar": "METAR EPSC 241200Z 05006KT 010V080 CAVOK M04/M10 Q1037",
      "taf": "TAF EPSC 241130Z 2412/2512 07007KT CAVOK"
    },
    {
      "icao": "EPSY",
      "alert": "OK",
      "vis_m": 9999,
      "fzfg": false,
      "metar_trigger": false,
      "taf_trigger": false,
      "metar": "METAR EPSY 241200Z 08005KT 020V120 9999 SCT019 M06/M11 Q1037",
      "taf": "TAF EPSY 241130Z 2412/2421 10006KT 9999 SCT020"
    },
    {
      "icao": "EPWA",
      "alert": "OK",
      "vis_m": 9999,
      "fzfg": false,
      "metar_trigger": false,
      "taf_trigger": false,
      "metar": "METAR EPWA 241200Z 06007KT 350V110 9999 FEW020 M06/M11 Q1036 NOSIG",
      "taf": "TAF EPWA 241130Z 2412/2512 06010KT 9999 SCT020"
    },
    {
      "icao": "EPWR",
      "alert": "OK",
      "vis_m": 9999,
      "fzfg": false,
      "metar_trigger": false,
      "taf_trigger": false,
      "metar": "METAR EPWR 241200Z 06010KT 030V100 9999 BKN017 M03/M07 Q1033",
      "taf": "TAF EPWR 241130Z 2412/2512 07014KT 9999 SCT020"
    },
    {
      "icao": "ESGG",
      "alert": "OK",
      "vis_m": 9999,
      "fzfg": false,
      "metar_trigger": false,
      "taf_trigger": false,
      "metar": "METAR ESGG 241220Z 33004KT 290V360 9999 OVC009 M02/M03 Q1039",
      "taf": "TAF ESGG 241130Z 2412/2512 VRB03KT 9999 OVC008"
    },
    {
      "icao": "ESKN",
      "alert": "OK",
      "vis_m": 9999,
      "fzfg": false,
      "metar_trigger": false,
      "taf_trigger": false,
      "metar": "METAR ESKN 241220Z 28010KT 250V310 9999 BKN010 M02/M04 Q1037",
      "taf": "TAF ESKN 241130Z 2412/2512 29009KT 9999 BKN009"
    },
    {
      "icao": "ESMS",
      "alert": "OK",
      "vis_m": 9999,
      "fzfg": false,
      "metar_trigger": false,
      "taf_trigger": false,
      "metar": "METAR ESMS 241220Z 03006KT 9999 SCT032 00/M05 Q1039",
      "taf": "TAF ESMS 241127Z 2412/2512 03008KT 9999 BKN030"
    },
    {
      "icao": "ESSA",
      "alert": "OK",
      "vis_m": 9999,
      "fzfg": false,
      "metar_trigger": false,
      "taf_trigger": false,
      "metar": "METAR ESSA 241220Z 27007KT CAVOK M03/M05 Q1036 NOSIG",
      "taf": "TAF ESSA 241130Z 2412/2512 27008KT CAVOK"
    },
    {
      "icao": "EYKA",
      "alert": "OK",
      "vis_m": 9999,
      "fzfg": false,
      "metar_trigger": false,
      "taf_trigger": false,
      "metar": "METAR EYKA 241220Z 22004KT 190V250 9999 OVC037 M04/M08 Q1038",
      "taf": "TAF EYKA 241100Z 2412/2512 VRB04KT 7000 OVC035"
    },
    {
      "icao": "EYPA",
      "alert": "OK",
      "vis_m": 9999,
      "fzfg": false,
      "metar_trigger": false,
      "taf_trigger": false,
      "metar": "METAR EYPA 241220Z 19005KT 9999 OVC036 M01/M05 Q1039",
      "taf": "TAF EYPA 241100Z 2412/2512 VRB05KT 7000 OVC035"
    },
    {
      "icao": "EYVI",
      "alert": "OK",
      "vis_m": 9999,
      "fzfg": false,
      "metar_trigger": false,
      "taf_trigger": false,
      "metar": "METAR EYVI 241220Z 28005KT 230V320 9999 BKN032 M06/M09 Q1037 NOSIG",
      "taf": "TAF EYVI 241100Z 2412/2512 VRB04KT 8000 BKN035"
    },
    {
      "icao": "GCFV",
      "alert": "OK",
      "vis_m": 9999,
      "fzfg": false,
      "metar_trigger": false,
      "taf_trigger": false,
      "metar": "METAR GCFV 241200Z 26005KT 220V320 9999 FEW030 BKN044 19/16 Q1016 REDZ",
      "taf": "TAF GCFV 240800Z 2409/2509 30005KT 9999 SCT040 TX21/2414Z TN15/2506Z"
    },
    {
      "icao": "GCLP",
      "alert": "OK",
      "vis_m": 9999,
      "fzfg": false,
      "metar_trigger": false,
      "taf_trigger": false,
      "metar": "METAR GCLP 241200Z 16008KT 110V200 9999 FEW035 21/12 Q1017 NOSIG",
      "taf": ""
    },
    {
      "icao": "GCTS",
      "alert": "OK",
      "vis_m": 9999,
      "fzfg": false,
      "metar_trigger": false,
      "taf_trigger": false,
      "metar": "METAR GCTS 241200Z 15005KT 080V210 9999 FEW035 20/11 Q1017 NOSIG",
      "taf": "TAF GCTS 240800Z 2409/2509 VRB05KT 9999 FEW040 TX24/2414Z TN15/2506Z"
    },
    {
      "icao": "GMAD",
      "alert": "OK",
      "vis_m": 2000,
      "fzfg": false,
      "metar_trigger": false,
      "taf_trigger": false,
      "metar": "METAR GMAD 241200Z 04006KT 2000 R27/0700V0800D -RA FEW010 SCT020 BKN033 13/13 Q1013 NOSIG",
      "taf": "TAF GMAD 241100Z 2412/2518 22008KT 8000 SCT010 BKN016"
    },
    {
      "icao": "GMMN",
      "alert": "OK",
      "vis_m": 9999,
      "fzfg": false,
      "metar_trigger": false,
      "taf_trigger": false,
      "metar": "METAR GMMN 241200Z 23010KT 190V260 9999 SCT005 BKN016 14/13 Q1010 RERA TEMPO 2000 RA",
      "taf": "TAF GMMN 241100Z 2412/2518 24013KT 9999 SCT010 BKN020"
    },
    {
      "icao": "GMMX",
      "alert": "OK",
      "vis_m": 6000,
      "fzfg": false,
      "metar_trigger": false,
      "taf_trigger": false,
      "metar": "METAR GMMX 241200Z 26009KT 6000 RA SCT016 BKN020 14/13 Q1011 NOSIG",
      "taf": "TAF GMMX 241100Z 2412/2518 24010KT 6000 SCT016 BKN020"
    },
    {
      "icao": "HEGN",
      "alert": "OK",
      "vis_m": 9999,
      "fzfg": false,
      "metar_trigger": false,
      "taf_trigger": false,
      "metar": "METAR HEGN 241200Z 36003KT CAVOK 23/07 Q1016 NOSIG",
      "taf": "TAF HEGN 241100Z 2412/2518 34012KT CAVOK"
    },
    {
      "icao": "HEMA",
      "alert": "OK",
      "vis_m": 9999,
      "fzfg": false,
      "metar_trigger": false,
      "taf_trigger": false,
      "metar": "METAR HEMA 241200Z 36015KT CAVOK 23/13 Q1015 NOSIG",
      "taf": "TAF HEMA 241100Z 2412/2518 35014KT CAVOK"
    },
    {
      "icao": "HESH",
      "alert": "OK",
      "vis_m": 9999,
      "fzfg": false,
      "metar_trigger": false,
      "taf_trigger": false,
      "metar": "METAR HESH 241200Z 01007KT CAVOK 24/07 Q1016 NOSIG",
      "taf": "TAF HESH 241100Z 2412/2518 01012KT CAVOK"
    },
    {
      "icao": "HESX",
      "alert": "OK",
      "vis_m": 9999,
      "fzfg": false,
      "metar_trigger": false,
      "taf_trigger": false,
      "metar": "METAR HESX 241200Z 08008KT CAVOK 20/07 Q1017 NOSIG",
      "taf": "TAF HESX 241100Z 2412/2518 01008KT CAVOK"
    },
    {
      "icao": "LATI",
      "alert": "OK",
      "vis_m": 9999,
      "fzfg": false,
      "metar_trigger": false,
      "taf_trigger": false,
      "metar": "METAR LATI 241220Z 15006KT 9999 FEW140 16/06 Q1012 NOSIG",
      "taf": "TAF LATI 241100Z 2412/2512 16008KT 9999 FEW040 SCT080 TX17/2412Z TN03/2505Z"
    },
    {
      "icao": "LBPD",
      "alert": "OK",
      "vis_m": 3800,
      "fzfg": false,
      "metar_trigger": false,
      "taf_trigger": false,
      "metar": "METAR LBPD 241200Z AUTO 25002KT 3800 -RA BR OVC004/// 05/05 Q1019 NOSIG",
      "taf": "TAF LBPD 241100Z 2412/2512 09008KT 3000 RA BKN006 OVC015"
    },
    {
      "icao": "LBSF",
      "alert": "OK",
      "vis_m": 8000,
      "fzfg": false,
      "metar_trigger": false,
      "taf_trigger": false,
      "metar": "METAR LBSF 241200Z 11013KT 8000 -RA SCT011 OVC017 04/02 Q1018 NOSIG",
      "taf": "TAF LBSF 241100Z 2412/2512 11014KT 7000 RA BKN010 OVC020"
    },
    {
      "icao": "LBWN",
      "alert": "OK",
      "vis_m": 9999,
      "fzfg": false,
      "metar_trigger": false,
      "taf_trigger": false,
      "metar": "METAR LBWN 241200Z AUTO 06008KT 030V100 9999 SCT035/// 10/06 Q1021 NOSIG",
      "taf": "TAF LBWN 241100Z 2412/2512 11008KT 9999 BKN025 OVC040"
    },
    {
      "icao": "LCLK",
      "alert": "OK",
      "vis_m": 9999,
      "fzfg": false,
      "metar_trigger": false,
      "taf_trigger": false,
      "metar": "METAR LCLK 241200Z 07011KT 9999 VCSH FEW028TCU BKN060 19/14 Q1019 NOSIG",
      "taf": "TAF LCLK 241130Z 2412/2512 08010KT 9999 FEW025"
    },
    {
      "icao": "LCPH",
      "alert": "OK",
      "vis_m": 9999,
      "fzfg": false,
      "metar_trigger": false,
      "taf_trigger": false,
      "metar": "METAR LCPH 241200Z 15009KT 9999 FEW030 21/13 Q1018 NOSIG",
      "taf": "TAF LCPH 241130Z 2412/2512 15010KT 9999 FEW025"
    },
    {
      "icao": "LEAL",
      "alert": "OK",
      "vis_m": 9999,
      "fzfg": false,
      "metar_trigger": false,
      "taf_trigger": false,
      "metar": "METAR LEAL 241200Z 13004KT 070V190 9999 FEW040 16/06 Q1008 NOSIG",
      "taf": "TAF LEAL 241100Z 2412/2512 32009KT 9999 FEW030 TX16/2412Z TN05/2506Z"
    },
    {
      "icao": "LEBB",
      "alert": "OK",
      "vis_m": 5000,
      "fzfg": false,
      "metar_trigger": false,
      "taf_trigger": false,
      "metar": "METAR LEBB 241200Z 01011KT 340V050 5000 -RA BR SCT010 BKN016 OVC027 10/09 Q1013 NOSIG",
      "taf": "TAF LEBB 241100Z 2412/2512 VRB03KT 9999 SCT010 BKN020 TX10/2413Z TN02/2507Z"
    },
    {
      "icao": "LEBL",
      "alert": "OK",
      "vis_m": 9999,
      "fzfg": false,
      "metar_trigger": false,
      "taf_trigger": false,
      "metar": "METAR LEBL 241200Z 33009KT 290V020 9999 FEW025 14/06 Q1006 NOSIG",
      "taf": "TAF LEBL 241100Z 2412/2512 34008KT 9999 SCT025 TX15/2413Z TN09/2506Z"
    },
    {
      "icao": "LECH",
      "alert": "OK",
      "vis_m": 6000,
      "fzfg": false,
      "metar_trigger": false,
      "taf_trigger": false,
      "metar": "METAR LECH 241200Z AUTO 15003KT 080V210 6000 NSC 13/02 Q1007",
      "taf": ""
    },
    {
      "icao": "LEMD",
      "alert": "OK",
      "vis_m": 9999,
      "fzfg": false,
      "metar_trigger": false,
      "taf_trigger": false,
      "metar": "METAR LEMD 241200Z 01004KT 320V040 9999 SCT047 08/02 Q1010 NOSIG",
      "taf": "TAF LEMD 241100Z 2412/2518 VRB03KT 9999 SCT040 TX10/2415Z TNM00/2506Z"
    },
    {
      "icao": "LEMG",
      "alert": "OK",
      "vis_m": 9999,
      "fzfg": false,
      "metar_trigger": false,
      "taf_trigger": false,
      "metar": "METAR LEMG 241200Z 30003KT 260V030 9999 -SHRA FEW015 SCT023 FEW026TCU 13/10 Q1007 NOSIG",
      "taf": "TAF LEMG 241100Z 2412/2512 VRB03KT 9999 FEW030 TX14/2414Z TN07/2506Z"
    },
    {
      "icao": "LEVC",
      "alert": "OK",
      "vis_m": 9999,
      "fzfg": false,
      "metar_trigger": false,
      "taf_trigger": false,
      "metar": "METAR LEVC 241200Z VRB01KT 9999 FEW030 15/02 Q1008 NOSIG",
      "taf": "TAF LEVC 241100Z 2412/2512 27007KT 9999 FEW020 TX15/2412Z TN04/2506Z"
    },
    {
      "icao": "LEXJ",
      "alert": "OK",
      "vis_m": 8000,
      "fzfg": false,
      "metar_trigger": false,
      "taf_trigger": false,
      "metar": "METAR LEXJ 241200Z 05006KT 340V120 8000 BKN016 OVC021 09/07 Q1014",
      "taf": "TAF LEXJ 240800Z 2409/2509 03009KT 9999 SCT015 BKN025 TX11/2415Z TN04/2507Z"
    },
    {
      "icao": "LEZG",
      "alert": "OK",
      "vis_m": 9999,
      "fzfg": false,
      "metar_trigger": false,
      "taf_trigger": false,
      "metar": "METAR LEZG 241200Z 29016KT 9999 FEW020 BKN030 11/06 Q1009 NOSIG",
      "taf": "TAF LEZG 241100Z 2412/2512 29010KT 9999 FEW080 TX11/2414Z TN03/2506Z"
    },
    {
      "icao": "LEZL",
      "alert": "OK",
      "vis_m": 9999,
      "fzfg": false,
      "metar_trigger": false,
      "taf_trigger": false,
      "metar": "METAR LEZL 241200Z 05003KT 360V110 9999 FEW010 SCT020 13/11 Q1008 NOSIG",
      "taf": "TAF LEZL 240800Z 2409/2509 04005KT 9999 FEW040 TX14/2415Z TN06/2507Z"
    },
    {
      "icao": "LFBD",
      "alert": "OK",
      "vis_m": 9999,
      "fzfg": false,
      "metar_trigger": false,
      "taf_trigger": false,
      "metar": "METAR LFBD 241200Z AUTO 04013KT 9999 OVC018 05/01 Q1014 TEMPO 03015G25KT",
      "taf": "TAF LFBD 241100Z 2412/2518 02010KT 9999 BKN019 TX07/2414Z TNM02/2507Z"
    },
    {
      "icao": "LFLL",
      "alert": "OK",
      "vis_m": 9999,
      "fzfg": false,
      "metar_trigger": false,
      "taf_trigger": false,
      "metar": "METAR LFLL 241200Z AUTO 34009KT 9999 FEW024 OVC039 04/01 Q1011",
      "taf": "TAF LFLL 240500Z 2406/2512 35009KT 9999 OVC009"
    },
    {
      "icao": "LFLS",
      "alert": "OK",
      "vis_m": 9999,
      "fzfg": false,
      "metar_trigger": false,
      "taf_trigger": false,
      "metar": "METAR LFLS 241200Z AUTO 33006KT 9999 SCT006 BKN016 OVC022 02/01 Q1010",
      "taf": "TAF LFLS 240200Z 2403/2503 36008KT 9999 SCT006 OVC020"
    },
    {
      "icao": "LFMN",
      "alert": "OK",
      "vis_m": 9999,
      "fzfg": false,
      "metar_trigger": false,
      "taf_trigger": false,
      "metar": "METAR LFMN 241200Z COR 31006KT 9999 -RA FEW026 BKN083 13/07 Q1003 NOSIG",
      "taf": "TAF LFMN 240800Z 2409/2515 34012KT 9999 SCT080"
    },
    {
      "icao": "LFOB",
      "alert": "OK",
      "vis_m": 9999,
      "fzfg": false,
      "metar_trigger": false,
      "taf_trigger": false,
      "metar": "METAR LFOB 241200Z AUTO 05021KT 9999 BKN023 02/M03 Q1025 BECMG 05015G25KT",
      "taf": "TAF LFOB 241100Z 2412/2512 05015G25KT 9999 SCT025"
    },
    {
      "icao": "LFPO",
      "alert": "OK",
      "vis_m": 9999,
      "fzfg": false,
      "metar_trigger": false,
      "taf_trigger": false,
      "metar": "METAR LFPO 241200Z AUTO 06020KT 9999 OVC028 04/M02 Q1023 TEMPO 05015G30KT",
      "taf": "TAF LFPO 241100Z 2412/2518 05018KT 9999 BKN025"
    },
    {
      "icao": "LFSB",
      "alert": "OK",
      "vis_m": 9999,
      "fzfg": false,
      "metar_trigger": false,
      "taf_trigger": false,
      "metar": "METAR LFSB 241200Z AUTO 01015KT 9999 OVC036 02/M01 Q1016 TEMPO 01017G27KT",
      "taf": "TAF LFSB 241100Z 2412/2512 36012KT 9999 OVC035"
    },
    {
      "icao": "LGAV",
      "alert": "OK",
      "vis_m": 9999,
      "fzfg": false,
      "metar_trigger": false,
      "taf_trigger": false,
      "metar": "METAR LGAV 241220Z VRB02KT 9999 FEW018 SCT025 16/11 Q1016 NOSIG",
      "taf": "TAF LGAV 241100Z 2412/2512 18010KT 9999 FEW015 BKN025 BKN070"
    },
    {
      "icao": "LGTS",
      "alert": "OK",
      "vis_m": 5000,
      "fzfg": false,
      "metar_trigger": false,
      "taf_trigger": false,
      "metar": "METAR LGTS 241220Z 30005KT 5000 2000SE RA BR SCT006 BKN020 12/12 Q1016 NOSIG",
      "taf": "TAF LGTS 241100Z 2412/2512 11015KT 8000 FEW012 BKN025"
    },
    {
      "icao": "LHBP",
      "alert": "OK",
      "vis_m": 9999,
      "fzfg": false,
      "metar_trigger": false,
      "taf_trigger": false,
      "metar": "METAR LHBP 241200Z 04009KT 360V080 CAVOK 05/M02 Q1021 NOSIG",
      "taf": "TAF LHBP 241115Z 2412/2512 05007KT 9999 SCT035 BKN070"
    },
    {
      "icao": "LHDC",
      "alert": "OK",
      "vis_m": 9999,
      "fzfg": false,
      "metar_trigger": false,
      "taf_trigger": false,
      "metar": "METAR LHDC 241145Z AUTO 04018KT CAVOK 06/M01 Q1021 NOSIG",
      "taf": "TAF LHDC 241115Z 2412/2421 04018G28KT CAVOK"
    },
    {
      "icao": "LIBD",
      "alert": "OK",
      "vis_m": 9999,
      "fzfg": false,
      "metar_trigger": false,
      "taf_trigger": false,
      "metar": "METAR LIBD 241220Z 17007KT CAVOK 16/05 Q1009",
      "taf": "TAF LIBD 241100Z 2412/2512 16010KT 9999 SCT060"
    },
    {
      "icao": "LIBG",
      "alert": "OK",
      "vis_m": 9999,
      "fzfg": false,
      "metar_trigger": false,
      "taf_trigger": false,
      "metar": "METAR LIBG 241150Z 16011KT 9999 FEW030 15/10 Q1010",
      "taf": "TAF LIBG 241100Z 2412/2421 17015KT 9999 SCT025"
    },
    {
      "icao": "LIBP",
      "alert": "OK",
      "vis_m": 9999,
      "fzfg": false,
      "metar_trigger": false,
      "taf_trigger": false,
      "metar": "METAR LIBP 241220Z AUTO 15005KT 9999 FEW140/// 14/06 Q1005",
      "taf": "TAF LIBP 241100Z 2412/2512 VRB05KT 9999 SCT050"
    },
    {
      "icao": "LIBR",
      "alert": "OK",
      "vis_m": 9999,
      "fzfg": false,
      "metar_trigger": false,
      "taf_trigger": false,
      "metar": "METAR LIBR 241220Z 17009KT 9999 FEW040 15/08 Q1010",
      "taf": "TAF LIBR 241100Z 2412/2512 15013KT 9999 FEW060"
    },
    {
      "icao": "LICA",
      "alert": "OK",
      "vis_m": 9999,
      "fzfg": false,
      "metar_trigger": false,
      "taf_trigger": false,
      "metar": "METAR LICA 241220Z AUTO VRB02KT 9999 NCD 17/04 Q1009",
      "taf": "TAF LICA 241100Z 2412/2512 07012KT 9999 SCT040"
    },
    {
      "icao": "LICC",
      "alert": "OK",
      "vis_m": 9999,
      "fzfg": false,
      "metar_trigger": false,
      "taf_trigger": false,
      "metar": "METAR LICC 241220Z 27010KT 230V290 9999 FEW030 17/15 Q1010",
      "taf": "TAF LICC 241100Z 2412/2512 25010KT 9999 SCT030"
    },
    {
      "icao": "LICJ",
      "alert": "OK",
      "vis_m": 9999,
      "fzfg": false,
      "metar_trigger": false,
      "taf_trigger": false,
      "metar": "METAR LICJ 241220Z 20013KT 9999 FEW040 15/06 Q1007",
      "taf": "TAF LICJ 241100Z 2412/2512 21018KT 9999 SCT040"
    },
    {
      "icao": "LIMC",
      "alert": "OK",
      "vis_m": 4000,
      "fzfg": false,
      "metar_trigger": false,
      "taf_trigger": false,
      "metar": "METAR LIMC 241220Z 14007KT 4000 RA BR OVC006 07/06 Q1009 NOSIG",
      "taf": "TAF LIMC 241100Z 2412/2518 12010KT 6000 RA OVC010"
    },
    {
      "icao": "LIME",
      "alert": "OK",
      "vis_m": 8000,
      "fzfg": false,
      "metar_trigger": false,
      "taf_trigger": false,
      "metar": "METAR LIME 241220Z 09003KT 040V140 8000 -RA SCT005 BKN010 07/07 Q1009 NOSIG",
      "taf": "TAF LIME 241100Z 2412/2512 14010KT 7000 RA SCT010 BKN030"
    },
    {
      "icao": "LIMF",
      "alert": "OK",
      "vis_m": 2500,
      "fzfg": false,
      "metar_trigger": false,
      "taf_trigger": false,
      "metar": "METAR LIMF 241220Z 05009KT 2500 -RA BR BKN005 OVC015 07/05 Q1008",
      "taf": "TAF LIMF 241100Z 2412/2512 03008KT 6000 RA BKN040"
    },
    {
      "icao": "LIMJ",
      "alert": "OK",
      "vis_m": 9999,
      "fzfg": false,
      "metar_trigger": false,
      "taf_trigger": false,
      "metar": "METAR LIMJ 241220Z 04012KT 9999 -DZ FEW025 SCT070 13/04 Q1004",
      "taf": "TAF LIMJ 241100Z 2412/2512 05015KT 6000 RA BKN070"
    },
    {
      "icao": "LIPE",
      "alert": "OK",
      "vis_m": 5000,
      "fzfg": false,
      "metar_trigger": false,
      "taf_trigger": false,
      "metar": "METAR LIPE 241220Z 05011KT 010V070 5000 RA BR BKN005 07/07 Q1008",
      "taf": "TAF LIPE 241100Z 2412/2512 05012KT 4000 RA BR BKN005"
    },
    {
      "icao": "LIPH",
      "alert": "OK",
      "vis_m": 9999,
      "fzfg": false,
      "metar_trigger": false,
      "taf_trigger": false,
      "metar": "METAR LIPH 241220Z 05016KT 9999 -RA BKN030 07/04 Q1011",
      "taf": "TAF LIPH 241100Z 2412/2512 05015KT 8000 RA BKN030"
    },
    {
      "icao": "LIPQ",
      "alert": "OK",
      "vis_m": 9999,
      "fzfg": false,
      "metar_trigger": false,
      "taf_trigger": false,
      "metar": "METAR LIPQ 241220Z AUTO 09022G38KT 9999 OVC054/// 09/M00 Q1011",
      "taf": "TAF LIPQ 241100Z 2412/2512 06020G35KT 9999 BKN050"
    },
    {
      "icao": "LIPR",
      "alert": "OK",
      "vis_m": 5000,
      "fzfg": false,
      "metar_trigger": false,
      "taf_trigger": false,
      "metar": "METAR LIPR 241220Z 11009KT 030V150 5000 -RA BR FEW010TCU BKN015 11/10 Q1006 RESHRA",
      "taf": "TAF LIPR 241100Z 2412/2512 08018G28KT 4000 RA BR BKN010"
    },
    {
      "icao": "LIPX",
      "alert": "OK",
      "vis_m": 9999,
      "fzfg": false,
      "metar_trigger": false,
      "taf_trigger": false,
      "metar": "METAR LIPX 241220Z 07011KT 9999 -RA FEW030 OVC050 07/04 Q1010",
      "taf": "TAF LIPX 241100Z 2412/2512 08015KT 6000 RA BKN050"
    },
    {
      "icao": "LIPY",
      "alert": "OK",
      "vis_m": 9999,
      "fzfg": false,
      "metar_trigger": false,
      "taf_trigger": false,
      "metar": "METAR LIPY 241220Z AUTO 08006KT 050V120 9999 NCD 14/08 Q1005",
      "taf": "TAF LIPY 241100Z 2412/2512 12012KT 8000 FEW020"
    },
    {
      "icao": "LIPZ",
      "alert": "OK",
      "vis_m": 9999,
      "fzfg": false,
      "metar_trigger": false,
      "taf_trigger": false,
      "metar": "METAR LIPZ 241220Z 06021KT 9999 -RA BKN040 06/04 Q1010 NOSIG",
      "taf": "TAF LIPZ 241100Z 2412/2518 05022G32KT 9999 SCT040"
    },
    {
      "icao": "LIRF",
      "alert": "OK",
      "vis_m": 9999,
      "fzfg": false,
      "metar_trigger": false,
      "taf_trigger": false,
      "metar": "METAR LIRF 241220Z 14010KT 9999 SCT020 SCT050 13/09 Q1004 NOSIG",
      "taf": "TAF LIRF 241100Z 2412/2518 16015KT 9999 RA BKN030"
    },
    {
      "icao": "LIRN",
      "alert": "OK",
      "vis_m": 9999,
      "fzfg": false,
      "metar_trigger": false,
      "taf_trigger": false,
      "metar": "METAR LIRN 241220Z VRB03KT 9999 -RA BKN040 11/07 Q1008 TEMPO TSRA",
      "taf": "TAF LIRN 241100Z 2412/2512 18015KT 9999 SCT040"
    },
    {
      "icao": "LIRP",
      "alert": "OK",
      "vis_m": 9999,
      "fzfg": false,
      "metar_trigger": false,
      "taf_trigger": false,
      "metar": "METAR LIRP 241215Z 06011KT 9999 SCT040 SCT070 12/07 Q1003 NOSIG",
      "taf": "TAF LIRP 241100Z 2412/2512 07012KT 9999 SCT030 SCT070"
    },
    {
      "icao": "LIRZ",
      "alert": "OK",
      "vis_m": 9999,
      "fzfg": false,
      "metar_trigger": false,
      "taf_trigger": false,
      "metar": "METAR LIRZ 241220Z AUTO 18005KT 140V210 9999 BKN059/// 13/05 Q1004",
      "taf": "TAF LIRZ 241100Z 2412/2512 VRB06KT 9999 BKN050"
    },
    {
      "icao": "LJLJ",
      "alert": "OK",
      "vis_m": 9999,
      "fzfg": false,
      "metar_trigger": false,
      "taf_trigger": false,
      "metar": "METAR LJLJ 241200Z 27004KT 9999 -RA FEW004 SCT010 OVC043 02/01 Q1015 NOSIG",
      "taf": "TAF LJLJ 241100Z 2412/2512 VRB02KT 9999 FEW004 BKN020"
    },
    {
      "icao": "LKMT",
      "alert": "OK",
      "vis_m": 9999,
      "fzfg": false,
      "metar_trigger": false,
      "taf_trigger": false,
      "metar": "METAR LKMT 241200Z 05020KT 9999 SCT018 OVC024 M01/M04 Q1027 NOSIG",
      "taf": "TAF LKMT 241100Z 2412/2512 04016KT 9999 BKN025"
    },
    {
      "icao": "LKPR",
      "alert": "OK",
      "vis_m": 9999,
      "fzfg": false,
      "metar_trigger": false,
      "taf_trigger": false,
      "metar": "METAR LKPR 241200Z 06018KT 9999 SCT025 BKN043 M01/M06 Q1026 NOSIG",
      "taf": "TAF LKPR 241100Z 2412/2518 05015KT 9999 BKN040"
    },
    {
      "icao": "LLBG",
      "alert": "OK",
      "vis_m": 9999,
      "fzfg": false,
      "metar_trigger": false,
      "taf_trigger": false,
      "metar": "METAR LLBG 241220Z 31008KT 9999 FEW048 21/13 Q1018 NOSIG",
      "taf": "TAF LLBG 241108Z 2412/2512 32006KT 9999 FEW045"
    },
    {
      "icao": "LMML",
      "alert": "OK",
      "vis_m": 9999,
      "fzfg": false,
      "metar_trigger": false,
      "taf_trigger": false,
      "metar": "METAR LMML 241215Z 22013KT 9999 FEW040 15/07 Q1011 NOSIG",
      "taf": "TAF LMML 241100Z 2412/2512 24017KT 9999 FEW040"
    },
    {
      "icao": "LOWW",
      "alert": "OK",
      "vis_m": 9999,
      "fzfg": false,
      "metar_trigger": false,
      "taf_trigger": false,
      "metar": "METAR LOWW 241220Z 02008KT 9999 FEW050 02/M01 Q1023 NOSIG",
      "taf": "TAF LOWW 241115Z 2412/2518 01010KT 9999 FEW012 BKN040 TX00/2413Z TNM02/2507Z"
    },
    {
      "icao": "LPFR",
      "alert": "OK",
      "vis_m": 9999,
      "fzfg": false,
      "metar_trigger": false,
      "taf_trigger": false,
      "metar": "METAR LPFR 241200Z 29006KT 9999 FEW018 FEW020CB 13/07 Q1009",
      "taf": "TAF LPFR 241100Z 2412/2512 26007KT 9999 FEW018"
    },
    {
      "icao": "LPMA",
      "alert": "OK",
      "vis_m": 9999,
      "fzfg": false,
      "metar_trigger": false,
      "taf_trigger": false,
      "metar": "METAR LPMA 241200Z 36012KT 330V040 9999 SCT015 18/12 Q1016",
      "taf": "TAF LPMA 241100Z 2412/2512 36012KT 9999 SCT015"
    },
    {
      "icao": "LPPR",
      "alert": "OK",
      "vis_m": 9999,
      "fzfg": false,
      "metar_trigger": false,
      "taf_trigger": false,
      "metar": "METAR LPPR 241200Z 01006KT 350V060 9999 FEW030 13/06 Q1012",
      "taf": "TAF LPPR 241100Z 2412/2512 VRB02KT 9999 FEW030"
    },
    {
      "icao": "LPPS",
      "alert": "OK",
      "vis_m": 9999,
      "fzfg": false,
      "metar_trigger": false,
      "taf_trigger": false,
      "metar": "METAR LPPS 241200Z 34017KT 9999 SCT014 BKN030 17/10 Q1015",
      "taf": "TAF LPPS 241100Z 2412/2518 34015KT 9999 SCT015 SCT030"
    },
    {
      "icao": "LPPT",
      "alert": "OK",
      "vis_m": 9999,
      "fzfg": false,
      "metar_trigger": false,
      "taf_trigger": false,
      "metar": "METAR LPPT 241200Z 04011KT 9999 FEW025 BKN030 11/07 Q1010",
      "taf": "TAF LPPT 241100Z 2412/2518 06007KT 9999 SCT025"
    },
    {
      "icao": "LQBK",
      "alert": "OK",
      "vis_m": 9999,
      "fzfg": false,
      "metar_trigger": false,
      "taf_trigger": false,
      "metar": "METAR LQBK 241200Z VRB03KT 9999 -RA OVC010 03/02 Q1016 NOSIG",
      "taf": "TAF LQBK 241100Z 2412/2512 06005KT 4000 -RA BR BKN010 OVC025 TX02/2412Z TN00/2506Z"
    },
    {
      "icao": "LQSA",
      "alert": "OK",
      "vis_m": 6000,
      "fzfg": false,
      "metar_trigger": false,
      "taf_trigger": false,
      "metar": "METAR LQSA 241200Z VRB03KT 6000 FEW008 BKN015 BKN030 04/03 Q1013 NOSIG",
      "taf": "TAF LQSA 241100Z 2412/2512 VRB02KT 8000 BKN030 TX05/2413Z TNM02/2505Z"
    },
    {
      "icao": "LQTZ",
      "alert": "OK",
      "vis_m": 9999,
      "fzfg": false,
      "metar_trigger": false,
      "taf_trigger": false,
      "metar": "METAR LQTZ 241200Z VRB03KT 9999 BKN007 OVC014 04/04 Q1015",
      "taf": ""
    },
    {
      "icao": "LRBC",
      "alert": "OK",
      "vis_m": 7000,
      "fzfg": false,
      "metar_trigger": false,
      "taf_trigger": false,
      "metar": "METAR LRBC 241200Z 02005KT 340V060 7000 -SN OVC007 01/00 Q1029",
      "taf": "TAF LRBC 241100Z 2412/2421 02005KT 5000 -SN BR BKN005 OVC010"
    },
    {
      "icao": "LRBS",
      "alert": "OK",
      "vis_m": 9999,
      "fzfg": false,
      "metar_trigger": false,
      "taf_trigger": false,
      "metar": "METAR LRBS 241200Z 04015G27KT 010V080 9999 -RA OVC005 02/02 Q1023 NOSIG",
      "taf": "TAF LRBS 241100Z 2412/2512 05020KT 8000 OVC010"
    },
    {
      "icao": "LRBV",
      "alert": "OK",
      "vis_m": 9999,
      "fzfg": false,
      "metar_trigger": false,
      "taf_trigger": false,
      "metar": "METAR LRBV 241200Z 07016KT 9999 FEW017 SCT057 BKN072 03/M00 Q1021",
      "taf": "TAF LRBV 241100Z 2412/2421 07017KT 9999 SCT015 BKN040"
    },
    {
      "icao": "LRCL",
      "alert": "OK",
      "vis_m": 9999,
      "fzfg": false,
      "metar_trigger": false,
      "taf_trigger": false,
      "metar": "METAR LRCL 241200Z 07004KT 9999 BKN031 02/00 Q1022",
      "taf": "TAF LRCL 241100Z 2412/2421 08007KT 9999 SCT010 BKN030"
    },
    {
      "icao": "LRCV",
      "alert": "OK",
      "vis_m": 6000,
      "fzfg": false,
      "metar_trigger": false,
      "taf_trigger": false,
      "metar": "METAR LRCV 241200Z 07017KT 6000 RA SCT004 BKN008 OVC011 04/04 Q1020",
      "taf": "TAF LRCV 241100Z 2412/2421 08017KT 5000 -RA BR BKN005 OVC020"
    },
    {
      "icao": "LRIA",
      "alert": "OK",
      "vis_m": 9999,
      "fzfg": false,
      "metar_trigger": false,
      "taf_trigger": false,
      "metar": "METAR LRIA 241200Z COR 08009KT 9999 -SN BKN015 OVC047 01/M01 Q1030",
      "taf": "TAF LRIA 241100Z 2412/2421 06006KT 9999 BKN015 BKN040"
    },
    {
      "icao": "LROP",
      "alert": "OK",
      "vis_m": 8000,
      "fzfg": false,
      "metar_trigger": false,
      "taf_trigger": false,
      "metar": "METAR LROP 241200Z 05021KT 8000 -RA OVC006 03/03 Q1023 NOSIG",
      "taf": "TAF LROP 241100Z 2412/2512 05025KT 8000 OVC010"
    },
    {
      "icao": "LRSB",
      "alert": "OK",
      "vis_m": 4000,
      "fzfg": false,
      "metar_trigger": false,
      "taf_trigger": false,
      "metar": "METAR LRSB 241200Z VRB02KT 4000 BR SCT004 OVC035 01/01 Q1020",
      "taf": "TAF LRSB 241100Z 2412/2512 VRB04KT 5000 BR OVC005"
    },
    {
      "icao": "LRSM",
      "alert": "OK",
      "vis_m": 9999,
      "fzfg": false,
      "metar_trigger": false,
      "taf_trigger": false,
      "metar": "METAR LRSM 241200Z 07010KT 9999 SCT044 05/M01 Q1022",
      "taf": "TAF LRSM 241100Z 2412/2421 06005KT 9999 BKN045"
    },
    {
      "icao": "LRSV",
      "alert": "OK",
      "vis_m": 1500,
      "fzfg": false,
      "metar_trigger": false,
      "taf_trigger": false,
      "metar": "METAR LRSV 241200Z 07011KT 1500 -SN BR OVC002 M02/M02 Q1028",
      "taf": "TAF LRSV 241100Z 2412/2421 08010KT 1500 -SN BR BKN003 OVC025"
    },
    {
      "icao": "LRTM",
      "alert": "OK",
      "vis_m": 7000,
      "fzfg": false,
      "metar_trigger": false,
      "taf_trigger": false,
      "metar": "METAR LRTM 241200Z 07002KT 7000 -RA SCT009 OVC035 02/01 Q1022",
      "taf": "TAF LRTM 241100Z 2412/2421 08006KT 7000 BKN010 OVC030"
    },
    {
      "icao": "LRTR",
      "alert": "OK",
      "vis_m": 9999,
      "fzfg": false,
      "metar_trigger": false,
      "taf_trigger": false,
      "metar": "METAR LRTR 241200Z 09006KT 9999 -RA OVC043 05/02 Q1019 NOSIG",
      "taf": "TAF LRTR 241100Z 2412/2512 09010KT 9999 SCT040"
    },
    {
      "icao": "LTAC",
      "alert": "OK",
      "vis_m": 9999,
      "fzfg": false,
      "metar_trigger": false,
      "taf_trigger": false,
      "metar": "METAR LTAC 241220Z 24006KT 180V280 9999 BKN025 09/02 Q1021 NOSIG",
      "taf": "TAF LTAC 241040Z 2412/2512 VRB02KT 9999 BKN025"
    },
    {
      "icao": "LTFM",
      "alert": "OK",
      "vis_m": 9999,
      "fzfg": false,
      "metar_trigger": false,
      "taf_trigger": false,
      "metar": "METAR LTFM 241220Z 08008KT 9999 FEW013 SCT035 BKN120 12/10 Q1020 NOSIG",
      "taf": "TAF LTFM 241040Z 2412/2518 08012KT 9999 SCT012 SCT035 BKN120"
    },
    {
      "icao": "LUKK",
      "alert": "OK",
      "vis_m": 9999,
      "fzfg": false,
      "metar_trigger": false,
      "taf_trigger": false,
      "metar": "METAR LUKK 241200Z 07012KT 9999 -SN OVC016 01/M02 Q1030 NOSIG",
      "taf": "TAF LUKK 241104Z 2412/2512 07012KT 9999 BKN020"
    },
    {
      "icao": "LWOH",
      "alert": "OK",
      "vis_m": 9999,
      "fzfg": false,
      "metar_trigger": false,
      "taf_trigger": false,
      "metar": "METAR LWOH 241220Z 31003KT 280V360 9999 FEW020 SCT030 09/06 Q1014",
      "taf": "TAF LWOH 241130Z 2412/2512 15008KT 9999 FEW020 SCT035"
    },
    {
      "icao": "LWSK",
      "alert": "OK",
      "vis_m": 4000,
      "fzfg": false,
      "metar_trigger": false,
      "taf_trigger": false,
      "metar": "METAR LWSK 241220Z 25004KT 200V310 4000 BR BKN010 OVC033 08/07 Q1015 NOSIG",
      "taf": "TAF LWSK 241130Z 2412/2512 VRB02KT 5000 BR BKN010 OVC033"
    },
    {
      "icao": "LYBE",
      "alert": "OK",
      "vis_m": 9999,
      "fzfg": false,
      "metar_trigger": false,
      "taf_trigger": false,
      "metar": "METAR LYBE 241200Z 10017KT 9999 -RA SCT010 BKN030 04/02 Q1017 NOSIG",
      "taf": "TAF LYBE 241100Z 2412/2512 11015KT 9999 BKN030 TX06/2413Z TN02/2506Z"
    },
    {
      "icao": "LYNI",
      "alert": "OK",
      "vis_m": 9999,
      "fzfg": false,
      "metar_trigger": false,
      "taf_trigger": false,
      "metar": "METAR LYNI 241200Z 08012KT 9999 -RA FEW013 BKN040 OVC083 06/04 Q1016 NOSIG",
      "taf": "TAF LYNI 241100Z 2412/2512 08014KT 9999 BKN030 BKN075 TX06/2412Z TN02/2506Z"
    },
    {
      "icao": "LYPG",
      "alert": "OK",
      "vis_m": 9999,
      "fzfg": false,
      "metar_trigger": false,
      "taf_trigger": false,
      "metar": "METAR LYPG 241200Z VRB01KT 9999 FEW010 SCT030 BKN090 10/09 Q1013 NOSIG",
      "taf": ""
    },
    {
      "icao": "LZIB",
      "alert": "OK",
      "vis_m": 9999,
      "fzfg": false,
      "metar_trigger": false,
      "taf_trigger": false,
      "metar": "METAR LZIB 241200Z 03011KT CAVOK 04/M01 Q1022 NOSIG",
      "taf": "TAF LZIB 241115Z 2412/2512 03009KT 9999 FEW030 SCT045"
    },
    {
      "icao": "LZKZ",
      "alert": "OK",
      "vis_m": 9999,
      "fzfg": false,
      "metar_trigger": false,
      "taf_trigger": false,
      "metar": "METAR LZKZ 241200Z 36020KT CAVOK 01/M04 Q1025 NOSIG",
      "taf": "TAF LZKZ 241115Z 2412/2512 01018KT CAVOK"
    },
    {
      "icao": "LZTT",
      "alert": "OK",
      "vis_m": 9999,
      "fzfg": false,
      "metar_trigger": false,
      "taf_trigger": false,
      "metar": "METAR LZTT 241200Z 06013KT 9999 BKN011 M04/M06 Q1024 NOSIG",
      "taf": "TAF LZTT 241115Z 2412/2512 06010KT 9999 FEW016 SCT035"
    },
    {
      "icao": "OEJN",
      "alert": "OK",
      "vis_m": 9999,
      "fzfg": false,
      "metar_trigger": false,
      "taf_trigger": false,
      "metar": "METAR OEJN 241200Z 29008KT 9999 FEW035 31/21 Q1012 NOSIG",
      "taf": "TAF OEJN 241100Z 2412/2518 30012KT 7000 FEW040"
    },
    {
      "icao": "OEMA",
      "alert": "OK",
      "vis_m": 9999,
      "fzfg": false,
      "metar_trigger": false,
      "taf_trigger": false,
      "metar": "METAR OEMA 241200Z 35003KT 9999 FEW040 26/13 Q1017 NOSIG",
      "taf": "TAF OEMA 241100Z 2412/2518 26010KT 7000 SCT045"
    },
    {
      "icao": "OJAI",
      "alert": "OK",
      "vis_m": 5000,
      "fzfg": false,
      "metar_trigger": false,
      "taf_trigger": false,
      "metar": "METAR OJAI 241200Z 12008KT 5000 HZ NSC 16/06 Q1021 NOSIG",
      "taf": "TAF OJAI 241100Z 2412/2518 12006KT 5000 HZ NSC"
    },
    {
      "icao": "OMAA",
      "alert": "OK",
      "vis_m": 9999,
      "fzfg": false,
      "metar_trigger": false,
      "taf_trigger": false,
      "metar": "METAR OMAA 241200Z 32011KT 290V350 CAVOK 23/12 Q1016 NOSIG",
      "taf": "TAF OMAA 241100Z 2412/2518 33011KT 8000 NSC"
    },
    {
      "icao": "OMDB",
      "alert": "OK",
      "vis_m": 9999,
      "fzfg": false,
      "metar_trigger": false,
      "taf_trigger": false,
      "metar": "METAR OMDB 241230Z 32010KT 290V350 CAVOK 24/11 Q1016 NOSIG",
      "taf": "TAF OMDB 241100Z 2412/2518 34010KT 8000 NSC"
    },
    {
      "icao": "UAAA",
      "alert": "OK",
      "vis_m": 2900,
      "fzfg": false,
      "metar_trigger": false,
      "taf_trigger": false,
      "metar": "METAR UAAA 241200Z 06002MPS 2900 BR SCT100 BKN200 M04/M05 Q1026 NOSIG",
      "taf": "TAF UAAA 241104Z 2412/2512 17003MPS 3100 BR FU SCT050 BKN100 TXM02/2508Z TNM06/2501Z"
    },
    {
      "icao": "UBBB",
      "alert": "OK",
      "vis_m": 9999,
      "fzfg": false,
      "metar_trigger": false,
      "taf_trigger": false,
      "metar": "METAR UBBB 241200Z 28008KT 9999 FEW031 12/07 Q1017 NOSIG",
      "taf": "TAF UBBB 241047Z 2412/2512 30006KT 9999 SCT012 BKN030 TX13/2412Z TN06/2501Z"
    },
    {
      "icao": "UDSG",
      "alert": "OK",
      "vis_m": 9999,
      "fzfg": false,
      "metar_trigger": false,
      "taf_trigger": false,
      "metar": "METAR UDSG 241200Z 00000KT 9999 NSC 03/M06 Q1020 NOSIG",
      "taf": "TAF UDSG 241100Z 2412/2512 VRB06KT 9999 SCT050"
    },
    {
      "icao": "UDYZ",
      "alert": "OK",
      "vis_m": 8000,
      "fzfg": false,
      "metar_trigger": false,
      "taf_trigger": false,
      "metar": "METAR UDYZ 241200Z 22003KT 8000 NSC 07/M03 Q1021 NOSIG",
      "taf": "TAF UDYZ 241100Z 2412/2512 VRB04KT 3500 BR NSC"
    },
    {
      "icao": "UGKO",
      "alert": "OK",
      "vis_m": 6000,
      "fzfg": false,
      "metar_trigger": false,
      "taf_trigger": false,
      "metar": "METAR UGKO 241130Z VRB02KT 6000 SCT038 BKN044 07/06 Q1022 NOSIG",
      "taf": "TAF UGKO 241100Z 2412/2512 26007KT 9999 SCT023 BKN050 TX09/2511Z TN04/2503Z"
    }
  ]
}