{
  "ts_utc": "2026-06-14T17:26:39Z",
  "threshold_m": 150,
  "source": "stations_override.txt (ICAO list) + aviationweather.gov (METAR/TAF raw)",
  "station_count": 159,
  "stations": [
    {
      "icao": "BIKF",
      "alert": "OK",
      "vis_m": 9999,
      "fzfg": false,
      "metar_trigger": false,
      "taf_trigger": false,
      "metar": "METAR BIKF 141700Z 25007G23KT 180V290 9999 SCT029 13/09 Q1024",
      "taf": "TAF BIKF 141651Z 1418/1518 27007KT 9999 SCT020 BKN040 TX14/1418Z TN08/1504Z"
    },
    {
      "icao": "BKPR",
      "alert": "OK",
      "vis_m": null,
      "fzfg": false,
      "metar_trigger": false,
      "taf_trigger": false,
      "metar": "",
      "taf": ""
    },
    {
      "icao": "EBCI",
      "alert": "OK",
      "vis_m": 9999,
      "fzfg": false,
      "metar_trigger": false,
      "taf_trigger": false,
      "metar": "METAR EBCI 141720Z 33006KT 280V360 9999 FEW035 SCT045 18/08 Q1019 NOSIG",
      "taf": "TAF EBCI 141700Z 1418/1524 33008KT 9999 FEW035"
    },
    {
      "icao": "EDDB",
      "alert": "OK",
      "vis_m": 9999,
      "fzfg": false,
      "metar_trigger": false,
      "taf_trigger": false,
      "metar": "METAR EDDB 141720Z AUTO 29016KT CAVOK 16/09 Q1009 TEMPO 28015G25KT",
      "taf": "TAF EDDB 141700Z 1418/1518 28015G25KT CAVOK"
    },
    {
      "icao": "EDDH",
      "alert": "OK",
      "vis_m": 9999,
      "fzfg": false,
      "metar_trigger": false,
      "taf_trigger": false,
      "metar": "METAR EDDH 141720Z AUTO 29014KT 250V320 9999 FEW024 SCT049 14/09 Q1011 TEMPO 29015G25KT",
      "taf": "TAF EDDH 141700Z 1418/1524 29012G22KT 9999 BKN025"
    },
    {
      "icao": "EDDK",
      "alert": "OK",
      "vis_m": 9999,
      "fzfg": false,
      "metar_trigger": false,
      "taf_trigger": false,
      "metar": "METAR EDDK 141720Z AUTO 28014KT 9999 FEW042 17/08 Q1017 NOSIG",
      "taf": "TAF EDDK 141700Z 1418/1524 30013KT CAVOK"
    },
    {
      "icao": "EDDN",
      "alert": "OK",
      "vis_m": 9999,
      "fzfg": false,
      "metar_trigger": false,
      "taf_trigger": false,
      "metar": "METAR EDDN 141720Z AUTO 29012KT CAVOK 18/06 Q1015 NOSIG",
      "taf": "TAF EDDN 141700Z 1418/1518 30010KT 9999 SCT045"
    },
    {
      "icao": "EDDS",
      "alert": "OK",
      "vis_m": 9999,
      "fzfg": false,
      "metar_trigger": false,
      "taf_trigger": false,
      "metar": "METAR EDDS 141720Z AUTO 32013KT 280V360 CAVOK 20/07 Q1015 NOSIG",
      "taf": "TAF EDDS 141700Z 1418/1518 30010KT CAVOK"
    },
    {
      "icao": "EDFH",
      "alert": "OK",
      "vis_m": 9999,
      "fzfg": false,
      "metar_trigger": false,
      "taf_trigger": false,
      "metar": "METAR EDFH 141720Z 32007KT 290V350 9999 FEW045 15/07 Q1017",
      "taf": "TAF EDFH 141700Z 1418/1518 30010KT CAVOK"
    },
    {
      "icao": "EDJA",
      "alert": "OK",
      "vis_m": 9999,
      "fzfg": false,
      "metar_trigger": false,
      "taf_trigger": false,
      "metar": "METAR EDJA 141720Z 32011KT CAVOK 21/08 Q1015",
      "taf": "TAF EDJA 141400Z 1415/1424 31012KT CAVOK"
    },
    {
      "icao": "EDLW",
      "alert": "OK",
      "vis_m": 9999,
      "fzfg": false,
      "metar_trigger": false,
      "taf_trigger": false,
      "metar": "METAR EDLW 141720Z 28006KT 230V360 9999 SCT040 16/08 Q1016",
      "taf": "TAF EDLW 141700Z 1418/1518 27007KT CAVOK"
    },
    {
      "icao": "EDNY",
      "alert": "OK",
      "vis_m": 9999,
      "fzfg": false,
      "metar_trigger": false,
      "taf_trigger": false,
      "metar": "METAR EDNY 141720Z 27008KT 240V330 CAVOK 24/04 Q1014",
      "taf": "TAF EDNY 141400Z 1415/1424 26012KT CAVOK"
    },
    {
      "icao": "EDSB",
      "alert": "OK",
      "vis_m": 9999,
      "fzfg": false,
      "metar_trigger": false,
      "taf_trigger": false,
      "metar": "METAR EDSB 141720Z 31005KT 260V010 CAVOK 22/08 Q1015",
      "taf": "TAF EDSB 141700Z 1418/1518 29006KT CAVOK"
    },
    {
      "icao": "EETN",
      "alert": "OK",
      "vis_m": 9999,
      "fzfg": false,
      "metar_trigger": false,
      "taf_trigger": false,
      "metar": "METAR EETN 141720Z 12006KT 9999 SCT017 SCT048 14/13 Q0999 TEMPO FEW030CB",
      "taf": "TAF EETN 141130Z 1412/1512 13010KT 9999 BKN020"
    },
    {
      "icao": "EFTU",
      "alert": "OK",
      "vis_m": 9999,
      "fzfg": false,
      "metar_trigger": false,
      "taf_trigger": false,
      "metar": "METAR EFTU 141720Z AUTO 12005KT 9999 BKN044 14/09 Q1000",
      "taf": "TAF EFTU 141426Z 1415/1515 15008KT 9999 BKN025"
    },
    {
      "icao": "EGBB",
      "alert": "OK",
      "vis_m": 9999,
      "fzfg": false,
      "metar_trigger": false,
      "taf_trigger": false,
      "metar": "METAR EGBB 141720Z 02006KT 9999 FEW042 18/09 Q1019",
      "taf": "TAF EGBB 141655Z 1418/1518 01006KT 9999 FEW045"
    },
    {
      "icao": "EGGP",
      "alert": "OK",
      "vis_m": 9999,
      "fzfg": false,
      "metar_trigger": false,
      "taf_trigger": false,
      "metar": "METAR EGGP 141720Z 24003KT 200V270 CAVOK 17/08 Q1020",
      "taf": "TAF EGGP 141657Z 1418/1518 28005KT 9999 SCT030"
    },
    {
      "icao": "EGGW",
      "alert": "OK",
      "vis_m": 9999,
      "fzfg": false,
      "metar_trigger": false,
      "taf_trigger": false,
      "metar": "METAR EGGW 141720Z AUTO 35005KT 290V040 9999 FEW042 19/09 Q1019",
      "taf": "TAF EGGW 141657Z 1418/1518 04007KT 9999 FEW030"
    },
    {
      "icao": "EGKK",
      "alert": "OK",
      "vis_m": 9999,
      "fzfg": false,
      "metar_trigger": false,
      "taf_trigger": false,
      "metar": "METAR EGKK 141720Z 32006KT 280V360 CAVOK 20/09 Q1019",
      "taf": "TAF EGKK 141701Z 1418/1524 31010KT 9999 FEW035"
    },
    {
      "icao": "EGNM",
      "alert": "OK",
      "vis_m": 9999,
      "fzfg": false,
      "metar_trigger": false,
      "taf_trigger": false,
      "metar": "METAR EGNM 141720Z 05008KT 010V090 9999 SCT032 16/09 Q1020",
      "taf": "TAF EGNM 141658Z 1418/1518 03008KT 9999 FEW030"
    },
    {
      "icao": "EGPD",
      "alert": "OK",
      "vis_m": 9999,
      "fzfg": false,
      "metar_trigger": false,
      "taf_trigger": false,
      "metar": "METAR EGPD 141720Z COR AUTO 35013KT 9999 OVC023 12/07 Q1021 NOSIG",
      "taf": "TAF EGPD 141655Z 1418/1518 34012KT 9999 SCT020"
    },
    {
      "icao": "EGPF",
      "alert": "OK",
      "vis_m": 9999,
      "fzfg": false,
      "metar_trigger": false,
      "taf_trigger": false,
      "metar": "METAR EGPF 141720Z AUTO 08004KT 050V150 9999 NCD 19/08 Q1020",
      "taf": "TAF EGPF 141701Z 1418/1518 08008KT 9999 SCT045"
    },
    {
      "icao": "EHBK",
      "alert": "OK",
      "vis_m": 9999,
      "fzfg": false,
      "metar_trigger": false,
      "taf_trigger": false,
      "metar": "METAR EHBK 141655Z AUTO 31008KT 200V360 9999 FEW041/// 17/08 Q1017 NOSIG",
      "taf": "TAF EHBK 141702Z 1418/1524 30010KT CAVOK"
    },
    {
      "icao": "EHEH",
      "alert": "OK",
      "vis_m": 9999,
      "fzfg": false,
      "metar_trigger": false,
      "taf_trigger": false,
      "metar": "METAR EHEH 141655Z AUTO 32008KT 270V050 9999 SCT048 BKN052 BKN059 17/08 Q1018 BLU NOSIG RMK TREND REMOTE BY EHWX",
      "taf": "TAF EHEH 141109Z 1412/1518 30010KT 9999 SCT030 BKN060"
    },
    {
      "icao": "EKBI",
      "alert": "OK",
      "vis_m": 9999,
      "fzfg": false,
      "metar_trigger": false,
      "taf_trigger": false,
      "metar": "METAR EKBI 141720Z AUTO 28015KT 9999 BKN022/// 15/10 Q1008",
      "taf": "TAF EKBI 141427Z 1415/1515 28018KT 9999 BKN025"
    },
    {
      "icao": "EKCH",
      "alert": "OK",
      "vis_m": 9999,
      "fzfg": false,
      "metar_trigger": false,
      "taf_trigger": false,
      "metar": "METAR EKCH 141720Z AUTO 31012G22KT 280V350 9999 FEW055/// 17/09 Q1004 TEMPO SCT020CB",
      "taf": "TAF EKCH 141427Z 1415/1515 31012KT 9999 BKN020"
    },
    {
      "icao": "ENAL",
      "alert": "OK",
      "vis_m": 9999,
      "fzfg": false,
      "metar_trigger": false,
      "taf_trigger": false,
      "metar": "METAR ENAL 141720Z 01008KT 330V030 9999 FEW015 BKN029 12/08 Q1015",
      "taf": "TAF ENAL 141400Z 1415/1424 02012KT 9999 FEW020 BKN030"
    },
    {
      "icao": "ENBR",
      "alert": "OK",
      "vis_m": 9999,
      "fzfg": false,
      "metar_trigger": false,
      "taf_trigger": false,
      "metar": "METAR ENBR 141720Z 31013KT CAVOK 15/08 Q1009 NOSIG RMK WIND 1200FT 33035KT",
      "taf": "TAF ENBR 141100Z 1412/1512 33015KT CAVOK"
    },
    {
      "icao": "ENGM",
      "alert": "OK",
      "vis_m": 9999,
      "fzfg": false,
      "metar_trigger": false,
      "taf_trigger": false,
      "metar": "METAR ENGM 141720Z 01016KT CAVOK 15/02 Q1003 NOSIG",
      "taf": "TAF ENGM 141100Z 1412/1512 34008KT 9999 FEW030 SCT050"
    },
    {
      "icao": "ENHD",
      "alert": "OK",
      "vis_m": 9999,
      "fzfg": false,
      "metar_trigger": false,
      "taf_trigger": false,
      "metar": "METAR ENHD 141720Z 34023KT 9999 FEW015CB 14/10 Q1009",
      "taf": ""
    },
    {
      "icao": "ENTC",
      "alert": "OK",
      "vis_m": 9999,
      "fzfg": false,
      "metar_trigger": false,
      "taf_trigger": false,
      "metar": "METAR ENTC 141720Z 04014KT 9999 FEW048 13/05 Q1014 NOSIG RMK WIND 2600FT 10016KT",
      "taf": "TAF ENTC 141100Z 1412/1512 03012KT 9999 FEW030 BKN040"
    },
    {
      "icao": "ENTO",
      "alert": "OK",
      "vis_m": 9999,
      "fzfg": false,
      "metar_trigger": false,
      "taf_trigger": false,
      "metar": "METAR ENTO 141720Z 21005KT 9999 FEW018 15/11 Q1003 NOSIG",
      "taf": ""
    },
    {
      "icao": "ENVA",
      "alert": "OK",
      "vis_m": 9999,
      "fzfg": false,
      "metar_trigger": false,
      "taf_trigger": false,
      "metar": "METAR ENVA 141720Z 31012KT 9999 BKN034 12/06 Q1011 RMK WIND 670FT 31020KT",
      "taf": "TAF ENVA 141100Z 1412/1512 29015KT 9999 SCT012"
    },
    {
      "icao": "ENZV",
      "alert": "OK",
      "vis_m": 9999,
      "fzfg": false,
      "metar_trigger": false,
      "taf_trigger": false,
      "metar": "METAR ENZV 141720Z 32016KT CAVOK 15/11 Q1008 NOSIG",
      "taf": "TAF ENZV 141100Z 1412/1512 31008KT CAVOK"
    },
    {
      "icao": "EPGD",
      "alert": "OK",
      "vis_m": 9999,
      "fzfg": false,
      "metar_trigger": false,
      "taf_trigger": false,
      "metar": "METAR EPGD 141700Z 28015KT 9999 FEW026 15/09 Q1001",
      "taf": "TAF EPGD 141130Z 1412/1512 26015KT 9999 SCT025 BKN045"
    },
    {
      "icao": "EPKK",
      "alert": "OK",
      "vis_m": 9999,
      "fzfg": false,
      "metar_trigger": false,
      "taf_trigger": false,
      "metar": "METAR EPKK 141700Z 27013KT 9999 -SHRA SCT041CB BKN060 16/07 Q1009",
      "taf": "TAF EPKK 141430Z 1415/1515 25010KT 9999 SCT050"
    },
    {
      "icao": "EPKT",
      "alert": "OK",
      "vis_m": 9999,
      "fzfg": false,
      "metar_trigger": false,
      "taf_trigger": false,
      "metar": "METAR EPKT 141700Z 28008KT 240V310 9999 FEW041 13/08 Q1009",
      "taf": "TAF EPKT 141130Z 1412/1512 25012KT 9999 SCT030"
    },
    {
      "icao": "EPLB",
      "alert": "OK",
      "vis_m": 5000,
      "fzfg": false,
      "metar_trigger": false,
      "taf_trigger": false,
      "metar": "METAR EPLB 141700Z 33013KT 300V010 5000 0800E R25/1400D SHRA FEW011 BKN031CB 11/09 Q1007 RESHRA",
      "taf": "TAF EPLB 141130Z 1412/1512 24015KT 9999 SCT030"
    },
    {
      "icao": "EPMO",
      "alert": "OK",
      "vis_m": 9999,
      "fzfg": false,
      "metar_trigger": false,
      "taf_trigger": false,
      "metar": "METAR EPMO 141700Z 25013KT 9999 -SHRA FEW012 SCT047CB 12/10 Q1005",
      "taf": "TAF EPMO 141130Z 1412/1512 24015KT 9999 SCT020"
    },
    {
      "icao": "EPPO",
      "alert": "OK",
      "vis_m": 9999,
      "fzfg": false,
      "metar_trigger": false,
      "taf_trigger": false,
      "metar": "METAR EPPO 141700Z 27014KT 9999 -SHRA SCT026CB 14/11 Q1006",
      "taf": ""
    },
    {
      "icao": "EPRA",
      "alert": "OK",
      "vis_m": 9999,
      "fzfg": false,
      "metar_trigger": false,
      "taf_trigger": false,
      "metar": "METAR EPRA 141700Z 26019KT 9999 FEW045 15/07 Q1007",
      "taf": "TAF EPRA 141430Z 1415/1424 26012KT 9999 SCT040"
    },
    {
      "icao": "EPRZ",
      "alert": "OK",
      "vis_m": 9999,
      "fzfg": false,
      "metar_trigger": false,
      "taf_trigger": false,
      "metar": "METAR EPRZ 141700Z 25013KT CAVOK 16/08 Q1008",
      "taf": "TAF EPRZ 141130Z 1412/1512 27014KT 9999 SCT030"
    },
    {
      "icao": "EPSC",
      "alert": "OK",
      "vis_m": 9999,
      "fzfg": false,
      "metar_trigger": false,
      "taf_trigger": false,
      "metar": "METAR EPSC 141700Z 27012KT 9999 -SHRA SCT045CB 13/12 Q1005",
      "taf": "TAF EPSC 141130Z 1412/1512 26012KT 9999 SCT045"
    },
    {
      "icao": "EPSY",
      "alert": "OK",
      "vis_m": 9999,
      "fzfg": false,
      "metar_trigger": false,
      "taf_trigger": false,
      "metar": "METAR EPSY 141700Z 25009KT 210V290 9999 SCT031 15/08 Q1002",
      "taf": "TAF EPSY 141430Z 1415/1424 23012KT 9999 BKN030"
    },
    {
      "icao": "EPWA",
      "alert": "OK",
      "vis_m": 9999,
      "fzfg": false,
      "metar_trigger": false,
      "taf_trigger": false,
      "metar": "METAR EPWA 141700Z VRB02KT 9999 -SHRA BKN040CB 11/09 Q1005 RETSRA RETSGR TEMPO 4000 SHRA",
      "taf": "TAF EPWA 141430Z 1415/1515 25012KT 9999 BKN030"
    },
    {
      "icao": "EPWR",
      "alert": "OK",
      "vis_m": 9999,
      "fzfg": false,
      "metar_trigger": false,
      "taf_trigger": false,
      "metar": "METAR EPWR 141700Z 26015KT 9999 FEW030CB 15/10 Q1008",
      "taf": "TAF EPWR 141430Z 1415/1515 27015G25KT 9999 SCT040CB"
    },
    {
      "icao": "ESGG",
      "alert": "OK",
      "vis_m": 9999,
      "fzfg": false,
      "metar_trigger": false,
      "taf_trigger": false,
      "metar": "METAR ESGG 141720Z 27004KT 9999 BKN049 11/10 Q1002",
      "taf": "TAF ESGG 141430Z 1415/1515 32005KT CAVOK"
    },
    {
      "icao": "ESKN",
      "alert": "OK",
      "vis_m": 9999,
      "fzfg": false,
      "metar_trigger": false,
      "taf_trigger": false,
      "metar": "METAR ESKN 141720Z 25006KT 9999 FEW016 BKN027 OVC098 12/10 Q0996",
      "taf": "TAF ESKN 141430Z 1415/1515 27008KT 9999 -RA FEW025"
    },
    {
      "icao": "ESMS",
      "alert": "OK",
      "vis_m": 9999,
      "fzfg": false,
      "metar_trigger": false,
      "taf_trigger": false,
      "metar": "METAR ESMS 141720Z 05004KT 020V090 9999 SCT032 14/11 Q1003",
      "taf": "TAF ESMS 141427Z 1415/1515 30013KT 9999 BKN020"
    },
    {
      "icao": "ESSA",
      "alert": "OK",
      "vis_m": 9999,
      "fzfg": false,
      "metar_trigger": false,
      "taf_trigger": false,
      "metar": "METAR ESSA 141720Z 18008KT 9999 FEW032 BKN043 11/08 Q0995 TEMPO 4000 SHRA BKN025CB",
      "taf": "TAF ESSA 141430Z 1415/1515 22010KT 9999 -RA SCT014 BKN025"
    },
    {
      "icao": "EYKA",
      "alert": "OK",
      "vis_m": 9999,
      "fzfg": false,
      "metar_trigger": false,
      "taf_trigger": false,
      "metar": "METAR EYKA 141720Z VRB05KT 9999 -SHRA SCT012 BKN017CB BKN024 13/11 Q1001",
      "taf": "TAF EYKA 141710Z 1418/1518 VRB03KT 9000 BKN025"
    },
    {
      "icao": "EYPA",
      "alert": "OK",
      "vis_m": 9999,
      "fzfg": false,
      "metar_trigger": false,
      "taf_trigger": false,
      "metar": "METAR EYPA 141720Z 24005KT 190V310 9999 FEW014CB 14/11 Q0999",
      "taf": "TAF EYPA 141710Z 1418/1518 VRB03KT 9000 BKN025"
    },
    {
      "icao": "EYVI",
      "alert": "OK",
      "vis_m": 9999,
      "fzfg": false,
      "metar_trigger": false,
      "taf_trigger": false,
      "metar": "METAR EYVI 141720Z 24003KT 210V270 9999 BKN051CB 11/10 Q1001 NOSIG",
      "taf": "TAF EYVI 141712Z 1418/1518 VRB03KT 9000 BKN025"
    },
    {
      "icao": "GCFV",
      "alert": "OK",
      "vis_m": 9999,
      "fzfg": false,
      "metar_trigger": false,
      "taf_trigger": false,
      "metar": "METAR GCFV 141700Z 05016KT 9999 FEW020 23/17 Q1018",
      "taf": "TAF GCFV 141400Z 1415/1515 02014KT 9999 FEW020 TX24/1514Z TN19/1506Z"
    },
    {
      "icao": "GCLP",
      "alert": "OK",
      "vis_m": 9999,
      "fzfg": false,
      "metar_trigger": false,
      "taf_trigger": false,
      "metar": "METAR GCLP 141700Z 02030KT 9999 FEW030 23/17 Q1018 NOSIG",
      "taf": "TAF GCLP 141400Z 1415/1515 01023KT 9999 FEW030 TX24/1514Z TN18/1506Z"
    },
    {
      "icao": "GCTS",
      "alert": "OK",
      "vis_m": 9999,
      "fzfg": false,
      "metar_trigger": false,
      "taf_trigger": false,
      "metar": "METAR GCTS 141700Z 09021KT 9999 FEW025 24/16 Q1019 WS R07 NOSIG",
      "taf": "TAF GCTS 141400Z 1415/1515 10020KT 9999 FEW020 TX25/1514Z TN18/1506Z"
    },
    {
      "icao": "GMAD",
      "alert": "OK",
      "vis_m": 8000,
      "fzfg": false,
      "metar_trigger": false,
      "taf_trigger": false,
      "metar": "METAR GMAD 141700Z 21016KT 8000 NSC 25/16 Q1014 NOSIG",
      "taf": "TAF GMAD 141700Z 1418/1524 19014KT 8000 NSC"
    },
    {
      "icao": "GMMN",
      "alert": "OK",
      "vis_m": 9999,
      "fzfg": false,
      "metar_trigger": false,
      "taf_trigger": false,
      "metar": "METAR GMMN 141700Z 32012KT CAVOK 25/18 Q1017 NOSIG",
      "taf": "TAF GMMN 141700Z 1418/1524 32010KT CAVOK"
    },
    {
      "icao": "GMMX",
      "alert": "OK",
      "vis_m": 9999,
      "fzfg": false,
      "metar_trigger": false,
      "taf_trigger": false,
      "metar": "METAR GMMX 141700Z 01005KT 300V070 9999 FEW033 33/11 Q1016 NOSIG",
      "taf": "TAF GMMX 141700Z 1418/1524 06006KT 8000 NSC"
    },
    {
      "icao": "HEGN",
      "alert": "OK",
      "vis_m": 9999,
      "fzfg": false,
      "metar_trigger": false,
      "taf_trigger": false,
      "metar": "METAR HEGN 141700Z 00000KT CAVOK 33/06 Q1006 NOSIG",
      "taf": "TAF HEGN 141700Z 1418/1524 31014KT CAVOK"
    },
    {
      "icao": "HEMA",
      "alert": "OK",
      "vis_m": 9999,
      "fzfg": false,
      "metar_trigger": false,
      "taf_trigger": false,
      "metar": "METAR HEMA 141700Z 36008KT CAVOK 34/08 Q1007 NOSIG",
      "taf": "TAF HEMA 141700Z 1418/1524 30014KT CAVOK"
    },
    {
      "icao": "HESH",
      "alert": "OK",
      "vis_m": 9999,
      "fzfg": false,
      "metar_trigger": false,
      "taf_trigger": false,
      "metar": "METAR HESH 141700Z 16005KT CAVOK 33/10 Q1006 NOSIG",
      "taf": "TAF HESH 141700Z 1418/1524 35012KT CAVOK"
    },
    {
      "icao": "HESX",
      "alert": "OK",
      "vis_m": 9999,
      "fzfg": false,
      "metar_trigger": false,
      "taf_trigger": false,
      "metar": "METAR HESX 141700Z 31012KT CAVOK 27/14 Q1011 NOSIG",
      "taf": "TAF HESX 141700Z 1418/1524 35010KT CAVOK"
    },
    {
      "icao": "LATI",
      "alert": "OK",
      "vis_m": 9999,
      "fzfg": false,
      "metar_trigger": false,
      "taf_trigger": false,
      "metar": "METAR LATI 141720Z 35004KT CAVOK 25/15 Q1013 NOSIG",
      "taf": "TAF LATI 141700Z 1418/1518 VRB05KT CAVOK TX32/1512Z TN15/1504Z"
    },
    {
      "icao": "LBPD",
      "alert": "OK",
      "vis_m": 9999,
      "fzfg": false,
      "metar_trigger": false,
      "taf_trigger": false,
      "metar": "METAR LBPD 141700Z AUTO 26003KT 9999 NCD 28/10 Q1011 NOSIG",
      "taf": "TAF LBPD 141700Z 1418/1518 28013KT 9999 SCT070"
    },
    {
      "icao": "LBSF",
      "alert": "OK",
      "vis_m": 9999,
      "fzfg": false,
      "metar_trigger": false,
      "taf_trigger": false,
      "metar": "METAR LBSF 141700Z AUTO VRB01KT 9999 NCD 25/11 Q1013 NOSIG",
      "taf": "TAF LBSF 141700Z 1418/1518 10010KT 9999 SCT060"
    },
    {
      "icao": "LBWN",
      "alert": "OK",
      "vis_m": 9999,
      "fzfg": false,
      "metar_trigger": false,
      "taf_trigger": false,
      "metar": "METAR LBWN 141700Z AUTO 28007KT 9999 NSC 25/14 Q1011 NOSIG",
      "taf": "TAF LBWN 141700Z 1418/1518 VRB03KT CAVOK"
    },
    {
      "icao": "LCLK",
      "alert": "OK",
      "vis_m": 9999,
      "fzfg": false,
      "metar_trigger": false,
      "taf_trigger": false,
      "metar": "METAR LCLK 141700Z 22013KT 9999 FEW025 25/21 Q1008 NOSIG",
      "taf": "TAF LCLK 141130Z 1412/1512 20020KT 9999 FEW020"
    },
    {
      "icao": "LCPH",
      "alert": "OK",
      "vis_m": 9999,
      "fzfg": false,
      "metar_trigger": false,
      "taf_trigger": false,
      "metar": "METAR LCPH 141700Z 31011KT 9999 FEW020 24/20 Q1008 NOSIG",
      "taf": "TAF LCPH 141130Z 1412/1512 26012KT 9999 SCT015"
    },
    {
      "icao": "LEAL",
      "alert": "OK",
      "vis_m": 9999,
      "fzfg": false,
      "metar_trigger": false,
      "taf_trigger": false,
      "metar": "METAR LEAL 141700Z 09008KT 060V130 9999 FEW050 26/16 Q1012 NOSIG",
      "taf": "TAF LEAL 141700Z 1418/1518 14010KT CAVOK TX30/1512Z TN21/1506Z"
    },
    {
      "icao": "LEBB",
      "alert": "OK",
      "vis_m": 9999,
      "fzfg": false,
      "metar_trigger": false,
      "taf_trigger": false,
      "metar": "METAR LEBB 141700Z 28007KT CAVOK 29/16 Q1013 NOSIG",
      "taf": "TAF LEBB 141700Z 1418/1518 29009KT CAVOK TX28/1418Z TN18/1505Z"
    },
    {
      "icao": "LEBL",
      "alert": "OK",
      "vis_m": 9999,
      "fzfg": false,
      "metar_trigger": false,
      "taf_trigger": false,
      "metar": "METAR LEBL 141700Z 16005KT 120V210 9999 FEW030 27/14 Q1014 NOSIG",
      "taf": "TAF LEBL 141700Z 1418/1518 12008KT 9999 FEW025 TX29/1512Z TN21/1506Z"
    },
    {
      "icao": "LECH",
      "alert": "OK",
      "vis_m": 9999,
      "fzfg": false,
      "metar_trigger": false,
      "taf_trigger": false,
      "metar": "METAR LECH 141700Z AUTO 14008KT CAVOK 28/06 Q1014",
      "taf": "TAF LECH 141700Z 1418/1518 15010KT CAVOK TX32/1513Z TN16/1506Z"
    },
    {
      "icao": "LEMD",
      "alert": "OK",
      "vis_m": 9999,
      "fzfg": false,
      "metar_trigger": false,
      "taf_trigger": false,
      "metar": "METAR LEMD 141700Z 29008KT 250V350 9999 FEW100CB 34/06 Q1012 TEMPO TSRA SCT090CB",
      "taf": "TAF LEMD 141700Z 1418/1524 VRB04KT 9999 FEW080 TX32/1516Z TN16/1505Z"
    },
    {
      "icao": "LEMG",
      "alert": "OK",
      "vis_m": 9999,
      "fzfg": false,
      "metar_trigger": false,
      "taf_trigger": false,
      "metar": "METAR LEMG 141700Z 17006KT 140V220 9999 FEW065 29/17 Q1013 NOSIG",
      "taf": "TAF LEMG 141700Z 1418/1518 13010KT 9999 FEW040 TX35/1513Z TN21/1505Z"
    },
    {
      "icao": "LEVC",
      "alert": "OK",
      "vis_m": 9999,
      "fzfg": false,
      "metar_trigger": false,
      "taf_trigger": false,
      "metar": "METAR LEVC 141700Z 09007KT 030V130 9999 FEW069 28/12 Q1013 NOSIG",
      "taf": "TAF LEVC 141700Z 1418/1518 12010KT CAVOK TX32/1512Z TN19/1506Z"
    },
    {
      "icao": "LEXJ",
      "alert": "OK",
      "vis_m": 9999,
      "fzfg": false,
      "metar_trigger": false,
      "taf_trigger": false,
      "metar": "METAR LEXJ 141700Z 36004KT 320V070 9999 FEW080CB 27/14 Q1014",
      "taf": "TAF LEXJ 141400Z 1415/1515 29009KT CAVOK TX30/1415Z TN17/1506Z"
    },
    {
      "icao": "LEZG",
      "alert": "OK",
      "vis_m": 9999,
      "fzfg": false,
      "metar_trigger": false,
      "taf_trigger": false,
      "metar": "METAR LEZG 141700Z 07005KT 010V180 CAVOK 34/03 Q1011 NOSIG",
      "taf": "TAF LEZG 141700Z 1418/1518 09005KT CAVOK TX37/1515Z TN21/1506Z"
    },
    {
      "icao": "LEZL",
      "alert": "OK",
      "vis_m": 9999,
      "fzfg": false,
      "metar_trigger": false,
      "taf_trigger": false,
      "metar": "METAR LEZL 141700Z 22014KT 190V260 CAVOK 27/17 Q1015 NOSIG",
      "taf": "TAF LEZL 141400Z 1415/1515 22009KT CAVOK TX35/1515Z TN18/1506Z"
    },
    {
      "icao": "LFBD",
      "alert": "OK",
      "vis_m": 9999,
      "fzfg": false,
      "metar_trigger": false,
      "taf_trigger": false,
      "metar": "METAR LFBD 141700Z AUTO 10012KT 040V120 CAVOK 34/04 Q1013 NOSIG",
      "taf": "TAF LFBD 141100Z 1412/1518 06012KT CAVOK TX34/1415Z TN21/1504Z"
    },
    {
      "icao": "LFLL",
      "alert": "OK",
      "vis_m": 9999,
      "fzfg": false,
      "metar_trigger": false,
      "taf_trigger": false,
      "metar": "METAR LFLL 141700Z 36012KT CAVOK 28/10 Q1015 NOSIG",
      "taf": "TAF LFLL 141700Z 1418/1524 36010KT CAVOK"
    },
    {
      "icao": "LFLS",
      "alert": "OK",
      "vis_m": 9999,
      "fzfg": false,
      "metar_trigger": false,
      "taf_trigger": false,
      "metar": "METAR LFLS 141700Z AUTO 35015KT 310V020 CAVOK 27/08 Q1015 BECMG 09005KT",
      "taf": "TAF LFLS 141400Z 1415/1515 36012KT CAVOK"
    },
    {
      "icao": "LFMN",
      "alert": "OK",
      "vis_m": 9999,
      "fzfg": false,
      "metar_trigger": false,
      "taf_trigger": false,
      "metar": "METAR LFMN 141700Z 13004KT 110V170 9999 FEW020 22/17 Q1013 NOSIG",
      "taf": "TAF LFMN 141400Z 1415/1521 11008KT 9999 SCT020"
    },
    {
      "icao": "LFOB",
      "alert": "OK",
      "vis_m": 9999,
      "fzfg": false,
      "metar_trigger": false,
      "taf_trigger": false,
      "metar": "METAR LFOB 141700Z AUTO 35009KT 320V020 CAVOK 22/12 Q1018 NOSIG",
      "taf": "TAF LFOB 141700Z 1418/1518 35008KT CAVOK"
    },
    {
      "icao": "LFPO",
      "alert": "OK",
      "vis_m": 9999,
      "fzfg": false,
      "metar_trigger": false,
      "taf_trigger": false,
      "metar": "METAR LFPO 141700Z 34006KT 290V050 CAVOK 26/08 Q1017 NOSIG",
      "taf": "TAF LFPO 141700Z 1418/1524 34006KT CAVOK"
    },
    {
      "icao": "LFSB",
      "alert": "OK",
      "vis_m": 9999,
      "fzfg": false,
      "metar_trigger": false,
      "taf_trigger": false,
      "metar": "METAR LFSB 141700Z AUTO 28010KT 240V310 CAVOK 26/05 Q1015 NOSIG",
      "taf": "TAF LFSB 141700Z 1418/1518 29010KT CAVOK"
    },
    {
      "icao": "LGAV",
      "alert": "OK",
      "vis_m": 9999,
      "fzfg": false,
      "metar_trigger": false,
      "taf_trigger": false,
      "metar": "METAR LGAV 141720Z VRB02KT CAVOK 25/11 Q1014 NOSIG",
      "taf": "TAF LGAV 141700Z 1418/1518 VRB05KT 9999 FEW020"
    },
    {
      "icao": "LGTS",
      "alert": "OK",
      "vis_m": 9999,
      "fzfg": false,
      "metar_trigger": false,
      "taf_trigger": false,
      "metar": "METAR LGTS 141720Z 17010KT 9999 FEW025 27/13 Q1012 NOSIG",
      "taf": "TAF LGTS 141700Z 1418/1518 VRB03KT CAVOK"
    },
    {
      "icao": "LHBP",
      "alert": "OK",
      "vis_m": 9999,
      "fzfg": false,
      "metar_trigger": false,
      "taf_trigger": false,
      "metar": "METAR LHBP 141700Z 28013KT CAVOK 22/12 Q1010 NOSIG",
      "taf": "TAF LHBP 141715Z 1418/1518 32012KT CAVOK"
    },
    {
      "icao": "LHDC",
      "alert": "OK",
      "vis_m": 9999,
      "fzfg": false,
      "metar_trigger": false,
      "taf_trigger": false,
      "metar": "METAR LHDC 141645Z AUTO 26013KT 230V290 9999 //////TCU 24/10 Q1008 NOSIG",
      "taf": ""
    },
    {
      "icao": "LIBD",
      "alert": "OK",
      "vis_m": 9999,
      "fzfg": false,
      "metar_trigger": false,
      "taf_trigger": false,
      "metar": "METAR LIBD 141720Z VRB07KT CAVOK 32/10 Q1011",
      "taf": "TAF LIBD 141700Z 1418/1518 12012KT CAVOK"
    },
    {
      "icao": "LIBG",
      "alert": "OK",
      "vis_m": 9999,
      "fzfg": false,
      "metar_trigger": false,
      "taf_trigger": false,
      "metar": "METAR LIBG 141720Z AUTO 19006KT 9999 NCD 28/12 Q1013",
      "taf": "TAF LIBG 141700Z 1418/1518 VRB05KT CAVOK"
    },
    {
      "icao": "LIBP",
      "alert": "OK",
      "vis_m": 9999,
      "fzfg": false,
      "metar_trigger": false,
      "taf_trigger": false,
      "metar": "METAR LIBP 141720Z AUTO 11004KT 060V180 9999 NCD 31/11 Q1010",
      "taf": "TAF LIBP 141700Z 1418/1518 VRB05KT CAVOK"
    },
    {
      "icao": "LIBR",
      "alert": "OK",
      "vis_m": 9999,
      "fzfg": false,
      "metar_trigger": false,
      "taf_trigger": false,
      "metar": "METAR LIBR 141720Z 14009KT CAVOK 26/14 Q1012",
      "taf": "TAF LIBR 141700Z 1418/1518 12010KT CAVOK"
    },
    {
      "icao": "LICA",
      "alert": "OK",
      "vis_m": 9999,
      "fzfg": false,
      "metar_trigger": false,
      "taf_trigger": false,
      "metar": "METAR LICA 141720Z AUTO 23006KT 200V260 9999 NCD 25/18 Q1015",
      "taf": "TAF LICA 141700Z 1418/1518 25010KT CAVOK"
    },
    {
      "icao": "LICC",
      "alert": "OK",
      "vis_m": 9999,
      "fzfg": false,
      "metar_trigger": false,
      "taf_trigger": false,
      "metar": "METAR LICC 141720Z 06008KT CAVOK 27/17 Q1015",
      "taf": "TAF LICC 141100Z 1412/1512 08013KT CAVOK"
    },
    {
      "icao": "LICJ",
      "alert": "OK",
      "vis_m": 9999,
      "fzfg": false,
      "metar_trigger": false,
      "taf_trigger": false,
      "metar": "METAR LICJ 141720Z 06013KT CAVOK 26/17 Q1014",
      "taf": "TAF LICJ 141100Z 1412/1512 04012KT CAVOK"
    },
    {
      "icao": "LIMC",
      "alert": "OK",
      "vis_m": 9999,
      "fzfg": false,
      "metar_trigger": false,
      "taf_trigger": false,
      "metar": "METAR LIMC 141720Z 23009KT CAVOK 29/16 Q1010 NOSIG",
      "taf": "TAF LIMC 141700Z 1418/1524 22010KT CAVOK"
    },
    {
      "icao": "LIME",
      "alert": "OK",
      "vis_m": 9999,
      "fzfg": false,
      "metar_trigger": false,
      "taf_trigger": false,
      "metar": "METAR LIME 141720Z 27017KT CAVOK 29/13 Q1009 NOSIG",
      "taf": "TAF LIME 141700Z 1418/1518 26010KT CAVOK"
    },
    {
      "icao": "LIMF",
      "alert": "OK",
      "vis_m": 9999,
      "fzfg": false,
      "metar_trigger": false,
      "taf_trigger": false,
      "metar": "METAR LIMF 141720Z 09004KT 010V150 CAVOK 30/18 Q1010",
      "taf": "TAF LIMF 141700Z 1418/1518 VRB05KT CAVOK"
    },
    {
      "icao": "LIMJ",
      "alert": "OK",
      "vis_m": 9999,
      "fzfg": false,
      "metar_trigger": false,
      "taf_trigger": false,
      "metar": "METAR LIMJ 141720Z 23004KT 9999 FEW025 22/19 Q1013",
      "taf": "TAF LIMJ 141700Z 1418/1518 17011KT CAVOK"
    },
    {
      "icao": "LIPE",
      "alert": "OK",
      "vis_m": 9999,
      "fzfg": false,
      "metar_trigger": false,
      "taf_trigger": false,
      "metar": "METAR LIPE 141720Z 20010KT CAVOK 31/10 Q1008",
      "taf": "TAF LIPE 141700Z 1418/1518 23010KT CAVOK"
    },
    {
      "icao": "LIPH",
      "alert": "OK",
      "vis_m": 9999,
      "fzfg": false,
      "metar_trigger": false,
      "taf_trigger": false,
      "metar": "METAR LIPH 141720Z 15008KT CAVOK 27/19 Q1008",
      "taf": "TAF LIPH 141700Z 1418/1518 14008KT 9999 FEW030"
    },
    {
      "icao": "LIPQ",
      "alert": "OK",
      "vis_m": 9999,
      "fzfg": false,
      "metar_trigger": false,
      "taf_trigger": false,
      "metar": "METAR LIPQ 141720Z 14008KT CAVOK 24/20 Q1009",
      "taf": "TAF LIPQ 141700Z 1418/1518 VRB05KT 9999 FEW060"
    },
    {
      "icao": "LIPR",
      "alert": "OK",
      "vis_m": 9999,
      "fzfg": false,
      "metar_trigger": false,
      "taf_trigger": false,
      "metar": "METAR LIPR 141720Z 26015KT CAVOK 31/10 Q1009",
      "taf": "TAF LIPR 141700Z 1418/1518 24012KT CAVOK"
    },
    {
      "icao": "LIPX",
      "alert": "OK",
      "vis_m": 9999,
      "fzfg": false,
      "metar_trigger": false,
      "taf_trigger": false,
      "metar": "METAR LIPX 141720Z 25006KT CAVOK 30/16 Q1008",
      "taf": "TAF LIPX 141700Z 1418/1518 26012KT CAVOK"
    },
    {
      "icao": "LIPY",
      "alert": "OK",
      "vis_m": 9999,
      "fzfg": false,
      "metar_trigger": false,
      "taf_trigger": false,
      "metar": "METAR LIPY 141720Z AUTO 23012KT 9999 NCD 31/10 Q1010",
      "taf": "TAF LIPY 141700Z 1418/1518 25013KT CAVOK"
    },
    {
      "icao": "LIPZ",
      "alert": "OK",
      "vis_m": 9999,
      "fzfg": false,
      "metar_trigger": false,
      "taf_trigger": false,
      "metar": "METAR LIPZ 141720Z 14008KT 110V170 CAVOK 24/20 Q1009 NOSIG",
      "taf": "TAF LIPZ 141700Z 1418/1524 15010KT 9999 FEW020"
    },
    {
      "icao": "LIRF",
      "alert": "OK",
      "vis_m": 9999,
      "fzfg": false,
      "metar_trigger": false,
      "taf_trigger": false,
      "metar": "METAR LIRF 141720Z 19007KT CAVOK 26/12 Q1014 NOSIG",
      "taf": "TAF LIRF 141700Z 1418/1524 17010KT CAVOK"
    },
    {
      "icao": "LIRN",
      "alert": "OK",
      "vis_m": 9999,
      "fzfg": false,
      "metar_trigger": false,
      "taf_trigger": false,
      "metar": "METAR LIRN 141720Z 19007KT CAVOK 24/19 Q1015 NOSIG",
      "taf": "TAF LIRN 141700Z 1418/1518 20010KT CAVOK"
    },
    {
      "icao": "LIRP",
      "alert": "OK",
      "vis_m": 9999,
      "fzfg": false,
      "metar_trigger": false,
      "taf_trigger": false,
      "metar": "METAR LIRP 141715Z 31009KT CAVOK 26/09 Q1013 NOSIG",
      "taf": "TAF LIRP 141700Z 1418/1518 29012KT CAVOK"
    },
    {
      "icao": "LIRZ",
      "alert": "OK",
      "vis_m": 9999,
      "fzfg": false,
      "metar_trigger": false,
      "taf_trigger": false,
      "metar": "METAR LIRZ 141720Z AUTO 20012KT 9999 NCD 28/09 Q1013",
      "taf": "TAF LIRZ 141700Z 1418/1518 22012KT CAVOK"
    },
    {
      "icao": "LJLJ",
      "alert": "OK",
      "vis_m": 9999,
      "fzfg": false,
      "metar_trigger": false,
      "taf_trigger": false,
      "metar": "METAR LJLJ 141700Z 18007KT 9999 FEW050 25/15 Q1009 NOSIG",
      "taf": "TAF LJLJ 141700Z 1418/1518 26005KT 9999 FEW050"
    },
    {
      "icao": "LKMT",
      "alert": "OK",
      "vis_m": 9999,
      "fzfg": false,
      "metar_trigger": false,
      "taf_trigger": false,
      "metar": "METAR LKMT 141700Z 25014KT CAVOK 17/06 Q1010 NOSIG",
      "taf": "TAF LKMT 141700Z 1418/1518 24008KT CAVOK"
    },
    {
      "icao": "LKPR",
      "alert": "OK",
      "vis_m": 9999,
      "fzfg": false,
      "metar_trigger": false,
      "taf_trigger": false,
      "metar": "METAR LKPR 141700Z 30015KT CAVOK 17/06 Q1012 NOSIG",
      "taf": "TAF LKPR 141700Z 1418/1524 27010KT CAVOK"
    },
    {
      "icao": "LLBG",
      "alert": "OK",
      "vis_m": 9999,
      "fzfg": false,
      "metar_trigger": false,
      "taf_trigger": false,
      "metar": "METAR LLBG 141720Z 32007KT 9999 SCT025 25/19 Q1010 NOSIG",
      "taf": "TAF LLBG 141701Z 1418/1518 32006KT 9999 SCT025 TX29/1511Z TN21/1503Z"
    },
    {
      "icao": "LMML",
      "alert": "OK",
      "vis_m": 9999,
      "fzfg": false,
      "metar_trigger": false,
      "taf_trigger": false,
      "metar": "METAR LMML 141715Z 22007KT CAVOK 24/19 Q1016 NOSIG",
      "taf": "TAF LMML 141700Z 1418/1518 22008KT 9999 FEW015"
    },
    {
      "icao": "LOWW",
      "alert": "OK",
      "vis_m": 9999,
      "fzfg": false,
      "metar_trigger": false,
      "taf_trigger": false,
      "metar": "METAR LOWW 141720Z 33012KT CAVOK 21/06 Q1011 NOSIG",
      "taf": "TAF LOWW 141715Z 1418/1524 29015KT 9999 FEW050 TX22/1514Z TN14/1503Z"
    },
    {
      "icao": "LPFR",
      "alert": "OK",
      "vis_m": 9999,
      "fzfg": false,
      "metar_trigger": false,
      "taf_trigger": false,
      "metar": "METAR LPFR 141700Z 22008KT 9999 FEW020 22/19 Q1016",
      "taf": "TAF LPFR 141700Z 1418/1518 21010KT 9999 SCT020"
    },
    {
      "icao": "LPMA",
      "alert": "OK",
      "vis_m": 9999,
      "fzfg": false,
      "metar_trigger": false,
      "taf_trigger": false,
      "metar": "METAR LPMA 141700Z VRB07KT 9999 FEW016 23/16 Q1021",
      "taf": "TAF LPMA 141700Z 1418/1518 34012KT 9999 FEW015"
    },
    {
      "icao": "LPPR",
      "alert": "OK",
      "vis_m": 900,
      "fzfg": false,
      "metar_trigger": false,
      "taf_trigger": false,
      "metar": "METAR LPPR 141700Z 28006KT 250V310 0900 R17/1000 FG OVC002 19/18 Q1016",
      "taf": "TAF LPPR 141700Z 1418/1518 28005KT 0400 FG VV001"
    },
    {
      "icao": "LPPS",
      "alert": "OK",
      "vis_m": 9999,
      "fzfg": false,
      "metar_trigger": false,
      "taf_trigger": false,
      "metar": "METAR LPPS 141700Z 34011KT 310V010 9999 FEW015 SCT030 23/15 Q1022",
      "taf": "TAF LPPS 141700Z 1418/1524 36012KT 9999 FEW015 BKN030"
    },
    {
      "icao": "LPPT",
      "alert": "OK",
      "vis_m": 9999,
      "fzfg": false,
      "metar_trigger": false,
      "taf_trigger": false,
      "metar": "METAR LPPT 141700Z 28009KT 240V310 9999 FEW018 23/15 Q1016",
      "taf": "TAF LPPT 141700Z 1418/1524 30010KT CAVOK"
    },
    {
      "icao": "LQBK",
      "alert": "OK",
      "vis_m": 9999,
      "fzfg": false,
      "metar_trigger": false,
      "taf_trigger": false,
      "metar": "METAR LQBK 141700Z 24009KT 200V280 CAVOK 29/08 Q1008 NOSIG",
      "taf": "TAF LQBK 141700Z 1418/1518 28006KT CAVOK TX27/1418Z TN15/1503Z"
    },
    {
      "icao": "LQSA",
      "alert": "OK",
      "vis_m": 9999,
      "fzfg": false,
      "metar_trigger": false,
      "taf_trigger": false,
      "metar": "METAR LQSA 141700Z 28009KT 230V320 CAVOK 26/07 Q1012 NOSIG",
      "taf": "TAF LQSA 141700Z 1418/1518 VRB02KT CAVOK TX26/1512Z TN13/1503Z"
    },
    {
      "icao": "LQTZ",
      "alert": "OK",
      "vis_m": 9999,
      "fzfg": false,
      "metar_trigger": false,
      "taf_trigger": false,
      "metar": "METAR LQTZ 141700Z 26008KT CAVOK 28/11 Q1009",
      "taf": "TAF LQTZ 141700Z 1418/1518 03005KT 9999 SCT040 TX26/1418Z TN15/1503Z"
    },
    {
      "icao": "LRBC",
      "alert": "OK",
      "vis_m": 9999,
      "fzfg": false,
      "metar_trigger": false,
      "taf_trigger": false,
      "metar": "METAR LRBC 141700Z 26010KT CAVOK 21/13 Q1008",
      "taf": ""
    },
    {
      "icao": "LRBS",
      "alert": "OK",
      "vis_m": 9999,
      "fzfg": false,
      "metar_trigger": false,
      "taf_trigger": false,
      "metar": "METAR LRBS 141700Z 29006KT 250V360 9999 FEW050CB 26/14 Q1010 NOSIG",
      "taf": "TAF LRBS 141100Z 1412/1512 27006KT CAVOK"
    },
    {
      "icao": "LRBV",
      "alert": "OK",
      "vis_m": 9999,
      "fzfg": false,
      "metar_trigger": false,
      "taf_trigger": false,
      "metar": "METAR LRBV 141700Z 30003KT 260V340 9999 SCT087 18/15 Q1012",
      "taf": ""
    },
    {
      "icao": "LRCL",
      "alert": "OK",
      "vis_m": 9999,
      "fzfg": false,
      "metar_trigger": false,
      "taf_trigger": false,
      "metar": "METAR LRCL 141700Z 27003KT 240V300 9999 SCT051 20/12 Q1010",
      "taf": ""
    },
    {
      "icao": "LRCV",
      "alert": "OK",
      "vis_m": 9999,
      "fzfg": false,
      "metar_trigger": false,
      "taf_trigger": false,
      "metar": "METAR LRCV 141700Z 22006KT CAVOK 27/14 Q1010",
      "taf": ""
    },
    {
      "icao": "LRIA",
      "alert": "OK",
      "vis_m": 9999,
      "fzfg": false,
      "metar_trigger": false,
      "taf_trigger": false,
      "metar": "METAR LRIA 141700Z 15005KT 120V200 CAVOK 21/13 Q1007",
      "taf": ""
    },
    {
      "icao": "LROP",
      "alert": "OK",
      "vis_m": 9999,
      "fzfg": false,
      "metar_trigger": false,
      "taf_trigger": false,
      "metar": "METAR LROP 141700Z 33012G31KT 290V360 9999 SCT050CB 24/14 Q1011 NOSIG",
      "taf": "TAF LROP 141100Z 1412/1512 27006KT CAVOK"
    },
    {
      "icao": "LRSB",
      "alert": "OK",
      "vis_m": 9999,
      "fzfg": false,
      "metar_trigger": false,
      "taf_trigger": false,
      "metar": "METAR LRSB 141700Z 19002KT 9999 SCT070 18/14 Q1011",
      "taf": "TAF LRSB 141100Z 1412/1512 31012KT 9999 SCT080"
    },
    {
      "icao": "LRSM",
      "alert": "OK",
      "vis_m": 9999,
      "fzfg": false,
      "metar_trigger": false,
      "taf_trigger": false,
      "metar": "METAR LRSM 141700Z AUTO 26010KT 9999 NCD 23/10 Q1007",
      "taf": ""
    },
    {
      "icao": "LRSV",
      "alert": "OK",
      "vis_m": 9999,
      "fzfg": false,
      "metar_trigger": false,
      "taf_trigger": false,
      "metar": "METAR LRSV 141700Z 20009KT 9999 FEW040CB 20/11 Q1007",
      "taf": ""
    },
    {
      "icao": "LRTM",
      "alert": "OK",
      "vis_m": 9999,
      "fzfg": false,
      "metar_trigger": false,
      "taf_trigger": false,
      "metar": "METAR LRTM 141700Z 33007G17KT 310V040 9999 -SHRA VCTS FEW018 SCT036CB 20/15 Q1011",
      "taf": ""
    },
    {
      "icao": "LRTR",
      "alert": "OK",
      "vis_m": 5000,
      "fzfg": false,
      "metar_trigger": false,
      "taf_trigger": false,
      "metar": "METAR LRTR 141700Z 29013KT 270V340 5000 SHRA FEW010 BKN045CB 18/18 Q1011 RESHRA",
      "taf": "TAF LRTR 141100Z 1412/1512 20010KT 9999 FEW040CB"
    },
    {
      "icao": "LTAC",
      "alert": "OK",
      "vis_m": 9999,
      "fzfg": false,
      "metar_trigger": false,
      "taf_trigger": false,
      "metar": "METAR LTAC 141720Z 06009KT 9999 SCT040 17/10 Q1014 NOSIG",
      "taf": "TAF LTAC 141640Z 1418/1518 VRB02KT 9999 SCT040"
    },
    {
      "icao": "LTFM",
      "alert": "OK",
      "vis_m": 9999,
      "fzfg": false,
      "metar_trigger": false,
      "taf_trigger": false,
      "metar": "METAR LTFM 141720Z 22008KT 200V260 CAVOK 23/11 Q1013 NOSIG",
      "taf": "TAF LTFM 141640Z 1418/1524 21008KT CAVOK"
    },
    {
      "icao": "LUKK",
      "alert": "OK",
      "vis_m": 9999,
      "fzfg": false,
      "metar_trigger": false,
      "taf_trigger": false,
      "metar": "METAR LUKK 141700Z 19003KT 160V220 CAVOK 20/13 Q1008 NOSIG",
      "taf": "TAF LUKK 141717Z 1418/1518 26009KT 9999 SCT040"
    },
    {
      "icao": "LWOH",
      "alert": "OK",
      "vis_m": 9999,
      "fzfg": false,
      "metar_trigger": false,
      "taf_trigger": false,
      "metar": "METAR LWOH 141720Z 12003KT 9999 FEW040 23/15 Q1016",
      "taf": ""
    },
    {
      "icao": "LWSK",
      "alert": "OK",
      "vis_m": 9999,
      "fzfg": false,
      "metar_trigger": false,
      "taf_trigger": false,
      "metar": "METAR LWSK 141720Z 16004KT 140V200 CAVOK 28/12 Q1011 NOSIG",
      "taf": ""
    },
    {
      "icao": "LYBE",
      "alert": "OK",
      "vis_m": 9999,
      "fzfg": false,
      "metar_trigger": false,
      "taf_trigger": false,
      "metar": "METAR LYBE 141700Z 33003KT 9999 SCT040TCU 27/17 Q1008 TEMPO 31015G30KT 3000 TSRA SCT035CB SCT040",
      "taf": "TAF LYBE 141700Z 1418/1518 01012KT 9999 SCT045 TX27/1418Z TN16/1503Z"
    },
    {
      "icao": "LYNI",
      "alert": "OK",
      "vis_m": 9999,
      "fzfg": false,
      "metar_trigger": false,
      "taf_trigger": false,
      "metar": "METAR LYNI 141700Z 13005KT 100V160 CAVOK 28/10 Q1010 NOSIG",
      "taf": "TAF LYNI 141700Z 1418/1518 17007KT CAVOK TX27/1513Z TN15/1504Z"
    },
    {
      "icao": "LYPG",
      "alert": "OK",
      "vis_m": 9999,
      "fzfg": false,
      "metar_trigger": false,
      "taf_trigger": false,
      "metar": "METAR LYPG 141700Z 14009KT 110V170 CAVOK 28/15 Q1012 NOSIG",
      "taf": "TAF LYPG 141700Z 1418/1518 VRB02KT CAVOK TX30/1514Z TN19/1503Z"
    },
    {
      "icao": "LZIB",
      "alert": "OK",
      "vis_m": 9999,
      "fzfg": false,
      "metar_trigger": false,
      "taf_trigger": false,
      "metar": "METAR LZIB 141700Z 32016KT CAVOK 22/04 Q1010 NOSIG",
      "taf": "TAF LZIB 141715Z 1418/1518 31012KT CAVOK"
    },
    {
      "icao": "LZKZ",
      "alert": "OK",
      "vis_m": 9999,
      "fzfg": false,
      "metar_trigger": false,
      "taf_trigger": false,
      "metar": "METAR LZKZ 141700Z 05008KT CAVOK 19/10 Q1008 NOSIG",
      "taf": "TAF LZKZ 141715Z 1418/1518 36008KT CAVOK"
    },
    {
      "icao": "LZTT",
      "alert": "OK",
      "vis_m": 9999,
      "fzfg": false,
      "metar_trigger": false,
      "taf_trigger": false,
      "metar": "METAR LZTT 141700Z 27017KT 9999 FEW066 15/04 Q1009 NOSIG",
      "taf": "TAF LZTT 141715Z 1418/1518 28014KT 9999 FEW060"
    },
    {
      "icao": "OEJN",
      "alert": "OK",
      "vis_m": 9999,
      "fzfg": false,
      "metar_trigger": false,
      "taf_trigger": false,
      "metar": "METAR OEJN 141700Z 35008KT CAVOK 33/18 Q1004 NOSIG",
      "taf": "TAF OEJN 141700Z 1418/1524 01005KT CAVOK"
    },
    {
      "icao": "OEMA",
      "alert": "OK",
      "vis_m": 9999,
      "fzfg": false,
      "metar_trigger": false,
      "taf_trigger": false,
      "metar": "METAR OEMA 141700Z 30004KT CAVOK 41/M07 Q1009 NOSIG",
      "taf": "TAF OEMA 141700Z 1418/1524 VRB03KT CAVOK"
    },
    {
      "icao": "OJAI",
      "alert": "OK",
      "vis_m": 4000,
      "fzfg": false,
      "metar_trigger": false,
      "taf_trigger": false,
      "metar": "METAR OJAI 141700Z 27007KT 4000 DU NSC 24/09 Q1013 NOSIG",
      "taf": "TAF OJAI 141700Z 1418/1524 31012KT 5000 HZ NSC"
    },
    {
      "icao": "OMAA",
      "alert": "OK",
      "vis_m": 9999,
      "fzfg": false,
      "metar_trigger": false,
      "taf_trigger": false,
      "metar": "METAR OMAA 141700Z 01009KT CAVOK 32/25 Q1001 NOSIG",
      "taf": "TAF OMAA 141700Z 1418/1600 02007KT 8000 NSC"
    },
    {
      "icao": "OMDB",
      "alert": "OK",
      "vis_m": 8000,
      "fzfg": false,
      "metar_trigger": false,
      "taf_trigger": false,
      "metar": "METAR OMDB 141700Z 34004KT 310V060 8000 NSC 33/26 Q1001 NOSIG",
      "taf": "TAF OMDB 141700Z 1418/1600 VRB02KT 8000 NSC"
    },
    {
      "icao": "UAAA",
      "alert": "OK",
      "vis_m": 9999,
      "fzfg": false,
      "metar_trigger": false,
      "taf_trigger": false,
      "metar": "METAR UAAA 141700Z 19002MPS 9999 SCT050CB BKN100 23/12 Q1007 NOSIG",
      "taf": "TAF UAAA 141702Z 1418/1518 18002G07MPS 9999 SCT050CB BKN100 TX35/1509Z TN20/1500Z"
    },
    {
      "icao": "UBBB",
      "alert": "OK",
      "vis_m": 9999,
      "fzfg": false,
      "metar_trigger": false,
      "taf_trigger": false,
      "metar": "METAR UBBB 141700Z 18008KT 9999 -SHRA SCT060CB 25/18 Q1004 TEMPO TS RMK OBS TS SW 20KM MOV NE 20KMH INTSF",
      "taf": "TAF UBBB 141716Z 1418/1518 31010KT 9999 FEW050CB TX25/1510Z TN19/1500Z"
    },
    {
      "icao": "UDSG",
      "alert": "OK",
      "vis_m": 9999,
      "fzfg": false,
      "metar_trigger": false,
      "taf_trigger": false,
      "metar": "METAR UDSG 141700Z 34005KT 9999 FEW049CB 11/10 Q1014 NOSIG",
      "taf": "TAF UDSG 141700Z 1418/1518 03006KT 9999 SCT040"
    },
    {
      "icao": "UDYZ",
      "alert": "OK",
      "vis_m": 9999,
      "fzfg": false,
      "metar_trigger": false,
      "taf_trigger": false,
      "metar": "METAR UDYZ 141700Z VRB02KT 9999 SCT043CB 20/13 Q1010 NOSIG",
      "taf": "TAF UDYZ 141700Z 1418/1518 04006KT 9999 SCT040"
    },
    {
      "icao": "UGKO",
      "alert": "OK",
      "vis_m": 9999,
      "fzfg": false,
      "metar_trigger": false,
      "taf_trigger": false,
      "metar": "METAR UGKO 141700Z 25012KT 9999 SCT029CB BKN052 21/16 Q1010 NOSIG",
      "taf": "TAF UGKO 141700Z 1418/1518 26010KT 9999 BKN050 TX24/1511Z TN17/1501Z"
    }
  ]
}