{
  "ts_utc": "2026-03-25T08:29:04Z",
  "threshold_m": 150,
  "source": "stations_override.txt (ICAO list) + aviationweather.gov (METAR/TAF raw)",
  "station_count": 159,
  "stations": [
    {
      "icao": "BIKF",
      "alert": "OK",
      "vis_m": 9999,
      "fzfg": false,
      "metar_trigger": false,
      "taf_trigger": false,
      "metar": "METAR BIKF 250800Z 03008KT CAVOK M04/M11 Q1012",
      "taf": "TAF BIKF 250801Z 2509/2609 03008KT CAVOK TX01/2609Z TNM06/2509Z"
    },
    {
      "icao": "BKPR",
      "alert": "OK",
      "vis_m": null,
      "fzfg": false,
      "metar_trigger": false,
      "taf_trigger": false,
      "metar": "",
      "taf": "TAF BKPR 250530Z 2506/2606 22008KT 9999 SCT050"
    },
    {
      "icao": "EBCI",
      "alert": "OK",
      "vis_m": 9999,
      "fzfg": false,
      "metar_trigger": false,
      "taf_trigger": false,
      "metar": "METAR EBCI 250820Z 25008KT 9999 FEW009 SCT020 BKN048 05/02 Q1004 TEMPO 25015G25KT 4000 SHRA BKN009",
      "taf": "TAF EBCI 250507Z 2506/2612 23015G28KT 9999 SCT025"
    },
    {
      "icao": "EDDB",
      "alert": "OK",
      "vis_m": 9999,
      "fzfg": false,
      "metar_trigger": false,
      "taf_trigger": false,
      "metar": "METAR EDDB 250820Z AUTO 23019KT CAVOK 13/03 Q0996 TEMPO 23020G30KT",
      "taf": "TAF EDDB 250500Z 2506/2606 21013KT CAVOK"
    },
    {
      "icao": "EDDH",
      "alert": "OK",
      "vis_m": 9999,
      "fzfg": false,
      "metar_trigger": false,
      "taf_trigger": false,
      "metar": "METAR EDDH 250820Z AUTO 24025G35KT 9999 -RA BKN027 BKN034 08/03 Q0990 TEMPO SHRA BKN015CB",
      "taf": "TAF EDDH 250500Z 2506/2612 23020G35KT 9999 BKN030"
    },
    {
      "icao": "EDDK",
      "alert": "OK",
      "vis_m": 9999,
      "fzfg": false,
      "metar_trigger": false,
      "taf_trigger": false,
      "metar": "METAR EDDK 250820Z AUTO 25011KT 9999 FEW022 BKN031 BKN046 08/04 Q1002 TEMPO 27015G25KT",
      "taf": "TAF EDDK 250500Z 2506/2612 24015G25KT 9999 BKN035"
    },
    {
      "icao": "EDDN",
      "alert": "OK",
      "vis_m": 9999,
      "fzfg": false,
      "metar_trigger": false,
      "taf_trigger": false,
      "metar": "METAR EDDN 250820Z AUTO 19013KT CAVOK 10/02 Q1003 BECMG 25015KT",
      "taf": "TAF EDDN 250500Z 2506/2606 17008KT CAVOK"
    },
    {
      "icao": "EDDS",
      "alert": "OK",
      "vis_m": 9999,
      "fzfg": false,
      "metar_trigger": false,
      "taf_trigger": false,
      "metar": "METAR EDDS 250820Z AUTO 24017G29KT 160V280 CAVOK 12/01 Q1004 NOSIG",
      "taf": "TAF EDDS 250500Z 2506/2606 22006KT CAVOK"
    },
    {
      "icao": "EDFH",
      "alert": "OK",
      "vis_m": 9999,
      "fzfg": false,
      "metar_trigger": false,
      "taf_trigger": false,
      "metar": "METAR EDFH 250820Z 26014KT 9999 R21/P2000N -RA FEW002 BKN012 OVC015 04/02 Q1003",
      "taf": ""
    },
    {
      "icao": "EDJA",
      "alert": "OK",
      "vis_m": 9999,
      "fzfg": false,
      "metar_trigger": false,
      "taf_trigger": false,
      "metar": "METAR EDJA 250820Z 24018G32KT CAVOK 10/M00 Q1007",
      "taf": "TAF EDJA 250800Z 2509/2518 24020G35KT CAVOK"
    },
    {
      "icao": "EDLW",
      "alert": "OK",
      "vis_m": 9999,
      "fzfg": false,
      "metar_trigger": false,
      "taf_trigger": false,
      "metar": "METAR EDLW 250820Z 24016G26KT 220V280 9999 BKN039 09/01 Q0999",
      "taf": "TAF EDLW 250500Z 2506/2606 24015G25KT 9999 BKN025"
    },
    {
      "icao": "EDNY",
      "alert": "OK",
      "vis_m": 9999,
      "fzfg": false,
      "metar_trigger": false,
      "taf_trigger": false,
      "metar": "METAR EDNY 250820Z 23015G25KT 210V270 CAVOK 12/02 Q1008",
      "taf": "TAF EDNY 250800Z 2509/2518 22015G25KT CAVOK"
    },
    {
      "icao": "EDSB",
      "alert": "OK",
      "vis_m": 9000,
      "fzfg": false,
      "metar_trigger": false,
      "taf_trigger": false,
      "metar": "METAR EDSB 250820Z 23012G22KT 9000 -RA OVC042 10/04 Q1006",
      "taf": "TAF EDSB 250500Z 2506/2606 21015G25KT CAVOK"
    },
    {
      "icao": "EETN",
      "alert": "OK",
      "vis_m": 6000,
      "fzfg": false,
      "metar_trigger": false,
      "taf_trigger": false,
      "metar": "METAR EETN 250820Z 20016KT 6000 SCT009 OVC011 06/05 Q0994 TEMPO 20018G30KT",
      "taf": "TAF EETN 250530Z 2506/2606 19014KT 9999 BKN020 OVC030"
    },
    {
      "icao": "EFTU",
      "alert": "OK",
      "vis_m": 3100,
      "fzfg": false,
      "metar_trigger": false,
      "taf_trigger": false,
      "metar": "METAR EFTU 250820Z AUTO 18011KT 3100 DZRA OVC002 04/03 Q0988",
      "taf": ""
    },
    {
      "icao": "EGBB",
      "alert": "OK",
      "vis_m": 9999,
      "fzfg": false,
      "metar_trigger": false,
      "taf_trigger": false,
      "metar": "METAR EGBB 250820Z 30014KT 9999 SCT017 BKN034 04/01 Q1008",
      "taf": ""
    },
    {
      "icao": "EGGP",
      "alert": "OK",
      "vis_m": 9999,
      "fzfg": false,
      "metar_trigger": false,
      "taf_trigger": false,
      "metar": "METAR EGGP 250820Z 29025G35KT 9999 FEW033 SCT039 06/M01 Q1008",
      "taf": "TAF EGGP 250503Z 2506/2606 30015G25KT 9999 SCT020"
    },
    {
      "icao": "EGGW",
      "alert": "OK",
      "vis_m": 9000,
      "fzfg": false,
      "metar_trigger": false,
      "taf_trigger": false,
      "metar": "METAR EGGW 250820Z AUTO 29017KT 9000 -RA BKN017/// //////TCU 05/02 Q1006",
      "taf": "TAF EGGW 250501Z 2506/2606 29015KT 9999 SCT025"
    },
    {
      "icao": "EGKK",
      "alert": "OK",
      "vis_m": 9999,
      "fzfg": false,
      "metar_trigger": false,
      "taf_trigger": false,
      "metar": "METAR EGKK 250820Z 30015KT 9999 SCT022 BKN029 07/03 Q1007",
      "taf": "TAF EGKK 250454Z 2506/2612 27015KT 9999 FEW040"
    },
    {
      "icao": "EGNM",
      "alert": "OK",
      "vis_m": 9999,
      "fzfg": false,
      "metar_trigger": false,
      "taf_trigger": false,
      "metar": "METAR EGNM 250820Z 28015G28KT 9999 SCT014 04/M01 Q1003",
      "taf": "TAF EGNM 250500Z 2506/2606 28015G25KT 9999 SCT025"
    },
    {
      "icao": "EGPD",
      "alert": "OK",
      "vis_m": 9999,
      "fzfg": false,
      "metar_trigger": false,
      "taf_trigger": false,
      "metar": "METAR EGPD 250820Z AUTO 29019G32KT 9999 BKN022/// BKN028/// //////TCU 04/M00 Q0997 NOSIG",
      "taf": "TAF EGPD 250458Z 2506/2606 29015KT 9999 FEW040"
    },
    {
      "icao": "EGPF",
      "alert": "OK",
      "vis_m": 9999,
      "fzfg": false,
      "metar_trigger": false,
      "taf_trigger": false,
      "metar": "METAR EGPF 250820Z AUTO 27012KT 9999 BKN026 BKN034 05/02 Q1003",
      "taf": ""
    },
    {
      "icao": "EHBK",
      "alert": "OK",
      "vis_m": 9999,
      "fzfg": false,
      "metar_trigger": false,
      "taf_trigger": false,
      "metar": "METAR EHBK 250825Z AUTO 25011KT 210V310 9999 FEW028/// SCT031/// OVC037/// 08/03 Q1002 TEMPO 6000 SHRA FEW020CB",
      "taf": "TAF EHBK 250528Z 2506/2612 25016G26KT CAVOK"
    },
    {
      "icao": "EHEH",
      "alert": "OK",
      "vis_m": 9999,
      "fzfg": false,
      "metar_trigger": false,
      "taf_trigger": false,
      "metar": "METAR EHEH 250755Z AUTO 26010KT 220V310 9999 +DZ FEW016 BKN022 BKN026 07/05 Q1001 WHT TEMPO 4000 SHRA SHRAGS SCT018CB",
      "taf": "TAF EHEH 250559Z 2506/2612 22012G22KT CAVOK FEW030 BKN045"
    },
    {
      "icao": "EKBI",
      "alert": "OK",
      "vis_m": 9999,
      "fzfg": false,
      "metar_trigger": false,
      "taf_trigger": false,
      "metar": "METAR EKBI 250820Z 28014KT 9999 -SHRA BKN010 FEW020CB 04/03 Q0984",
      "taf": ""
    },
    {
      "icao": "EKCH",
      "alert": "OK",
      "vis_m": 9999,
      "fzfg": false,
      "metar_trigger": false,
      "taf_trigger": false,
      "metar": "METAR EKCH 250820Z AUTO 20015KT 9999 FEW021/// OVC055/// 07/05 Q0986 TEMPO 20018G30KT 4000 RA BKN014",
      "taf": "TAF EKCH 250527Z 2506/2606 20018KT 9999 BKN025"
    },
    {
      "icao": "ENAL",
      "alert": "OK",
      "vis_m": 9999,
      "fzfg": false,
      "metar_trigger": false,
      "taf_trigger": false,
      "metar": "METAR ENAL 250820Z 20011KT 170V240 9999 SCT054 05/00 Q0975",
      "taf": "TAF ENAL 250500Z 2506/2515 21015KT 9999 SCT020 BKN030"
    },
    {
      "icao": "ENBR",
      "alert": "OK",
      "vis_m": 9999,
      "fzfg": false,
      "metar_trigger": false,
      "taf_trigger": false,
      "metar": "METAR ENBR 250820Z 20004KT 170V240 9999 VCSH SCT017 BKN028 04/02 Q0980 TEMPO SHRA BKN012 SCT020CB RMK WIND 1200FT 27013KT",
      "taf": "TAF ENBR 250500Z 2506/2606 22008KT 9999 -SHRA FEW008 BKN025"
    },
    {
      "icao": "ENGM",
      "alert": "OK",
      "vis_m": 9999,
      "fzfg": false,
      "metar_trigger": false,
      "taf_trigger": false,
      "metar": "METAR ENGM 250820Z 01007KT 9999 -RASN FEW005 BKN025 02/01 Q0976 TEMPO BKN008",
      "taf": ""
    },
    {
      "icao": "ENHD",
      "alert": "OK",
      "vis_m": 9999,
      "fzfg": false,
      "metar_trigger": false,
      "taf_trigger": false,
      "metar": "METAR ENHD 250820Z 29016KT 9999 -SHRA FEW016 SCT020CB BKN026 05/02 Q0982 RERA",
      "taf": "TAF ENHD 250500Z 2506/2515 29015KT 9999 SCT020"
    },
    {
      "icao": "ENTC",
      "alert": "OK",
      "vis_m": 9999,
      "fzfg": false,
      "metar_trigger": false,
      "taf_trigger": false,
      "metar": "METAR ENTC 250820Z VRB01KT 9999 SCT065 00/M05 Q0980 NOSIG RMK WIND 2600FT 13009KT",
      "taf": "TAF ENTC 250500Z 2506/2606 04008KT CAVOK"
    },
    {
      "icao": "ENTO",
      "alert": "OK",
      "vis_m": 9999,
      "fzfg": false,
      "metar_trigger": false,
      "taf_trigger": false,
      "metar": "METAR ENTO 250820Z 35011KT 9999 -RA SCT007 SCT021 03/03 Q0976 TEMPO BKN007",
      "taf": ""
    },
    {
      "icao": "ENVA",
      "alert": "OK",
      "vis_m": 9999,
      "fzfg": false,
      "metar_trigger": false,
      "taf_trigger": false,
      "metar": "METAR ENVA 250820Z 13007KT CAVOK 07/M04 Q0976 NOSIG RMK WIND 670FT 16013KT",
      "taf": "TAF ENVA 250500Z 2506/2606 13008KT 9999 SCT055"
    },
    {
      "icao": "ENZV",
      "alert": "OK",
      "vis_m": 9999,
      "fzfg": false,
      "metar_trigger": false,
      "taf_trigger": false,
      "metar": "METAR ENZV 250820Z 30016KT 9999 VCSH FEW017 SCT023CB BKN028 06/02 Q0983 TEMPO 33020G30KT SHRA",
      "taf": "TAF ENZV 250500Z 2506/2606 29012KT 9999 FEW008 BKN020"
    },
    {
      "icao": "EPGD",
      "alert": "OK",
      "vis_m": 9999,
      "fzfg": false,
      "metar_trigger": false,
      "taf_trigger": false,
      "metar": "METAR EPGD 250800Z 20015KT 170V230 CAVOK 11/01 Q0996",
      "taf": "TAF EPGD 250530Z 2506/2606 19008KT CAVOK"
    },
    {
      "icao": "EPKK",
      "alert": "OK",
      "vis_m": 9999,
      "fzfg": false,
      "metar_trigger": false,
      "taf_trigger": false,
      "metar": "METAR EPKK 250800Z VRB01KT CAVOK 11/00 Q1007",
      "taf": "TAF EPKK 250530Z 2506/2606 VRB02KT CAVOK"
    },
    {
      "icao": "EPKT",
      "alert": "OK",
      "vis_m": 9999,
      "fzfg": false,
      "metar_trigger": false,
      "taf_trigger": false,
      "metar": "METAR EPKT 250800Z 20012KT CAVOK 11/M00 Q1006",
      "taf": "TAF EPKT 250530Z 2506/2606 20010KT CAVOK"
    },
    {
      "icao": "EPLB",
      "alert": "OK",
      "vis_m": 9999,
      "fzfg": false,
      "metar_trigger": false,
      "taf_trigger": false,
      "metar": "METAR EPLB 250800Z 21011KT CAVOK 11/01 Q1009",
      "taf": "TAF EPLB 250530Z 2506/2606 VRB02KT CAVOK"
    },
    {
      "icao": "EPMO",
      "alert": "OK",
      "vis_m": 9999,
      "fzfg": false,
      "metar_trigger": false,
      "taf_trigger": false,
      "metar": "METAR EPMO 250800Z 18010KT CAVOK 12/01 Q1004",
      "taf": "TAF EPMO 250530Z 2506/2606 18008KT CAVOK"
    },
    {
      "icao": "EPPO",
      "alert": "OK",
      "vis_m": 9999,
      "fzfg": false,
      "metar_trigger": false,
      "taf_trigger": false,
      "metar": "METAR EPPO 250800Z 19015KT CAVOK 13/01 Q0999",
      "taf": "TAF EPPO 250530Z 2506/2606 20012KT CAVOK"
    },
    {
      "icao": "EPRA",
      "alert": "OK",
      "vis_m": 9999,
      "fzfg": false,
      "metar_trigger": false,
      "taf_trigger": false,
      "metar": "METAR EPRA 250800Z 19012KT 160V220 CAVOK 12/M01 Q1006",
      "taf": "TAF EPRA 250530Z 2506/2515 18012KT CAVOK"
    },
    {
      "icao": "EPRZ",
      "alert": "OK",
      "vis_m": 9999,
      "fzfg": false,
      "metar_trigger": false,
      "taf_trigger": false,
      "metar": "METAR EPRZ 250800Z 18005KT CAVOK 11/M01 Q1009",
      "taf": "TAF EPRZ 250530Z 2506/2606 VRB02KT CAVOK"
    },
    {
      "icao": "EPSC",
      "alert": "OK",
      "vis_m": 9999,
      "fzfg": false,
      "metar_trigger": false,
      "taf_trigger": false,
      "metar": "METAR EPSC 250800Z 19013KT 160V230 CAVOK 12/01 Q0993",
      "taf": "TAF EPSC 250530Z 2506/2606 18008KT CAVOK"
    },
    {
      "icao": "EPSY",
      "alert": "OK",
      "vis_m": 9999,
      "fzfg": false,
      "metar_trigger": false,
      "taf_trigger": false,
      "metar": "METAR EPSY 250800Z 18012KT CAVOK 10/01 Q1002",
      "taf": "TAF EPSY 250530Z 2506/2515 18010KT CAVOK"
    },
    {
      "icao": "EPWA",
      "alert": "OK",
      "vis_m": 9999,
      "fzfg": false,
      "metar_trigger": false,
      "taf_trigger": false,
      "metar": "METAR EPWA 250800Z 17010KT CAVOK 11/M00 Q1005 NOSIG",
      "taf": "TAF EPWA 250530Z 2506/2606 15005KT CAVOK"
    },
    {
      "icao": "EPWR",
      "alert": "OK",
      "vis_m": 9999,
      "fzfg": false,
      "metar_trigger": false,
      "taf_trigger": false,
      "metar": "METAR EPWR 250800Z 18009KT 150V220 CAVOK 13/00 Q1002",
      "taf": "TAF EPWR 250530Z 2506/2606 18012KT CAVOK"
    },
    {
      "icao": "ESGG",
      "alert": "OK",
      "vis_m": 8000,
      "fzfg": false,
      "metar_trigger": false,
      "taf_trigger": false,
      "metar": "METAR ESGG 250820Z 20020KT 8000 BKN004 06/05 Q0978",
      "taf": "TAF ESGG 250530Z 2506/2606 19020G33KT 5000 -DZ BR OVC003"
    },
    {
      "icao": "ESKN",
      "alert": "OK",
      "vis_m": 6000,
      "fzfg": false,
      "metar_trigger": false,
      "taf_trigger": false,
      "metar": "METAR ESKN 250820Z 15012KT 6000 -RA BKN048 06/04 Q0983",
      "taf": "TAF ESKN 250530Z 2506/2606 19009KT 8000 SCT006 BKN020"
    },
    {
      "icao": "ESMS",
      "alert": "OK",
      "vis_m": 9999,
      "fzfg": false,
      "metar_trigger": false,
      "taf_trigger": false,
      "metar": "METAR ESMS 250820Z 22023KT 9999 SCT028 OVC041 06/05 Q0986",
      "taf": "TAF ESMS 250527Z 2506/2606 20015KT 9999 BKN020"
    },
    {
      "icao": "ESSA",
      "alert": "OK",
      "vis_m": 7000,
      "fzfg": false,
      "metar_trigger": false,
      "taf_trigger": false,
      "metar": "METAR ESSA 250820Z 17016KT 7000 SCT027 BKN034 07/05 Q0983 TEMPO BKN010",
      "taf": "TAF ESSA 250530Z 2506/2606 21012KT 9999 BKN020"
    },
    {
      "icao": "EYKA",
      "alert": "OK",
      "vis_m": 9999,
      "fzfg": false,
      "metar_trigger": false,
      "taf_trigger": false,
      "metar": "METAR EYKA 250820Z 21008KT 170V250 CAVOK 11/01 Q1003",
      "taf": "TAF EYKA 250500Z 2506/2606 19012KT 9000 NSC"
    },
    {
      "icao": "EYPA",
      "alert": "OK",
      "vis_m": 9999,
      "fzfg": false,
      "metar_trigger": false,
      "taf_trigger": false,
      "metar": "METAR EYPA 250820Z 18020G31KT CAVOK 13/02 Q0996",
      "taf": "TAF EYPA 250500Z 2506/2606 18015G25KT 9000 SCT045"
    },
    {
      "icao": "EYVI",
      "alert": "OK",
      "vis_m": 9999,
      "fzfg": false,
      "metar_trigger": false,
      "taf_trigger": false,
      "metar": "METAR EYVI 250820Z 20014KT CAVOK 13/01 Q1004 NOSIG",
      "taf": "TAF EYVI 250500Z 2506/2606 19013KT 8000 SCT045"
    },
    {
      "icao": "GCFV",
      "alert": "OK",
      "vis_m": 9999,
      "fzfg": false,
      "metar_trigger": false,
      "taf_trigger": false,
      "metar": "METAR GCFV 250800Z 30004KT 260V340 9999 FEW018 19/15 Q1013",
      "taf": "TAF GCFV 250800Z 2509/2609 36013KT 9999 FEW040 TX24/2514Z TN16/2606Z"
    },
    {
      "icao": "GCLP",
      "alert": "OK",
      "vis_m": 9999,
      "fzfg": false,
      "metar_trigger": false,
      "taf_trigger": false,
      "metar": "METAR GCLP 250800Z 35011KT 300V010 9999 SCT018 18/14 Q1013 NOSIG",
      "taf": "TAF GCLP 250800Z 2509/2609 36015KT 9999 FEW040 TX22/2514Z TN16/2606Z"
    },
    {
      "icao": "GCTS",
      "alert": "OK",
      "vis_m": 9999,
      "fzfg": false,
      "metar_trigger": false,
      "taf_trigger": false,
      "metar": "METAR GCTS 250800Z 06015KT 9999 VCTS FEW030CB BKN070 18/12 Q1013 NOSIG",
      "taf": "TAF GCTS 250800Z 2509/2609 07014KT 9999 FEW040 TX22/2514Z TN15/2606Z"
    },
    {
      "icao": "GMAD",
      "alert": "OK",
      "vis_m": 9999,
      "fzfg": false,
      "metar_trigger": false,
      "taf_trigger": false,
      "metar": "METAR GMAD 250800Z 07007KT 9999 SCT023 18/13 Q1011 NOSIG",
      "taf": "TAF GMAD 250500Z 2506/2612 25007KT 9999 FEW023"
    },
    {
      "icao": "GMMN",
      "alert": "OK",
      "vis_m": 9999,
      "fzfg": false,
      "metar_trigger": false,
      "taf_trigger": false,
      "metar": "METAR GMMN 250800Z 21004KT CAVOK 13/11 Q1014 NOSIG",
      "taf": "TAF GMMN 250500Z 2506/2612 08005KT CAVOK"
    },
    {
      "icao": "GMMX",
      "alert": "OK",
      "vis_m": 8000,
      "fzfg": false,
      "metar_trigger": false,
      "taf_trigger": false,
      "metar": "METAR GMMX 250800Z VRB01KT 8000 FEW020 SCT080 17/13 Q1014 NOSIG",
      "taf": "TAF GMMX 250500Z 2506/2612 06006KT 8000 SCT020 SCT080"
    },
    {
      "icao": "HEGN",
      "alert": "OK",
      "vis_m": 9999,
      "fzfg": false,
      "metar_trigger": false,
      "taf_trigger": false,
      "metar": "METAR HEGN 250800Z 28005KT 9999 SCT020 BKN025 23/06 Q1002 NOSIG",
      "taf": "TAF HEGN 250500Z 2506/2612 31018G28KT 6000 SCT025"
    },
    {
      "icao": "HEMA",
      "alert": "OK",
      "vis_m": 9999,
      "fzfg": false,
      "metar_trigger": false,
      "taf_trigger": false,
      "metar": "METAR HEMA 250800Z 02008KT CAVOK 24/13 Q1002 NOSIG",
      "taf": "TAF HEMA 250500Z 2506/2612 32018G28KT 6000 SCT025"
    },
    {
      "icao": "HESH",
      "alert": "OK",
      "vis_m": 9999,
      "fzfg": false,
      "metar_trigger": false,
      "taf_trigger": false,
      "metar": "METAR HESH 250800Z 16008KT CAVOK 23/11 Q1001 NOSIG",
      "taf": "TAF HESH 250500Z 2506/2612 27015G25KT 6000 SCT025"
    },
    {
      "icao": "HESX",
      "alert": "OK",
      "vis_m": 9999,
      "fzfg": false,
      "metar_trigger": false,
      "taf_trigger": false,
      "metar": "METAR HESX 250800Z 27005KT 9999 SCT020 BKN100 12/10 Q1001 NOSIG",
      "taf": "TAF HESX 250500Z 2506/2612 13007KT 9999 SCT020 BKN100"
    },
    {
      "icao": "LATI",
      "alert": "OK",
      "vis_m": 9999,
      "fzfg": false,
      "metar_trigger": false,
      "taf_trigger": false,
      "metar": "METAR LATI 250820Z 00000KT CAVOK 15/00 Q1012 NOSIG",
      "taf": "TAF LATI 250500Z 2506/2606 VRB03KT CAVOK TX22/2512Z TN05/2601Z"
    },
    {
      "icao": "LBPD",
      "alert": "OK",
      "vis_m": 9999,
      "fzfg": false,
      "metar_trigger": false,
      "taf_trigger": false,
      "metar": "METAR LBPD 250800Z AUTO 30011KT 9999 FEW082/// 14/04 Q1012 NOSIG",
      "taf": "TAF LBPD 250500Z 2506/2606 VRB03KT 9999 BKN050"
    },
    {
      "icao": "LBSF",
      "alert": "OK",
      "vis_m": 9999,
      "fzfg": false,
      "metar_trigger": false,
      "taf_trigger": false,
      "metar": "METAR LBSF 250800Z VRB02KT CAVOK 09/02 Q1013 NOSIG",
      "taf": "TAF LBSF 250500Z 2506/2606 VRB03KT 9999 SCT030 SCT060"
    },
    {
      "icao": "LBWN",
      "alert": "OK",
      "vis_m": 9999,
      "fzfg": false,
      "metar_trigger": false,
      "taf_trigger": false,
      "metar": "METAR LBWN 250800Z VRB09KT CAVOK 14/M01 Q1011 NOSIG",
      "taf": "TAF LBWN 250500Z 2506/2606 35010KT CAVOK"
    },
    {
      "icao": "LCLK",
      "alert": "OK",
      "vis_m": 8000,
      "fzfg": false,
      "metar_trigger": false,
      "taf_trigger": false,
      "metar": "METAR LCLK 250800Z 16006KT 110V220 8000 -SHRA FEW018 FEW020CB BKN060 16/11 Q1001 TEMPO 5000 TSRA SCT020CB RMK CB TO S SW",
      "taf": "TAF LCLK 250530Z 2506/2606 32006KT 9999 FEW018 SCT050"
    },
    {
      "icao": "LCPH",
      "alert": "OK",
      "vis_m": 9999,
      "fzfg": false,
      "metar_trigger": false,
      "taf_trigger": false,
      "metar": "METAR LCPH 250800Z 16005KT 090V170 9999 FEW025 FEW030TCU 17/10 Q1000 NOSIG",
      "taf": "TAF LCPH 250530Z 2506/2606 08007KT 9999 FEW020 SCT040"
    },
    {
      "icao": "LEAL",
      "alert": "OK",
      "vis_m": 9999,
      "fzfg": false,
      "metar_trigger": false,
      "taf_trigger": false,
      "metar": "METAR LEAL 250800Z 23006KT 200V260 CAVOK 13/06 Q1020 NOSIG",
      "taf": "TAF LEAL 250500Z 2506/2606 28006KT CAVOK TX20/2512Z TN07/2506Z"
    },
    {
      "icao": "LEBB",
      "alert": "OK",
      "vis_m": 9000,
      "fzfg": false,
      "metar_trigger": false,
      "taf_trigger": false,
      "metar": "METAR LEBB 250800Z 29008KT 9000 FEW021 SCT042 13/10 Q1024 NOSIG",
      "taf": "TAF LEBB 250500Z 2506/2606 29009KT 9999 FEW030 TX13/2509Z TN07/2606Z"
    },
    {
      "icao": "LEBL",
      "alert": "OK",
      "vis_m": 9999,
      "fzfg": false,
      "metar_trigger": false,
      "taf_trigger": false,
      "metar": "METAR LEBL 250800Z 31004KT 280V340 CAVOK 12/09 Q1018 NOSIG",
      "taf": ""
    },
    {
      "icao": "LECH",
      "alert": "OK",
      "vis_m": 9000,
      "fzfg": false,
      "metar_trigger": false,
      "taf_trigger": false,
      "metar": "METAR LECH 250800Z AUTO VRB02KT 9000 NCD 10/04 Q1019",
      "taf": "TAF LECH 250500Z 2506/2606 VRB03KT CAVOK TX22/2513Z TN04/2506Z"
    },
    {
      "icao": "LEMD",
      "alert": "OK",
      "vis_m": 9999,
      "fzfg": false,
      "metar_trigger": false,
      "taf_trigger": false,
      "metar": "METAR LEMD 250800Z 27002KT CAVOK 07/03 Q1021 NOSIG",
      "taf": "TAF LEMD 250500Z 2506/2612 VRB04KT CAVOK TX23/2516Z TN04/2507Z"
    },
    {
      "icao": "LEMG",
      "alert": "OK",
      "vis_m": 9999,
      "fzfg": false,
      "metar_trigger": false,
      "taf_trigger": false,
      "metar": "METAR LEMG 250800Z 29006KT 9999 FEW019 12/09 Q1022 NOSIG",
      "taf": "TAF LEMG 250500Z 2506/2606 29006KT 9999 SCT025 TX18/2513Z TN09/2506Z"
    },
    {
      "icao": "LEVC",
      "alert": "OK",
      "vis_m": 9999,
      "fzfg": false,
      "metar_trigger": false,
      "taf_trigger": false,
      "metar": "METAR LEVC 250800Z 28005KT 250V310 CAVOK 12/06 Q1019 NOSIG",
      "taf": "TAF LEVC 250500Z 2506/2606 27004KT CAVOK TX24/2513Z TN06/2506Z"
    },
    {
      "icao": "LEXJ",
      "alert": "OK",
      "vis_m": 8000,
      "fzfg": false,
      "metar_trigger": false,
      "taf_trigger": false,
      "metar": "METAR LEXJ 250800Z 29012KT 260V320 8000 FEW022 BKN047 13/09 Q1025",
      "taf": "TAF LEXJ 250800Z 2509/2609 29009KT 8000 FEW010 BKN025 TX12/2512Z TN09/2607Z"
    },
    {
      "icao": "LEZG",
      "alert": "OK",
      "vis_m": 9999,
      "fzfg": false,
      "metar_trigger": false,
      "taf_trigger": false,
      "metar": "METAR LEZG 250800Z 29007KT 260V320 CAVOK 12/05 Q1021 NOSIG",
      "taf": "TAF LEZG 250500Z 2506/2606 27010KT 9999 FEW030 TX21/2514Z TN06/2506Z"
    },
    {
      "icao": "LEZL",
      "alert": "OK",
      "vis_m": 9999,
      "fzfg": false,
      "metar_trigger": false,
      "taf_trigger": false,
      "metar": "METAR LEZL 250800Z 05008KT CAVOK 14/10 Q1021 NOSIG",
      "taf": "TAF LEZL 250800Z 2509/2609 05010KT CAVOK TX25/2515Z TN11/2607Z"
    },
    {
      "icao": "LFBD",
      "alert": "OK",
      "vis_m": 2400,
      "fzfg": false,
      "metar_trigger": false,
      "taf_trigger": false,
      "metar": "METAR LFBD 250800Z AUTO 30010KT 250V340 2400 -RA BR BKN005 BKN009 OVC015 11/10 Q1021 NOSIG",
      "taf": ""
    },
    {
      "icao": "LFLL",
      "alert": "OK",
      "vis_m": 9999,
      "fzfg": false,
      "metar_trigger": false,
      "taf_trigger": false,
      "metar": "METAR LFLL 250800Z 19004KT 160V220 CAVOK 11/04 Q1015 NOSIG",
      "taf": "TAF LFLL 250500Z 2506/2612 18005KT CAVOK"
    },
    {
      "icao": "LFLS",
      "alert": "OK",
      "vis_m": 9999,
      "fzfg": false,
      "metar_trigger": false,
      "taf_trigger": false,
      "metar": "METAR LFLS 250800Z AUTO 08006KT CAVOK 09/05 Q1015 BECMG 26010KT",
      "taf": "TAF LFLS 250200Z 2503/2603 08006KT CAVOK"
    },
    {
      "icao": "LFMN",
      "alert": "OK",
      "vis_m": 9999,
      "fzfg": false,
      "metar_trigger": false,
      "taf_trigger": false,
      "metar": "METAR LFMN 250800Z 32009KT CAVOK 13/02 Q1013 NOSIG",
      "taf": "TAF LFMN 250200Z 2503/2609 33010KT CAVOK"
    },
    {
      "icao": "LFOB",
      "alert": "OK",
      "vis_m": 4100,
      "fzfg": false,
      "metar_trigger": false,
      "taf_trigger": false,
      "metar": "METAR LFOB 250800Z AUTO 28014G25KT 230V310 4100 RA BR BKN015/// BKN023/// OVC031/// ///CB 06/04 Q1008 TEMPO VRB25G42KT 2000 TSRAGS BKN009 BKN014CB",
      "taf": "TAF LFOB 250500Z 2506/2606 27011KT 9999 SCT020"
    },
    {
      "icao": "LFPO",
      "alert": "OK",
      "vis_m": 9999,
      "fzfg": false,
      "metar_trigger": false,
      "taf_trigger": false,
      "metar": "METAR LFPO 250800Z 28019KT 9999 FEW031 09/02 Q1010 NOSIG",
      "taf": "TAF LFPO 250500Z 2506/2612 27015G30KT 9999 BKN030"
    },
    {
      "icao": "LFSB",
      "alert": "OK",
      "vis_m": 9999,
      "fzfg": false,
      "metar_trigger": false,
      "taf_trigger": false,
      "metar": "METAR LFSB 250800Z AUTO 24015G27KT 200V270 CAVOK 12/03 Q1009 TEMPO RA",
      "taf": "TAF LFSB 250530Z 2506/2606 24012KT 9999 FEW040"
    },
    {
      "icao": "LGAV",
      "alert": "OK",
      "vis_m": 9999,
      "fzfg": false,
      "metar_trigger": false,
      "taf_trigger": false,
      "metar": "METAR LGAV 250820Z 36020G30KT 9999 SCT025 BKN040 13/06 Q1007 NOSIG",
      "taf": "TAF LGAV 250500Z 2506/2606 35014KT 9999 FEW025 SCT030 BKN070"
    },
    {
      "icao": "LGTS",
      "alert": "OK",
      "vis_m": 9999,
      "fzfg": false,
      "metar_trigger": false,
      "taf_trigger": false,
      "metar": "METAR LGTS 250820Z 28008KT 9999 FEW020 13/08 Q1012 NOSIG",
      "taf": "TAF LGTS 250500Z 2506/2606 34013KT 9999 FEW025"
    },
    {
      "icao": "LHBP",
      "alert": "OK",
      "vis_m": 9999,
      "fzfg": false,
      "metar_trigger": false,
      "taf_trigger": false,
      "metar": "METAR LHBP 250800Z 20003KT 150V250 CAVOK 11/00 Q1011 NOSIG",
      "taf": "TAF LHBP 250515Z 2506/2606 VRB02KT CAVOK"
    },
    {
      "icao": "LHDC",
      "alert": "OK",
      "vis_m": 9999,
      "fzfg": false,
      "metar_trigger": false,
      "taf_trigger": false,
      "metar": "METAR LHDC 250745Z AUTO 17004KT 110V240 CAVOK 12/00 Q1012 NOSIG",
      "taf": "TAF LHDC 250815Z 2509/2518 18004KT CAVOK"
    },
    {
      "icao": "LIBD",
      "alert": "OK",
      "vis_m": 9999,
      "fzfg": false,
      "metar_trigger": false,
      "taf_trigger": false,
      "metar": "METAR LIBD 250820Z 30008KT 270V340 CAVOK 15/06 Q1014",
      "taf": "TAF LIBD 250500Z 2506/2606 27008KT CAVOK"
    },
    {
      "icao": "LIBG",
      "alert": "OK",
      "vis_m": 9999,
      "fzfg": false,
      "metar_trigger": false,
      "taf_trigger": false,
      "metar": "METAR LIBG 250750Z 35009KT CAVOK 15/09 Q1013",
      "taf": "TAF LIBG 250800Z 2509/2518 35012KT CAVOK"
    },
    {
      "icao": "LIBP",
      "alert": "OK",
      "vis_m": 9999,
      "fzfg": false,
      "metar_trigger": false,
      "taf_trigger": false,
      "metar": "METAR LIBP 250820Z AUTO 26005KT 210V300 9999 NCD 15/04 Q1015",
      "taf": "TAF LIBP 250500Z 2506/2606 25008KT CAVOK"
    },
    {
      "icao": "LIBR",
      "alert": "OK",
      "vis_m": 9999,
      "fzfg": false,
      "metar_trigger": false,
      "taf_trigger": false,
      "metar": "METAR LIBR 250820Z 32017KT CAVOK 14/09 Q1013",
      "taf": "TAF LIBR 250500Z 2506/2606 34014KT CAVOK"
    },
    {
      "icao": "LICA",
      "alert": "OK",
      "vis_m": 9999,
      "fzfg": false,
      "metar_trigger": false,
      "taf_trigger": false,
      "metar": "METAR LICA 250820Z AUTO 22010KT 9999 NCD 15/09 Q1015",
      "taf": "TAF LICA 250500Z 2506/2606 09006KT 9999 SCT040"
    },
    {
      "icao": "LICC",
      "alert": "OK",
      "vis_m": 9999,
      "fzfg": false,
      "metar_trigger": false,
      "taf_trigger": false,
      "metar": "METAR LICC 250820Z 18006KT CAVOK 16/14 Q1015",
      "taf": "TAF LICC 250500Z 2506/2606 25008KT 9999 FEW050"
    },
    {
      "icao": "LICJ",
      "alert": "OK",
      "vis_m": 9999,
      "fzfg": false,
      "metar_trigger": false,
      "taf_trigger": false,
      "metar": "METAR LICJ 250820Z 29007KT 9999 SCT025 15/10 Q1018",
      "taf": "TAF LICJ 250500Z 2506/2606 30013KT 9999 FEW020"
    },
    {
      "icao": "LIMC",
      "alert": "OK",
      "vis_m": 9999,
      "fzfg": false,
      "metar_trigger": false,
      "taf_trigger": false,
      "metar": "METAR LIMC 250820Z VRB02KT CAVOK 14/03 Q1012 NOSIG",
      "taf": "TAF LIMC 250500Z 2506/2612 VRB05KT CAVOK"
    },
    {
      "icao": "LIME",
      "alert": "OK",
      "vis_m": 9999,
      "fzfg": false,
      "metar_trigger": false,
      "taf_trigger": false,
      "metar": "METAR LIME 250820Z VRB01KT CAVOK 13/03 Q1012 NOSIG",
      "taf": "TAF LIME 250500Z 2506/2606 VRB05KT CAVOK"
    },
    {
      "icao": "LIMF",
      "alert": "OK",
      "vis_m": 9999,
      "fzfg": false,
      "metar_trigger": false,
      "taf_trigger": false,
      "metar": "METAR LIMF 250820Z VRB02KT CAVOK 12/03 Q1012",
      "taf": "TAF LIMF 250500Z 2506/2606 VRB05KT CAVOK"
    },
    {
      "icao": "LIMJ",
      "alert": "OK",
      "vis_m": 9999,
      "fzfg": false,
      "metar_trigger": false,
      "taf_trigger": false,
      "metar": "METAR LIMJ 250820Z 12016KT 9999 FEW018 SCT025 15/11 Q1013",
      "taf": "TAF LIMJ 250500Z 2506/2606 07008KT 9999 FEW020"
    },
    {
      "icao": "LIPE",
      "alert": "OK",
      "vis_m": 9999,
      "fzfg": false,
      "metar_trigger": false,
      "taf_trigger": false,
      "metar": "METAR LIPE 250820Z 18005KT CAVOK 15/03 Q1013",
      "taf": "TAF LIPE 250500Z 2506/2606 23006KT CAVOK"
    },
    {
      "icao": "LIPH",
      "alert": "OK",
      "vis_m": 9999,
      "fzfg": false,
      "metar_trigger": false,
      "taf_trigger": false,
      "metar": "METAR LIPH 250820Z 10004KT 070V130 CAVOK 12/06 Q1012",
      "taf": "TAF LIPH 250500Z 2506/2606 VRB05KT CAVOK"
    },
    {
      "icao": "LIPQ",
      "alert": "OK",
      "vis_m": 9999,
      "fzfg": false,
      "metar_trigger": false,
      "taf_trigger": false,
      "metar": "METAR LIPQ 250820Z AUTO 18006KT 9999 NCD 13/06 Q1012",
      "taf": "TAF LIPQ 250500Z 2506/2606 VRB03KT 9999 FEW060"
    },
    {
      "icao": "LIPR",
      "alert": "OK",
      "vis_m": 9999,
      "fzfg": false,
      "metar_trigger": false,
      "taf_trigger": false,
      "metar": "METAR LIPR 250820Z VRB01KT CAVOK 16/05 Q1013",
      "taf": "TAF LIPR 250500Z 2506/2606 22005KT CAVOK"
    },
    {
      "icao": "LIPX",
      "alert": "OK",
      "vis_m": 9999,
      "fzfg": false,
      "metar_trigger": false,
      "taf_trigger": false,
      "metar": "METAR LIPX 250820Z VRB02KT CAVOK 13/04 Q1012",
      "taf": "TAF LIPX 250500Z 2506/2606 VRB05KT CAVOK"
    },
    {
      "icao": "LIPY",
      "alert": "OK",
      "vis_m": 9999,
      "fzfg": false,
      "metar_trigger": false,
      "taf_trigger": false,
      "metar": "METAR LIPY 250820Z AUTO 23005KT 9999 NCD 15/05 Q1014",
      "taf": "TAF LIPY 250500Z 2506/2606 VRB05KT CAVOK"
    },
    {
      "icao": "LIPZ",
      "alert": "OK",
      "vis_m": 9999,
      "fzfg": false,
      "metar_trigger": false,
      "taf_trigger": false,
      "metar": "METAR LIPZ 250820Z VRB02KT CAVOK 12/06 Q1013 NOSIG",
      "taf": "TAF LIPZ 250500Z 2506/2612 23007KT CAVOK"
    },
    {
      "icao": "LIRF",
      "alert": "OK",
      "vis_m": 9999,
      "fzfg": false,
      "metar_trigger": false,
      "taf_trigger": false,
      "metar": "METAR LIRF 250820Z 05005KT 030V090 CAVOK 13/05 Q1016 NOSIG",
      "taf": "TAF LIRF 250500Z 2506/2612 03006KT CAVOK"
    },
    {
      "icao": "LIRN",
      "alert": "OK",
      "vis_m": 9999,
      "fzfg": false,
      "metar_trigger": false,
      "taf_trigger": false,
      "metar": "METAR LIRN 250820Z 03004G16KT 320V080 CAVOK 14/03 Q1016 NOSIG",
      "taf": "TAF LIRN 250500Z 2506/2606 VRB05KT 9999 FEW040"
    },
    {
      "icao": "LIRP",
      "alert": "OK",
      "vis_m": 9999,
      "fzfg": false,
      "metar_trigger": false,
      "taf_trigger": false,
      "metar": "METAR LIRP 250815Z 11003KT 9999 FEW020 SCT030 10/07 Q1015 NOSIG",
      "taf": "TAF LIRP 250500Z 2506/2606 VRB03KT 9999 FEW080"
    },
    {
      "icao": "LIRZ",
      "alert": "OK",
      "vis_m": 9999,
      "fzfg": false,
      "metar_trigger": false,
      "taf_trigger": false,
      "metar": "METAR LIRZ 250820Z AUTO VRB02KT 9999 NCD 08/03 Q1016",
      "taf": "TAF LIRZ 250500Z 2506/2606 03006KT 9999 FEW040"
    },
    {
      "icao": "LJLJ",
      "alert": "OK",
      "vis_m": 9999,
      "fzfg": false,
      "metar_trigger": false,
      "taf_trigger": false,
      "metar": "METAR LJLJ 250800Z 07001KT CAVOK 06/01 Q1012 NOSIG",
      "taf": "TAF LJLJ 250500Z 2506/2606 VRB02KT CAVOK"
    },
    {
      "icao": "LKMT",
      "alert": "OK",
      "vis_m": 9999,
      "fzfg": false,
      "metar_trigger": false,
      "taf_trigger": false,
      "metar": "METAR LKMT 250800Z 23015KT CAVOK 10/00 Q1007 NOSIG",
      "taf": "TAF LKMT 250500Z 2506/2606 22008KT CAVOK"
    },
    {
      "icao": "LKPR",
      "alert": "OK",
      "vis_m": 9999,
      "fzfg": false,
      "metar_trigger": false,
      "taf_trigger": false,
      "metar": "METAR LKPR 250800Z 17012KT CAVOK 12/01 Q1003 NOSIG",
      "taf": "TAF LKPR 250800Z 2509/2615 21015KT CAVOK"
    },
    {
      "icao": "LLBG",
      "alert": "OK",
      "vis_m": 9999,
      "fzfg": false,
      "metar_trigger": false,
      "taf_trigger": false,
      "metar": "METAR LLBG 250820Z VRB03KT 9999 RA SCT040 15/11 Q1002 NOSIG RMK BKN060",
      "taf": "TAF LLBG 250500Z 2506/2606 18007KT 9999 SCT035 TX17/2510Z TN12/2604Z"
    },
    {
      "icao": "LMML",
      "alert": "OK",
      "vis_m": 9999,
      "fzfg": false,
      "metar_trigger": false,
      "taf_trigger": false,
      "metar": "METAR LMML 250815Z COR 32017KT 9999 FEW025 15/09 Q1017 NOSIG",
      "taf": "TAF LMML 250500Z 2506/2606 31010KT 9999 FEW020"
    },
    {
      "icao": "LOWW",
      "alert": "OK",
      "vis_m": 9999,
      "fzfg": false,
      "metar_trigger": false,
      "taf_trigger": false,
      "metar": "METAR LOWW 250820Z 18006KT CAVOK 10/01 Q1008 NOSIG",
      "taf": "TAF LOWW 250815Z 2509/2615 17010KT CAVOK TX18/2514Z TN04/2615Z"
    },
    {
      "icao": "LPFR",
      "alert": "OK",
      "vis_m": 9999,
      "fzfg": false,
      "metar_trigger": false,
      "taf_trigger": false,
      "metar": "METAR LPFR 250800Z 02003KT 350V050 CAVOK 15/08 Q1020",
      "taf": "TAF LPFR 250500Z 2506/2606 03007KT CAVOK"
    },
    {
      "icao": "LPMA",
      "alert": "OK",
      "vis_m": 9999,
      "fzfg": false,
      "metar_trigger": false,
      "taf_trigger": false,
      "metar": "METAR LPMA 250800Z 02019KT 9999 SCT015 17/12 Q1019",
      "taf": "TAF LPMA 250500Z 2506/2606 36015KT 9999 SCT015"
    },
    {
      "icao": "LPPR",
      "alert": "OK",
      "vis_m": 9999,
      "fzfg": false,
      "metar_trigger": false,
      "taf_trigger": false,
      "metar": "METAR LPPR 250800Z 08003KT 060V130 CAVOK 12/09 Q1022",
      "taf": "TAF LPPR 250500Z 2506/2606 VRB02KT CAVOK"
    },
    {
      "icao": "LPPS",
      "alert": "OK",
      "vis_m": 9999,
      "fzfg": false,
      "metar_trigger": false,
      "taf_trigger": false,
      "metar": "METAR LPPS 250800Z 06015KT 030V090 9999 SCT014 16/13 Q1019",
      "taf": "TAF LPPS 250500Z 2506/2612 03015KT 9999 SCT015 SCT030"
    },
    {
      "icao": "LPPT",
      "alert": "OK",
      "vis_m": 9999,
      "fzfg": false,
      "metar_trigger": false,
      "taf_trigger": false,
      "metar": "METAR LPPT 250800Z 33006KT CAVOK 13/07 Q1021",
      "taf": "TAF LPPT 250500Z 2506/2612 VRB02KT CAVOK"
    },
    {
      "icao": "LQBK",
      "alert": "OK",
      "vis_m": 9999,
      "fzfg": false,
      "metar_trigger": false,
      "taf_trigger": false,
      "metar": "METAR LQBK 250800Z VRB03KT CAVOK 13/02 Q1013 NOSIG",
      "taf": "TAF LQBK 250500Z 2506/2606 16005KT CAVOK TX19/2514Z TN01/2605Z"
    },
    {
      "icao": "LQSA",
      "alert": "OK",
      "vis_m": 9999,
      "fzfg": false,
      "metar_trigger": false,
      "taf_trigger": false,
      "metar": "METAR LQSA 250800Z VRB02KT CAVOK 06/00 Q1014 NOSIG",
      "taf": "TAF LQSA 250500Z 2506/2606 15008KT CAVOK TX18/2514Z TN00/2506Z"
    },
    {
      "icao": "LQTZ",
      "alert": "OK",
      "vis_m": 9999,
      "fzfg": false,
      "metar_trigger": false,
      "taf_trigger": false,
      "metar": "METAR LQTZ 250800Z VRB02KT 9999 FEW050 10/04 Q1014",
      "taf": "TAF LQTZ 250500Z 2506/2606 13006KT CAVOK TX17/2514Z TN01/2506Z"
    },
    {
      "icao": "LRBC",
      "alert": "OK",
      "vis_m": 9999,
      "fzfg": false,
      "metar_trigger": false,
      "taf_trigger": false,
      "metar": "METAR LRBC 250800Z VRB01KT CAVOK 13/02 Q1013",
      "taf": "TAF LRBC 250500Z 2506/2515 VRB04KT CAVOK"
    },
    {
      "icao": "LRBS",
      "alert": "OK",
      "vis_m": 9999,
      "fzfg": false,
      "metar_trigger": false,
      "taf_trigger": false,
      "metar": "METAR LRBS 250800Z VRB02KT CAVOK 13/01 Q1013 NOSIG",
      "taf": "TAF LRBS 250500Z 2506/2606 VRB04KT CAVOK"
    },
    {
      "icao": "LRBV",
      "alert": "OK",
      "vis_m": 9999,
      "fzfg": false,
      "metar_trigger": false,
      "taf_trigger": false,
      "metar": "METAR LRBV 250800Z VRB02KT 9999 FEW074 09/00 Q1012",
      "taf": "TAF LRBV 250500Z 2506/2515 VRB04KT 9999 BKN060"
    },
    {
      "icao": "LRCL",
      "alert": "OK",
      "vis_m": 9999,
      "fzfg": false,
      "metar_trigger": false,
      "taf_trigger": false,
      "metar": "METAR LRCL 250800Z VRB02KT CAVOK 08/M02 Q1012",
      "taf": "TAF LRCL 250500Z 2506/2515 VRB04KT CAVOK"
    },
    {
      "icao": "LRCV",
      "alert": "OK",
      "vis_m": 9999,
      "fzfg": false,
      "metar_trigger": false,
      "taf_trigger": false,
      "metar": "METAR LRCV 250800Z 22005KT 180V240 CAVOK 13/06 Q1013",
      "taf": "TAF LRCV 250500Z 2506/2515 VRB04KT CAVOK"
    },
    {
      "icao": "LRIA",
      "alert": "OK",
      "vis_m": 9999,
      "fzfg": false,
      "metar_trigger": false,
      "taf_trigger": false,
      "metar": "METAR LRIA 250800Z 10004KT 040V140 CAVOK 11/00 Q1013",
      "taf": "TAF LRIA 250500Z 2506/2515 VRB04KT CAVOK"
    },
    {
      "icao": "LROP",
      "alert": "OK",
      "vis_m": 9999,
      "fzfg": false,
      "metar_trigger": false,
      "taf_trigger": false,
      "metar": "METAR LROP 250800Z 10004KT CAVOK 12/M03 Q1013 NOSIG",
      "taf": "TAF LROP 250500Z 2506/2606 VRB04KT CAVOK"
    },
    {
      "icao": "LRSB",
      "alert": "OK",
      "vis_m": 9999,
      "fzfg": false,
      "metar_trigger": false,
      "taf_trigger": false,
      "metar": "METAR LRSB 250800Z VRB02KT 9999 FEW068 11/01 Q1012 NOSIG",
      "taf": "TAF LRSB 250500Z 2506/2606 VRB04KT 9999 SCT065"
    },
    {
      "icao": "LRSM",
      "alert": "OK",
      "vis_m": 9999,
      "fzfg": false,
      "metar_trigger": false,
      "taf_trigger": false,
      "metar": "METAR LRSM 250800Z 21004KT 180V240 CAVOK 11/M00 Q1012",
      "taf": "TAF LRSM 250500Z 2506/2515 VRB04KT CAVOK"
    },
    {
      "icao": "LRSV",
      "alert": "OK",
      "vis_m": 9999,
      "fzfg": false,
      "metar_trigger": false,
      "taf_trigger": false,
      "metar": "METAR LRSV 250800Z 15006KT CAVOK 11/01 Q1012",
      "taf": "TAF LRSV 250500Z 2506/2515 VRB04KT CAVOK"
    },
    {
      "icao": "LRTM",
      "alert": "OK",
      "vis_m": 9999,
      "fzfg": false,
      "metar_trigger": false,
      "taf_trigger": false,
      "metar": "METAR LRTM 250800Z VRB01KT CAVOK 10/M00 Q1013",
      "taf": "TAF LRTM 250500Z 2506/2515 VRB04KT CAVOK"
    },
    {
      "icao": "LRTR",
      "alert": "OK",
      "vis_m": 9999,
      "fzfg": false,
      "metar_trigger": false,
      "taf_trigger": false,
      "metar": "METAR LRTR 250800Z 13005KT CAVOK 07/01 Q1013",
      "taf": "TAF LRTR 250500Z 2506/2606 11005KT CAVOK"
    },
    {
      "icao": "LTAC",
      "alert": "OK",
      "vis_m": 9999,
      "fzfg": false,
      "metar_trigger": false,
      "taf_trigger": false,
      "metar": "METAR LTAC 250820Z 06012KT 9999 FEW017 SCT025 BKN080 08/04 Q1004 NOSIG RMK RWY21C 07012KT RWY03L 05012KT RWY21R 05014KT RWY03R 07011KT RWY21L 07012KT",
      "taf": "TAF LTAC 250440Z 2506/2606 03009KT 9999 SCT035 BKN100"
    },
    {
      "icao": "LTFM",
      "alert": "OK",
      "vis_m": 9999,
      "fzfg": false,
      "metar_trigger": false,
      "taf_trigger": false,
      "metar": "METAR LTFM 250820Z 03014KT 9999 FEW011 SCT025 10/07 Q1010 NOSIG RMK RWY17L 02012KT RWY34L 02012KT RWY16R 02012KT RWY36 03014KT RWY18 03011KT",
      "taf": "TAF LTFM 250440Z 2506/2612 02015KT 9999 BKN006 BKN022"
    },
    {
      "icao": "LUKK",
      "alert": "OK",
      "vis_m": 9999,
      "fzfg": false,
      "metar_trigger": false,
      "taf_trigger": false,
      "metar": "METAR LUKK 250800Z 03003KT 320V120 CAVOK 11/M01 Q1013 NOSIG",
      "taf": "TAF LUKK 250517Z 2506/2606 VRB05KT CAVOK"
    },
    {
      "icao": "LWOH",
      "alert": "OK",
      "vis_m": 9999,
      "fzfg": false,
      "metar_trigger": false,
      "taf_trigger": false,
      "metar": "METAR LWOH 250820Z 01005KT 280V050 9999 FEW040 12/01 Q1012",
      "taf": "TAF LWOH 250540Z 2506/2606 VRB02KT CAVOK"
    },
    {
      "icao": "LWSK",
      "alert": "OK",
      "vis_m": 9999,
      "fzfg": false,
      "metar_trigger": false,
      "taf_trigger": false,
      "metar": "METAR LWSK 250820Z VRB03KT 9999 FEW040 14/05 Q1013 NOSIG",
      "taf": ""
    },
    {
      "icao": "LYBE",
      "alert": "OK",
      "vis_m": 9999,
      "fzfg": false,
      "metar_trigger": false,
      "taf_trigger": false,
      "metar": "METAR LYBE 250800Z 25006KT CAVOK 12/04 Q1014 NOSIG",
      "taf": "TAF LYBE 250500Z 2506/2606 20006KT CAVOK TX18/2513Z TN05/2506Z"
    },
    {
      "icao": "LYNI",
      "alert": "OK",
      "vis_m": 9999,
      "fzfg": false,
      "metar_trigger": false,
      "taf_trigger": false,
      "metar": "METAR LYNI 250800Z VRB02KT CAVOK 11/04 Q1014 NOSIG",
      "taf": "TAF LYNI 250500Z 2506/2606 34005KT 9999 SCT060 TX19/2514Z TN05/2605Z"
    },
    {
      "icao": "LYPG",
      "alert": "OK",
      "vis_m": 9999,
      "fzfg": false,
      "metar_trigger": false,
      "taf_trigger": false,
      "metar": "METAR LYPG 250800Z 33006KT 260V020 CAVOK 16/00 Q1013 NOSIG",
      "taf": "TAF LYPG 250500Z 2506/2606 35007KT CAVOK TX20/2513Z TN08/2605Z"
    },
    {
      "icao": "LZIB",
      "alert": "OK",
      "vis_m": 9999,
      "fzfg": false,
      "metar_trigger": false,
      "taf_trigger": false,
      "metar": "METAR LZIB 250800Z 04005KT CAVOK 06/01 Q1010 NOSIG",
      "taf": "TAF LZIB 250515Z 2506/2606 23004KT CAVOK"
    },
    {
      "icao": "LZKZ",
      "alert": "OK",
      "vis_m": 9999,
      "fzfg": false,
      "metar_trigger": false,
      "taf_trigger": false,
      "metar": "METAR LZKZ 250800Z 15004KT 110V200 CAVOK 09/01 Q1011 NOSIG",
      "taf": "TAF LZKZ 250515Z 2506/2606 VRB02KT CAVOK"
    },
    {
      "icao": "LZTT",
      "alert": "OK",
      "vis_m": 9999,
      "fzfg": false,
      "metar_trigger": false,
      "taf_trigger": false,
      "metar": "METAR LZTT 250800Z 17005KT 140V200 CAVOK 06/M01 Q1009 BECMG 26014KT",
      "taf": "TAF LZTT 250515Z 2506/2606 VRB02KT 9999 SCT050"
    },
    {
      "icao": "OEJN",
      "alert": "OK",
      "vis_m": 8000,
      "fzfg": false,
      "metar_trigger": false,
      "taf_trigger": false,
      "metar": "METAR OEJN 250800Z 17014KT 8000 NSC 32/17 Q1002 NOSIG",
      "taf": "TAF OEJN 250500Z 2506/2612 18008KT 7000 FEW040"
    },
    {
      "icao": "OEMA",
      "alert": "OK",
      "vis_m": 7000,
      "fzfg": false,
      "metar_trigger": false,
      "taf_trigger": false,
      "metar": "SPECI OEMA 250810Z 28020KT 7000 TSRA FEW030CB BKN035 26/08 Q1005 NOSIG",
      "taf": "TAF OEMA 250500Z 2506/2612 24015KT 7000 SCT040"
    },
    {
      "icao": "OJAI",
      "alert": "OK",
      "vis_m": 4000,
      "fzfg": false,
      "metar_trigger": false,
      "taf_trigger": false,
      "metar": "METAR OJAI 250800Z 24012KT 4000 HZ FEW035 SCT080 12/06 Q1003 NOSIG",
      "taf": "TAF OJAI 250445Z 2506/2612 26006KT 5000 HZ SCT035"
    },
    {
      "icao": "OMAA",
      "alert": "OK",
      "vis_m": null,
      "fzfg": false,
      "metar_trigger": false,
      "taf_trigger": false,
      "metar": "",
      "taf": ""
    },
    {
      "icao": "OMDB",
      "alert": "OK",
      "vis_m": null,
      "fzfg": false,
      "metar_trigger": false,
      "taf_trigger": false,
      "metar": "",
      "taf": ""
    },
    {
      "icao": "UAAA",
      "alert": "OK",
      "vis_m": 9999,
      "fzfg": false,
      "metar_trigger": false,
      "taf_trigger": false,
      "metar": "METAR UAAA 250800Z 04005MPS 010V070 9999 NSC 16/01 Q1019 NOSIG",
      "taf": "TAF UAAA 250502Z 2506/2606 05003G08MPS 9999 FEW050 SCT100 TX17/2510Z TN03/2601Z"
    },
    {
      "icao": "UBBB",
      "alert": "OK",
      "vis_m": 9999,
      "fzfg": false,
      "metar_trigger": false,
      "taf_trigger": false,
      "metar": "METAR UBBB 250800Z 34012KT 9999 -SHRA SCT060CB 12/09 Q1007 NOSIG",
      "taf": "TAF UBBB 250517Z 2506/2606 34012KT 9999 BKN030 TX13/2510Z TN08/2600Z"
    },
    {
      "icao": "UDSG",
      "alert": "OK",
      "vis_m": 9999,
      "fzfg": false,
      "metar_trigger": false,
      "taf_trigger": false,
      "metar": "METAR UDSG 250800Z 23008KT 9999 BKN030CB OVC043 04/04 Q1006 NOSIG",
      "taf": "TAF UDSG 250458Z 2506/2606 07006KT 9999 BKN040"
    },
    {
      "icao": "UDYZ",
      "alert": "OK",
      "vis_m": 9999,
      "fzfg": false,
      "metar_trigger": false,
      "taf_trigger": false,
      "metar": "METAR UDYZ 250800Z 26003KT 230V310 9999 BKN043CB 11/07 Q1004 NOSIG",
      "taf": "TAF UDYZ 250500Z 2506/2606 22006KT 9999 BKN040"
    },
    {
      "icao": "UGKO",
      "alert": "OK",
      "vis_m": 9999,
      "fzfg": false,
      "metar_trigger": false,
      "taf_trigger": false,
      "metar": "METAR UGKO 250800Z 27003KT 230V340 9999 SCT010 OVC023 10/09 Q1006 NOSIG",
      "taf": "TAF UGKO 250500Z 2506/2606 26007KT 9999 SCT023 OVC050 TX13/2511Z TN08/2603Z"
    }
  ]
}