{
  "ts_utc": "2026-03-24T06:45:05Z",
  "threshold_m": 150,
  "source": "stations_override.txt (ICAO list) + aviationweather.gov (METAR/TAF raw)",
  "station_count": 159,
  "stations": [
    {
      "icao": "BIKF",
      "alert": "OK",
      "vis_m": 9999,
      "fzfg": false,
      "metar_trigger": false,
      "taf_trigger": false,
      "metar": "METAR BIKF 240630Z 03007KT 9999 FEW023 OVC051 M01/M05 Q0985",
      "taf": "TAF BIKF 240457Z 2406/2506 03008KT 9999 FEW010 BKN030 TX01/2413Z TNM06/2506Z"
    },
    {
      "icao": "BKPR",
      "alert": "OK",
      "vis_m": 9999,
      "fzfg": false,
      "metar_trigger": false,
      "taf_trigger": false,
      "metar": "METAR BKPR 240630Z COR 02009KT 9999 -DZ SCT020 BKN025 06/03 Q1016 NOSIG",
      "taf": "TAF BKPR 240530Z 2406/2506 01008KT 9999 SCT030 BKN070"
    },
    {
      "icao": "EBCI",
      "alert": "OK",
      "vis_m": 7000,
      "fzfg": false,
      "metar_trigger": false,
      "taf_trigger": false,
      "metar": "METAR EBCI 240620Z 22006KT 7000 NSC 07/03 Q1020 NOSIG",
      "taf": "TAF EBCI 240516Z 2406/2512 24012KT 9999 FEW030"
    },
    {
      "icao": "EDDB",
      "alert": "OK",
      "vis_m": 9999,
      "fzfg": false,
      "metar_trigger": false,
      "taf_trigger": false,
      "metar": "METAR EDDB 240620Z AUTO 19006KT CAVOK 05/00 Q1018 NOSIG",
      "taf": "TAF EDDB 240500Z 2406/2506 20007KT CAVOK"
    },
    {
      "icao": "EDDH",
      "alert": "OK",
      "vis_m": 9999,
      "fzfg": false,
      "metar_trigger": false,
      "taf_trigger": false,
      "metar": "METAR EDDH 240620Z AUTO 21009KT CAVOK 08/04 Q1015 NOSIG",
      "taf": "TAF EDDH 240500Z 2406/2512 21006KT CAVOK"
    },
    {
      "icao": "EDDK",
      "alert": "OK",
      "vis_m": 9999,
      "fzfg": false,
      "metar_trigger": false,
      "taf_trigger": false,
      "metar": "METAR EDDK 240620Z AUTO 14003KT 090V170 CAVOK 06/01 Q1020 NOSIG",
      "taf": "TAF EDDK 240500Z 2406/2512 14004KT CAVOK"
    },
    {
      "icao": "EDDN",
      "alert": "OK",
      "vis_m": 9999,
      "fzfg": false,
      "metar_trigger": false,
      "taf_trigger": false,
      "metar": "METAR EDDN 240620Z AUTO 11006KT CAVOK 00/M02 Q1022 NOSIG",
      "taf": "TAF EDDN 240500Z 2406/2506 13005KT CAVOK"
    },
    {
      "icao": "EDDS",
      "alert": "OK",
      "vis_m": 9999,
      "fzfg": false,
      "metar_trigger": false,
      "taf_trigger": false,
      "metar": "METAR EDDS 240620Z AUTO 08002KT CAVOK M00/M02 Q1021 NOSIG",
      "taf": "TAF EDDS 240500Z 2406/2506 VRB03KT CAVOK"
    },
    {
      "icao": "EDFH",
      "alert": "OK",
      "vis_m": 9999,
      "fzfg": false,
      "metar_trigger": false,
      "taf_trigger": false,
      "metar": "METAR EDFH 240620Z 22006KT CAVOK 08/M01 Q1020",
      "taf": "TAF EDFH 240500Z 2406/2506 21005KT CAVOK"
    },
    {
      "icao": "EDJA",
      "alert": "OK",
      "vis_m": 9999,
      "fzfg": false,
      "metar_trigger": false,
      "taf_trigger": false,
      "metar": "METAR EDJA 240620Z 00000KT CAVOK M00/M02 Q1022",
      "taf": "TAF EDJA 240500Z 2406/2415 VRB02KT CAVOK"
    },
    {
      "icao": "EDLW",
      "alert": "OK",
      "vis_m": 9999,
      "fzfg": false,
      "metar_trigger": false,
      "taf_trigger": false,
      "metar": "METAR EDLW 240620Z 19012KT CAVOK 08/02 Q1018",
      "taf": "TAF EDLW 240500Z 2406/2506 18009KT CAVOK"
    },
    {
      "icao": "EDNY",
      "alert": "OK",
      "vis_m": 9999,
      "fzfg": false,
      "metar_trigger": false,
      "taf_trigger": false,
      "metar": "METAR EDNY 240620Z 07003KT CAVOK M01/M01 Q1023",
      "taf": "TAF EDNY 240500Z 2406/2415 VRB02KT CAVOK"
    },
    {
      "icao": "EDSB",
      "alert": "OK",
      "vis_m": 9999,
      "fzfg": false,
      "metar_trigger": false,
      "taf_trigger": false,
      "metar": "METAR EDSB 240620Z 16002KT CAVOK 01/M01 Q1023",
      "taf": "TAF EDSB 240500Z 2406/2506 VRB03KT CAVOK"
    },
    {
      "icao": "EETN",
      "alert": "OK",
      "vis_m": 9999,
      "fzfg": false,
      "metar_trigger": false,
      "taf_trigger": false,
      "metar": "METAR EETN 240620Z 21007KT 180V250 CAVOK 02/M00 Q1011 NOSIG",
      "taf": "TAF EETN 240530Z 2406/2506 21012KT CAVOK"
    },
    {
      "icao": "EFTU",
      "alert": "OK",
      "vis_m": 9999,
      "fzfg": false,
      "metar_trigger": false,
      "taf_trigger": false,
      "metar": "METAR EFTU 240620Z AUTO 21005KT CAVOK 01/M03 Q1008",
      "taf": "TAF EFTU 240528Z 2406/2506 VRB02KT CAVOK"
    },
    {
      "icao": "EGBB",
      "alert": "OK",
      "vis_m": 9999,
      "fzfg": false,
      "metar_trigger": false,
      "taf_trigger": false,
      "metar": "METAR EGBB 240620Z 21008KT 170V250 9999 BKN010 10/07 Q1013",
      "taf": "TAF EGBB 240457Z 2406/2506 22008KT 9999 SCT020"
    },
    {
      "icao": "EGGP",
      "alert": "OK",
      "vis_m": 9999,
      "fzfg": false,
      "metar_trigger": false,
      "taf_trigger": false,
      "metar": "METAR EGGP 240620Z 24014KT 9999 -RA SCT044 11/07 Q1010",
      "taf": "TAF EGGP 240500Z 2406/2506 21010KT 9999 FEW012 SCT022"
    },
    {
      "icao": "EGGW",
      "alert": "OK",
      "vis_m": 7000,
      "fzfg": false,
      "metar_trigger": false,
      "taf_trigger": false,
      "metar": "METAR EGGW 240620Z AUTO 22010KT 7000 OVC011 08/06 Q1015",
      "taf": "TAF EGGW 240458Z 2406/2506 23012KT 8000 SCT030"
    },
    {
      "icao": "EGKK",
      "alert": "OK",
      "vis_m": 6000,
      "fzfg": false,
      "metar_trigger": false,
      "taf_trigger": false,
      "metar": "METAR EGKK 240620Z 21007KT 6000 BKN010 09/08 Q1017",
      "taf": "TAF EGKK 240455Z 2406/2512 21008KT 6000 SCT015"
    },
    {
      "icao": "EGNM",
      "alert": "OK",
      "vis_m": 9999,
      "fzfg": false,
      "metar_trigger": false,
      "taf_trigger": false,
      "metar": "METAR EGNM 240620Z 22009KT 190V250 9999 FEW010 BKN013 09/08 Q1008",
      "taf": "TAF EGNM 240537Z 2406/2506 22012KT 9999 FEW012 BKN022"
    },
    {
      "icao": "EGPD",
      "alert": "OK",
      "vis_m": 9999,
      "fzfg": false,
      "metar_trigger": false,
      "taf_trigger": false,
      "metar": "METAR EGPD 240620Z COR AUTO 24020G32KT 9999 NCD 10/01 Q0997 NOSIG",
      "taf": "TAF EGPD 240458Z 2406/2506 25018G28KT 9999 FEW040"
    },
    {
      "icao": "EGPF",
      "alert": "OK",
      "vis_m": 6000,
      "fzfg": false,
      "metar_trigger": false,
      "taf_trigger": false,
      "metar": "METAR EGPF 240620Z AUTO 24015KT 6000 SCT027/// SCT041/// //////TCU 09/06 Q1004",
      "taf": "TAF EGPF 240457Z 2406/2506 24015KT 9999 SCT030"
    },
    {
      "icao": "EHBK",
      "alert": "OK",
      "vis_m": 9999,
      "fzfg": false,
      "metar_trigger": false,
      "taf_trigger": false,
      "metar": "METAR EHBK 240625Z AUTO 20012KT 9999 NSC 07/02 Q1019 NOSIG",
      "taf": "TAF EHBK 240507Z 2406/2512 19004KT CAVOK"
    },
    {
      "icao": "EHEH",
      "alert": "OK",
      "vis_m": 6000,
      "fzfg": false,
      "metar_trigger": false,
      "taf_trigger": false,
      "metar": "METAR EHEH 240625Z AUTO 20009KT 6000 BR OVC150 08/05 Q1018 WHT NOSIG RMK TREND REMOTE BY EHWX",
      "taf": "TAF EHEH 240530Z 2406/2512 21007KT 6000 NSC"
    },
    {
      "icao": "EKBI",
      "alert": "OK",
      "vis_m": 2800,
      "fzfg": false,
      "metar_trigger": false,
      "taf_trigger": false,
      "metar": "METAR EKBI 240620Z AUTO 20008KT 170V230 2800 -RA BR OVC006/// 06/05 Q1011",
      "taf": "TAF EKBI 240527Z 2406/2506 20010KT 4000 BR BKN004"
    },
    {
      "icao": "EKCH",
      "alert": "OK",
      "vis_m": 3500,
      "fzfg": false,
      "metar_trigger": false,
      "taf_trigger": false,
      "metar": "METAR EKCH 240620Z 22008KT 3500 BR BKN008 05/04 Q1014 TEMPO BKN015",
      "taf": "TAF EKCH 240527Z 2406/2506 18004KT 3000 BR BKN008"
    },
    {
      "icao": "ENAL",
      "alert": "OK",
      "vis_m": 9999,
      "fzfg": false,
      "metar_trigger": false,
      "taf_trigger": false,
      "metar": "METAR ENAL 240620Z 19015KT 9999 -RA BKN042 06/03 Q0984",
      "taf": "TAF ENAL 240500Z 2406/2415 18020G30KT 9999 -RA BKN040"
    },
    {
      "icao": "ENBR",
      "alert": "OK",
      "vis_m": 8000,
      "fzfg": false,
      "metar_trigger": false,
      "taf_trigger": false,
      "metar": "METAR ENBR 240620Z 18025G35KT 8000 RA FEW003 OVC006 06/05 Q0992 BECMG NSW BKN012 RMK WIND 1200FT 19033G44KT",
      "taf": "TAF ENBR 240500Z 2406/2506 17025G35KT 3000 RA BR BKN006"
    },
    {
      "icao": "ENGM",
      "alert": "OK",
      "vis_m": 9999,
      "fzfg": false,
      "metar_trigger": false,
      "taf_trigger": false,
      "metar": "METAR ENGM 240620Z 18016KT 9999 OVC004 02/00 Q0999 NOSIG",
      "taf": ""
    },
    {
      "icao": "ENHD",
      "alert": "OK",
      "vis_m": 9000,
      "fzfg": false,
      "metar_trigger": false,
      "taf_trigger": false,
      "metar": "METAR ENHD 240620Z 18021G31KT 9000 -DZ OVC008 07/06 Q0996",
      "taf": "TAF ENHD 240500Z 2406/2415 18020G30KT 9000 -RA BKN007"
    },
    {
      "icao": "ENTC",
      "alert": "OK",
      "vis_m": 9999,
      "fzfg": false,
      "metar_trigger": false,
      "taf_trigger": false,
      "metar": "METAR ENTC 240620Z 21006KT 9999 -SHSN FEW011 BKN024 M01/M02 Q0991 TEMPO 1000 SHSN VV008 RMK WIND 2600FT 23013KT",
      "taf": "TAF ENTC 240500Z 2406/2506 22010KT 9999 FEW015 BKN025"
    },
    {
      "icao": "ENTO",
      "alert": "OK",
      "vis_m": 7000,
      "fzfg": false,
      "metar_trigger": false,
      "taf_trigger": false,
      "metar": "METAR ENTO 240620Z 20019KT 7000 FEW004 BKN006 04/04 Q1003 TEMPO 20020G30KT BKN004",
      "taf": "TAF ENTO 240500Z 2406/2506 20018KT 6000 -DZRA BR BKN005"
    },
    {
      "icao": "ENVA",
      "alert": "OK",
      "vis_m": 1700,
      "fzfg": false,
      "metar_trigger": false,
      "taf_trigger": false,
      "metar": "METAR ENVA 240620Z 14013KT 1700 -SN OVC009CB 02/M01 Q0990 BECMG 9999 NSW RMK WIND 670FT 16019G31KT",
      "taf": ""
    },
    {
      "icao": "ENZV",
      "alert": "OK",
      "vis_m": 9999,
      "fzfg": false,
      "metar_trigger": false,
      "taf_trigger": false,
      "metar": "METAR ENZV 240620Z 19016KT 9999 -RADZ BKN008 07/05 Q0998 BECMG BKN012",
      "taf": "TAF ENZV 240500Z 2406/2506 17018KT 9999 BKN012"
    },
    {
      "icao": "EPGD",
      "alert": "OK",
      "vis_m": 9999,
      "fzfg": false,
      "metar_trigger": false,
      "taf_trigger": false,
      "metar": "METAR EPGD 240630Z 23007KT CAVOK 05/M00 Q1016",
      "taf": "TAF EPGD 240530Z 2406/2506 24002KT CAVOK"
    },
    {
      "icao": "EPKK",
      "alert": "OK",
      "vis_m": 8000,
      "fzfg": false,
      "metar_trigger": false,
      "taf_trigger": false,
      "metar": "METAR EPKK 240630Z 22004KT 8000 NSC 06/01 Q1020",
      "taf": "TAF EPKK 240530Z 2406/2506 25006KT CAVOK"
    },
    {
      "icao": "EPKT",
      "alert": "OK",
      "vis_m": 9999,
      "fzfg": false,
      "metar_trigger": false,
      "taf_trigger": false,
      "metar": "METAR EPKT 240630Z 27004KT 240V300 CAVOK 04/01 Q1020",
      "taf": "TAF EPKT 240530Z 2406/2506 26004KT CAVOK"
    },
    {
      "icao": "EPLB",
      "alert": "OK",
      "vis_m": 6000,
      "fzfg": false,
      "metar_trigger": false,
      "taf_trigger": false,
      "metar": "METAR EPLB 240630Z VRB02KT 6000 NSC 04/02 Q1019",
      "taf": "TAF EPLB 240530Z 2406/2506 VRB02KT CAVOK"
    },
    {
      "icao": "EPMO",
      "alert": "OK",
      "vis_m": 8000,
      "fzfg": false,
      "metar_trigger": false,
      "taf_trigger": false,
      "metar": "METAR EPMO 240630Z 24003KT 8000 NSC 07/01 Q1018",
      "taf": ""
    },
    {
      "icao": "EPPO",
      "alert": "OK",
      "vis_m": 8000,
      "fzfg": false,
      "metar_trigger": false,
      "taf_trigger": false,
      "metar": "METAR EPPO 240630Z VRB02KT 8000 NSC 04/M01 Q1019",
      "taf": "TAF EPPO 240530Z 2406/2506 VRB02KT 7000 NSC"
    },
    {
      "icao": "EPRA",
      "alert": "OK",
      "vis_m": 9999,
      "fzfg": false,
      "metar_trigger": false,
      "taf_trigger": false,
      "metar": "METAR EPRA 240630Z 25002KT CAVOK 08/M00 Q1019",
      "taf": "TAF EPRA 240530Z 2406/2415 25006KT CAVOK"
    },
    {
      "icao": "EPRZ",
      "alert": "OK",
      "vis_m": 9999,
      "fzfg": false,
      "metar_trigger": false,
      "taf_trigger": false,
      "metar": "METAR EPRZ 240630Z 23004KT CAVOK 05/00 Q1019",
      "taf": "TAF EPRZ 240530Z 2406/2506 VRB02KT CAVOK"
    },
    {
      "icao": "EPSC",
      "alert": "OK",
      "vis_m": 9999,
      "fzfg": false,
      "metar_trigger": false,
      "taf_trigger": false,
      "metar": "METAR EPSC 240630Z 15004KT CAVOK 05/01 Q1017",
      "taf": "TAF EPSC 240530Z 2406/2506 15003KT CAVOK"
    },
    {
      "icao": "EPSY",
      "alert": "OK",
      "vis_m": 9999,
      "fzfg": false,
      "metar_trigger": false,
      "taf_trigger": false,
      "metar": "METAR EPSY 240630Z VRB02KT CAVOK 02/M00 Q1018",
      "taf": "TAF EPSY 240530Z 2406/2415 19005KT CAVOK"
    },
    {
      "icao": "EPWA",
      "alert": "OK",
      "vis_m": 9999,
      "fzfg": false,
      "metar_trigger": false,
      "taf_trigger": false,
      "metar": "METAR EPWA 240630Z VRB01KT CAVOK 07/01 Q1019 NOSIG",
      "taf": "TAF EPWA 240530Z 2406/2506 VRB02KT CAVOK"
    },
    {
      "icao": "EPWR",
      "alert": "OK",
      "vis_m": 9999,
      "fzfg": false,
      "metar_trigger": false,
      "taf_trigger": false,
      "metar": "METAR EPWR 240630Z 00000KT 9999 MIFG NSC 02/M00 Q1020",
      "taf": "TAF EPWR 240530Z 2406/2506 24002KT CAVOK"
    },
    {
      "icao": "ESGG",
      "alert": "OK",
      "vis_m": 4500,
      "fzfg": false,
      "metar_trigger": false,
      "taf_trigger": false,
      "metar": "METAR ESGG 240620Z 21017KT 4500 BR OVC005 04/03 Q1008",
      "taf": "TAF ESGG 240530Z 2406/2506 18012KT 9999 BKN008"
    },
    {
      "icao": "ESKN",
      "alert": "OK",
      "vis_m": 9999,
      "fzfg": false,
      "metar_trigger": false,
      "taf_trigger": false,
      "metar": "METAR ESKN 240620Z 23010KT CAVOK 03/M01 Q1009",
      "taf": "TAF ESKN 240530Z 2406/2506 22010KT CAVOK"
    },
    {
      "icao": "ESMS",
      "alert": "OK",
      "vis_m": 3800,
      "fzfg": false,
      "metar_trigger": false,
      "taf_trigger": false,
      "metar": "METAR ESMS 240620Z 21008KT 3800 BR NSC 05/04 Q1013",
      "taf": "TAF ESMS 240527Z 2406/2506 18008KT CAVOK"
    },
    {
      "icao": "ESSA",
      "alert": "OK",
      "vis_m": 9999,
      "fzfg": false,
      "metar_trigger": false,
      "taf_trigger": false,
      "metar": "METAR ESSA 240620Z 19008KT CAVOK 02/M02 Q1008 NOSIG",
      "taf": "TAF ESSA 240530Z 2406/2506 22012KT CAVOK"
    },
    {
      "icao": "EYKA",
      "alert": "OK",
      "vis_m": 9999,
      "fzfg": false,
      "metar_trigger": false,
      "taf_trigger": false,
      "metar": "METAR EYKA 240620Z 22003KT 190V250 CAVOK 04/M01 Q1016",
      "taf": "TAF EYKA 240508Z 2406/2506 VRB03KT 9000 NSC"
    },
    {
      "icao": "EYPA",
      "alert": "OK",
      "vis_m": 1600,
      "fzfg": false,
      "metar_trigger": false,
      "taf_trigger": false,
      "metar": "METAR EYPA 240620Z 18004KT 1600 BR BKN002 02/02 Q1015",
      "taf": ""
    },
    {
      "icao": "EYVI",
      "alert": "OK",
      "vis_m": 9999,
      "fzfg": false,
      "metar_trigger": false,
      "taf_trigger": false,
      "metar": "METAR EYVI 240620Z 19006KT CAVOK 05/M01 Q1017 NOSIG",
      "taf": "TAF EYVI 240500Z 2406/2506 VRB05KT 9000 NSC"
    },
    {
      "icao": "GCFV",
      "alert": "OK",
      "vis_m": 9999,
      "fzfg": false,
      "metar_trigger": false,
      "taf_trigger": false,
      "metar": "METAR GCFV 240630Z 10007KT 9999 FEW030 BKN040 17/15 Q1010",
      "taf": "TAF GCFV 240200Z 2403/2503 12008KT 9999 BKN020 TX22/2414Z TN16/2406Z"
    },
    {
      "icao": "GCLP",
      "alert": "OK",
      "vis_m": 9999,
      "fzfg": false,
      "metar_trigger": false,
      "taf_trigger": false,
      "metar": "METAR GCLP 240630Z 14014KT 9999 -RA SCT010 BKN020 18/17 Q1008 RERA TEMPO SHRA FEW025TCU",
      "taf": "TAF GCLP 240200Z 2403/2503 15015KT 9999 BKN020 TX22/2414Z TN15/2406Z"
    },
    {
      "icao": "GCTS",
      "alert": "OK",
      "vis_m": 9999,
      "fzfg": false,
      "metar_trigger": false,
      "taf_trigger": false,
      "metar": "METAR GCTS 240630Z 04003KT 9999 FEW020 SCT035 17/14 Q1008 NOSIG",
      "taf": "TAF GCTS 240200Z 2403/2503 04005KT 9999 SCT020 BKN040 TX22/2414Z TN15/2406Z"
    },
    {
      "icao": "GMAD",
      "alert": "OK",
      "vis_m": 9999,
      "fzfg": false,
      "metar_trigger": false,
      "taf_trigger": false,
      "metar": "METAR GMAD 240630Z 12006KT 9999 FEW023 14/12 Q1010 NOSIG",
      "taf": "TAF GMAD 240500Z 2406/2512 24006KT 8000 SCT020"
    },
    {
      "icao": "GMMN",
      "alert": "OK",
      "vis_m": 400,
      "fzfg": false,
      "metar_trigger": false,
      "taf_trigger": false,
      "metar": "METAR GMMN 240630Z VRB02KT 0400 R35L/0250N FG BKN001 12/12 Q1014 NOSIG",
      "taf": "TAF GMMN 232300Z 2400/2506 06004KT 1200 BR BKN001"
    },
    {
      "icao": "GMMX",
      "alert": "OK",
      "vis_m": 8000,
      "fzfg": false,
      "metar_trigger": false,
      "taf_trigger": false,
      "metar": "METAR GMMX 240630Z 08005KT 8000 SCT020 11/10 Q1012 NOSIG",
      "taf": "TAF GMMX 240500Z 2406/2512 24008KT 8000 SCT020 SCT080"
    },
    {
      "icao": "HEGN",
      "alert": "OK",
      "vis_m": 9999,
      "fzfg": false,
      "metar_trigger": false,
      "taf_trigger": false,
      "metar": "METAR HEGN 240600Z 30012KT CAVOK 20/06 Q1008 NOSIG",
      "taf": "TAF HEGN 240500Z 2406/2512 30010KT 9999 SCT025"
    },
    {
      "icao": "HEMA",
      "alert": "OK",
      "vis_m": 9999,
      "fzfg": false,
      "metar_trigger": false,
      "taf_trigger": false,
      "metar": "METAR HEMA 240600Z 31008KT 9999 FEW020 BKN090 22/09 Q1007 NOSIG",
      "taf": "TAF HEMA 240500Z 2406/2512 32010KT 9999 SCT025"
    },
    {
      "icao": "HESH",
      "alert": "OK",
      "vis_m": 9999,
      "fzfg": false,
      "metar_trigger": false,
      "taf_trigger": false,
      "metar": "METAR HESH 240600Z 36010KT CAVOK 22/09 Q1007 NOSIG",
      "taf": "TAF HESH 240500Z 2406/2512 36010KT 9999 SCT025"
    },
    {
      "icao": "HESX",
      "alert": "OK",
      "vis_m": 9999,
      "fzfg": false,
      "metar_trigger": false,
      "taf_trigger": false,
      "metar": "METAR HESX 240600Z 04005KT CAVOK 15/09 Q1009 NOSIG",
      "taf": "TAF HESX 240500Z 2406/2512 05008KT 9999 FEW030 SCT070"
    },
    {
      "icao": "LATI",
      "alert": "OK",
      "vis_m": 9999,
      "fzfg": false,
      "metar_trigger": false,
      "taf_trigger": false,
      "metar": "METAR LATI 240620Z VRB02KT CAVOK 07/06 Q1013 NOSIG",
      "taf": "TAF LATI 240500Z 2406/2506 VRB03KT CAVOK TX19/2412Z TN04/2505Z"
    },
    {
      "icao": "LBPD",
      "alert": "OK",
      "vis_m": 9999,
      "fzfg": false,
      "metar_trigger": false,
      "taf_trigger": false,
      "metar": "METAR LBPD 240630Z AUTO 30009KT 9999 -RA OVC030/// 07/07 Q1015 NOSIG",
      "taf": "TAF LBPD 240500Z 2406/2506 28010KT 9999 BKN030 BKN060"
    },
    {
      "icao": "LBSF",
      "alert": "OK",
      "vis_m": 9999,
      "fzfg": false,
      "metar_trigger": false,
      "taf_trigger": false,
      "metar": "METAR LBSF 240630Z 04004KT 340V070 9999 FEW014 SCT021 OVC031 05/03 Q1016 NOSIG",
      "taf": "TAF LBSF 240500Z 2406/2506 VRB03KT 9999 BKN025 BKN040"
    },
    {
      "icao": "LBWN",
      "alert": "OK",
      "vis_m": 9999,
      "fzfg": false,
      "metar_trigger": false,
      "taf_trigger": false,
      "metar": "METAR LBWN 240630Z 03008KT 350V060 9999 OVC049 10/03 Q1014 NOSIG",
      "taf": "TAF LBWN 240500Z 2406/2506 33010KT 9999 BKN045"
    },
    {
      "icao": "LCLK",
      "alert": "OK",
      "vis_m": 9999,
      "fzfg": false,
      "metar_trigger": false,
      "taf_trigger": false,
      "metar": "METAR LCLK 240630Z 07004KT 040V100 9999 FEW025 FEW030CB 17/13 Q1008 NOSIG RMK CB TO SE S",
      "taf": ""
    },
    {
      "icao": "LCPH",
      "alert": "OK",
      "vis_m": 9999,
      "fzfg": false,
      "metar_trigger": false,
      "taf_trigger": false,
      "metar": "METAR LCPH 240630Z 10005KT 090V160 9999 FEW030TCU SCT060 BKN080 14/11 Q1008 NOSIG",
      "taf": ""
    },
    {
      "icao": "LEAL",
      "alert": "OK",
      "vis_m": 9999,
      "fzfg": false,
      "metar_trigger": false,
      "taf_trigger": false,
      "metar": "METAR LEAL 240630Z 00000KT CAVOK 08/06 Q1023 NOSIG",
      "taf": "TAF LEAL 240500Z 2406/2506 32007KT CAVOK TX18/2412Z TN07/2506Z"
    },
    {
      "icao": "LEBB",
      "alert": "OK",
      "vis_m": 9999,
      "fzfg": false,
      "metar_trigger": false,
      "taf_trigger": false,
      "metar": "METAR LEBB 240630Z 11003KT 080V140 9999 FEW030 05/04 Q1023 NOSIG",
      "taf": "TAF LEBB 240500Z 2406/2506 10006KT 9000 FEW020 SCT030 TX20/2414Z TN06/2504Z"
    },
    {
      "icao": "LEBL",
      "alert": "OK",
      "vis_m": 8000,
      "fzfg": false,
      "metar_trigger": false,
      "taf_trigger": false,
      "metar": "METAR LEBL 240630Z 33009KT 8000 FEW045 09/08 Q1022 NOSIG",
      "taf": "TAF LEBL 240500Z 2406/2506 33006KT 9999 FEW020 TX18/2412Z TN09/2406Z"
    },
    {
      "icao": "LECH",
      "alert": "OK",
      "vis_m": 7000,
      "fzfg": false,
      "metar_trigger": false,
      "taf_trigger": false,
      "metar": "METAR LECH 240630Z AUTO 20003KT 7000 NSC 04/03 Q1023",
      "taf": "TAF LECH 240500Z 2406/2506 VRB04KT CAVOK TX19/2413Z TN05/2506Z"
    },
    {
      "icao": "LEMD",
      "alert": "OK",
      "vis_m": 9999,
      "fzfg": false,
      "metar_trigger": false,
      "taf_trigger": false,
      "metar": "METAR LEMD 240630Z VRB02KT CAVOK 02/02 Q1023 NOSIG",
      "taf": "TAF LEMD 240500Z 2406/2512 VRB04KT CAVOK TX18/2416Z TN02/2506Z"
    },
    {
      "icao": "LEMG",
      "alert": "OK",
      "vis_m": 9999,
      "fzfg": false,
      "metar_trigger": false,
      "taf_trigger": false,
      "metar": "METAR LEMG 240630Z 12010KT 090V150 9999 FEW018 SCT030 BKN045 15/11 Q1021 NOSIG",
      "taf": "TAF LEMG 240500Z 2406/2506 13009KT 9999 FEW020 SCT045 TX18/2413Z TN11/2406Z"
    },
    {
      "icao": "LEVC",
      "alert": "OK",
      "vis_m": 9999,
      "fzfg": false,
      "metar_trigger": false,
      "taf_trigger": false,
      "metar": "METAR LEVC 240630Z 28006KT 230V310 CAVOK 07/05 Q1024 NOSIG",
      "taf": "TAF LEVC 240500Z 2406/2506 VRB04KT CAVOK TX20/2412Z TN06/2506Z"
    },
    {
      "icao": "LEXJ",
      "alert": "OK",
      "vis_m": 4900,
      "fzfg": false,
      "metar_trigger": false,
      "taf_trigger": false,
      "metar": "METAR LEXJ 240630Z 19001KT 4900 BR FEW030 04/02 Q1022",
      "taf": "TAF LEXJ 240200Z 2403/2503 VRB03KT 7000 FEW025 TX19/2413Z TN03/2406Z"
    },
    {
      "icao": "LEZG",
      "alert": "OK",
      "vis_m": 9999,
      "fzfg": false,
      "metar_trigger": false,
      "taf_trigger": false,
      "metar": "METAR LEZG 240630Z 00000KT CAVOK 05/02 Q1023 NOSIG",
      "taf": "TAF LEZG 240500Z 2406/2506 30010KT CAVOK TX21/2414Z TN07/2506Z"
    },
    {
      "icao": "LEZL",
      "alert": "OK",
      "vis_m": 9999,
      "fzfg": false,
      "metar_trigger": false,
      "taf_trigger": false,
      "metar": "METAR LEZL 240630Z 04005KT CAVOK 10/10 Q1019 NOSIG",
      "taf": "TAF LEZL 240200Z 2403/2503 08009KT CAVOK TX23/2415Z TN12/2407Z"
    },
    {
      "icao": "LFBD",
      "alert": "OK",
      "vis_m": 8000,
      "fzfg": false,
      "metar_trigger": false,
      "taf_trigger": false,
      "metar": "METAR LFBD 240630Z AUTO 00000KT 8000 NSC 03/03 Q1023 NOSIG",
      "taf": "TAF LFBD 240500Z 2406/2512 VRB03KT CAVOK TX19/2415Z TN04/2406Z"
    },
    {
      "icao": "LFLL",
      "alert": "OK",
      "vis_m": 6000,
      "fzfg": false,
      "metar_trigger": false,
      "taf_trigger": false,
      "metar": "METAR LFLL 240630Z 15005KT 6000 NSC 05/03 Q1023 NOSIG",
      "taf": "TAF LFLL 240500Z 2406/2512 35006KT CAVOK"
    },
    {
      "icao": "LFLS",
      "alert": "OK",
      "vis_m": 9999,
      "fzfg": false,
      "metar_trigger": false,
      "taf_trigger": false,
      "metar": "METAR LFLS 240630Z AUTO 06005KT CAVOK 03/03 Q1022 NOSIG",
      "taf": "TAF LFLS 240200Z 2403/2503 08006KT CAVOK"
    },
    {
      "icao": "LFMN",
      "alert": "OK",
      "vis_m": 9999,
      "fzfg": false,
      "metar_trigger": false,
      "taf_trigger": false,
      "metar": "METAR LFMN 240630Z 34014KT CAVOK 10/01 Q1021 NOSIG",
      "taf": "TAF LFMN 240200Z 2403/2509 33010KT CAVOK"
    },
    {
      "icao": "LFOB",
      "alert": "OK",
      "vis_m": 1900,
      "fzfg": false,
      "metar_trigger": false,
      "taf_trigger": false,
      "metar": "METAR LFOB 240630Z AUTO 16002KT 1900 BR NSC 04/04 Q1021 BECMG 24011KT 8000 NSW",
      "taf": "TAF LFOB 240500Z 2406/2506 VRB03KT 8000 NSC"
    },
    {
      "icao": "LFPO",
      "alert": "OK",
      "vis_m": 9000,
      "fzfg": false,
      "metar_trigger": false,
      "taf_trigger": false,
      "metar": "METAR LFPO 240630Z 19003KT 9000 NSC 06/04 Q1022 NOSIG",
      "taf": "TAF LFPO 240500Z 2406/2512 23005KT CAVOK"
    },
    {
      "icao": "LFSB",
      "alert": "OK",
      "vis_m": 9999,
      "fzfg": false,
      "metar_trigger": false,
      "taf_trigger": false,
      "metar": "METAR LFSB 240630Z AUTO 18004KT CAVOK 03/01 Q1023 NOSIG",
      "taf": ""
    },
    {
      "icao": "LGAV",
      "alert": "OK",
      "vis_m": 9999,
      "fzfg": false,
      "metar_trigger": false,
      "taf_trigger": false,
      "metar": "METAR LGAV 240620Z 34007KT 9999 FEW020 SCT040 BKN070 12/06 Q1011 NOSIG",
      "taf": "TAF LGAV 240500Z 2406/2506 VRB05KT 9999 FEW025 SCT030 BKN070"
    },
    {
      "icao": "LGTS",
      "alert": "OK",
      "vis_m": 9999,
      "fzfg": false,
      "metar_trigger": false,
      "taf_trigger": false,
      "metar": "METAR LGTS 240620Z VRB02KT 9999 FEW015 SCT030 11/07 Q1013 NOSIG",
      "taf": "TAF LGTS 240500Z 2406/2506 34011KT 9999 BKN030"
    },
    {
      "icao": "LHBP",
      "alert": "OK",
      "vis_m": 9999,
      "fzfg": false,
      "metar_trigger": false,
      "taf_trigger": false,
      "metar": "METAR LHBP 240630Z VRB02KT CAVOK 09/02 Q1019 NOSIG",
      "taf": "TAF LHBP 240515Z 2406/2506 34009KT CAVOK"
    },
    {
      "icao": "LHDC",
      "alert": "OK",
      "vis_m": 7000,
      "fzfg": false,
      "metar_trigger": false,
      "taf_trigger": false,
      "metar": "METAR LHDC 240615Z AUTO 00000KT 7000 NSC 06/04 Q1019 NOSIG",
      "taf": "TAF LHDC 240515Z 2406/2415 VRB02KT CAVOK"
    },
    {
      "icao": "LIBD",
      "alert": "OK",
      "vis_m": 9999,
      "fzfg": false,
      "metar_trigger": false,
      "taf_trigger": false,
      "metar": "METAR LIBD 240620Z 27006KT 9999 FEW025 10/06 Q1015",
      "taf": "TAF LIBD 240500Z 2406/2506 28008KT 9999 SCT030"
    },
    {
      "icao": "LIBG",
      "alert": "OK",
      "vis_m": null,
      "fzfg": false,
      "metar_trigger": false,
      "taf_trigger": false,
      "metar": "",
      "taf": "TAF LIBG 232000Z 2321/2406 03008KT 9999 SCT025"
    },
    {
      "icao": "LIBP",
      "alert": "OK",
      "vis_m": 9999,
      "fzfg": false,
      "metar_trigger": false,
      "taf_trigger": false,
      "metar": "METAR LIBP 240620Z AUTO 23005KT 9999 FEW041/// 07/05 Q1018",
      "taf": "TAF LIBP 240500Z 2406/2506 27008KT 9999 SCT030"
    },
    {
      "icao": "LIBR",
      "alert": "OK",
      "vis_m": 9999,
      "fzfg": false,
      "metar_trigger": false,
      "taf_trigger": false,
      "metar": "METAR LIBR 240620Z 32018KT 9999 SCT025 12/10 Q1013",
      "taf": "TAF LIBR 240500Z 2406/2506 34016KT 9999 FEW040"
    },
    {
      "icao": "LICA",
      "alert": "OK",
      "vis_m": 9999,
      "fzfg": false,
      "metar_trigger": false,
      "taf_trigger": false,
      "metar": "METAR LICA 240620Z AUTO 08004KT 9999 NCD 06/05 Q1015",
      "taf": "TAF LICA 240500Z 2406/2506 VRB05KT 9999 BKN080"
    },
    {
      "icao": "LICC",
      "alert": "OK",
      "vis_m": 9999,
      "fzfg": false,
      "metar_trigger": false,
      "taf_trigger": false,
      "metar": "METAR LICC 240620Z 24006KT 9999 SCT100 07/05 Q1014",
      "taf": "TAF LICC 240500Z 2406/2506 VRB05KT 9999 FEW050"
    },
    {
      "icao": "LICJ",
      "alert": "OK",
      "vis_m": 9999,
      "fzfg": false,
      "metar_trigger": false,
      "taf_trigger": false,
      "metar": "METAR LICJ 240620Z 36005KT 9999 SCT030 14/09 Q1015",
      "taf": "TAF LICJ 240500Z 2406/2506 VRB05KT 9999 FEW020"
    },
    {
      "icao": "LIMC",
      "alert": "OK",
      "vis_m": 9999,
      "fzfg": false,
      "metar_trigger": false,
      "taf_trigger": false,
      "metar": "METAR LIMC 240620Z 36003KT CAVOK 04/01 Q1021 NOSIG",
      "taf": "TAF LIMC 240500Z 2406/2512 VRB05KT CAVOK"
    },
    {
      "icao": "LIME",
      "alert": "OK",
      "vis_m": 9999,
      "fzfg": false,
      "metar_trigger": false,
      "taf_trigger": false,
      "metar": "METAR LIME 240620Z 01005KT CAVOK 07/01 Q1021 NOSIG",
      "taf": "TAF LIME 240500Z 2406/2506 VRB05KT 9999 FEW090"
    },
    {
      "icao": "LIMF",
      "alert": "OK",
      "vis_m": 9999,
      "fzfg": false,
      "metar_trigger": false,
      "taf_trigger": false,
      "metar": "METAR LIMF 240620Z 35003KT CAVOK 05/M01 Q1021",
      "taf": "TAF LIMF 240500Z 2406/2506 VRB05KT CAVOK"
    },
    {
      "icao": "LIMJ",
      "alert": "OK",
      "vis_m": 9999,
      "fzfg": false,
      "metar_trigger": false,
      "taf_trigger": false,
      "metar": "METAR LIMJ 240620Z VRB02KT CAVOK 13/M00 Q1020",
      "taf": "TAF LIMJ 240500Z 2406/2506 04010KT CAVOK"
    },
    {
      "icao": "LIPE",
      "alert": "OK",
      "vis_m": 9999,
      "fzfg": false,
      "metar_trigger": false,
      "taf_trigger": false,
      "metar": "METAR LIPE 240620Z 22004KT CAVOK 05/02 Q1021",
      "taf": "TAF LIPE 240500Z 2406/2506 VRB05KT 9999 SCT050"
    },
    {
      "icao": "LIPH",
      "alert": "OK",
      "vis_m": 9999,
      "fzfg": false,
      "metar_trigger": false,
      "taf_trigger": false,
      "metar": "METAR LIPH 240620Z 34003KT CAVOK 10/02 Q1020",
      "taf": "TAF LIPH 240500Z 2406/2506 VRB05KT CAVOK"
    },
    {
      "icao": "LIPQ",
      "alert": "OK",
      "vis_m": 9999,
      "fzfg": false,
      "metar_trigger": false,
      "taf_trigger": false,
      "metar": "METAR LIPQ 240620Z AUTO VRB01KT 9999 NCD 05/04 Q1020",
      "taf": "TAF LIPQ 240500Z 2406/2506 04005KT 9999 FEW060"
    },
    {
      "icao": "LIPR",
      "alert": "OK",
      "vis_m": 9999,
      "fzfg": false,
      "metar_trigger": false,
      "taf_trigger": false,
      "metar": "METAR LIPR 240620Z 31007KT CAVOK 08/03 Q1020",
      "taf": "TAF LIPR 240500Z 2406/2506 VRB06KT 9999 SCT050"
    },
    {
      "icao": "LIPX",
      "alert": "OK",
      "vis_m": 9999,
      "fzfg": false,
      "metar_trigger": false,
      "taf_trigger": false,
      "metar": "METAR LIPX 240620Z 33007KT CAVOK 09/01 Q1021",
      "taf": "TAF LIPX 240500Z 2406/2506 VRB05KT 9999 FEW090"
    },
    {
      "icao": "LIPY",
      "alert": "OK",
      "vis_m": 9999,
      "fzfg": false,
      "metar_trigger": false,
      "taf_trigger": false,
      "metar": "METAR LIPY 240620Z AUTO VRB02KT 9999 NCD 07/06 Q1019",
      "taf": "TAF LIPY 240500Z 2406/2506 25007KT 9999 SCT040"
    },
    {
      "icao": "LIPZ",
      "alert": "OK",
      "vis_m": 9999,
      "fzfg": false,
      "metar_trigger": false,
      "taf_trigger": false,
      "metar": "METAR LIPZ 240620Z 36006KT CAVOK 09/02 Q1020 NOSIG",
      "taf": "TAF LIPZ 240500Z 2406/2512 03006KT CAVOK"
    },
    {
      "icao": "LIRF",
      "alert": "OK",
      "vis_m": 9999,
      "fzfg": false,
      "metar_trigger": false,
      "taf_trigger": false,
      "metar": "METAR LIRF 240620Z 03003KT CAVOK 07/04 Q1017 NOSIG",
      "taf": "TAF LIRF 240500Z 2406/2512 03010KT CAVOK"
    },
    {
      "icao": "LIRN",
      "alert": "OK",
      "vis_m": 9999,
      "fzfg": false,
      "metar_trigger": false,
      "taf_trigger": false,
      "metar": "METAR LIRN 240620Z 02003KT 350V050 CAVOK 10/04 Q1016 NOSIG",
      "taf": "TAF LIRN 240500Z 2406/2506 03008KT 9999 SCT070"
    },
    {
      "icao": "LIRP",
      "alert": "OK",
      "vis_m": 9999,
      "fzfg": false,
      "metar_trigger": false,
      "taf_trigger": false,
      "metar": "METAR LIRP 240615Z 10005KT CAVOK 03/M01 Q1020 NOSIG",
      "taf": "TAF LIRP 240500Z 2406/2506 VRB03KT CAVOK"
    },
    {
      "icao": "LIRZ",
      "alert": "OK",
      "vis_m": 9999,
      "fzfg": false,
      "metar_trigger": false,
      "taf_trigger": false,
      "metar": "METAR LIRZ 240620Z AUTO 35003KT 9999 FEW034/// 04/02 Q1019",
      "taf": "TAF LIRZ 240500Z 2406/2506 VRB05KT CAVOK"
    },
    {
      "icao": "LJLJ",
      "alert": "OK",
      "vis_m": 9999,
      "fzfg": false,
      "metar_trigger": false,
      "taf_trigger": false,
      "metar": "METAR LJLJ 240630Z 00000KT 9999 FEW060 02/01 Q1021 NOSIG",
      "taf": "TAF LJLJ 240500Z 2406/2506 29003KT 9999 FEW060"
    },
    {
      "icao": "LKMT",
      "alert": "OK",
      "vis_m": 9999,
      "fzfg": false,
      "metar_trigger": false,
      "taf_trigger": false,
      "metar": "METAR LKMT 240630Z 20004KT CAVOK 04/01 Q1020 NOSIG",
      "taf": "TAF LKMT 240500Z 2406/2506 22003KT CAVOK"
    },
    {
      "icao": "LKPR",
      "alert": "OK",
      "vis_m": 9999,
      "fzfg": false,
      "metar_trigger": false,
      "taf_trigger": false,
      "metar": "METAR LKPR 240630Z 19008KT CAVOK 04/M00 Q1020 NOSIG",
      "taf": "TAF LKPR 240500Z 2406/2512 24005KT CAVOK"
    },
    {
      "icao": "LLBG",
      "alert": "OK",
      "vis_m": 9999,
      "fzfg": false,
      "metar_trigger": false,
      "taf_trigger": false,
      "metar": "METAR LLBG 240620Z VRB02KT CAVOK 15/07 Q1009 NOSIG",
      "taf": "TAF LLBG 240501Z 2406/2506 VRB03KT 9999 FEW035 TX18/2411Z TN09/2504Z"
    },
    {
      "icao": "LMML",
      "alert": "OK",
      "vis_m": 9999,
      "fzfg": false,
      "metar_trigger": false,
      "taf_trigger": false,
      "metar": "METAR LMML 240615Z 31004KT 9999 FEW020TCU 12/10 Q1014 NOSIG",
      "taf": "TAF LMML 240500Z 2406/2506 35010KT 9999 SCT018"
    },
    {
      "icao": "LOWW",
      "alert": "OK",
      "vis_m": 9999,
      "fzfg": false,
      "metar_trigger": false,
      "taf_trigger": false,
      "metar": "METAR LOWW 240620Z 32005KT CAVOK 08/01 Q1021 BECMG 32010KT",
      "taf": "TAF LOWW 240515Z 2406/2512 VRB04KT 9999 FEW050 TX18/2512Z TN04/2504Z"
    },
    {
      "icao": "LPFR",
      "alert": "OK",
      "vis_m": 9999,
      "fzfg": false,
      "metar_trigger": false,
      "taf_trigger": false,
      "metar": "METAR LPFR 240630Z 08009KT CAVOK 15/11 Q1018",
      "taf": "TAF LPFR 240500Z 2406/2506 06007KT CAVOK"
    },
    {
      "icao": "LPMA",
      "alert": "OK",
      "vis_m": 9999,
      "fzfg": false,
      "metar_trigger": false,
      "taf_trigger": false,
      "metar": "METAR LPMA 240630Z 02015KT 9999 BKN013 17/12 Q1015",
      "taf": "TAF LPMA 240500Z 2406/2506 03015KT 9999 SCT015"
    },
    {
      "icao": "LPPR",
      "alert": "OK",
      "vis_m": 9999,
      "fzfg": false,
      "metar_trigger": false,
      "taf_trigger": false,
      "metar": "METAR LPPR 240630Z 10008KT 060V130 CAVOK 14/04 Q1019",
      "taf": "TAF LPPR 240500Z 2406/2506 11010KT CAVOK"
    },
    {
      "icao": "LPPS",
      "alert": "OK",
      "vis_m": 9999,
      "fzfg": false,
      "metar_trigger": false,
      "taf_trigger": false,
      "metar": "METAR LPPS 240630Z 05017KT 030V090 9999 BKN012 16/12 Q1015",
      "taf": "TAF LPPS 240500Z 2406/2512 06015KT 9999 SCT012"
    },
    {
      "icao": "LPPT",
      "alert": "OK",
      "vis_m": 9999,
      "fzfg": false,
      "metar_trigger": false,
      "taf_trigger": false,
      "metar": "METAR LPPT 240630Z 04007KT CAVOK 13/05 Q1018",
      "taf": "TAF LPPT 240500Z 2406/2512 03007KT CAVOK"
    },
    {
      "icao": "LQBK",
      "alert": "OK",
      "vis_m": 9999,
      "fzfg": false,
      "metar_trigger": false,
      "taf_trigger": false,
      "metar": "METAR LQBK 240630Z 14004KT CAVOK 08/04 Q1020 NOSIG",
      "taf": "TAF LQBK 240500Z 2406/2506 32005KT CAVOK TX17/2414Z TN05/2505Z"
    },
    {
      "icao": "LQSA",
      "alert": "OK",
      "vis_m": 9999,
      "fzfg": false,
      "metar_trigger": false,
      "taf_trigger": false,
      "metar": "METAR LQSA 240630Z 00000KT 9999 FEW035 BKN050 05/04 Q1018 NOSIG",
      "taf": "TAF LQSA 240500Z 2406/2506 28005KT 9999 BKN055 TX13/2413Z TN02/2505Z"
    },
    {
      "icao": "LQTZ",
      "alert": "OK",
      "vis_m": 4000,
      "fzfg": false,
      "metar_trigger": false,
      "taf_trigger": false,
      "metar": "METAR LQTZ 240630Z 00000KT 4000 BR BKN063 06/06 Q1019",
      "taf": "TAF LQTZ 240500Z 2406/2506 VRB02KT 9999 SCT050 TX15/2414Z TN02/2505Z"
    },
    {
      "icao": "LRBC",
      "alert": "OK",
      "vis_m": 9999,
      "fzfg": false,
      "metar_trigger": false,
      "taf_trigger": false,
      "metar": "METAR LRBC 240630Z 03003KT CAVOK 06/01 Q1018",
      "taf": "TAF LRBC 240500Z 2406/2415 35006KT CAVOK"
    },
    {
      "icao": "LRBS",
      "alert": "OK",
      "vis_m": 9999,
      "fzfg": false,
      "metar_trigger": false,
      "taf_trigger": false,
      "metar": "METAR LRBS 240630Z 36005KT 310V040 CAVOK 10/02 Q1016 NOSIG",
      "taf": "TAF LRBS 240500Z 2406/2506 35006KT CAVOK"
    },
    {
      "icao": "LRBV",
      "alert": "OK",
      "vis_m": 9999,
      "fzfg": false,
      "metar_trigger": false,
      "taf_trigger": false,
      "metar": "METAR LRBV 240630Z VRB03KT CAVOK 06/02 Q1017",
      "taf": "TAF LRBV 240500Z 2406/2415 VRB04KT CAVOK"
    },
    {
      "icao": "LRCL",
      "alert": "OK",
      "vis_m": 9999,
      "fzfg": false,
      "metar_trigger": false,
      "taf_trigger": false,
      "metar": "METAR LRCL 240630Z 28003KT 260V350 9999 FEW071 08/M00 Q1018",
      "taf": "TAF LRCL 240500Z 2406/2415 28005KT CAVOK"
    },
    {
      "icao": "LRCV",
      "alert": "OK",
      "vis_m": 9999,
      "fzfg": false,
      "metar_trigger": false,
      "taf_trigger": false,
      "metar": "METAR LRCV 240630Z 32006KT CAVOK 08/06 Q1017",
      "taf": "TAF LRCV 240500Z 2406/2415 33008KT CAVOK"
    },
    {
      "icao": "LRIA",
      "alert": "OK",
      "vis_m": 9999,
      "fzfg": false,
      "metar_trigger": false,
      "taf_trigger": false,
      "metar": "METAR LRIA 240630Z 27003KT 230V310 CAVOK 06/00 Q1018",
      "taf": "TAF LRIA 240500Z 2406/2415 32006KT CAVOK"
    },
    {
      "icao": "LROP",
      "alert": "OK",
      "vis_m": 9999,
      "fzfg": false,
      "metar_trigger": false,
      "taf_trigger": false,
      "metar": "METAR LROP 240630Z 03005KT CAVOK 10/01 Q1016 NOSIG",
      "taf": "TAF LROP 240500Z 2406/2506 35006KT CAVOK"
    },
    {
      "icao": "LRSB",
      "alert": "OK",
      "vis_m": 9999,
      "fzfg": false,
      "metar_trigger": false,
      "taf_trigger": false,
      "metar": "METAR LRSB 240630Z VRB01KT 9999 FEW063 08/04 Q1017",
      "taf": "TAF LRSB 240500Z 2406/2506 VRB04KT 9999 BKN065"
    },
    {
      "icao": "LRSM",
      "alert": "OK",
      "vis_m": 9999,
      "fzfg": false,
      "metar_trigger": false,
      "taf_trigger": false,
      "metar": "METAR LRSM 240630Z 22005KT CAVOK 05/M00 Q1018",
      "taf": "TAF LRSM 240500Z 2406/2415 VRB04KT CAVOK"
    },
    {
      "icao": "LRSV",
      "alert": "OK",
      "vis_m": 9999,
      "fzfg": false,
      "metar_trigger": false,
      "taf_trigger": false,
      "metar": "METAR LRSV 240630Z 32002KT CAVOK 09/01 Q1017",
      "taf": "TAF LRSV 240500Z 2406/2415 02006KT CAVOK"
    },
    {
      "icao": "LRTM",
      "alert": "OK",
      "vis_m": 9999,
      "fzfg": false,
      "metar_trigger": false,
      "taf_trigger": false,
      "metar": "METAR LRTM 240630Z VRB02KT CAVOK 08/01 Q1018",
      "taf": "TAF LRTM 240500Z 2406/2415 VRB04KT CAVOK"
    },
    {
      "icao": "LRTR",
      "alert": "OK",
      "vis_m": 9999,
      "fzfg": false,
      "metar_trigger": false,
      "taf_trigger": false,
      "metar": "METAR LRTR 240630Z 15004KT CAVOK 08/04 Q1019 NOSIG",
      "taf": "TAF LRTR 240500Z 2406/2506 11007KT CAVOK"
    },
    {
      "icao": "LTAC",
      "alert": "OK",
      "vis_m": 4800,
      "fzfg": false,
      "metar_trigger": false,
      "taf_trigger": false,
      "metar": "METAR LTAC 240620Z VRB02KT 4800 BR SCT010 BKN025 BKN080 07/06 Q1009 NOSIG RMK RWY21C VRB01KT RWY03L VRB02KT RWY21R VRB01KT RWY03R 00000KT RWY21L 00000KT",
      "taf": ""
    },
    {
      "icao": "LTFM",
      "alert": "OK",
      "vis_m": 7000,
      "fzfg": false,
      "metar_trigger": false,
      "taf_trigger": false,
      "metar": "METAR LTFM 240620Z 35011KT 280V020 7000 BKN008 BKN020 08/06 Q1012 NOSIG RMK RWY17L 01007KT RWY34L 35008KT RWY16R 36006KT RWY36 01010KT RWY18 01008KT",
      "taf": ""
    },
    {
      "icao": "LUKK",
      "alert": "OK",
      "vis_m": 9999,
      "fzfg": false,
      "metar_trigger": false,
      "taf_trigger": false,
      "metar": "METAR LUKK 240630Z 01008KT 340V040 CAVOK 08/M00 Q1017 NOSIG",
      "taf": "TAF LUKK 240504Z 2406/2506 01009KT CAVOK"
    },
    {
      "icao": "LWOH",
      "alert": "OK",
      "vis_m": 9999,
      "fzfg": false,
      "metar_trigger": false,
      "taf_trigger": false,
      "metar": "METAR LWOH 240620Z 34005KT 290V010 9999 FEW040 07/01 Q1013",
      "taf": "TAF LWOH 240535Z 2406/2506 32006KT 9999 SCT040"
    },
    {
      "icao": "LWSK",
      "alert": "OK",
      "vis_m": 9999,
      "fzfg": false,
      "metar_trigger": false,
      "taf_trigger": false,
      "metar": "METAR LWSK 240620Z VRB02KT 9999 BKN042 08/03 Q1016 NOSIG",
      "taf": "TAF LWSK 240535Z 2406/2506 01008KT 9999 SCT050"
    },
    {
      "icao": "LYBE",
      "alert": "OK",
      "vis_m": 9999,
      "fzfg": false,
      "metar_trigger": false,
      "taf_trigger": false,
      "metar": "METAR LYBE 240630Z VRB04KT CAVOK 09/04 Q1019 NOSIG",
      "taf": "TAF LYBE 240500Z 2406/2506 24005KT 9999 SCT045 TX17/2413Z TN05/2505Z"
    },
    {
      "icao": "LYNI",
      "alert": "OK",
      "vis_m": 9999,
      "fzfg": false,
      "metar_trigger": false,
      "taf_trigger": false,
      "metar": "METAR LYNI 240630Z 34009KT 9999 FEW027 SCT083 08/04 Q1017 NOSIG",
      "taf": "TAF LYNI 240500Z 2406/2506 34011KT 9999 SCT040 BKN070 TX14/2413Z TN04/2505Z"
    },
    {
      "icao": "LYPG",
      "alert": "OK",
      "vis_m": 9999,
      "fzfg": false,
      "metar_trigger": false,
      "taf_trigger": false,
      "metar": "METAR LYPG 240630Z 10003KT 040V150 9999 FEW050 13/02 Q1014 NOSIG",
      "taf": "TAF LYPG 240500Z 2406/2506 36008KT 9999 FEW040 TX19/2413Z TN07/2504Z"
    },
    {
      "icao": "LZIB",
      "alert": "OK",
      "vis_m": 9999,
      "fzfg": false,
      "metar_trigger": false,
      "taf_trigger": false,
      "metar": "METAR LZIB 240630Z 29008KT CAVOK 11/01 Q1020 NOSIG",
      "taf": "TAF LZIB 240517Z 2406/2506 30007KT CAVOK"
    },
    {
      "icao": "LZKZ",
      "alert": "OK",
      "vis_m": 9999,
      "fzfg": false,
      "metar_trigger": false,
      "taf_trigger": false,
      "metar": "METAR LZKZ 240630Z 00000KT CAVOK 05/01 Q1019 NOSIG",
      "taf": "TAF LZKZ 240517Z 2406/2506 35006KT CAVOK"
    },
    {
      "icao": "LZTT",
      "alert": "OK",
      "vis_m": 9999,
      "fzfg": false,
      "metar_trigger": false,
      "taf_trigger": false,
      "metar": "METAR LZTT 240630Z 28007KT 9999 SCT063 04/M02 Q1019 NOSIG",
      "taf": "TAF LZTT 240517Z 2406/2506 29010KT 9999 SCT050"
    },
    {
      "icao": "OEJN",
      "alert": "OK",
      "vis_m": 9999,
      "fzfg": false,
      "metar_trigger": false,
      "taf_trigger": false,
      "metar": "METAR OEJN 240600Z 22008KT 9999 FEW030CB BKN040 28/21 Q1007 NOSIG",
      "taf": "TAF OEJN 240500Z 2406/2512 26012KT 7000 FEW040"
    },
    {
      "icao": "OEMA",
      "alert": "OK",
      "vis_m": 9000,
      "fzfg": false,
      "metar_trigger": false,
      "taf_trigger": false,
      "metar": "METAR OEMA 240600Z VRB03KT 9000 NSC 24/10 Q1010 NOSIG",
      "taf": "TAF OEMA 240500Z 2406/2512 27015KT 7000 SCT040"
    },
    {
      "icao": "OJAI",
      "alert": "OK",
      "vis_m": 3000,
      "fzfg": false,
      "metar_trigger": false,
      "taf_trigger": false,
      "metar": "METAR OJAI 240600Z 21003KT 3000 HZ NSC 09/03 Q1009 NOSIG",
      "taf": "TAF OJAI 240456Z 2406/2512 VRB02KT 2000 BR FEW030"
    },
    {
      "icao": "OMAA",
      "alert": "OK",
      "vis_m": null,
      "fzfg": false,
      "metar_trigger": false,
      "taf_trigger": false,
      "metar": "",
      "taf": ""
    },
    {
      "icao": "OMDB",
      "alert": "OK",
      "vis_m": null,
      "fzfg": false,
      "metar_trigger": false,
      "taf_trigger": false,
      "metar": "",
      "taf": ""
    },
    {
      "icao": "UAAA",
      "alert": "OK",
      "vis_m": 9999,
      "fzfg": false,
      "metar_trigger": false,
      "taf_trigger": false,
      "metar": "METAR UAAA 240630Z 25005MPS 220V290 9999 SCT046CB BKN100 13/02 Q1024 NOSIG",
      "taf": "TAF UAAA 240506Z 2406/2506 28003G08MPS 9999 BKN040CB OVC100 TX15/2409Z TN03/2501Z"
    },
    {
      "icao": "UBBB",
      "alert": "OK",
      "vis_m": 9999,
      "fzfg": false,
      "metar_trigger": false,
      "taf_trigger": false,
      "metar": "METAR UBBB 240630Z 30008KT 280V340 9999 FEW060CB 11/08 Q1011 NOSIG",
      "taf": "TAF UBBB 240458Z 2406/2506 31014KT 9999 SCT012 SCT020 TX15/2410Z TN07/2500Z"
    },
    {
      "icao": "UDSG",
      "alert": "OK",
      "vis_m": 9999,
      "fzfg": false,
      "metar_trigger": false,
      "taf_trigger": false,
      "metar": "METAR UDSG 240630Z 23003KT 190V260 9999 FEW049 04/M00 Q1014 NOSIG",
      "taf": "TAF UDSG 240458Z 2406/2506 36006KT 9999 SCT040"
    },
    {
      "icao": "UDYZ",
      "alert": "OK",
      "vis_m": 9999,
      "fzfg": false,
      "metar_trigger": false,
      "taf_trigger": false,
      "metar": "METAR UDYZ 240630Z VRB02KT 9999 NSC 10/03 Q1012 NOSIG",
      "taf": "TAF UDYZ 240500Z 2406/2506 16006KT 9999 FEW040"
    },
    {
      "icao": "UGKO",
      "alert": "OK",
      "vis_m": 9999,
      "fzfg": false,
      "metar_trigger": false,
      "taf_trigger": false,
      "metar": "METAR UGKO 240630Z VRB02KT 9999 SCT011 13/08 Q1010 NOSIG",
      "taf": "TAF UGKO 240500Z 2406/2506 VRB02KT 9999 SCT023 BKN060 TX19/2411Z TN08/2503Z"
    }
  ]
}